<?xml version='1.0' encoding='UTF-8'?>
<kml xmlns:xsd="http://www.w3.org/2001/XMLSchema" xmlns:gx="http://www.google.com/kml/ext/2.2" xmlns:atom="http://www.w3.org/2005/Atom" xmlns="http://www.opengis.net/kml/2.2">
<Document>
<name>aracai_3103207_localidades_2022</name>
<visibility>1</visibility>
<Schema name="Povoados" id="kml_schema_ft_Povoados">
<SimpleField type="xsd:string" name="CD_UF">
<displayName>CD_UF</displayName>
</SimpleField>
<SimpleField type="xsd:string" name="NM_UF">
<displayName>NM_UF</displayName>
</SimpleField>
<SimpleField type="xsd:string" name="SIGLA_UF">
<displayName>SIGLA_UF</displayName>
</SimpleField>
<SimpleField type="xsd:string" name="CD_MUN">
<displayName>CD_MUN</displayName>
</SimpleField>
<SimpleField type="xsd:string" name="NM_MUN">
<displayName>NM_MUN</displayName>
</SimpleField>
<SimpleField type="xsd:string" name="CD_RGINT">
<displayName>CD_RGINT</displayName>
</SimpleField>
<SimpleField type="xsd:string" name="NM_RGINT">
<displayName>NM_RGINT</displayName>
</SimpleField>
<SimpleField type="xsd:string" name="CD_RGI">
<displayName>CD_RGI</displayName>
</SimpleField>
<SimpleField type="xsd:string" name="NM_RGI">
<displayName>NM_RGI</displayName>
</SimpleField>
<SimpleField type="xsd:string" name="CT_LOCALIDADE">
<displayName>CT_LOCALIDADE</displayName>
</SimpleField>
<SimpleField type="xsd:string" name="CD_LOCALIDADE">
<displayName>CD_LOCALIDADE</displayName>
</SimpleField>
<SimpleField type="xsd:string" name="NM_LOCALIDADE">
<displayName>NM_LOCALIDADE</displayName>
</SimpleField>
<SimpleField type="xsd:string" name="LAT_LOCALIDADE">
<displayName>LAT_LOCALIDADE</displayName>
</SimpleField>
<SimpleField type="xsd:string" name="LONG_LOCALIDADE">
<displayName>LONG_LOCALIDADE</displayName>
</SimpleField>
</Schema>
<Schema name="Lugarejos" id="kml_schema_ft_Lugarejos">
<SimpleField type="xsd:string" name="CD_UF">
<displayName>CD_UF</displayName>
</SimpleField>
<SimpleField type="xsd:string" name="NM_UF">
<displayName>NM_UF</displayName>
</SimpleField>
<SimpleField type="xsd:string" name="SIGLA_UF">
<displayName>SIGLA_UF</displayName>
</SimpleField>
<SimpleField type="xsd:string" name="CD_MUN">
<displayName>CD_MUN</displayName>
</SimpleField>
<SimpleField type="xsd:string" name="NM_MUN">
<displayName>NM_MUN</displayName>
</SimpleField>
<SimpleField type="xsd:string" name="CD_RGINT">
<displayName>CD_RGINT</displayName>
</SimpleField>
<SimpleField type="xsd:string" name="NM_RGINT">
<displayName>NM_RGINT</displayName>
</SimpleField>
<SimpleField type="xsd:string" name="CD_RGI">
<displayName>CD_RGI</displayName>
</SimpleField>
<SimpleField type="xsd:string" name="NM_RGI">
<displayName>NM_RGI</displayName>
</SimpleField>
<SimpleField type="xsd:string" name="CT_LOCALIDADE">
<displayName>CT_LOCALIDADE</displayName>
</SimpleField>
<SimpleField type="xsd:string" name="CD_LOCALIDADE">
<displayName>CD_LOCALIDADE</displayName>
</SimpleField>
<SimpleField type="xsd:string" name="NM_LOCALIDADE">
<displayName>NM_LOCALIDADE</displayName>
</SimpleField>
<SimpleField type="xsd:string" name="LAT_LOCALIDADE">
<displayName>LAT_LOCALIDADE</displayName>
</SimpleField>
<SimpleField type="xsd:string" name="LONG_LOCALIDADE">
<displayName>LONG_LOCALIDADE</displayName>
</SimpleField>
</Schema>
<Schema name="Localidades" id="kml_schema_ft_Localidades">
<SimpleField type="xsd:string" name="CD_UF">
<displayName>CD_UF</displayName>
</SimpleField>
<SimpleField type="xsd:string" name="NM_UF">
<displayName>NM_UF</displayName>
</SimpleField>
<SimpleField type="xsd:string" name="SIGLA_UF">
<displayName>SIGLA_UF</displayName>
</SimpleField>
<SimpleField type="xsd:string" name="CD_MUN">
<displayName>CD_MUN</displayName>
</SimpleField>
<SimpleField type="xsd:string" name="NM_MUN">
<displayName>NM_MUN</displayName>
</SimpleField>
<SimpleField type="xsd:string" name="CD_RGINT">
<displayName>CD_RGINT</displayName>
</SimpleField>
<SimpleField type="xsd:string" name="NM_RGINT">
<displayName>NM_RGINT</displayName>
</SimpleField>
<SimpleField type="xsd:string" name="CD_RGI">
<displayName>CD_RGI</displayName>
</SimpleField>
<SimpleField type="xsd:string" name="NM_RGI">
<displayName>NM_RGI</displayName>
</SimpleField>
<SimpleField type="xsd:string" name="CT_LOCALIDADE">
<displayName>CT_LOCALIDADE</displayName>
</SimpleField>
<SimpleField type="xsd:string" name="SCT_LOCALIDADE">
<displayName>SCT_LOCALIDADE</displayName>
</SimpleField>
<SimpleField type="xsd:string" name="CD_LOCALIDADE">
<displayName>CD_LOCALIDADE</displayName>
</SimpleField>
<SimpleField type="xsd:string" name="NM_LOCALIDADE">
<displayName>NM_LOCALIDADE</displayName>
</SimpleField>
</Schema>
<Schema name="01. Cidade" id="kml_schema_ft_01._Cidade">
<SimpleField type="xsd:string" name="CD_UF">
<displayName>CD_UF</displayName>
</SimpleField>
<SimpleField type="xsd:string" name="NM_UF">
<displayName>NM_UF</displayName>
</SimpleField>
<SimpleField type="xsd:string" name="SIGLA_UF">
<displayName>SIGLA_UF</displayName>
</SimpleField>
<SimpleField type="xsd:string" name="CD_MUN">
<displayName>CD_MUN</displayName>
</SimpleField>
<SimpleField type="xsd:string" name="NM_MUN">
<displayName>NM_MUN</displayName>
</SimpleField>
<SimpleField type="xsd:string" name="CD_RGINT">
<displayName>CD_RGINT</displayName>
</SimpleField>
<SimpleField type="xsd:string" name="NM_RGINT">
<displayName>NM_RGINT</displayName>
</SimpleField>
<SimpleField type="xsd:string" name="CD_RGI">
<displayName>CD_RGI</displayName>
</SimpleField>
<SimpleField type="xsd:string" name="NM_RGI">
<displayName>NM_RGI</displayName>
</SimpleField>
<SimpleField type="xsd:string" name="CT_LOCALIDADE">
<displayName>CT_LOCALIDADE</displayName>
</SimpleField>
<SimpleField type="xsd:string" name="SCT_LOCALIDADE">
<displayName>SCT_LOCALIDADE</displayName>
</SimpleField>
<SimpleField type="xsd:string" name="CD_LOCALIDADE">
<displayName>CD_LOCALIDADE</displayName>
</SimpleField>
<SimpleField type="xsd:string" name="NM_LOCALIDADE">
<displayName>NM_LOCALIDADE</displayName>
</SimpleField>
<SimpleField type="xsd:string" name="LAT_LOCALIDADE">
<displayName>LAT_LOCALIDADE</displayName>
</SimpleField>
<SimpleField type="xsd:string" name="LONG_LOCALIDADE">
<displayName>LONG_LOCALIDADE</displayName>
</SimpleField>
</Schema>
<Schema name="Município" id="kml_schema_ft_Município">
<SimpleField type="xsd:string" name="CD_UF">
<displayName>CD_UF</displayName>
</SimpleField>
<SimpleField type="xsd:string" name="NM_UF">
<displayName>NM_UF</displayName>
</SimpleField>
<SimpleField type="xsd:string" name="CD_MUN">
<displayName>CD_MUN</displayName>
</SimpleField>
<SimpleField type="xsd:string" name="NM_MUN">
<displayName>NM_MUN</displayName>
</SimpleField>
<SimpleField type="xsd:string" name="CD_RGINT">
<displayName>CD_RGINT</displayName>
</SimpleField>
<SimpleField type="xsd:string" name="NM_RGINT">
<displayName>NM_RGINT</displayName>
</SimpleField>
<SimpleField type="xsd:string" name="CD_RGI">
<displayName>CD_RGI</displayName>
</SimpleField>
<SimpleField type="xsd:string" name="NM_RGI">
<displayName>NM_RGI</displayName>
</SimpleField>
</Schema>
<Folder id="01. Cidade">
<name>01. Cidade</name>
<Folder id="01.03. Sede Municipal">
<name>01.03. Sede Municipal</name>
<Placemark id="01.03. Sede Municipal">
<name>Araçaí [3103207]</name>
<visibility>1</visibility>
<snippet> </snippet>
<description>&lt;center&gt;&lt;table&gt;&lt;tr&gt;&lt;th colspan='2' align='center'&gt;&lt;em&gt;Atributos&lt;/em&gt;&lt;/th&gt;&lt;/tr&gt;&lt;tr bgcolor="#E3E3F3"&gt;
&lt;th&gt;CD_UF&lt;/th&gt;
&lt;td&gt;31&lt;/td&gt;
&lt;/tr&gt;&lt;tr bgcolor=""&gt;
&lt;th&gt;NM_UF&lt;/th&gt;
&lt;td&gt;Minas Gerais&lt;/td&gt;
&lt;/tr&gt;&lt;tr bgcolor="#E3E3F3"&gt;
&lt;th&gt;SIGLA_UF&lt;/th&gt;
&lt;td&gt;MG&lt;/td&gt;
&lt;/tr&gt;&lt;tr bgcolor=""&gt;
&lt;th&gt;CD_MUN&lt;/th&gt;
&lt;td&gt;3103207&lt;/td&gt;
&lt;/tr&gt;&lt;tr bgcolor="#E3E3F3"&gt;
&lt;th&gt;NM_MUN&lt;/th&gt;
&lt;td&gt;Araçaí&lt;/td&gt;
&lt;/tr&gt;&lt;tr bgcolor=""&gt;
&lt;th&gt;CD_RGINT&lt;/th&gt;
&lt;td&gt;3101&lt;/td&gt;
&lt;/tr&gt;&lt;tr bgcolor="#E3E3F3"&gt;
&lt;th&gt;NM_RGINT&lt;/th&gt;
&lt;td&gt;Belo Horizonte&lt;/td&gt;
&lt;/tr&gt;&lt;tr bgcolor=""&gt;
&lt;th&gt;CD_RGI&lt;/th&gt;
&lt;td&gt;310002&lt;/td&gt;
&lt;/tr&gt;&lt;tr bgcolor="#E3E3F3"&gt;
&lt;th&gt;NM_RGI&lt;/th&gt;
&lt;td&gt;Sete Lagoas&lt;/td&gt;
&lt;/tr&gt;&lt;tr bgcolor=""&gt;
&lt;th&gt;CT_LOCALIDADE&lt;/th&gt;
&lt;td&gt;Cidade&lt;/td&gt;
&lt;/tr&gt;&lt;tr bgcolor="#E3E3F3"&gt;
&lt;th&gt;SCT_LOCALIDADE&lt;/th&gt;
&lt;td&gt;Sede Municipal&lt;/td&gt;
&lt;/tr&gt;&lt;tr bgcolor=""&gt;
&lt;th&gt;CD_LOCALIDADE&lt;/th&gt;
&lt;td&gt;3103207&lt;/td&gt;
&lt;/tr&gt;&lt;tr bgcolor="#E3E3F3"&gt;
&lt;th&gt;NM_LOCALIDADE&lt;/th&gt;
&lt;td&gt;Araçaí&lt;/td&gt;
&lt;/tr&gt;&lt;tr bgcolor=""&gt;
&lt;th&gt;LAT_LOCALIDADE&lt;/th&gt;
&lt;td&gt;-19.199&lt;/td&gt;
&lt;/tr&gt;&lt;tr bgcolor="#E3E3F3"&gt;
&lt;th&gt;LONG_LOCALIDADE&lt;/th&gt;
&lt;td&gt;-44.2489&lt;/td&gt;
&lt;/tr&gt;&lt;/table&gt;&lt;/center&gt;</description>
<Style>
<IconStyle>
<color>ff00aaff</color>
<scale>1.0</scale>
<Icon>
<href>http://maps.google.com/mapfiles/kml/shapes/placemark_circle.png</href>
</Icon>
</IconStyle>
<LabelStyle>
<scale>1.0</scale>
</LabelStyle>
<LineStyle>
<color>ffffffff</color>
<width>3</width>
<gx:labelVisibility>1</gx:labelVisibility>
</LineStyle>
<PolyStyle>
<color>00ffffff</color>
</PolyStyle>
</Style>
<ExtendedData>
<SchemaData schemaUrl="#kml_schema_ft_01._Cidade">
<SimpleData name="CD_UF">31</SimpleData>
<SimpleData name="NM_UF">Minas Gerais</SimpleData>
<SimpleData name="SIGLA_UF">MG</SimpleData>
<SimpleData name="CD_MUN">3103207</SimpleData>
<SimpleData name="NM_MUN">Araçaí</SimpleData>
<SimpleData name="CD_RGINT">3101</SimpleData>
<SimpleData name="NM_RGINT">Belo Horizonte</SimpleData>
<SimpleData name="CD_RGI">310002</SimpleData>
<SimpleData name="NM_RGI">Sete Lagoas</SimpleData>
<SimpleData name="CT_LOCALIDADE">Cidade</SimpleData>
<SimpleData name="SCT_LOCALIDADE">Sede Municipal</SimpleData>
<SimpleData name="CD_LOCALIDADE">3103207</SimpleData>
<SimpleData name="NM_LOCALIDADE">Araçaí</SimpleData>
<SimpleData name="LAT_LOCALIDADE">-19.199</SimpleData>
<SimpleData name="LONG_LOCALIDADE">-44.2489</SimpleData>
</SchemaData>
</ExtendedData>
<Point>
<extrude>0</extrude>
<coordinates>-44.2489,-19.1989999994124,0.0</coordinates>
</Point>
</Placemark>
</Folder>
</Folder>
<Folder id="06. Povoados">
<name>06. Povoados</name>
<Placemark id="06. Povoados">
<name>Fazendinhas Pai José [310320700001]</name>
<visibility>1</visibility>
<snippet> </snippet>
<description>&lt;center&gt;&lt;table&gt;&lt;tr&gt;&lt;th colspan='2' align='center'&gt;&lt;em&gt;Atributos&lt;/em&gt;&lt;/th&gt;&lt;/tr&gt;&lt;tr bgcolor="#E3E3F3"&gt;
&lt;th&gt;CD_UF&lt;/th&gt;
&lt;td&gt;31&lt;/td&gt;
&lt;/tr&gt;&lt;tr bgcolor=""&gt;
&lt;th&gt;NM_UF&lt;/th&gt;
&lt;td&gt;Minas Gerais&lt;/td&gt;
&lt;/tr&gt;&lt;tr bgcolor="#E3E3F3"&gt;
&lt;th&gt;SIGLA_UF&lt;/th&gt;
&lt;td&gt;MG&lt;/td&gt;
&lt;/tr&gt;&lt;tr bgcolor=""&gt;
&lt;th&gt;CD_MUN&lt;/th&gt;
&lt;td&gt;3103207&lt;/td&gt;
&lt;/tr&gt;&lt;tr bgcolor="#E3E3F3"&gt;
&lt;th&gt;NM_MUN&lt;/th&gt;
&lt;td&gt;Araçaí&lt;/td&gt;
&lt;/tr&gt;&lt;tr bgcolor=""&gt;
&lt;th&gt;CD_RGINT&lt;/th&gt;
&lt;td&gt;3101&lt;/td&gt;
&lt;/tr&gt;&lt;tr bgcolor="#E3E3F3"&gt;
&lt;th&gt;NM_RGINT&lt;/th&gt;
&lt;td&gt;Belo Horizonte&lt;/td&gt;
&lt;/tr&gt;&lt;tr bgcolor=""&gt;
&lt;th&gt;CD_RGI&lt;/th&gt;
&lt;td&gt;310002&lt;/td&gt;
&lt;/tr&gt;&lt;tr bgcolor="#E3E3F3"&gt;
&lt;th&gt;NM_RGI&lt;/th&gt;
&lt;td&gt;Sete Lagoas&lt;/td&gt;
&lt;/tr&gt;&lt;tr bgcolor=""&gt;
&lt;th&gt;CT_LOCALIDADE&lt;/th&gt;
&lt;td&gt;Povoado&lt;/td&gt;
&lt;/tr&gt;&lt;tr bgcolor="#E3E3F3"&gt;
&lt;th&gt;CD_LOCALIDADE&lt;/th&gt;
&lt;td&gt;310320700001&lt;/td&gt;
&lt;/tr&gt;&lt;tr bgcolor=""&gt;
&lt;th&gt;NM_LOCALIDADE&lt;/th&gt;
&lt;td&gt;Fazendinhas Pai José&lt;/td&gt;
&lt;/tr&gt;&lt;tr bgcolor="#E3E3F3"&gt;
&lt;th&gt;LAT_LOCALIDADE&lt;/th&gt;
&lt;td&gt;-19.2974&lt;/td&gt;
&lt;/tr&gt;&lt;tr bgcolor=""&gt;
&lt;th&gt;LONG_LOCALIDADE&lt;/th&gt;
&lt;td&gt;-44.189&lt;/td&gt;
&lt;/tr&gt;&lt;/table&gt;&lt;/center&gt;</description>
<Style>
<IconStyle>
<color>ff00ff54</color>
<scale>0.8</scale>
<Icon>
<href>http://maps.google.com/mapfiles/kml/shapes/placemark_circle.png</href>
</Icon>
</IconStyle>
<LabelStyle>
<scale>0.8</scale>
</LabelStyle>
<LineStyle>
<color>72ff54ff</color>
<width>1.0</width>
<gx:labelVisibility>1</gx:labelVisibility>
</LineStyle>
<PolyStyle>
<color>66ff54ff</color>
</PolyStyle>
</Style>
<ExtendedData>
<SchemaData schemaUrl="#kml_schema_ft_Povoados">
<SimpleData name="CD_UF">31</SimpleData>
<SimpleData name="NM_UF">Minas Gerais</SimpleData>
<SimpleData name="SIGLA_UF">MG</SimpleData>
<SimpleData name="CD_MUN">3103207</SimpleData>
<SimpleData name="NM_MUN">Araçaí</SimpleData>
<SimpleData name="CD_RGINT">3101</SimpleData>
<SimpleData name="NM_RGINT">Belo Horizonte</SimpleData>
<SimpleData name="CD_RGI">310002</SimpleData>
<SimpleData name="NM_RGI">Sete Lagoas</SimpleData>
<SimpleData name="CT_LOCALIDADE">Povoado</SimpleData>
<SimpleData name="CD_LOCALIDADE">310320700001</SimpleData>
<SimpleData name="NM_LOCALIDADE">Fazendinhas Pai José</SimpleData>
<SimpleData name="LAT_LOCALIDADE">-19.2974</SimpleData>
<SimpleData name="LONG_LOCALIDADE">-44.189</SimpleData>
</SchemaData>
</ExtendedData>
<Point>
<extrude>0</extrude>
<coordinates>-44.1890104599302,-19.2973550133471,0.0</coordinates>
</Point>
</Placemark>
<Placemark id="06. Povoados">
<name>Carvalho de Almeida [310320700002]</name>
<visibility>1</visibility>
<snippet> </snippet>
<description>&lt;center&gt;&lt;table&gt;&lt;tr&gt;&lt;th colspan='2' align='center'&gt;&lt;em&gt;Atributos&lt;/em&gt;&lt;/th&gt;&lt;/tr&gt;&lt;tr bgcolor="#E3E3F3"&gt;
&lt;th&gt;CD_UF&lt;/th&gt;
&lt;td&gt;31&lt;/td&gt;
&lt;/tr&gt;&lt;tr bgcolor=""&gt;
&lt;th&gt;NM_UF&lt;/th&gt;
&lt;td&gt;Minas Gerais&lt;/td&gt;
&lt;/tr&gt;&lt;tr bgcolor="#E3E3F3"&gt;
&lt;th&gt;SIGLA_UF&lt;/th&gt;
&lt;td&gt;MG&lt;/td&gt;
&lt;/tr&gt;&lt;tr bgcolor=""&gt;
&lt;th&gt;CD_MUN&lt;/th&gt;
&lt;td&gt;3103207&lt;/td&gt;
&lt;/tr&gt;&lt;tr bgcolor="#E3E3F3"&gt;
&lt;th&gt;NM_MUN&lt;/th&gt;
&lt;td&gt;Araçaí&lt;/td&gt;
&lt;/tr&gt;&lt;tr bgcolor=""&gt;
&lt;th&gt;CD_RGINT&lt;/th&gt;
&lt;td&gt;3101&lt;/td&gt;
&lt;/tr&gt;&lt;tr bgcolor="#E3E3F3"&gt;
&lt;th&gt;NM_RGINT&lt;/th&gt;
&lt;td&gt;Belo Horizonte&lt;/td&gt;
&lt;/tr&gt;&lt;tr bgcolor=""&gt;
&lt;th&gt;CD_RGI&lt;/th&gt;
&lt;td&gt;310002&lt;/td&gt;
&lt;/tr&gt;&lt;tr bgcolor="#E3E3F3"&gt;
&lt;th&gt;NM_RGI&lt;/th&gt;
&lt;td&gt;Sete Lagoas&lt;/td&gt;
&lt;/tr&gt;&lt;tr bgcolor=""&gt;
&lt;th&gt;CT_LOCALIDADE&lt;/th&gt;
&lt;td&gt;Povoado&lt;/td&gt;
&lt;/tr&gt;&lt;tr bgcolor="#E3E3F3"&gt;
&lt;th&gt;CD_LOCALIDADE&lt;/th&gt;
&lt;td&gt;310320700002&lt;/td&gt;
&lt;/tr&gt;&lt;tr bgcolor=""&gt;
&lt;th&gt;NM_LOCALIDADE&lt;/th&gt;
&lt;td&gt;Carvalho de Almeida&lt;/td&gt;
&lt;/tr&gt;&lt;tr bgcolor="#E3E3F3"&gt;
&lt;th&gt;LAT_LOCALIDADE&lt;/th&gt;
&lt;td&gt;-19.2829&lt;/td&gt;
&lt;/tr&gt;&lt;tr bgcolor=""&gt;
&lt;th&gt;LONG_LOCALIDADE&lt;/th&gt;
&lt;td&gt;-44.2254&lt;/td&gt;
&lt;/tr&gt;&lt;/table&gt;&lt;/center&gt;</description>
<Style>
<IconStyle>
<color>ff00ff54</color>
<scale>0.8</scale>
<Icon>
<href>http://maps.google.com/mapfiles/kml/shapes/placemark_circle.png</href>
</Icon>
</IconStyle>
<LabelStyle>
<scale>0.8</scale>
</LabelStyle>
<LineStyle>
<color>72ff54ff</color>
<width>1.0</width>
<gx:labelVisibility>1</gx:labelVisibility>
</LineStyle>
<PolyStyle>
<color>66ff54ff</color>
</PolyStyle>
</Style>
<ExtendedData>
<SchemaData schemaUrl="#kml_schema_ft_Povoados">
<SimpleData name="CD_UF">31</SimpleData>
<SimpleData name="NM_UF">Minas Gerais</SimpleData>
<SimpleData name="SIGLA_UF">MG</SimpleData>
<SimpleData name="CD_MUN">3103207</SimpleData>
<SimpleData name="NM_MUN">Araçaí</SimpleData>
<SimpleData name="CD_RGINT">3101</SimpleData>
<SimpleData name="NM_RGINT">Belo Horizonte</SimpleData>
<SimpleData name="CD_RGI">310002</SimpleData>
<SimpleData name="NM_RGI">Sete Lagoas</SimpleData>
<SimpleData name="CT_LOCALIDADE">Povoado</SimpleData>
<SimpleData name="CD_LOCALIDADE">310320700002</SimpleData>
<SimpleData name="NM_LOCALIDADE">Carvalho de Almeida</SimpleData>
<SimpleData name="LAT_LOCALIDADE">-19.2829</SimpleData>
<SimpleData name="LONG_LOCALIDADE">-44.2254</SimpleData>
</SchemaData>
</ExtendedData>
<Point>
<extrude>0</extrude>
<coordinates>-44.2254421333333,-19.282932977188,0.0</coordinates>
</Point>
</Placemark>
</Folder>
<Folder id="08. Lugarejos">
<name>08. Lugarejos</name>
<Placemark id="localidades">
<name>Fazenda da Mata [310320700005]</name>
<visibility>1</visibility>
<snippet> </snippet>
<description>&lt;center&gt;&lt;table&gt;&lt;tr&gt;&lt;th colspan='2' align='center'&gt;&lt;em&gt;Attributes&lt;/em&gt;&lt;/th&gt;&lt;/tr&gt;&lt;tr bgcolor="#E3E3F3"&gt;
&lt;th&gt;CD_UF&lt;/th&gt;
&lt;td&gt;31&lt;/td&gt;
&lt;/tr&gt;&lt;tr bgcolor=""&gt;
&lt;th&gt;NM_UF&lt;/th&gt;
&lt;td&gt;Minas Gerais&lt;/td&gt;
&lt;/tr&gt;&lt;tr bgcolor="#E3E3F3"&gt;
&lt;th&gt;SIGLA_UF&lt;/th&gt;
&lt;td&gt;MG&lt;/td&gt;
&lt;/tr&gt;&lt;tr bgcolor=""&gt;
&lt;th&gt;CD_MUN&lt;/th&gt;
&lt;td&gt;3103207&lt;/td&gt;
&lt;/tr&gt;&lt;tr bgcolor="#E3E3F3"&gt;
&lt;th&gt;NM_MUN&lt;/th&gt;
&lt;td&gt;Araçaí&lt;/td&gt;
&lt;/tr&gt;&lt;tr bgcolor=""&gt;
&lt;th&gt;CD_RGINT&lt;/th&gt;
&lt;td&gt;3101&lt;/td&gt;
&lt;/tr&gt;&lt;tr bgcolor="#E3E3F3"&gt;
&lt;th&gt;NM_RGINT&lt;/th&gt;
&lt;td&gt;Belo Horizonte&lt;/td&gt;
&lt;/tr&gt;&lt;tr bgcolor=""&gt;
&lt;th&gt;CD_RGI&lt;/th&gt;
&lt;td&gt;310002&lt;/td&gt;
&lt;/tr&gt;&lt;tr bgcolor="#E3E3F3"&gt;
&lt;th&gt;NM_RGI&lt;/th&gt;
&lt;td&gt;Sete Lagoas&lt;/td&gt;
&lt;/tr&gt;&lt;tr bgcolor=""&gt;
&lt;th&gt;CT_LOCALIDADE&lt;/th&gt;
&lt;td&gt;Lugarejo&lt;/td&gt;
&lt;/tr&gt;&lt;tr bgcolor="#E3E3F3"&gt;
&lt;th&gt;CD_LOCALIDADE&lt;/th&gt;
&lt;td&gt;310320700005&lt;/td&gt;
&lt;/tr&gt;&lt;tr bgcolor=""&gt;
&lt;th&gt;NM_LOCALIDADE&lt;/th&gt;
&lt;td&gt;Fazenda da Mata&lt;/td&gt;
&lt;/tr&gt;&lt;tr bgcolor="#E3E3F3"&gt;
&lt;th&gt;LAT_LOCALIDADE&lt;/th&gt;
&lt;td&gt;-19.2918&lt;/td&gt;
&lt;/tr&gt;&lt;tr bgcolor=""&gt;
&lt;th&gt;LONG_LOCALIDADE&lt;/th&gt;
&lt;td&gt;-44.1741&lt;/td&gt;
&lt;/tr&gt;&lt;/table&gt;&lt;/center&gt;</description>
<Style>
<IconStyle>
<color>ffffff00</color>
<scale>0.8</scale>
<Icon>
<href>http://maps.google.com/mapfiles/kml/shapes/placemark_circle.png</href>
</Icon>
</IconStyle>
<LabelStyle>
<scale>0.8</scale>
</LabelStyle>
<LineStyle>
<color>72ff54ff</color>
<width>1.0</width>
<gx:labelVisibility>1</gx:labelVisibility>
</LineStyle>
<PolyStyle>
<color>66ff54ff</color>
</PolyStyle>
</Style>
<ExtendedData>
<SchemaData schemaUrl="#kml_schema_ft_Lugarejos">
<SimpleData name="CD_UF">31</SimpleData>
<SimpleData name="NM_UF">Minas Gerais</SimpleData>
<SimpleData name="SIGLA_UF">MG</SimpleData>
<SimpleData name="CD_MUN">3103207</SimpleData>
<SimpleData name="NM_MUN">Araçaí</SimpleData>
<SimpleData name="CD_RGINT">3101</SimpleData>
<SimpleData name="NM_RGINT">Belo Horizonte</SimpleData>
<SimpleData name="CD_RGI">310002</SimpleData>
<SimpleData name="NM_RGI">Sete Lagoas</SimpleData>
<SimpleData name="CT_LOCALIDADE">Lugarejo</SimpleData>
<SimpleData name="CD_LOCALIDADE">310320700005</SimpleData>
<SimpleData name="NM_LOCALIDADE">Fazenda da Mata</SimpleData>
<SimpleData name="LAT_LOCALIDADE">-19.2918</SimpleData>
<SimpleData name="LONG_LOCALIDADE">-44.1741</SimpleData>
</SchemaData>
</ExtendedData>
<Point>
<extrude>0</extrude>
<coordinates>-44.1741492844827,-19.2918155769962,0.0</coordinates>
</Point>
</Placemark>
</Folder>
<Folder id="12. Outras Localidades">
<name>12. Outras Localidades</name>
<Placemark id="12. Outras Localidades">
<name>Taboca [310320700003]</name>
<visibility>1</visibility>
<snippet> </snippet>
<description>&lt;center&gt;&lt;table&gt;&lt;tr&gt;&lt;th colspan='2' align='center'&gt;&lt;em&gt;Attributes&lt;/em&gt;&lt;/th&gt;&lt;/tr&gt;&lt;tr bgcolor="#E3E3F3"&gt;
&lt;th&gt;CD_UF&lt;/th&gt;
&lt;td&gt;31&lt;/td&gt;
&lt;/tr&gt;&lt;tr bgcolor=""&gt;
&lt;th&gt;NM_UF&lt;/th&gt;
&lt;td&gt;Minas Gerais&lt;/td&gt;
&lt;/tr&gt;&lt;tr bgcolor="#E3E3F3"&gt;
&lt;th&gt;SIGLA_UF&lt;/th&gt;
&lt;td&gt;MG&lt;/td&gt;
&lt;/tr&gt;&lt;tr bgcolor=""&gt;
&lt;th&gt;CD_MUN&lt;/th&gt;
&lt;td&gt;3103207&lt;/td&gt;
&lt;/tr&gt;&lt;tr bgcolor="#E3E3F3"&gt;
&lt;th&gt;NM_MUN&lt;/th&gt;
&lt;td&gt;Araçaí&lt;/td&gt;
&lt;/tr&gt;&lt;tr bgcolor=""&gt;
&lt;th&gt;CD_RGINT&lt;/th&gt;
&lt;td&gt;3101&lt;/td&gt;
&lt;/tr&gt;&lt;tr bgcolor="#E3E3F3"&gt;
&lt;th&gt;NM_RGINT&lt;/th&gt;
&lt;td&gt;Belo Horizonte&lt;/td&gt;
&lt;/tr&gt;&lt;tr bgcolor=""&gt;
&lt;th&gt;CD_RGI&lt;/th&gt;
&lt;td&gt;310002&lt;/td&gt;
&lt;/tr&gt;&lt;tr bgcolor="#E3E3F3"&gt;
&lt;th&gt;NM_RGI&lt;/th&gt;
&lt;td&gt;Sete Lagoas&lt;/td&gt;
&lt;/tr&gt;&lt;tr bgcolor=""&gt;
&lt;th&gt;CT_LOCALIDADE&lt;/th&gt;
&lt;td&gt;Outras Localidades&lt;/td&gt;
&lt;/tr&gt;&lt;tr bgcolor="#E3E3F3"&gt;
&lt;th&gt;SCT_LOCALIDADE&lt;/th&gt;
&lt;td&gt;&lt;/td&gt;
&lt;/tr&gt;&lt;tr bgcolor=""&gt;
&lt;th&gt;CD_LOCALIDADE&lt;/th&gt;
&lt;td&gt;310320700003&lt;/td&gt;
&lt;/tr&gt;&lt;tr bgcolor="#E3E3F3"&gt;
&lt;th&gt;NM_LOCALIDADE&lt;/th&gt;
&lt;td&gt;Taboca&lt;/td&gt;
&lt;/tr&gt;&lt;/table&gt;&lt;/center&gt;</description>
<Style>
<IconStyle>
<color>ff0069d3</color>
<scale>0.6</scale>
<Icon>
<href>http://maps.google.com/mapfiles/kml/shapes/placemark_circle.png</href>
</Icon>
</IconStyle>
<LabelStyle>
<scale>0.6</scale>
</LabelStyle>
<LineStyle>
<width>1.0</width>
<gx:labelVisibility>1</gx:labelVisibility>
</LineStyle>
</Style>
<ExtendedData>
<SchemaData schemaUrl="#kml_schema_ft_Localidades">
<SimpleData name="CD_UF">31</SimpleData>
<SimpleData name="NM_UF">Minas Gerais</SimpleData>
<SimpleData name="SIGLA_UF">MG</SimpleData>
<SimpleData name="CD_MUN">3103207</SimpleData>
<SimpleData name="NM_MUN">Araçaí</SimpleData>
<SimpleData name="CD_RGINT">3101</SimpleData>
<SimpleData name="NM_RGINT">Belo Horizonte</SimpleData>
<SimpleData name="CD_RGI">310002</SimpleData>
<SimpleData name="NM_RGI">Sete Lagoas</SimpleData>
<SimpleData name="CT_LOCALIDADE">Outras Localidades</SimpleData>
<SimpleData name="CD_LOCALIDADE">310320700003</SimpleData>
<SimpleData name="NM_LOCALIDADE">Taboca</SimpleData>
</SchemaData>
</ExtendedData>
<Point>
<extrude>0</extrude>
<coordinates>-44.1726672,-19.2643292994107,0.0</coordinates>
</Point>
</Placemark>
<Placemark id="12. Outras Localidades">
<name>Fazenda Conquista [310320700004]</name>
<visibility>1</visibility>
<snippet> </snippet>
<description>&lt;center&gt;&lt;table&gt;&lt;tr&gt;&lt;th colspan='2' align='center'&gt;&lt;em&gt;Attributes&lt;/em&gt;&lt;/th&gt;&lt;/tr&gt;&lt;tr bgcolor="#E3E3F3"&gt;
&lt;th&gt;CD_UF&lt;/th&gt;
&lt;td&gt;31&lt;/td&gt;
&lt;/tr&gt;&lt;tr bgcolor=""&gt;
&lt;th&gt;NM_UF&lt;/th&gt;
&lt;td&gt;Minas Gerais&lt;/td&gt;
&lt;/tr&gt;&lt;tr bgcolor="#E3E3F3"&gt;
&lt;th&gt;SIGLA_UF&lt;/th&gt;
&lt;td&gt;MG&lt;/td&gt;
&lt;/tr&gt;&lt;tr bgcolor=""&gt;
&lt;th&gt;CD_MUN&lt;/th&gt;
&lt;td&gt;3103207&lt;/td&gt;
&lt;/tr&gt;&lt;tr bgcolor="#E3E3F3"&gt;
&lt;th&gt;NM_MUN&lt;/th&gt;
&lt;td&gt;Araçaí&lt;/td&gt;
&lt;/tr&gt;&lt;tr bgcolor=""&gt;
&lt;th&gt;CD_RGINT&lt;/th&gt;
&lt;td&gt;3101&lt;/td&gt;
&lt;/tr&gt;&lt;tr bgcolor="#E3E3F3"&gt;
&lt;th&gt;NM_RGINT&lt;/th&gt;
&lt;td&gt;Belo Horizonte&lt;/td&gt;
&lt;/tr&gt;&lt;tr bgcolor=""&gt;
&lt;th&gt;CD_RGI&lt;/th&gt;
&lt;td&gt;310002&lt;/td&gt;
&lt;/tr&gt;&lt;tr bgcolor="#E3E3F3"&gt;
&lt;th&gt;NM_RGI&lt;/th&gt;
&lt;td&gt;Sete Lagoas&lt;/td&gt;
&lt;/tr&gt;&lt;tr bgcolor=""&gt;
&lt;th&gt;CT_LOCALIDADE&lt;/th&gt;
&lt;td&gt;Outras Localidades&lt;/td&gt;
&lt;/tr&gt;&lt;tr bgcolor="#E3E3F3"&gt;
&lt;th&gt;SCT_LOCALIDADE&lt;/th&gt;
&lt;td&gt;&lt;/td&gt;
&lt;/tr&gt;&lt;tr bgcolor=""&gt;
&lt;th&gt;CD_LOCALIDADE&lt;/th&gt;
&lt;td&gt;310320700004&lt;/td&gt;
&lt;/tr&gt;&lt;tr bgcolor="#E3E3F3"&gt;
&lt;th&gt;NM_LOCALIDADE&lt;/th&gt;
&lt;td&gt;Fazenda Conquista&lt;/td&gt;
&lt;/tr&gt;&lt;/table&gt;&lt;/center&gt;</description>
<Style>
<IconStyle>
<color>ff0069d3</color>
<scale>0.6</scale>
<Icon>
<href>http://maps.google.com/mapfiles/kml/shapes/placemark_circle.png</href>
</Icon>
</IconStyle>
<LabelStyle>
<scale>0.6</scale>
</LabelStyle>
<LineStyle>
<width>1.0</width>
<gx:labelVisibility>1</gx:labelVisibility>
</LineStyle>
</Style>
<ExtendedData>
<SchemaData schemaUrl="#kml_schema_ft_Localidades">
<SimpleData name="CD_UF">31</SimpleData>
<SimpleData name="NM_UF">Minas Gerais</SimpleData>
<SimpleData name="SIGLA_UF">MG</SimpleData>
<SimpleData name="CD_MUN">3103207</SimpleData>
<SimpleData name="NM_MUN">Araçaí</SimpleData>
<SimpleData name="CD_RGINT">3101</SimpleData>
<SimpleData name="NM_RGINT">Belo Horizonte</SimpleData>
<SimpleData name="CD_RGI">310002</SimpleData>
<SimpleData name="NM_RGI">Sete Lagoas</SimpleData>
<SimpleData name="CT_LOCALIDADE">Outras Localidades</SimpleData>
<SimpleData name="CD_LOCALIDADE">310320700004</SimpleData>
<SimpleData name="NM_LOCALIDADE">Fazenda Conquista</SimpleData>
</SchemaData>
</ExtendedData>
<Point>
<extrude>0</extrude>
<coordinates>-44.2577047,-19.3216251994093,0.0</coordinates>
</Point>
</Placemark>
</Folder>
<Folder id="13. Referência">
<name>13. Referência</name>
<Placemark id="13. Referência">
<name>Araçaí [3103207]</name>
<visibility>1</visibility>
<snippet> </snippet>
<description>&lt;center&gt;&lt;table&gt;&lt;tr&gt;&lt;th colspan='2' align='center'&gt;&lt;em&gt;Attributes&lt;/em&gt;&lt;/th&gt;&lt;/tr&gt;&lt;tr bgcolor="#E3E3F3"&gt;
&lt;th&gt;CD_UF&lt;/th&gt;
&lt;td&gt;31&lt;/td&gt;
&lt;/tr&gt;&lt;tr bgcolor=""&gt;
&lt;th&gt;NM_UF&lt;/th&gt;
&lt;td&gt;Minas Gerais&lt;/td&gt;
&lt;/tr&gt;&lt;tr bgcolor="#E3E3F3"&gt;
&lt;th&gt;CD_MUN&lt;/th&gt;
&lt;td&gt;3103207&lt;/td&gt;
&lt;/tr&gt;&lt;tr bgcolor=""&gt;
&lt;th&gt;NM_MUN&lt;/th&gt;
&lt;td&gt;Araçaí&lt;/td&gt;
&lt;/tr&gt;&lt;tr bgcolor="#E3E3F3"&gt;
&lt;th&gt;CD_RGINT&lt;/th&gt;
&lt;td&gt;3101&lt;/td&gt;
&lt;/tr&gt;&lt;tr bgcolor=""&gt;
&lt;th&gt;NM_RGINT&lt;/th&gt;
&lt;td&gt;Belo Horizonte&lt;/td&gt;
&lt;/tr&gt;&lt;tr bgcolor="#E3E3F3"&gt;
&lt;th&gt;CD_RGI&lt;/th&gt;
&lt;td&gt;310002&lt;/td&gt;
&lt;/tr&gt;&lt;tr bgcolor=""&gt;
&lt;th&gt;NM_RGI&lt;/th&gt;
&lt;td&gt;Sete Lagoas&lt;/td&gt;
&lt;/tr&gt;&lt;/table&gt;&lt;/center&gt;</description>
<Style>
<IconStyle>
<scale>0.7</scale>
</IconStyle>
<LabelStyle>
<scale>0.7</scale>
</LabelStyle>
<LineStyle>
<color>ffffffff</color>
<width>3</width>
<gx:labelVisibility>1</gx:labelVisibility>
</LineStyle>
<PolyStyle>
<color>00ffffff</color>
</PolyStyle>
</Style>
<ExtendedData>
<SchemaData schemaUrl="#kml_schema_ft_Município">
<SimpleData name="CD_UF">31</SimpleData>
<SimpleData name="NM_UF">Minas Gerais</SimpleData>
<SimpleData name="CD_MUN">3103207</SimpleData>
<SimpleData name="NM_MUN">Araçaí</SimpleData>
<SimpleData name="CD_RGINT">3101</SimpleData>
<SimpleData name="NM_RGINT">Belo Horizonte</SimpleData>
<SimpleData name="CD_RGI">310002</SimpleData>
<SimpleData name="NM_RGI">Sete Lagoas</SimpleData>
</SchemaData>
</ExtendedData>
<MultiGeometry>
<Polygon>
<extrude>0</extrude>
<tessellate>1</tessellate>
<outerBoundaryIs>
<LinearRing>
<coordinates>-44.2446068,-19.2603458994108,0.0 -44.2445679,-19.2602520994108,0.0 -44.2445308,-19.2600795994108,0.0 -44.2446192,-19.2597548994109,0.0 -44.2447679,-19.2593230994109,0.0 -44.244913,-19.2591461994109,0.0 -44.2451395,-19.2589054994109,0.0 -44.2454084,-19.2584922994109,0.0 -44.2456845,-19.2579932994109,0.0 -44.2458827,-19.2577030994109,0.0 -44.2459888,-19.2574243994109,0.0 -44.2461622,-19.2571518994109,0.0 -44.2463781,-19.2571377994109,0.0 -44.246594,-19.2572191994109,0.0 -44.2468453,-19.2573960994109,0.0 -44.2471072,-19.2576508994109,0.0 -44.2473584,-19.2578667994109,0.0 -44.2475708,-19.2579552994109,0.0 -44.2477902,-19.2578809994109,0.0 -44.2479601,-19.2577393994109,0.0 -44.2480769,-19.2575447994109,0.0 -44.2482892,-19.2572686994109,0.0 -44.2486042,-19.2569183994109,0.0 -44.2488891,-19.2567024994109,0.0 -44.249158,-19.2564688994109,0.0 -44.249358,-19.2563184994109,0.0 -44.2495066,-19.2562724994109,0.0 -44.2496765,-19.2563609994109,0.0 -44.2497544,-19.2565307994109,0.0 -44.2497402,-19.2567572994109,0.0 -44.2497579,-19.2569590994109,0.0 -44.2499419,-19.2570784994109,0.0 -44.2501861,-19.2571103994109,0.0 -44.2504657,-19.2571881994109,0.0 -44.2505966,-19.2573297994109,0.0 -44.2507028,-19.2575137994109,0.0 -44.250717,-19.2577048994109,0.0 -44.2506073,-19.2579446994109,0.0 -44.2505188,-19.2581357994109,0.0 -44.25054,-19.2583233994109,0.0 -44.25058,-19.2586319994109,0.0 -44.2506993,-19.2591116994109,0.0 -44.2509222,-19.2593558994109,0.0 -44.2512372,-19.2595221994109,0.0 -44.2515628,-19.2596141994109,0.0 -44.2517397,-19.2595787994109,0.0 -44.2518778,-19.2594690994109,0.0 -44.2519875,-19.2593204994109,0.0 -44.251991,-19.2590797994109,0.0 -44.2520972,-19.2590196994109,0.0 -44.2522494,-19.2591363994109,0.0 -44.2523661,-19.2593310994109,0.0 -44.2523591,-19.2596106994109,0.0 -44.2523166,-19.2599450994108,0.0 -44.2523838,-19.2602246994108,0.0 -44.2526068,-19.2603520994108,0.0 -44.2529041,-19.2602848994108,0.0 -44.2532969,-19.2601503994108,0.0 -44.2537924,-19.2600335994108,0.0 -44.2542843,-19.2599981994108,0.0 -44.2545108,-19.2599167994108,0.0 -44.2548753,-19.2599415994109,0.0 -44.2550806,-19.2601361994108,0.0 -44.2551903,-19.2604369994108,0.0 -44.2553071,-19.2609107994108,0.0 -44.2554716,-19.2612558994108,0.0 -44.2557636,-19.2613283994108,0.0 -44.2562821,-19.2613283994108,0.0 -44.256619,-19.2610449994108,0.0 -44.256982,-19.2606779994108,0.0 -44.257272,-19.2603109994108,0.0 -44.257683,-19.2599439994109,0.0 -44.258094,-19.2596459994109,0.0 -44.258481,-19.2593929994109,0.0 -44.25894,-19.2591179994109,0.0 -44.259254,-19.2587969994109,0.0 -44.259665,-19.2585449994109,0.0 -44.260149,-19.2582239994109,0.0 -44.260584,-19.2579489994109,0.0 -44.261019,-19.2576969994109,0.0 -44.261454,-19.2575129994109,0.0 -44.261986,-19.2571919994109,0.0 -44.262614,-19.2565499994109,0.0 -44.262929,-19.2560689994109,0.0 -44.263074,-19.2555869994109,0.0 -44.263509,-19.255288999411,0.0 -44.26392,-19.255058999411,0.0 -44.264331,-19.254806999411,0.0 -44.264862,-19.254738999411,0.0 -44.265273,-19.254508999411,0.0 -44.265757,-19.254050999411,0.0 -44.266216,-19.253683999411,0.0 -44.266651,-19.253408999411,0.0 -44.267014,-19.253018999411,0.0 -44.267425,-19.252651999411,0.0 -44.267739,-19.252330999411,0.0 -44.267981,-19.2519179994111,0.0 -44.268368,-19.2515509994111,0.0 -44.268779,-19.2512299994111,0.0 -44.269358,-19.2512069994111,0.0 -44.269866,-19.2512989994111,0.0 -44.270349,-19.2513449994111,0.0 -44.270953,-19.2513449994111,0.0 -44.271436,-19.2511849994111,0.0 -44.271968,-19.2510709994111,0.0 -44.27262,-19.2509559994111,0.0 -44.273176,-19.2508419994111,0.0 -44.273659,-19.2507269994111,0.0 -44.274119,-19.2507039994111,0.0 -44.274602,-19.2505899994111,0.0 -44.275158,-19.2505669994111,0.0 -44.275447,-19.2509349994111,0.0 -44.27535,-19.2514159994111,0.0 -44.27564,-19.2518299994111,0.0 -44.276002,-19.252242999411,0.0 -44.276486,-19.252196999411,0.0 -44.277041,-19.252196999411,0.0 -44.277573,-19.252082999411,0.0 -44.278225,-19.2518769994111,0.0 -44.278636,-19.2516469994111,0.0 -44.278999,-19.2513029994111,0.0 -44.279482,-19.2512809994111,0.0 -44.279941,-19.2514189994111,0.0 -44.2804,-19.2514649994111,0.0 -44.280835,-19.2516479994111,0.0 -44.281342,-19.2513959994111,0.0 -44.281705,-19.2511209994111,0.0 -44.282068,-19.2507769994111,0.0 -44.282865,-19.2505709994111,0.0 -44.283421,-19.2504559994111,0.0 -44.283904,-19.2506399994111,0.0 -44.284314,-19.2509839994111,0.0 -44.284725,-19.2513749994111,0.0 -44.285208,-19.2514439994111,0.0 -44.285692,-19.2512829994111,0.0 -44.286175,-19.2511459994111,0.0 -44.286682,-19.2510309994111,0.0 -44.287117,-19.2508019994111,0.0 -44.287576,-19.2506639994111,0.0 -44.28806,-19.2506189994111,0.0 -44.288519,-19.2505039994111,0.0 -44.288857,-19.2501829994111,0.0 -44.289123,-19.2497929994111,0.0 -44.289099,-19.2493569994111,0.0 -44.289099,-19.2488979994111,0.0 -44.28922,-19.2484389994111,0.0 -44.289366,-19.2480029994112,0.0 -44.289366,-19.2474979994112,0.0 -44.289438,-19.2470169994112,0.0 -44.289487,-19.2465349994112,0.0 -44.28956,-19.2460529994112,0.0 -44.289898,-19.2456629994112,0.0 -44.290405,-19.2456859994112,0.0 -44.29084,-19.2459839994112,0.0 -44.291251,-19.2462369994112,0.0 -44.291806,-19.2464669994112,0.0 -44.292314,-19.2465129994112,0.0 -44.29299,-19.2466049994112,0.0 -44.294174,-19.2466049994112,0.0 -44.294657,-19.2464909994112,0.0 -44.295213,-19.2463989994112,0.0 -44.295648,-19.2461469994112,0.0 -44.296035,-19.2457109994112,0.0 -44.296132,-19.2452289994112,0.0 -44.296277,-19.2446099994112,0.0 -44.296398,-19.2441509994113,0.0 -44.296615,-19.2437149994113,0.0 -44.296978,-19.2433479994113,0.0 -44.297534,-19.2429119994113,0.0 -44.297796,-19.2427559994113,0.0 -44.297872,-19.2423379994113,0.0 -44.297897,-19.2418109994113,0.0 -44.298066,-19.2413289994113,0.0 -44.298259,-19.2408699994113,0.0 -44.298308,-19.2403879994113,0.0 -44.29826,-19.2398829994114,0.0 -44.298453,-19.2392869994114,0.0 -44.298695,-19.2387359994114,0.0 -44.298864,-19.2382999994114,0.0 -44.299082,-19.2379099994114,0.0 -44.299348,-19.2372669994114,0.0 -44.299469,-19.2367629994115,0.0 -44.29959,-19.2361429994115,0.0 -44.299687,-19.2356839994115,0.0 -44.29988,-19.2351109994115,0.0 -44.300364,-19.2344219994115,0.0 -44.30063,-19.2339629994115,0.0 -44.300871,-19.2334359994115,0.0 -44.30092,-19.2329539994115,0.0 -44.300896,-19.2323799994116,0.0 -44.300872,-19.2317379994116,0.0 -44.300776,-19.2313019994116,0.0 -44.300776,-19.2308429994116,0.0 -44.300631,-19.2303839994116,0.0 -44.300462,-19.2299249994116,0.0 -44.300221,-19.2294659994116,0.0 -44.300076,-19.2288689994116,0.0 -44.299883,-19.2283409994117,0.0 -44.299786,-19.2279049994117,0.0 -44.299642,-19.2273309994117,0.0 -44.299593,-19.2267579994117,0.0 -44.299545,-19.2262529994117,0.0 -44.299425,-19.2257249994117,0.0 -44.299425,-19.2252659994117,0.0 -44.299449,-19.2248069994118,0.0 -44.299594,-19.2242789994118,0.0 -44.299619,-19.2238199994118,0.0 -44.299571,-19.2232699994118,0.0 -44.29945,-19.2227189994118,0.0 -44.299329,-19.2222369994118,0.0 -44.299136,-19.2216859994118,0.0 -44.299016,-19.2212039994118,0.0 -44.298847,-19.2207679994119,0.0 -44.298629,-19.2203779994119,0.0 -44.298533,-19.2199419994119,0.0 -44.29834,-19.2195059994119,0.0 -44.298243,-19.2190009994119,0.0 -44.298099,-19.2184269994119,0.0 -44.298026,-19.2178529994119,0.0 -44.297954,-19.217256999412,0.0 -44.29793,-19.216820999412,0.0 -44.297737,-19.216246999412,0.0 -44.297496,-19.215764999412,0.0 -44.297182,-19.215305999412,0.0 -44.296892,-19.214961999412,0.0 -44.296361,-19.214846999412,0.0 -44.295878,-19.214685999412,0.0 -44.295419,-19.214501999412,0.0 -44.294308,-19.214593999412,0.0 -44.293728,-19.214569999412,0.0 -44.293269,-19.214546999412,0.0 -44.292786,-19.214546999412,0.0 -44.29211,-19.214179999412,0.0 -44.291651,-19.213972999412,0.0 -44.291168,-19.213559999412,0.0 -44.290733,-19.2130089994121,0.0 -44.290178,-19.2123889994121,0.0 -44.289888,-19.2119759994121,0.0 -44.289647,-19.2115859994121,0.0 -44.289405,-19.2111729994121,0.0 -44.289043,-19.2106449994121,0.0 -44.28873,-19.2100939994121,0.0 -44.288488,-19.2096119994121,0.0 -44.288223,-19.2091529994122,0.0 -44.287957,-19.2087169994122,0.0 -44.287692,-19.2082349994122,0.0 -44.287499,-19.2078219994122,0.0 -44.287209,-19.2074309994122,0.0 -44.286968,-19.2070179994122,0.0 -44.286654,-19.2066509994122,0.0 -44.286267,-19.2062379994122,0.0 -44.285833,-19.2060079994122,0.0 -44.285326,-19.2058239994122,0.0 -44.284891,-19.2056399994122,0.0 -44.28419,-19.2053879994123,0.0 -44.28349,-19.2052039994123,0.0 -44.28291,-19.2048819994123,0.0 -44.282548,-19.2045839994123,0.0 -44.28209,-19.2040789994123,0.0 -44.281752,-19.2036429994123,0.0 -44.28139,-19.2030919994123,0.0 -44.280907,-19.2024259994123,0.0 -44.280352,-19.2018059994123,0.0 -44.280014,-19.2013009994124,0.0 -44.279821,-19.2008649994124,0.0 -44.279748,-19.2004289994124,0.0 -44.279507,-19.1997869994124,0.0 -44.279314,-19.1990289994124,0.0 -44.279121,-19.1985699994124,0.0 -44.279025,-19.1981339994124,0.0 -44.278904,-19.1976289994125,0.0 -44.278784,-19.1971929994125,0.0 -44.278736,-19.1965279994125,0.0 -44.278567,-19.1960919994125,0.0 -44.278253,-19.1956329994125,0.0 -44.278036,-19.1952189994125,0.0 -44.277843,-19.1945539994125,0.0 -44.277553,-19.1940489994125,0.0 -44.277288,-19.1935899994126,0.0 -44.277023,-19.1931999994126,0.0 -44.27654,-19.1927399994126,0.0 -44.276105,-19.1923959994126,0.0 -44.275671,-19.1920289994126,0.0 -44.275284,-19.1916839994126,0.0 -44.27497,-19.1913399994126,0.0 -44.274536,-19.1906969994126,0.0 -44.274198,-19.1902839994126,0.0 -44.27386,-19.1897559994127,0.0 -44.273812,-19.1893199994127,0.0 -44.273668,-19.1887919994127,0.0 -44.273571,-19.1882869994127,0.0 -44.273475,-19.1876449994127,0.0 -44.273403,-19.1871399994127,0.0 -44.273355,-19.1865889994127,0.0 -44.273427,-19.1861069994128,0.0 -44.273524,-19.1855109994128,0.0 -44.273621,-19.1850749994128,0.0 -44.273742,-19.1845929994128,0.0 -44.273646,-19.1840649994128,0.0 -44.273646,-19.1836059994128,0.0 -44.2736647,-19.1832667994128,0.0 -44.27367,-19.1831699994128,0.0 -44.273791,-19.1826879994128,0.0 -44.273985,-19.1822289994128,0.0 -44.274154,-19.1816789994129,0.0 -44.274468,-19.1811969994129,0.0 -44.274831,-19.1808069994129,0.0 -44.275193,-19.1803939994129,0.0 -44.275532,-19.1800499994129,0.0 -44.275918,-19.1796829994129,0.0 -44.276377,-19.1792239994129,0.0 -44.276981,-19.1787199994129,0.0 -44.27732,-19.178329999413,0.0 -44.277586,-19.177916999413,0.0 -44.277924,-19.177457999413,0.0 -44.278238,-19.176998999413,0.0 -44.278649,-19.176448999413,0.0 -44.278746,-19.176012999413,0.0 -44.278698,-19.175461999413,0.0 -44.2786911,-19.175335999413,0.0 -44.278674,-19.175025999413,0.0 -44.278553,-19.174566999413,0.0 -44.278433,-19.1741309994131,0.0 -44.278071,-19.1736489994131,0.0 -44.277708,-19.1733269994131,0.0 -44.277201,-19.1730519994131,0.0 -44.276767,-19.1728909994131,0.0 -44.276235,-19.1730279994131,0.0 -44.275752,-19.1730279994131,0.0 -44.275221,-19.1730509994131,0.0 -44.274738,-19.1731649994131,0.0 -44.27462,-19.1731599994131,0.0 -44.274207,-19.1731419994131,0.0 -44.273651,-19.1730499994131,0.0 -44.273144,-19.1730039994131,0.0 -44.272589,-19.1730729994131,0.0 -44.272082,-19.1731409994131,0.0 -44.2716117,-19.1731406994131,0.0 -44.270536,-19.1731399994131,0.0 -44.269956,-19.1730249994131,0.0 -44.269111,-19.1728409994131,0.0 -44.268484,-19.1727259994131,0.0 -44.267952,-19.1725879994131,0.0 -44.266986,-19.1725419994131,0.0 -44.26631,-19.1723119994131,0.0 -44.265465,-19.1719679994131,0.0 -44.263944,-19.1715539994131,0.0 -44.263485,-19.1715309994131,0.0 -44.262954,-19.1714839994131,0.0 -44.262495,-19.1713469994131,0.0 -44.261916,-19.1710709994131,0.0 -44.261457,-19.1709099994131,0.0 -44.2612371,-19.1707989994131,0.0 -44.261047,-19.1707029994131,0.0 -44.260539,-19.1705419994132,0.0 -44.260105,-19.1703359994132,0.0 -44.259501,-19.1700599994132,0.0 -44.259067,-19.1698989994132,0.0 -44.258511,-19.1697149994132,0.0 -44.2584184,-19.1696707994132,0.0 -44.258077,-19.1695079994132,0.0 -44.257594,-19.1693699994132,0.0 -44.257184,-19.1690489994132,0.0 -44.256532,-19.1685669994132,0.0 -44.256146,-19.1682909994132,0.0 -44.25559,-19.1679009994132,0.0 -44.255277,-19.1675789994132,0.0 -44.254915,-19.1672809994132,0.0 -44.2546805,-19.1671197994132,0.0 -44.25448,-19.1669819994132,0.0 -44.253949,-19.1667289994133,0.0 -44.25337,-19.1663849994133,0.0 -44.252984,-19.1661089994133,0.0 -44.252549,-19.1658569994133,0.0 -44.251994,-19.1659479994133,0.0 -44.251245,-19.1661079994133,0.0 -44.250786,-19.1661999994133,0.0 -44.250206,-19.1661989994133,0.0 -44.249409,-19.1661529994133,0.0 -44.248951,-19.1661989994133,0.0 -44.248347,-19.1661979994133,0.0 -44.247864,-19.1662669994133,0.0 -44.247284,-19.1661979994133,0.0 -44.246681,-19.1660599994133,0.0 -44.246174,-19.1659679994133,0.0 -44.245522,-19.1657379994133,0.0 -44.245039,-19.1654619994133,0.0 -44.244508,-19.1652319994133,0.0 -44.244097,-19.1650249994133,0.0 -44.243615,-19.1648419994133,0.0 -44.243108,-19.1646579994133,0.0 -44.242407,-19.1644739994133,0.0 -44.241852,-19.1642439994133,0.0 -44.241393,-19.1641749994133,0.0 -44.240935,-19.1641509994133,0.0 -44.240452,-19.1642889994133,0.0 -44.240041,-19.1645409994133,0.0 -44.239582,-19.1646779994133,0.0 -44.238568,-19.1646779994133,0.0 -44.237891,-19.1648379994133,0.0 -44.23736,-19.1649519994133,0.0 -44.236708,-19.1649979994133,0.0 -44.236129,-19.1648599994133,0.0 -44.235573,-19.1647909994133,0.0 -44.234438,-19.1647899994133,0.0 -44.233835,-19.1647659994133,0.0 -44.231492,-19.1647649994133,0.0 -44.230985,-19.1648329994133,0.0 -44.230526,-19.1649709994133,0.0 -44.230019,-19.1650389994133,0.0 -44.229536,-19.1651079994133,0.0 -44.228353,-19.1651069994133,0.0 -44.227894,-19.1651289994133,0.0 -44.227387,-19.1651289994133,0.0 -44.226904,-19.1651059994133,0.0 -44.226227,-19.1650359994133,0.0 -44.225503,-19.1651049994133,0.0 -44.225044,-19.1651499994133,0.0 -44.224537,-19.1651959994133,0.0 -44.224078,-19.1652409994133,0.0 -44.22345,-19.1654929994133,0.0 -44.222967,-19.1655389994133,0.0 -44.222339,-19.1656069994133,0.0 -44.221711,-19.1656529994133,0.0 -44.221132,-19.1657209994133,0.0 -44.220624,-19.1657209994133,0.0 -44.219948,-19.1657429994133,0.0 -44.219441,-19.1657429994133,0.0 -44.218668,-19.1657649994133,0.0 -44.216857,-19.1657639994133,0.0 -44.216205,-19.1658319994133,0.0 -44.215722,-19.1659469994133,0.0 -44.215215,-19.1660839994133,0.0 -44.214708,-19.1663589994133,0.0 -44.214224,-19.1665419994133,0.0 -44.213693,-19.1669549994132,0.0 -44.21333,-19.1672759994132,0.0 -44.212944,-19.1675739994132,0.0 -44.212557,-19.1680319994132,0.0 -44.212243,-19.1683759994132,0.0 -44.211928,-19.1688349994132,0.0 -44.211662,-19.1692019994132,0.0 -44.211372,-19.1695919994132,0.0 -44.210985,-19.1700499994132,0.0 -44.210647,-19.1705319994132,0.0 -44.210429,-19.1709449994131,0.0 -44.210066,-19.1713579994131,0.0 -44.209559,-19.1719539994131,0.0 -44.209196,-19.1723209994131,0.0 -44.208785,-19.1726189994131,0.0 -44.208326,-19.1728479994131,0.0 -44.207892,-19.1730079994131,0.0 -44.207336,-19.1732139994131,0.0 -44.20678,-19.1735119994131,0.0 -44.206321,-19.1736029994131,0.0 -44.205862,-19.1737179994131,0.0 -44.205403,-19.1738779994131,0.0 -44.204872,-19.1739919994131,0.0 -44.204172,-19.1739919994131,0.0 -44.203616,-19.1738989994131,0.0 -44.202988,-19.1737609994131,0.0 -44.202385,-19.1735769994131,0.0 -44.201854,-19.1733469994131,0.0 -44.201419,-19.1731859994131,0.0 -44.200937,-19.1729559994131,0.0 -44.200478,-19.1727949994131,0.0 -44.199874,-19.1724739994131,0.0 -44.199199,-19.1720369994131,0.0 -44.198619,-19.1716919994131,0.0 -44.198233,-19.1713479994131,0.0 -44.197896,-19.1709799994131,0.0 -44.197485,-19.1706359994132,0.0 -44.197172,-19.1702679994132,0.0 -44.196593,-19.1697629994132,0.0 -44.196255,-19.1694639994132,0.0 -44.195845,-19.1692339994132,0.0 -44.19529,-19.1688899994132,0.0 -44.194758,-19.1686369994132,0.0 -44.1943,-19.1684299994132,0.0 -44.193793,-19.1682229994132,0.0 -44.193286,-19.1681079994132,0.0 -44.192537,-19.1679239994132,0.0 -44.192055,-19.1678539994132,0.0 -44.191523,-19.1677159994132,0.0 -44.191016,-19.1676009994132,0.0 -44.190558,-19.1673939994132,0.0 -44.190099,-19.1671409994132,0.0 -44.189472,-19.1668649994132,0.0 -44.188989,-19.1664979994133,0.0 -44.188313,-19.1661529994133,0.0 -44.18771,-19.1657849994133,0.0 -44.187179,-19.1655319994133,0.0 -44.18672,-19.1653249994133,0.0 -44.186214,-19.1650029994133,0.0 -44.185852,-19.1646819994133,0.0 -44.185417,-19.1643369994133,0.0 -44.185007,-19.1640389994133,0.0 -44.184597,-19.1636019994133,0.0 -44.184235,-19.1631889994133,0.0 -44.183801,-19.1628439994134,0.0 -44.183463,-19.1624999994134,0.0 -44.18286,-19.1622699994134,0.0 -44.18216,-19.1619479994134,0.0 -44.181556,-19.1616259994134,0.0 -44.181195,-19.1613269994134,0.0 -44.180784,-19.1611199994134,0.0 -44.180301,-19.1610739994134,0.0 -44.179818,-19.1610499994134,0.0 -44.179408,-19.1612569994134,0.0 -44.178997,-19.1614859994134,0.0 -44.178707,-19.1618749994134,0.0 -44.178634,-19.1623339994134,0.0 -44.178585,-19.1629539994133,0.0 -44.178367,-19.1635269994133,0.0 -44.178197,-19.1640549994133,0.0 -44.178004,-19.1645369994133,0.0 -44.177858,-19.1651329994133,0.0 -44.177713,-19.1655689994133,0.0 -44.177519,-19.1661419994133,0.0 -44.177374,-19.1666009994133,0.0 -44.177252,-19.1670369994132,0.0 -44.176986,-19.1674269994132,0.0 -44.176551,-19.1682069994132,0.0 -44.176454,-19.1686659994132,0.0 -44.176332,-19.1691469994132,0.0 -44.176163,-19.1696749994132,0.0 -44.176066,-19.1701109994132,0.0 -44.176017,-19.1706159994132,0.0 -44.175871,-19.1712579994131,0.0 -44.175677,-19.1718089994131,0.0 -44.175387,-19.1722439994131,0.0 -44.175049,-19.1726339994131,0.0 -44.174734,-19.1729549994131,0.0 -44.174372,-19.1732529994131,0.0 -44.173888,-19.1736649994131,0.0 -44.173381,-19.1737109994131,0.0 -44.173043,-19.1740089994131,0.0 -44.172704,-19.1744439994131,0.0 -44.172293,-19.174787999413,0.0 -44.171423,-19.175108999413,0.0 -44.17094,-19.175337999413,0.0 -44.170409,-19.175428999413,0.0 -44.169974,-19.175680999413,0.0 -44.169756,-19.176184999413,0.0 -44.169442,-19.176505999413,0.0 -44.169031,-19.176872999413,0.0 -44.168644,-19.177124999413,0.0 -44.168185,-19.177353999413,0.0 -44.167629,-19.177330999413,0.0 -44.167146,-19.177306999413,0.0 -44.166736,-19.177535999413,0.0 -44.166252,-19.177626999413,0.0 -44.165794,-19.177603999413,0.0 -44.16531,-19.177786999413,0.0 -44.165044,-19.178199999413,0.0 -44.164513,-19.1785659994129,0.0 -44.164029,-19.1786119994129,0.0 -44.163643,-19.1788639994129,0.0 -44.16316,-19.1789089994129,0.0 -44.162556,-19.1787709994129,0.0 -44.161976,-19.1788389994129,0.0 -44.16101,-19.1792509994129,0.0 -44.160503,-19.1794569994129,0.0 -44.160043,-19.1795939994129,0.0 -44.15956,-19.1795939994129,0.0 -44.159053,-19.1795699994129,0.0 -44.158498,-19.1798219994129,0.0 -44.158063,-19.1800279994129,0.0 -44.1577,-19.1803259994129,0.0 -44.157337,-19.1806009994129,0.0 -44.156926,-19.1809449994129,0.0 -44.15654,-19.1812199994129,0.0 -44.156346,-19.1816559994129,0.0 -44.155983,-19.1819529994129,0.0 -44.155043,-19.1825939994128,0.0 -44.154686,-19.1829019994128,0.0 -44.15446,-19.1832829994128,0.0 -44.154922,-19.1832409994128,0.0 -44.155305,-19.1833979994128,0.0 -44.155716,-19.1836509994128,0.0 -44.156102,-19.1839039994128,0.0 -44.156439,-19.1842259994128,0.0 -44.156825,-19.1845699994128,0.0 -44.156535,-19.1849139994128,0.0 -44.156052,-19.1849369994128,0.0 -44.155545,-19.1849359994128,0.0 -44.155544,-19.1853949994128,0.0 -44.155641,-19.1858309994128,0.0 -44.155592,-19.1862669994127,0.0 -44.155108,-19.1864959994127,0.0 -44.155277,-19.1869549994127,0.0 -44.155566,-19.1873449994127,0.0 -44.155807,-19.1877819994127,0.0 -44.155831,-19.1882409994127,0.0 -44.155685,-19.1886989994127,0.0 -44.155661,-19.1891809994127,0.0 -44.156119,-19.1893879994127,0.0 -44.156578,-19.1891819994127,0.0 -44.156941,-19.1889069994127,0.0 -44.157231,-19.1885409994127,0.0 -44.157497,-19.1881049994127,0.0 -44.15786,-19.1878069994127,0.0 -44.158319,-19.1876009994127,0.0 -44.158778,-19.1875559994127,0.0 -44.159333,-19.1876249994127,0.0 -44.159671,-19.1881299994127,0.0 -44.15996,-19.1884749994127,0.0 -44.160177,-19.1889569994127,0.0 -44.160442,-19.1893469994127,0.0 -44.160756,-19.1896689994127,0.0 -44.161094,-19.1899899994126,0.0 -44.161625,-19.1901749994127,0.0 -44.162084,-19.1902899994126,0.0 -44.162398,-19.1899689994126,0.0 -44.162712,-19.1895559994127,0.0 -44.163147,-19.1892809994127,0.0 -44.163631,-19.1890749994127,0.0 -44.164114,-19.1889149994127,0.0 -44.164549,-19.1885939994127,0.0 -44.165056,-19.1886179994127,0.0 -44.165491,-19.1888479994127,0.0 -44.16578,-19.1892149994127,0.0 -44.165731,-19.1896509994127,0.0 -44.165562,-19.1900639994127,0.0 -44.16544,-19.1905459994126,0.0 -44.165223,-19.1909359994126,0.0 -44.165029,-19.1913709994126,0.0 -44.165245,-19.1921059994126,0.0 -44.165317,-19.1926109994126,0.0 -44.165172,-19.1930469994126,0.0 -44.165171,-19.1935059994126,0.0 -44.164833,-19.1938499994126,0.0 -44.164711,-19.1944459994125,0.0 -44.164397,-19.1948819994125,0.0 -44.164227,-19.1954549994125,0.0 -44.163985,-19.1958909994125,0.0 -44.164057,-19.1963269994125,0.0 -44.164322,-19.1966939994125,0.0 -44.164442,-19.1971309994125,0.0 -44.164345,-19.1976349994125,0.0 -44.164417,-19.1980709994124,0.0 -44.164272,-19.1985299994124,0.0 -44.164199,-19.1989889994124,0.0 -44.164005,-19.1994019994124,0.0 -44.164125,-19.1998379994124,0.0 -44.164197,-19.2002739994124,0.0 -44.163883,-19.2006179994124,0.0 -44.163786,-19.2010539994124,0.0 -44.163616,-19.2014669994124,0.0 -44.163422,-19.2019249994123,0.0 -44.163374,-19.2023839994123,0.0 -44.163494,-19.2029119994123,0.0 -44.163203,-19.2033019994123,0.0 -44.16272,-19.2035539994123,0.0 -44.162671,-19.2040359994123,0.0 -44.162888,-19.2044259994123,0.0 -44.163081,-19.2049769994123,0.0 -44.162911,-19.2054359994122,0.0 -44.16279,-19.2059399994122,0.0 -44.162523,-19.2063989994122,0.0 -44.162354,-19.2068349994122,0.0 -44.162257,-19.2073399994122,0.0 -44.162353,-19.2078669994122,0.0 -44.162618,-19.2082809994122,0.0 -44.162786,-19.2087859994122,0.0 -44.162882,-19.2092909994121,0.0 -44.162809,-19.2097499994121,0.0 -44.16276,-19.2101859994121,0.0 -44.162808,-19.2106449994121,0.0 -44.162856,-19.2111949994121,0.0 -44.162686,-19.2116999994121,0.0 -44.162444,-19.2121129994121,0.0 -44.162154,-19.2124799994121,0.0 -44.161694,-19.2127999994121,0.0 -44.161428,-19.213166999412,0.0 -44.160993,-19.213533999412,0.0 -44.160679,-19.213854999412,0.0 -44.160244,-19.214152999412,0.0 -44.159857,-19.214495999412,0.0 -44.159494,-19.214770999412,0.0 -44.158672,-19.215228999412,0.0 -44.158285,-19.215526999412,0.0 -44.157898,-19.215870999412,0.0 -44.157584,-19.216398999412,0.0 -44.157414,-19.216810999412,0.0 -44.157196,-19.2172009994119,0.0 -44.157002,-19.2178209994119,0.0 -44.15676,-19.2182789994119,0.0 -44.156542,-19.2186689994119,0.0 -44.156373,-19.2191049994119,0.0 -44.156058,-19.2195179994119,0.0 -44.155792,-19.2199069994119,0.0 -44.155381,-19.2202509994119,0.0 -44.154873,-19.2204109994119,0.0 -44.154414,-19.2205709994119,0.0 -44.153931,-19.2207539994119,0.0 -44.153592,-19.2210519994118,0.0 -44.153519,-19.2214879994118,0.0 -44.153784,-19.2219469994118,0.0 -44.15417,-19.2223609994118,0.0 -44.154629,-19.2225679994118,0.0 -44.155112,-19.2227289994118,0.0 -44.155812,-19.2229589994118,0.0 -44.156464,-19.2231209994118,0.0 -44.157044,-19.2231669994118,0.0 -44.157503,-19.2233739994118,0.0 -44.157913,-19.2236729994118,0.0 -44.158323,-19.2239259994118,0.0 -44.158806,-19.2243619994118,0.0 -44.159288,-19.2248679994117,0.0 -44.159819,-19.2254189994117,0.0 -44.160157,-19.2259239994117,0.0 -44.160398,-19.2263149994117,0.0 -44.160663,-19.2267969994117,0.0 -44.160735,-19.2273249994117,0.0 -44.160831,-19.2278069994117,0.0 -44.160806,-19.2283109994117,0.0 -44.160709,-19.2288849994116,0.0 -44.160612,-19.2293439994116,0.0 -44.16037,-19.2297339994116,0.0 -44.159886,-19.2300539994116,0.0 -44.159523,-19.2303519994116,0.0 -44.159064,-19.2306729994116,0.0 -44.158605,-19.2309019994116,0.0 -44.158025,-19.2311999994116,0.0 -44.157589,-19.2314059994116,0.0 -44.15713,-19.2315199994116,0.0 -44.156671,-19.2314279994116,0.0 -44.156092,-19.2313809994116,0.0 -44.155464,-19.2311049994116,0.0 -44.155005,-19.2310129994116,0.0 -44.154498,-19.2308519994116,0.0 -44.153991,-19.2306439994116,0.0 -44.153387,-19.2305059994116,0.0 -44.15288,-19.2304599994116,0.0 -44.152396,-19.2306659994116,0.0 -44.152034,-19.2309859994116,0.0 -44.151623,-19.2313069994116,0.0 -44.151187,-19.2315359994116,0.0 -44.150801,-19.2318109994116,0.0 -44.15039,-19.2321089994116,0.0 -44.150123,-19.2324759994116,0.0 -44.149736,-19.2327279994116,0.0 -44.14935,-19.2330259994115,0.0 -44.148963,-19.2333009994115,0.0 -44.148504,-19.2333689994115,0.0 -44.148189,-19.2336899994115,0.0 -44.147826,-19.2340569994115,0.0 -44.147488,-19.2343769994115,0.0 -44.147028,-19.2345829994115,0.0 -44.146448,-19.2347889994115,0.0 -44.145965,-19.2349489994115,0.0 -44.14565,-19.2353389994115,0.0 -44.14536,-19.2356829994115,0.0 -44.144973,-19.2359349994115,0.0 -44.144635,-19.2362559994115,0.0 -44.144272,-19.2365769994114,0.0 -44.143836,-19.2369889994114,0.0 -44.14357,-19.2373559994114,0.0 -44.143376,-19.2377689994114,0.0 -44.143255,-19.2382049994114,0.0 -44.143061,-19.2386169994114,0.0 -44.142843,-19.2390759994114,0.0 -44.142649,-19.2395349994114,0.0 -44.142431,-19.2400159994114,0.0 -44.142261,-19.2404289994113,0.0 -44.141875,-19.2407499994113,0.0 -44.141367,-19.2408869994113,0.0 -44.140956,-19.2410929994113,0.0 -44.140617,-19.2414139994113,0.0 -44.140327,-19.2417809994113,0.0 -44.13994,-19.2421239994113,0.0 -44.139722,-19.2425829994113,0.0 -44.139432,-19.2429499994113,0.0 -44.139045,-19.2432019994113,0.0 -44.138585,-19.2433849994113,0.0 -44.138344,-19.2435259994113,0.0 -44.138343,-19.2438659994113,0.0 -44.138318,-19.2443939994112,0.0 -44.138318,-19.2448759994112,0.0 -44.138341,-19.2453119994112,0.0 -44.138679,-19.2456799994112,0.0 -44.139162,-19.2457259994112,0.0 -44.139621,-19.2459789994112,0.0 -44.139789,-19.2464839994112,0.0 -44.139668,-19.2469429994112,0.0 -44.139715,-19.2473789994112,0.0 -44.140199,-19.2474709994112,0.0 -44.140609,-19.2477239994112,0.0 -44.140802,-19.2481379994112,0.0 -44.140656,-19.2485959994111,0.0 -44.140486,-19.2490089994111,0.0 -44.140921,-19.2493309994111,0.0 -44.14138,-19.2493539994111,0.0 -44.141839,-19.2492859994111,0.0 -44.142298,-19.2491259994111,0.0 -44.142757,-19.2491039994111,0.0 -44.143217,-19.2488979994111,0.0 -44.143676,-19.2488289994111,0.0 -44.144135,-19.2488529994111,0.0 -44.144569,-19.2491059994111,0.0 -44.14498,-19.2493359994111,0.0 -44.1452215,-19.2494739994111,0.0 -44.145463,-19.2496119994111,0.0 -44.145801,-19.2499559994111,0.0 -44.146211,-19.2504389994111,0.0 -44.1465,-19.2508059994111,0.0 -44.146838,-19.2511969994111,0.0 -44.146378,-19.2514479994111,0.0 -44.145919,-19.2516319994111,0.0 -44.145918,-19.252112999411,0.0 -44.146305,-19.252388999411,0.0 -44.146715,-19.252618999411,0.0 -44.147343,-19.253009999411,0.0 -44.147681,-19.253308999411,0.0 -44.147849,-19.253721999411,0.0 -44.147897,-19.254157999411,0.0 -44.147438,-19.254271999411,0.0 -44.146954,-19.254362999411,0.0 -44.146495,-19.254568999411,0.0 -44.14606,-19.254774999411,0.0 -44.14577,-19.255118999411,0.0 -44.145576,-19.255577999411,0.0 -44.145793,-19.255967999411,0.0 -44.146106,-19.2562899994109,0.0 -44.146517,-19.2566349994109,0.0 -44.146951,-19.2569099994109,0.0 -44.147337,-19.2571629994109,0.0 -44.147651,-19.2575079994109,0.0 -44.147699,-19.2580359994109,0.0 -44.14765,-19.2585179994109,0.0 -44.147698,-19.2589989994109,0.0 -44.147963,-19.2593899994109,0.0 -44.148446,-19.2594359994109,0.0 -44.148833,-19.2591609994109,0.0 -44.149123,-19.2588179994109,0.0 -44.14939,-19.2584049994109,0.0 -44.149873,-19.2584739994109,0.0 -44.1499224,-19.2584949994109,0.0 -44.1502611,-19.2586384994109,0.0 -44.150307,-19.2586579994109,0.0 -44.150791,-19.2586129994109,0.0 -44.151298,-19.2586369994109,0.0 -44.151684,-19.2588889994109,0.0 -44.151466,-19.2592789994109,0.0 -44.151321,-19.2597149994109,0.0 -44.151103,-19.2601049994108,0.0 -44.151344,-19.2605179994108,0.0 -44.151634,-19.2608859994108,0.0 -44.15202,-19.2612989994108,0.0 -44.152381,-19.2617589994108,0.0 -44.1524535,-19.2619769994108,0.0 -44.152526,-19.2621949994108,0.0 -44.15296,-19.2626309994108,0.0 -44.153274,-19.2629529994108,0.0 -44.153322,-19.2633889994108,0.0 -44.153176,-19.2638249994107,0.0 -44.153224,-19.2642839994107,0.0 -44.153465,-19.2646739994107,0.0 -44.153319,-19.2652019994107,0.0 -44.153343,-19.2657289994107,0.0 -44.153536,-19.2661659994107,0.0 -44.153656,-19.2666019994107,0.0 -44.153897,-19.2670379994107,0.0 -44.154259,-19.2675429994106,0.0 -44.154307,-19.2679789994106,0.0 -44.154645,-19.2682779994106,0.0 -44.154523,-19.2687139994106,0.0 -44.15474,-19.2691269994106,0.0 -44.155247,-19.2691739994106,0.0 -44.155295,-19.2696099994106,0.0 -44.155512,-19.2700229994106,0.0 -44.155439,-19.2705279994106,0.0 -44.155584,-19.2709639994106,0.0 -44.15568,-19.2715149994106,0.0 -44.155655,-19.2719959994105,0.0 -44.155993,-19.2723639994105,0.0 -44.15633,-19.2726629994105,0.0 -44.156427,-19.2731219994105,0.0 -44.156668,-19.2735349994105,0.0 -44.157006,-19.2738339994105,0.0 -44.157222,-19.2743389994105,0.0 -44.157391,-19.2747979994105,0.0 -44.157463,-19.2752569994105,0.0 -44.157414,-19.2757389994104,0.0 -44.157365,-19.2762439994104,0.0 -44.157485,-19.2768169994104,0.0 -44.157654,-19.2772529994104,0.0 -44.157871,-19.2776439994104,0.0 -44.158136,-19.2781489994104,0.0 -44.158425,-19.2790669994104,0.0 -44.158569,-19.2795029994103,0.0 -44.158883,-19.2799169994103,0.0 -44.159076,-19.2803299994103,0.0 -44.159075,-19.2808349994103,0.0 -44.159195,-19.2812709994103,0.0 -44.15934,-19.2817759994103,0.0 -44.159605,-19.2822119994103,0.0 -44.159774,-19.2826249994103,0.0 -44.159918,-19.2831989994102,0.0 -44.160014,-19.2837269994102,0.0 -44.1600974,-19.2841658994102,0.0 -44.16011,-19.2842319994102,0.0 -44.160206,-19.2848059994102,0.0 -44.160543,-19.2856319994102,0.0 -44.160809,-19.2859999994102,0.0 -44.161122,-19.2863439994102,0.0 -44.161436,-19.2867579994102,0.0 -44.161653,-19.2871709994102,0.0 -44.161773,-19.2876069994101,0.0 -44.161749,-19.2880429994101,0.0 -44.161651,-19.2885249994101,0.0 -44.161603,-19.2890069994101,0.0 -44.161481,-19.2894419994101,0.0 -44.161432,-19.2898779994101,0.0 -44.161287,-19.2903139994101,0.0 -44.160947,-19.29118599941,0.0 -44.160923,-19.29164499941,0.0 -44.1607468,-19.29194719941,0.0 -44.160656,-19.29210299941,0.0 -44.160438,-19.29263099941,0.0 -44.160438,-19.29274699941,0.0 -44.160655,-19.29274599941,0.0 -44.161139,-19.29279199941,0.0 -44.161622,-19.29279299941,0.0 -44.162251,-19.29274799941,0.0 -44.162879,-19.29272499941,0.0 -44.163507,-19.29272599941,0.0 -44.164015,-19.29268099941,0.0 -44.1641274,-19.29269169941,0.0 -44.164498,-19.29272699941,0.0 -44.164697,-19.29276519941,0.0 -44.165223,-19.29286599941,0.0 -44.165875,-19.29286599941,0.0 -44.166334,-19.29293599941,0.0 -44.166866,-19.29311999941,0.0 -44.167422,-19.29328099941,0.0 -44.167881,-19.29339599941,0.0 -44.1683418,-19.29352759941,0.0 -44.1687739,-19.29436489941,0.0 -44.1698007,-19.29453819941,0.0 -44.1713986,-19.2956150994099,0.0 -44.1806631,-19.2986445994098,0.0 -44.1825443,-19.2992597994098,0.0 -44.1870521,-19.3007337994098,0.0 -44.1874467,-19.3007843994098,0.0 -44.187658,-19.3008114994098,0.0 -44.1879894,-19.3009330994098,0.0 -44.1888039,-19.3014563994098,0.0 -44.1889078,-19.3016052994098,0.0 -44.1969447,-19.3030058994097,0.0 -44.2008391,-19.3036849994097,0.0 -44.2010896,-19.3036829994097,0.0 -44.2017553,-19.3036104994097,0.0 -44.2064821,-19.3030961994097,0.0 -44.2077447,-19.3029587994097,0.0 -44.2085638,-19.3023606994098,0.0 -44.20857,-19.3023609994098,0.0 -44.209271,-19.3024079994097,0.0 -44.209947,-19.3024309994097,0.0 -44.210431,-19.3025689994097,0.0 -44.21089,-19.3027529994097,0.0 -44.21159,-19.3030519994097,0.0 -44.212073,-19.3031899994097,0.0 -44.212774,-19.3033969994097,0.0 -44.213668,-19.3035819994097,0.0 -44.214224,-19.3037199994097,0.0 -44.214828,-19.3038579994097,0.0 -44.215384,-19.3039729994097,0.0 -44.215891,-19.3040649994097,0.0 -44.21652,-19.3041809994097,0.0 -44.217124,-19.3042499994097,0.0 -44.217631,-19.3044339994097,0.0 -44.218187,-19.3045949994097,0.0 -44.218646,-19.3046639994097,0.0 -44.219105,-19.3047559994097,0.0 -44.219588,-19.3049629994097,0.0 -44.22012,-19.3051239994097,0.0 -44.220942,-19.3053079994097,0.0 -44.221401,-19.3053779994097,0.0 -44.221884,-19.3055619994097,0.0 -44.222609,-19.3056079994097,0.0 -44.223237,-19.3056089994097,0.0 -44.224059,-19.3056549994097,0.0 -44.224808,-19.3057239994097,0.0 -44.225388,-19.3057939994097,0.0 -44.226065,-19.3057709994097,0.0 -44.226669,-19.3058179994097,0.0 -44.227128,-19.3058869994097,0.0 -44.227757,-19.3060019994097,0.0 -44.22853,-19.3062319994097,0.0 -44.229062,-19.3063009994097,0.0 -44.229738,-19.3063939994097,0.0 -44.230415,-19.3065089994096,0.0 -44.230946,-19.3066469994096,0.0 -44.23143,-19.3067619994096,0.0 -44.23184,-19.3069919994096,0.0 -44.2323,-19.3071759994096,0.0 -44.232734,-19.3073819994096,0.0 -44.233121,-19.3076579994096,0.0 -44.233507,-19.3079109994096,0.0 -44.234015,-19.3082549994096,0.0 -44.234498,-19.3085079994096,0.0 -44.234981,-19.3087379994096,0.0 -44.235392,-19.3089449994096,0.0 -44.235923,-19.3091749994096,0.0 -44.236479,-19.3094039994096,0.0 -44.237059,-19.3095649994096,0.0 -44.23747,-19.3097719994096,0.0 -44.237929,-19.3099099994096,0.0 -44.238509,-19.3101629994095,0.0 -44.239185,-19.3103699994095,0.0 -44.239669,-19.3105999994095,0.0 -44.240297,-19.3107379994095,0.0 -44.240756,-19.3108989994095,0.0 -44.241264,-19.3109909994095,0.0 -44.241868,-19.3111519994095,0.0 -44.2420249,-19.3111967994095,0.0 -44.242351,-19.3112899994095,0.0 -44.242979,-19.3114739994095,0.0 -44.243463,-19.3116579994095,0.0 -44.243897,-19.3118879994095,0.0 -44.244284,-19.3121399994095,0.0 -44.244719,-19.3124159994095,0.0 -44.24513,-19.3126459994095,0.0 -44.245637,-19.3128529994095,0.0 -44.246096,-19.3131969994095,0.0 -44.246603,-19.3134269994095,0.0 -44.247111,-19.3134729994095,0.0 -44.247957,-19.3134279994095,0.0 -44.248416,-19.3135429994095,0.0 -44.248899,-19.3137729994095,0.0 -44.249334,-19.3140249994095,0.0 -44.249672,-19.3143239994094,0.0 -44.250035,-19.3146449994094,0.0 -44.250325,-19.3150359994094,0.0 -44.250542,-19.3154489994094,0.0 -44.250807,-19.3159769994094,0.0 -44.251025,-19.3164129994094,0.0 -44.251266,-19.3168259994094,0.0 -44.251435,-19.3172619994094,0.0 -44.251652,-19.3177209994094,0.0 -44.251942,-19.3181339994094,0.0 -44.252256,-19.3184789994093,0.0 -44.252642,-19.3189379994093,0.0 -44.253005,-19.3192589994093,0.0 -44.253415,-19.3196499994093,0.0 -44.253898,-19.3200629994093,0.0 -44.254212,-19.3204069994093,0.0 -44.254551,-19.3207059994093,0.0 -44.254913,-19.3211879994093,0.0 -44.255251,-19.3217389994093,0.0 -44.25542,-19.3221749994092,0.0 -44.255565,-19.3226799994092,0.0 -44.255661,-19.3231159994092,0.0 -44.255806,-19.3235979994092,0.0 -44.255975,-19.3240339994092,0.0 -44.256192,-19.3244699994092,0.0 -44.256288,-19.3249979994092,0.0 -44.256505,-19.3254569994092,0.0 -44.256844,-19.3259159994092,0.0 -44.257133,-19.3262609994091,0.0 -44.257447,-19.3266049994091,0.0 -44.257858,-19.3269949994091,0.0 -44.258196,-19.3273629994091,0.0 -44.258534,-19.3277529994091,0.0 -44.258752,-19.3281429994091,0.0 -44.258993,-19.3285339994091,0.0 -44.25921,-19.3290839994091,0.0 -44.259452,-19.3295659994091,0.0 -44.259621,-19.329979999409,0.0 -44.259911,-19.330346999409,0.0 -44.260249,-19.330759999409,0.0 -44.260877,-19.331310999409,0.0 -44.26136,-19.331609999409,0.0 -44.261795,-19.331793999409,0.0 -44.262303,-19.331931999409,0.0 -44.262762,-19.332114999409,0.0 -44.263197,-19.332436999409,0.0 -44.263559,-19.332803999409,0.0 -44.263898,-19.333125999409,0.0 -44.264236,-19.3335159994089,0.0 -44.264429,-19.3339749994089,0.0 -44.264622,-19.3343879994089,0.0 -44.264815,-19.3348239994089,0.0 -44.265032,-19.3352599994089,0.0 -44.265371,-19.3357199994089,0.0 -44.265685,-19.3360409994089,0.0 -44.266192,-19.3363619994089,0.0 -44.266724,-19.3366149994089,0.0 -44.267183,-19.3368219994089,0.0 -44.267642,-19.3371209994089,0.0 -44.26798,-19.3374419994089,0.0 -44.268367,-19.3376949994088,0.0 -44.268754,-19.3380619994088,0.0 -44.269164,-19.3384749994088,0.0 -44.269478,-19.3387969994088,0.0 -44.269937,-19.3391639994088,0.0 -44.270348,-19.3394849994088,0.0 -44.270832,-19.3397379994088,0.0 -44.271436,-19.3398989994088,0.0 -44.271968,-19.3398079994088,0.0 -44.272899,-19.3397059994088,0.0 -44.272282,-19.3393719994088,0.0 -44.272089,-19.3389129994088,0.0 -44.272017,-19.3384539994088,0.0 -44.27209,-19.3379719994088,0.0 -44.272211,-19.3374899994089,0.0 -44.272477,-19.3370539994089,0.0 -44.272405,-19.3366179994089,0.0 -44.272284,-19.3361819994089,0.0 -44.272091,-19.3357459994089,0.0 -44.271898,-19.3353329994089,0.0 -44.27168,-19.3349199994089,0.0 -44.271294,-19.3345979994089,0.0 -44.271197,-19.3341619994089,0.0 -44.271077,-19.3336339994089,0.0 -44.270835,-19.333082999409,0.0 -44.270545,-19.332738999409,0.0 -44.270401,-19.332302999409,0.0 -44.270619,-19.331706999409,0.0 -44.271054,-19.330880999409,0.0 -44.271296,-19.330352999409,0.0 -44.271176,-19.329847999409,0.0 -44.271176,-19.3293889994091,0.0 -44.271466,-19.3290449994091,0.0 -44.271829,-19.3286779994091,0.0 -44.272264,-19.3282879994091,0.0 -44.272627,-19.3280129994091,0.0 -44.2727,-19.3275539994091,0.0 -44.272362,-19.3271869994091,0.0 -44.271927,-19.3268879994091,0.0 -44.271709,-19.3264749994091,0.0 -44.271589,-19.3259929994091,0.0 -44.271637,-19.3254879994092,0.0 -44.271638,-19.3249839994092,0.0 -44.271444,-19.3245239994092,0.0 -44.271372,-19.3240879994092,0.0 -44.271058,-19.3236289994092,0.0 -44.270527,-19.3232619994092,0.0 -44.270019,-19.3229859994092,0.0 -44.26956,-19.3228709994092,0.0 -44.269101,-19.3227789994092,0.0 -44.268617,-19.3226639994092,0.0 -44.268086,-19.3226869994092,0.0 -44.267578,-19.3227099994092,0.0 -44.267046,-19.3227089994092,0.0 -44.266514,-19.3227779994092,0.0 -44.266079,-19.3225939994092,0.0 -44.265572,-19.3224559994092,0.0 -44.265089,-19.3222259994092,0.0 -44.26475,-19.3218589994093,0.0 -44.264461,-19.3214459994093,0.0 -44.264122,-19.3210789994093,0.0 -44.264026,-19.3205509994093,0.0 -44.263978,-19.3201149994093,0.0 -44.264051,-19.3196329994093,0.0 -44.264027,-19.3191279994093,0.0 -44.263858,-19.3187149994093,0.0 -44.263713,-19.3182789994093,0.0 -44.263617,-19.3178199994094,0.0 -44.263472,-19.3173609994094,0.0 -44.263376,-19.3169019994094,0.0 -44.263328,-19.3163969994094,0.0 -44.263473,-19.3158919994094,0.0 -44.263787,-19.3155709994094,0.0 -44.26386,-19.3150659994094,0.0 -44.26386,-19.3145609994094,0.0 -44.263546,-19.3141939994095,0.0 -44.26316,-19.3139419994095,0.0 -44.26287,-19.3135739994095,0.0 -44.262629,-19.3131379994095,0.0 -44.262436,-19.3126099994095,0.0 -44.261904,-19.3123119994095,0.0 -44.261517,-19.3118979994095,0.0 -44.261518,-19.3114389994095,0.0 -44.261856,-19.3110949994095,0.0 -44.262147,-19.3107049994095,0.0 -44.262147,-19.3102009994095,0.0 -44.262171,-19.3097649994096,0.0 -44.262462,-19.3093749994096,0.0 -44.262849,-19.3090769994096,0.0 -44.263308,-19.3088929994096,0.0 -44.263719,-19.3084799994096,0.0 -44.263889,-19.3079989994096,0.0 -44.26442,-19.3080449994096,0.0 -44.264904,-19.3081369994096,0.0 -44.265121,-19.3077009994096,0.0 -44.264832,-19.3072649994096,0.0 -44.264784,-19.3066449994096,0.0 -44.264445,-19.3062319994097,0.0 -44.264011,-19.3060019994097,0.0 -44.263551,-19.3058869994097,0.0 -44.263213,-19.3055889994097,0.0 -44.263068,-19.3051069994097,0.0 -44.26302,-19.3046479994097,0.0 -44.262876,-19.3041889994097,0.0 -44.262538,-19.3038439994097,0.0 -44.262175,-19.3035459994097,0.0 -44.26174,-19.3033849994097,0.0 -44.261257,-19.3033159994097,0.0 -44.261015,-19.3029259994097,0.0 -44.260822,-19.3023289994098,0.0 -44.26046,-19.3020299994098,0.0 -44.26017,-19.3016859994098,0.0 -44.259856,-19.3013419994098,0.0 -44.259373,-19.3014099994098,0.0 -44.258914,-19.3013639994098,0.0 -44.25843,-19.3014559994098,0.0 -44.258019,-19.3016619994098,0.0 -44.25756,-19.3016159994098,0.0 -44.257174,-19.3013399994098,0.0 -44.256739,-19.3011099994098,0.0 -44.256449,-19.3007659994098,0.0 -44.256232,-19.3003299994098,0.0 -44.255966,-19.2998249994098,0.0 -44.255676,-19.2994809994098,0.0 -44.255241,-19.2993199994098,0.0 -44.255,-19.2989289994098,0.0 -44.254517,-19.2989749994098,0.0 -44.254203,-19.2986309994099,0.0 -44.253768,-19.2984469994099,0.0 -44.253599,-19.2980339994099,0.0 -44.253212,-19.2976889994099,0.0 -44.252995,-19.2972299994099,0.0 -44.252947,-19.2966559994099,0.0 -44.252875,-19.2961969994099,0.0 -44.252803,-19.2956929994099,0.0 -44.252803,-19.2951879994099,0.0 -44.252876,-19.29472899941,0.0 -44.253118,-19.29429299941,0.0 -44.253118,-19.29381099941,0.0 -44.253046,-19.29330599941,0.0 -44.252732,-19.29296199941,0.0 -44.25237,-19.29268599941,0.0 -44.252346,-19.29222699941,0.0 -44.251863,-19.29190599941,0.0 -44.251694,-19.29149299941,0.0 -44.251356,-19.29119399941,0.0 -44.251308,-19.2907579994101,0.0 -44.251453,-19.2902759994101,0.0 -44.251671,-19.2898859994101,0.0 -44.25184,-19.2894269994101,0.0 -44.251889,-19.2889689994101,0.0 -44.251841,-19.2884869994101,0.0 -44.25201,-19.2880739994101,0.0 -44.252132,-19.2876379994101,0.0 -44.252132,-19.2871789994101,0.0 -44.252253,-19.2867199994102,0.0 -44.252471,-19.2862839994102,0.0 -44.252399,-19.2858019994102,0.0 -44.252085,-19.2854579994102,0.0 -44.251795,-19.2850669994102,0.0 -44.251457,-19.2847459994102,0.0 -44.251288,-19.2843329994102,0.0 -44.251216,-19.2838279994102,0.0 -44.251071,-19.2833919994102,0.0 -44.250878,-19.2829789994103,0.0 -44.250757,-19.2825199994103,0.0 -44.250516,-19.2821289994103,0.0 -44.250057,-19.2819229994103,0.0 -44.24955,-19.2819219994103,0.0 -44.249284,-19.2815319994103,0.0 -44.248777,-19.2815089994103,0.0 -44.248269,-19.2816689994103,0.0 -44.247713,-19.2817149994103,0.0 -44.247496,-19.2813009994103,0.0 -44.247545,-19.2808429994103,0.0 -44.247521,-19.2802689994103,0.0 -44.247666,-19.2798329994103,0.0 -44.247691,-19.2792589994103,0.0 -44.247377,-19.2788689994104,0.0 -44.247546,-19.2784329994104,0.0 -44.247571,-19.2779739994104,0.0 -44.247208,-19.2776759994104,0.0 -44.246725,-19.2776979994104,0.0 -44.246387,-19.2773999994104,0.0 -44.24646,-19.2769409994104,0.0 -44.246605,-19.2765049994104,0.0 -44.246436,-19.2760689994104,0.0 -44.246243,-19.2755409994104,0.0 -44.246364,-19.2752314994105,0.0 -44.246485,-19.2749219994105,0.0 -44.246123,-19.2746229994105,0.0 -44.246244,-19.2741869994105,0.0 -44.2461,-19.2736589994105,0.0 -44.246438,-19.2733379994105,0.0 -44.246849,-19.2731089994105,0.0 -44.247236,-19.2728569994105,0.0 -44.247115,-19.2723979994105,0.0 -44.246584,-19.2722369994105,0.0 -44.246149,-19.2720069994105,0.0 -44.245714,-19.2717539994105,0.0 -44.245207,-19.2717309994105,0.0 -44.244699,-19.2717309994105,0.0 -44.244265,-19.2715239994106,0.0 -44.244047,-19.2711339994106,0.0 -44.243709,-19.2708119994106,0.0 -44.24325,-19.2707659994106,0.0 -44.242816,-19.2705129994106,0.0 -44.242623,-19.2700769994106,0.0 -44.242575,-19.2696179994106,0.0 -44.242527,-19.2691819994106,0.0 -44.24214,-19.2689069994106,0.0 -44.241657,-19.2689519994106,0.0 -44.241319,-19.2686539994106,0.0 -44.241657,-19.2683329994106,0.0 -44.241754,-19.2678509994106,0.0 -44.241465,-19.2675059994106,0.0 -44.241005,-19.2675289994107,0.0 -44.240474,-19.2673679994107,0.0 -44.240547,-19.2669319994107,0.0 -44.240765,-19.2665419994107,0.0 -44.241007,-19.2659919994107,0.0 -44.241031,-19.2655559994107,0.0 -44.240959,-19.2650279994107,0.0 -44.241177,-19.2645459994107,0.0 -44.241588,-19.2642939994107,0.0 -44.242047,-19.2644319994107,0.0 -44.24253,-19.2645469994107,0.0 -44.243037,-19.2644779994107,0.0 -44.243545,-19.2643869994107,0.0 -44.244076,-19.2645249994107,0.0 -44.244535,-19.2645709994107,0.0 -44.244874,-19.2642499994107,0.0 -44.245092,-19.2637679994107,0.0 -44.245189,-19.2632179994108,0.0 -44.244899,-19.2628729994108,0.0 -44.244609,-19.2624369994108,0.0 -44.244586,-19.2619319994108,0.0 -44.244538,-19.2614499994108,0.0 -44.244441,-19.2608999994108,0.0 -44.2446068,-19.2603458994108,0.0</coordinates>
</LinearRing>
</outerBoundaryIs>
</Polygon>
</MultiGeometry>
</Placemark>
</Folder>
</Document></kml>
