<?xml version='1.0' encoding='UTF-8'?>
<kml xmlns:xsd="http://www.w3.org/2001/XMLSchema" xmlns:gx="http://www.google.com/kml/ext/2.2" xmlns:atom="http://www.w3.org/2005/Atom" xmlns="http://www.opengis.net/kml/2.2">
<Document>
<name>naque_3144359_localidades_2022</name>
<visibility>1</visibility>
<Schema name="Localidades" id="kml_schema_ft_Localidades">
<SimpleField type="xsd:string" name="CD_UF">
<displayName>CD_UF</displayName>
</SimpleField>
<SimpleField type="xsd:string" name="NM_UF">
<displayName>NM_UF</displayName>
</SimpleField>
<SimpleField type="xsd:string" name="SIGLA_UF">
<displayName>SIGLA_UF</displayName>
</SimpleField>
<SimpleField type="xsd:string" name="CD_MUN">
<displayName>CD_MUN</displayName>
</SimpleField>
<SimpleField type="xsd:string" name="NM_MUN">
<displayName>NM_MUN</displayName>
</SimpleField>
<SimpleField type="xsd:string" name="CD_RGINT">
<displayName>CD_RGINT</displayName>
</SimpleField>
<SimpleField type="xsd:string" name="NM_RGINT">
<displayName>NM_RGINT</displayName>
</SimpleField>
<SimpleField type="xsd:string" name="CD_RGI">
<displayName>CD_RGI</displayName>
</SimpleField>
<SimpleField type="xsd:string" name="NM_RGI">
<displayName>NM_RGI</displayName>
</SimpleField>
<SimpleField type="xsd:string" name="CT_LOCALIDADE">
<displayName>CT_LOCALIDADE</displayName>
</SimpleField>
<SimpleField type="xsd:string" name="SCT_LOCALIDADE">
<displayName>SCT_LOCALIDADE</displayName>
</SimpleField>
<SimpleField type="xsd:string" name="CD_LOCALIDADE">
<displayName>CD_LOCALIDADE</displayName>
</SimpleField>
<SimpleField type="xsd:string" name="NM_LOCALIDADE">
<displayName>NM_LOCALIDADE</displayName>
</SimpleField>
</Schema>
<Schema name="01. Cidade" id="kml_schema_ft_01._Cidade">
<SimpleField type="xsd:string" name="CD_UF">
<displayName>CD_UF</displayName>
</SimpleField>
<SimpleField type="xsd:string" name="NM_UF">
<displayName>NM_UF</displayName>
</SimpleField>
<SimpleField type="xsd:string" name="SIGLA_UF">
<displayName>SIGLA_UF</displayName>
</SimpleField>
<SimpleField type="xsd:string" name="CD_MUN">
<displayName>CD_MUN</displayName>
</SimpleField>
<SimpleField type="xsd:string" name="NM_MUN">
<displayName>NM_MUN</displayName>
</SimpleField>
<SimpleField type="xsd:string" name="CD_RGINT">
<displayName>CD_RGINT</displayName>
</SimpleField>
<SimpleField type="xsd:string" name="NM_RGINT">
<displayName>NM_RGINT</displayName>
</SimpleField>
<SimpleField type="xsd:string" name="CD_RGI">
<displayName>CD_RGI</displayName>
</SimpleField>
<SimpleField type="xsd:string" name="NM_RGI">
<displayName>NM_RGI</displayName>
</SimpleField>
<SimpleField type="xsd:string" name="CT_LOCALIDADE">
<displayName>CT_LOCALIDADE</displayName>
</SimpleField>
<SimpleField type="xsd:string" name="SCT_LOCALIDADE">
<displayName>SCT_LOCALIDADE</displayName>
</SimpleField>
<SimpleField type="xsd:string" name="CD_LOCALIDADE">
<displayName>CD_LOCALIDADE</displayName>
</SimpleField>
<SimpleField type="xsd:string" name="NM_LOCALIDADE">
<displayName>NM_LOCALIDADE</displayName>
</SimpleField>
<SimpleField type="xsd:string" name="LAT_LOCALIDADE">
<displayName>LAT_LOCALIDADE</displayName>
</SimpleField>
<SimpleField type="xsd:string" name="LONG_LOCALIDADE">
<displayName>LONG_LOCALIDADE</displayName>
</SimpleField>
</Schema>
<Schema name="Município" id="kml_schema_ft_Município">
<SimpleField type="xsd:string" name="CD_UF">
<displayName>CD_UF</displayName>
</SimpleField>
<SimpleField type="xsd:string" name="NM_UF">
<displayName>NM_UF</displayName>
</SimpleField>
<SimpleField type="xsd:string" name="CD_MUN">
<displayName>CD_MUN</displayName>
</SimpleField>
<SimpleField type="xsd:string" name="NM_MUN">
<displayName>NM_MUN</displayName>
</SimpleField>
<SimpleField type="xsd:string" name="CD_RGINT">
<displayName>CD_RGINT</displayName>
</SimpleField>
<SimpleField type="xsd:string" name="NM_RGINT">
<displayName>NM_RGINT</displayName>
</SimpleField>
<SimpleField type="xsd:string" name="CD_RGI">
<displayName>CD_RGI</displayName>
</SimpleField>
<SimpleField type="xsd:string" name="NM_RGI">
<displayName>NM_RGI</displayName>
</SimpleField>
</Schema>
<Folder id="01. Cidade">
<name>01. Cidade</name>
<Folder id="01.03. Sede Municipal">
<name>01.03. Sede Municipal</name>
<Placemark id="01.03. Sede Municipal">
<name>Naque [3144359]</name>
<visibility>1</visibility>
<snippet> </snippet>
<description>&lt;center&gt;&lt;table&gt;&lt;tr&gt;&lt;th colspan='2' align='center'&gt;&lt;em&gt;Atributos&lt;/em&gt;&lt;/th&gt;&lt;/tr&gt;&lt;tr bgcolor="#E3E3F3"&gt;
&lt;th&gt;CD_UF&lt;/th&gt;
&lt;td&gt;31&lt;/td&gt;
&lt;/tr&gt;&lt;tr bgcolor=""&gt;
&lt;th&gt;NM_UF&lt;/th&gt;
&lt;td&gt;Minas Gerais&lt;/td&gt;
&lt;/tr&gt;&lt;tr bgcolor="#E3E3F3"&gt;
&lt;th&gt;SIGLA_UF&lt;/th&gt;
&lt;td&gt;MG&lt;/td&gt;
&lt;/tr&gt;&lt;tr bgcolor=""&gt;
&lt;th&gt;CD_MUN&lt;/th&gt;
&lt;td&gt;3144359&lt;/td&gt;
&lt;/tr&gt;&lt;tr bgcolor="#E3E3F3"&gt;
&lt;th&gt;NM_MUN&lt;/th&gt;
&lt;td&gt;Naque&lt;/td&gt;
&lt;/tr&gt;&lt;tr bgcolor=""&gt;
&lt;th&gt;CD_RGINT&lt;/th&gt;
&lt;td&gt;3105&lt;/td&gt;
&lt;/tr&gt;&lt;tr bgcolor="#E3E3F3"&gt;
&lt;th&gt;NM_RGINT&lt;/th&gt;
&lt;td&gt;Ipatinga&lt;/td&gt;
&lt;/tr&gt;&lt;tr bgcolor=""&gt;
&lt;th&gt;CD_RGI&lt;/th&gt;
&lt;td&gt;310024&lt;/td&gt;
&lt;/tr&gt;&lt;tr bgcolor="#E3E3F3"&gt;
&lt;th&gt;NM_RGI&lt;/th&gt;
&lt;td&gt;Ipatinga&lt;/td&gt;
&lt;/tr&gt;&lt;tr bgcolor=""&gt;
&lt;th&gt;CT_LOCALIDADE&lt;/th&gt;
&lt;td&gt;Cidade&lt;/td&gt;
&lt;/tr&gt;&lt;tr bgcolor="#E3E3F3"&gt;
&lt;th&gt;SCT_LOCALIDADE&lt;/th&gt;
&lt;td&gt;Sede Municipal&lt;/td&gt;
&lt;/tr&gt;&lt;tr bgcolor=""&gt;
&lt;th&gt;CD_LOCALIDADE&lt;/th&gt;
&lt;td&gt;3144359&lt;/td&gt;
&lt;/tr&gt;&lt;tr bgcolor="#E3E3F3"&gt;
&lt;th&gt;NM_LOCALIDADE&lt;/th&gt;
&lt;td&gt;Naque&lt;/td&gt;
&lt;/tr&gt;&lt;tr bgcolor=""&gt;
&lt;th&gt;LAT_LOCALIDADE&lt;/th&gt;
&lt;td&gt;-19.226&lt;/td&gt;
&lt;/tr&gt;&lt;tr bgcolor="#E3E3F3"&gt;
&lt;th&gt;LONG_LOCALIDADE&lt;/th&gt;
&lt;td&gt;-42.3303&lt;/td&gt;
&lt;/tr&gt;&lt;/table&gt;&lt;/center&gt;</description>
<Style>
<IconStyle>
<color>ff00aaff</color>
<scale>1.0</scale>
<Icon>
<href>http://maps.google.com/mapfiles/kml/shapes/placemark_circle.png</href>
</Icon>
</IconStyle>
<LabelStyle>
<scale>1.0</scale>
</LabelStyle>
<LineStyle>
<color>ffffffff</color>
<width>3</width>
<gx:labelVisibility>1</gx:labelVisibility>
</LineStyle>
<PolyStyle>
<color>00ffffff</color>
</PolyStyle>
</Style>
<ExtendedData>
<SchemaData schemaUrl="#kml_schema_ft_01._Cidade">
<SimpleData name="CD_UF">31</SimpleData>
<SimpleData name="NM_UF">Minas Gerais</SimpleData>
<SimpleData name="SIGLA_UF">MG</SimpleData>
<SimpleData name="CD_MUN">3144359</SimpleData>
<SimpleData name="NM_MUN">Naque</SimpleData>
<SimpleData name="CD_RGINT">3105</SimpleData>
<SimpleData name="NM_RGINT">Ipatinga</SimpleData>
<SimpleData name="CD_RGI">310024</SimpleData>
<SimpleData name="NM_RGI">Ipatinga</SimpleData>
<SimpleData name="CT_LOCALIDADE">Cidade</SimpleData>
<SimpleData name="SCT_LOCALIDADE">Sede Municipal</SimpleData>
<SimpleData name="CD_LOCALIDADE">3144359</SimpleData>
<SimpleData name="NM_LOCALIDADE">Naque</SimpleData>
<SimpleData name="LAT_LOCALIDADE">-19.226</SimpleData>
<SimpleData name="LONG_LOCALIDADE">-42.3303</SimpleData>
</SchemaData>
</ExtendedData>
<Point>
<extrude>0</extrude>
<coordinates>-42.3303,-19.2259999994117,0.0</coordinates>
</Point>
</Placemark>
</Folder>
</Folder>
<Folder id="12. Outras Localidades">
<name>12. Outras Localidades</name>
<Placemark id="12. Outras Localidades">
<name>Quatorze [314435900001]</name>
<visibility>1</visibility>
<snippet> </snippet>
<description>&lt;center&gt;&lt;table&gt;&lt;tr&gt;&lt;th colspan='2' align='center'&gt;&lt;em&gt;Attributes&lt;/em&gt;&lt;/th&gt;&lt;/tr&gt;&lt;tr bgcolor="#E3E3F3"&gt;
&lt;th&gt;CD_UF&lt;/th&gt;
&lt;td&gt;31&lt;/td&gt;
&lt;/tr&gt;&lt;tr bgcolor=""&gt;
&lt;th&gt;NM_UF&lt;/th&gt;
&lt;td&gt;Minas Gerais&lt;/td&gt;
&lt;/tr&gt;&lt;tr bgcolor="#E3E3F3"&gt;
&lt;th&gt;SIGLA_UF&lt;/th&gt;
&lt;td&gt;MG&lt;/td&gt;
&lt;/tr&gt;&lt;tr bgcolor=""&gt;
&lt;th&gt;CD_MUN&lt;/th&gt;
&lt;td&gt;3144359&lt;/td&gt;
&lt;/tr&gt;&lt;tr bgcolor="#E3E3F3"&gt;
&lt;th&gt;NM_MUN&lt;/th&gt;
&lt;td&gt;Naque&lt;/td&gt;
&lt;/tr&gt;&lt;tr bgcolor=""&gt;
&lt;th&gt;CD_RGINT&lt;/th&gt;
&lt;td&gt;3105&lt;/td&gt;
&lt;/tr&gt;&lt;tr bgcolor="#E3E3F3"&gt;
&lt;th&gt;NM_RGINT&lt;/th&gt;
&lt;td&gt;Ipatinga&lt;/td&gt;
&lt;/tr&gt;&lt;tr bgcolor=""&gt;
&lt;th&gt;CD_RGI&lt;/th&gt;
&lt;td&gt;310024&lt;/td&gt;
&lt;/tr&gt;&lt;tr bgcolor="#E3E3F3"&gt;
&lt;th&gt;NM_RGI&lt;/th&gt;
&lt;td&gt;Ipatinga&lt;/td&gt;
&lt;/tr&gt;&lt;tr bgcolor=""&gt;
&lt;th&gt;CT_LOCALIDADE&lt;/th&gt;
&lt;td&gt;Outras Localidades&lt;/td&gt;
&lt;/tr&gt;&lt;tr bgcolor="#E3E3F3"&gt;
&lt;th&gt;SCT_LOCALIDADE&lt;/th&gt;
&lt;td&gt;&lt;/td&gt;
&lt;/tr&gt;&lt;tr bgcolor=""&gt;
&lt;th&gt;CD_LOCALIDADE&lt;/th&gt;
&lt;td&gt;314435900001&lt;/td&gt;
&lt;/tr&gt;&lt;tr bgcolor="#E3E3F3"&gt;
&lt;th&gt;NM_LOCALIDADE&lt;/th&gt;
&lt;td&gt;Quatorze&lt;/td&gt;
&lt;/tr&gt;&lt;/table&gt;&lt;/center&gt;</description>
<Style>
<IconStyle>
<color>ff0069d3</color>
<scale>0.6</scale>
<Icon>
<href>http://maps.google.com/mapfiles/kml/shapes/placemark_circle.png</href>
</Icon>
</IconStyle>
<LabelStyle>
<scale>0.6</scale>
</LabelStyle>
<LineStyle>
<width>1.0</width>
<gx:labelVisibility>1</gx:labelVisibility>
</LineStyle>
</Style>
<ExtendedData>
<SchemaData schemaUrl="#kml_schema_ft_Localidades">
<SimpleData name="CD_UF">31</SimpleData>
<SimpleData name="NM_UF">Minas Gerais</SimpleData>
<SimpleData name="SIGLA_UF">MG</SimpleData>
<SimpleData name="CD_MUN">3144359</SimpleData>
<SimpleData name="NM_MUN">Naque</SimpleData>
<SimpleData name="CD_RGINT">3105</SimpleData>
<SimpleData name="NM_RGINT">Ipatinga</SimpleData>
<SimpleData name="CD_RGI">310024</SimpleData>
<SimpleData name="NM_RGI">Ipatinga</SimpleData>
<SimpleData name="CT_LOCALIDADE">Outras Localidades</SimpleData>
<SimpleData name="CD_LOCALIDADE">314435900001</SimpleData>
<SimpleData name="NM_LOCALIDADE">Quatorze</SimpleData>
</SchemaData>
</ExtendedData>
<Point>
<extrude>0</extrude>
<coordinates>-42.2940914,-19.1590161994135,0.0</coordinates>
</Point>
</Placemark>
</Folder>
<Folder id="13. Referência">
<name>13. Referência</name>
<Placemark id="13. Referência">
<name>Naque [3144359]</name>
<visibility>1</visibility>
<snippet> </snippet>
<description>&lt;center&gt;&lt;table&gt;&lt;tr&gt;&lt;th colspan='2' align='center'&gt;&lt;em&gt;Attributes&lt;/em&gt;&lt;/th&gt;&lt;/tr&gt;&lt;tr bgcolor="#E3E3F3"&gt;
&lt;th&gt;CD_UF&lt;/th&gt;
&lt;td&gt;31&lt;/td&gt;
&lt;/tr&gt;&lt;tr bgcolor=""&gt;
&lt;th&gt;NM_UF&lt;/th&gt;
&lt;td&gt;Minas Gerais&lt;/td&gt;
&lt;/tr&gt;&lt;tr bgcolor="#E3E3F3"&gt;
&lt;th&gt;CD_MUN&lt;/th&gt;
&lt;td&gt;3144359&lt;/td&gt;
&lt;/tr&gt;&lt;tr bgcolor=""&gt;
&lt;th&gt;NM_MUN&lt;/th&gt;
&lt;td&gt;Naque&lt;/td&gt;
&lt;/tr&gt;&lt;tr bgcolor="#E3E3F3"&gt;
&lt;th&gt;CD_RGINT&lt;/th&gt;
&lt;td&gt;3105&lt;/td&gt;
&lt;/tr&gt;&lt;tr bgcolor=""&gt;
&lt;th&gt;NM_RGINT&lt;/th&gt;
&lt;td&gt;Ipatinga&lt;/td&gt;
&lt;/tr&gt;&lt;tr bgcolor="#E3E3F3"&gt;
&lt;th&gt;CD_RGI&lt;/th&gt;
&lt;td&gt;310024&lt;/td&gt;
&lt;/tr&gt;&lt;tr bgcolor=""&gt;
&lt;th&gt;NM_RGI&lt;/th&gt;
&lt;td&gt;Ipatinga&lt;/td&gt;
&lt;/tr&gt;&lt;/table&gt;&lt;/center&gt;</description>
<Style>
<IconStyle>
<scale>0.7</scale>
</IconStyle>
<LabelStyle>
<scale>0.7</scale>
</LabelStyle>
<LineStyle>
<color>ffffffff</color>
<width>3</width>
<gx:labelVisibility>1</gx:labelVisibility>
</LineStyle>
<PolyStyle>
<color>00ffffff</color>
</PolyStyle>
</Style>
<ExtendedData>
<SchemaData schemaUrl="#kml_schema_ft_Município">
<SimpleData name="CD_UF">31</SimpleData>
<SimpleData name="NM_UF">Minas Gerais</SimpleData>
<SimpleData name="CD_MUN">3144359</SimpleData>
<SimpleData name="NM_MUN">Naque</SimpleData>
<SimpleData name="CD_RGINT">3105</SimpleData>
<SimpleData name="NM_RGINT">Ipatinga</SimpleData>
<SimpleData name="CD_RGI">310024</SimpleData>
<SimpleData name="NM_RGI">Ipatinga</SimpleData>
</SchemaData>
</ExtendedData>
<MultiGeometry>
<Polygon>
<extrude>0</extrude>
<tessellate>1</tessellate>
<outerBoundaryIs>
<LinearRing>
<coordinates>-42.321506,-19.2345689994115,0.0 -42.321748,-19.2345009994115,0.0 -42.322185,-19.2343179994115,0.0 -42.322621,-19.2340669994115,0.0 -42.323033,-19.2338159994115,0.0 -42.323518,-19.2334959994115,0.0 -42.323955,-19.2332899994115,0.0 -42.324464,-19.2330849994115,0.0 -42.324924,-19.2328569994115,0.0 -42.32536,-19.2326519994116,0.0 -42.325773,-19.2323999994116,0.0 -42.326161,-19.2321489994116,0.0 -42.326597,-19.2319199994116,0.0 -42.327082,-19.2316689994116,0.0 -42.327543,-19.2313719994116,0.0 -42.3277569,-19.2312994994116,0.0 -42.3279221,-19.2312435994116,0.0 -42.328148,-19.2311669994116,0.0 -42.329261,-19.2311709994116,0.0 -42.329721,-19.2311269994116,0.0 -42.330205,-19.2311279994116,0.0 -42.330664,-19.2312219994116,0.0 -42.331317,-19.2313619994116,0.0 -42.331873,-19.2314789994116,0.0 -42.332332,-19.2316639994116,0.0 -42.332791,-19.2318719994116,0.0 -42.333323,-19.2320349994116,0.0 -42.333806,-19.2321749994116,0.0 -42.334266,-19.2321989994116,0.0 -42.334725,-19.2323159994116,0.0 -42.335184,-19.2324549994116,0.0 -42.335667,-19.2326859994116,0.0 -42.336127,-19.2328489994115,0.0 -42.33661,-19.2329879994115,0.0 -42.33719,-19.2330819994115,0.0 -42.337674,-19.2331299994115,0.0 -42.338158,-19.2332229994115,0.0 -42.338641,-19.2332479994115,0.0 -42.339125,-19.2332269994115,0.0 -42.339585,-19.2331819994115,0.0 -42.340093,-19.2331609994115,0.0 -42.340553,-19.2331159994115,0.0 -42.341545,-19.2331199994115,0.0 -42.342029,-19.2331669994115,0.0 -42.342513,-19.2331689994115,0.0 -42.342997,-19.2331249994115,0.0 -42.343626,-19.2330349994115,0.0 -42.344111,-19.2329669994115,0.0 -42.344571,-19.2328999994115,0.0 -42.345079,-19.2327639994115,0.0 -42.345588,-19.2326499994115,0.0 -42.34612,-19.2325599994115,0.0 -42.346532,-19.2323319994116,0.0 -42.346896,-19.2320339994116,0.0 -42.347236,-19.2316909994116,0.0 -42.347504,-19.2313239994116,0.0 -42.347772,-19.2309109994116,0.0 -42.348039,-19.2304519994116,0.0 -42.348259,-19.2300159994116,0.0 -42.348381,-19.2295799994116,0.0 -42.348528,-19.2291439994116,0.0 -42.348651,-19.2287079994117,0.0 -42.34887,-19.2282489994117,0.0 -42.348993,-19.2277659994117,0.0 -42.349213,-19.2271699994117,0.0 -42.349408,-19.2267109994117,0.0 -42.349579,-19.2262969994117,0.0 -42.349726,-19.2258379994117,0.0 -42.349945,-19.2253789994117,0.0 -42.350189,-19.2249199994117,0.0 -42.35048,-19.2245309994118,0.0 -42.35082,-19.2242329994118,0.0 -42.351257,-19.2238899994118,0.0 -42.351717,-19.2236839994118,0.0 -42.352225,-19.2236629994118,0.0 -42.352709,-19.2237109994118,0.0 -42.353191,-19.2240089994118,0.0 -42.353434,-19.2239199994118,0.0 -42.353943,-19.2237839994118,0.0 -42.355491,-19.2237889994118,0.0 -42.356047,-19.2238819994118,0.0 -42.356507,-19.2239759994118,0.0 -42.356966,-19.2241149994118,0.0 -42.357449,-19.2242319994118,0.0 -42.357957,-19.2243019994118,0.0 -42.35861,-19.2243729994118,0.0 -42.35907,-19.2244209994118,0.0 -42.359554,-19.2244219994118,0.0 -42.360013,-19.2243779994118,0.0 -42.360594,-19.2243339994118,0.0 -42.361514,-19.2241529994118,0.0 -42.361974,-19.2240389994118,0.0 -42.362483,-19.2239259994118,0.0 -42.36304,-19.2237899994118,0.0 -42.3635,-19.2236299994118,0.0 -42.363936,-19.2234479994118,0.0 -42.364348,-19.2232419994118,0.0 -42.365318,-19.2228319994118,0.0 -42.365754,-19.2225799994118,0.0 -42.366263,-19.2222139994118,0.0 -42.366676,-19.2218249994118,0.0 -42.367088,-19.2214819994118,0.0 -42.367453,-19.2211609994118,0.0 -42.367841,-19.2208399994119,0.0 -42.368156,-19.2205199994119,0.0 -42.368593,-19.2201299994119,0.0 -42.368933,-19.2198329994119,0.0 -42.369442,-19.2195119994119,0.0 -42.369927,-19.2192609994119,0.0 -42.370387,-19.2190559994119,0.0 -42.371259,-19.2187369994119,0.0 -42.37172,-19.2185539994119,0.0 -42.372156,-19.2183029994119,0.0 -42.372835,-19.2179139994119,0.0 -42.373247,-19.2176399994119,0.0 -42.373756,-19.2173199994119,0.0 -42.374265,-19.217021999412,0.0 -42.374774,-19.216770999412,0.0 -42.375235,-19.216611999412,0.0 -42.375671,-19.216428999412,0.0 -42.376131,-19.216223999412,0.0 -42.376519,-19.215971999412,0.0 -42.37698,-19.215743999412,0.0 -42.377416,-19.215446999412,0.0 -42.377877,-19.215171999412,0.0 -42.378265,-19.214874999412,0.0 -42.378629,-19.214599999412,0.0 -42.379357,-19.213958999412,0.0 -42.379673,-19.213545999412,0.0 -42.380037,-19.2131789994121,0.0 -42.380304,-19.2127889994121,0.0 -42.380596,-19.2123539994121,0.0 -42.380839,-19.2119639994121,0.0 -42.381107,-19.2115509994121,0.0 -42.381326,-19.2111379994121,0.0 -42.38157,-19.2106559994121,0.0 -42.381789,-19.2101509994121,0.0 -42.38213,-19.2094859994121,0.0 -42.382519,-19.2088659994122,0.0 -42.382811,-19.2084989994122,0.0 -42.383078,-19.2080859994122,0.0 -42.383418,-19.2076509994122,0.0 -42.38371,-19.2072839994122,0.0 -42.384074,-19.2069629994122,0.0 -42.38451,-19.2066659994122,0.0 -42.384971,-19.2063229994122,0.0 -42.385384,-19.2060249994122,0.0 -42.385844,-19.2057049994122,0.0 -42.386208,-19.2053839994123,0.0 -42.386572,-19.2050859994123,0.0 -42.386936,-19.2047659994123,0.0 -42.387446,-19.2042619994123,0.0 -42.387834,-19.2038949994123,0.0 -42.38815,-19.2035739994123,0.0 -42.388465,-19.2032079994123,0.0 -42.388806,-19.2027719994123,0.0 -42.389097,-19.2024279994123,0.0 -42.389364,-19.2020609994123,0.0 -42.389705,-19.2015569994124,0.0 -42.3899,-19.2011429994124,0.0 -42.390119,-19.2007529994124,0.0 -42.39029,-19.2003169994124,0.0 -42.390437,-19.1996509994124,0.0 -42.390584,-19.1990079994124,0.0 -42.390853,-19.1982959994124,0.0 -42.391145,-19.1976769994124,0.0 -42.39134,-19.1971949994125,0.0 -42.391535,-19.1966899994125,0.0 -42.391731,-19.1962079994125,0.0 -42.391999,-19.1955649994125,0.0 -42.392146,-19.1950829994125,0.0 -42.39222,-19.1946459994125,0.0 -42.392294,-19.1940719994125,0.0 -42.392368,-19.1935659994126,0.0 -42.392418,-19.1931069994126,0.0 -42.392541,-19.1926709994126,0.0 -42.392639,-19.1922339994126,0.0 -42.392882,-19.1917979994126,0.0 -42.393368,-19.1912479994126,0.0 -42.393684,-19.1908579994126,0.0 -42.394411,-19.1902629994126,0.0 -42.394872,-19.1899429994126,0.0 -42.395454,-19.1895999994127,0.0 -42.395914,-19.1893709994127,0.0 -42.396399,-19.1891199994127,0.0 -42.396932,-19.1887769994127,0.0 -42.397344,-19.1885249994127,0.0 -42.397878,-19.1881359994127,0.0 -42.39829,-19.1878379994127,0.0 -42.398726,-19.1875179994127,0.0 -42.399163,-19.1871509994127,0.0 -42.399575,-19.1867619994127,0.0 -42.399915,-19.1863489994127,0.0 -42.400086,-19.1858669994128,0.0 -42.400088,-19.1853619994128,0.0 -42.399993,-19.1847869994128,0.0 -42.399728,-19.1843949994128,0.0 -42.399415,-19.1840269994128,0.0 -42.398981,-19.1836119994128,0.0 -42.398499,-19.1831959994128,0.0 -42.398088,-19.1829189994128,0.0 -42.397751,-19.1823899994128,0.0 -42.397462,-19.1820209994129,0.0 -42.397149,-19.1816979994129,0.0 -42.396884,-19.1813299994129,0.0 -42.396789,-19.1808469994129,0.0 -42.396815,-19.1803179994129,0.0 -42.396913,-19.1798359994129,0.0 -42.397084,-19.1793309994129,0.0 -42.397376,-19.1789869994129,0.0 -42.397788,-19.1785979994129,0.0 -42.398661,-19.177979999413,0.0 -42.399073,-19.177773999413,0.0 -42.399485,-19.177475999413,0.0 -42.399897,-19.177224999413,0.0 -42.400333,-19.176903999413,0.0 -42.400794,-19.176560999413,0.0 -42.401522,-19.176011999413,0.0 -42.401886,-19.175598999413,0.0 -42.402105,-19.175185999413,0.0 -42.402155,-19.174748999413,0.0 -42.401962,-19.1743119994131,0.0 -42.401456,-19.1738739994131,0.0 -42.401141,-19.1736529994131,0.0 -42.400708,-19.1733199994131,0.0 -42.400274,-19.1730199994131,0.0 -42.399404,-19.1725119994131,0.0 -42.398946,-19.1722349994131,0.0 -42.398535,-19.1720039994131,0.0 -42.397932,-19.1717489994131,0.0 -42.397376,-19.1716089994131,0.0 -42.396554,-19.1713999994131,0.0 -42.395974,-19.1711919994131,0.0 -42.395297,-19.1710289994131,0.0 -42.394814,-19.1709809994131,0.0 -42.394282,-19.1708649994131,0.0 -42.392832,-19.1705159994131,0.0 -42.392228,-19.1703069994132,0.0 -42.391793,-19.1701449994132,0.0 -42.391237,-19.1699819994132,0.0 -42.389423,-19.1699769994132,0.0 -42.388722,-19.1699289994132,0.0 -42.388142,-19.1698809994132,0.0 -42.386062,-19.1698749994132,0.0 -42.385554,-19.1698269994132,0.0 -42.385095,-19.1695959994132,0.0 -42.384685,-19.1693879994132,0.0 -42.384251,-19.1689499994132,0.0 -42.383962,-19.1686039994132,0.0 -42.38377,-19.1681899994132,0.0 -42.383457,-19.1676369994132,0.0 -42.383217,-19.1671309994132,0.0 -42.382977,-19.1666939994133,0.0 -42.38276,-19.1662789994133,0.0 -42.382447,-19.1659109994133,0.0 -42.382062,-19.1654959994133,0.0 -42.381603,-19.1650809994133,0.0 -42.381145,-19.1647809994133,0.0 -42.380566,-19.1644799994133,0.0 -42.380155,-19.1642489994133,0.0 -42.379551,-19.1640169994133,0.0 -42.379044,-19.1639699994133,0.0 -42.378608,-19.1641289994133,0.0 -42.378268,-19.1644269994133,0.0 -42.377952,-19.1647709994133,0.0 -42.37754,-19.1650449994133,0.0 -42.377032,-19.1652279994133,0.0 -42.376524,-19.1652949994133,0.0 -42.376089,-19.1651099994133,0.0 -42.37563,-19.1649469994133,0.0 -42.375123,-19.1648079994133,0.0 -42.373962,-19.1648039994133,0.0 -42.373453,-19.1649409994133,0.0 -42.373017,-19.1650999994133,0.0 -42.37251,-19.1650529994133,0.0 -42.372123,-19.1647989994133,0.0 -42.37181,-19.1644529994133,0.0 -42.371715,-19.1640159994133,0.0 -42.371668,-19.1635789994133,0.0 -42.37167,-19.1630509994133,0.0 -42.371696,-19.1625679994134,0.0 -42.371697,-19.1621079994134,0.0 -42.371723,-19.1616259994134,0.0 -42.371775,-19.1607529994134,0.0 -42.371801,-19.1602469994134,0.0 -42.371754,-19.1597869994134,0.0 -42.371441,-19.1593499994135,0.0 -42.371031,-19.1590039994135,0.0 -42.370548,-19.1586569994135,0.0 -42.370138,-19.1583799994135,0.0 -42.369704,-19.1581029994135,0.0 -42.369342,-19.1578259994135,0.0 -42.368859,-19.1575029994135,0.0 -42.368377,-19.1572489994135,0.0 -42.368015,-19.1569489994135,0.0 -42.367654,-19.1564649994135,0.0 -42.367389,-19.1560959994135,0.0 -42.3671,-19.1557279994135,0.0 -42.366884,-19.1553359994135,0.0 -42.366547,-19.1548989994136,0.0 -42.366422,-19.1547492994136,0.0 -42.366258,-19.1545529994136,0.0 -42.365872,-19.1542299994136,0.0 -42.365437,-19.1539529994136,0.0 -42.365027,-19.1536989994136,0.0 -42.364617,-19.1534909994136,0.0 -42.364037,-19.1532589994136,0.0 -42.363482,-19.1530049994136,0.0 -42.362902,-19.1527959994136,0.0 -42.362443,-19.1525879994136,0.0 -42.361984,-19.1524249994136,0.0 -42.361284,-19.1522619994136,0.0 -42.360704,-19.1521679994136,0.0 -42.360075,-19.1520969994136,0.0 -42.359616,-19.1519809994136,0.0 -42.359133,-19.1518879994136,0.0 -42.358625,-19.1518859994136,0.0 -42.358141,-19.1518389994136,0.0 -42.357633,-19.1518369994136,0.0 -42.357174,-19.1517889994136,0.0 -42.356715,-19.1516499994136,0.0 -42.35628,-19.1514649994136,0.0 -42.355822,-19.1512569994137,0.0 -42.355363,-19.1510019994136,0.0 -42.354833,-19.1505869994137,0.0 -42.35435,-19.1501489994137,0.0 -42.353989,-19.1498259994137,0.0 -42.35358,-19.1492959994137,0.0 -42.353363,-19.1489049994137,0.0 -42.353147,-19.1484899994137,0.0 -42.352955,-19.1480069994137,0.0 -42.352909,-19.1474549994137,0.0 -42.352911,-19.1469039994138,0.0 -42.352961,-19.1464439994138,0.0 -42.353035,-19.1459159994138,0.0 -42.353134,-19.1454329994138,0.0 -42.353232,-19.1449049994138,0.0 -42.353379,-19.1444459994138,0.0 -42.353478,-19.1437339994138,0.0 -42.353528,-19.1432279994139,0.0 -42.353579,-19.1426309994139,0.0 -42.353678,-19.1420109994139,0.0 -42.353776,-19.1415509994139,0.0 -42.353899,-19.1410919994139,0.0 -42.353997,-19.1405639994139,0.0 -42.35412,-19.1400819994139,0.0 -42.35434,-19.139461999414,0.0 -42.3544295,-19.139198499414,0.0 -42.354535,-19.138887999414,0.0 -42.354683,-19.138221999414,0.0 -42.35483,-19.137578999414,0.0 -42.354929,-19.137003999414,0.0 -42.355052,-19.136360999414,0.0 -42.35515,-19.135924999414,0.0 -42.3552,-19.1353969994141,0.0 -42.355226,-19.1348679994141,0.0 -42.355302,-19.1340409994141,0.0 -42.355376,-19.1335129994141,0.0 -42.355427,-19.1327999994141,0.0 -42.355454,-19.1320419994141,0.0 -42.35548,-19.1313979994142,0.0 -42.355555,-19.1308009994142,0.0 -42.355605,-19.1302269994142,0.0 -42.35561,-19.1288019994142,0.0 -42.355564,-19.1282499994142,0.0 -42.355518,-19.1276289994143,0.0 -42.355471,-19.1271699994143,0.0 -42.355424,-19.1266869994143,0.0 -42.355378,-19.1262499994143,0.0 -42.355331,-19.1257669994143,0.0 -42.35526,-19.1252379994143,0.0 -42.355165,-19.1247089994143,0.0 -42.355046,-19.1242029994144,0.0 -42.354952,-19.1236059994144,0.0 -42.354929,-19.1230769994144,0.0 -42.354858,-19.1226169994144,0.0 -42.354836,-19.1221109994144,0.0 -42.354765,-19.1215829994144,0.0 -42.354695,-19.1210309994144,0.0 -42.354624,-19.1203869994144,0.0 -42.354554,-19.1197659994145,0.0 -42.354507,-19.1192599994145,0.0 -42.354413,-19.1187319994145,0.0 -42.354342,-19.1182949994145,0.0 -42.35415,-19.1177419994145,0.0 -42.35391,-19.1171209994145,0.0 -42.353743,-19.1166149994145,0.0 -42.353503,-19.1161549994146,0.0 -42.353335,-19.1157169994146,0.0 -42.353119,-19.1153259994146,0.0 -42.352782,-19.1148879994146,0.0 -42.352397,-19.1144269994146,0.0 -42.3523602,-19.1143823994146,0.0 -42.352036,-19.1139899994146,0.0 -42.35165,-19.1136209994146,0.0 -42.351313,-19.1132749994146,0.0 -42.350879,-19.1128829994146,0.0 -42.350493,-19.1125829994146,0.0 -42.350156,-19.1122829994147,0.0 -42.349841,-19.1120699994147,0.0 -42.349697,-19.1122119994147,0.0 -42.349261,-19.1123719994147,0.0 -42.348777,-19.1123009994147,0.0 -42.348246,-19.1121159994147,0.0 -42.347739,-19.1120449994147,0.0 -42.34728,-19.1119979994147,0.0 -42.346747,-19.1120419994147,0.0 -42.346167,-19.1120859994147,0.0 -42.345659,-19.1121539994147,0.0 -42.345223,-19.1123129994147,0.0 -42.344715,-19.1124489994147,0.0 -42.344231,-19.1126089994146,0.0 -42.343674,-19.1127909994146,0.0 -42.343238,-19.1129499994146,0.0 -42.342657,-19.1132009994146,0.0 -42.342269,-19.1134759994146,0.0 -42.34193,-19.1137959994146,0.0 -42.341565,-19.1142779994146,0.0 -42.341298,-19.1146909994146,0.0 -42.341054,-19.1152179994146,0.0 -42.340859,-19.1156309994146,0.0 -42.340737,-19.1161369994146,0.0 -42.340566,-19.1165729994145,0.0 -42.340443,-19.1170319994145,0.0 -42.340297,-19.1174909994145,0.0 -42.340126,-19.1179269994145,0.0 -42.339931,-19.1183629994145,0.0 -42.339712,-19.1187989994145,0.0 -42.33942,-19.1192119994145,0.0 -42.33908,-19.1196019994145,0.0 -42.33874,-19.1200139994145,0.0 -42.338425,-19.1203349994144,0.0 -42.338061,-19.1206099994144,0.0 -42.337552,-19.1210449994144,0.0 -42.337043,-19.1213649994144,0.0 -42.336606,-19.1217079994144,0.0 -42.33617,-19.1220739994144,0.0 -42.33583,-19.1224179994144,0.0 -42.335587,-19.1228079994144,0.0 -42.335295,-19.1232209994144,0.0 -42.335027,-19.1236789994144,0.0 -42.33476,-19.1240919994144,0.0 -42.334468,-19.1246199994143,0.0 -42.334249,-19.1250559994143,0.0 -42.33386,-19.1255369994143,0.0 -42.333448,-19.1257659994143,0.0 -42.332965,-19.1257639994143,0.0 -42.332481,-19.1257159994143,0.0 -42.332022,-19.1256229994143,0.0 -42.331539,-19.1256209994143,0.0 -42.330958,-19.1257109994143,0.0 -42.330402,-19.1257779994143,0.0 -42.329894,-19.1257999994143,0.0 -42.329337,-19.1258669994143,0.0 -42.328877,-19.1259799994143,0.0 -42.328296,-19.1261849994143,0.0 -42.32774,-19.1262979994143,0.0 -42.326821,-19.1264329994143,0.0 -42.32624,-19.1265459994143,0.0 -42.325756,-19.1266589994143,0.0 -42.325272,-19.1268189994143,0.0 -42.324812,-19.1269089994143,0.0 -42.324255,-19.1270909994143,0.0 -42.323335,-19.1273639994143,0.0 -42.322827,-19.1274999994143,0.0 -42.322391,-19.1277279994143,0.0 -42.321882,-19.1280249994142,0.0 -42.321446,-19.1282769994142,0.0 -42.32101,-19.1284819994142,0.0 -42.32055,-19.1287329994142,0.0 -42.320065,-19.1290759994142,0.0 -42.319628,-19.1293279994142,0.0 -42.319169,-19.1294409994142,0.0 -42.318418,-19.1296679994142,0.0 -42.317886,-19.1298279994142,0.0 -42.317184,-19.1300089994142,0.0 -42.316651,-19.1301219994142,0.0 -42.316143,-19.1301889994142,0.0 -42.315636,-19.1301879994142,0.0 -42.315128,-19.1301399994142,0.0 -42.314548,-19.1300919994142,0.0 -42.313411,-19.1300879994142,0.0 -42.312952,-19.1301099994142,0.0 -42.312371,-19.1301309994142,0.0 -42.311863,-19.1301979994142,0.0 -42.311404,-19.1302649994142,0.0 -42.310871,-19.1303549994142,0.0 -42.310267,-19.1304679994142,0.0 -42.30971,-19.1305809994142,0.0 -42.309032,-19.1307169994142,0.0 -42.308452,-19.1308299994142,0.0 -42.307895,-19.1309659994142,0.0 -42.307435,-19.1310099994142,0.0 -42.306928,-19.1310079994142,0.0 -42.306468,-19.1309839994142,0.0 -42.30538,-19.1309799994142,0.0 -42.304413,-19.1311149994142,0.0 -42.30388,-19.1311819994142,0.0 -42.303372,-19.1312029994142,0.0 -42.30277,-19.1311969994142,0.0 -42.302526,-19.1311999994142,0.0 -42.302235,-19.1315669994142,0.0 -42.301991,-19.1320939994141,0.0 -42.301675,-19.1325759994141,0.0 -42.301383,-19.1330569994141,0.0 -42.300944,-19.1338369994141,0.0 -42.300604,-19.1343879994141,0.0 -42.300409,-19.1348239994141,0.0 -42.300214,-19.1352369994141,0.0 -42.300042,-19.135718999414,0.0 -42.299822,-19.136406999414,0.0 -42.299651,-19.136819999414,0.0 -42.299456,-19.137255999414,0.0 -42.299237,-19.137760999414,0.0 -42.299066,-19.138173999414,0.0 -42.298919,-19.138655999414,0.0 -42.298723,-19.139252999414,0.0 -42.298576,-19.1397119994139,0.0 -42.298357,-19.1401249994139,0.0 -42.298113,-19.1406299994139,0.0 -42.297749,-19.1411569994139,0.0 -42.297456,-19.1416619994139,0.0 -42.297261,-19.1421209994139,0.0 -42.297017,-19.1426719994139,0.0 -42.29687,-19.1432689994139,0.0 -42.296747,-19.1437049994138,0.0 -42.2966,-19.1441409994138,0.0 -42.296404,-19.1447839994138,0.0 -42.296185,-19.1453579994138,0.0 -42.295965,-19.1457929994138,0.0 -42.295577,-19.1462749994138,0.0 -42.295164,-19.1467329994138,0.0 -42.294727,-19.1471219994138,0.0 -42.294315,-19.1474419994138,0.0 -42.293927,-19.1476939994137,0.0 -42.293369,-19.1480599994137,0.0 -42.292836,-19.1484019994137,0.0 -42.292424,-19.1486539994137,0.0 -42.291963,-19.1489509994137,0.0 -42.291527,-19.1492019994137,0.0 -42.291018,-19.1494759994137,0.0 -42.290412,-19.1498419994137,0.0 -42.289976,-19.1500469994137,0.0 -42.289515,-19.1502749994137,0.0 -42.289032,-19.1503189994137,0.0 -42.288476,-19.1502709994137,0.0 -42.287871,-19.1501999994137,0.0 -42.287339,-19.1501529994137,0.0 -42.286832,-19.1501279994137,0.0 -42.286276,-19.1501029994137,0.0 -42.285308,-19.1500529994137,0.0 -42.284365,-19.1500959994137,0.0 -42.283857,-19.1501399994137,0.0 -42.282285,-19.1501339994137,0.0 -42.28173,-19.1500409994137,0.0 -42.281077,-19.1499919994137,0.0 -42.27994,-19.1499879994137,0.0 -42.279432,-19.1500549994137,0.0 -42.278972,-19.1501459994137,0.0 -42.278464,-19.1502819994137,0.0 -42.27798,-19.1502799994137,0.0 -42.277497,-19.1503009994137,0.0 -42.276916,-19.1503449994137,0.0 -42.276456,-19.1503889994137,0.0 -42.275828,-19.1504099994137,0.0 -42.275223,-19.1504309994137,0.0 -42.274014,-19.1504259994137,0.0 -42.27353,-19.1504479994137,0.0 -42.273022,-19.1505149994137,0.0 -42.27249,-19.1505589994137,0.0 -42.271813,-19.1505559994137,0.0 -42.271208,-19.1506229994137,0.0 -42.270603,-19.1506439994137,0.0 -42.269539,-19.1506399994137,0.0 -42.269056,-19.1506609994137,0.0 -42.268572,-19.1506589994137,0.0 -42.26787,-19.1507259994137,0.0 -42.267217,-19.1507919994137,0.0 -42.266661,-19.1508589994137,0.0 -42.266104,-19.1509029994137,0.0 -42.265645,-19.1509469994137,0.0 -42.264991,-19.1510369994137,0.0 -42.264435,-19.1511499994137,0.0 -42.263806,-19.1512619994136,0.0 -42.262837,-19.1515809994136,0.0 -42.261771,-19.1520819994136,0.0 -42.261335,-19.1522409994136,0.0 -42.26085,-19.1524689994136,0.0 -42.260438,-19.1527439994136,0.0 -42.26005,-19.1530179994136,0.0 -42.25971,-19.1534069994136,0.0 -42.25937,-19.1538429994136,0.0 -42.259054,-19.1542319994136,0.0 -42.258762,-19.1546679994136,0.0 -42.25847,-19.1550569994135,0.0 -42.258178,-19.1554699994135,0.0 -42.257886,-19.1559059994135,0.0 -42.25757,-19.1563639994135,0.0 -42.257302,-19.1567999994135,0.0 -42.257034,-19.1572119994135,0.0 -42.256718,-19.1575789994135,0.0 -42.256378,-19.1579219994135,0.0 -42.255747,-19.1586089994135,0.0 -42.255115,-19.1592509994134,0.0 -42.254727,-19.1596629994134,0.0 -42.254386,-19.1600979994134,0.0 -42.254046,-19.1604649994134,0.0 -42.25373,-19.1608539994134,0.0 -42.253366,-19.1613119994134,0.0 -42.25305,-19.1616789994134,0.0 -42.252637,-19.1620909994134,0.0 -42.252321,-19.1624339994134,0.0 -42.251981,-19.1627319994134,0.0 -42.251617,-19.1630979994133,0.0 -42.251228,-19.1634869994133,0.0 -42.250913,-19.1638079994133,0.0 -42.250597,-19.1641509994133,0.0 -42.250184,-19.1645639994133,0.0 -42.249796,-19.1649299994133,0.0 -42.249504,-19.1652729994133,0.0 -42.249188,-19.1655939994133,0.0 -42.2488,-19.1660289994133,0.0 -42.248411,-19.1665099994133,0.0 -42.24807,-19.1669919994132,0.0 -42.247875,-19.1674039994132,0.0 -42.247655,-19.1679089994132,0.0 -42.247483,-19.1686209994132,0.0 -42.247336,-19.1690569994132,0.0 -42.247285,-19.1696079994132,0.0 -42.247427,-19.1704359994132,0.0 -42.247618,-19.1710569994131,0.0 -42.247784,-19.1717479994131,0.0 -42.247975,-19.1722539994131,0.0 -42.248118,-19.1727369994131,0.0 -42.248309,-19.1733119994131,0.0 -42.248477,-19.1737269994131,0.0 -42.248644,-19.1741869994131,0.0 -42.248812,-19.174623999413,0.0 -42.249412,-19.175659999413,0.0 -42.249677,-19.176028999413,0.0 -42.250158,-19.176650999413,0.0 -42.250591,-19.177066999413,0.0 -42.250952,-19.177504999413,0.0 -42.251193,-19.177895999413,0.0 -42.251457,-19.178333999413,0.0 -42.251745,-19.1787949994129,0.0 -42.252106,-19.1792789994129,0.0 -42.252395,-19.1796239994129,0.0 -42.252732,-19.1799469994129,0.0 -42.253069,-19.1803389994129,0.0 -42.25343,-19.1807769994129,0.0 -42.253767,-19.1812379994129,0.0 -42.254103,-19.1816759994129,0.0 -42.254368,-19.1820679994129,0.0 -42.254656,-19.1824829994128,0.0 -42.254872,-19.1828969994128,0.0 -42.255136,-19.1833349994128,0.0 -42.255135,-19.1837939994128,0.0 -42.255036,-19.1842989994128,0.0 -42.254913,-19.1847589994128,0.0 -42.254766,-19.1852179994128,0.0 -42.254595,-19.1856769994128,0.0 -42.254351,-19.1860659994127,0.0 -42.254083,-19.1864329994127,0.0 -42.253815,-19.1869149994127,0.0 -42.253534,-19.1872749994127,0.0 -42.25391,-19.1875359994127,0.0 -42.254247,-19.1878359994127,0.0 -42.254706,-19.1880669994127,0.0 -42.25514,-19.1882989994127,0.0 -42.255526,-19.1885989994127,0.0 -42.255887,-19.1888989994127,0.0 -42.256297,-19.1892219994127,0.0 -42.25661,-19.1896369994127,0.0 -42.256995,-19.1899599994127,0.0 -42.257333,-19.1902829994126,0.0 -42.257694,-19.1905599994126,0.0 -42.258176,-19.1910449994126,0.0 -42.258513,-19.1914369994126,0.0 -42.258802,-19.1918279994126,0.0 -42.259139,-19.1922889994126,0.0 -42.259403,-19.1926809994126,0.0 -42.259643,-19.1931639994126,0.0 -42.259956,-19.1935789994126,0.0 -42.260269,-19.1939479994125,0.0 -42.26063,-19.1942709994125,0.0 -42.261016,-19.1945709994125,0.0 -42.261474,-19.1948719994125,0.0 -42.262005,-19.1952419994125,0.0 -42.262632,-19.1956349994125,0.0 -42.263163,-19.1960039994125,0.0 -42.263645,-19.1963739994125,0.0 -42.2642,-19.1967889994125,0.0 -42.264681,-19.1972279994125,0.0 -42.265067,-19.1975969994125,0.0 -42.265549,-19.1980119994124,0.0 -42.265886,-19.1983119994124,0.0 -42.266296,-19.1987279994124,0.0 -42.266657,-19.1991199994124,0.0 -42.266946,-19.1995109994124,0.0 -42.267379,-19.1999959994124,0.0 -42.267813,-19.2003419994124,0.0 -42.268175,-19.2006419994124,0.0 -42.268995,-19.2012889994124,0.0 -42.26938,-19.2016579994123,0.0 -42.26979,-19.2020269994123,0.0 -42.270345,-19.2023969994123,0.0 -42.270755,-19.2027429994123,0.0 -42.271213,-19.2029969994123,0.0 -42.271624,-19.2032059994123,0.0 -42.272082,-19.2034369994123,0.0 -42.272517,-19.2036919994123,0.0 -42.272975,-19.2039459994123,0.0 -42.273506,-19.2042469994123,0.0 -42.27394,-19.2045239994123,0.0 -42.274399,-19.2048249994123,0.0 -42.275267,-19.2053789994123,0.0 -42.275702,-19.2055879994122,0.0 -42.276523,-19.2060039994122,0.0 -42.277295,-19.2065129994122,0.0 -42.277729,-19.2068129994122,0.0 -42.278163,-19.2070899994122,0.0 -42.278622,-19.2073909994122,0.0 -42.279563,-19.2079919994122,0.0 -42.280383,-19.2084539994122,0.0 -42.280866,-19.2087319994122,0.0 -42.281422,-19.2088719994122,0.0 -42.281953,-19.2090349994122,0.0 -42.282461,-19.2091739994122,0.0 -42.28292,-19.2093139994122,0.0 -42.283403,-19.2094309994122,0.0 -42.284104,-19.2096859994121,0.0 -42.284514,-19.2099629994121,0.0 -42.284948,-19.2102409994121,0.0 -42.285431,-19.2104719994121,0.0 -42.28589,-19.2106579994121,0.0 -42.286373,-19.2109349994121,0.0 -42.286783,-19.2112119994121,0.0 -42.287193,-19.2114669994121,0.0 -42.287579,-19.2117439994121,0.0 -42.287941,-19.2120439994121,0.0 -42.288399,-19.2124129994121,0.0 -42.288736,-19.2127359994121,0.0 -42.289074,-19.213104999412,0.0 -42.289435,-19.213588999412,0.0 -42.289723,-19.213957999412,0.0 -42.290109,-19.214349999412,0.0 -42.290542,-19.214856999412,0.0 -42.290952,-19.215271999412,0.0 -42.291578,-19.216009999412,0.0 -42.291987,-19.216516999412,0.0 -42.292372,-19.216977999412,0.0 -42.292637,-19.2173919994119,0.0 -42.292949,-19.2178989994119,0.0 -42.293238,-19.2183369994119,0.0 -42.293478,-19.2187279994119,0.0 -42.293719,-19.2191889994119,0.0 -42.29391,-19.2196489994119,0.0 -42.293957,-19.2201319994119,0.0 -42.293858,-19.2206139994119,0.0 -42.293808,-19.2211199994118,0.0 -42.293804,-19.2220849994118,0.0 -42.293705,-19.2225899994118,0.0 -42.293606,-19.2230489994118,0.0 -42.293556,-19.2234859994118,0.0 -42.293506,-19.2239679994118,0.0 -42.293383,-19.2244039994118,0.0 -42.293212,-19.2248399994117,0.0 -42.293162,-19.2253689994117,0.0 -42.293136,-19.2258279994117,0.0 -42.292796,-19.2262179994117,0.0 -42.292455,-19.2265609994117,0.0 -42.292139,-19.2269279994117,0.0 -42.291872,-19.2273409994117,0.0 -42.29158,-19.2277989994117,0.0 -42.291311,-19.2283039994117,0.0 -42.291092,-19.2287399994116,0.0 -42.290873,-19.2291529994116,0.0 -42.290702,-19.2295659994116,0.0 -42.290555,-19.2300249994116,0.0 -42.290383,-19.2305299994116,0.0 -42.290333,-19.2310809994116,0.0 -42.290306,-19.2315639994116,0.0 -42.290281,-19.2319999994116,0.0 -42.290326,-19.2327359994115,0.0 -42.290517,-19.2333109994115,0.0 -42.290829,-19.2338869994115,0.0 -42.291021,-19.2343009994115,0.0 -42.291286,-19.2347389994115,0.0 -42.291598,-19.2351989994115,0.0 -42.291839,-19.2356139994115,0.0 -42.292103,-19.2361199994115,0.0 -42.292343,-19.2365579994114,0.0 -42.292898,-19.2369969994114,0.0 -42.293284,-19.2373199994114,0.0 -42.29367,-19.2375739994114,0.0 -42.294128,-19.2379429994114,0.0 -42.294586,-19.2382669994114,0.0 -42.294997,-19.2384979994114,0.0 -42.295601,-19.2387759994114,0.0 -42.296011,-19.2390069994114,0.0 -42.296518,-19.2392159994114,0.0 -42.296978,-19.2393549994114,0.0 -42.29763,-19.2394499994114,0.0 -42.298162,-19.2395429994114,0.0 -42.29867,-19.2395449994114,0.0 -42.299203,-19.2395009994114,0.0 -42.299712,-19.2393419994114,0.0 -42.300269,-19.2391369994114,0.0 -42.300729,-19.2390009994114,0.0 -42.301166,-19.2387729994114,0.0 -42.302038,-19.2384539994114,0.0 -42.302474,-19.2382719994114,0.0 -42.302934,-19.2381579994114,0.0 -42.30337,-19.2379989994114,0.0 -42.304339,-19.2378189994114,0.0 -42.304823,-19.2377049994114,0.0 -42.305356,-19.2375459994114,0.0 -42.305841,-19.2374559994114,0.0 -42.306301,-19.2372969994114,0.0 -42.306761,-19.2372529994114,0.0 -42.307366,-19.2371399994114,0.0 -42.307826,-19.2369809994114,0.0 -42.308311,-19.2367749994114,0.0 -42.308772,-19.2365239994114,0.0 -42.309208,-19.2363189994115,0.0 -42.309813,-19.2362059994115,0.0 -42.310273,-19.2361619994115,0.0 -42.310999,-19.2361639994115,0.0 -42.311531,-19.2362119994115,0.0 -42.312136,-19.2362829994115,0.0 -42.31262,-19.2363079994115,0.0 -42.313079,-19.2363779994115,0.0 -42.313563,-19.2364489994115,0.0 -42.314022,-19.2365429994115,0.0 -42.314433,-19.2367509994114,0.0 -42.314843,-19.2369819994114,0.0 -42.315278,-19.2372359994114,0.0 -42.315736,-19.2375829994114,0.0 -42.316288,-19.2380699994114,0.0 -42.316485,-19.2378839994114,0.0 -42.316801,-19.2375629994114,0.0 -42.317165,-19.2372199994114,0.0 -42.317529,-19.2368989994114,0.0 -42.317893,-19.2366019994114,0.0 -42.318306,-19.2363509994115,0.0 -42.318742,-19.2361219994115,0.0 -42.319178,-19.2358709994115,0.0 -42.319566,-19.2356189994115,0.0 -42.319979,-19.2353909994115,0.0 -42.320852,-19.2348879994115,0.0 -42.321264,-19.2346369994115,0.0 -42.321506,-19.2345689994115,0.0</coordinates>
</LinearRing>
</outerBoundaryIs>
</Polygon>
</MultiGeometry>
</Placemark>
</Folder>
</Document></kml>
