<?xml version='1.0' encoding='UTF-8'?>
<kml xmlns:xsd="http://www.w3.org/2001/XMLSchema" xmlns:gx="http://www.google.com/kml/ext/2.2" xmlns:atom="http://www.w3.org/2005/Atom" xmlns="http://www.opengis.net/kml/2.2">
<Document>
<name>jundia_2703908_localidades_2022</name>
<visibility>1</visibility>
<Schema name="Localidades" id="kml_schema_ft_Localidades">
<SimpleField type="xsd:string" name="CD_UF">
<displayName>CD_UF</displayName>
</SimpleField>
<SimpleField type="xsd:string" name="NM_UF">
<displayName>NM_UF</displayName>
</SimpleField>
<SimpleField type="xsd:string" name="SIGLA_UF">
<displayName>SIGLA_UF</displayName>
</SimpleField>
<SimpleField type="xsd:string" name="CD_MUN">
<displayName>CD_MUN</displayName>
</SimpleField>
<SimpleField type="xsd:string" name="NM_MUN">
<displayName>NM_MUN</displayName>
</SimpleField>
<SimpleField type="xsd:string" name="CD_RGINT">
<displayName>CD_RGINT</displayName>
</SimpleField>
<SimpleField type="xsd:string" name="NM_RGINT">
<displayName>NM_RGINT</displayName>
</SimpleField>
<SimpleField type="xsd:string" name="CD_RGI">
<displayName>CD_RGI</displayName>
</SimpleField>
<SimpleField type="xsd:string" name="NM_RGI">
<displayName>NM_RGI</displayName>
</SimpleField>
<SimpleField type="xsd:string" name="CT_LOCALIDADE">
<displayName>CT_LOCALIDADE</displayName>
</SimpleField>
<SimpleField type="xsd:string" name="SCT_LOCALIDADE">
<displayName>SCT_LOCALIDADE</displayName>
</SimpleField>
<SimpleField type="xsd:string" name="CD_LOCALIDADE">
<displayName>CD_LOCALIDADE</displayName>
</SimpleField>
<SimpleField type="xsd:string" name="NM_LOCALIDADE">
<displayName>NM_LOCALIDADE</displayName>
</SimpleField>
</Schema>
<Schema name="Núcleos Urbanos" id="kml_schema_ft_Núcleos_Urbanos">
<SimpleField type="xsd:string" name="CD_UF">
<displayName>CD_UF</displayName>
</SimpleField>
<SimpleField type="xsd:string" name="NM_UF">
<displayName>NM_UF</displayName>
</SimpleField>
<SimpleField type="xsd:string" name="SIGLA_UF">
<displayName>SIGLA_UF</displayName>
</SimpleField>
<SimpleField type="xsd:string" name="CD_MUN">
<displayName>CD_MUN</displayName>
</SimpleField>
<SimpleField type="xsd:string" name="NM_MUN">
<displayName>NM_MUN</displayName>
</SimpleField>
<SimpleField type="xsd:string" name="CD_RGINT">
<displayName>CD_RGINT</displayName>
</SimpleField>
<SimpleField type="xsd:string" name="NM_RGINT">
<displayName>NM_RGINT</displayName>
</SimpleField>
<SimpleField type="xsd:string" name="CD_RGI">
<displayName>CD_RGI</displayName>
</SimpleField>
<SimpleField type="xsd:string" name="NM_RGI">
<displayName>NM_RGI</displayName>
</SimpleField>
<SimpleField type="xsd:string" name="CT_LOCALIDADE">
<displayName>CT_LOCALIDADE</displayName>
</SimpleField>
<SimpleField type="xsd:string" name="CD_LOCALIDADE">
<displayName>CD_LOCALIDADE</displayName>
</SimpleField>
<SimpleField type="xsd:string" name="NM_LOCALIDADE">
<displayName>NM_LOCALIDADE</displayName>
</SimpleField>
<SimpleField type="xsd:string" name="LAT_LOCALIDADE">
<displayName>LAT_LOCALIDADE</displayName>
</SimpleField>
<SimpleField type="xsd:string" name="LONG_LOCALIDADE">
<displayName>LONG_LOCALIDADE</displayName>
</SimpleField>
</Schema>
<Schema name="01. Cidade" id="kml_schema_ft_01._Cidade">
<SimpleField type="xsd:string" name="CD_UF">
<displayName>CD_UF</displayName>
</SimpleField>
<SimpleField type="xsd:string" name="NM_UF">
<displayName>NM_UF</displayName>
</SimpleField>
<SimpleField type="xsd:string" name="SIGLA_UF">
<displayName>SIGLA_UF</displayName>
</SimpleField>
<SimpleField type="xsd:string" name="CD_MUN">
<displayName>CD_MUN</displayName>
</SimpleField>
<SimpleField type="xsd:string" name="NM_MUN">
<displayName>NM_MUN</displayName>
</SimpleField>
<SimpleField type="xsd:string" name="CD_RGINT">
<displayName>CD_RGINT</displayName>
</SimpleField>
<SimpleField type="xsd:string" name="NM_RGINT">
<displayName>NM_RGINT</displayName>
</SimpleField>
<SimpleField type="xsd:string" name="CD_RGI">
<displayName>CD_RGI</displayName>
</SimpleField>
<SimpleField type="xsd:string" name="NM_RGI">
<displayName>NM_RGI</displayName>
</SimpleField>
<SimpleField type="xsd:string" name="CT_LOCALIDADE">
<displayName>CT_LOCALIDADE</displayName>
</SimpleField>
<SimpleField type="xsd:string" name="SCT_LOCALIDADE">
<displayName>SCT_LOCALIDADE</displayName>
</SimpleField>
<SimpleField type="xsd:string" name="CD_LOCALIDADE">
<displayName>CD_LOCALIDADE</displayName>
</SimpleField>
<SimpleField type="xsd:string" name="NM_LOCALIDADE">
<displayName>NM_LOCALIDADE</displayName>
</SimpleField>
<SimpleField type="xsd:string" name="LAT_LOCALIDADE">
<displayName>LAT_LOCALIDADE</displayName>
</SimpleField>
<SimpleField type="xsd:string" name="LONG_LOCALIDADE">
<displayName>LONG_LOCALIDADE</displayName>
</SimpleField>
</Schema>
<Schema name="Município" id="kml_schema_ft_Município">
<SimpleField type="xsd:string" name="CD_UF">
<displayName>CD_UF</displayName>
</SimpleField>
<SimpleField type="xsd:string" name="NM_UF">
<displayName>NM_UF</displayName>
</SimpleField>
<SimpleField type="xsd:string" name="CD_MUN">
<displayName>CD_MUN</displayName>
</SimpleField>
<SimpleField type="xsd:string" name="NM_MUN">
<displayName>NM_MUN</displayName>
</SimpleField>
<SimpleField type="xsd:string" name="CD_RGINT">
<displayName>CD_RGINT</displayName>
</SimpleField>
<SimpleField type="xsd:string" name="NM_RGINT">
<displayName>NM_RGINT</displayName>
</SimpleField>
<SimpleField type="xsd:string" name="CD_RGI">
<displayName>CD_RGI</displayName>
</SimpleField>
<SimpleField type="xsd:string" name="NM_RGI">
<displayName>NM_RGI</displayName>
</SimpleField>
</Schema>
<Folder id="01. Cidade">
<name>01. Cidade</name>
<Folder id="01.03. Sede Municipal">
<name>01.03. Sede Municipal</name>
<Placemark id="01.03. Sede Municipal">
<name>Jundiá [2703908]</name>
<visibility>1</visibility>
<snippet> </snippet>
<description>&lt;center&gt;&lt;table&gt;&lt;tr&gt;&lt;th colspan='2' align='center'&gt;&lt;em&gt;Atributos&lt;/em&gt;&lt;/th&gt;&lt;/tr&gt;&lt;tr bgcolor="#E3E3F3"&gt;
&lt;th&gt;CD_UF&lt;/th&gt;
&lt;td&gt;27&lt;/td&gt;
&lt;/tr&gt;&lt;tr bgcolor=""&gt;
&lt;th&gt;NM_UF&lt;/th&gt;
&lt;td&gt;Alagoas&lt;/td&gt;
&lt;/tr&gt;&lt;tr bgcolor="#E3E3F3"&gt;
&lt;th&gt;SIGLA_UF&lt;/th&gt;
&lt;td&gt;AL&lt;/td&gt;
&lt;/tr&gt;&lt;tr bgcolor=""&gt;
&lt;th&gt;CD_MUN&lt;/th&gt;
&lt;td&gt;2703908&lt;/td&gt;
&lt;/tr&gt;&lt;tr bgcolor="#E3E3F3"&gt;
&lt;th&gt;NM_MUN&lt;/th&gt;
&lt;td&gt;Jundiá&lt;/td&gt;
&lt;/tr&gt;&lt;tr bgcolor=""&gt;
&lt;th&gt;CD_RGINT&lt;/th&gt;
&lt;td&gt;2701&lt;/td&gt;
&lt;/tr&gt;&lt;tr bgcolor="#E3E3F3"&gt;
&lt;th&gt;NM_RGINT&lt;/th&gt;
&lt;td&gt;Maceió&lt;/td&gt;
&lt;/tr&gt;&lt;tr bgcolor=""&gt;
&lt;th&gt;CD_RGI&lt;/th&gt;
&lt;td&gt;270002&lt;/td&gt;
&lt;/tr&gt;&lt;tr bgcolor="#E3E3F3"&gt;
&lt;th&gt;NM_RGI&lt;/th&gt;
&lt;td&gt;Porto Calvo - São Luís do Quitunde&lt;/td&gt;
&lt;/tr&gt;&lt;tr bgcolor=""&gt;
&lt;th&gt;CT_LOCALIDADE&lt;/th&gt;
&lt;td&gt;Cidade&lt;/td&gt;
&lt;/tr&gt;&lt;tr bgcolor="#E3E3F3"&gt;
&lt;th&gt;SCT_LOCALIDADE&lt;/th&gt;
&lt;td&gt;Sede Municipal&lt;/td&gt;
&lt;/tr&gt;&lt;tr bgcolor=""&gt;
&lt;th&gt;CD_LOCALIDADE&lt;/th&gt;
&lt;td&gt;2703908&lt;/td&gt;
&lt;/tr&gt;&lt;tr bgcolor="#E3E3F3"&gt;
&lt;th&gt;NM_LOCALIDADE&lt;/th&gt;
&lt;td&gt;Jundiá&lt;/td&gt;
&lt;/tr&gt;&lt;tr bgcolor=""&gt;
&lt;th&gt;LAT_LOCALIDADE&lt;/th&gt;
&lt;td&gt;-8.9424&lt;/td&gt;
&lt;/tr&gt;&lt;tr bgcolor="#E3E3F3"&gt;
&lt;th&gt;LONG_LOCALIDADE&lt;/th&gt;
&lt;td&gt;-35.5539&lt;/td&gt;
&lt;/tr&gt;&lt;/table&gt;&lt;/center&gt;</description>
<Style>
<IconStyle>
<color>ff00aaff</color>
<scale>1.0</scale>
<Icon>
<href>http://maps.google.com/mapfiles/kml/shapes/placemark_circle.png</href>
</Icon>
</IconStyle>
<LabelStyle>
<scale>1.0</scale>
</LabelStyle>
<LineStyle>
<color>ffffffff</color>
<width>3</width>
<gx:labelVisibility>1</gx:labelVisibility>
</LineStyle>
<PolyStyle>
<color>00ffffff</color>
</PolyStyle>
</Style>
<ExtendedData>
<SchemaData schemaUrl="#kml_schema_ft_01._Cidade">
<SimpleData name="CD_UF">27</SimpleData>
<SimpleData name="NM_UF">Alagoas</SimpleData>
<SimpleData name="SIGLA_UF">AL</SimpleData>
<SimpleData name="CD_MUN">2703908</SimpleData>
<SimpleData name="NM_MUN">Jundiá</SimpleData>
<SimpleData name="CD_RGINT">2701</SimpleData>
<SimpleData name="NM_RGINT">Maceió</SimpleData>
<SimpleData name="CD_RGI">270002</SimpleData>
<SimpleData name="NM_RGI">Porto Calvo - São Luís do Quitunde</SimpleData>
<SimpleData name="CT_LOCALIDADE">Cidade</SimpleData>
<SimpleData name="SCT_LOCALIDADE">Sede Municipal</SimpleData>
<SimpleData name="CD_LOCALIDADE">2703908</SimpleData>
<SimpleData name="NM_LOCALIDADE">Jundiá</SimpleData>
<SimpleData name="LAT_LOCALIDADE">-8.9424</SimpleData>
<SimpleData name="LONG_LOCALIDADE">-35.5539</SimpleData>
</SchemaData>
</ExtendedData>
<Point>
<extrude>0</extrude>
<coordinates>-35.5539,-8.94239999970914,0.0</coordinates>
</Point>
</Placemark>
</Folder>
</Folder>
<Folder id="05. Núcleos Urbanos">
<name>05. Núcleos Urbanos</name>
<Placemark id="localidades">
<name>Conjunto Maria de Lourdes Rufino [2703908001]</name>
<visibility>1</visibility>
<snippet> </snippet>
<description>&lt;center&gt;&lt;table&gt;&lt;tr&gt;&lt;th colspan='2' align='center'&gt;&lt;em&gt;Attributes&lt;/em&gt;&lt;/th&gt;&lt;/tr&gt;&lt;tr bgcolor="#E3E3F3"&gt;
&lt;th&gt;CD_UF&lt;/th&gt;
&lt;td&gt;27&lt;/td&gt;
&lt;/tr&gt;&lt;tr bgcolor=""&gt;
&lt;th&gt;NM_UF&lt;/th&gt;
&lt;td&gt;Alagoas&lt;/td&gt;
&lt;/tr&gt;&lt;tr bgcolor="#E3E3F3"&gt;
&lt;th&gt;SIGLA_UF&lt;/th&gt;
&lt;td&gt;AL&lt;/td&gt;
&lt;/tr&gt;&lt;tr bgcolor=""&gt;
&lt;th&gt;CD_MUN&lt;/th&gt;
&lt;td&gt;2703908&lt;/td&gt;
&lt;/tr&gt;&lt;tr bgcolor="#E3E3F3"&gt;
&lt;th&gt;NM_MUN&lt;/th&gt;
&lt;td&gt;Jundiá&lt;/td&gt;
&lt;/tr&gt;&lt;tr bgcolor=""&gt;
&lt;th&gt;CD_RGINT&lt;/th&gt;
&lt;td&gt;2701&lt;/td&gt;
&lt;/tr&gt;&lt;tr bgcolor="#E3E3F3"&gt;
&lt;th&gt;NM_RGINT&lt;/th&gt;
&lt;td&gt;Maceió&lt;/td&gt;
&lt;/tr&gt;&lt;tr bgcolor=""&gt;
&lt;th&gt;CD_RGI&lt;/th&gt;
&lt;td&gt;270002&lt;/td&gt;
&lt;/tr&gt;&lt;tr bgcolor="#E3E3F3"&gt;
&lt;th&gt;NM_RGI&lt;/th&gt;
&lt;td&gt;Porto Calvo - São Luís do Quitunde&lt;/td&gt;
&lt;/tr&gt;&lt;tr bgcolor=""&gt;
&lt;th&gt;CT_LOCALIDADE&lt;/th&gt;
&lt;td&gt;Núcleo Urbano&lt;/td&gt;
&lt;/tr&gt;&lt;tr bgcolor="#E3E3F3"&gt;
&lt;th&gt;CD_LOCALIDADE&lt;/th&gt;
&lt;td&gt;2703908001&lt;/td&gt;
&lt;/tr&gt;&lt;tr bgcolor=""&gt;
&lt;th&gt;NM_LOCALIDADE&lt;/th&gt;
&lt;td&gt;Conjunto Maria de Lourdes Rufino&lt;/td&gt;
&lt;/tr&gt;&lt;tr bgcolor="#E3E3F3"&gt;
&lt;th&gt;LAT_LOCALIDADE&lt;/th&gt;
&lt;td&gt;-8.9334&lt;/td&gt;
&lt;/tr&gt;&lt;tr bgcolor=""&gt;
&lt;th&gt;LONG_LOCALIDADE&lt;/th&gt;
&lt;td&gt;-35.5536&lt;/td&gt;
&lt;/tr&gt;&lt;/table&gt;&lt;/center&gt;</description>
<Style>
<IconStyle>
<color>ff0000ff</color>
<scale>0.9</scale>
<Icon>
<href>http://maps.google.com/mapfiles/kml/shapes/placemark_circle.png</href>
</Icon>
</IconStyle>
<LabelStyle>
<scale>0.9</scale>
</LabelStyle>
<LineStyle>
<color>72ffffff</color>
<width>1.0</width>
<gx:labelVisibility>1</gx:labelVisibility>
</LineStyle>
<PolyStyle>
<color>66ff54ff</color>
</PolyStyle>
</Style>
<ExtendedData>
<SchemaData schemaUrl="#kml_schema_ft_Núcleos_Urbanos">
<SimpleData name="CD_UF">27</SimpleData>
<SimpleData name="NM_UF">Alagoas</SimpleData>
<SimpleData name="SIGLA_UF">AL</SimpleData>
<SimpleData name="CD_MUN">2703908</SimpleData>
<SimpleData name="NM_MUN">Jundiá</SimpleData>
<SimpleData name="CD_RGINT">2701</SimpleData>
<SimpleData name="NM_RGINT">Maceió</SimpleData>
<SimpleData name="CD_RGI">270002</SimpleData>
<SimpleData name="NM_RGI">Porto Calvo - São Luís do Quitunde</SimpleData>
<SimpleData name="CT_LOCALIDADE">Núcleo Urbano</SimpleData>
<SimpleData name="CD_LOCALIDADE">2703908001</SimpleData>
<SimpleData name="NM_LOCALIDADE">Conjunto Maria de Lourdes Rufino</SimpleData>
<SimpleData name="LAT_LOCALIDADE">-8.9334</SimpleData>
<SimpleData name="LONG_LOCALIDADE">-35.5536</SimpleData>
</SchemaData>
</ExtendedData>
<Point>
<extrude>0</extrude>
<coordinates>-35.5536358757396,-8.93343157959108,0.0</coordinates>
</Point>
</Placemark>
</Folder>
<Folder id="12. Outras Localidades">
<name>12. Outras Localidades</name>
<Placemark id="12. Outras Localidades">
<name>Avilar [270390800002]</name>
<visibility>1</visibility>
<snippet> </snippet>
<description>&lt;center&gt;&lt;table&gt;&lt;tr&gt;&lt;th colspan='2' align='center'&gt;&lt;em&gt;Attributes&lt;/em&gt;&lt;/th&gt;&lt;/tr&gt;&lt;tr bgcolor="#E3E3F3"&gt;
&lt;th&gt;CD_UF&lt;/th&gt;
&lt;td&gt;27&lt;/td&gt;
&lt;/tr&gt;&lt;tr bgcolor=""&gt;
&lt;th&gt;NM_UF&lt;/th&gt;
&lt;td&gt;Alagoas&lt;/td&gt;
&lt;/tr&gt;&lt;tr bgcolor="#E3E3F3"&gt;
&lt;th&gt;SIGLA_UF&lt;/th&gt;
&lt;td&gt;AL&lt;/td&gt;
&lt;/tr&gt;&lt;tr bgcolor=""&gt;
&lt;th&gt;CD_MUN&lt;/th&gt;
&lt;td&gt;2703908&lt;/td&gt;
&lt;/tr&gt;&lt;tr bgcolor="#E3E3F3"&gt;
&lt;th&gt;NM_MUN&lt;/th&gt;
&lt;td&gt;Jundiá&lt;/td&gt;
&lt;/tr&gt;&lt;tr bgcolor=""&gt;
&lt;th&gt;CD_RGINT&lt;/th&gt;
&lt;td&gt;2701&lt;/td&gt;
&lt;/tr&gt;&lt;tr bgcolor="#E3E3F3"&gt;
&lt;th&gt;NM_RGINT&lt;/th&gt;
&lt;td&gt;Maceió&lt;/td&gt;
&lt;/tr&gt;&lt;tr bgcolor=""&gt;
&lt;th&gt;CD_RGI&lt;/th&gt;
&lt;td&gt;270002&lt;/td&gt;
&lt;/tr&gt;&lt;tr bgcolor="#E3E3F3"&gt;
&lt;th&gt;NM_RGI&lt;/th&gt;
&lt;td&gt;Porto Calvo - São Luís do Quitunde&lt;/td&gt;
&lt;/tr&gt;&lt;tr bgcolor=""&gt;
&lt;th&gt;CT_LOCALIDADE&lt;/th&gt;
&lt;td&gt;Outras Localidades&lt;/td&gt;
&lt;/tr&gt;&lt;tr bgcolor="#E3E3F3"&gt;
&lt;th&gt;SCT_LOCALIDADE&lt;/th&gt;
&lt;td&gt;&lt;/td&gt;
&lt;/tr&gt;&lt;tr bgcolor=""&gt;
&lt;th&gt;CD_LOCALIDADE&lt;/th&gt;
&lt;td&gt;270390800002&lt;/td&gt;
&lt;/tr&gt;&lt;tr bgcolor="#E3E3F3"&gt;
&lt;th&gt;NM_LOCALIDADE&lt;/th&gt;
&lt;td&gt;Avilar&lt;/td&gt;
&lt;/tr&gt;&lt;/table&gt;&lt;/center&gt;</description>
<Style>
<IconStyle>
<color>ff0069d3</color>
<scale>0.6</scale>
<Icon>
<href>http://maps.google.com/mapfiles/kml/shapes/placemark_circle.png</href>
</Icon>
</IconStyle>
<LabelStyle>
<scale>0.6</scale>
</LabelStyle>
<LineStyle>
<width>1.0</width>
<gx:labelVisibility>1</gx:labelVisibility>
</LineStyle>
</Style>
<ExtendedData>
<SchemaData schemaUrl="#kml_schema_ft_Localidades">
<SimpleData name="CD_UF">27</SimpleData>
<SimpleData name="NM_UF">Alagoas</SimpleData>
<SimpleData name="SIGLA_UF">AL</SimpleData>
<SimpleData name="CD_MUN">2703908</SimpleData>
<SimpleData name="NM_MUN">Jundiá</SimpleData>
<SimpleData name="CD_RGINT">2701</SimpleData>
<SimpleData name="NM_RGINT">Maceió</SimpleData>
<SimpleData name="CD_RGI">270002</SimpleData>
<SimpleData name="NM_RGI">Porto Calvo - São Luís do Quitunde</SimpleData>
<SimpleData name="CT_LOCALIDADE">Outras Localidades</SimpleData>
<SimpleData name="CD_LOCALIDADE">270390800002</SimpleData>
<SimpleData name="NM_LOCALIDADE">Avilar</SimpleData>
</SchemaData>
</ExtendedData>
<Point>
<extrude>0</extrude>
<coordinates>-35.538629,-8.99621199970745,0.0</coordinates>
</Point>
</Placemark>
<Placemark id="12. Outras Localidades">
<name>Glória das Virgens [270390800003]</name>
<visibility>1</visibility>
<snippet> </snippet>
<description>&lt;center&gt;&lt;table&gt;&lt;tr&gt;&lt;th colspan='2' align='center'&gt;&lt;em&gt;Attributes&lt;/em&gt;&lt;/th&gt;&lt;/tr&gt;&lt;tr bgcolor="#E3E3F3"&gt;
&lt;th&gt;CD_UF&lt;/th&gt;
&lt;td&gt;27&lt;/td&gt;
&lt;/tr&gt;&lt;tr bgcolor=""&gt;
&lt;th&gt;NM_UF&lt;/th&gt;
&lt;td&gt;Alagoas&lt;/td&gt;
&lt;/tr&gt;&lt;tr bgcolor="#E3E3F3"&gt;
&lt;th&gt;SIGLA_UF&lt;/th&gt;
&lt;td&gt;AL&lt;/td&gt;
&lt;/tr&gt;&lt;tr bgcolor=""&gt;
&lt;th&gt;CD_MUN&lt;/th&gt;
&lt;td&gt;2703908&lt;/td&gt;
&lt;/tr&gt;&lt;tr bgcolor="#E3E3F3"&gt;
&lt;th&gt;NM_MUN&lt;/th&gt;
&lt;td&gt;Jundiá&lt;/td&gt;
&lt;/tr&gt;&lt;tr bgcolor=""&gt;
&lt;th&gt;CD_RGINT&lt;/th&gt;
&lt;td&gt;2701&lt;/td&gt;
&lt;/tr&gt;&lt;tr bgcolor="#E3E3F3"&gt;
&lt;th&gt;NM_RGINT&lt;/th&gt;
&lt;td&gt;Maceió&lt;/td&gt;
&lt;/tr&gt;&lt;tr bgcolor=""&gt;
&lt;th&gt;CD_RGI&lt;/th&gt;
&lt;td&gt;270002&lt;/td&gt;
&lt;/tr&gt;&lt;tr bgcolor="#E3E3F3"&gt;
&lt;th&gt;NM_RGI&lt;/th&gt;
&lt;td&gt;Porto Calvo - São Luís do Quitunde&lt;/td&gt;
&lt;/tr&gt;&lt;tr bgcolor=""&gt;
&lt;th&gt;CT_LOCALIDADE&lt;/th&gt;
&lt;td&gt;Outras Localidades&lt;/td&gt;
&lt;/tr&gt;&lt;tr bgcolor="#E3E3F3"&gt;
&lt;th&gt;SCT_LOCALIDADE&lt;/th&gt;
&lt;td&gt;&lt;/td&gt;
&lt;/tr&gt;&lt;tr bgcolor=""&gt;
&lt;th&gt;CD_LOCALIDADE&lt;/th&gt;
&lt;td&gt;270390800003&lt;/td&gt;
&lt;/tr&gt;&lt;tr bgcolor="#E3E3F3"&gt;
&lt;th&gt;NM_LOCALIDADE&lt;/th&gt;
&lt;td&gt;Glória das Virgens&lt;/td&gt;
&lt;/tr&gt;&lt;/table&gt;&lt;/center&gt;</description>
<Style>
<IconStyle>
<color>ff0069d3</color>
<scale>0.6</scale>
<Icon>
<href>http://maps.google.com/mapfiles/kml/shapes/placemark_circle.png</href>
</Icon>
</IconStyle>
<LabelStyle>
<scale>0.6</scale>
</LabelStyle>
<LineStyle>
<width>1.0</width>
<gx:labelVisibility>1</gx:labelVisibility>
</LineStyle>
</Style>
<ExtendedData>
<SchemaData schemaUrl="#kml_schema_ft_Localidades">
<SimpleData name="CD_UF">27</SimpleData>
<SimpleData name="NM_UF">Alagoas</SimpleData>
<SimpleData name="SIGLA_UF">AL</SimpleData>
<SimpleData name="CD_MUN">2703908</SimpleData>
<SimpleData name="NM_MUN">Jundiá</SimpleData>
<SimpleData name="CD_RGINT">2701</SimpleData>
<SimpleData name="NM_RGINT">Maceió</SimpleData>
<SimpleData name="CD_RGI">270002</SimpleData>
<SimpleData name="NM_RGI">Porto Calvo - São Luís do Quitunde</SimpleData>
<SimpleData name="CT_LOCALIDADE">Outras Localidades</SimpleData>
<SimpleData name="CD_LOCALIDADE">270390800003</SimpleData>
<SimpleData name="NM_LOCALIDADE">Glória das Virgens</SimpleData>
</SchemaData>
</ExtendedData>
<Point>
<extrude>0</extrude>
<coordinates>-35.5004694,-8.94766559970898,0.0</coordinates>
</Point>
</Placemark>
<Placemark id="12. Outras Localidades">
<name>Fazenda Nova [270390800004]</name>
<visibility>1</visibility>
<snippet> </snippet>
<description>&lt;center&gt;&lt;table&gt;&lt;tr&gt;&lt;th colspan='2' align='center'&gt;&lt;em&gt;Attributes&lt;/em&gt;&lt;/th&gt;&lt;/tr&gt;&lt;tr bgcolor="#E3E3F3"&gt;
&lt;th&gt;CD_UF&lt;/th&gt;
&lt;td&gt;27&lt;/td&gt;
&lt;/tr&gt;&lt;tr bgcolor=""&gt;
&lt;th&gt;NM_UF&lt;/th&gt;
&lt;td&gt;Alagoas&lt;/td&gt;
&lt;/tr&gt;&lt;tr bgcolor="#E3E3F3"&gt;
&lt;th&gt;SIGLA_UF&lt;/th&gt;
&lt;td&gt;AL&lt;/td&gt;
&lt;/tr&gt;&lt;tr bgcolor=""&gt;
&lt;th&gt;CD_MUN&lt;/th&gt;
&lt;td&gt;2703908&lt;/td&gt;
&lt;/tr&gt;&lt;tr bgcolor="#E3E3F3"&gt;
&lt;th&gt;NM_MUN&lt;/th&gt;
&lt;td&gt;Jundiá&lt;/td&gt;
&lt;/tr&gt;&lt;tr bgcolor=""&gt;
&lt;th&gt;CD_RGINT&lt;/th&gt;
&lt;td&gt;2701&lt;/td&gt;
&lt;/tr&gt;&lt;tr bgcolor="#E3E3F3"&gt;
&lt;th&gt;NM_RGINT&lt;/th&gt;
&lt;td&gt;Maceió&lt;/td&gt;
&lt;/tr&gt;&lt;tr bgcolor=""&gt;
&lt;th&gt;CD_RGI&lt;/th&gt;
&lt;td&gt;270002&lt;/td&gt;
&lt;/tr&gt;&lt;tr bgcolor="#E3E3F3"&gt;
&lt;th&gt;NM_RGI&lt;/th&gt;
&lt;td&gt;Porto Calvo - São Luís do Quitunde&lt;/td&gt;
&lt;/tr&gt;&lt;tr bgcolor=""&gt;
&lt;th&gt;CT_LOCALIDADE&lt;/th&gt;
&lt;td&gt;Outras Localidades&lt;/td&gt;
&lt;/tr&gt;&lt;tr bgcolor="#E3E3F3"&gt;
&lt;th&gt;SCT_LOCALIDADE&lt;/th&gt;
&lt;td&gt;&lt;/td&gt;
&lt;/tr&gt;&lt;tr bgcolor=""&gt;
&lt;th&gt;CD_LOCALIDADE&lt;/th&gt;
&lt;td&gt;270390800004&lt;/td&gt;
&lt;/tr&gt;&lt;tr bgcolor="#E3E3F3"&gt;
&lt;th&gt;NM_LOCALIDADE&lt;/th&gt;
&lt;td&gt;Fazenda Nova&lt;/td&gt;
&lt;/tr&gt;&lt;/table&gt;&lt;/center&gt;</description>
<Style>
<IconStyle>
<color>ff0069d3</color>
<scale>0.6</scale>
<Icon>
<href>http://maps.google.com/mapfiles/kml/shapes/placemark_circle.png</href>
</Icon>
</IconStyle>
<LabelStyle>
<scale>0.6</scale>
</LabelStyle>
<LineStyle>
<width>1.0</width>
<gx:labelVisibility>1</gx:labelVisibility>
</LineStyle>
</Style>
<ExtendedData>
<SchemaData schemaUrl="#kml_schema_ft_Localidades">
<SimpleData name="CD_UF">27</SimpleData>
<SimpleData name="NM_UF">Alagoas</SimpleData>
<SimpleData name="SIGLA_UF">AL</SimpleData>
<SimpleData name="CD_MUN">2703908</SimpleData>
<SimpleData name="NM_MUN">Jundiá</SimpleData>
<SimpleData name="CD_RGINT">2701</SimpleData>
<SimpleData name="NM_RGINT">Maceió</SimpleData>
<SimpleData name="CD_RGI">270002</SimpleData>
<SimpleData name="NM_RGI">Porto Calvo - São Luís do Quitunde</SimpleData>
<SimpleData name="CT_LOCALIDADE">Outras Localidades</SimpleData>
<SimpleData name="CD_LOCALIDADE">270390800004</SimpleData>
<SimpleData name="NM_LOCALIDADE">Fazenda Nova</SimpleData>
</SchemaData>
</ExtendedData>
<Point>
<extrude>0</extrude>
<coordinates>-35.5533197,-8.9215768997098,0.0</coordinates>
</Point>
</Placemark>
<Placemark id="12. Outras Localidades">
<name>Lopes [270390800005]</name>
<visibility>1</visibility>
<snippet> </snippet>
<description>&lt;center&gt;&lt;table&gt;&lt;tr&gt;&lt;th colspan='2' align='center'&gt;&lt;em&gt;Attributes&lt;/em&gt;&lt;/th&gt;&lt;/tr&gt;&lt;tr bgcolor="#E3E3F3"&gt;
&lt;th&gt;CD_UF&lt;/th&gt;
&lt;td&gt;27&lt;/td&gt;
&lt;/tr&gt;&lt;tr bgcolor=""&gt;
&lt;th&gt;NM_UF&lt;/th&gt;
&lt;td&gt;Alagoas&lt;/td&gt;
&lt;/tr&gt;&lt;tr bgcolor="#E3E3F3"&gt;
&lt;th&gt;SIGLA_UF&lt;/th&gt;
&lt;td&gt;AL&lt;/td&gt;
&lt;/tr&gt;&lt;tr bgcolor=""&gt;
&lt;th&gt;CD_MUN&lt;/th&gt;
&lt;td&gt;2703908&lt;/td&gt;
&lt;/tr&gt;&lt;tr bgcolor="#E3E3F3"&gt;
&lt;th&gt;NM_MUN&lt;/th&gt;
&lt;td&gt;Jundiá&lt;/td&gt;
&lt;/tr&gt;&lt;tr bgcolor=""&gt;
&lt;th&gt;CD_RGINT&lt;/th&gt;
&lt;td&gt;2701&lt;/td&gt;
&lt;/tr&gt;&lt;tr bgcolor="#E3E3F3"&gt;
&lt;th&gt;NM_RGINT&lt;/th&gt;
&lt;td&gt;Maceió&lt;/td&gt;
&lt;/tr&gt;&lt;tr bgcolor=""&gt;
&lt;th&gt;CD_RGI&lt;/th&gt;
&lt;td&gt;270002&lt;/td&gt;
&lt;/tr&gt;&lt;tr bgcolor="#E3E3F3"&gt;
&lt;th&gt;NM_RGI&lt;/th&gt;
&lt;td&gt;Porto Calvo - São Luís do Quitunde&lt;/td&gt;
&lt;/tr&gt;&lt;tr bgcolor=""&gt;
&lt;th&gt;CT_LOCALIDADE&lt;/th&gt;
&lt;td&gt;Outras Localidades&lt;/td&gt;
&lt;/tr&gt;&lt;tr bgcolor="#E3E3F3"&gt;
&lt;th&gt;SCT_LOCALIDADE&lt;/th&gt;
&lt;td&gt;&lt;/td&gt;
&lt;/tr&gt;&lt;tr bgcolor=""&gt;
&lt;th&gt;CD_LOCALIDADE&lt;/th&gt;
&lt;td&gt;270390800005&lt;/td&gt;
&lt;/tr&gt;&lt;tr bgcolor="#E3E3F3"&gt;
&lt;th&gt;NM_LOCALIDADE&lt;/th&gt;
&lt;td&gt;Lopes&lt;/td&gt;
&lt;/tr&gt;&lt;/table&gt;&lt;/center&gt;</description>
<Style>
<IconStyle>
<color>ff0069d3</color>
<scale>0.6</scale>
<Icon>
<href>http://maps.google.com/mapfiles/kml/shapes/placemark_circle.png</href>
</Icon>
</IconStyle>
<LabelStyle>
<scale>0.6</scale>
</LabelStyle>
<LineStyle>
<width>1.0</width>
<gx:labelVisibility>1</gx:labelVisibility>
</LineStyle>
</Style>
<ExtendedData>
<SchemaData schemaUrl="#kml_schema_ft_Localidades">
<SimpleData name="CD_UF">27</SimpleData>
<SimpleData name="NM_UF">Alagoas</SimpleData>
<SimpleData name="SIGLA_UF">AL</SimpleData>
<SimpleData name="CD_MUN">2703908</SimpleData>
<SimpleData name="NM_MUN">Jundiá</SimpleData>
<SimpleData name="CD_RGINT">2701</SimpleData>
<SimpleData name="NM_RGINT">Maceió</SimpleData>
<SimpleData name="CD_RGI">270002</SimpleData>
<SimpleData name="NM_RGI">Porto Calvo - São Luís do Quitunde</SimpleData>
<SimpleData name="CT_LOCALIDADE">Outras Localidades</SimpleData>
<SimpleData name="CD_LOCALIDADE">270390800005</SimpleData>
<SimpleData name="NM_LOCALIDADE">Lopes</SimpleData>
</SchemaData>
</ExtendedData>
<Point>
<extrude>0</extrude>
<coordinates>-35.558673,-8.92627629970965,0.0</coordinates>
</Point>
</Placemark>
</Folder>
<Folder id="13. Referência">
<name>13. Referência</name>
<Placemark id="13. Referência">
<name>Jundiá [2703908]</name>
<visibility>1</visibility>
<snippet> </snippet>
<description>&lt;center&gt;&lt;table&gt;&lt;tr&gt;&lt;th colspan='2' align='center'&gt;&lt;em&gt;Attributes&lt;/em&gt;&lt;/th&gt;&lt;/tr&gt;&lt;tr bgcolor="#E3E3F3"&gt;
&lt;th&gt;CD_UF&lt;/th&gt;
&lt;td&gt;27&lt;/td&gt;
&lt;/tr&gt;&lt;tr bgcolor=""&gt;
&lt;th&gt;NM_UF&lt;/th&gt;
&lt;td&gt;Alagoas&lt;/td&gt;
&lt;/tr&gt;&lt;tr bgcolor="#E3E3F3"&gt;
&lt;th&gt;CD_MUN&lt;/th&gt;
&lt;td&gt;2703908&lt;/td&gt;
&lt;/tr&gt;&lt;tr bgcolor=""&gt;
&lt;th&gt;NM_MUN&lt;/th&gt;
&lt;td&gt;Jundiá&lt;/td&gt;
&lt;/tr&gt;&lt;tr bgcolor="#E3E3F3"&gt;
&lt;th&gt;CD_RGINT&lt;/th&gt;
&lt;td&gt;2701&lt;/td&gt;
&lt;/tr&gt;&lt;tr bgcolor=""&gt;
&lt;th&gt;NM_RGINT&lt;/th&gt;
&lt;td&gt;Maceió&lt;/td&gt;
&lt;/tr&gt;&lt;tr bgcolor="#E3E3F3"&gt;
&lt;th&gt;CD_RGI&lt;/th&gt;
&lt;td&gt;270002&lt;/td&gt;
&lt;/tr&gt;&lt;tr bgcolor=""&gt;
&lt;th&gt;NM_RGI&lt;/th&gt;
&lt;td&gt;Porto Calvo - São Luís do Quitunde&lt;/td&gt;
&lt;/tr&gt;&lt;/table&gt;&lt;/center&gt;</description>
<Style>
<IconStyle>
<scale>0.7</scale>
</IconStyle>
<LabelStyle>
<scale>0.7</scale>
</LabelStyle>
<LineStyle>
<color>ffffffff</color>
<width>3</width>
<gx:labelVisibility>1</gx:labelVisibility>
</LineStyle>
<PolyStyle>
<color>00ffffff</color>
</PolyStyle>
</Style>
<ExtendedData>
<SchemaData schemaUrl="#kml_schema_ft_Município">
<SimpleData name="CD_UF">27</SimpleData>
<SimpleData name="NM_UF">Alagoas</SimpleData>
<SimpleData name="CD_MUN">2703908</SimpleData>
<SimpleData name="NM_MUN">Jundiá</SimpleData>
<SimpleData name="CD_RGINT">2701</SimpleData>
<SimpleData name="NM_RGINT">Maceió</SimpleData>
<SimpleData name="CD_RGI">270002</SimpleData>
<SimpleData name="NM_RGI">Porto Calvo - São Luís do Quitunde</SimpleData>
</SchemaData>
</ExtendedData>
<MultiGeometry>
<Polygon>
<extrude>0</extrude>
<tessellate>1</tessellate>
<outerBoundaryIs>
<LinearRing>
<coordinates>-35.5705466,-8.98596619970777,0.0 -35.5705573,-8.98594839970777,0.0 -35.5706199,-8.98584399970778,0.0 -35.5707071,-8.98569869970779,0.0 -35.570986,-8.98533259970779,0.0 -35.5712366,-8.9851292997078,0.0 -35.5713265,-8.98473969970781,0.0 -35.5715163,-8.98402049970784,0.0 -35.571736,-8.98332119970786,0.0 -35.5722055,-8.98270189970788,0.0 -35.572695,-8.98161299970791,0.0 -35.5733743,-8.98054409970794,0.0 -35.5737439,-8.98025439970795,0.0 -35.5741934,-8.97983489970796,0.0 -35.5759915,-8.97901579970799,0.0 -35.5776598,-8.97846629970801,0.0 -35.5781592,-8.97826649970802,0.0 -35.5782491,-8.97799679970802,0.0 -35.5782991,-8.97766719970804,0.0 -35.5783291,-8.97735749970804,0.0 -35.5786188,-8.97692799970806,0.0 -35.5792581,-8.97604889970809,0.0 -35.5801771,-8.97534959970811,0.0 -35.5814258,-8.97485019970813,0.0 -35.5818853,-8.97483019970812,0.0 -35.582135,-8.97491009970812,0.0 -35.5825246,-8.97487009970812,0.0 -35.5829442,-8.97460039970813,0.0 -35.5832738,-8.97431069970814,0.0 -35.5835336,-8.97428079970814,0.0 -35.5837335,-8.97433109970814,0.0 -35.584185,-8.97455139970813,0.0 -35.5846255,-8.97463949970813,0.0 -35.5849008,-8.97490369970812,0.0 -35.5852862,-8.9754873997081,0.0 -35.5856455,-8.9755179997081,0.0 -35.5870507,-8.9755490997081,0.0 -35.5886503,-8.97652129970807,0.0 -35.5894097,-8.97701289970806,0.0 -35.58996,-8.97693219970806,0.0 -35.5907398,-8.97647419970808,0.0 -35.5907447,-8.97643669970807,0.0 -35.5907913,-8.97607559970809,0.0 -35.5901613,-8.97532999970811,0.0 -35.5895494,-8.97446499970814,0.0 -35.5878536,-8.9722893997082,0.0 -35.5875782,-8.97173929970822,0.0 -35.5877075,-8.97124699970824,0.0 -35.587535,-8.97056029970826,0.0 -35.5872907,-8.97025029970827,0.0 -35.5869946,-8.97004169970827,0.0 -35.5866911,-8.96973049970828,0.0 -35.5859094,-8.96902469970831,0.0 -35.5850593,-8.96809119970834,0.0 -35.5847254,-8.96762819970835,0.0 -35.5846384,-8.96746509970836,0.0 -35.584519,-8.96731799970836,0.0 -35.5843964,-8.96717369970836,0.0 -35.5842894,-8.96667909970838,0.0 -35.5843839,-8.9663303997084,0.0 -35.5844359,-8.9660368997084,0.0 -35.5845205,-8.96558669970841,0.0 -35.58455,-8.96501429970843,0.0 -35.5845376,-8.96451239970845,0.0 -35.5843308,-8.96409159970846,0.0 -35.5840575,-8.96350719970848,0.0 -35.5841107,-8.96328709970849,0.0 -35.5842037,-8.96322429970849,0.0 -35.5844505,-8.96306629970849,0.0 -35.5849151,-8.9628620997085,0.0 -35.5850593,-8.96262679970851,0.0 -35.5849759,-8.96239909970852,0.0 -35.5847973,-8.96212079970852,0.0 -35.5847178,-8.96199689970853,0.0 -35.5842473,-8.96179959970854,0.0 -35.5833897,-8.96184509970853,0.0 -35.583033,-8.96164019970854,0.0 -35.5826459,-8.96113929970855,0.0 -35.582608,-8.96066119970857,0.0 -35.5827901,-8.96006159970859,0.0 -35.5831392,-8.95940129970861,0.0 -35.583458,-8.95916609970861,0.0 -35.5838526,-8.95912809970861,0.0 -35.5840902,-8.95919779970862,0.0 -35.5842928,-8.95925709970862,0.0 -35.584566,-8.95918879970861,0.0 -35.5849448,-8.95882049970863,0.0 -35.5851125,-8.95865759970863,0.0 -35.5854085,-8.95855129970863,0.0 -35.5858121,-8.95852619970864,0.0 -35.586997,-8.95848329970864,0.0 -35.5871614,-8.95834009970864,0.0 -35.5872229,-8.95817299970865,0.0 -35.5873893,-8.95773929970866,0.0 -35.5875638,-8.95717759970868,0.0 -35.5876701,-8.9564262997087,0.0 -35.5875335,-8.95608479970872,0.0 -35.5871237,-8.95578119970872,0.0 -35.5869491,-8.95555349970873,0.0 -35.5867409,-8.95530659970874,0.0 -35.5866228,-8.95516639970874,0.0 -35.5864178,-8.95508299970875,0.0 -35.5857803,-8.95534099970874,0.0 -35.5855719,-8.95554949970873,0.0 -35.585454,-8.95566729970873,0.0 -35.5851884,-8.95567489970873,0.0 -35.5849227,-8.95519679970874,0.0 -35.5849986,-8.95471869970876,0.0 -35.5853553,-8.95408119970877,0.0 -35.5854241,-8.95383569970878,0.0 -35.5854616,-8.95370169970879,0.0 -35.5853401,-8.95350439970879,0.0 -35.5852001,-8.9534492997088,0.0 -35.5848772,-8.9533221997088,0.0 -35.584437,-8.95310209970881,0.0 -35.5842397,-8.95279859970882,0.0 -35.5841638,-8.95236599970883,0.0 -35.584144,-8.95201829970884,0.0 -35.5841318,-8.95180609970885,0.0 -35.5841318,-8.95158989970886,0.0 -35.5840067,-8.95128259970886,0.0 -35.5837677,-8.95063399970889,0.0 -35.5836667,-8.9500555997089,0.0 -35.5836655,-8.94999279970891,0.0 -35.5836425,-8.94873349970895,0.0 -35.5834832,-8.94854009970895,0.0 -35.5834149,-8.94824419970896,0.0 -35.5836311,-8.94785729970897,0.0 -35.5839736,-8.94729649970899,0.0 -35.5843878,-8.94474629970907,0.0 -35.5846732,-8.94349409970911,0.0 -35.5843963,-8.94286609970913,0.0 -35.5843667,-8.94253329970914,0.0 -35.5841146,-8.94231669970915,0.0 -35.5829452,-8.94149519970917,0.0 -35.5825744,-8.94114729970918,0.0 -35.5825735,-8.94110739970919,0.0 -35.5825733,-8.94110229970918,0.0 -35.5825687,-8.94090199970919,0.0 -35.5827056,-8.9405653997092,0.0 -35.5831163,-8.93967549970923,0.0 -35.5832,-8.93929999970924,0.0 -35.583227,-8.93889529970926,0.0 -35.583112,-8.93839719970927,0.0 -35.583112,-8.93809059970928,0.0 -35.5831504,-8.9374198997093,0.0 -35.5830929,-8.9372474997093,0.0 -35.5829204,-8.93627019970933,0.0 -35.5828629,-8.93559959970936,0.0 -35.5829587,-8.93458399970939,0.0 -35.5830737,-8.93372179970941,0.0 -35.5832,-8.93276669970945,0.0 -35.583112,-8.93259119970945,0.0 -35.5829587,-8.93245709970946,0.0 -35.5825947,-8.93236129970946,0.0 -35.5823073,-8.93238049970946,0.0 -35.5822306,-8.93222719970946,0.0 -35.5822689,-8.93182479970948,0.0 -35.582633,-8.9311540997095,0.0 -35.5829396,-8.93044519970952,0.0 -35.5829971,-8.93000439970953,0.0 -35.5829013,-8.92965949970954,0.0 -35.583,-8.92911669970956,0.0 -35.5830546,-8.92860569970958,0.0 -35.5828246,-8.92864399970958,0.0 -35.5826138,-8.92866309970958,0.0 -35.5823456,-8.92862479970957,0.0 -35.582154,-8.92837569970958,0.0 -35.5821156,-8.92804999970959,0.0 -35.5822689,-8.92768589970961,0.0 -35.5823456,-8.92736019970962,0.0 -35.5821348,-8.92718769970962,0.0 -35.5818665,-8.92699609970963,0.0 -35.5813875,-8.92668949970964,0.0 -35.5810234,-8.92615299970965,0.0 -35.5808702,-8.92580809970966,0.0 -35.5803167,-8.92531669970968,0.0 -35.5802378,-8.92515659970968,0.0 -35.5802953,-8.92484999970969,0.0 -35.5804678,-8.92450509970971,0.0 -35.5807169,-8.92419849970972,0.0 -35.5812167,-8.92348329970974,0.0 -35.5812725,-8.92331709970974,0.0 -35.5812725,-8.92299139970976,0.0 -35.5811959,-8.92251229970977,0.0 -35.5810618,-8.92224409970978,0.0 -35.5809468,-8.92212909970978,0.0 -35.5809468,-8.92182249970979,0.0 -35.5808893,-8.9215542997098,0.0 -35.5808127,-8.92111349970981,0.0 -35.5808702,-8.92071109970983,0.0 -35.5810426,-8.92036619970984,0.0 -35.5812151,-8.92000219970985,0.0 -35.5812342,-8.91979139970986,0.0 -35.5811767,-8.91927399970987,0.0 -35.5810809,-8.91867999970989,0.0 -35.5811193,-8.9183350997099,0.0 -35.5812534,-8.91808599970991,0.0 -35.5813875,-8.91777949970992,0.0 -35.5814258,-8.91754949970992,0.0 -35.5813167,-8.91728329970993,0.0 -35.5811193,-8.91705129970994,0.0 -35.580851,-8.91691719970995,0.0 -35.5805061,-8.91682139970995,0.0 -35.5800654,-8.91684049970995,0.0 -35.5797396,-8.91687889970995,0.0 -35.5794538,-8.91694909970994,0.0 -35.57945,-8.91694999970995,0.0 -35.5794506,-8.91694489970994,0.0 -35.5794611,-8.91685969970995,0.0 -35.5795284,-8.91631379970996,0.0 -35.5795458,-8.91595319970997,0.0 -35.5794528,-8.91559249970999,0.0 -35.5793181,-8.91536509971,0.0 -35.5792989,-8.91486689971001,0.0 -35.5793681,-8.91445189971002,0.0 -35.5793705,-8.91443749971002,0.0 -35.5793721,-8.91442759971002,0.0 -35.5794714,-8.91383219971004,0.0 -35.579433,-8.91337229971006,0.0 -35.5793372,-8.91275919971008,0.0 -35.579286,-8.91221059971009,0.0 -35.5793012,-8.91180269971011,0.0 -35.5794342,-8.91147299971012,0.0 -35.5794389,-8.91127149971012,0.0 -35.5793465,-8.91113409971012,0.0 -35.5789366,-8.91065269971014,0.0 -35.5786891,-8.91047069971015,0.0 -35.5780557,-8.91048529971015,0.0 -35.5776844,-8.91081289971014,0.0 -35.577204,-8.91264009971008,0.0 -35.5770402,-8.91392959971004,0.0 -35.5769492,-8.91414699971003,0.0 -35.5766653,-8.91425619971003,0.0 -35.5763592,-8.91431609971003,0.0 -35.5754414,-8.91449579971002,0.0 -35.5742848,-8.91472209971002,0.0 -35.5738043,-8.91470029971001,0.0 -35.5734839,-8.91453549971002,0.0 -35.5732947,-8.91443819971002,0.0 -35.572392,-8.91379029971004,0.0 -35.5705939,-8.91264009971008,0.0 -35.5690579,-8.91180289971011,0.0 -35.5685338,-8.91136619971012,0.0 -35.5683226,-8.91117689971012,0.0 -35.5681334,-8.91123509971013,0.0 -35.568046,-8.91176649971011,0.0 -35.5680096,-8.91231249971009,0.0 -35.5677548,-8.91243629971009,0.0 -35.5672473,-8.91239999971009,0.0 -35.5669395,-8.91237799971009,0.0 -35.5665391,-8.91226159971009,0.0 -35.5663089,-8.9119564997101,0.0 -35.566095,-8.91153359971011,0.0 -35.5658184,-8.91089299971013,0.0 -35.5654617,-8.91045619971015,0.0 -35.5649896,-8.91030509971015,0.0 -35.5639645,-8.91041059971015,0.0 -35.563297,-8.91047039971015,0.0 -35.5629545,-8.91018449971016,0.0 -35.562442,-8.90992819971016,0.0 -35.5619952,-8.91009029971016,0.0 -35.5610046,-8.90980109971017,0.0 -35.5596711,-8.90930749971019,0.0 -35.5579088,-8.90840829971021,0.0 -35.5572946,-8.90780489971023,0.0 -35.5566804,-8.90743849971024,0.0 -35.5556568,-8.90709369971026,0.0 -35.5548271,-8.90667349971027,0.0 -35.5542775,-8.90629629971028,0.0 -35.5537926,-8.90573599971029,0.0 -35.5529845,-8.90548819971031,0.0 -35.5522626,-8.90549899971031,0.0 -35.5517632,-8.90526139971031,0.0 -35.5517415,-8.90525109971031,0.0 -35.5515628,-8.9057977997103,0.0 -35.5514891,-8.90608849971028,0.0 -35.5514481,-8.90671099971026,0.0 -35.551186,-8.90705499971025,0.0 -35.5508093,-8.90714509971025,0.0 -35.550367,-8.90731709971025,0.0 -35.5499985,-8.90769379971024,0.0 -35.5497364,-8.90817699971022,0.0 -35.5495972,-8.9089304997102,0.0 -35.5493678,-8.90957749971017,0.0 -35.5493351,-8.90983959971017,0.0 -35.5492122,-8.91006069971016,0.0 -35.548942,-8.91029829971015,0.0 -35.5483687,-8.91065859971014,0.0 -35.54791,-8.91119099971013,0.0 -35.5472559,-8.9121104997101,0.0 -35.5462638,-8.91318119971006,0.0 -35.5458789,-8.91330399971006,0.0 -35.5456741,-8.91350879971005,0.0 -35.5454156,-8.91411859971003,0.0 -35.5446337,-8.91490509971001,0.0 -35.5438769,-8.91531379970999,0.0 -35.5433481,-8.91552349970999,0.0 -35.5430697,-8.91590029970998,0.0 -35.5429141,-8.91646539970996,0.0 -35.5426028,-8.91710419970994,0.0 -35.542439,-8.91775119970992,0.0 -35.5422097,-8.91894699970988,0.0 -35.5418739,-8.91953669970986,0.0 -35.5418248,-8.91985609970986,0.0 -35.5415545,-8.92030649970984,0.0 -35.5411778,-8.92083889970982,0.0 -35.5411368,-8.92125659970981,0.0 -35.5411859,-8.9216087997098,0.0 -35.5405799,-8.92206739970978,0.0 -35.5401292,-8.92264259970976,0.0 -35.5396075,-8.92353499970974,0.0 -35.5393192,-8.9246057997097,0.0 -35.5388524,-8.92504519970969,0.0 -35.5384667,-8.92516669970968,0.0 -35.5380724,-8.92515179970969,0.0 -35.5378,-8.92513329970969,0.0 -35.5376384,-8.92503809970969,0.0 -35.5373833,-8.92499999970969,0.0 -35.5367945,-8.92515529970969,0.0 -35.5363287,-8.92541209970967,0.0 -35.5358667,-8.92568329970967,0.0 -35.5358186,-8.92576059970967,0.0 -35.5358091,-8.92596339970966,0.0 -35.5358218,-8.92672369970964,0.0 -35.5356667,-8.92698329970963,0.0 -35.5355869,-8.92703289970963,0.0 -35.5354522,-8.92703289970962,0.0 -35.5352317,-8.92680019970963,0.0 -35.5349622,-8.92649389970965,0.0 -35.5348167,-8.92643329970964,0.0 -35.5344354,-8.92661639970964,0.0 -35.5341169,-8.92661639970964,0.0 -35.5338107,-8.92651839970964,0.0 -35.5334677,-8.92651839970964,0.0 -35.5329777,-8.92668989970964,0.0 -35.5324999,-8.92686139970963,0.0 -35.5321692,-8.92716769970962,0.0 -35.5318017,-8.92721669970962,0.0 -35.5313852,-8.92726569970962,0.0 -35.5310385,-8.92738839970962,0.0 -35.5308653,-8.9276395997096,0.0 -35.5308833,-8.9278332997096,0.0 -35.531281,-8.92833249970958,0.0 -35.5314456,-8.92894749970957,0.0 -35.5316621,-8.92951049970955,0.0 -35.5320086,-8.93020349970953,0.0 -35.5323117,-8.93094839970951,0.0 -35.5325456,-8.9311388997095,0.0 -35.5328,-8.93129999970949,0.0 -35.532342,-8.93184179970948,0.0 -35.5320192,-8.93250239970945,0.0 -35.5316814,-8.93281769970944,0.0 -35.5312986,-8.93324559970943,0.0 -35.5310133,-8.93388369970941,0.0 -35.5307806,-8.93444669970939,0.0 -35.5305103,-8.93524789970937,0.0 -35.5277901,-8.93853619970927,0.0 -35.527443,-8.93884679970926,0.0 -35.5272785,-8.93948619970923,0.0 -35.5271689,-8.94081989970919,0.0 -35.5273333,-8.94195259970916,0.0 -35.5274502,-8.94249059970914,0.0 -35.5276621,-8.94284419970913,0.0 -35.5275964,-8.94322379970912,0.0 -35.5271496,-8.94410639970909,0.0 -35.5262446,-8.94529059970905,0.0 -35.5256525,-8.94627369970902,0.0 -35.525485,-8.94659769970901,0.0 -35.5254961,-8.947078099709,0.0 -35.5253266,-8.94737529970898,0.0 -35.5249376,-8.94778189970897,0.0 -35.5244795,-8.94786009970897,0.0 -35.5241109,-8.94746909970899,0.0 -35.5237869,-8.946999899709,0.0 -35.5235469,-8.94674989970901,0.0 -35.5232833,-8.94621669970902,0.0 -35.5228778,-8.94585189970904,0.0 -35.5228767,-8.94585089970904,0.0 -35.5221365,-8.94570289970904,0.0 -35.521133,-8.94599899970903,0.0 -35.5197675,-8.946903799709,0.0 -35.5193152,-8.94720809970899,0.0 -35.5180183,-8.94841949970895,0.0 -35.51795,-8.94848329970895,0.0 -35.5179447,-8.94848569970896,0.0 -35.5175926,-8.94864529970895,0.0 -35.5175906,-8.94864589970895,0.0 -35.5172228,-8.94881229970894,0.0 -35.5165365,-8.94915549970893,0.0 -35.5159545,-8.94923009970893,0.0 -35.5156263,-8.94890179970894,0.0 -35.5153428,-8.94888689970894,0.0 -35.5151488,-8.94909579970893,0.0 -35.5153955,-8.94947469970892,0.0 -35.51566,-8.9502220997089,0.0 -35.5155228,-8.95048559970889,0.0 -35.5152458,-8.95053379970889,0.0 -35.5151555,-8.95036519970889,0.0 -35.515039,-8.94986559970891,0.0 -35.5141996,-8.94931369970893,0.0 -35.51362,-8.94880609970895,0.0 -35.512604,-8.94866229970895,0.0 -35.5113479,-8.94878469970894,0.0 -35.5106158,-8.94893649970894,0.0 -35.5097171,-8.94916499970893,0.0 -35.5084272,-8.94940569970892,0.0 -35.5075449,-8.94973699970891,0.0 -35.506383,-8.94993069970891,0.0 -35.5045521,-8.94950919970892,0.0 -35.5035287,-8.94914119970893,0.0 -35.5024823,-8.94845129970895,0.0 -35.5017578,-8.94799129970897,0.0 -35.5013094,-8.94748539970898,0.0 -35.5011139,-8.94647349970901,0.0 -35.50076,-8.94543669970905,0.0 -35.5000905,-8.94515109970906,0.0 -35.4995156,-8.94541559970905,0.0 -35.4990901,-8.94599049970903,0.0 -35.4988141,-8.94653099970902,0.0 -35.4976987,-8.94677239970901,0.0 -35.4966753,-8.94618599970902,0.0 -35.4956979,-8.94550759970904,0.0 -35.4937086,-8.94470269970907,0.0 -35.4923978,-8.9439321997091,0.0 -35.4918343,-8.94343779970911,0.0 -35.4913974,-8.94300079970913,0.0 -35.4911333,-8.94229999970915,0.0 -35.4898725,-8.94266089970914,0.0 -35.4882122,-8.94240549970914,0.0 -35.4870263,-8.94277029970913,0.0 -35.483943,-8.94291629970913,0.0 -35.4828171,-8.94270309970914,0.0 -35.4822827,-8.94253439970914,0.0 -35.4813888,-8.94238719970915,0.0 -35.4806266,-8.94170389970916,0.0 -35.479976,-8.94114889970918,0.0 -35.4798108,-8.94109859970919,0.0 -35.4796284,-8.94112399970918,0.0 -35.4795974,-8.94124199970918,0.0 -35.4796865,-8.94154049970917,0.0 -35.4796726,-8.94171579970916,0.0 -35.4792728,-8.94214049970915,0.0 -35.4788468,-8.94248259970914,0.0 -35.4786931,-8.94286819970913,0.0 -35.4785586,-8.94297099970913,0.0 -35.4780865,-8.94297099970913,0.0 -35.4773963,-8.94282629970913,0.0 -35.4769602,-8.94290479970913,0.0 -35.4763612,-8.94310629970912,0.0 -35.4762419,-8.94324889970912,0.0 -35.4763645,-8.94400489970909,0.0 -35.4759113,-8.94469549970907,0.0 -35.4756266,-8.94481199970907,0.0 -35.475418,-8.94481829970907,0.0 -35.4753522,-8.94467419970907,0.0 -35.4753315,-8.94446709970908,0.0 -35.4751074,-8.94411479970909,0.0 -35.4745658,-8.94405109970909,0.0 -35.4734132,-8.94449929970908,0.0 -35.4731726,-8.94453879970908,0.0 -35.4730414,-8.94443119970908,0.0 -35.4730374,-8.94418599970909,0.0 -35.4735251,-8.94303299970912,0.0 -35.4738537,-8.94270649970913,0.0 -35.4740989,-8.94248289970914,0.0 -35.47422,-8.94227829970915,0.0 -35.4749212,-8.94016089970922,0.0 -35.4749414,-8.93985729970922,0.0 -35.4748271,-8.93978739970923,0.0 -35.4746212,-8.93978739970923,0.0 -35.4744278,-8.93991469970922,0.0 -35.4738714,-8.9405577997092,0.0 -35.473631,-8.9407190997092,0.0 -35.4725898,-8.94111819970919,0.0 -35.4723543,-8.94125929970918,0.0 -35.4716373,-8.94229849970915,0.0 -35.4713432,-8.94251489970914,0.0 -35.4708994,-8.94262139970914,0.0 -35.4703848,-8.94252899970914,0.0 -35.4700574,-8.94247029970914,0.0 -35.4697667,-8.94254969970914,0.0 -35.4695529,-8.94272799970913,0.0 -35.4696527,-8.94313869970912,0.0 -35.4697797,-8.94346929970911,0.0 -35.4697662,-8.9436547997091,0.0 -35.4695779,-8.9438057997091,0.0 -35.4691229,-8.9438490997091,0.0 -35.4686668,-8.9438154997091,0.0 -35.4684722,-8.9437789997091,0.0 -35.4682777,-8.9438165997091,0.0 -35.4680421,-8.94397539970909,0.0 -35.4679939,-8.94412019970909,0.0 -35.4678523,-8.94439679970908,0.0 -35.4672332,-8.94498709970907,0.0 -35.4667981,-8.94531819970905,0.0 -35.4663122,-8.94548019970905,0.0 -35.4659037,-8.94561639970904,0.0 -35.4656646,-8.94563009970904,0.0 -35.4653995,-8.94561029970904,0.0 -35.4652174,-8.94572079970904,0.0 -35.4650975,-8.94585319970903,0.0 -35.4650701,-8.94602179970903,0.0 -35.4651958,-8.94652539970901,0.0 -35.4653718,-8.94740519970899,0.0 -35.4653661,-8.94765329970898,0.0 -35.4652157,-8.94782379970897,0.0 -35.4650653,-8.94799429970897,0.0 -35.4648806,-8.94806269970896,0.0 -35.4643695,-8.94820439970896,0.0 -35.4640218,-8.94810689970897,0.0 -35.4638117,-8.94809149970897,0.0 -35.4633358,-8.94824789970896,0.0 -35.4627428,-8.94820969970896,0.0 -35.4625581,-8.94804469970897,0.0 -35.4622843,-8.94736009970899,0.0 -35.4618498,-8.94675649970901,0.0 -35.4612073,-8.94614939970902,0.0 -35.4608002,-8.94579209970904,0.0 -35.4606246,-8.94580769970904,0.0 -35.4605122,-8.94587729970903,0.0 -35.4604449,-8.94601659970903,0.0 -35.4604987,-8.94625249970902,0.0 -35.4606874,-8.94650239970901,0.0 -35.4613447,-8.94708179970899,0.0 -35.4613902,-8.94723359970899,0.0 -35.4612967,-8.94750559970898,0.0 -35.4611622,-8.94763029970898,0.0 -35.4609918,-8.94764399970898,0.0 -35.4607494,-8.94756819970898,0.0 -35.4598358,-8.94717909970899,0.0 -35.4594291,-8.947092999709,0.0 -35.4588247,-8.947035699709,0.0 -35.458459,-8.946959299709,0.0 -35.4579631,-8.94682639970901,0.0 -35.4576738,-8.94685599970901,0.0 -35.4575049,-8.946945099709,0.0 -35.4571114,-8.94738249970898,0.0 -35.4567349,-8.94767879970898,0.0 -35.4562449,-8.94798449970897,0.0 -35.4555109,-8.94833329970896,0.0 -35.4550868,-8.94866249970895,0.0 -35.4549063,-8.94896959970894,0.0 -35.4540805,-8.94966179970892,0.0 -35.4539022,-8.94987479970891,0.0 -35.4538833,-8.94995479970891,0.0 -35.4540053,-8.9500497997089,0.0 -35.4540114,-8.9500544997089,0.0 -35.4753969,-8.96670429970838,0.0 -35.477205,-8.96811199970833,0.0 -35.5307774,-9.00982109970703,0.0 -35.5405333,-9.01741669970679,0.0 -35.56455,-9.01024999970701,0.0 -35.5636606,-9.01043019970701,0.0 -35.5629959,-9.01043529970701,0.0 -35.5625094,-9.010678599707,0.0 -35.5620229,-9.01090939970699,0.0 -35.5613512,-9.01093709970699,0.0 -35.5604948,-9.010666099707,0.0 -35.559809,-9.010528299707,0.0 -35.5595429,-9.01031819970701,0.0 -35.5593328,-9.01014309970702,0.0 -35.5591507,-9.00991199970702,0.0 -35.5589406,-9.00981389970702,0.0 -35.5587391,-9.00976479970703,0.0 -35.5585344,-9.00953379970703,0.0 -35.5584644,-9.00932369970704,0.0 -35.5583033,-9.00917669970704,0.0 -35.5581282,-9.00918369970704,0.0 -35.5578341,-9.00937279970704,0.0 -35.557638,-9.00932369970704,0.0 -35.557463,-9.00923269970705,0.0 -35.5572248,-9.00887549970706,0.0 -35.5570498,-9.00858139970707,0.0 -35.5567697,-9.00839229970707,0.0 -35.5563845,-9.00827329970707,0.0 -35.5557192,-9.00802119970708,0.0 -35.555278,-9.00779709970709,0.0 -35.5548508,-9.0075379997071,0.0 -35.5545917,-9.0072367997071,0.0 -35.5545497,-9.00692869970712,0.0 -35.5546967,-9.00676759970712,0.0 -35.5556212,-9.00683759970712,0.0 -35.5559783,-9.00673959970712,0.0 -35.5563425,-9.00662759970712,0.0 -35.5566926,-9.00652949970713,0.0 -35.5568327,-9.00627039970713,0.0 -35.5570218,-9.00602529970715,0.0 -35.5573579,-9.00596929970715,0.0 -35.557596,-9.00573819970715,0.0 -35.5580372,-9.00561909970716,0.0 -35.5589266,-9.00515689970717,0.0 -35.5593833,-9.00499999970718,0.0 -35.5597742,-9.00473789970718,0.0 -35.5599896,-9.0043815997072,0.0 -35.560054,-9.00373799970722,0.0 -35.5604616,-9.00302999970724,0.0 -35.5610548,-9.00211989970727,0.0 -35.5611837,-9.00160399970728,0.0 -35.561245,-9.00146849970729,0.0 -35.5612909,-9.00136669970729,0.0 -35.5616689,-9.00107869970731,0.0 -35.5621606,-9.00077489970731,0.0 -35.5623921,-9.00045669970732,0.0 -35.5629272,-8.99970469970734,0.0 -35.5633756,-8.99866329970738,0.0 -35.5636938,-8.9979834997074,0.0 -35.5640843,-8.99756409970741,0.0 -35.5647351,-8.99634909970745,0.0 -35.5652124,-8.99610329970746,0.0 -35.5655595,-8.99601649970746,0.0 -35.5663984,-8.99624789970745,0.0 -35.5669046,-8.99691319970743,0.0 -35.5675121,-8.99707229970743,0.0 -35.5683654,-8.99689879970743,0.0 -35.5690163,-8.99684089970743,0.0 -35.5692477,-8.99655159970744,0.0 -35.5693779,-8.99608879970746,0.0 -35.5699275,-8.99571279970747,0.0 -35.570506,-8.99526439970748,0.0 -35.5710122,-8.99511979970749,0.0 -35.5718222,-8.99503299970749,0.0 -35.5726755,-8.99514869970749,0.0 -35.5730805,-8.99485939970749,0.0 -35.5734276,-8.99432429970751,0.0 -35.5734855,-8.99344199970754,0.0 -35.5734276,-8.9916629997076,0.0 -35.5735578,-8.99069399970763,0.0 -35.5737314,-8.99018769970764,0.0 -35.5737458,-8.98953689970766,0.0 -35.5734542,-8.98919539970767,0.0 -35.5728948,-8.98889529970768,0.0 -35.5723354,-8.98864559970769,0.0 -35.5718959,-8.98809619970771,0.0 -35.5715562,-8.98776649970772,0.0 -35.5711067,-8.98747679970772,0.0 -35.5708869,-8.98721709970773,0.0 -35.570797,-8.98668769970775,0.0 -35.5705573,-8.98625809970777,0.0 -35.5705273,-8.98599839970777,0.0 -35.5705466,-8.98596619970777,0.0</coordinates>
</LinearRing>
</outerBoundaryIs>
</Polygon>
</MultiGeometry>
</Placemark>
</Folder>
</Document></kml>
