<?xml version='1.0' encoding='UTF-8'?>
<kml xmlns:xsd="http://www.w3.org/2001/XMLSchema" xmlns:gx="http://www.google.com/kml/ext/2.2" xmlns:atom="http://www.w3.org/2005/Atom" xmlns="http://www.opengis.net/kml/2.2">
<Document>
<name>entre_rios_do_sul_4306957_localidades_2022</name>
<visibility>1</visibility>
<Schema name="01. Cidade" id="kml_schema_ft_01._Cidade">
<SimpleField type="xsd:string" name="CD_UF">
<displayName>CD_UF</displayName>
</SimpleField>
<SimpleField type="xsd:string" name="NM_UF">
<displayName>NM_UF</displayName>
</SimpleField>
<SimpleField type="xsd:string" name="SIGLA_UF">
<displayName>SIGLA_UF</displayName>
</SimpleField>
<SimpleField type="xsd:string" name="CD_MUN">
<displayName>CD_MUN</displayName>
</SimpleField>
<SimpleField type="xsd:string" name="NM_MUN">
<displayName>NM_MUN</displayName>
</SimpleField>
<SimpleField type="xsd:string" name="CD_RGINT">
<displayName>CD_RGINT</displayName>
</SimpleField>
<SimpleField type="xsd:string" name="NM_RGINT">
<displayName>NM_RGINT</displayName>
</SimpleField>
<SimpleField type="xsd:string" name="CD_RGI">
<displayName>CD_RGI</displayName>
</SimpleField>
<SimpleField type="xsd:string" name="NM_RGI">
<displayName>NM_RGI</displayName>
</SimpleField>
<SimpleField type="xsd:string" name="CT_LOCALIDADE">
<displayName>CT_LOCALIDADE</displayName>
</SimpleField>
<SimpleField type="xsd:string" name="SCT_LOCALIDADE">
<displayName>SCT_LOCALIDADE</displayName>
</SimpleField>
<SimpleField type="xsd:string" name="CD_LOCALIDADE">
<displayName>CD_LOCALIDADE</displayName>
</SimpleField>
<SimpleField type="xsd:string" name="NM_LOCALIDADE">
<displayName>NM_LOCALIDADE</displayName>
</SimpleField>
<SimpleField type="xsd:string" name="LAT_LOCALIDADE">
<displayName>LAT_LOCALIDADE</displayName>
</SimpleField>
<SimpleField type="xsd:string" name="LONG_LOCALIDADE">
<displayName>LONG_LOCALIDADE</displayName>
</SimpleField>
</Schema>
<Schema name="Terra Indígena" id="kml_schema_ft_Terra_Indígena">
<SimpleField type="xsd:string" name="COD_TI">
<displayName>COD_TI</displayName>
</SimpleField>
<SimpleField type="xsd:string" name="NOM_TI">
<displayName>NOM_TI</displayName>
</SimpleField>
</Schema>
<Schema name="Município" id="kml_schema_ft_Município">
<SimpleField type="xsd:string" name="CD_UF">
<displayName>CD_UF</displayName>
</SimpleField>
<SimpleField type="xsd:string" name="NM_UF">
<displayName>NM_UF</displayName>
</SimpleField>
<SimpleField type="xsd:string" name="CD_MUN">
<displayName>CD_MUN</displayName>
</SimpleField>
<SimpleField type="xsd:string" name="NM_MUN">
<displayName>NM_MUN</displayName>
</SimpleField>
<SimpleField type="xsd:string" name="CD_RGINT">
<displayName>CD_RGINT</displayName>
</SimpleField>
<SimpleField type="xsd:string" name="NM_RGINT">
<displayName>NM_RGINT</displayName>
</SimpleField>
<SimpleField type="xsd:string" name="CD_RGI">
<displayName>CD_RGI</displayName>
</SimpleField>
<SimpleField type="xsd:string" name="NM_RGI">
<displayName>NM_RGI</displayName>
</SimpleField>
</Schema>
<Folder id="01. Cidade">
<name>01. Cidade</name>
<Folder id="01.03. Sede Municipal">
<name>01.03. Sede Municipal</name>
<Placemark id="01.03. Sede Municipal">
<name>Entre Rios do Sul [4306957]</name>
<visibility>1</visibility>
<snippet> </snippet>
<description>&lt;center&gt;&lt;table&gt;&lt;tr&gt;&lt;th colspan='2' align='center'&gt;&lt;em&gt;Atributos&lt;/em&gt;&lt;/th&gt;&lt;/tr&gt;&lt;tr bgcolor="#E3E3F3"&gt;
&lt;th&gt;CD_UF&lt;/th&gt;
&lt;td&gt;43&lt;/td&gt;
&lt;/tr&gt;&lt;tr bgcolor=""&gt;
&lt;th&gt;NM_UF&lt;/th&gt;
&lt;td&gt;Rio Grande do Sul&lt;/td&gt;
&lt;/tr&gt;&lt;tr bgcolor="#E3E3F3"&gt;
&lt;th&gt;SIGLA_UF&lt;/th&gt;
&lt;td&gt;RS&lt;/td&gt;
&lt;/tr&gt;&lt;tr bgcolor=""&gt;
&lt;th&gt;CD_MUN&lt;/th&gt;
&lt;td&gt;4306957&lt;/td&gt;
&lt;/tr&gt;&lt;tr bgcolor="#E3E3F3"&gt;
&lt;th&gt;NM_MUN&lt;/th&gt;
&lt;td&gt;Entre Rios do Sul&lt;/td&gt;
&lt;/tr&gt;&lt;tr bgcolor=""&gt;
&lt;th&gt;CD_RGINT&lt;/th&gt;
&lt;td&gt;4306&lt;/td&gt;
&lt;/tr&gt;&lt;tr bgcolor="#E3E3F3"&gt;
&lt;th&gt;NM_RGINT&lt;/th&gt;
&lt;td&gt;Passo Fundo&lt;/td&gt;
&lt;/tr&gt;&lt;tr bgcolor=""&gt;
&lt;th&gt;CD_RGI&lt;/th&gt;
&lt;td&gt;430026&lt;/td&gt;
&lt;/tr&gt;&lt;tr bgcolor="#E3E3F3"&gt;
&lt;th&gt;NM_RGI&lt;/th&gt;
&lt;td&gt;Erechim&lt;/td&gt;
&lt;/tr&gt;&lt;tr bgcolor=""&gt;
&lt;th&gt;CT_LOCALIDADE&lt;/th&gt;
&lt;td&gt;Cidade&lt;/td&gt;
&lt;/tr&gt;&lt;tr bgcolor="#E3E3F3"&gt;
&lt;th&gt;SCT_LOCALIDADE&lt;/th&gt;
&lt;td&gt;Sede Municipal&lt;/td&gt;
&lt;/tr&gt;&lt;tr bgcolor=""&gt;
&lt;th&gt;CD_LOCALIDADE&lt;/th&gt;
&lt;td&gt;4306957&lt;/td&gt;
&lt;/tr&gt;&lt;tr bgcolor="#E3E3F3"&gt;
&lt;th&gt;NM_LOCALIDADE&lt;/th&gt;
&lt;td&gt;Entre Rios do Sul&lt;/td&gt;
&lt;/tr&gt;&lt;tr bgcolor=""&gt;
&lt;th&gt;LAT_LOCALIDADE&lt;/th&gt;
&lt;td&gt;-27.5299&lt;/td&gt;
&lt;/tr&gt;&lt;tr bgcolor="#E3E3F3"&gt;
&lt;th&gt;LONG_LOCALIDADE&lt;/th&gt;
&lt;td&gt;-52.732&lt;/td&gt;
&lt;/tr&gt;&lt;/table&gt;&lt;/center&gt;</description>
<Style>
<IconStyle>
<color>ff00aaff</color>
<scale>1.0</scale>
<Icon>
<href>http://maps.google.com/mapfiles/kml/shapes/placemark_circle.png</href>
</Icon>
</IconStyle>
<LabelStyle>
<scale>1.0</scale>
</LabelStyle>
<LineStyle>
<color>ffffffff</color>
<width>3</width>
<gx:labelVisibility>1</gx:labelVisibility>
</LineStyle>
<PolyStyle>
<color>00ffffff</color>
</PolyStyle>
</Style>
<ExtendedData>
<SchemaData schemaUrl="#kml_schema_ft_01._Cidade">
<SimpleData name="CD_UF">43</SimpleData>
<SimpleData name="NM_UF">Rio Grande do Sul</SimpleData>
<SimpleData name="SIGLA_UF">RS</SimpleData>
<SimpleData name="CD_MUN">4306957</SimpleData>
<SimpleData name="NM_MUN">Entre Rios do Sul</SimpleData>
<SimpleData name="CD_RGINT">4306</SimpleData>
<SimpleData name="NM_RGINT">Passo Fundo</SimpleData>
<SimpleData name="CD_RGI">430026</SimpleData>
<SimpleData name="NM_RGI">Erechim</SimpleData>
<SimpleData name="CT_LOCALIDADE">Cidade</SimpleData>
<SimpleData name="SCT_LOCALIDADE">Sede Municipal</SimpleData>
<SimpleData name="CD_LOCALIDADE">4306957</SimpleData>
<SimpleData name="NM_LOCALIDADE">Entre Rios do Sul</SimpleData>
<SimpleData name="LAT_LOCALIDADE">-27.5299</SimpleData>
<SimpleData name="LONG_LOCALIDADE">-52.732</SimpleData>
</SchemaData>
</ExtendedData>
<Point>
<extrude>0</extrude>
<coordinates>-52.731996,-27.5299069992253,0.0</coordinates>
</Point>
</Placemark>
</Folder>
</Folder>
<Folder id="13. Referência">
<name>13. Referência</name>
<Placemark id="13. Referência">
<name>Entre Rios do Sul [4306957]</name>
<visibility>1</visibility>
<snippet> </snippet>
<description>&lt;center&gt;&lt;table&gt;&lt;tr&gt;&lt;th colspan='2' align='center'&gt;&lt;em&gt;Attributes&lt;/em&gt;&lt;/th&gt;&lt;/tr&gt;&lt;tr bgcolor="#E3E3F3"&gt;
&lt;th&gt;CD_UF&lt;/th&gt;
&lt;td&gt;43&lt;/td&gt;
&lt;/tr&gt;&lt;tr bgcolor=""&gt;
&lt;th&gt;NM_UF&lt;/th&gt;
&lt;td&gt;Rio Grande do Sul&lt;/td&gt;
&lt;/tr&gt;&lt;tr bgcolor="#E3E3F3"&gt;
&lt;th&gt;CD_MUN&lt;/th&gt;
&lt;td&gt;4306957&lt;/td&gt;
&lt;/tr&gt;&lt;tr bgcolor=""&gt;
&lt;th&gt;NM_MUN&lt;/th&gt;
&lt;td&gt;Entre Rios do Sul&lt;/td&gt;
&lt;/tr&gt;&lt;tr bgcolor="#E3E3F3"&gt;
&lt;th&gt;CD_RGINT&lt;/th&gt;
&lt;td&gt;4306&lt;/td&gt;
&lt;/tr&gt;&lt;tr bgcolor=""&gt;
&lt;th&gt;NM_RGINT&lt;/th&gt;
&lt;td&gt;Passo Fundo&lt;/td&gt;
&lt;/tr&gt;&lt;tr bgcolor="#E3E3F3"&gt;
&lt;th&gt;CD_RGI&lt;/th&gt;
&lt;td&gt;430026&lt;/td&gt;
&lt;/tr&gt;&lt;tr bgcolor=""&gt;
&lt;th&gt;NM_RGI&lt;/th&gt;
&lt;td&gt;Erechim&lt;/td&gt;
&lt;/tr&gt;&lt;/table&gt;&lt;/center&gt;</description>
<Style>
<IconStyle>
<scale>0.7</scale>
</IconStyle>
<LabelStyle>
<scale>0.7</scale>
</LabelStyle>
<LineStyle>
<color>ffffffff</color>
<width>3</width>
<gx:labelVisibility>1</gx:labelVisibility>
</LineStyle>
<PolyStyle>
<color>00ffffff</color>
</PolyStyle>
</Style>
<ExtendedData>
<SchemaData schemaUrl="#kml_schema_ft_Município">
<SimpleData name="CD_UF">43</SimpleData>
<SimpleData name="NM_UF">Rio Grande do Sul</SimpleData>
<SimpleData name="CD_MUN">4306957</SimpleData>
<SimpleData name="NM_MUN">Entre Rios do Sul</SimpleData>
<SimpleData name="CD_RGINT">4306</SimpleData>
<SimpleData name="NM_RGINT">Passo Fundo</SimpleData>
<SimpleData name="CD_RGI">430026</SimpleData>
<SimpleData name="NM_RGI">Erechim</SimpleData>
</SchemaData>
</ExtendedData>
<MultiGeometry>
<Polygon>
<extrude>0</extrude>
<tessellate>1</tessellate>
<outerBoundaryIs>
<LinearRing>
<coordinates>-52.7574013,-27.5127325992257,0.0 -52.7642572,-27.5125156992257,0.0 -52.768735,-27.5096174992257,0.0 -52.7746428,-27.5120959992257,0.0 -52.7758599,-27.5119676992257,0.0 -52.7766334,-27.5114033992257,0.0 -52.7769479,-27.5082227992257,0.0 -52.7786921,-27.5048976992258,0.0 -52.7833561,-27.5011073992259,0.0 -52.7882763,-27.5010663992259,0.0 -52.7947738,-27.5031141992258,0.0 -52.7956746,-27.5029252992259,0.0 -52.7969067,-27.5003796992259,0.0 -52.7988293,-27.5000326992259,0.0 -52.8017869,-27.5010271992259,0.0 -52.8027997,-27.4997482992259,0.0 -52.7999744,-27.496167099226,0.0 -52.7985169,-27.494322799226,0.0 -52.7982005,-27.4910202992261,0.0 -52.7955484,-27.4880196992261,0.0 -52.790296,-27.4855477992262,0.0 -52.7898551,-27.4846001992262,0.0 -52.7899321,-27.4827320992262,0.0 -52.7930853,-27.4799405992263,0.0 -52.7939935,-27.4786861992263,0.0 -52.7944172,-27.4746185992264,0.0 -52.7936788,-27.4732090992264,0.0 -52.7903396,-27.4750713992264,0.0 -52.7852867,-27.4802183992263,0.0 -52.7795817,-27.4825109992262,0.0 -52.7764656,-27.4818185992262,0.0 -52.7763077,-27.4795342992263,0.0 -52.7826911,-27.4670678992265,0.0 -52.7831665,-27.4655082992266,0.0 -52.7826132,-27.4640290992266,0.0 -52.7811591,-27.4627603992266,0.0 -52.7755334,-27.4667389992265,0.0 -52.7731357,-27.4672709992265,0.0 -52.7696131,-27.4665099992265,0.0 -52.7690942,-27.4663979992265,0.0 -52.7689661,-27.4646336992266,0.0 -52.7720391,-27.4590366992267,0.0 -52.7752197,-27.4563098992267,0.0 -52.7747812,-27.4537849992268,0.0 -52.7730795,-27.4537004992268,0.0 -52.7700655,-27.4580140992267,0.0 -52.7664276,-27.4604614992267,0.0 -52.7563433,-27.4596129992267,0.0 -52.7535068,-27.4580500992267,0.0 -52.7536523,-27.4563604992267,0.0 -52.7568467,-27.4511717992268,0.0 -52.7573526,-27.4478178992269,0.0 -52.7562655,-27.4463419992269,0.0 -52.7541762,-27.4458350992269,0.0 -52.7485247,-27.4473472992269,0.0 -52.7446838,-27.4469752992269,0.0 -52.7443058,-27.4448035992269,0.0 -52.7462469,-27.4351509992271,0.0 -52.7450159,-27.4327415992272,0.0 -52.7419848,-27.4321809992272,0.0 -52.7346199,-27.4370128992271,0.0 -52.7302928,-27.4369409992271,0.0 -52.7294601,-27.4367931992271,0.0 -52.7285198,-27.4365979992271,0.0 -52.7275095,-27.4364097992271,0.0 -52.7267454,-27.4362169992271,0.0 -52.7264155,-27.4366353992271,0.0 -52.7261086,-27.4374363992271,0.0 -52.7256941,-27.4381932992271,0.0 -52.7250481,-27.439595699227,0.0 -52.7245189,-27.440885599227,0.0 -52.7240163,-27.442192799227,0.0 -52.7235806,-27.443101299227,0.0 -52.7230203,-27.444270399227,0.0 -52.7222488,-27.4459654992269,0.0 -52.7220187,-27.4464767992269,0.0 -52.7218202,-27.4472037992269,0.0 -52.7217276,-27.4479097992269,0.0 -52.7216625,-27.4483329992269,0.0 -52.7217065,-27.4487254992269,0.0 -52.7217593,-27.4490903992269,0.0 -52.7220316,-27.4494354992269,0.0 -52.722373,-27.4496452992269,0.0 -52.7228602,-27.4497831992269,0.0 -52.7235335,-27.4498507992268,0.0 -52.724456,-27.4498644992269,0.0 -52.7251816,-27.4499250992269,0.0 -52.7257589,-27.4499455992269,0.0 -52.7262886,-27.4499338992268,0.0 -52.7268217,-27.4499905992268,0.0 -52.7273567,-27.4500532992268,0.0 -52.7279213,-27.4501901992268,0.0 -52.7285088,-27.4504026992268,0.0 -52.7290908,-27.4506173992268,0.0 -52.7296896,-27.4508362992268,0.0 -52.7302651,-27.4510716992268,0.0 -52.7309052,-27.4514155992268,0.0 -52.7314822,-27.4517696992268,0.0 -52.7321101,-27.4520787992268,0.0 -52.7328154,-27.4524233992268,0.0 -52.7333038,-27.4527513992268,0.0 -52.7337123,-27.4530486992268,0.0 -52.7340606,-27.4533535992268,0.0 -52.7341879,-27.4538019992268,0.0 -52.7341312,-27.4542315992268,0.0 -52.7339935,-27.4546253992268,0.0 -52.7337681,-27.4549531992268,0.0 -52.7334843,-27.4551970992268,0.0 -52.7330866,-27.4554562992267,0.0 -52.7325278,-27.4556350992267,0.0 -52.7319193,-27.4557823992267,0.0 -52.7313593,-27.4558728992267,0.0 -52.7308381,-27.4559255992267,0.0 -52.730257,-27.4559044992267,0.0 -52.7294443,-27.4560086992267,0.0 -52.7286311,-27.4560095992267,0.0 -52.7277841,-27.4561295992267,0.0 -52.7271398,-27.4561019992267,0.0 -52.7266453,-27.4561956992267,0.0 -52.7261761,-27.4563678992267,0.0 -52.7257552,-27.4566187992267,0.0 -52.7253621,-27.4568424992267,0.0 -52.7249111,-27.4570282992267,0.0 -52.7244347,-27.4572388992267,0.0 -52.7238428,-27.4573192992267,0.0 -52.7233185,-27.4574463992267,0.0 -52.7226908,-27.4574570992267,0.0 -52.7219765,-27.4575578992267,0.0 -52.7214144,-27.4576411992267,0.0 -52.7208132,-27.4576710992267,0.0 -52.719852,-27.4578061992267,0.0 -52.7193302,-27.4578755992267,0.0 -52.7187312,-27.4578011992267,0.0 -52.7180101,-27.4577596992267,0.0 -52.7172772,-27.4577459992267,0.0 -52.7163986,-27.4578815992267,0.0 -52.7158267,-27.4579776992267,0.0 -52.7153989,-27.4581959992267,0.0 -52.7150864,-27.4584666992267,0.0 -52.714907,-27.4587269992267,0.0 -52.7147312,-27.4591537992267,0.0 -52.7147038,-27.4595255992267,0.0 -52.7146853,-27.4598611992267,0.0 -52.7147338,-27.4602316992267,0.0 -52.71486,-27.4605916992266,0.0 -52.7150675,-27.4610148992266,0.0 -52.7152735,-27.4613505992266,0.0 -52.7156096,-27.4617680992266,0.0 -52.715939,-27.4621442992266,0.0 -52.7162575,-27.4625021992266,0.0 -52.716525,-27.4628930992266,0.0 -52.7168448,-27.4633230992266,0.0 -52.7171789,-27.4637904992266,0.0 -52.7181284,-27.4652662992266,0.0 -52.7185313,-27.4659076992265,0.0 -52.718886,-27.4664390992265,0.0 -52.719282,-27.4669336992265,0.0 -52.7195909,-27.4672745992265,0.0 -52.7197785,-27.4675741992265,0.0 -52.7200428,-27.4678082992265,0.0 -52.7203864,-27.4681036992265,0.0 -52.720769,-27.4684825992265,0.0 -52.7212302,-27.4688681992265,0.0 -52.7215992,-27.4691911992265,0.0 -52.7220395,-27.4694924992265,0.0 -52.7223902,-27.4698220992265,0.0 -52.7228448,-27.4701912992265,0.0 -52.7233246,-27.4705305992265,0.0 -52.7237964,-27.4708476992265,0.0 -52.7242052,-27.4711166992264,0.0 -52.724486,-27.4713644992264,0.0 -52.7247146,-27.4716112992264,0.0 -52.7248592,-27.4718590992264,0.0 -52.7249469,-27.4721837992264,0.0 -52.7250443,-27.4725474992264,0.0 -52.7250517,-27.4729112992264,0.0 -52.7249991,-27.4733462992264,0.0 -52.7249362,-27.4736721992264,0.0 -52.7247528,-27.4740887992264,0.0 -52.7245615,-27.4744485992264,0.0 -52.7242901,-27.4747351992264,0.0 -52.7240006,-27.4750667992264,0.0 -52.7237269,-27.4753489992264,0.0 -52.7234755,-27.4756888992264,0.0 -52.7232838,-27.4760216992264,0.0 -52.7231026,-27.4763264992264,0.0 -52.7230484,-27.4767528992263,0.0 -52.7229727,-27.4770686992263,0.0 -52.7227161,-27.4773597992263,0.0 -52.7223728,-27.4776202992263,0.0 -52.7220118,-27.4778671992263,0.0 -52.7216442,-27.4781028992263,0.0 -52.7212976,-27.4782705992263,0.0 -52.7207518,-27.4785559992263,0.0 -52.7203092,-27.4788452992263,0.0 -52.7199978,-27.4789871992263,0.0 -52.7196471,-27.4791114992263,0.0 -52.7193048,-27.4791786992263,0.0 -52.7190445,-27.4791942992263,0.0 -52.718567,-27.4792568992263,0.0 -52.718029,-27.4792978992263,0.0 -52.7175498,-27.4792301992263,0.0 -52.7171208,-27.4792165992263,0.0 -52.7168125,-27.4790589992263,0.0 -52.7165892,-27.4788061992263,0.0 -52.7162914,-27.4786269992263,0.0 -52.7160736,-27.4782950992263,0.0 -52.71594,-27.4779219992263,0.0 -52.7157768,-27.4775407992263,0.0 -52.7156592,-27.4772070992263,0.0 -52.7156196,-27.4766955992263,0.0 -52.7155627,-27.4762364992263,0.0 -52.7155173,-27.4757956992264,0.0 -52.7155198,-27.4753331992264,0.0 -52.715599,-27.4748821992264,0.0 -52.7157513,-27.4742503992264,0.0 -52.7158901,-27.4738388992264,0.0 -52.7159931,-27.4736027992264,0.0 -52.7161327,-27.4734220992264,0.0 -52.7163372,-27.4731965992264,0.0 -52.7165366,-27.4729587992264,0.0 -52.7167319,-27.4727294992264,0.0 -52.7169568,-27.4724618992264,0.0 -52.7171298,-27.4722018992264,0.0 -52.7172575,-27.4719126992264,0.0 -52.7173467,-27.4716085992264,0.0 -52.7174377,-27.4713240992264,0.0 -52.7174252,-27.4710031992264,0.0 -52.717395,-27.4707445992265,0.0 -52.7172982,-27.4704762992265,0.0 -52.717061,-27.4702705992265,0.0 -52.7168204,-27.4700591992265,0.0 -52.7164615,-27.4698220992265,0.0 -52.7161946,-27.4696153992265,0.0 -52.7158417,-27.4694546992265,0.0 -52.7154487,-27.4693467992265,0.0 -52.71485,-27.4690490992265,0.0 -52.7143811,-27.4689088992265,0.0 -52.7140587,-27.4687479992265,0.0 -52.7135561,-27.4685889992265,0.0 -52.712606,-27.4681859992265,0.0 -52.7121049,-27.4679160992265,0.0 -52.7116202,-27.4676905992265,0.0 -52.7113392,-27.4674692992265,0.0 -52.710939,-27.4671896992265,0.0 -52.7105926,-27.4668755992265,0.0 -52.7102841,-27.4665450992265,0.0 -52.7099981,-27.4662599992265,0.0 -52.7096616,-27.4658590992265,0.0 -52.7092405,-27.4654562992266,0.0 -52.7089296,-27.4651772992266,0.0 -52.7085684,-27.4648805992266,0.0 -52.7082522,-27.4646135992266,0.0 -52.7078221,-27.4643593992266,0.0 -52.7073526,-27.4641518992266,0.0 -52.7067532,-27.4640795992266,0.0 -52.7061721,-27.4641012992266,0.0 -52.7055183,-27.4641597992266,0.0 -52.7049624,-27.4642660992266,0.0 -52.704441,-27.4644314992266,0.0 -52.7039004,-27.4646569992266,0.0 -52.7033551,-27.4649184992266,0.0 -52.7028603,-27.4651861992266,0.0 -52.7023853,-27.4655064992266,0.0 -52.7022274,-27.4657057992266,0.0 -52.702032,-27.4659988992266,0.0 -52.7015763,-27.4669078992265,0.0 -52.7014451,-27.4671821992265,0.0 -52.7012889,-27.4676407992265,0.0 -52.7011481,-27.4682025992265,0.0 -52.7010215,-27.4687943992265,0.0 -52.7010117,-27.4691857992265,0.0 -52.7011273,-27.4695893992265,0.0 -52.701357,-27.4701516992265,0.0 -52.7015938,-27.4706257992265,0.0 -52.7019801,-27.4713344992264,0.0 -52.7024242,-27.4721112992264,0.0 -52.7030216,-27.4730324992264,0.0 -52.7036492,-27.4737800992264,0.0 -52.7043453,-27.4747081992264,0.0 -52.7051041,-27.4756622992264,0.0 -52.7055074,-27.4763368992264,0.0 -52.7059463,-27.4770240992263,0.0 -52.706539,-27.4776586992263,0.0 -52.707322,-27.4784806992263,0.0 -52.7078581,-27.4789836992263,0.0 -52.7082273,-27.4793192992263,0.0 -52.7086002,-27.4796343992263,0.0 -52.7091353,-27.4800958992263,0.0 -52.7095608,-27.4804830992263,0.0 -52.7100315,-27.4808492992263,0.0 -52.7105405,-27.4812818992263,0.0 -52.7108516,-27.4815231992263,0.0 -52.7112086,-27.4817258992262,0.0 -52.7116201,-27.4819809992262,0.0 -52.712024,-27.4823025992262,0.0 -52.7124708,-27.4826965992262,0.0 -52.7128384,-27.4831239992262,0.0 -52.7130759,-27.4835363992262,0.0 -52.713213,-27.4838449992262,0.0 -52.7132663,-27.4841984992262,0.0 -52.7132391,-27.4845600992262,0.0 -52.7130936,-27.4848827992262,0.0 -52.7127621,-27.4851202992262,0.0 -52.7123386,-27.4853272992262,0.0 -52.7119237,-27.4854644992262,0.0 -52.7113093,-27.4855167992262,0.0 -52.7106851,-27.4855466992262,0.0 -52.7100227,-27.4854632992262,0.0 -52.7093011,-27.4853723992262,0.0 -52.708545,-27.4853675992262,0.0 -52.7077886,-27.4853039992262,0.0 -52.70704,-27.4852263992262,0.0 -52.7063944,-27.4851711992262,0.0 -52.7055973,-27.4851293992262,0.0 -52.7048075,-27.4851690992262,0.0 -52.7039003,-27.4851815992262,0.0 -52.7031314,-27.4852093992262,0.0 -52.7022741,-27.4851999992262,0.0 -52.7014816,-27.4851703992262,0.0 -52.7006311,-27.4850429992262,0.0 -52.6992858,-27.4848527992262,0.0 -52.6985126,-27.4846225992262,0.0 -52.697704,-27.4843747992262,0.0 -52.6970613,-27.4841603992262,0.0 -52.6965047,-27.4839673992262,0.0 -52.6959039,-27.4838540992262,0.0 -52.6953249,-27.4837900992262,0.0 -52.6948992,-27.4838432992262,0.0 -52.6945251,-27.4840773992262,0.0 -52.6943187,-27.4844191992262,0.0 -52.6942947,-27.4848195992262,0.0 -52.694585,-27.4853553992262,0.0 -52.69491,-27.4857797992262,0.0 -52.6952246,-27.4860200992262,0.0 -52.6956927,-27.4863208992262,0.0 -52.6962121,-27.4866562992262,0.0 -52.6968461,-27.4869757992262,0.0 -52.6972345,-27.4872224992261,0.0 -52.6977946,-27.4874906992261,0.0 -52.6984157,-27.4877174992261,0.0 -52.6990065,-27.4879703992261,0.0 -52.699581,-27.4882974992261,0.0 -52.7002743,-27.4886291992261,0.0 -52.7008677,-27.4890098992261,0.0 -52.7012558,-27.4892267992261,0.0 -52.7017382,-27.4896304992261,0.0 -52.7021353,-27.4899937992261,0.0 -52.703024,-27.4906250992261,0.0 -52.703964,-27.4912550992261,0.0 -52.7045207,-27.4915894992261,0.0 -52.7048851,-27.4918094992261,0.0 -52.7051978,-27.4920169992261,0.0 -52.7055417,-27.492310799226,0.0 -52.7058871,-27.492630299226,0.0 -52.7063595,-27.492975999226,0.0 -52.7067245,-27.493298899226,0.0 -52.7068606,-27.493580499226,0.0 -52.7068159,-27.493935399226,0.0 -52.7067924,-27.494334299226,0.0 -52.7065842,-27.494677699226,0.0 -52.7063599,-27.494925499226,0.0 -52.7055866,-27.495431199226,0.0 -52.7045695,-27.495922199226,0.0 -52.7033828,-27.496291699226,0.0 -52.70188,-27.496693999226,0.0 -52.7000948,-27.497097599226,0.0 -52.698654,-27.497325399226,0.0 -52.6977952,-27.497377099226,0.0 -52.6970669,-27.497507699226,0.0 -52.696354,-27.4976507992259,0.0 -52.6957218,-27.497755899226,0.0 -52.6951382,-27.4978304992259,0.0 -52.6944381,-27.4979827992259,0.0 -52.693761,-27.4982600992259,0.0 -52.6931407,-27.4984685992259,0.0 -52.6921905,-27.4988755992259,0.0 -52.6916923,-27.4990441992259,0.0 -52.6911453,-27.4992454992259,0.0 -52.6904772,-27.4994944992259,0.0 -52.6898712,-27.4997921992259,0.0 -52.6893869,-27.5000209992259,0.0 -52.6888675,-27.5003005992259,0.0 -52.6883143,-27.5005089992259,0.0 -52.6876157,-27.5008101992259,0.0 -52.6866449,-27.5011954992259,0.0 -52.6862295,-27.5013398992259,0.0 -52.685706,-27.5014535992259,0.0 -52.68512,-27.5016058992259,0.0 -52.6845596,-27.5017738992259,0.0 -52.6839562,-27.5019977992259,0.0 -52.683435,-27.5022164992259,0.0 -52.6829658,-27.5024547992259,0.0 -52.6826108,-27.5027062992258,0.0 -52.6822273,-27.5029766992259,0.0 -52.6818739,-27.5032166992258,0.0 -52.6814954,-27.5035243992258,0.0 -52.681259,-27.5038297992258,0.0 -52.6810329,-27.5041097992258,0.0 -52.6808806,-27.5044231992258,0.0 -52.6808137,-27.5047332992258,0.0 -52.680908,-27.5050251992258,0.0 -52.6810544,-27.5053303992258,0.0 -52.6812532,-27.5055586992258,0.0 -52.6815482,-27.5058031992258,0.0 -52.6819463,-27.5060317992258,0.0 -52.6823614,-27.5063136992258,0.0 -52.6828521,-27.5064464992258,0.0 -52.6832451,-27.5066080992258,0.0 -52.6835697,-27.5067109992258,0.0 -52.6839565,-27.5068310992258,0.0 -52.6843179,-27.5068703992258,0.0 -52.6846744,-27.5069391992258,0.0 -52.6850423,-27.5070274992258,0.0 -52.6854428,-27.5070673992258,0.0 -52.6858017,-27.5070487992258,0.0 -52.6862581,-27.5070935992258,0.0 -52.6867146,-27.5071820992258,0.0 -52.6872543,-27.5072603992258,0.0 -52.6877494,-27.5073556992258,0.0 -52.6881369,-27.5073834992258,0.0 -52.6885165,-27.5074569992258,0.0 -52.6889173,-27.5075146992258,0.0 -52.6893195,-27.5075795992258,0.0 -52.6896883,-27.5077162992258,0.0 -52.6901591,-27.5078638992258,0.0 -52.6904876,-27.5080149992258,0.0 -52.6907643,-27.5081741992257,0.0 -52.6910591,-27.5082798992258,0.0 -52.6913273,-27.5083890992257,0.0 -52.691576,-27.5086070992257,0.0 -52.6917349,-27.5088607992257,0.0 -52.6919467,-27.5092275992257,0.0 -52.6920854,-27.5096336992257,0.0 -52.692274,-27.5102699992257,0.0 -52.6924428,-27.5107132992257,0.0 -52.6926587,-27.5115493992257,0.0 -52.6926726,-27.5120638992257,0.0 -52.6927143,-27.5123810992257,0.0 -52.6928599,-27.5126448992257,0.0 -52.6931024,-27.5129646992257,0.0 -52.6931875,-27.5132804992257,0.0 -52.6934216,-27.5136712992256,0.0 -52.6935482,-27.5139719992256,0.0 -52.6934996,-27.5142520992256,0.0 -52.6933273,-27.5145055992256,0.0 -52.6930362,-27.5147457992256,0.0 -52.6927017,-27.5151039992256,0.0 -52.692143,-27.5154490992256,0.0 -52.6916067,-27.5156518992256,0.0 -52.6910312,-27.5158326992256,0.0 -52.6905009,-27.5158794992256,0.0 -52.6898065,-27.5159743992256,0.0 -52.6890637,-27.5160224992256,0.0 -52.6874878,-27.5159495992256,0.0 -52.6863946,-27.5158100992256,0.0 -52.685191,-27.5156108992256,0.0 -52.684428,-27.5154687992256,0.0 -52.6839038,-27.5152931992256,0.0 -52.6832974,-27.5149974992256,0.0 -52.6825765,-27.5145985992256,0.0 -52.6820151,-27.5143446992256,0.0 -52.6814294,-27.5141868992256,0.0 -52.680929,-27.5139944992256,0.0 -52.6805482,-27.5138080992256,0.0 -52.6799141,-27.5135632992257,0.0 -52.6791863,-27.5134561992257,0.0 -52.6786154,-27.5134099992257,0.0 -52.6781454,-27.5132610992256,0.0 -52.6776241,-27.5132173992257,0.0 -52.6771397,-27.5130730992257,0.0 -52.6765971,-27.5129158992257,0.0 -52.674937,-27.5126429992257,0.0 -52.6737527,-27.5123861992257,0.0 -52.6734247,-27.5123238992257,0.0 -52.6732187,-27.5121547992257,0.0 -52.6729016,-27.5120646992257,0.0 -52.6725327,-27.5121014992257,0.0 -52.6721782,-27.5122428992257,0.0 -52.67175,-27.5125696992257,0.0 -52.6711877,-27.5130943992257,0.0 -52.6705135,-27.5136027992256,0.0 -52.6697727,-27.5143808992256,0.0 -52.6689794,-27.5152574992256,0.0 -52.6685924,-27.5155852992256,0.0 -52.6682263,-27.5160166992256,0.0 -52.6678936,-27.5162611992256,0.0 -52.6676607,-27.5165090992256,0.0 -52.667522,-27.5168831992256,0.0 -52.6674383,-27.5171856992256,0.0 -52.6674896,-27.5174450992256,0.0 -52.6676873,-27.5177435992256,0.0 -52.6680841,-27.5179628992256,0.0 -52.6683912,-27.5182466992256,0.0 -52.6687782,-27.5185907992256,0.0 -52.6691668,-27.5189608992255,0.0 -52.6695915,-27.5192873992255,0.0 -52.6699917,-27.5195928992255,0.0 -52.6704712,-27.5199009992255,0.0 -52.6709113,-27.5201427992255,0.0 -52.6712903,-27.5203612992255,0.0 -52.6716573,-27.5206699992255,0.0 -52.6721666,-27.5210306992255,0.0 -52.6724666,-27.5211961992255,0.0 -52.6728264,-27.5213447992255,0.0 -52.6732288,-27.5214281992255,0.0 -52.6736966,-27.5215807992255,0.0 -52.6742789,-27.5217593992255,0.0 -52.6747626,-27.5218572992255,0.0 -52.6752173,-27.5219810992255,0.0 -52.6756367,-27.5221446992255,0.0 -52.6760596,-27.5223010992255,0.0 -52.6765098,-27.5224016992255,0.0 -52.6771838,-27.5225435992255,0.0 -52.6777879,-27.5226077992255,0.0 -52.678344,-27.5226440992255,0.0 -52.678834,-27.5226483992255,0.0 -52.6792842,-27.5227246992255,0.0 -52.6796739,-27.5228440992255,0.0 -52.6799369,-27.5230420992255,0.0 -52.6801439,-27.5232818992255,0.0 -52.6802979,-27.5235331992255,0.0 -52.6804322,-27.5238609992255,0.0 -52.680355,-27.5242074992254,0.0 -52.6802154,-27.5245386992254,0.0 -52.679855,-27.5248480992254,0.0 -52.6794897,-27.5251618992254,0.0 -52.6790065,-27.5254919992254,0.0 -52.6784834,-27.5257292992254,0.0 -52.6779478,-27.5259104992254,0.0 -52.677365,-27.5260863992254,0.0 -52.6768321,-27.5262541992254,0.0 -52.6762846,-27.5264328992254,0.0 -52.6756875,-27.5266690992254,0.0 -52.675081,-27.5269150992254,0.0 -52.6746735,-27.5270843992254,0.0 -52.6744033,-27.5271627992254,0.0 -52.6741628,-27.5274015992254,0.0 -52.6739489,-27.5276377992254,0.0 -52.6737428,-27.5279540992254,0.0 -52.6735613,-27.5282944992254,0.0 -52.6734274,-27.5286660992254,0.0 -52.6733919,-27.5290924992254,0.0 -52.6734447,-27.5295331992253,0.0 -52.6735337,-27.5298975992253,0.0 -52.6736481,-27.5301570992253,0.0 -52.6738871,-27.5305607992253,0.0 -52.6742114,-27.5309998992253,0.0 -52.6746053,-27.5314494992253,0.0 -52.6750407,-27.5318822992253,0.0 -52.675456,-27.5321829992253,0.0 -52.6758442,-27.5325131992253,0.0 -52.6761897,-27.5329518992253,0.0 -52.6764061,-27.5333297992253,0.0 -52.6765938,-27.5337234992253,0.0 -52.6767905,-27.5343354992253,0.0 -52.6768944,-27.5349299992252,0.0 -52.6769438,-27.5353620992252,0.0 -52.6769367,-27.5358664992252,0.0 -52.6768355,-27.5363493992252,0.0 -52.6767013,-27.5369338992252,0.0 -52.6764444,-27.5375826992252,0.0 -52.6762417,-27.5377933992252,0.0 -52.6759449,-27.5380037992252,0.0 -52.6756457,-27.5381949992252,0.0 -52.6752595,-27.5382747992252,0.0 -52.6748355,-27.5382150992252,0.0 -52.674462,-27.5380513992252,0.0 -52.6740801,-27.5377274992252,0.0 -52.6736531,-27.5371539992252,0.0 -52.6733414,-27.5365257992252,0.0 -52.6729801,-27.5358714992252,0.0 -52.6724761,-27.5348552992252,0.0 -52.6722798,-27.5344106992253,0.0 -52.6720957,-27.5341829992253,0.0 -52.6719557,-27.5338676992253,0.0 -52.6719018,-27.5335333992253,0.0 -52.6719523,-27.5331331992253,0.0 -52.6720619,-27.5327018992253,0.0 -52.6722589,-27.5322043992253,0.0 -52.6724929,-27.5317327992253,0.0 -52.6725214,-27.5313071992253,0.0 -52.672393,-27.5310477992253,0.0 -52.6721364,-27.5308751992253,0.0 -52.6717734,-27.5307721992253,0.0 -52.6712797,-27.5307683992253,0.0 -52.6708106,-27.5308120992253,0.0 -52.6702457,-27.5309480992253,0.0 -52.6696597,-27.5312151992253,0.0 -52.6688368,-27.5315502992253,0.0 -52.6680086,-27.5318332992253,0.0 -52.6671312,-27.5321252992253,0.0 -52.6663364,-27.5322599992253,0.0 -52.6657261,-27.5325443992253,0.0 -52.6650732,-27.5329017992253,0.0 -52.6640901,-27.5333034992253,0.0 -52.6632603,-27.5338077992253,0.0 -52.6634883,-27.5345285992253,0.0 -52.6636194,-27.5349542992252,0.0 -52.6638064,-27.5353418992252,0.0 -52.6642372,-27.5359455992252,0.0 -52.664953,-27.5366401992252,0.0 -52.6687571,-27.5390733992252,0.0 -52.6698435,-27.5410787992251,0.0 -52.663788,-27.5446821992251,0.0 -52.6637157,-27.546223499225,0.0 -52.6703563,-27.547938299225,0.0 -52.6724842,-27.5510823992249,0.0 -52.6725354,-27.5529758992249,0.0 -52.6694854,-27.5600386992248,0.0 -52.6668104,-27.5611877992248,0.0 -52.6621416,-27.5612259992247,0.0 -52.6588952,-27.5655517992247,0.0 -52.6603783,-27.5680049992246,0.0 -52.660842,-27.5687727992246,0.0 -52.6624653,-27.5695291992246,0.0 -52.6648704,-27.5692843992246,0.0 -52.6705184,-27.5664231992247,0.0 -52.6728363,-27.5664318992247,0.0 -52.6782443,-27.5689438992246,0.0 -52.6786784,-27.5705838992246,0.0 -52.6779929,-27.5758087992245,0.0 -52.6738284,-27.5779138992244,0.0 -52.6695675,-27.5770844992245,0.0 -52.6692826,-27.5781148992244,0.0 -52.6702564,-27.5794956992244,0.0 -52.7081993,-27.5857140992243,0.0 -52.7113924,-27.5846267992243,0.0 -52.7226172,-27.5865124992243,0.0 -52.7339423,-27.5909931992242,0.0 -52.7341958,-27.5909534992242,0.0 -52.7339858,-27.5903735992242,0.0 -52.7338693,-27.5893248992242,0.0 -52.734549,-27.5879458992243,0.0 -52.7357636,-27.5876009992243,0.0 -52.7377804,-27.5877958992243,0.0 -52.7408908,-27.5894251992242,0.0 -52.7418782,-27.5904125992242,0.0 -52.7441995,-27.5915984992242,0.0 -52.7544903,-27.5914226992242,0.0 -52.7565112,-27.5891678992242,0.0 -52.7601083,-27.5873403992243,0.0 -52.7676689,-27.5870205992243,0.0 -52.7681065,-27.5847524992243,0.0 -52.7663588,-27.5824468992244,0.0 -52.7610172,-27.5795570992244,0.0 -52.7580474,-27.5795801992244,0.0 -52.7567149,-27.5803559992244,0.0 -52.7553954,-27.5838423992243,0.0 -52.7539628,-27.5845035992243,0.0 -52.7504956,-27.5832714992243,0.0 -52.7477847,-27.5800231992244,0.0 -52.7475088,-27.5774716992244,0.0 -52.7484958,-27.5727840992245,0.0 -52.7479571,-27.5707291992246,0.0 -52.7397083,-27.5603728992248,0.0 -52.739393,-27.5580078992248,0.0 -52.7405127,-27.5544854992249,0.0 -52.7416082,-27.5528965992249,0.0 -52.745366,-27.547446299225,0.0 -52.7460574,-27.547094399225,0.0 -52.7467489,-27.546742399225,0.0 -52.7503416,-27.547516399225,0.0 -52.7525727,-27.548998199225,0.0 -52.753672,-27.550541999225,0.0 -52.7533243,-27.5536291992249,0.0 -52.7549211,-27.5555175992249,0.0 -52.7635187,-27.5544538992249,0.0 -52.7672765,-27.5528071992249,0.0 -52.7659921,-27.550582399225,0.0 -52.760173,-27.546082199225,0.0 -52.7587529,-27.5453242992251,0.0 -52.753319,-27.5449489992251,0.0 -52.7525616,-27.5424518992251,0.0 -52.7497991,-27.5415093992251,0.0 -52.7472002,-27.5383829992252,0.0 -52.747011,-27.5339996992253,0.0 -52.749167,-27.5326836992253,0.0 -52.7511655,-27.5331247992253,0.0 -52.7527574,-27.5321943992253,0.0 -52.7568804,-27.5294323992253,0.0 -52.7578353,-27.5267149992254,0.0 -52.7616825,-27.5249563992254,0.0 -52.7610071,-27.5201040992255,0.0 -52.7571066,-27.5127416992257,0.0 -52.7574013,-27.5127325992257,0.0</coordinates>
</LinearRing>
</outerBoundaryIs>
</Polygon>
</MultiGeometry>
</Placemark>
<Placemark id="13. Referência">
<name>TI - Guarani Votouro [6386]</name>
<visibility>0</visibility>
<snippet> </snippet>
<description>&lt;center&gt;&lt;table&gt;&lt;tr&gt;&lt;th colspan='2' align='center'&gt;&lt;em&gt;Attributes&lt;/em&gt;&lt;/th&gt;&lt;/tr&gt;&lt;tr bgcolor="#E3E3F3"&gt;
&lt;th&gt;COD_TI&lt;/th&gt;
&lt;td&gt;6386&lt;/td&gt;
&lt;/tr&gt;&lt;tr bgcolor=""&gt;
&lt;th&gt;NOM_TI&lt;/th&gt;
&lt;td&gt;Guarani Votouro&lt;/td&gt;
&lt;/tr&gt;&lt;/table&gt;&lt;/center&gt;</description>
<Style>
<IconStyle>
<scale>0.7</scale>
</IconStyle>
<LabelStyle>
<scale>0.7</scale>
</LabelStyle>
<LineStyle>
<color>ff00aaaa</color>
<width>3</width>
<gx:labelVisibility>1</gx:labelVisibility>
</LineStyle>
<PolyStyle>
<color>3300aaaa</color>
</PolyStyle>
</Style>
<ExtendedData>
<SchemaData schemaUrl="#kml_schema_ft_Terra_Indígena">
<SimpleData name="COD_TI">6386</SimpleData>
<SimpleData name="NOM_TI">Guarani Votouro</SimpleData>
</SchemaData>
</ExtendedData>
<MultiGeometry>
<Polygon>
<extrude>0</extrude>
<tessellate>1</tessellate>
<outerBoundaryIs>
<LinearRing>
<coordinates>-52.6951280505196,-27.4859463521183,0.0 -52.6952246,-27.4860200992262,0.0 -52.6956927,-27.4863208992262,0.0 -52.6959155210105,-27.4864647847998,0.0 -52.695692674,-27.486320879226,0.0 -52.6952245859999,-27.486020059226,0.0 -52.6951280505196,-27.4859463521183,0.0</coordinates>
</LinearRing>
</outerBoundaryIs>
</Polygon>
<Polygon>
<extrude>0</extrude>
<tessellate>1</tessellate>
<outerBoundaryIs>
<LinearRing>
<coordinates>-52.6674895970698,-27.5174450844089,0.0 -52.6674896069999,-27.5174450832256,0.0 -52.66743832,-27.5171856602255,0.0 -52.667522048,-27.5168831992255,0.0 -52.6676607489999,-27.5165091272255,0.0 -52.667893578,-27.5162612242255,0.0 -52.667929479343,-27.5162348316291,0.0 -52.6678936,-27.5162611992256,0.0 -52.6676607,-27.5165090992256,0.0 -52.667522,-27.5168831992256,0.0 -52.6674383,-27.5171856992256,0.0 -52.6674895970698,-27.5174450844089,0.0</coordinates>
</LinearRing>
</outerBoundaryIs>
</Polygon>
<Polygon>
<extrude>0</extrude>
<tessellate>1</tessellate>
<outerBoundaryIs>
<LinearRing>
<coordinates>-52.6691589337935,-27.5150591135917,0.0 -52.669772721,-27.5143809312255,0.0 -52.67006495602,-27.514073927831,0.0 -52.6697727,-27.5143808992256,0.0 -52.6691589337935,-27.5150591135917,0.0</coordinates>
</LinearRing>
</outerBoundaryIs>
</Polygon>
<Polygon>
<extrude>0</extrude>
<tessellate>1</tessellate>
<outerBoundaryIs>
<LinearRing>
<coordinates>-52.6714736647292,-27.5128275564489,0.0 -52.6717500399999,-27.5125697422257,0.0 -52.6721207775037,-27.5122867237744,0.0 -52.67175,-27.5125696992257,0.0 -52.6714736647292,-27.5128275564489,0.0</coordinates>
</LinearRing>
</outerBoundaryIs>
</Polygon>
<Polygon>
<extrude>0</extrude>
<tessellate>1</tessellate>
<outerBoundaryIs>
<LinearRing>
<coordinates>-52.6722695888358,-27.5122064468099,0.0 -52.672532743,-27.5121015432257,0.0 -52.672901625,-27.5120647092256,0.0 -52.6729867099127,-27.5120888821432,0.0 -52.6729016,-27.5120646992257,0.0 -52.6725327,-27.5121014992257,0.0 -52.6722695888358,-27.5122064468099,0.0</coordinates>
</LinearRing>
</outerBoundaryIs>
</Polygon>
<Polygon>
<extrude>0</extrude>
<tessellate>1</tessellate>
<outerBoundaryIs>
<LinearRing>
<coordinates>-52.6732186897106,-27.5121547963021,0.0 -52.673424686,-27.5123239052255,0.0 -52.673752747,-27.5123862462255,0.0 -52.6744305456433,-27.5125331812076,0.0 -52.6737527,-27.5123861992257,0.0 -52.6734247,-27.5123238992257,0.0 -52.6732187,-27.5121547992257,0.0 -52.6732186897106,-27.5121547963021,0.0</coordinates>
</LinearRing>
</outerBoundaryIs>
</Polygon>
<Polygon>
<extrude>0</extrude>
<tessellate>1</tessellate>
<outerBoundaryIs>
<LinearRing>
<coordinates>-52.6762447746409,-27.5128579812746,0.0 -52.6765970939999,-27.5129159052256,0.0 -52.677139677,-27.5130731232257,0.0 -52.677624108,-27.5132174272256,0.0 -52.6778375039207,-27.5132352886393,0.0 -52.6776241,-27.5132173992257,0.0 -52.6771397,-27.5130730992257,0.0 -52.6765971,-27.5129158992257,0.0 -52.6762447746409,-27.5128579812746,0.0</coordinates>
</LinearRing>
</outerBoundaryIs>
</Polygon>
<Polygon>
<extrude>0</extrude>
<tessellate>1</tessellate>
<outerBoundaryIs>
<LinearRing>
<coordinates>-52.6784404465999,-27.5133545724995,0.0 -52.6786154439999,-27.5134100422257,0.0 -52.6790263409767,-27.5134432545648,0.0 -52.6786154,-27.5134099992257,0.0 -52.6784404465999,-27.5133545724995,0.0</coordinates>
</LinearRing>
</outerBoundaryIs>
</Polygon>
<Polygon>
<extrude>0</extrude>
<tessellate>1</tessellate>
<outerBoundaryIs>
<LinearRing>
<coordinates>-52.6807206181324,-27.513892497177,0.0 -52.6809290099999,-27.5139945152256,0.0 -52.6810466725905,-27.5140397434431,0.0 -52.680929,-27.5139944992256,0.0 -52.6807206181324,-27.513892497177,0.0</coordinates>
</LinearRing>
</outerBoundaryIs>
</Polygon>
<Polygon>
<extrude>0</extrude>
<tessellate>1</tessellate>
<outerBoundaryIs>
<LinearRing>
<coordinates>-52.6822979462388,-27.5144726198883,0.0 -52.682576512,-27.5145986402256,0.0 -52.6829823030877,-27.5148231447267,0.0 -52.6825765,-27.5145985992256,0.0 -52.6822979462388,-27.5144726198883,0.0</coordinates>
</LinearRing>
</outerBoundaryIs>
</Polygon>
<Polygon>
<extrude>0</extrude>
<tessellate>1</tessellate>
<outerBoundaryIs>
<LinearRing>
<coordinates>-52.6883120201072,-27.5159877270547,0.0 -52.689063704,-27.5160225392255,0.0 -52.6894643621145,-27.5159965543579,0.0 -52.6890637,-27.5160224992256,0.0 -52.6883120201072,-27.5159877270547,0.0</coordinates>
</LinearRing>
</outerBoundaryIs>
</Polygon>
<Polygon>
<extrude>0</extrude>
<tessellate>1</tessellate>
<outerBoundaryIs>
<LinearRing>
<coordinates>-52.6900908199528,-27.5159355427113,0.0 -52.6905009,-27.5158795462255,0.0 -52.6909935652127,-27.5158360205683,0.0 -52.6905009,-27.5158794992256,0.0 -52.6900908199528,-27.5159355427113,0.0</coordinates>
</LinearRing>
</outerBoundaryIs>
</Polygon>
<Polygon>
<extrude>0</extrude>
<tessellate>1</tessellate>
<outerBoundaryIs>
<LinearRing>
<coordinates>-52.6917606343888,-27.5155936894661,0.0 -52.692142976,-27.5154491442255,0.0 -52.692366717854,-27.515310912307,0.0 -52.692143,-27.5154490992256,0.0 -52.6917606343888,-27.5155936894661,0.0</coordinates>
</LinearRing>
</outerBoundaryIs>
</Polygon>
<Polygon>
<extrude>0</extrude>
<tessellate>1</tessellate>
<outerBoundaryIs>
<LinearRing>
<coordinates>-52.6930361837387,-27.5147458166391,0.0 -52.693327273,-27.5145056422255,0.0 -52.693499602,-27.5142521112256,0.0 -52.6935042797994,-27.5142251277893,0.0 -52.6934996,-27.5142520992256,0.0 -52.6933273,-27.5145055992256,0.0 -52.6930362,-27.5147457992256,0.0 -52.6930361837387,-27.5147458166391,0.0</coordinates>
</LinearRing>
</outerBoundaryIs>
</Polygon>
<Polygon>
<extrude>0</extrude>
<tessellate>1</tessellate>
<outerBoundaryIs>
<LinearRing>
<coordinates>-52.6932416093479,-27.5133708278594,0.0 -52.6931875029999,-27.5132804722256,0.0 -52.693146924038,-27.5131299247391,0.0 -52.6931875,-27.5132804992257,0.0 -52.6932416093479,-27.5133708278594,0.0</coordinates>
</LinearRing>
</outerBoundaryIs>
</Polygon>
<Polygon>
<extrude>0</extrude>
<tessellate>1</tessellate>
<outerBoundaryIs>
<LinearRing>
<coordinates>-52.6925750887809,-27.5112256042265,0.0 -52.692442835,-27.5107133112257,0.0 -52.6923862098569,-27.5105646830502,0.0 -52.6924428,-27.5107132992257,0.0 -52.6925750887809,-27.5112256042265,0.0</coordinates>
</LinearRing>
</outerBoundaryIs>
</Polygon>
<Polygon>
<extrude>0</extrude>
<tessellate>1</tessellate>
<outerBoundaryIs>
<LinearRing>
<coordinates>-52.692069056175,-27.5095858461088,0.0 -52.6919467229999,-27.5092276222257,0.0 -52.6918602306067,-27.5090778495871,0.0 -52.6919467,-27.5092275992257,0.0 -52.692069056175,-27.5095858461088,0.0</coordinates>
</LinearRing>
</outerBoundaryIs>
</Polygon>
<Polygon>
<extrude>0</extrude>
<tessellate>1</tessellate>
<outerBoundaryIs>
<LinearRing>
<coordinates>-52.6916160114659,-27.5086709815977,0.0 -52.69157602,-27.5086071232257,0.0 -52.6915760089815,-27.5086071135656,0.0 -52.6916160114659,-27.5086709815977,0.0</coordinates>
</LinearRing>
</outerBoundaryIs>
</Polygon>
<Polygon>
<extrude>0</extrude>
<tessellate>1</tessellate>
<outerBoundaryIs>
<LinearRing>
<coordinates>-52.6915360190138,-27.5085720535683,0.0 -52.6913273019998,-27.5083890672256,0.0 -52.6912096117464,-27.5083411814133,0.0 -52.6913273,-27.5083890992257,0.0 -52.6915360190138,-27.5085720535683,0.0</coordinates>
</LinearRing>
</outerBoundaryIs>
</Polygon>
<Polygon>
<extrude>0</extrude>
<tessellate>1</tessellate>
<outerBoundaryIs>
<LinearRing>
<coordinates>-52.6906031219707,-27.5080814650651,0.0 -52.6904875619999,-27.5080149502258,0.0 -52.6902108710004,-27.50788771231,0.0 -52.6904876,-27.5080149992258,0.0 -52.6906031219707,-27.5080814650651,0.0</coordinates>
</LinearRing>
</outerBoundaryIs>
</Polygon>
<Polygon>
<extrude>0</extrude>
<tessellate>1</tessellate>
<outerBoundaryIs>
<LinearRing>
<coordinates>-52.6895959439662,-27.50768206639,0.0 -52.6893195059999,-27.5075795792257,0.0 -52.6891991364784,-27.5075601770663,0.0 -52.6893195,-27.5075795992258,0.0 -52.6895959439662,-27.50768206639,0.0</coordinates>
</LinearRing>
</outerBoundaryIs>
</Polygon>
<Polygon>
<extrude>0</extrude>
<tessellate>1</tessellate>
<outerBoundaryIs>
<LinearRing>
<coordinates>-52.6884008856742,-27.5074346134172,0.0 -52.688136866,-27.5073834522257,0.0 -52.6879316454727,-27.5073687738687,0.0 -52.6881369,-27.5073834992258,0.0 -52.6884008856742,-27.5074346134172,0.0</coordinates>
</LinearRing>
</outerBoundaryIs>
</Polygon>
<Polygon>
<extrude>0</extrude>
<tessellate>1</tessellate>
<outerBoundaryIs>
<LinearRing>
<coordinates>-52.6867067992232,-27.5071805869174,0.0 -52.6862580769999,-27.5070935842258,0.0 -52.685801747,-27.5070487652258,0.0 -52.685442774,-27.5070673662257,0.0 -52.6852098520409,-27.5070441916763,0.0 -52.6854428,-27.5070673992258,0.0 -52.6858017,-27.5070487992258,0.0 -52.6862581,-27.5070935992258,0.0 -52.6867067992232,-27.5071805869174,0.0</coordinates>
</LinearRing>
</outerBoundaryIs>
</Polygon>
<Polygon>
<extrude>0</extrude>
<tessellate>1</tessellate>
<outerBoundaryIs>
<LinearRing>
<coordinates>-52.6840543157273,-27.5068417360771,0.0 -52.683956522,-27.5068310822258,0.0 -52.6835697069999,-27.5067109722257,0.0 -52.6832451069999,-27.5066080712257,0.0 -52.682852124,-27.5064464532258,0.0 -52.682361403,-27.5063136822257,0.0 -52.6822028434864,-27.5062060213622,0.0 -52.6823614,-27.5063136992258,0.0 -52.6828521,-27.5064464992258,0.0 -52.6832451,-27.5066080992258,0.0 -52.6835697,-27.5067109992258,0.0 -52.6839565,-27.5068310992258,0.0 -52.6840543157273,-27.5068417360771,0.0</coordinates>
</LinearRing>
</outerBoundaryIs>
</Polygon>
<Polygon>
<extrude>0</extrude>
<tessellate>1</tessellate>
<outerBoundaryIs>
<LinearRing>
<coordinates>-52.6816710557734,-27.5058737463993,0.0 -52.68154824,-27.5058032102257,0.0 -52.6814043123887,-27.5056839432225,0.0 -52.6815482,-27.5058031992258,0.0 -52.6816710557734,-27.5058737463993,0.0</coordinates>
</LinearRing>
</outerBoundaryIs>
</Polygon>
<Polygon>
<extrude>0</extrude>
<tessellate>1</tessellate>
<outerBoundaryIs>
<LinearRing>
<coordinates>-52.6808535754518,-27.5045484654801,0.0 -52.6808806182612,-27.5044231616482,0.0 -52.6808806,-27.5044231992258,0.0 -52.6808535754518,-27.5045484654801,0.0</coordinates>
</LinearRing>
</outerBoundaryIs>
</Polygon>
<Polygon>
<extrude>0</extrude>
<tessellate>1</tessellate>
<outerBoundaryIs>
<LinearRing>
<coordinates>-52.6808837881185,-27.5044166387772,0.0 -52.681032944,-27.5041097982257,0.0 -52.681259031,-27.5038298062257,0.0 -52.6814954239999,-27.5035243832258,0.0 -52.681873928,-27.5032167342259,0.0 -52.6820605696143,-27.5030899286898,0.0 -52.6818739,-27.5032166992258,0.0 -52.6814954,-27.5035243992258,0.0 -52.681259,-27.5038297992258,0.0 -52.6810329,-27.5041097992258,0.0 -52.6808837881185,-27.5044166387772,0.0</coordinates>
</LinearRing>
</outerBoundaryIs>
</Polygon>
<Polygon>
<extrude>0</extrude>
<tessellate>1</tessellate>
<outerBoundaryIs>
<LinearRing>
<coordinates>-52.6824177506123,-27.5028424154043,0.0 -52.68261082,-27.5027063352258,0.0 -52.6829180269274,-27.5024886440928,0.0 -52.6826108,-27.5027062992258,0.0 -52.6824177506123,-27.5028424154043,0.0</coordinates>
</LinearRing>
</outerBoundaryIs>
</Polygon>
<Polygon>
<extrude>0</extrude>
<tessellate>1</tessellate>
<outerBoundaryIs>
<LinearRing>
<coordinates>-52.6842541628404,-27.5018872359511,0.0 -52.684559645,-27.5017739102258,0.0 -52.685119985,-27.5016059442258,0.0 -52.6854467897045,-27.5015209673624,0.0 -52.68512,-27.5016058992259,0.0 -52.6845596,-27.5017738992259,0.0 -52.6842541628404,-27.5018872359511,0.0</coordinates>
</LinearRing>
</outerBoundaryIs>
</Polygon>
<Polygon>
<extrude>0</extrude>
<tessellate>1</tessellate>
<outerBoundaryIs>
<LinearRing>
<coordinates>-52.6859386792895,-27.501403063151,0.0 -52.6862295239999,-27.5013399342259,0.0 -52.68664494,-27.5011954982258,0.0 -52.687615664,-27.5008102432258,0.0 -52.688314255,-27.5005090472259,0.0 -52.688867516,-27.5003005942258,0.0 -52.6889320561917,-27.5002658477604,0.0 -52.6888675,-27.5003005992259,0.0 -52.6883143,-27.5005089992259,0.0 -52.6876157,-27.5008101992259,0.0 -52.6866449,-27.5011954992259,0.0 -52.6862295,-27.5013398992259,0.0 -52.6859386792895,-27.501403063151,0.0</coordinates>
</LinearRing>
</outerBoundaryIs>
</Polygon>
<Polygon>
<extrude>0</extrude>
<tessellate>1</tessellate>
<outerBoundaryIs>
<LinearRing>
<coordinates>-52.6895948711152,-27.4999227465083,0.0 -52.689871221,-27.4997922232259,0.0 -52.690195677839,-27.4996327981489,0.0 -52.6898712,-27.4997921992259,0.0 -52.6895948711152,-27.4999227465083,0.0</coordinates>
</LinearRing>
</outerBoundaryIs>
</Polygon>
<Polygon>
<extrude>0</extrude>
<tessellate>1</tessellate>
<outerBoundaryIs>
<LinearRing>
<coordinates>-52.6913074079981,-27.4991858422972,0.0 -52.6916923059998,-27.4990442432258,0.0 -52.6920659812065,-27.4989177386651,0.0 -52.6916923,-27.4990441992259,0.0 -52.6913074079981,-27.4991858422972,0.0</coordinates>
</LinearRing>
</outerBoundaryIs>
</Polygon>
<Polygon>
<extrude>0</extrude>
<tessellate>1</tessellate>
<outerBoundaryIs>
<LinearRing>
<coordinates>-52.6935038815036,-27.4983465238697,0.0 -52.6937610159999,-27.4982601162259,0.0 -52.6941400529968,-27.4981048616007,0.0 -52.693761,-27.4982600992259,0.0 -52.6935038815036,-27.4983465238697,0.0</coordinates>
</LinearRing>
</outerBoundaryIs>
</Polygon>
<Polygon>
<extrude>0</extrude>
<tessellate>1</tessellate>
<outerBoundaryIs>
<LinearRing>
<coordinates>-52.6971083859309,-27.497500259898,0.0 -52.697795229,-27.497377143226,0.0 -52.6982343679536,-27.4973506611924,0.0 -52.6977952,-27.497377099226,0.0 -52.6971083859309,-27.497500259898,0.0</coordinates>
</LinearRing>
</outerBoundaryIs>
</Polygon>
<Polygon>
<extrude>0</extrude>
<tessellate>1</tessellate>
<outerBoundaryIs>
<LinearRing>
<coordinates>-52.7009277733608,-27.4969092796828,0.0 -52.701879999,-27.496694045226,0.0 -52.7033828,-27.496291721226,0.0 -52.7045695319999,-27.4959222362259,0.0 -52.7055753805294,-27.49543661537,0.0 -52.7045695,-27.495922199226,0.0 -52.7033828,-27.496291699226,0.0 -52.70188,-27.496693999226,0.0 -52.7009277733608,-27.4969092796828,0.0</coordinates>
</LinearRing>
</outerBoundaryIs>
</Polygon>
<Polygon>
<extrude>0</extrude>
<tessellate>1</tessellate>
<outerBoundaryIs>
<LinearRing>
<coordinates>-52.7055866034181,-27.4954311969907,0.0 -52.705586634,-27.4954311822259,0.0 -52.7056543832012,-27.4953868723608,0.0 -52.7055866034181,-27.4954311969907,0.0</coordinates>
</LinearRing>
</outerBoundaryIs>
</Polygon>
<Polygon>
<extrude>0</extrude>
<tessellate>1</tessellate>
<outerBoundaryIs>
<LinearRing>
<coordinates>-52.7064835222402,-27.4947889250346,0.0 -52.7065842449999,-27.494677708226,0.0 -52.7067924049999,-27.494334301226,0.0 -52.706815932,-27.493935402226,0.0 -52.7068498767927,-27.4936656371739,0.0 -52.7068159,-27.493935399226,0.0 -52.7067924,-27.494334299226,0.0 -52.7065842,-27.494677699226,0.0 -52.7064835222402,-27.4947889250346,0.0</coordinates>
</LinearRing>
</outerBoundaryIs>
</Polygon>
<Polygon>
<extrude>0</extrude>
<tessellate>1</tessellate>
<outerBoundaryIs>
<LinearRing>
<coordinates>-52.7067244951932,-27.4932988949737,0.0 -52.7067244899999,-27.493298884226,0.0 -52.7063595399999,-27.4929759742261,0.0 -52.7059385670792,-27.4926679625819,0.0 -52.7063595,-27.492975999226,0.0 -52.7067244951932,-27.4932988949737,0.0</coordinates>
</LinearRing>
</outerBoundaryIs>
</Polygon>
<Polygon>
<extrude>0</extrude>
<tessellate>1</tessellate>
<outerBoundaryIs>
<LinearRing>
<coordinates>-52.7058495553772,-27.4925955699065,0.0 -52.705541712,-27.492310789226,0.0 -52.7051978439999,-27.492016970226,0.0 -52.7048851389999,-27.491809475226,0.0 -52.7045207049999,-27.491589495226,0.0 -52.7044594147648,-27.491552686252,0.0 -52.7045207,-27.4915894992261,0.0 -52.7048851,-27.4918094992261,0.0 -52.7051978,-27.4920169992261,0.0 -52.7055417,-27.492310799226,0.0 -52.7058495553772,-27.4925955699065,0.0</coordinates>
</LinearRing>
</outerBoundaryIs>
</Polygon>
<Polygon>
<extrude>0</extrude>
<tessellate>1</tessellate>
<outerBoundaryIs>
<LinearRing>
<coordinates>-52.7020306306759,-27.4898980390512,0.0 -52.7017382299999,-27.4896305012261,0.0 -52.7015373620732,-27.4894624265249,0.0 -52.7017382,-27.4896304992261,0.0 -52.7020306306759,-27.4898980390512,0.0</coordinates>
</LinearRing>
</outerBoundaryIs>
</Polygon>
<Polygon>
<extrude>0</extrude>
<tessellate>1</tessellate>
<outerBoundaryIs>
<LinearRing>
<coordinates>-52.6976425709885,-27.4874179011885,0.0 -52.697234468,-27.487222465226,0.0 -52.6969471709304,-27.4870399964417,0.0 -52.6972345,-27.4872224992261,0.0 -52.6976425709885,-27.4874179011885,0.0</coordinates>
</LinearRing>
</outerBoundaryIs>
</Polygon>
</MultiGeometry>
</Placemark>
</Folder>
</Document></kml>
