<?xml version='1.0' encoding='UTF-8'?>
<kml xmlns:xsd="http://www.w3.org/2001/XMLSchema" xmlns:gx="http://www.google.com/kml/ext/2.2" xmlns:atom="http://www.w3.org/2005/Atom" xmlns="http://www.opengis.net/kml/2.2">
<Document>
<name>mato_leitao_4312153_localidades_2022</name>
<visibility>1</visibility>
<Schema name="Vilas" id="kml_schema_ft_Vilas">
<SimpleField type="xsd:string" name="CD_UF">
<displayName>CD_UF</displayName>
</SimpleField>
<SimpleField type="xsd:string" name="NM_UF">
<displayName>NM_UF</displayName>
</SimpleField>
<SimpleField type="xsd:string" name="SIGLA_UF">
<displayName>SIGLA_UF</displayName>
</SimpleField>
<SimpleField type="xsd:string" name="CD_MUN">
<displayName>CD_MUN</displayName>
</SimpleField>
<SimpleField type="xsd:string" name="NM_MUN">
<displayName>NM_MUN</displayName>
</SimpleField>
<SimpleField type="xsd:string" name="CD_RGINT">
<displayName>CD_RGINT</displayName>
</SimpleField>
<SimpleField type="xsd:string" name="NM_RGINT">
<displayName>NM_RGINT</displayName>
</SimpleField>
<SimpleField type="xsd:string" name="CD_RGI">
<displayName>CD_RGI</displayName>
</SimpleField>
<SimpleField type="xsd:string" name="NM_RGI">
<displayName>NM_RGI</displayName>
</SimpleField>
<SimpleField type="xsd:string" name="CT_LOCALIDADE">
<displayName>CT_LOCALIDADE</displayName>
</SimpleField>
<SimpleField type="xsd:string" name="CD_LOCALIDADE">
<displayName>CD_LOCALIDADE</displayName>
</SimpleField>
<SimpleField type="xsd:string" name="NM_LOCALIDADE">
<displayName>NM_LOCALIDADE</displayName>
</SimpleField>
<SimpleField type="xsd:string" name="LAT_LOCALIDADE">
<displayName>LAT_LOCALIDADE</displayName>
</SimpleField>
<SimpleField type="xsd:string" name="LONG_LOCALIDADE">
<displayName>LONG_LOCALIDADE</displayName>
</SimpleField>
</Schema>
<Schema name="Núcleos Urbanos" id="kml_schema_ft_Núcleos_Urbanos">
<SimpleField type="xsd:string" name="CD_UF">
<displayName>CD_UF</displayName>
</SimpleField>
<SimpleField type="xsd:string" name="NM_UF">
<displayName>NM_UF</displayName>
</SimpleField>
<SimpleField type="xsd:string" name="SIGLA_UF">
<displayName>SIGLA_UF</displayName>
</SimpleField>
<SimpleField type="xsd:string" name="CD_MUN">
<displayName>CD_MUN</displayName>
</SimpleField>
<SimpleField type="xsd:string" name="NM_MUN">
<displayName>NM_MUN</displayName>
</SimpleField>
<SimpleField type="xsd:string" name="CD_RGINT">
<displayName>CD_RGINT</displayName>
</SimpleField>
<SimpleField type="xsd:string" name="NM_RGINT">
<displayName>NM_RGINT</displayName>
</SimpleField>
<SimpleField type="xsd:string" name="CD_RGI">
<displayName>CD_RGI</displayName>
</SimpleField>
<SimpleField type="xsd:string" name="NM_RGI">
<displayName>NM_RGI</displayName>
</SimpleField>
<SimpleField type="xsd:string" name="CT_LOCALIDADE">
<displayName>CT_LOCALIDADE</displayName>
</SimpleField>
<SimpleField type="xsd:string" name="CD_LOCALIDADE">
<displayName>CD_LOCALIDADE</displayName>
</SimpleField>
<SimpleField type="xsd:string" name="NM_LOCALIDADE">
<displayName>NM_LOCALIDADE</displayName>
</SimpleField>
<SimpleField type="xsd:string" name="LAT_LOCALIDADE">
<displayName>LAT_LOCALIDADE</displayName>
</SimpleField>
<SimpleField type="xsd:string" name="LONG_LOCALIDADE">
<displayName>LONG_LOCALIDADE</displayName>
</SimpleField>
</Schema>
<Schema name="01. Cidade" id="kml_schema_ft_01._Cidade">
<SimpleField type="xsd:string" name="CD_UF">
<displayName>CD_UF</displayName>
</SimpleField>
<SimpleField type="xsd:string" name="NM_UF">
<displayName>NM_UF</displayName>
</SimpleField>
<SimpleField type="xsd:string" name="SIGLA_UF">
<displayName>SIGLA_UF</displayName>
</SimpleField>
<SimpleField type="xsd:string" name="CD_MUN">
<displayName>CD_MUN</displayName>
</SimpleField>
<SimpleField type="xsd:string" name="NM_MUN">
<displayName>NM_MUN</displayName>
</SimpleField>
<SimpleField type="xsd:string" name="CD_RGINT">
<displayName>CD_RGINT</displayName>
</SimpleField>
<SimpleField type="xsd:string" name="NM_RGINT">
<displayName>NM_RGINT</displayName>
</SimpleField>
<SimpleField type="xsd:string" name="CD_RGI">
<displayName>CD_RGI</displayName>
</SimpleField>
<SimpleField type="xsd:string" name="NM_RGI">
<displayName>NM_RGI</displayName>
</SimpleField>
<SimpleField type="xsd:string" name="CT_LOCALIDADE">
<displayName>CT_LOCALIDADE</displayName>
</SimpleField>
<SimpleField type="xsd:string" name="SCT_LOCALIDADE">
<displayName>SCT_LOCALIDADE</displayName>
</SimpleField>
<SimpleField type="xsd:string" name="CD_LOCALIDADE">
<displayName>CD_LOCALIDADE</displayName>
</SimpleField>
<SimpleField type="xsd:string" name="NM_LOCALIDADE">
<displayName>NM_LOCALIDADE</displayName>
</SimpleField>
<SimpleField type="xsd:string" name="LAT_LOCALIDADE">
<displayName>LAT_LOCALIDADE</displayName>
</SimpleField>
<SimpleField type="xsd:string" name="LONG_LOCALIDADE">
<displayName>LONG_LOCALIDADE</displayName>
</SimpleField>
</Schema>
<Schema name="Município" id="kml_schema_ft_Município">
<SimpleField type="xsd:string" name="CD_UF">
<displayName>CD_UF</displayName>
</SimpleField>
<SimpleField type="xsd:string" name="NM_UF">
<displayName>NM_UF</displayName>
</SimpleField>
<SimpleField type="xsd:string" name="CD_MUN">
<displayName>CD_MUN</displayName>
</SimpleField>
<SimpleField type="xsd:string" name="NM_MUN">
<displayName>NM_MUN</displayName>
</SimpleField>
<SimpleField type="xsd:string" name="CD_RGINT">
<displayName>CD_RGINT</displayName>
</SimpleField>
<SimpleField type="xsd:string" name="NM_RGINT">
<displayName>NM_RGINT</displayName>
</SimpleField>
<SimpleField type="xsd:string" name="CD_RGI">
<displayName>CD_RGI</displayName>
</SimpleField>
<SimpleField type="xsd:string" name="NM_RGI">
<displayName>NM_RGI</displayName>
</SimpleField>
</Schema>
<Folder id="01. Cidade">
<name>01. Cidade</name>
<Folder id="01.03. Sede Municipal">
<name>01.03. Sede Municipal</name>
<Placemark id="01.03. Sede Municipal">
<name>Mato Leitão [4312153]</name>
<visibility>1</visibility>
<snippet> </snippet>
<description>&lt;center&gt;&lt;table&gt;&lt;tr&gt;&lt;th colspan='2' align='center'&gt;&lt;em&gt;Atributos&lt;/em&gt;&lt;/th&gt;&lt;/tr&gt;&lt;tr bgcolor="#E3E3F3"&gt;
&lt;th&gt;CD_UF&lt;/th&gt;
&lt;td&gt;43&lt;/td&gt;
&lt;/tr&gt;&lt;tr bgcolor=""&gt;
&lt;th&gt;NM_UF&lt;/th&gt;
&lt;td&gt;Rio Grande do Sul&lt;/td&gt;
&lt;/tr&gt;&lt;tr bgcolor="#E3E3F3"&gt;
&lt;th&gt;SIGLA_UF&lt;/th&gt;
&lt;td&gt;RS&lt;/td&gt;
&lt;/tr&gt;&lt;tr bgcolor=""&gt;
&lt;th&gt;CD_MUN&lt;/th&gt;
&lt;td&gt;4312153&lt;/td&gt;
&lt;/tr&gt;&lt;tr bgcolor="#E3E3F3"&gt;
&lt;th&gt;NM_MUN&lt;/th&gt;
&lt;td&gt;Mato Leitão&lt;/td&gt;
&lt;/tr&gt;&lt;tr bgcolor=""&gt;
&lt;th&gt;CD_RGINT&lt;/th&gt;
&lt;td&gt;4308&lt;/td&gt;
&lt;/tr&gt;&lt;tr bgcolor="#E3E3F3"&gt;
&lt;th&gt;NM_RGINT&lt;/th&gt;
&lt;td&gt;Santa Cruz do Sul - Lajeado&lt;/td&gt;
&lt;/tr&gt;&lt;tr bgcolor=""&gt;
&lt;th&gt;CD_RGI&lt;/th&gt;
&lt;td&gt;430040&lt;/td&gt;
&lt;/tr&gt;&lt;tr bgcolor="#E3E3F3"&gt;
&lt;th&gt;NM_RGI&lt;/th&gt;
&lt;td&gt;Santa Cruz do Sul&lt;/td&gt;
&lt;/tr&gt;&lt;tr bgcolor=""&gt;
&lt;th&gt;CT_LOCALIDADE&lt;/th&gt;
&lt;td&gt;Cidade&lt;/td&gt;
&lt;/tr&gt;&lt;tr bgcolor="#E3E3F3"&gt;
&lt;th&gt;SCT_LOCALIDADE&lt;/th&gt;
&lt;td&gt;Sede Municipal&lt;/td&gt;
&lt;/tr&gt;&lt;tr bgcolor=""&gt;
&lt;th&gt;CD_LOCALIDADE&lt;/th&gt;
&lt;td&gt;4312153&lt;/td&gt;
&lt;/tr&gt;&lt;tr bgcolor="#E3E3F3"&gt;
&lt;th&gt;NM_LOCALIDADE&lt;/th&gt;
&lt;td&gt;Mato Leitão&lt;/td&gt;
&lt;/tr&gt;&lt;tr bgcolor=""&gt;
&lt;th&gt;LAT_LOCALIDADE&lt;/th&gt;
&lt;td&gt;-29.5248&lt;/td&gt;
&lt;/tr&gt;&lt;tr bgcolor="#E3E3F3"&gt;
&lt;th&gt;LONG_LOCALIDADE&lt;/th&gt;
&lt;td&gt;-52.1279&lt;/td&gt;
&lt;/tr&gt;&lt;/table&gt;&lt;/center&gt;</description>
<Style>
<IconStyle>
<color>ff00aaff</color>
<scale>1.0</scale>
<Icon>
<href>http://maps.google.com/mapfiles/kml/shapes/placemark_circle.png</href>
</Icon>
</IconStyle>
<LabelStyle>
<scale>1.0</scale>
</LabelStyle>
<LineStyle>
<color>ffffffff</color>
<width>3</width>
<gx:labelVisibility>1</gx:labelVisibility>
</LineStyle>
<PolyStyle>
<color>00ffffff</color>
</PolyStyle>
</Style>
<ExtendedData>
<SchemaData schemaUrl="#kml_schema_ft_01._Cidade">
<SimpleData name="CD_UF">43</SimpleData>
<SimpleData name="NM_UF">Rio Grande do Sul</SimpleData>
<SimpleData name="SIGLA_UF">RS</SimpleData>
<SimpleData name="CD_MUN">4312153</SimpleData>
<SimpleData name="NM_MUN">Mato Leitão</SimpleData>
<SimpleData name="CD_RGINT">4308</SimpleData>
<SimpleData name="NM_RGINT">Santa Cruz do Sul - Lajeado</SimpleData>
<SimpleData name="CD_RGI">430040</SimpleData>
<SimpleData name="NM_RGI">Santa Cruz do Sul</SimpleData>
<SimpleData name="CT_LOCALIDADE">Cidade</SimpleData>
<SimpleData name="SCT_LOCALIDADE">Sede Municipal</SimpleData>
<SimpleData name="CD_LOCALIDADE">4312153</SimpleData>
<SimpleData name="NM_LOCALIDADE">Mato Leitão</SimpleData>
<SimpleData name="LAT_LOCALIDADE">-29.5248</SimpleData>
<SimpleData name="LONG_LOCALIDADE">-52.1279</SimpleData>
</SchemaData>
</ExtendedData>
<Point>
<extrude>0</extrude>
<coordinates>-52.127945,-29.5248479991897,0.0</coordinates>
</Point>
</Placemark>
</Folder>
</Folder>
<Folder id="04. Vilas">
<name>04. Vilas</name>
<Placemark id="04. Vilas">
<name>Arroio Bonito [431215315]</name>
<visibility>1</visibility>
<snippet> </snippet>
<description>&lt;center&gt;&lt;table&gt;&lt;tr&gt;&lt;th colspan='2' align='center'&gt;&lt;em&gt;Atributos&lt;/em&gt;&lt;/th&gt;&lt;/tr&gt;&lt;tr bgcolor="#E3E3F3"&gt;
&lt;th&gt;CD_UF&lt;/th&gt;
&lt;td&gt;43&lt;/td&gt;
&lt;/tr&gt;&lt;tr bgcolor=""&gt;
&lt;th&gt;NM_UF&lt;/th&gt;
&lt;td&gt;Rio Grande do Sul&lt;/td&gt;
&lt;/tr&gt;&lt;tr bgcolor="#E3E3F3"&gt;
&lt;th&gt;SIGLA_UF&lt;/th&gt;
&lt;td&gt;RS&lt;/td&gt;
&lt;/tr&gt;&lt;tr bgcolor=""&gt;
&lt;th&gt;CD_MUN&lt;/th&gt;
&lt;td&gt;4312153&lt;/td&gt;
&lt;/tr&gt;&lt;tr bgcolor="#E3E3F3"&gt;
&lt;th&gt;NM_MUN&lt;/th&gt;
&lt;td&gt;Mato Leitão&lt;/td&gt;
&lt;/tr&gt;&lt;tr bgcolor=""&gt;
&lt;th&gt;CD_RGINT&lt;/th&gt;
&lt;td&gt;4308&lt;/td&gt;
&lt;/tr&gt;&lt;tr bgcolor="#E3E3F3"&gt;
&lt;th&gt;NM_RGINT&lt;/th&gt;
&lt;td&gt;Santa Cruz do Sul - Lajeado&lt;/td&gt;
&lt;/tr&gt;&lt;tr bgcolor=""&gt;
&lt;th&gt;CD_RGI&lt;/th&gt;
&lt;td&gt;430040&lt;/td&gt;
&lt;/tr&gt;&lt;tr bgcolor="#E3E3F3"&gt;
&lt;th&gt;NM_RGI&lt;/th&gt;
&lt;td&gt;Santa Cruz do Sul&lt;/td&gt;
&lt;/tr&gt;&lt;tr bgcolor=""&gt;
&lt;th&gt;CT_LOCALIDADE&lt;/th&gt;
&lt;td&gt;Vila&lt;/td&gt;
&lt;/tr&gt;&lt;tr bgcolor="#E3E3F3"&gt;
&lt;th&gt;CD_LOCALIDADE&lt;/th&gt;
&lt;td&gt;431215315&lt;/td&gt;
&lt;/tr&gt;&lt;tr bgcolor=""&gt;
&lt;th&gt;NM_LOCALIDADE&lt;/th&gt;
&lt;td&gt;Arroio Bonito&lt;/td&gt;
&lt;/tr&gt;&lt;tr bgcolor="#E3E3F3"&gt;
&lt;th&gt;LAT_LOCALIDADE&lt;/th&gt;
&lt;td&gt;-29.5153&lt;/td&gt;
&lt;/tr&gt;&lt;tr bgcolor=""&gt;
&lt;th&gt;LONG_LOCALIDADE&lt;/th&gt;
&lt;td&gt;-52.1563&lt;/td&gt;
&lt;/tr&gt;&lt;/table&gt;&lt;/center&gt;</description>
<Style>
<IconStyle>
<color>ffff5400</color>
<scale>1.0</scale>
<Icon>
<href>http://maps.google.com/mapfiles/kml/shapes/placemark_circle.png</href>
</Icon>
</IconStyle>
<LabelStyle>
<scale>0.9</scale>
</LabelStyle>
<LineStyle>
<color>72ffffff</color>
<width>1.0</width>
<gx:labelVisibility>1</gx:labelVisibility>
</LineStyle>
<PolyStyle>
<color>660054ff</color>
</PolyStyle>
</Style>
<ExtendedData>
<SchemaData schemaUrl="#kml_schema_ft_Vilas">
<SimpleData name="CD_UF">43</SimpleData>
<SimpleData name="NM_UF">Rio Grande do Sul</SimpleData>
<SimpleData name="SIGLA_UF">RS</SimpleData>
<SimpleData name="CD_MUN">4312153</SimpleData>
<SimpleData name="NM_MUN">Mato Leitão</SimpleData>
<SimpleData name="CD_RGINT">4308</SimpleData>
<SimpleData name="NM_RGINT">Santa Cruz do Sul - Lajeado</SimpleData>
<SimpleData name="CD_RGI">430040</SimpleData>
<SimpleData name="NM_RGI">Santa Cruz do Sul</SimpleData>
<SimpleData name="CT_LOCALIDADE">Vila</SimpleData>
<SimpleData name="CD_LOCALIDADE">431215315</SimpleData>
<SimpleData name="NM_LOCALIDADE">Arroio Bonito</SimpleData>
<SimpleData name="LAT_LOCALIDADE">-29.5153</SimpleData>
<SimpleData name="LONG_LOCALIDADE">-52.1563</SimpleData>
</SchemaData>
</ExtendedData>
<Point>
<extrude>0</extrude>
<coordinates>-52.156341,-29.5152559991899,0.0</coordinates>
</Point>
</Placemark>
<Placemark id="04. Vilas">
<name>Sampaio [431215340]</name>
<visibility>1</visibility>
<snippet> </snippet>
<description>&lt;center&gt;&lt;table&gt;&lt;tr&gt;&lt;th colspan='2' align='center'&gt;&lt;em&gt;Atributos&lt;/em&gt;&lt;/th&gt;&lt;/tr&gt;&lt;tr bgcolor="#E3E3F3"&gt;
&lt;th&gt;CD_UF&lt;/th&gt;
&lt;td&gt;43&lt;/td&gt;
&lt;/tr&gt;&lt;tr bgcolor=""&gt;
&lt;th&gt;NM_UF&lt;/th&gt;
&lt;td&gt;Rio Grande do Sul&lt;/td&gt;
&lt;/tr&gt;&lt;tr bgcolor="#E3E3F3"&gt;
&lt;th&gt;SIGLA_UF&lt;/th&gt;
&lt;td&gt;RS&lt;/td&gt;
&lt;/tr&gt;&lt;tr bgcolor=""&gt;
&lt;th&gt;CD_MUN&lt;/th&gt;
&lt;td&gt;4312153&lt;/td&gt;
&lt;/tr&gt;&lt;tr bgcolor="#E3E3F3"&gt;
&lt;th&gt;NM_MUN&lt;/th&gt;
&lt;td&gt;Mato Leitão&lt;/td&gt;
&lt;/tr&gt;&lt;tr bgcolor=""&gt;
&lt;th&gt;CD_RGINT&lt;/th&gt;
&lt;td&gt;4308&lt;/td&gt;
&lt;/tr&gt;&lt;tr bgcolor="#E3E3F3"&gt;
&lt;th&gt;NM_RGINT&lt;/th&gt;
&lt;td&gt;Santa Cruz do Sul - Lajeado&lt;/td&gt;
&lt;/tr&gt;&lt;tr bgcolor=""&gt;
&lt;th&gt;CD_RGI&lt;/th&gt;
&lt;td&gt;430040&lt;/td&gt;
&lt;/tr&gt;&lt;tr bgcolor="#E3E3F3"&gt;
&lt;th&gt;NM_RGI&lt;/th&gt;
&lt;td&gt;Santa Cruz do Sul&lt;/td&gt;
&lt;/tr&gt;&lt;tr bgcolor=""&gt;
&lt;th&gt;CT_LOCALIDADE&lt;/th&gt;
&lt;td&gt;Vila&lt;/td&gt;
&lt;/tr&gt;&lt;tr bgcolor="#E3E3F3"&gt;
&lt;th&gt;CD_LOCALIDADE&lt;/th&gt;
&lt;td&gt;431215340&lt;/td&gt;
&lt;/tr&gt;&lt;tr bgcolor=""&gt;
&lt;th&gt;NM_LOCALIDADE&lt;/th&gt;
&lt;td&gt;Sampaio&lt;/td&gt;
&lt;/tr&gt;&lt;tr bgcolor="#E3E3F3"&gt;
&lt;th&gt;LAT_LOCALIDADE&lt;/th&gt;
&lt;td&gt;-29.4833&lt;/td&gt;
&lt;/tr&gt;&lt;tr bgcolor=""&gt;
&lt;th&gt;LONG_LOCALIDADE&lt;/th&gt;
&lt;td&gt;-52.1517&lt;/td&gt;
&lt;/tr&gt;&lt;/table&gt;&lt;/center&gt;</description>
<Style>
<IconStyle>
<color>ffff5400</color>
<scale>1.0</scale>
<Icon>
<href>http://maps.google.com/mapfiles/kml/shapes/placemark_circle.png</href>
</Icon>
</IconStyle>
<LabelStyle>
<scale>0.9</scale>
</LabelStyle>
<LineStyle>
<color>72ffffff</color>
<width>1.0</width>
<gx:labelVisibility>1</gx:labelVisibility>
</LineStyle>
<PolyStyle>
<color>660054ff</color>
</PolyStyle>
</Style>
<ExtendedData>
<SchemaData schemaUrl="#kml_schema_ft_Vilas">
<SimpleData name="CD_UF">43</SimpleData>
<SimpleData name="NM_UF">Rio Grande do Sul</SimpleData>
<SimpleData name="SIGLA_UF">RS</SimpleData>
<SimpleData name="CD_MUN">4312153</SimpleData>
<SimpleData name="NM_MUN">Mato Leitão</SimpleData>
<SimpleData name="CD_RGINT">4308</SimpleData>
<SimpleData name="NM_RGINT">Santa Cruz do Sul - Lajeado</SimpleData>
<SimpleData name="CD_RGI">430040</SimpleData>
<SimpleData name="NM_RGI">Santa Cruz do Sul</SimpleData>
<SimpleData name="CT_LOCALIDADE">Vila</SimpleData>
<SimpleData name="CD_LOCALIDADE">431215340</SimpleData>
<SimpleData name="NM_LOCALIDADE">Sampaio</SimpleData>
<SimpleData name="LAT_LOCALIDADE">-29.4833</SimpleData>
<SimpleData name="LONG_LOCALIDADE">-52.1517</SimpleData>
</SchemaData>
</ExtendedData>
<Point>
<extrude>0</extrude>
<coordinates>-52.151657,-29.4832589991905,0.0</coordinates>
</Point>
</Placemark>
<Placemark id="04. Vilas">
<name>Santo Antônio [431215345]</name>
<visibility>1</visibility>
<snippet> </snippet>
<description>&lt;center&gt;&lt;table&gt;&lt;tr&gt;&lt;th colspan='2' align='center'&gt;&lt;em&gt;Atributos&lt;/em&gt;&lt;/th&gt;&lt;/tr&gt;&lt;tr bgcolor="#E3E3F3"&gt;
&lt;th&gt;CD_UF&lt;/th&gt;
&lt;td&gt;43&lt;/td&gt;
&lt;/tr&gt;&lt;tr bgcolor=""&gt;
&lt;th&gt;NM_UF&lt;/th&gt;
&lt;td&gt;Rio Grande do Sul&lt;/td&gt;
&lt;/tr&gt;&lt;tr bgcolor="#E3E3F3"&gt;
&lt;th&gt;SIGLA_UF&lt;/th&gt;
&lt;td&gt;RS&lt;/td&gt;
&lt;/tr&gt;&lt;tr bgcolor=""&gt;
&lt;th&gt;CD_MUN&lt;/th&gt;
&lt;td&gt;4312153&lt;/td&gt;
&lt;/tr&gt;&lt;tr bgcolor="#E3E3F3"&gt;
&lt;th&gt;NM_MUN&lt;/th&gt;
&lt;td&gt;Mato Leitão&lt;/td&gt;
&lt;/tr&gt;&lt;tr bgcolor=""&gt;
&lt;th&gt;CD_RGINT&lt;/th&gt;
&lt;td&gt;4308&lt;/td&gt;
&lt;/tr&gt;&lt;tr bgcolor="#E3E3F3"&gt;
&lt;th&gt;NM_RGINT&lt;/th&gt;
&lt;td&gt;Santa Cruz do Sul - Lajeado&lt;/td&gt;
&lt;/tr&gt;&lt;tr bgcolor=""&gt;
&lt;th&gt;CD_RGI&lt;/th&gt;
&lt;td&gt;430040&lt;/td&gt;
&lt;/tr&gt;&lt;tr bgcolor="#E3E3F3"&gt;
&lt;th&gt;NM_RGI&lt;/th&gt;
&lt;td&gt;Santa Cruz do Sul&lt;/td&gt;
&lt;/tr&gt;&lt;tr bgcolor=""&gt;
&lt;th&gt;CT_LOCALIDADE&lt;/th&gt;
&lt;td&gt;Vila&lt;/td&gt;
&lt;/tr&gt;&lt;tr bgcolor="#E3E3F3"&gt;
&lt;th&gt;CD_LOCALIDADE&lt;/th&gt;
&lt;td&gt;431215345&lt;/td&gt;
&lt;/tr&gt;&lt;tr bgcolor=""&gt;
&lt;th&gt;NM_LOCALIDADE&lt;/th&gt;
&lt;td&gt;Santo Antônio&lt;/td&gt;
&lt;/tr&gt;&lt;tr bgcolor="#E3E3F3"&gt;
&lt;th&gt;LAT_LOCALIDADE&lt;/th&gt;
&lt;td&gt;-29.5474&lt;/td&gt;
&lt;/tr&gt;&lt;tr bgcolor=""&gt;
&lt;th&gt;LONG_LOCALIDADE&lt;/th&gt;
&lt;td&gt;-52.1514&lt;/td&gt;
&lt;/tr&gt;&lt;/table&gt;&lt;/center&gt;</description>
<Style>
<IconStyle>
<color>ffff5400</color>
<scale>1.0</scale>
<Icon>
<href>http://maps.google.com/mapfiles/kml/shapes/placemark_circle.png</href>
</Icon>
</IconStyle>
<LabelStyle>
<scale>0.9</scale>
</LabelStyle>
<LineStyle>
<color>72ffffff</color>
<width>1.0</width>
<gx:labelVisibility>1</gx:labelVisibility>
</LineStyle>
<PolyStyle>
<color>660054ff</color>
</PolyStyle>
</Style>
<ExtendedData>
<SchemaData schemaUrl="#kml_schema_ft_Vilas">
<SimpleData name="CD_UF">43</SimpleData>
<SimpleData name="NM_UF">Rio Grande do Sul</SimpleData>
<SimpleData name="SIGLA_UF">RS</SimpleData>
<SimpleData name="CD_MUN">4312153</SimpleData>
<SimpleData name="NM_MUN">Mato Leitão</SimpleData>
<SimpleData name="CD_RGINT">4308</SimpleData>
<SimpleData name="NM_RGINT">Santa Cruz do Sul - Lajeado</SimpleData>
<SimpleData name="CD_RGI">430040</SimpleData>
<SimpleData name="NM_RGI">Santa Cruz do Sul</SimpleData>
<SimpleData name="CT_LOCALIDADE">Vila</SimpleData>
<SimpleData name="CD_LOCALIDADE">431215345</SimpleData>
<SimpleData name="NM_LOCALIDADE">Santo Antônio</SimpleData>
<SimpleData name="LAT_LOCALIDADE">-29.5474</SimpleData>
<SimpleData name="LONG_LOCALIDADE">-52.1514</SimpleData>
</SchemaData>
</ExtendedData>
<Point>
<extrude>0</extrude>
<coordinates>-52.151355,-29.5473739991894,0.0</coordinates>
</Point>
</Placemark>
</Folder>
<Folder id="05. Núcleos Urbanos">
<name>05. Núcleos Urbanos</name>
<Placemark id="localidades">
<name>Santo Antônio [4312153001]</name>
<visibility>1</visibility>
<snippet> </snippet>
<description>&lt;center&gt;&lt;table&gt;&lt;tr&gt;&lt;th colspan='2' align='center'&gt;&lt;em&gt;Attributes&lt;/em&gt;&lt;/th&gt;&lt;/tr&gt;&lt;tr bgcolor="#E3E3F3"&gt;
&lt;th&gt;CD_UF&lt;/th&gt;
&lt;td&gt;43&lt;/td&gt;
&lt;/tr&gt;&lt;tr bgcolor=""&gt;
&lt;th&gt;NM_UF&lt;/th&gt;
&lt;td&gt;Rio Grande do Sul&lt;/td&gt;
&lt;/tr&gt;&lt;tr bgcolor="#E3E3F3"&gt;
&lt;th&gt;SIGLA_UF&lt;/th&gt;
&lt;td&gt;RS&lt;/td&gt;
&lt;/tr&gt;&lt;tr bgcolor=""&gt;
&lt;th&gt;CD_MUN&lt;/th&gt;
&lt;td&gt;4312153&lt;/td&gt;
&lt;/tr&gt;&lt;tr bgcolor="#E3E3F3"&gt;
&lt;th&gt;NM_MUN&lt;/th&gt;
&lt;td&gt;Mato Leitão&lt;/td&gt;
&lt;/tr&gt;&lt;tr bgcolor=""&gt;
&lt;th&gt;CD_RGINT&lt;/th&gt;
&lt;td&gt;4308&lt;/td&gt;
&lt;/tr&gt;&lt;tr bgcolor="#E3E3F3"&gt;
&lt;th&gt;NM_RGINT&lt;/th&gt;
&lt;td&gt;Santa Cruz do Sul - Lajeado&lt;/td&gt;
&lt;/tr&gt;&lt;tr bgcolor=""&gt;
&lt;th&gt;CD_RGI&lt;/th&gt;
&lt;td&gt;430040&lt;/td&gt;
&lt;/tr&gt;&lt;tr bgcolor="#E3E3F3"&gt;
&lt;th&gt;NM_RGI&lt;/th&gt;
&lt;td&gt;Santa Cruz do Sul&lt;/td&gt;
&lt;/tr&gt;&lt;tr bgcolor=""&gt;
&lt;th&gt;CT_LOCALIDADE&lt;/th&gt;
&lt;td&gt;Núcleo Urbano&lt;/td&gt;
&lt;/tr&gt;&lt;tr bgcolor="#E3E3F3"&gt;
&lt;th&gt;CD_LOCALIDADE&lt;/th&gt;
&lt;td&gt;4312153001&lt;/td&gt;
&lt;/tr&gt;&lt;tr bgcolor=""&gt;
&lt;th&gt;NM_LOCALIDADE&lt;/th&gt;
&lt;td&gt;Santo Antônio&lt;/td&gt;
&lt;/tr&gt;&lt;tr bgcolor="#E3E3F3"&gt;
&lt;th&gt;LAT_LOCALIDADE&lt;/th&gt;
&lt;td&gt;-29.5515&lt;/td&gt;
&lt;/tr&gt;&lt;tr bgcolor=""&gt;
&lt;th&gt;LONG_LOCALIDADE&lt;/th&gt;
&lt;td&gt;-52.1355&lt;/td&gt;
&lt;/tr&gt;&lt;/table&gt;&lt;/center&gt;</description>
<Style>
<IconStyle>
<color>ff0000ff</color>
<scale>0.9</scale>
<Icon>
<href>http://maps.google.com/mapfiles/kml/shapes/placemark_circle.png</href>
</Icon>
</IconStyle>
<LabelStyle>
<scale>0.9</scale>
</LabelStyle>
<LineStyle>
<color>72ffffff</color>
<width>1.0</width>
<gx:labelVisibility>1</gx:labelVisibility>
</LineStyle>
<PolyStyle>
<color>66ff54ff</color>
</PolyStyle>
</Style>
<ExtendedData>
<SchemaData schemaUrl="#kml_schema_ft_Núcleos_Urbanos">
<SimpleData name="CD_UF">43</SimpleData>
<SimpleData name="NM_UF">Rio Grande do Sul</SimpleData>
<SimpleData name="SIGLA_UF">RS</SimpleData>
<SimpleData name="CD_MUN">4312153</SimpleData>
<SimpleData name="NM_MUN">Mato Leitão</SimpleData>
<SimpleData name="CD_RGINT">4308</SimpleData>
<SimpleData name="NM_RGINT">Santa Cruz do Sul - Lajeado</SimpleData>
<SimpleData name="CD_RGI">430040</SimpleData>
<SimpleData name="NM_RGI">Santa Cruz do Sul</SimpleData>
<SimpleData name="CT_LOCALIDADE">Núcleo Urbano</SimpleData>
<SimpleData name="CD_LOCALIDADE">4312153001</SimpleData>
<SimpleData name="NM_LOCALIDADE">Santo Antônio</SimpleData>
<SimpleData name="LAT_LOCALIDADE">-29.5515</SimpleData>
<SimpleData name="LONG_LOCALIDADE">-52.1355</SimpleData>
</SchemaData>
</ExtendedData>
<Point>
<extrude>0</extrude>
<coordinates>-52.135465074074,-29.5514564436337,0.0</coordinates>
</Point>
</Placemark>
</Folder>
<Folder id="13. Referência">
<name>13. Referência</name>
<Placemark id="13. Referência">
<name>Mato Leitão [4312153]</name>
<visibility>1</visibility>
<snippet> </snippet>
<description>&lt;center&gt;&lt;table&gt;&lt;tr&gt;&lt;th colspan='2' align='center'&gt;&lt;em&gt;Attributes&lt;/em&gt;&lt;/th&gt;&lt;/tr&gt;&lt;tr bgcolor="#E3E3F3"&gt;
&lt;th&gt;CD_UF&lt;/th&gt;
&lt;td&gt;43&lt;/td&gt;
&lt;/tr&gt;&lt;tr bgcolor=""&gt;
&lt;th&gt;NM_UF&lt;/th&gt;
&lt;td&gt;Rio Grande do Sul&lt;/td&gt;
&lt;/tr&gt;&lt;tr bgcolor="#E3E3F3"&gt;
&lt;th&gt;CD_MUN&lt;/th&gt;
&lt;td&gt;4312153&lt;/td&gt;
&lt;/tr&gt;&lt;tr bgcolor=""&gt;
&lt;th&gt;NM_MUN&lt;/th&gt;
&lt;td&gt;Mato Leitão&lt;/td&gt;
&lt;/tr&gt;&lt;tr bgcolor="#E3E3F3"&gt;
&lt;th&gt;CD_RGINT&lt;/th&gt;
&lt;td&gt;4308&lt;/td&gt;
&lt;/tr&gt;&lt;tr bgcolor=""&gt;
&lt;th&gt;NM_RGINT&lt;/th&gt;
&lt;td&gt;Santa Cruz do Sul - Lajeado&lt;/td&gt;
&lt;/tr&gt;&lt;tr bgcolor="#E3E3F3"&gt;
&lt;th&gt;CD_RGI&lt;/th&gt;
&lt;td&gt;430040&lt;/td&gt;
&lt;/tr&gt;&lt;tr bgcolor=""&gt;
&lt;th&gt;NM_RGI&lt;/th&gt;
&lt;td&gt;Santa Cruz do Sul&lt;/td&gt;
&lt;/tr&gt;&lt;/table&gt;&lt;/center&gt;</description>
<Style>
<IconStyle>
<scale>0.7</scale>
</IconStyle>
<LabelStyle>
<scale>0.7</scale>
</LabelStyle>
<LineStyle>
<color>ffffffff</color>
<width>3</width>
<gx:labelVisibility>1</gx:labelVisibility>
</LineStyle>
<PolyStyle>
<color>00ffffff</color>
</PolyStyle>
</Style>
<ExtendedData>
<SchemaData schemaUrl="#kml_schema_ft_Município">
<SimpleData name="CD_UF">43</SimpleData>
<SimpleData name="NM_UF">Rio Grande do Sul</SimpleData>
<SimpleData name="CD_MUN">4312153</SimpleData>
<SimpleData name="NM_MUN">Mato Leitão</SimpleData>
<SimpleData name="CD_RGINT">4308</SimpleData>
<SimpleData name="NM_RGINT">Santa Cruz do Sul - Lajeado</SimpleData>
<SimpleData name="CD_RGI">430040</SimpleData>
<SimpleData name="NM_RGI">Santa Cruz do Sul</SimpleData>
</SchemaData>
</ExtendedData>
<MultiGeometry>
<Polygon>
<extrude>0</extrude>
<tessellate>1</tessellate>
<outerBoundaryIs>
<LinearRing>
<coordinates>-52.1079961,-29.51231699919,0.0 -52.1081479,-29.51347729919,0.0 -52.1082288,-29.5140719991899,0.0 -52.1084507,-29.5159906991899,0.0 -52.1086457,-29.5172562991899,0.0 -52.1088692,-29.5193767991898,0.0 -52.1089243,-29.5210463991898,0.0 -52.1089674,-29.5225407991898,0.0 -52.0938051,-29.5294575991897,0.0 -52.0923626,-29.5301174991897,0.0 -52.0931948,-29.5309369991897,0.0 -52.0937675,-29.5314224991896,0.0 -52.0945653,-29.5320179991896,0.0 -52.0956255,-29.5326295991896,0.0 -52.0986787,-29.5341162991896,0.0 -52.0978204,-29.5341635991896,0.0 -52.0969382,-29.5342881991896,0.0 -52.0970219,-29.5354133991896,0.0 -52.0971607,-29.5376046991895,0.0 -52.0972257,-29.5397368991895,0.0 -52.0972801,-29.5414777991895,0.0 -52.0973833,-29.5430215991894,0.0 -52.0974509,-29.5457250991894,0.0 -52.0975463,-29.5462762991894,0.0 -52.0978097,-29.5465440991894,0.0 -52.098163,-29.5467533991894,0.0 -52.0984219,-29.5470987991894,0.0 -52.098679,-29.5473156991894,0.0 -52.0990891,-29.5475324991894,0.0 -52.0997042,-29.5477346991894,0.0 -52.1000844,-29.5478814991894,0.0 -52.1004579,-29.5480763991894,0.0 -52.1006503,-29.5482119991894,0.0 -52.1007959,-29.5483522991894,0.0 -52.1009547,-29.5484312991894,0.0 -52.1011067,-29.5484526991894,0.0 -52.1011849,-29.5485478991894,0.0 -52.101231,-29.5486623991893,0.0 -52.1013002,-29.5489234991893,0.0 -52.1013981,-29.5496432991893,0.0 -52.1015057,-29.5501192991893,0.0 -52.1018324,-29.5508349991893,0.0 -52.1020886,-29.5516540991893,0.0 -52.1020684,-29.5520787991893,0.0 -52.1019212,-29.5524638991893,0.0 -52.1019717,-29.5527056991893,0.0 -52.1020993,-29.5530604991893,0.0 -52.1020843,-29.5534847991893,0.0 -52.1021782,-29.5538694991893,0.0 -52.1025265,-29.5542800991893,0.0 -52.1037831,-29.5554886991892,0.0 -52.1047529,-29.5565560991892,0.0 -52.1048316,-29.5568405991892,0.0 -52.1048916,-29.5576553991892,0.0 -52.1051326,-29.5585824991892,0.0 -52.1057782,-29.5595835991892,0.0 -52.1061191,-29.5599284991892,0.0 -52.1072174,-29.5601838991892,0.0 -52.1074503,-29.5602668991892,0.0 -52.1078866,-29.5604784991892,0.0 -52.1086882,-29.5608218991892,0.0 -52.109597,-29.5611356991892,0.0 -52.1099466,-29.5613313991891,0.0 -52.1103072,-29.5612524991891,0.0 -52.110653,-29.5612175991891,0.0 -52.1113133,-29.5613583991891,0.0 -52.1114483,-29.5614041991891,0.0 -52.1115728,-29.5614315991891,0.0 -52.111655,-29.5614166991891,0.0 -52.1117921,-29.5613450991891,0.0 -52.1120151,-29.5611801991891,0.0 -52.1122359,-29.5608590991891,0.0 -52.1128371,-29.5599887991892,0.0 -52.1139499,-29.5590011991892,0.0 -52.114504,-29.5585133991892,0.0 -52.1148675,-29.5583133991892,0.0 -52.1153106,-29.5582457991892,0.0 -52.1174467,-29.5578246991892,0.0 -52.1184013,-29.5576042991892,0.0 -52.1185013,-29.5575319991892,0.0 -52.1186027,-29.5572537991892,0.0 -52.1186894,-29.5571983991892,0.0 -52.1196365,-29.5571433991892,0.0 -52.1200681,-29.5570648991892,0.0 -52.1204107,-29.5570700991892,0.0 -52.1209077,-29.5572017991892,0.0 -52.1216731,-29.5574754991892,0.0 -52.1224418,-29.5576094991892,0.0 -52.1232323,-29.5574584991892,0.0 -52.1236075,-29.5572645991892,0.0 -52.1239066,-29.5570575991892,0.0 -52.1239466,-29.5568438991892,0.0 -52.1239303,-29.5565556991892,0.0 -52.1240219,-29.5563542991892,0.0 -52.1244868,-29.5559830991892,0.0 -52.1246805,-29.5557506991892,0.0 -52.1247426,-29.5556659991892,0.0 -52.1249293,-29.5556393991892,0.0 -52.1252555,-29.5557657991892,0.0 -52.1256048,-29.5559761991892,0.0 -52.1272528,-29.5562636991892,0.0 -52.1277991,-29.5560544991892,0.0 -52.1284132,-29.5561873991892,0.0 -52.1286529,-29.5562013991892,0.0 -52.1282805,-29.5531621991893,0.0 -52.1311215,-29.5546352991893,0.0 -52.1347057,-29.5565897991892,0.0 -52.1407187,-29.5597959991892,0.0 -52.145917,-29.5628113991891,0.0 -52.1476032,-29.5640229991891,0.0 -52.1482231,-29.5644974991891,0.0 -52.167518,-29.5455351991894,0.0 -52.1671971,-29.5391212991895,0.0 -52.167267,-29.5389486991895,0.0 -52.1682808,-29.5166048991899,0.0 -52.1749977,-29.5144700991899,0.0 -52.1744167,-29.5063920991901,0.0 -52.1799982,-29.5039371991901,0.0 -52.1800666,-29.5002157991902,0.0 -52.1563034,-29.5003730991902,0.0 -52.1557901,-29.4816194991905,0.0 -52.1558007,-29.4769021991906,0.0 -52.1555635,-29.4770472991906,0.0 -52.1553449,-29.4772460991906,0.0 -52.1551245,-29.4775446991905,0.0 -52.1549008,-29.4779709991906,0.0 -52.1545086,-29.4786918991905,0.0 -52.154202,-29.4792460991905,0.0 -52.1541068,-29.4793519991905,0.0 -52.1539815,-29.4794271991905,0.0 -52.1536937,-29.4794953991905,0.0 -52.1533031,-29.4795608991905,0.0 -52.152758,-29.4796070991905,0.0 -52.1526022,-29.4796457991905,0.0 -52.1511305,-29.4801291991905,0.0 -52.151002,-29.4801644991905,0.0 -52.1508674,-29.4801700991905,0.0 -52.1501349,-29.4801502991905,0.0 -52.1500126,-29.4801626991905,0.0 -52.149903,-29.4802054991905,0.0 -52.1495929,-29.4804064991905,0.0 -52.1494674,-29.4805148991905,0.0 -52.1491876,-29.4808663991905,0.0 -52.1490166,-29.4812435991905,0.0 -52.148862,-29.4815025991905,0.0 -52.148685,-29.4817330991905,0.0 -52.1485098,-29.4819132991905,0.0 -52.1484071,-29.4821008991905,0.0 -52.1482425,-29.4827718991905,0.0 -52.1481292,-29.4830443991905,0.0 -52.1479757,-29.4833502991905,0.0 -52.1478973,-29.4834142991905,0.0 -52.1477911,-29.4834398991905,0.0 -52.1470583,-29.4833285991905,0.0 -52.1470065,-29.4832965991904,0.0 -52.1469671,-29.4832571991905,0.0 -52.1469393,-29.4832062991905,0.0 -52.1469304,-29.4831420991905,0.0 -52.1469534,-29.4829938991905,0.0 -52.1470164,-29.4828085991905,0.0 -52.1470904,-29.4823842991905,0.0 -52.1470809,-29.4820893991905,0.0 -52.1470437,-29.4818504991905,0.0 -52.1469928,-29.4816021991905,0.0 -52.146938,-29.4814790991905,0.0 -52.1469105,-29.4814432991905,0.0 -52.1468817,-29.4814149991905,0.0 -52.1468459,-29.4813915991905,0.0 -52.1468,-29.4813815991905,0.0 -52.1464321,-29.4814220991905,0.0 -52.1463622,-29.4814278991905,0.0 -52.1462941,-29.4814220991905,0.0 -52.1458763,-29.4813370991905,0.0 -52.1454346,-29.4813321991905,0.0 -52.1450656,-29.4813406991905,0.0 -52.1447187,-29.4813831991905,0.0 -52.144308,-29.4815211991905,0.0 -52.1439628,-29.4816838991905,0.0 -52.1435221,-29.4819566991905,0.0 -52.1431495,-29.4822907991905,0.0 -52.1426689,-29.4830859991905,0.0 -52.1422366,-29.4840575991904,0.0 -52.1421716,-29.4842356991904,0.0 -52.1420633,-29.4844750991904,0.0 -52.1419352,-29.4848234991904,0.0 -52.1418618,-29.4850837991904,0.0 -52.1417997,-29.4853662991904,0.0 -52.1417271,-29.4857157991904,0.0 -52.1416819,-29.4860138991904,0.0 -52.1416684,-29.4862812991904,0.0 -52.1416808,-29.4866350991904,0.0 -52.1416371,-29.4868717991904,0.0 -52.1414806,-29.4871041991904,0.0 -52.1401045,-29.4880223991904,0.0 -52.1395395,-29.4884213991904,0.0 -52.139203,-29.4887528991904,0.0 -52.1388155,-29.4889272991904,0.0 -52.1381012,-29.4894180991904,0.0 -52.137723,-29.4895945991903,0.0 -52.1370039,-29.4898167991904,0.0 -52.1366437,-29.4899853991903,0.0 -52.1354392,-29.4909518991903,0.0 -52.1351306,-29.4911328991903,0.0 -52.1348154,-29.4911909991903,0.0 -52.1339017,-29.4911694991903,0.0 -52.1336499,-29.4912716991903,0.0 -52.133546,-29.4914610991903,0.0 -52.1334393,-29.4921594991903,0.0 -52.1332994,-29.4924169991903,0.0 -52.1331348,-29.4925078991903,0.0 -52.1328646,-29.4925259991903,0.0 -52.1323144,-29.4924284991903,0.0 -52.1317371,-29.4921929991903,0.0 -52.1309818,-29.4917589991903,0.0 -52.1304384,-29.4915067991903,0.0 -52.130115,-29.4914355991903,0.0 -52.1297953,-29.4914649991903,0.0 -52.1290487,-29.4918902991903,0.0 -52.1289076,-29.4920294991903,0.0 -52.1288759,-29.4921906991903,0.0 -52.1289969,-29.4924926991903,0.0 -52.1292709,-29.4930287991903,0.0 -52.1296854,-29.4934364991903,0.0 -52.1302621,-29.4937602991903,0.0 -52.130643,-29.4939425991903,0.0 -52.1308737,-29.4940773991903,0.0 -52.1310125,-29.4942563991903,0.0 -52.1310353,-29.4944161991903,0.0 -52.1309674,-29.4946365991903,0.0 -52.1307818,-29.4949081991903,0.0 -52.1302653,-29.4953584991902,0.0 -52.1296321,-29.4957604991902,0.0 -52.1289652,-29.4960807991902,0.0 -52.128449,-29.4962339991902,0.0 -52.1278598,-29.4963579991902,0.0 -52.1272937,-29.4964403991902,0.0 -52.126889,-29.4964499991902,0.0 -52.1265369,-29.4963009991902,0.0 -52.126217,-29.4958757991902,0.0 -52.125638,-29.4954084991903,0.0 -52.1250784,-29.4947209991903,0.0 -52.1246913,-29.4943832991903,0.0 -52.1242176,-29.4941831991903,0.0 -52.123495,-29.4940938991903,0.0 -52.1232382,-29.4941238991903,0.0 -52.123009,-29.4942346991903,0.0 -52.1228144,-29.4944963991903,0.0 -52.1225652,-29.4951031991903,0.0 -52.1224155,-29.4953521991903,0.0 -52.1222344,-29.4954107991902,0.0 -52.1220431,-29.4953664991903,0.0 -52.1218739,-29.4952350991903,0.0 -52.1216828,-29.4950869991903,0.0 -52.1214126,-29.4949408991903,0.0 -52.1211763,-29.4948800991903,0.0 -52.1207921,-29.4949085991903,0.0 -52.1203061,-29.4950185991903,0.0 -52.1198104,-29.4951699991903,0.0 -52.1192147,-29.4954155991903,0.0 -52.118311,-29.4957544991902,0.0 -52.1175916,-29.4960018991902,0.0 -52.1172223,-29.4960771991902,0.0 -52.1167592,-29.4961062991902,0.0 -52.1161409,-29.4962510991902,0.0 -52.1159065,-29.4963399991902,0.0 -52.1156793,-29.4963051991902,0.0 -52.1155568,-29.4962003991902,0.0 -52.1155132,-29.4959981991902,0.0 -52.1156374,-29.4956208991902,0.0 -52.1157141,-29.4953762991903,0.0 -52.1157191,-29.4952126991903,0.0 -52.1156601,-29.4950703991903,0.0 -52.1154095,-29.4948634991903,0.0 -52.1151784,-29.4947635991903,0.0 -52.1149441,-29.4947613991903,0.0 -52.1143547,-29.4948895991903,0.0 -52.1140885,-29.4948756991903,0.0 -52.1138815,-29.4947715991903,0.0 -52.1135289,-29.4944068991903,0.0 -52.1133489,-29.4942989991903,0.0 -52.1131634,-29.4942787991903,0.0 -52.1129754,-29.4943590991903,0.0 -52.1127155,-29.4946061991903,0.0 -52.1123476,-29.4948776991903,0.0 -52.1120996,-29.4950023991903,0.0 -52.1117393,-29.4953200991903,0.0 -52.1113685,-29.4955162991903,0.0 -52.1108096,-29.4957564991902,0.0 -52.1100708,-29.4959878991903,0.0 -52.1095976,-29.4961250991902,0.0 -52.1090537,-29.4963067991902,0.0 -52.1082628,-29.4964734991902,0.0 -52.1078721,-29.4964942991902,0.0 -52.1074072,-29.4964812991902,0.0 -52.1068666,-29.4964248991902,0.0 -52.1065998,-29.4963569991902,0.0 -52.106578,-29.4966651991902,0.0 -52.1065734,-29.4968316991902,0.0 -52.1066163,-29.4969825991902,0.0 -52.1066769,-29.4971274991902,0.0 -52.1067878,-29.4973173991902,0.0 -52.1068673,-29.4975671991902,0.0 -52.1069036,-29.4979917991902,0.0 -52.1070209,-29.5010032991902,0.0 -52.1070829,-29.5037409991901,0.0 -52.107138,-29.5047851991901,0.0 -52.1074538,-29.50777989919,0.0 -52.1078528,-29.51109409919,0.0 -52.1079961,-29.51231699919,0.0</coordinates>
</LinearRing>
</outerBoundaryIs>
</Polygon>
</MultiGeometry>
</Placemark>
</Folder>
</Document></kml>
