<?xml version='1.0' encoding='UTF-8'?>
<kml xmlns:xsd="http://www.w3.org/2001/XMLSchema" xmlns:gx="http://www.google.com/kml/ext/2.2" xmlns:atom="http://www.w3.org/2005/Atom" xmlns="http://www.opengis.net/kml/2.2">
<Document>
<name>nova_palma_4313102_localidades_2022</name>
<visibility>1</visibility>
<Schema name="Agrupamentos Quilombolas" id="kml_schema_ft_Agrupamentos_Quilombolas">
<SimpleField type="xsd:string" name="CD_UF">
<displayName>CD_UF</displayName>
</SimpleField>
<SimpleField type="xsd:string" name="NM_UF">
<displayName>NM_UF</displayName>
</SimpleField>
<SimpleField type="xsd:string" name="SIGLA_UF">
<displayName>SIGLA_UF</displayName>
</SimpleField>
<SimpleField type="xsd:string" name="CD_MUN">
<displayName>CD_MUN</displayName>
</SimpleField>
<SimpleField type="xsd:string" name="NM_MUN">
<displayName>NM_MUN</displayName>
</SimpleField>
<SimpleField type="xsd:string" name="CD_RGINT">
<displayName>CD_RGINT</displayName>
</SimpleField>
<SimpleField type="xsd:string" name="NM_RGINT">
<displayName>NM_RGINT</displayName>
</SimpleField>
<SimpleField type="xsd:string" name="CD_RGI">
<displayName>CD_RGI</displayName>
</SimpleField>
<SimpleField type="xsd:string" name="NM_RGI">
<displayName>NM_RGI</displayName>
</SimpleField>
<SimpleField type="xsd:string" name="CT_LOCALIDADE">
<displayName>CT_LOCALIDADE</displayName>
</SimpleField>
<SimpleField type="xsd:string" name="SCT_LOCALIDADE">
<displayName>SCT_LOCALIDADE</displayName>
</SimpleField>
<SimpleField type="xsd:string" name="CD_LOCALIDADE">
<displayName>CD_LOCALIDADE</displayName>
</SimpleField>
<SimpleField type="xsd:string" name="NM_LOCALIDADE">
<displayName>NM_LOCALIDADE</displayName>
</SimpleField>
<SimpleField type="xsd:string" name="LAT_LOCALIDADE">
<displayName>LAT_LOCALIDADE</displayName>
</SimpleField>
<SimpleField type="xsd:string" name="LONG_LOCALIDADE">
<displayName>LONG_LOCALIDADE</displayName>
</SimpleField>
</Schema>
<Schema name="Povoados" id="kml_schema_ft_Povoados">
<SimpleField type="xsd:string" name="CD_UF">
<displayName>CD_UF</displayName>
</SimpleField>
<SimpleField type="xsd:string" name="NM_UF">
<displayName>NM_UF</displayName>
</SimpleField>
<SimpleField type="xsd:string" name="SIGLA_UF">
<displayName>SIGLA_UF</displayName>
</SimpleField>
<SimpleField type="xsd:string" name="CD_MUN">
<displayName>CD_MUN</displayName>
</SimpleField>
<SimpleField type="xsd:string" name="NM_MUN">
<displayName>NM_MUN</displayName>
</SimpleField>
<SimpleField type="xsd:string" name="CD_RGINT">
<displayName>CD_RGINT</displayName>
</SimpleField>
<SimpleField type="xsd:string" name="NM_RGINT">
<displayName>NM_RGINT</displayName>
</SimpleField>
<SimpleField type="xsd:string" name="CD_RGI">
<displayName>CD_RGI</displayName>
</SimpleField>
<SimpleField type="xsd:string" name="NM_RGI">
<displayName>NM_RGI</displayName>
</SimpleField>
<SimpleField type="xsd:string" name="CT_LOCALIDADE">
<displayName>CT_LOCALIDADE</displayName>
</SimpleField>
<SimpleField type="xsd:string" name="CD_LOCALIDADE">
<displayName>CD_LOCALIDADE</displayName>
</SimpleField>
<SimpleField type="xsd:string" name="NM_LOCALIDADE">
<displayName>NM_LOCALIDADE</displayName>
</SimpleField>
<SimpleField type="xsd:string" name="LAT_LOCALIDADE">
<displayName>LAT_LOCALIDADE</displayName>
</SimpleField>
<SimpleField type="xsd:string" name="LONG_LOCALIDADE">
<displayName>LONG_LOCALIDADE</displayName>
</SimpleField>
</Schema>
<Schema name="Vilas" id="kml_schema_ft_Vilas">
<SimpleField type="xsd:string" name="CD_UF">
<displayName>CD_UF</displayName>
</SimpleField>
<SimpleField type="xsd:string" name="NM_UF">
<displayName>NM_UF</displayName>
</SimpleField>
<SimpleField type="xsd:string" name="SIGLA_UF">
<displayName>SIGLA_UF</displayName>
</SimpleField>
<SimpleField type="xsd:string" name="CD_MUN">
<displayName>CD_MUN</displayName>
</SimpleField>
<SimpleField type="xsd:string" name="NM_MUN">
<displayName>NM_MUN</displayName>
</SimpleField>
<SimpleField type="xsd:string" name="CD_RGINT">
<displayName>CD_RGINT</displayName>
</SimpleField>
<SimpleField type="xsd:string" name="NM_RGINT">
<displayName>NM_RGINT</displayName>
</SimpleField>
<SimpleField type="xsd:string" name="CD_RGI">
<displayName>CD_RGI</displayName>
</SimpleField>
<SimpleField type="xsd:string" name="NM_RGI">
<displayName>NM_RGI</displayName>
</SimpleField>
<SimpleField type="xsd:string" name="CT_LOCALIDADE">
<displayName>CT_LOCALIDADE</displayName>
</SimpleField>
<SimpleField type="xsd:string" name="CD_LOCALIDADE">
<displayName>CD_LOCALIDADE</displayName>
</SimpleField>
<SimpleField type="xsd:string" name="NM_LOCALIDADE">
<displayName>NM_LOCALIDADE</displayName>
</SimpleField>
<SimpleField type="xsd:string" name="LAT_LOCALIDADE">
<displayName>LAT_LOCALIDADE</displayName>
</SimpleField>
<SimpleField type="xsd:string" name="LONG_LOCALIDADE">
<displayName>LONG_LOCALIDADE</displayName>
</SimpleField>
</Schema>
<Schema name="01. Cidade" id="kml_schema_ft_01._Cidade">
<SimpleField type="xsd:string" name="CD_UF">
<displayName>CD_UF</displayName>
</SimpleField>
<SimpleField type="xsd:string" name="NM_UF">
<displayName>NM_UF</displayName>
</SimpleField>
<SimpleField type="xsd:string" name="SIGLA_UF">
<displayName>SIGLA_UF</displayName>
</SimpleField>
<SimpleField type="xsd:string" name="CD_MUN">
<displayName>CD_MUN</displayName>
</SimpleField>
<SimpleField type="xsd:string" name="NM_MUN">
<displayName>NM_MUN</displayName>
</SimpleField>
<SimpleField type="xsd:string" name="CD_RGINT">
<displayName>CD_RGINT</displayName>
</SimpleField>
<SimpleField type="xsd:string" name="NM_RGINT">
<displayName>NM_RGINT</displayName>
</SimpleField>
<SimpleField type="xsd:string" name="CD_RGI">
<displayName>CD_RGI</displayName>
</SimpleField>
<SimpleField type="xsd:string" name="NM_RGI">
<displayName>NM_RGI</displayName>
</SimpleField>
<SimpleField type="xsd:string" name="CT_LOCALIDADE">
<displayName>CT_LOCALIDADE</displayName>
</SimpleField>
<SimpleField type="xsd:string" name="SCT_LOCALIDADE">
<displayName>SCT_LOCALIDADE</displayName>
</SimpleField>
<SimpleField type="xsd:string" name="CD_LOCALIDADE">
<displayName>CD_LOCALIDADE</displayName>
</SimpleField>
<SimpleField type="xsd:string" name="NM_LOCALIDADE">
<displayName>NM_LOCALIDADE</displayName>
</SimpleField>
<SimpleField type="xsd:string" name="LAT_LOCALIDADE">
<displayName>LAT_LOCALIDADE</displayName>
</SimpleField>
<SimpleField type="xsd:string" name="LONG_LOCALIDADE">
<displayName>LONG_LOCALIDADE</displayName>
</SimpleField>
</Schema>
<Schema name="Município" id="kml_schema_ft_Município">
<SimpleField type="xsd:string" name="CD_UF">
<displayName>CD_UF</displayName>
</SimpleField>
<SimpleField type="xsd:string" name="NM_UF">
<displayName>NM_UF</displayName>
</SimpleField>
<SimpleField type="xsd:string" name="CD_MUN">
<displayName>CD_MUN</displayName>
</SimpleField>
<SimpleField type="xsd:string" name="NM_MUN">
<displayName>NM_MUN</displayName>
</SimpleField>
<SimpleField type="xsd:string" name="CD_RGINT">
<displayName>CD_RGINT</displayName>
</SimpleField>
<SimpleField type="xsd:string" name="NM_RGINT">
<displayName>NM_RGINT</displayName>
</SimpleField>
<SimpleField type="xsd:string" name="CD_RGI">
<displayName>CD_RGI</displayName>
</SimpleField>
<SimpleField type="xsd:string" name="NM_RGI">
<displayName>NM_RGI</displayName>
</SimpleField>
</Schema>
<Folder id="01. Cidade">
<name>01. Cidade</name>
<Folder id="01.03. Sede Municipal">
<name>01.03. Sede Municipal</name>
<Placemark id="01.03. Sede Municipal">
<name>Nova Palma [4313102]</name>
<visibility>1</visibility>
<snippet> </snippet>
<description>&lt;center&gt;&lt;table&gt;&lt;tr&gt;&lt;th colspan='2' align='center'&gt;&lt;em&gt;Atributos&lt;/em&gt;&lt;/th&gt;&lt;/tr&gt;&lt;tr bgcolor="#E3E3F3"&gt;
&lt;th&gt;CD_UF&lt;/th&gt;
&lt;td&gt;43&lt;/td&gt;
&lt;/tr&gt;&lt;tr bgcolor=""&gt;
&lt;th&gt;NM_UF&lt;/th&gt;
&lt;td&gt;Rio Grande do Sul&lt;/td&gt;
&lt;/tr&gt;&lt;tr bgcolor="#E3E3F3"&gt;
&lt;th&gt;SIGLA_UF&lt;/th&gt;
&lt;td&gt;RS&lt;/td&gt;
&lt;/tr&gt;&lt;tr bgcolor=""&gt;
&lt;th&gt;CD_MUN&lt;/th&gt;
&lt;td&gt;4313102&lt;/td&gt;
&lt;/tr&gt;&lt;tr bgcolor="#E3E3F3"&gt;
&lt;th&gt;NM_MUN&lt;/th&gt;
&lt;td&gt;Nova Palma&lt;/td&gt;
&lt;/tr&gt;&lt;tr bgcolor=""&gt;
&lt;th&gt;CD_RGINT&lt;/th&gt;
&lt;td&gt;4303&lt;/td&gt;
&lt;/tr&gt;&lt;tr bgcolor="#E3E3F3"&gt;
&lt;th&gt;NM_RGINT&lt;/th&gt;
&lt;td&gt;Santa Maria&lt;/td&gt;
&lt;/tr&gt;&lt;tr bgcolor=""&gt;
&lt;th&gt;CD_RGI&lt;/th&gt;
&lt;td&gt;430011&lt;/td&gt;
&lt;/tr&gt;&lt;tr bgcolor="#E3E3F3"&gt;
&lt;th&gt;NM_RGI&lt;/th&gt;
&lt;td&gt;Santa Maria&lt;/td&gt;
&lt;/tr&gt;&lt;tr bgcolor=""&gt;
&lt;th&gt;CT_LOCALIDADE&lt;/th&gt;
&lt;td&gt;Cidade&lt;/td&gt;
&lt;/tr&gt;&lt;tr bgcolor="#E3E3F3"&gt;
&lt;th&gt;SCT_LOCALIDADE&lt;/th&gt;
&lt;td&gt;Sede Municipal&lt;/td&gt;
&lt;/tr&gt;&lt;tr bgcolor=""&gt;
&lt;th&gt;CD_LOCALIDADE&lt;/th&gt;
&lt;td&gt;4313102&lt;/td&gt;
&lt;/tr&gt;&lt;tr bgcolor="#E3E3F3"&gt;
&lt;th&gt;NM_LOCALIDADE&lt;/th&gt;
&lt;td&gt;Nova Palma&lt;/td&gt;
&lt;/tr&gt;&lt;tr bgcolor=""&gt;
&lt;th&gt;LAT_LOCALIDADE&lt;/th&gt;
&lt;td&gt;-29.4707&lt;/td&gt;
&lt;/tr&gt;&lt;tr bgcolor="#E3E3F3"&gt;
&lt;th&gt;LONG_LOCALIDADE&lt;/th&gt;
&lt;td&gt;-53.4662&lt;/td&gt;
&lt;/tr&gt;&lt;/table&gt;&lt;/center&gt;</description>
<Style>
<IconStyle>
<color>ff00aaff</color>
<scale>1.0</scale>
<Icon>
<href>http://maps.google.com/mapfiles/kml/shapes/placemark_circle.png</href>
</Icon>
</IconStyle>
<LabelStyle>
<scale>1.0</scale>
</LabelStyle>
<LineStyle>
<color>ffffffff</color>
<width>3</width>
<gx:labelVisibility>1</gx:labelVisibility>
</LineStyle>
<PolyStyle>
<color>00ffffff</color>
</PolyStyle>
</Style>
<ExtendedData>
<SchemaData schemaUrl="#kml_schema_ft_01._Cidade">
<SimpleData name="CD_UF">43</SimpleData>
<SimpleData name="NM_UF">Rio Grande do Sul</SimpleData>
<SimpleData name="SIGLA_UF">RS</SimpleData>
<SimpleData name="CD_MUN">4313102</SimpleData>
<SimpleData name="NM_MUN">Nova Palma</SimpleData>
<SimpleData name="CD_RGINT">4303</SimpleData>
<SimpleData name="NM_RGINT">Santa Maria</SimpleData>
<SimpleData name="CD_RGI">430011</SimpleData>
<SimpleData name="NM_RGI">Santa Maria</SimpleData>
<SimpleData name="CT_LOCALIDADE">Cidade</SimpleData>
<SimpleData name="SCT_LOCALIDADE">Sede Municipal</SimpleData>
<SimpleData name="CD_LOCALIDADE">4313102</SimpleData>
<SimpleData name="NM_LOCALIDADE">Nova Palma</SimpleData>
<SimpleData name="LAT_LOCALIDADE">-29.4707</SimpleData>
<SimpleData name="LONG_LOCALIDADE">-53.4662</SimpleData>
</SchemaData>
</ExtendedData>
<Point>
<extrude>0</extrude>
<coordinates>-53.466212,-29.4707139991907,0.0</coordinates>
</Point>
</Placemark>
</Folder>
</Folder>
<Folder id="04. Vilas">
<name>04. Vilas</name>
<Placemark id="04. Vilas">
<name>Canhemborá [431310210]</name>
<visibility>1</visibility>
<snippet> </snippet>
<description>&lt;center&gt;&lt;table&gt;&lt;tr&gt;&lt;th colspan='2' align='center'&gt;&lt;em&gt;Atributos&lt;/em&gt;&lt;/th&gt;&lt;/tr&gt;&lt;tr bgcolor="#E3E3F3"&gt;
&lt;th&gt;CD_UF&lt;/th&gt;
&lt;td&gt;43&lt;/td&gt;
&lt;/tr&gt;&lt;tr bgcolor=""&gt;
&lt;th&gt;NM_UF&lt;/th&gt;
&lt;td&gt;Rio Grande do Sul&lt;/td&gt;
&lt;/tr&gt;&lt;tr bgcolor="#E3E3F3"&gt;
&lt;th&gt;SIGLA_UF&lt;/th&gt;
&lt;td&gt;RS&lt;/td&gt;
&lt;/tr&gt;&lt;tr bgcolor=""&gt;
&lt;th&gt;CD_MUN&lt;/th&gt;
&lt;td&gt;4313102&lt;/td&gt;
&lt;/tr&gt;&lt;tr bgcolor="#E3E3F3"&gt;
&lt;th&gt;NM_MUN&lt;/th&gt;
&lt;td&gt;Nova Palma&lt;/td&gt;
&lt;/tr&gt;&lt;tr bgcolor=""&gt;
&lt;th&gt;CD_RGINT&lt;/th&gt;
&lt;td&gt;4303&lt;/td&gt;
&lt;/tr&gt;&lt;tr bgcolor="#E3E3F3"&gt;
&lt;th&gt;NM_RGINT&lt;/th&gt;
&lt;td&gt;Santa Maria&lt;/td&gt;
&lt;/tr&gt;&lt;tr bgcolor=""&gt;
&lt;th&gt;CD_RGI&lt;/th&gt;
&lt;td&gt;430011&lt;/td&gt;
&lt;/tr&gt;&lt;tr bgcolor="#E3E3F3"&gt;
&lt;th&gt;NM_RGI&lt;/th&gt;
&lt;td&gt;Santa Maria&lt;/td&gt;
&lt;/tr&gt;&lt;tr bgcolor=""&gt;
&lt;th&gt;CT_LOCALIDADE&lt;/th&gt;
&lt;td&gt;Vila&lt;/td&gt;
&lt;/tr&gt;&lt;tr bgcolor="#E3E3F3"&gt;
&lt;th&gt;CD_LOCALIDADE&lt;/th&gt;
&lt;td&gt;431310210&lt;/td&gt;
&lt;/tr&gt;&lt;tr bgcolor=""&gt;
&lt;th&gt;NM_LOCALIDADE&lt;/th&gt;
&lt;td&gt;Canhemborá&lt;/td&gt;
&lt;/tr&gt;&lt;tr bgcolor="#E3E3F3"&gt;
&lt;th&gt;LAT_LOCALIDADE&lt;/th&gt;
&lt;td&gt;-29.4734&lt;/td&gt;
&lt;/tr&gt;&lt;tr bgcolor=""&gt;
&lt;th&gt;LONG_LOCALIDADE&lt;/th&gt;
&lt;td&gt;-53.299&lt;/td&gt;
&lt;/tr&gt;&lt;/table&gt;&lt;/center&gt;</description>
<Style>
<IconStyle>
<color>ffff5400</color>
<scale>1.0</scale>
<Icon>
<href>http://maps.google.com/mapfiles/kml/shapes/placemark_circle.png</href>
</Icon>
</IconStyle>
<LabelStyle>
<scale>0.9</scale>
</LabelStyle>
<LineStyle>
<color>72ffffff</color>
<width>1.0</width>
<gx:labelVisibility>1</gx:labelVisibility>
</LineStyle>
<PolyStyle>
<color>660054ff</color>
</PolyStyle>
</Style>
<ExtendedData>
<SchemaData schemaUrl="#kml_schema_ft_Vilas">
<SimpleData name="CD_UF">43</SimpleData>
<SimpleData name="NM_UF">Rio Grande do Sul</SimpleData>
<SimpleData name="SIGLA_UF">RS</SimpleData>
<SimpleData name="CD_MUN">4313102</SimpleData>
<SimpleData name="NM_MUN">Nova Palma</SimpleData>
<SimpleData name="CD_RGINT">4303</SimpleData>
<SimpleData name="NM_RGINT">Santa Maria</SimpleData>
<SimpleData name="CD_RGI">430011</SimpleData>
<SimpleData name="NM_RGI">Santa Maria</SimpleData>
<SimpleData name="CT_LOCALIDADE">Vila</SimpleData>
<SimpleData name="CD_LOCALIDADE">431310210</SimpleData>
<SimpleData name="NM_LOCALIDADE">Canhemborá</SimpleData>
<SimpleData name="LAT_LOCALIDADE">-29.4734</SimpleData>
<SimpleData name="LONG_LOCALIDADE">-53.299</SimpleData>
</SchemaData>
</ExtendedData>
<Point>
<extrude>0</extrude>
<coordinates>-53.299011,-29.4733509991906,0.0</coordinates>
</Point>
</Placemark>
<Placemark id="04. Vilas">
<name>Vila Cruz [431310215]</name>
<visibility>1</visibility>
<snippet> </snippet>
<description>&lt;center&gt;&lt;table&gt;&lt;tr&gt;&lt;th colspan='2' align='center'&gt;&lt;em&gt;Atributos&lt;/em&gt;&lt;/th&gt;&lt;/tr&gt;&lt;tr bgcolor="#E3E3F3"&gt;
&lt;th&gt;CD_UF&lt;/th&gt;
&lt;td&gt;43&lt;/td&gt;
&lt;/tr&gt;&lt;tr bgcolor=""&gt;
&lt;th&gt;NM_UF&lt;/th&gt;
&lt;td&gt;Rio Grande do Sul&lt;/td&gt;
&lt;/tr&gt;&lt;tr bgcolor="#E3E3F3"&gt;
&lt;th&gt;SIGLA_UF&lt;/th&gt;
&lt;td&gt;RS&lt;/td&gt;
&lt;/tr&gt;&lt;tr bgcolor=""&gt;
&lt;th&gt;CD_MUN&lt;/th&gt;
&lt;td&gt;4313102&lt;/td&gt;
&lt;/tr&gt;&lt;tr bgcolor="#E3E3F3"&gt;
&lt;th&gt;NM_MUN&lt;/th&gt;
&lt;td&gt;Nova Palma&lt;/td&gt;
&lt;/tr&gt;&lt;tr bgcolor=""&gt;
&lt;th&gt;CD_RGINT&lt;/th&gt;
&lt;td&gt;4303&lt;/td&gt;
&lt;/tr&gt;&lt;tr bgcolor="#E3E3F3"&gt;
&lt;th&gt;NM_RGINT&lt;/th&gt;
&lt;td&gt;Santa Maria&lt;/td&gt;
&lt;/tr&gt;&lt;tr bgcolor=""&gt;
&lt;th&gt;CD_RGI&lt;/th&gt;
&lt;td&gt;430011&lt;/td&gt;
&lt;/tr&gt;&lt;tr bgcolor="#E3E3F3"&gt;
&lt;th&gt;NM_RGI&lt;/th&gt;
&lt;td&gt;Santa Maria&lt;/td&gt;
&lt;/tr&gt;&lt;tr bgcolor=""&gt;
&lt;th&gt;CT_LOCALIDADE&lt;/th&gt;
&lt;td&gt;Vila&lt;/td&gt;
&lt;/tr&gt;&lt;tr bgcolor="#E3E3F3"&gt;
&lt;th&gt;CD_LOCALIDADE&lt;/th&gt;
&lt;td&gt;431310215&lt;/td&gt;
&lt;/tr&gt;&lt;tr bgcolor=""&gt;
&lt;th&gt;NM_LOCALIDADE&lt;/th&gt;
&lt;td&gt;Vila Cruz&lt;/td&gt;
&lt;/tr&gt;&lt;tr bgcolor="#E3E3F3"&gt;
&lt;th&gt;LAT_LOCALIDADE&lt;/th&gt;
&lt;td&gt;-29.4756&lt;/td&gt;
&lt;/tr&gt;&lt;tr bgcolor=""&gt;
&lt;th&gt;LONG_LOCALIDADE&lt;/th&gt;
&lt;td&gt;-53.4059&lt;/td&gt;
&lt;/tr&gt;&lt;/table&gt;&lt;/center&gt;</description>
<Style>
<IconStyle>
<color>ffff5400</color>
<scale>1.0</scale>
<Icon>
<href>http://maps.google.com/mapfiles/kml/shapes/placemark_circle.png</href>
</Icon>
</IconStyle>
<LabelStyle>
<scale>0.9</scale>
</LabelStyle>
<LineStyle>
<color>72ffffff</color>
<width>1.0</width>
<gx:labelVisibility>1</gx:labelVisibility>
</LineStyle>
<PolyStyle>
<color>660054ff</color>
</PolyStyle>
</Style>
<ExtendedData>
<SchemaData schemaUrl="#kml_schema_ft_Vilas">
<SimpleData name="CD_UF">43</SimpleData>
<SimpleData name="NM_UF">Rio Grande do Sul</SimpleData>
<SimpleData name="SIGLA_UF">RS</SimpleData>
<SimpleData name="CD_MUN">4313102</SimpleData>
<SimpleData name="NM_MUN">Nova Palma</SimpleData>
<SimpleData name="CD_RGINT">4303</SimpleData>
<SimpleData name="NM_RGINT">Santa Maria</SimpleData>
<SimpleData name="CD_RGI">430011</SimpleData>
<SimpleData name="NM_RGI">Santa Maria</SimpleData>
<SimpleData name="CT_LOCALIDADE">Vila</SimpleData>
<SimpleData name="CD_LOCALIDADE">431310215</SimpleData>
<SimpleData name="NM_LOCALIDADE">Vila Cruz</SimpleData>
<SimpleData name="LAT_LOCALIDADE">-29.4756</SimpleData>
<SimpleData name="LONG_LOCALIDADE">-53.4059</SimpleData>
</SchemaData>
</ExtendedData>
<Point>
<extrude>0</extrude>
<coordinates>-53.405907,-29.4755619991906,0.0</coordinates>
</Point>
</Placemark>
</Folder>
<Folder id="06. Povoados">
<name>06. Povoados</name>
<Placemark id="06. Povoados">
<name>Comunidade Quilombola Rincão do Santo Inácio [431310200001]</name>
<visibility>1</visibility>
<snippet> </snippet>
<description>&lt;center&gt;&lt;table&gt;&lt;tr&gt;&lt;th colspan='2' align='center'&gt;&lt;em&gt;Atributos&lt;/em&gt;&lt;/th&gt;&lt;/tr&gt;&lt;tr bgcolor="#E3E3F3"&gt;
&lt;th&gt;CD_UF&lt;/th&gt;
&lt;td&gt;43&lt;/td&gt;
&lt;/tr&gt;&lt;tr bgcolor=""&gt;
&lt;th&gt;NM_UF&lt;/th&gt;
&lt;td&gt;Rio Grande do Sul&lt;/td&gt;
&lt;/tr&gt;&lt;tr bgcolor="#E3E3F3"&gt;
&lt;th&gt;SIGLA_UF&lt;/th&gt;
&lt;td&gt;RS&lt;/td&gt;
&lt;/tr&gt;&lt;tr bgcolor=""&gt;
&lt;th&gt;CD_MUN&lt;/th&gt;
&lt;td&gt;4313102&lt;/td&gt;
&lt;/tr&gt;&lt;tr bgcolor="#E3E3F3"&gt;
&lt;th&gt;NM_MUN&lt;/th&gt;
&lt;td&gt;Nova Palma&lt;/td&gt;
&lt;/tr&gt;&lt;tr bgcolor=""&gt;
&lt;th&gt;CD_RGINT&lt;/th&gt;
&lt;td&gt;4303&lt;/td&gt;
&lt;/tr&gt;&lt;tr bgcolor="#E3E3F3"&gt;
&lt;th&gt;NM_RGINT&lt;/th&gt;
&lt;td&gt;Santa Maria&lt;/td&gt;
&lt;/tr&gt;&lt;tr bgcolor=""&gt;
&lt;th&gt;CD_RGI&lt;/th&gt;
&lt;td&gt;430011&lt;/td&gt;
&lt;/tr&gt;&lt;tr bgcolor="#E3E3F3"&gt;
&lt;th&gt;NM_RGI&lt;/th&gt;
&lt;td&gt;Santa Maria&lt;/td&gt;
&lt;/tr&gt;&lt;tr bgcolor=""&gt;
&lt;th&gt;CT_LOCALIDADE&lt;/th&gt;
&lt;td&gt;Povoado&lt;/td&gt;
&lt;/tr&gt;&lt;tr bgcolor="#E3E3F3"&gt;
&lt;th&gt;CD_LOCALIDADE&lt;/th&gt;
&lt;td&gt;431310200001&lt;/td&gt;
&lt;/tr&gt;&lt;tr bgcolor=""&gt;
&lt;th&gt;NM_LOCALIDADE&lt;/th&gt;
&lt;td&gt;Comunidade Quilombola Rincão do Santo Inácio&lt;/td&gt;
&lt;/tr&gt;&lt;tr bgcolor="#E3E3F3"&gt;
&lt;th&gt;LAT_LOCALIDADE&lt;/th&gt;
&lt;td&gt;-29.3862&lt;/td&gt;
&lt;/tr&gt;&lt;tr bgcolor=""&gt;
&lt;th&gt;LONG_LOCALIDADE&lt;/th&gt;
&lt;td&gt;-53.4523&lt;/td&gt;
&lt;/tr&gt;&lt;/table&gt;&lt;/center&gt;</description>
<Style>
<IconStyle>
<color>ff00ff54</color>
<scale>0.8</scale>
<Icon>
<href>http://maps.google.com/mapfiles/kml/shapes/placemark_circle.png</href>
</Icon>
</IconStyle>
<LabelStyle>
<scale>0.8</scale>
</LabelStyle>
<LineStyle>
<color>72ff54ff</color>
<width>1.0</width>
<gx:labelVisibility>1</gx:labelVisibility>
</LineStyle>
<PolyStyle>
<color>66ff54ff</color>
</PolyStyle>
</Style>
<ExtendedData>
<SchemaData schemaUrl="#kml_schema_ft_Povoados">
<SimpleData name="CD_UF">43</SimpleData>
<SimpleData name="NM_UF">Rio Grande do Sul</SimpleData>
<SimpleData name="SIGLA_UF">RS</SimpleData>
<SimpleData name="CD_MUN">4313102</SimpleData>
<SimpleData name="NM_MUN">Nova Palma</SimpleData>
<SimpleData name="CD_RGINT">4303</SimpleData>
<SimpleData name="NM_RGINT">Santa Maria</SimpleData>
<SimpleData name="CD_RGI">430011</SimpleData>
<SimpleData name="NM_RGI">Santa Maria</SimpleData>
<SimpleData name="CT_LOCALIDADE">Povoado</SimpleData>
<SimpleData name="CD_LOCALIDADE">431310200001</SimpleData>
<SimpleData name="NM_LOCALIDADE">Comunidade Quilombola Rincão do Santo Inácio</SimpleData>
<SimpleData name="LAT_LOCALIDADE">-29.3862</SimpleData>
<SimpleData name="LONG_LOCALIDADE">-53.4523</SimpleData>
</SchemaData>
</ExtendedData>
<Point>
<extrude>0</extrude>
<coordinates>-53.4523336,-29.386246399192,0.0</coordinates>
</Point>
</Placemark>
</Folder>
<Folder id="10. Localidades Quilombolas">
<name>10. Localidades Quilombolas</name>
<visibility>1</visibility>
<Style>
<IconStyle>
<color>ffff54ff</color>
<scale>0.8</scale>
<Icon>
<href>http://maps.google.com/mapfiles/kml/shapes/placemark_circle.png</href>
</Icon>
</IconStyle>
<LabelStyle>
<scale>0.8</scale>
</LabelStyle>
<LineStyle>
<color>7200ffff</color>
<width>1.0</width>
<gx:labelVisibility>1</gx:labelVisibility>
</LineStyle>
<PolyStyle>
<color>6600ffff</color>
</PolyStyle>
</Style>
<Folder id="10.01. Agrupamentos Quilombolas">
<name>10.01. Agrupamentos Quilombolas</name>
<visibility>1</visibility>
<Style>
<IconStyle>
<color>ffff54ff</color>
<scale>0.8</scale>
<Icon>
<href>http://maps.google.com/mapfiles/kml/shapes/placemark_circle.png</href>
</Icon>
</IconStyle>
<LabelStyle>
<scale>0.8</scale>
</LabelStyle>
<LineStyle>
<color>7200ffff</color>
<width>1.0</width>
<gx:labelVisibility>1</gx:labelVisibility>
</LineStyle>
<PolyStyle>
<color>6600ffff</color>
</PolyStyle>
</Style>
<Placemark id="10.01. Agrupamentos Quilombolas">
<name>Comunidade Quilombola Rincão do Santo Inácio [431310200001]</name>
<visibility>1</visibility>
<snippet> </snippet>
<description>&lt;center&gt;&lt;table&gt;&lt;tr&gt;&lt;th colspan='2' align='center'&gt;&lt;em&gt;Attributes&lt;/em&gt;&lt;/th&gt;&lt;/tr&gt;&lt;tr bgcolor="#E3E3F3"&gt;
&lt;th&gt;CD_UF&lt;/th&gt;
&lt;td&gt;43&lt;/td&gt;
&lt;/tr&gt;&lt;tr bgcolor=""&gt;
&lt;th&gt;NM_UF&lt;/th&gt;
&lt;td&gt;Rio Grande do Sul&lt;/td&gt;
&lt;/tr&gt;&lt;tr bgcolor="#E3E3F3"&gt;
&lt;th&gt;SIGLA_UF&lt;/th&gt;
&lt;td&gt;RS&lt;/td&gt;
&lt;/tr&gt;&lt;tr bgcolor=""&gt;
&lt;th&gt;CD_MUN&lt;/th&gt;
&lt;td&gt;4313102&lt;/td&gt;
&lt;/tr&gt;&lt;tr bgcolor="#E3E3F3"&gt;
&lt;th&gt;NM_MUN&lt;/th&gt;
&lt;td&gt;Nova Palma&lt;/td&gt;
&lt;/tr&gt;&lt;tr bgcolor=""&gt;
&lt;th&gt;CD_RGINT&lt;/th&gt;
&lt;td&gt;4303&lt;/td&gt;
&lt;/tr&gt;&lt;tr bgcolor="#E3E3F3"&gt;
&lt;th&gt;NM_RGINT&lt;/th&gt;
&lt;td&gt;Santa Maria&lt;/td&gt;
&lt;/tr&gt;&lt;tr bgcolor=""&gt;
&lt;th&gt;CD_RGI&lt;/th&gt;
&lt;td&gt;430011&lt;/td&gt;
&lt;/tr&gt;&lt;tr bgcolor="#E3E3F3"&gt;
&lt;th&gt;NM_RGI&lt;/th&gt;
&lt;td&gt;Santa Maria&lt;/td&gt;
&lt;/tr&gt;&lt;tr bgcolor=""&gt;
&lt;th&gt;CT_LOCALIDADE&lt;/th&gt;
&lt;td&gt;Localidade Quilombola&lt;/td&gt;
&lt;/tr&gt;&lt;tr bgcolor="#E3E3F3"&gt;
&lt;th&gt;SCT_LOCALIDADE&lt;/th&gt;
&lt;td&gt;Agrupamento Quilombola&lt;/td&gt;
&lt;/tr&gt;&lt;tr bgcolor=""&gt;
&lt;th&gt;CD_LOCALIDADE&lt;/th&gt;
&lt;td&gt;431310200001&lt;/td&gt;
&lt;/tr&gt;&lt;tr bgcolor="#E3E3F3"&gt;
&lt;th&gt;NM_LOCALIDADE&lt;/th&gt;
&lt;td&gt;Comunidade Quilombola Rincão do Santo Inácio&lt;/td&gt;
&lt;/tr&gt;&lt;tr bgcolor=""&gt;
&lt;th&gt;LAT_LOCALIDADE&lt;/th&gt;
&lt;td&gt;-29.3862&lt;/td&gt;
&lt;/tr&gt;&lt;tr bgcolor="#E3E3F3"&gt;
&lt;th&gt;LONG_LOCALIDADE&lt;/th&gt;
&lt;td&gt;-53.4523&lt;/td&gt;
&lt;/tr&gt;&lt;/table&gt;&lt;/center&gt;</description>
<Style>
<IconStyle>
<color>ffff54ff</color>
<scale>0.8</scale>
<Icon>
<href>http://maps.google.com/mapfiles/kml/shapes/placemark_circle.png</href>
</Icon>
</IconStyle>
<LabelStyle>
<scale>0.8</scale>
</LabelStyle>
<LineStyle>
<color>7200ffff</color>
<width>1.0</width>
<gx:labelVisibility>1</gx:labelVisibility>
</LineStyle>
<PolyStyle>
<color>6600ffff</color>
</PolyStyle>
</Style>
<ExtendedData>
<SchemaData schemaUrl="#kml_schema_ft_Agrupamentos_Quilombolas">
<SimpleData name="CD_UF">43</SimpleData>
<SimpleData name="NM_UF">Rio Grande do Sul</SimpleData>
<SimpleData name="SIGLA_UF">RS</SimpleData>
<SimpleData name="CD_MUN">4313102</SimpleData>
<SimpleData name="NM_MUN">Nova Palma</SimpleData>
<SimpleData name="CD_RGINT">4303</SimpleData>
<SimpleData name="NM_RGINT">Santa Maria</SimpleData>
<SimpleData name="CD_RGI">430011</SimpleData>
<SimpleData name="NM_RGI">Santa Maria</SimpleData>
<SimpleData name="CT_LOCALIDADE">Localidade Quilombola</SimpleData>
<SimpleData name="SCT_LOCALIDADE">Agrupamento Quilombola</SimpleData>
<SimpleData name="CD_LOCALIDADE">431310200001</SimpleData>
<SimpleData name="NM_LOCALIDADE">Comunidade Quilombola Rincão do Santo Inácio</SimpleData>
<SimpleData name="LAT_LOCALIDADE">-29.3862</SimpleData>
<SimpleData name="LONG_LOCALIDADE">-53.4523</SimpleData>
</SchemaData>
</ExtendedData>
<Point>
<extrude>0</extrude>
<coordinates>-53.4523336,-29.386246399192,0.0</coordinates>
</Point>
</Placemark>
</Folder>
</Folder>
<Folder id="13. Referência">
<name>13. Referência</name>
<Placemark id="13. Referência">
<name>Nova Palma [4313102]</name>
<visibility>1</visibility>
<snippet> </snippet>
<description>&lt;center&gt;&lt;table&gt;&lt;tr&gt;&lt;th colspan='2' align='center'&gt;&lt;em&gt;Attributes&lt;/em&gt;&lt;/th&gt;&lt;/tr&gt;&lt;tr bgcolor="#E3E3F3"&gt;
&lt;th&gt;CD_UF&lt;/th&gt;
&lt;td&gt;43&lt;/td&gt;
&lt;/tr&gt;&lt;tr bgcolor=""&gt;
&lt;th&gt;NM_UF&lt;/th&gt;
&lt;td&gt;Rio Grande do Sul&lt;/td&gt;
&lt;/tr&gt;&lt;tr bgcolor="#E3E3F3"&gt;
&lt;th&gt;CD_MUN&lt;/th&gt;
&lt;td&gt;4313102&lt;/td&gt;
&lt;/tr&gt;&lt;tr bgcolor=""&gt;
&lt;th&gt;NM_MUN&lt;/th&gt;
&lt;td&gt;Nova Palma&lt;/td&gt;
&lt;/tr&gt;&lt;tr bgcolor="#E3E3F3"&gt;
&lt;th&gt;CD_RGINT&lt;/th&gt;
&lt;td&gt;4303&lt;/td&gt;
&lt;/tr&gt;&lt;tr bgcolor=""&gt;
&lt;th&gt;NM_RGINT&lt;/th&gt;
&lt;td&gt;Santa Maria&lt;/td&gt;
&lt;/tr&gt;&lt;tr bgcolor="#E3E3F3"&gt;
&lt;th&gt;CD_RGI&lt;/th&gt;
&lt;td&gt;430011&lt;/td&gt;
&lt;/tr&gt;&lt;tr bgcolor=""&gt;
&lt;th&gt;NM_RGI&lt;/th&gt;
&lt;td&gt;Santa Maria&lt;/td&gt;
&lt;/tr&gt;&lt;/table&gt;&lt;/center&gt;</description>
<Style>
<IconStyle>
<scale>0.7</scale>
</IconStyle>
<LabelStyle>
<scale>0.7</scale>
</LabelStyle>
<LineStyle>
<color>ffffffff</color>
<width>3</width>
<gx:labelVisibility>1</gx:labelVisibility>
</LineStyle>
<PolyStyle>
<color>00ffffff</color>
</PolyStyle>
</Style>
<ExtendedData>
<SchemaData schemaUrl="#kml_schema_ft_Município">
<SimpleData name="CD_UF">43</SimpleData>
<SimpleData name="NM_UF">Rio Grande do Sul</SimpleData>
<SimpleData name="CD_MUN">4313102</SimpleData>
<SimpleData name="NM_MUN">Nova Palma</SimpleData>
<SimpleData name="CD_RGINT">4303</SimpleData>
<SimpleData name="NM_RGINT">Santa Maria</SimpleData>
<SimpleData name="CD_RGI">430011</SimpleData>
<SimpleData name="NM_RGI">Santa Maria</SimpleData>
</SchemaData>
</ExtendedData>
<MultiGeometry>
<Polygon>
<extrude>0</extrude>
<tessellate>1</tessellate>
<outerBoundaryIs>
<LinearRing>
<coordinates>-53.4388665,-29.3493662991927,0.0 -53.439922,-29.3448427991928,0.0 -53.440349,-29.3424380991928,0.0 -53.4403805,-29.3420154991929,0.0 -53.4402958,-29.3415396991929,0.0 -53.4398748,-29.3407475991929,0.0 -53.4397328,-29.3404805991929,0.0 -53.4396659,-29.3401480991929,0.0 -53.4395841,-29.3388844991929,0.0 -53.4394106,-29.3386544991929,0.0 -53.4390947,-29.3387906991929,0.0 -53.4377753,-29.3406397991929,0.0 -53.4374242,-29.3410585991929,0.0 -53.4370581,-29.3412610991929,0.0 -53.4340222,-29.3418838991929,0.0 -53.43213,-29.3424631991929,0.0 -53.4304811,-29.3431608991928,0.0 -53.427602,-29.3443557991928,0.0 -53.4264089,-29.3450882991928,0.0 -53.4252384,-29.3455492991928,0.0 -53.4243157,-29.3460318991928,0.0 -53.423945,-29.3464666991928,0.0 -53.4231949,-29.3478452991928,0.0 -53.4227161,-29.3483283991927,0.0 -53.4221185,-29.3486006991927,0.0 -53.4204073,-29.3490920991927,0.0 -53.4199792,-29.3492382991927,0.0 -53.4195751,-29.3495596991927,0.0 -53.4191232,-29.3500127991927,0.0 -53.4175461,-29.3516298991927,0.0 -53.4170519,-29.3519143991927,0.0 -53.4164941,-29.3521602991927,0.0 -53.4158664,-29.3523234991927,0.0 -53.4150681,-29.3523824991927,0.0 -53.4132664,-29.3523598991927,0.0 -53.4111745,-29.3524480991927,0.0 -53.40994,-29.3522013991927,0.0 -53.4087628,-29.3517888991927,0.0 -53.4050452,-29.3499657991927,0.0 -53.4038113,-29.3509178991927,0.0 -53.4024958,-29.3521097991927,0.0 -53.401837,-29.3524625991927,0.0 -53.4013718,-29.3525774991927,0.0 -53.4007925,-29.3528927991927,0.0 -53.4000954,-29.3531436991927,0.0 -53.3996535,-29.3531526991927,0.0 -53.3980428,-29.3534110991927,0.0 -53.3970923,-29.3537579991927,0.0 -53.3967466,-29.3539095991927,0.0 -53.3965031,-29.3540349991927,0.0 -53.3962846,-29.3542287991927,0.0 -53.3959973,-29.3546387991926,0.0 -53.3957624,-29.3543634991926,0.0 -53.3953837,-29.3542066991926,0.0 -53.3949748,-29.3541530991927,0.0 -53.3947626,-29.3539719991927,0.0 -53.3944502,-29.3539862991926,0.0 -53.3940758,-29.3538224991927,0.0 -53.3937625,-29.3536547991927,0.0 -53.3935855,-29.3534397991927,0.0 -53.3929599,-29.3532132991927,0.0 -53.3925071,-29.3533800991927,0.0 -53.3922104,-29.3537554991926,0.0 -53.3918859,-29.3539602991927,0.0 -53.3914819,-29.3540293991927,0.0 -53.3909995,-29.3536079991927,0.0 -53.3905809,-29.3535216991927,0.0 -53.3901206,-29.3535563991927,0.0 -53.3899814,-29.3538651991927,0.0 -53.3897854,-29.3539756991927,0.0 -53.3893401,-29.3538851991927,0.0 -53.3887437,-29.3536962991927,0.0 -53.3885374,-29.3536196991927,0.0 -53.3884282,-29.3534440991927,0.0 -53.3882004,-29.3522800991927,0.0 -53.3878393,-29.3520511991927,0.0 -53.3874333,-29.3520032991927,0.0 -53.387195,-29.3522074991927,0.0 -53.3868065,-29.3522526991927,0.0 -53.3862675,-29.3521644991927,0.0 -53.3859372,-29.3523919991927,0.0 -53.3855308,-29.3524652991927,0.0 -53.3848164,-29.3526140991927,0.0 -53.3844868,-29.3531286991927,0.0 -53.3838716,-29.3535774991927,0.0 -53.3827487,-29.3535104991927,0.0 -53.3820509,-29.3535859991927,0.0 -53.3816088,-29.3537854991927,0.0 -53.3813012,-29.3541511991926,0.0 -53.3812501,-29.3548277991926,0.0 -53.3810105,-29.3549029991926,0.0 -53.3807195,-29.3548647991926,0.0 -53.3804664,-29.3543249991926,0.0 -53.38022,-29.3541767991927,0.0 -53.3799649,-29.3541824991927,0.0 -53.3798787,-29.3543266991927,0.0 -53.379856,-29.3545458991926,0.0 -53.3800719,-29.3548572991926,0.0 -53.3800338,-29.3551867991926,0.0 -53.3800915,-29.3559400991926,0.0 -53.3799072,-29.3563909991926,0.0 -53.3795719,-29.3566584991926,0.0 -53.3788473,-29.3571264991926,0.0 -53.3781353,-29.3571370991926,0.0 -53.3776808,-29.3570225991926,0.0 -53.3772896,-29.3568027991926,0.0 -53.376511,-29.3567407991926,0.0 -53.3761056,-29.3566438991926,0.0 -53.3757138,-29.3560218991926,0.0 -53.3754765,-29.3557025991926,0.0 -53.3750954,-29.3555804991926,0.0 -53.3744876,-29.3558801991926,0.0 -53.3739638,-29.3563514991926,0.0 -53.373501,-29.3562731991926,0.0 -53.3730199,-29.3563178991926,0.0 -53.3726076,-29.3567229991926,0.0 -53.3719948,-29.3569637991926,0.0 -53.3711685,-29.3571300991926,0.0 -53.3702092,-29.3570771991926,0.0 -53.3693686,-29.3566472991926,0.0 -53.3687193,-29.3566724991926,0.0 -53.3682958,-29.3570976991926,0.0 -53.3682748,-29.3576996991926,0.0 -53.368168,-29.3580156991926,0.0 -53.3679106,-29.3582167991926,0.0 -53.3676596,-29.3581082991926,0.0 -53.3670791,-29.3573528991926,0.0 -53.3663124,-29.3554441991926,0.0 -53.3659027,-29.3549886991926,0.0 -53.3655939,-29.3546959991926,0.0 -53.3652419,-29.3546576991926,0.0 -53.3645581,-29.3551075991926,0.0 -53.3635756,-29.3560157991926,0.0 -53.3631388,-29.3569418991926,0.0 -53.3629114,-29.3579460991926,0.0 -53.3631337,-29.3584049991926,0.0 -53.3634196,-29.3586525991926,0.0 -53.3635167,-29.3588924991926,0.0 -53.3633332,-29.3590594991926,0.0 -53.3629865,-29.3591088991926,0.0 -53.3626602,-29.3593189991925,0.0 -53.3620117,-29.3596942991926,0.0 -53.3616373,-29.3601561991925,0.0 -53.3614095,-29.3610114991925,0.0 -53.3614604,-29.3614442991925,0.0 -53.361846,-29.3618385991925,0.0 -53.3623002,-29.3622285991925,0.0 -53.3624602,-29.3628236991925,0.0 -53.3623749,-29.3630462991925,0.0 -53.3621515,-29.3631240991925,0.0 -53.3617338,-29.3630348991925,0.0 -53.3613956,-29.3631557991925,0.0 -53.3606951,-29.3634427991925,0.0 -53.3600617,-29.3634494991925,0.0 -53.3594953,-29.3635390991925,0.0 -53.3585313,-29.3637716991925,0.0 -53.35772,-29.3641193991925,0.0 -53.3569846,-29.3643181991925,0.0 -53.3567458,-29.3644956991925,0.0 -53.3567526,-29.3648732991925,0.0 -53.3571262,-29.3653821991925,0.0 -53.3572324,-29.3661959991925,0.0 -53.3578121,-29.3670429991924,0.0 -53.3579984,-29.3677734991924,0.0 -53.3583972,-29.3683275991924,0.0 -53.3589104,-29.3684932991924,0.0 -53.3592837,-29.3684401991924,0.0 -53.359829,-29.3686246991924,0.0 -53.3602645,-29.3688124991924,0.0 -53.3603934,-29.3689918991924,0.0 -53.3604339,-29.3691997991924,0.0 -53.3602709,-29.3694970991924,0.0 -53.3598444,-29.3698972991924,0.0 -53.3593955,-29.3706003991924,0.0 -53.3591262,-29.3709800991924,0.0 -53.3588258,-29.3716132991924,0.0 -53.35854,-29.3716983991924,0.0 -53.3582852,-29.3717028991923,0.0 -53.357985,-29.3715823991924,0.0 -53.3576337,-29.3714636991924,0.0 -53.3573273,-29.3715124991924,0.0 -53.357123,-29.3716732991924,0.0 -53.3568998,-29.3719490991923,0.0 -53.3566477,-29.3723548991923,0.0 -53.3563329,-29.3725816991923,0.0 -53.3559479,-29.3727337991923,0.0 -53.3553311,-29.3726577991923,0.0 -53.3545909,-29.3728216991923,0.0 -53.3542037,-29.3729618991923,0.0 -53.3538625,-29.3732371991923,0.0 -53.3536852,-29.3737457991923,0.0 -53.3533798,-29.3740603991923,0.0 -53.3528343,-29.3742969991923,0.0 -53.35237,-29.3745437991923,0.0 -53.3519291,-29.3748892991923,0.0 -53.3514799,-29.3748790991923,0.0 -53.351309,-29.3746274991923,0.0 -53.3510043,-29.3746199991923,0.0 -53.3506288,-29.3745710991923,0.0 -53.3503041,-29.3745027991923,0.0 -53.3498811,-29.3744242991923,0.0 -53.3494963,-29.3746090991923,0.0 -53.3494436,-29.3750216991923,0.0 -53.349491,-29.3756146991923,0.0 -53.3497208,-29.3759877991923,0.0 -53.3498393,-29.3765286991923,0.0 -53.3497526,-29.3769129991923,0.0 -53.3494962,-29.3770183991923,0.0 -53.3491737,-29.3769693991923,0.0 -53.3487883,-29.3766526991923,0.0 -53.3483263,-29.3765104991923,0.0 -53.3477273,-29.3764460991923,0.0 -53.3473234,-29.3766126991923,0.0 -53.3471059,-29.3767795991923,0.0 -53.3469031,-29.3770145991923,0.0 -53.346838,-29.3774002991923,0.0 -53.3468993,-29.3779183991922,0.0 -53.3470851,-29.3782035991922,0.0 -53.3471618,-29.3785517991922,0.0 -53.3476216,-29.3799144991922,0.0 -53.3478134,-29.3809661991922,0.0 -53.3479442,-29.3819319991922,0.0 -53.3479247,-29.3824581991922,0.0 -53.3477712,-29.3826256991922,0.0 -53.3475308,-29.3826920991922,0.0 -53.3469028,-29.3825643991922,0.0 -53.3463149,-29.3825660991922,0.0 -53.3457193,-29.3826477991922,0.0 -53.345083,-29.3829166991922,0.0 -53.3449221,-29.3831513991922,0.0 -53.3449574,-29.3835479991921,0.0 -53.3451993,-29.3838950991921,0.0 -53.3462784,-29.3847497991921,0.0 -53.3470371,-29.3853727991921,0.0 -53.3472505,-29.3856188991921,0.0 -53.3472121,-29.3858550991921,0.0 -53.3470958,-29.3860036991921,0.0 -53.3466452,-29.3860553991921,0.0 -53.3462445,-29.3860177991921,0.0 -53.3452637,-29.3857416991921,0.0 -53.3448243,-29.3857210991921,0.0 -53.3441138,-29.3860320991921,0.0 -53.3435108,-29.3866999991921,0.0 -53.3433937,-29.3871078991921,0.0 -53.3434813,-29.3874989991921,0.0 -53.3437843,-29.3879579991921,0.0 -53.3440467,-29.3884066991921,0.0 -53.3444221,-29.3888909991921,0.0 -53.3447904,-29.389124899192,0.0 -53.3449891,-29.389543699192,0.0 -53.3449119,-29.389934099192,0.0 -53.3448394,-29.390283599192,0.0 -53.3445218,-29.390514899192,0.0 -53.3441264,-29.390634999192,0.0 -53.3437192,-29.390648199192,0.0 -53.3433496,-29.390733199192,0.0 -53.3429524,-29.390678999192,0.0 -53.342625,-29.391070899192,0.0 -53.3425917,-29.391372499192,0.0 -53.3426841,-29.391686599192,0.0 -53.3429031,-29.392402499192,0.0 -53.3430449,-29.392707799192,0.0 -53.343195,-29.393185999192,0.0 -53.3432149,-29.393575299192,0.0 -53.3429562,-29.393664099192,0.0 -53.3425697,-29.393683099192,0.0 -53.3405194,-29.393495599192,0.0 -53.3402875,-29.393555699192,0.0 -53.340189,-29.393722299192,0.0 -53.3401481,-29.394003699192,0.0 -53.3401539,-29.394291599192,0.0 -53.3402745,-29.394550799192,0.0 -53.3411044,-29.3950335991919,0.0 -53.3416913,-29.3952265991919,0.0 -53.342358,-29.3956298991919,0.0 -53.3427351,-29.3958454991919,0.0 -53.3429156,-29.3961184991919,0.0 -53.3429615,-29.3964298991919,0.0 -53.3428112,-29.3966522991919,0.0 -53.3425213,-29.3968656991919,0.0 -53.3423307,-29.3971382991919,0.0 -53.3420478,-29.3976730991919,0.0 -53.3415287,-29.3983273991919,0.0 -53.3408608,-29.3991658991919,0.0 -53.3406685,-29.3995977991919,0.0 -53.3404028,-29.3998950991919,0.0 -53.3401797,-29.3999292991919,0.0 -53.3398523,-29.3998865991919,0.0 -53.3395462,-29.3997242991919,0.0 -53.339053,-29.3995789991919,0.0 -53.3385068,-29.3996318991919,0.0 -53.3382837,-29.3998112991919,0.0 -53.3380649,-29.4000928991919,0.0 -53.3379213,-29.4006399991919,0.0 -53.3379047,-29.4010813991918,0.0 -53.3380456,-29.4013839991918,0.0 -53.3383576,-29.4015899991918,0.0 -53.3386251,-29.4019175991918,0.0 -53.3388813,-29.4020407991918,0.0 -53.3388941,-29.4023029991918,0.0 -53.3387829,-29.4024843991918,0.0 -53.3385425,-29.4025338991918,0.0 -53.3380125,-29.4023183991918,0.0 -53.3375902,-29.4022779991918,0.0 -53.3371536,-29.4022480991918,0.0 -53.3367369,-29.4023257991918,0.0 -53.3362105,-29.4024107991918,0.0 -53.3358511,-29.4026634991918,0.0 -53.3353947,-29.4033909991918,0.0 -53.3350372,-29.4036732991918,0.0 -53.3348189,-29.4041296991918,0.0 -53.3344283,-29.4044788991918,0.0 -53.3343183,-29.4047365991918,0.0 -53.3343737,-29.4049944991918,0.0 -53.334652,-29.4053976991918,0.0 -53.3350495,-29.4056905991918,0.0 -53.3355881,-29.4059508991918,0.0 -53.3358385,-29.4060462991918,0.0 -53.3360368,-29.4061956991918,0.0 -53.3361457,-29.4064575991918,0.0 -53.3361257,-29.4067312991918,0.0 -53.3360156,-29.4069763991917,0.0 -53.3358053,-29.4071594991917,0.0 -53.3355747,-29.4073088991917,0.0 -53.3349108,-29.4074312991917,0.0 -53.3345251,-29.4075251991917,0.0 -53.3341209,-29.4077205991917,0.0 -53.3338551,-29.4079238991917,0.0 -53.3336343,-29.4082057991917,0.0 -53.3335249,-29.4083816991917,0.0 -53.3335108,-29.4085375991917,0.0 -53.3335481,-29.4086753991917,0.0 -53.3337693,-29.4089103991917,0.0 -53.3340985,-29.4090918991917,0.0 -53.3346005,-29.4092469991917,0.0 -53.3349742,-29.4093303991917,0.0 -53.3352991,-29.4094829991917,0.0 -53.3356801,-29.4097516991917,0.0 -53.3359101,-29.4101930991917,0.0 -53.3360024,-29.4106737991917,0.0 -53.3359245,-29.4110996991917,0.0 -53.3357066,-29.4117785991917,0.0 -53.33553,-29.4120489991917,0.0 -53.3354021,-29.4123592991917,0.0 -53.3350972,-29.4126069991917,0.0 -53.3349096,-29.4128545991917,0.0 -53.3346814,-29.4130276991917,0.0 -53.3344,-29.4131100991916,0.0 -53.3341472,-29.4130980991916,0.0 -53.3336284,-29.4129855991916,0.0 -53.3329769,-29.4129238991917,0.0 -53.3325972,-29.4128868991917,0.0 -53.3321289,-29.4126013991917,0.0 -53.3317647,-29.4122416991917,0.0 -53.3314609,-29.4119658991917,0.0 -53.3309767,-29.4116779991917,0.0 -53.3303849,-29.4114923991917,0.0 -53.3298486,-29.4115705991917,0.0 -53.3294637,-29.4117576991917,0.0 -53.3291505,-29.4120625991917,0.0 -53.3290407,-29.4122795991917,0.0 -53.3288339,-29.4125307991917,0.0 -53.3283354,-29.4128378991916,0.0 -53.3278473,-29.4133129991916,0.0 -53.3274859,-29.4136562991916,0.0 -53.3271468,-29.4141765991916,0.0 -53.3270861,-29.4146473991916,0.0 -53.3271073,-29.4150607991916,0.0 -53.3271803,-29.4152924991916,0.0 -53.3274338,-29.4155038991916,0.0 -53.3277703,-29.4156335991916,0.0 -53.3285197,-29.4156191991916,0.0 -53.3292591,-29.4154583991916,0.0 -53.329878,-29.4152594991916,0.0 -53.3305951,-29.4150892991916,0.0 -53.3312674,-29.4150751991916,0.0 -53.3317784,-29.4152345991916,0.0 -53.3320042,-29.4153978991916,0.0 -53.3321106,-29.4156233991916,0.0 -53.3320897,-29.4162270991916,0.0 -53.3319669,-29.4168937991916,0.0 -53.3319841,-29.4173403991916,0.0 -53.3320648,-29.4178033991916,0.0 -53.3322533,-29.4181955991916,0.0 -53.3324834,-29.4184873991916,0.0 -53.3325264,-29.4187590991915,0.0 -53.3323952,-29.4190104991916,0.0 -53.332238,-29.4191826991915,0.0 -53.3320376,-29.4192242991915,0.0 -53.3317689,-29.4193993991915,0.0 -53.3308428,-29.4196663991915,0.0 -53.3301809,-29.4196658991915,0.0 -53.3296675,-29.4197793991915,0.0 -53.329388,-29.4200437991915,0.0 -53.3291153,-29.4204358991915,0.0 -53.3286826,-29.4211457991915,0.0 -53.32834,-29.4215254991915,0.0 -53.3280501,-29.4219735991915,0.0 -53.3279329,-29.4225417991915,0.0 -53.3280121,-29.4228978991915,0.0 -53.3279918,-29.4232298991915,0.0 -53.3280356,-29.4235962991915,0.0 -53.3281343,-29.4238507991915,0.0 -53.3284232,-29.4241355991915,0.0 -53.3288609,-29.4244296991915,0.0 -53.3291727,-29.4248210991915,0.0 -53.3294622,-29.4250802991914,0.0 -53.3296921,-29.4251973991914,0.0 -53.3298433,-29.4254803991914,0.0 -53.3299361,-29.4256930991914,0.0 -53.3299382,-29.4261964991914,0.0 -53.3298256,-29.4267582991914,0.0 -53.3297429,-29.4270045991914,0.0 -53.3295792,-29.4272445991914,0.0 -53.3293254,-29.4273746991914,0.0 -53.3290941,-29.4273293991914,0.0 -53.3290175,-29.4271932991914,0.0 -53.3285996,-29.4272712991914,0.0 -53.3283714,-29.4274272991914,0.0 -53.3281527,-29.4275447991914,0.0 -53.3279435,-29.4275146991914,0.0 -53.3277044,-29.4273571991914,0.0 -53.3273536,-29.4273077991914,0.0 -53.326849,-29.4272735991914,0.0 -53.3263531,-29.4272400991914,0.0 -53.3259732,-29.4270792991914,0.0 -53.3254344,-29.4266618991914,0.0 -53.3248955,-29.4263550991914,0.0 -53.3244731,-29.4259777991914,0.0 -53.3241395,-29.4257625991914,0.0 -53.3239919,-29.4257437991914,0.0 -53.3237887,-29.4256048991914,0.0 -53.3234672,-29.4252272991914,0.0 -53.3231012,-29.4250184991914,0.0 -53.3225593,-29.4250688991914,0.0 -53.3219352,-29.4252031991914,0.0 -53.3212572,-29.4254032991914,0.0 -53.3208862,-29.4255808991914,0.0 -53.3204576,-29.4257212991914,0.0 -53.3199384,-29.4260531991914,0.0 -53.3197469,-29.4264566991914,0.0 -53.3196768,-29.4269422991914,0.0 -53.3196086,-29.4274575991914,0.0 -53.3194281,-29.4281300991914,0.0 -53.319402,-29.4285648991914,0.0 -53.3194288,-29.4289596991914,0.0 -53.3195261,-29.4292883991914,0.0 -53.3195908,-29.4298124991914,0.0 -53.3196421,-29.4302401991914,0.0 -53.3195608,-29.4306031991913,0.0 -53.3193608,-29.4310149991913,0.0 -53.3191785,-29.4314920991913,0.0 -53.3191116,-29.4317338991913,0.0 -53.3189491,-29.4319743991913,0.0 -53.3185749,-29.4322777991913,0.0 -53.3181254,-29.4324865991913,0.0 -53.3177202,-29.4328354991913,0.0 -53.3173562,-29.4333551991913,0.0 -53.31714,-29.4339204991913,0.0 -53.3167324,-29.4347305991913,0.0 -53.3165477,-29.4352756991913,0.0 -53.3163284,-29.4357679991913,0.0 -53.3160215,-29.4361844991913,0.0 -53.3156467,-29.4367124991912,0.0 -53.3153528,-29.4371242991912,0.0 -53.3152002,-29.4372101991912,0.0 -53.3150849,-29.4371722991912,0.0 -53.3149684,-29.4370499991912,0.0 -53.3148083,-29.4368819991912,0.0 -53.3144835,-29.4367395991912,0.0 -53.3142376,-29.4364726991912,0.0 -53.3141285,-29.4361320991913,0.0 -53.3141669,-29.4357789991913,0.0 -53.3141737,-29.4353753991913,0.0 -53.3140034,-29.4351607991913,0.0 -53.3137793,-29.4351176991913,0.0 -53.313569,-29.4352156991913,0.0 -53.3132033,-29.4356382991913,0.0 -53.3128476,-29.4362609991912,0.0 -53.3127306,-29.4371035991912,0.0 -53.3126562,-29.4375309991912,0.0 -53.2493948,-29.4157727991916,0.0 -53.2382415,-29.4119080991917,0.0 -53.2399134,-29.4144046991916,0.0 -53.2414034,-29.4167089991916,0.0 -53.2428374,-29.4198400991915,0.0 -53.2443979,-29.4226143991915,0.0 -53.2494926,-29.4247513991914,0.0 -53.2508183,-29.4242816991915,0.0 -53.2577021,-29.4328128991913,0.0 -53.2591438,-29.4336833991913,0.0 -53.261115,-29.4348733991913,0.0 -53.2650549,-29.4341996991913,0.0 -53.2696685,-29.4303882991914,0.0 -53.2728108,-29.4290819991914,0.0 -53.2760221,-29.4290940991914,0.0 -53.2794116,-29.4301282991914,0.0 -53.2862291,-29.4355723991913,0.0 -53.2874058,-29.4391529991912,0.0 -53.2852856,-29.4441683991911,0.0 -53.2816738,-29.4472549991911,0.0 -53.2782339,-29.4475701991911,0.0 -53.2665451,-29.4446735991911,0.0 -53.2637859,-29.4460918991911,0.0 -53.265351,-29.449331999191,0.0 -53.268724,-29.451301899191,0.0 -53.2795566,-29.454106099191,0.0 -53.2836021,-29.453008399191,0.0 -53.2864698,-29.449776999191,0.0 -53.2888739,-29.4487063991911,0.0 -53.2913731,-29.448472499191,0.0 -53.2932904,-29.450107499191,0.0 -53.2941681,-29.452569499191,0.0 -53.2908596,-29.4639089991908,0.0 -53.2866842,-29.4698289991907,0.0 -53.2816946,-29.4742884991906,0.0 -53.2804882,-29.4764957991906,0.0 -53.2808026,-29.4782566991905,0.0 -53.2883508,-29.4817091991905,0.0 -53.290831,-29.4828436991905,0.0 -53.2939124,-29.4859083991904,0.0 -53.3163389,-29.4854788991904,0.0 -53.3171685,-29.4904718991903,0.0 -53.3554053,-29.4897072991903,0.0 -53.3865327,-29.4890759991904,0.0 -53.3966757,-29.4888678991904,0.0 -53.3967965,-29.4926664991903,0.0 -53.4072704,-29.4925285991903,0.0 -53.4075128,-29.4981879991902,0.0 -53.4180871,-29.4980911991902,0.0 -53.4182221,-29.5049705991901,0.0 -53.424155,-29.5050406991901,0.0 -53.4286596,-29.5050934991901,0.0 -53.4289394,-29.51240559919,0.0 -53.4392223,-29.51227979919,0.0 -53.4394109,-29.5139910991899,0.0 -53.4530548,-29.5136129991899,0.0 -53.4621807,-29.5179516991899,0.0 -53.4646359,-29.5182890991899,0.0 -53.4658253,-29.5176650991899,0.0 -53.471859,-29.5175538991899,0.0 -53.4732366,-29.5166517991899,0.0 -53.4735522,-29.5152501991899,0.0 -53.4762504,-29.5140753991899,0.0 -53.4767666,-29.5149723991899,0.0 -53.4799615,-29.5205231991898,0.0 -53.4779009,-29.5255110991897,0.0 -53.492032,-29.5252329991897,0.0 -53.4925327,-29.5230075991898,0.0 -53.4910306,-29.5212272991898,0.0 -53.4911975,-29.5187793991899,0.0 -53.4925327,-29.5163870991899,0.0 -53.4945355,-29.5153299991899,0.0 -53.5004378,-29.5171870991899,0.0 -53.502857,-29.5183652991899,0.0 -53.5041011,-29.5183853991899,0.0 -53.5072024,-29.5171427991899,0.0 -53.5083986,-29.51315439919,0.0 -53.512972,-29.50862069919,0.0 -53.5116273,-29.5006209991902,0.0 -53.5133781,-29.4981049991902,0.0 -53.5124913,-29.4963550991902,0.0 -53.5144761,-29.4923315991903,0.0 -53.5119918,-29.4891189991904,0.0 -53.5125264,-29.4857883991904,0.0 -53.5153051,-29.4834546991905,0.0 -53.5153665,-29.4809658991905,0.0 -53.5208837,-29.4812348991905,0.0 -53.5218903,-29.4780926991905,0.0 -53.523691,-29.4764662991906,0.0 -53.5237875,-29.4756618991906,0.0 -53.5218338,-29.4734337991906,0.0 -53.5184037,-29.4710207991907,0.0 -53.5176726,-29.4703820991907,0.0 -53.5164567,-29.4684984991907,0.0 -53.5163698,-29.4622723991908,0.0 -53.5157196,-29.4613371991908,0.0 -53.5124281,-29.4606440991908,0.0 -53.508352,-29.4606479991908,0.0 -53.5032365,-29.4583474991909,0.0 -53.4990871,-29.4550236991909,0.0 -53.4997204,-29.4543232991909,0.0 -53.5011198,-29.449155599191,0.0 -53.5054751,-29.4467540991911,0.0 -53.5083123,-29.4427959991911,0.0 -53.5058459,-29.4423366991912,0.0 -53.5040421,-29.4429984991911,0.0 -53.5019173,-29.4449815991911,0.0 -53.5003073,-29.4447698991911,0.0 -53.4992514,-29.4440170991911,0.0 -53.4991124,-29.4418937991911,0.0 -53.4997411,-29.4404355991912,0.0 -53.5015609,-29.4392461991912,0.0 -53.5070129,-29.4356803991913,0.0 -53.5085928,-29.4331276991913,0.0 -53.5061,-29.4283775991914,0.0 -53.5060568,-29.4266750991914,0.0 -53.505807,-29.4252523991914,0.0 -53.5048339,-29.4251016991914,0.0 -53.5013044,-29.4255034991914,0.0 -53.5006482,-29.4250382991914,0.0 -53.5004694,-29.4221867991915,0.0 -53.5009229,-29.4215352991915,0.0 -53.5027909,-29.4213987991915,0.0 -53.5036806,-29.4215320991915,0.0 -53.5047285,-29.4219779991915,0.0 -53.5060092,-29.4235037991915,0.0 -53.5077878,-29.4241761991915,0.0 -53.5089482,-29.4237374991915,0.0 -53.5102188,-29.4192232991915,0.0 -53.5131687,-29.4184455991916,0.0 -53.5134018,-29.4177517991916,0.0 -53.5133401,-29.4164172991916,0.0 -53.5137701,-29.4152757991916,0.0 -53.5146474,-29.4151950991916,0.0 -53.5158708,-29.4153510991916,0.0 -53.5199365,-29.4161073991916,0.0 -53.5203213,-29.4155737991916,0.0 -53.5208361,-29.4141185991916,0.0 -53.5229343,-29.4092066991917,0.0 -53.5221796,-29.4088683991917,0.0 -53.5204014,-29.4088213991917,0.0 -53.5165318,-29.4078420991917,0.0 -53.5156776,-29.4065560991918,0.0 -53.5159978,-29.4059563991918,0.0 -53.5206056,-29.4043825991918,0.0 -53.5248379,-29.4055551991918,0.0 -53.5257228,-29.4056025991918,0.0 -53.5264418,-29.4047389991918,0.0 -53.5266012,-29.4027971991918,0.0 -53.5294384,-29.3997416991919,0.0 -53.5318724,-29.4000804991919,0.0 -53.5326785,-29.3997684991919,0.0 -53.5298515,-29.3970582991919,0.0 -53.5292794,-29.3968929991919,0.0 -53.5271999,-29.3994468991919,0.0 -53.5261093,-29.3995629991919,0.0 -53.5241399,-29.3954817991919,0.0 -53.5129804,-29.3883243991921,0.0 -53.5132797,-29.3877822991921,0.0 -53.517653,-29.3859803991921,0.0 -53.5212088,-29.3860247991921,0.0 -53.5238629,-29.3850589991921,0.0 -53.5231177,-29.3838131991922,0.0 -53.5216318,-29.3821451991922,0.0 -53.5211871,-29.3816464991922,0.0 -53.5200827,-29.3819058991922,0.0 -53.5182982,-29.3830740991922,0.0 -53.5181383,-29.3813756991922,0.0 -53.5161605,-29.3820234991922,0.0 -53.5128679,-29.3823136991922,0.0 -53.5114415,-29.3781656991922,0.0 -53.5142996,-29.3771566991923,0.0 -53.5146953,-29.3764724991923,0.0 -53.5149148,-29.3751380991923,0.0 -53.5136265,-29.3744387991923,0.0 -53.5110741,-29.3712023991924,0.0 -53.5105019,-29.3711009991924,0.0 -53.5075667,-29.3714681991924,0.0 -53.5072543,-29.3674577991924,0.0 -53.5052987,-29.3678249991924,0.0 -53.5039104,-29.3671747991924,0.0 -53.5001852,-29.3648386991925,0.0 -53.5023317,-29.3629079991925,0.0 -53.4977412,-29.3610566991925,0.0 -53.4965557,-29.3598107991926,0.0 -53.4947495,-29.3610173991925,0.0 -53.4948126,-29.3584545991926,0.0 -53.4941633,-29.3585594991926,0.0 -53.4932419,-29.3591080991926,0.0 -53.4907958,-29.3581135991926,0.0 -53.4901237,-29.3582436991926,0.0 -53.4863481,-29.3605161991925,0.0 -53.4862102,-29.3588637991926,0.0 -53.4827556,-29.3575178991926,0.0 -53.4807191,-29.3570020991926,0.0 -53.4802143,-29.3572211991926,0.0 -53.4795934,-29.3590266991926,0.0 -53.4781609,-29.3588117991926,0.0 -53.4780042,-29.3568335991926,0.0 -53.4765295,-29.3564254991926,0.0 -53.4755036,-29.3554497991926,0.0 -53.4736108,-29.3562398991926,0.0 -53.4730262,-29.3559686991926,0.0 -53.4722228,-29.3533979991927,0.0 -53.4704101,-29.3512445991927,0.0 -53.468634,-29.3508044991927,0.0 -53.4652384,-29.3520565991927,0.0 -53.4627098,-29.3501762991927,0.0 -53.4619118,-29.3499555991927,0.0 -53.4547477,-29.3520763991927,0.0 -53.4486464,-29.3482008991928,0.0 -53.4388665,-29.3493662991927,0.0</coordinates>
</LinearRing>
</outerBoundaryIs>
</Polygon>
</MultiGeometry>
</Placemark>
</Folder>
</Document></kml>
