<?xml version='1.0' encoding='UTF-8'?>
<kml xmlns:xsd="http://www.w3.org/2001/XMLSchema" xmlns:gx="http://www.google.com/kml/ext/2.2" xmlns:atom="http://www.w3.org/2005/Atom" xmlns="http://www.opengis.net/kml/2.2">
<Document>
<name>sao_martinho_4319109_localidades_2022</name>
<visibility>1</visibility>
<Schema name="Localidades" id="kml_schema_ft_Localidades">
<SimpleField type="xsd:string" name="CD_UF">
<displayName>CD_UF</displayName>
</SimpleField>
<SimpleField type="xsd:string" name="NM_UF">
<displayName>NM_UF</displayName>
</SimpleField>
<SimpleField type="xsd:string" name="SIGLA_UF">
<displayName>SIGLA_UF</displayName>
</SimpleField>
<SimpleField type="xsd:string" name="CD_MUN">
<displayName>CD_MUN</displayName>
</SimpleField>
<SimpleField type="xsd:string" name="NM_MUN">
<displayName>NM_MUN</displayName>
</SimpleField>
<SimpleField type="xsd:string" name="CD_RGINT">
<displayName>CD_RGINT</displayName>
</SimpleField>
<SimpleField type="xsd:string" name="NM_RGINT">
<displayName>NM_RGINT</displayName>
</SimpleField>
<SimpleField type="xsd:string" name="CD_RGI">
<displayName>CD_RGI</displayName>
</SimpleField>
<SimpleField type="xsd:string" name="NM_RGI">
<displayName>NM_RGI</displayName>
</SimpleField>
<SimpleField type="xsd:string" name="CT_LOCALIDADE">
<displayName>CT_LOCALIDADE</displayName>
</SimpleField>
<SimpleField type="xsd:string" name="SCT_LOCALIDADE">
<displayName>SCT_LOCALIDADE</displayName>
</SimpleField>
<SimpleField type="xsd:string" name="CD_LOCALIDADE">
<displayName>CD_LOCALIDADE</displayName>
</SimpleField>
<SimpleField type="xsd:string" name="NM_LOCALIDADE">
<displayName>NM_LOCALIDADE</displayName>
</SimpleField>
</Schema>
<Schema name="Núcleos Urbanos" id="kml_schema_ft_Núcleos_Urbanos">
<SimpleField type="xsd:string" name="CD_UF">
<displayName>CD_UF</displayName>
</SimpleField>
<SimpleField type="xsd:string" name="NM_UF">
<displayName>NM_UF</displayName>
</SimpleField>
<SimpleField type="xsd:string" name="SIGLA_UF">
<displayName>SIGLA_UF</displayName>
</SimpleField>
<SimpleField type="xsd:string" name="CD_MUN">
<displayName>CD_MUN</displayName>
</SimpleField>
<SimpleField type="xsd:string" name="NM_MUN">
<displayName>NM_MUN</displayName>
</SimpleField>
<SimpleField type="xsd:string" name="CD_RGINT">
<displayName>CD_RGINT</displayName>
</SimpleField>
<SimpleField type="xsd:string" name="NM_RGINT">
<displayName>NM_RGINT</displayName>
</SimpleField>
<SimpleField type="xsd:string" name="CD_RGI">
<displayName>CD_RGI</displayName>
</SimpleField>
<SimpleField type="xsd:string" name="NM_RGI">
<displayName>NM_RGI</displayName>
</SimpleField>
<SimpleField type="xsd:string" name="CT_LOCALIDADE">
<displayName>CT_LOCALIDADE</displayName>
</SimpleField>
<SimpleField type="xsd:string" name="CD_LOCALIDADE">
<displayName>CD_LOCALIDADE</displayName>
</SimpleField>
<SimpleField type="xsd:string" name="NM_LOCALIDADE">
<displayName>NM_LOCALIDADE</displayName>
</SimpleField>
<SimpleField type="xsd:string" name="LAT_LOCALIDADE">
<displayName>LAT_LOCALIDADE</displayName>
</SimpleField>
<SimpleField type="xsd:string" name="LONG_LOCALIDADE">
<displayName>LONG_LOCALIDADE</displayName>
</SimpleField>
</Schema>
<Schema name="01. Cidade" id="kml_schema_ft_01._Cidade">
<SimpleField type="xsd:string" name="CD_UF">
<displayName>CD_UF</displayName>
</SimpleField>
<SimpleField type="xsd:string" name="NM_UF">
<displayName>NM_UF</displayName>
</SimpleField>
<SimpleField type="xsd:string" name="SIGLA_UF">
<displayName>SIGLA_UF</displayName>
</SimpleField>
<SimpleField type="xsd:string" name="CD_MUN">
<displayName>CD_MUN</displayName>
</SimpleField>
<SimpleField type="xsd:string" name="NM_MUN">
<displayName>NM_MUN</displayName>
</SimpleField>
<SimpleField type="xsd:string" name="CD_RGINT">
<displayName>CD_RGINT</displayName>
</SimpleField>
<SimpleField type="xsd:string" name="NM_RGINT">
<displayName>NM_RGINT</displayName>
</SimpleField>
<SimpleField type="xsd:string" name="CD_RGI">
<displayName>CD_RGI</displayName>
</SimpleField>
<SimpleField type="xsd:string" name="NM_RGI">
<displayName>NM_RGI</displayName>
</SimpleField>
<SimpleField type="xsd:string" name="CT_LOCALIDADE">
<displayName>CT_LOCALIDADE</displayName>
</SimpleField>
<SimpleField type="xsd:string" name="SCT_LOCALIDADE">
<displayName>SCT_LOCALIDADE</displayName>
</SimpleField>
<SimpleField type="xsd:string" name="CD_LOCALIDADE">
<displayName>CD_LOCALIDADE</displayName>
</SimpleField>
<SimpleField type="xsd:string" name="NM_LOCALIDADE">
<displayName>NM_LOCALIDADE</displayName>
</SimpleField>
<SimpleField type="xsd:string" name="LAT_LOCALIDADE">
<displayName>LAT_LOCALIDADE</displayName>
</SimpleField>
<SimpleField type="xsd:string" name="LONG_LOCALIDADE">
<displayName>LONG_LOCALIDADE</displayName>
</SimpleField>
</Schema>
<Schema name="Município" id="kml_schema_ft_Município">
<SimpleField type="xsd:string" name="CD_UF">
<displayName>CD_UF</displayName>
</SimpleField>
<SimpleField type="xsd:string" name="NM_UF">
<displayName>NM_UF</displayName>
</SimpleField>
<SimpleField type="xsd:string" name="CD_MUN">
<displayName>CD_MUN</displayName>
</SimpleField>
<SimpleField type="xsd:string" name="NM_MUN">
<displayName>NM_MUN</displayName>
</SimpleField>
<SimpleField type="xsd:string" name="CD_RGINT">
<displayName>CD_RGINT</displayName>
</SimpleField>
<SimpleField type="xsd:string" name="NM_RGINT">
<displayName>NM_RGINT</displayName>
</SimpleField>
<SimpleField type="xsd:string" name="CD_RGI">
<displayName>CD_RGI</displayName>
</SimpleField>
<SimpleField type="xsd:string" name="NM_RGI">
<displayName>NM_RGI</displayName>
</SimpleField>
</Schema>
<Folder id="01. Cidade">
<name>01. Cidade</name>
<Folder id="01.03. Sede Municipal">
<name>01.03. Sede Municipal</name>
<Placemark id="01.03. Sede Municipal">
<name>São Martinho [4319109]</name>
<visibility>1</visibility>
<snippet> </snippet>
<description>&lt;center&gt;&lt;table&gt;&lt;tr&gt;&lt;th colspan='2' align='center'&gt;&lt;em&gt;Atributos&lt;/em&gt;&lt;/th&gt;&lt;/tr&gt;&lt;tr bgcolor="#E3E3F3"&gt;
&lt;th&gt;CD_UF&lt;/th&gt;
&lt;td&gt;43&lt;/td&gt;
&lt;/tr&gt;&lt;tr bgcolor=""&gt;
&lt;th&gt;NM_UF&lt;/th&gt;
&lt;td&gt;Rio Grande do Sul&lt;/td&gt;
&lt;/tr&gt;&lt;tr bgcolor="#E3E3F3"&gt;
&lt;th&gt;SIGLA_UF&lt;/th&gt;
&lt;td&gt;RS&lt;/td&gt;
&lt;/tr&gt;&lt;tr bgcolor=""&gt;
&lt;th&gt;CD_MUN&lt;/th&gt;
&lt;td&gt;4319109&lt;/td&gt;
&lt;/tr&gt;&lt;tr bgcolor="#E3E3F3"&gt;
&lt;th&gt;NM_MUN&lt;/th&gt;
&lt;td&gt;São Martinho&lt;/td&gt;
&lt;/tr&gt;&lt;tr bgcolor=""&gt;
&lt;th&gt;CD_RGINT&lt;/th&gt;
&lt;td&gt;4305&lt;/td&gt;
&lt;/tr&gt;&lt;tr bgcolor="#E3E3F3"&gt;
&lt;th&gt;NM_RGINT&lt;/th&gt;
&lt;td&gt;Ijuí&lt;/td&gt;
&lt;/tr&gt;&lt;tr bgcolor=""&gt;
&lt;th&gt;CD_RGI&lt;/th&gt;
&lt;td&gt;430021&lt;/td&gt;
&lt;/tr&gt;&lt;tr bgcolor="#E3E3F3"&gt;
&lt;th&gt;NM_RGI&lt;/th&gt;
&lt;td&gt;Três Passos&lt;/td&gt;
&lt;/tr&gt;&lt;tr bgcolor=""&gt;
&lt;th&gt;CT_LOCALIDADE&lt;/th&gt;
&lt;td&gt;Cidade&lt;/td&gt;
&lt;/tr&gt;&lt;tr bgcolor="#E3E3F3"&gt;
&lt;th&gt;SCT_LOCALIDADE&lt;/th&gt;
&lt;td&gt;Sede Municipal&lt;/td&gt;
&lt;/tr&gt;&lt;tr bgcolor=""&gt;
&lt;th&gt;CD_LOCALIDADE&lt;/th&gt;
&lt;td&gt;4319109&lt;/td&gt;
&lt;/tr&gt;&lt;tr bgcolor="#E3E3F3"&gt;
&lt;th&gt;NM_LOCALIDADE&lt;/th&gt;
&lt;td&gt;São Martinho&lt;/td&gt;
&lt;/tr&gt;&lt;tr bgcolor=""&gt;
&lt;th&gt;LAT_LOCALIDADE&lt;/th&gt;
&lt;td&gt;-27.7077&lt;/td&gt;
&lt;/tr&gt;&lt;tr bgcolor="#E3E3F3"&gt;
&lt;th&gt;LONG_LOCALIDADE&lt;/th&gt;
&lt;td&gt;-53.9623&lt;/td&gt;
&lt;/tr&gt;&lt;/table&gt;&lt;/center&gt;</description>
<Style>
<IconStyle>
<color>ff00aaff</color>
<scale>1.0</scale>
<Icon>
<href>http://maps.google.com/mapfiles/kml/shapes/placemark_circle.png</href>
</Icon>
</IconStyle>
<LabelStyle>
<scale>1.0</scale>
</LabelStyle>
<LineStyle>
<color>ffffffff</color>
<width>3</width>
<gx:labelVisibility>1</gx:labelVisibility>
</LineStyle>
<PolyStyle>
<color>00ffffff</color>
</PolyStyle>
</Style>
<ExtendedData>
<SchemaData schemaUrl="#kml_schema_ft_01._Cidade">
<SimpleData name="CD_UF">43</SimpleData>
<SimpleData name="NM_UF">Rio Grande do Sul</SimpleData>
<SimpleData name="SIGLA_UF">RS</SimpleData>
<SimpleData name="CD_MUN">4319109</SimpleData>
<SimpleData name="NM_MUN">São Martinho</SimpleData>
<SimpleData name="CD_RGINT">4305</SimpleData>
<SimpleData name="NM_RGINT">Ijuí</SimpleData>
<SimpleData name="CD_RGI">430021</SimpleData>
<SimpleData name="NM_RGI">Três Passos</SimpleData>
<SimpleData name="CT_LOCALIDADE">Cidade</SimpleData>
<SimpleData name="SCT_LOCALIDADE">Sede Municipal</SimpleData>
<SimpleData name="CD_LOCALIDADE">4319109</SimpleData>
<SimpleData name="NM_LOCALIDADE">São Martinho</SimpleData>
<SimpleData name="LAT_LOCALIDADE">-27.7077</SimpleData>
<SimpleData name="LONG_LOCALIDADE">-53.9623</SimpleData>
</SchemaData>
</ExtendedData>
<Point>
<extrude>0</extrude>
<coordinates>-53.962282,-27.707689999222,0.0</coordinates>
</Point>
</Placemark>
</Folder>
</Folder>
<Folder id="05. Núcleos Urbanos">
<name>05. Núcleos Urbanos</name>
<Placemark id="localidades">
<name>Área Industrial São Martinho [4319109002]</name>
<visibility>1</visibility>
<snippet> </snippet>
<description>&lt;center&gt;&lt;table&gt;&lt;tr&gt;&lt;th colspan='2' align='center'&gt;&lt;em&gt;Attributes&lt;/em&gt;&lt;/th&gt;&lt;/tr&gt;&lt;tr bgcolor="#E3E3F3"&gt;
&lt;th&gt;CD_UF&lt;/th&gt;
&lt;td&gt;43&lt;/td&gt;
&lt;/tr&gt;&lt;tr bgcolor=""&gt;
&lt;th&gt;NM_UF&lt;/th&gt;
&lt;td&gt;Rio Grande do Sul&lt;/td&gt;
&lt;/tr&gt;&lt;tr bgcolor="#E3E3F3"&gt;
&lt;th&gt;SIGLA_UF&lt;/th&gt;
&lt;td&gt;RS&lt;/td&gt;
&lt;/tr&gt;&lt;tr bgcolor=""&gt;
&lt;th&gt;CD_MUN&lt;/th&gt;
&lt;td&gt;4319109&lt;/td&gt;
&lt;/tr&gt;&lt;tr bgcolor="#E3E3F3"&gt;
&lt;th&gt;NM_MUN&lt;/th&gt;
&lt;td&gt;São Martinho&lt;/td&gt;
&lt;/tr&gt;&lt;tr bgcolor=""&gt;
&lt;th&gt;CD_RGINT&lt;/th&gt;
&lt;td&gt;4305&lt;/td&gt;
&lt;/tr&gt;&lt;tr bgcolor="#E3E3F3"&gt;
&lt;th&gt;NM_RGINT&lt;/th&gt;
&lt;td&gt;Ijuí&lt;/td&gt;
&lt;/tr&gt;&lt;tr bgcolor=""&gt;
&lt;th&gt;CD_RGI&lt;/th&gt;
&lt;td&gt;430021&lt;/td&gt;
&lt;/tr&gt;&lt;tr bgcolor="#E3E3F3"&gt;
&lt;th&gt;NM_RGI&lt;/th&gt;
&lt;td&gt;Três Passos&lt;/td&gt;
&lt;/tr&gt;&lt;tr bgcolor=""&gt;
&lt;th&gt;CT_LOCALIDADE&lt;/th&gt;
&lt;td&gt;Núcleo Urbano&lt;/td&gt;
&lt;/tr&gt;&lt;tr bgcolor="#E3E3F3"&gt;
&lt;th&gt;CD_LOCALIDADE&lt;/th&gt;
&lt;td&gt;4319109002&lt;/td&gt;
&lt;/tr&gt;&lt;tr bgcolor=""&gt;
&lt;th&gt;NM_LOCALIDADE&lt;/th&gt;
&lt;td&gt;Área Industrial São Martinho&lt;/td&gt;
&lt;/tr&gt;&lt;tr bgcolor="#E3E3F3"&gt;
&lt;th&gt;LAT_LOCALIDADE&lt;/th&gt;
&lt;td&gt;-27.7217&lt;/td&gt;
&lt;/tr&gt;&lt;tr bgcolor=""&gt;
&lt;th&gt;LONG_LOCALIDADE&lt;/th&gt;
&lt;td&gt;-53.9436&lt;/td&gt;
&lt;/tr&gt;&lt;/table&gt;&lt;/center&gt;</description>
<Style>
<IconStyle>
<color>ff0000ff</color>
<scale>0.9</scale>
<Icon>
<href>http://maps.google.com/mapfiles/kml/shapes/placemark_circle.png</href>
</Icon>
</IconStyle>
<LabelStyle>
<scale>0.9</scale>
</LabelStyle>
<LineStyle>
<color>72ffffff</color>
<width>1.0</width>
<gx:labelVisibility>1</gx:labelVisibility>
</LineStyle>
<PolyStyle>
<color>66ff54ff</color>
</PolyStyle>
</Style>
<ExtendedData>
<SchemaData schemaUrl="#kml_schema_ft_Núcleos_Urbanos">
<SimpleData name="CD_UF">43</SimpleData>
<SimpleData name="NM_UF">Rio Grande do Sul</SimpleData>
<SimpleData name="SIGLA_UF">RS</SimpleData>
<SimpleData name="CD_MUN">4319109</SimpleData>
<SimpleData name="NM_MUN">São Martinho</SimpleData>
<SimpleData name="CD_RGINT">4305</SimpleData>
<SimpleData name="NM_RGINT">Ijuí</SimpleData>
<SimpleData name="CD_RGI">430021</SimpleData>
<SimpleData name="NM_RGI">Três Passos</SimpleData>
<SimpleData name="CT_LOCALIDADE">Núcleo Urbano</SimpleData>
<SimpleData name="CD_LOCALIDADE">4319109002</SimpleData>
<SimpleData name="NM_LOCALIDADE">Área Industrial São Martinho</SimpleData>
<SimpleData name="LAT_LOCALIDADE">-27.7217</SimpleData>
<SimpleData name="LONG_LOCALIDADE">-53.9436</SimpleData>
</SchemaData>
</ExtendedData>
<Point>
<extrude>0</extrude>
<coordinates>-53.9435681249999,-27.7217474992218,0.0</coordinates>
</Point>
</Placemark>
</Folder>
<Folder id="12. Outras Localidades">
<name>12. Outras Localidades</name>
<Placemark id="12. Outras Localidades">
<name>Santa Lúcia [431910900001]</name>
<visibility>1</visibility>
<snippet> </snippet>
<description>&lt;center&gt;&lt;table&gt;&lt;tr&gt;&lt;th colspan='2' align='center'&gt;&lt;em&gt;Attributes&lt;/em&gt;&lt;/th&gt;&lt;/tr&gt;&lt;tr bgcolor="#E3E3F3"&gt;
&lt;th&gt;CD_UF&lt;/th&gt;
&lt;td&gt;43&lt;/td&gt;
&lt;/tr&gt;&lt;tr bgcolor=""&gt;
&lt;th&gt;NM_UF&lt;/th&gt;
&lt;td&gt;Rio Grande do Sul&lt;/td&gt;
&lt;/tr&gt;&lt;tr bgcolor="#E3E3F3"&gt;
&lt;th&gt;SIGLA_UF&lt;/th&gt;
&lt;td&gt;RS&lt;/td&gt;
&lt;/tr&gt;&lt;tr bgcolor=""&gt;
&lt;th&gt;CD_MUN&lt;/th&gt;
&lt;td&gt;4319109&lt;/td&gt;
&lt;/tr&gt;&lt;tr bgcolor="#E3E3F3"&gt;
&lt;th&gt;NM_MUN&lt;/th&gt;
&lt;td&gt;São Martinho&lt;/td&gt;
&lt;/tr&gt;&lt;tr bgcolor=""&gt;
&lt;th&gt;CD_RGINT&lt;/th&gt;
&lt;td&gt;4305&lt;/td&gt;
&lt;/tr&gt;&lt;tr bgcolor="#E3E3F3"&gt;
&lt;th&gt;NM_RGINT&lt;/th&gt;
&lt;td&gt;Ijuí&lt;/td&gt;
&lt;/tr&gt;&lt;tr bgcolor=""&gt;
&lt;th&gt;CD_RGI&lt;/th&gt;
&lt;td&gt;430021&lt;/td&gt;
&lt;/tr&gt;&lt;tr bgcolor="#E3E3F3"&gt;
&lt;th&gt;NM_RGI&lt;/th&gt;
&lt;td&gt;Três Passos&lt;/td&gt;
&lt;/tr&gt;&lt;tr bgcolor=""&gt;
&lt;th&gt;CT_LOCALIDADE&lt;/th&gt;
&lt;td&gt;Outras Localidades&lt;/td&gt;
&lt;/tr&gt;&lt;tr bgcolor="#E3E3F3"&gt;
&lt;th&gt;SCT_LOCALIDADE&lt;/th&gt;
&lt;td&gt;&lt;/td&gt;
&lt;/tr&gt;&lt;tr bgcolor=""&gt;
&lt;th&gt;CD_LOCALIDADE&lt;/th&gt;
&lt;td&gt;431910900001&lt;/td&gt;
&lt;/tr&gt;&lt;tr bgcolor="#E3E3F3"&gt;
&lt;th&gt;NM_LOCALIDADE&lt;/th&gt;
&lt;td&gt;Santa Lúcia&lt;/td&gt;
&lt;/tr&gt;&lt;/table&gt;&lt;/center&gt;</description>
<Style>
<IconStyle>
<color>ff0069d3</color>
<scale>0.6</scale>
<Icon>
<href>http://maps.google.com/mapfiles/kml/shapes/placemark_circle.png</href>
</Icon>
</IconStyle>
<LabelStyle>
<scale>0.6</scale>
</LabelStyle>
<LineStyle>
<width>1.0</width>
<gx:labelVisibility>1</gx:labelVisibility>
</LineStyle>
</Style>
<ExtendedData>
<SchemaData schemaUrl="#kml_schema_ft_Localidades">
<SimpleData name="CD_UF">43</SimpleData>
<SimpleData name="NM_UF">Rio Grande do Sul</SimpleData>
<SimpleData name="SIGLA_UF">RS</SimpleData>
<SimpleData name="CD_MUN">4319109</SimpleData>
<SimpleData name="NM_MUN">São Martinho</SimpleData>
<SimpleData name="CD_RGINT">4305</SimpleData>
<SimpleData name="NM_RGINT">Ijuí</SimpleData>
<SimpleData name="CD_RGI">430021</SimpleData>
<SimpleData name="NM_RGI">Três Passos</SimpleData>
<SimpleData name="CT_LOCALIDADE">Outras Localidades</SimpleData>
<SimpleData name="CD_LOCALIDADE">431910900001</SimpleData>
<SimpleData name="NM_LOCALIDADE">Santa Lúcia</SimpleData>
</SchemaData>
</ExtendedData>
<Point>
<extrude>0</extrude>
<coordinates>-53.892215,-27.7359649992215,0.0</coordinates>
</Point>
</Placemark>
</Folder>
<Folder id="13. Referência">
<name>13. Referência</name>
<Placemark id="13. Referência">
<name>São Martinho [4319109]</name>
<visibility>1</visibility>
<snippet> </snippet>
<description>&lt;center&gt;&lt;table&gt;&lt;tr&gt;&lt;th colspan='2' align='center'&gt;&lt;em&gt;Attributes&lt;/em&gt;&lt;/th&gt;&lt;/tr&gt;&lt;tr bgcolor="#E3E3F3"&gt;
&lt;th&gt;CD_UF&lt;/th&gt;
&lt;td&gt;43&lt;/td&gt;
&lt;/tr&gt;&lt;tr bgcolor=""&gt;
&lt;th&gt;NM_UF&lt;/th&gt;
&lt;td&gt;Rio Grande do Sul&lt;/td&gt;
&lt;/tr&gt;&lt;tr bgcolor="#E3E3F3"&gt;
&lt;th&gt;CD_MUN&lt;/th&gt;
&lt;td&gt;4319109&lt;/td&gt;
&lt;/tr&gt;&lt;tr bgcolor=""&gt;
&lt;th&gt;NM_MUN&lt;/th&gt;
&lt;td&gt;São Martinho&lt;/td&gt;
&lt;/tr&gt;&lt;tr bgcolor="#E3E3F3"&gt;
&lt;th&gt;CD_RGINT&lt;/th&gt;
&lt;td&gt;4305&lt;/td&gt;
&lt;/tr&gt;&lt;tr bgcolor=""&gt;
&lt;th&gt;NM_RGINT&lt;/th&gt;
&lt;td&gt;Ijuí&lt;/td&gt;
&lt;/tr&gt;&lt;tr bgcolor="#E3E3F3"&gt;
&lt;th&gt;CD_RGI&lt;/th&gt;
&lt;td&gt;430021&lt;/td&gt;
&lt;/tr&gt;&lt;tr bgcolor=""&gt;
&lt;th&gt;NM_RGI&lt;/th&gt;
&lt;td&gt;Três Passos&lt;/td&gt;
&lt;/tr&gt;&lt;/table&gt;&lt;/center&gt;</description>
<Style>
<IconStyle>
<scale>0.7</scale>
</IconStyle>
<LabelStyle>
<scale>0.7</scale>
</LabelStyle>
<LineStyle>
<color>ffffffff</color>
<width>3</width>
<gx:labelVisibility>1</gx:labelVisibility>
</LineStyle>
<PolyStyle>
<color>00ffffff</color>
</PolyStyle>
</Style>
<ExtendedData>
<SchemaData schemaUrl="#kml_schema_ft_Município">
<SimpleData name="CD_UF">43</SimpleData>
<SimpleData name="NM_UF">Rio Grande do Sul</SimpleData>
<SimpleData name="CD_MUN">4319109</SimpleData>
<SimpleData name="NM_MUN">São Martinho</SimpleData>
<SimpleData name="CD_RGINT">4305</SimpleData>
<SimpleData name="NM_RGINT">Ijuí</SimpleData>
<SimpleData name="CD_RGI">430021</SimpleData>
<SimpleData name="NM_RGI">Três Passos</SimpleData>
</SchemaData>
</ExtendedData>
<MultiGeometry>
<Polygon>
<extrude>0</extrude>
<tessellate>1</tessellate>
<outerBoundaryIs>
<LinearRing>
<coordinates>-53.964997,-27.7747863992208,0.0 -53.9666329,-27.7733546992208,0.0 -53.9689689,-27.7751897992208,0.0 -53.9697823,-27.7760824992207,0.0 -53.9709413,-27.7785588992207,0.0 -53.9735243,-27.7788932992207,0.0 -53.9751197,-27.7802214992207,0.0 -53.975463,-27.7805781992207,0.0 -53.9759552,-27.7808215992207,0.0 -53.9766537,-27.7807619992207,0.0 -53.9774002,-27.7805405992207,0.0 -53.978207,-27.7801767992207,0.0 -53.9785971,-27.7799516992207,0.0 -53.9788122,-27.7796956992207,0.0 -53.9770158,-27.7762446992207,0.0 -53.9768888,-27.7758675992207,0.0 -53.9768461,-27.7754227992208,0.0 -53.9767901,-27.7750319992208,0.0 -53.9769547,-27.7746808992208,0.0 -53.9772574,-27.7744589992208,0.0 -53.9776532,-27.7743144992208,0.0 -53.9787168,-27.7743163992208,0.0 -53.979664,-27.7742216992208,0.0 -53.9806518,-27.7743452992208,0.0 -53.9814768,-27.7743744992208,0.0 -53.9818438,-27.7744453992208,0.0 -53.9821815,-27.7745834992208,0.0 -53.982267,-27.7750251992208,0.0 -53.9826416,-27.7756978992207,0.0 -53.9830295,-27.7759693992207,0.0 -53.9835328,-27.7760450992207,0.0 -53.9845231,-27.7760744992207,0.0 -53.9849691,-27.7760476992207,0.0 -53.9855079,-27.7757974992207,0.0 -53.985907,-27.7755795992208,0.0 -53.9862401,-27.7752720992208,0.0 -53.9862634,-27.7748015992208,0.0 -53.9861383,-27.7740357992208,0.0 -53.9863136,-27.7734527992208,0.0 -53.9867415,-27.7726033992208,0.0 -53.9873424,-27.7716113992208,0.0 -53.9878795,-27.7709250992208,0.0 -53.988593,-27.7704390992208,0.0 -53.9887549,-27.7701959992208,0.0 -53.9887877,-27.7698796992209,0.0 -53.9887647,-27.7694674992209,0.0 -53.988569,-27.7685760992209,0.0 -53.9885561,-27.7681694992209,0.0 -53.9886499,-27.7676548992209,0.0 -53.9891695,-27.7660038992209,0.0 -53.9892953,-27.765157499221,0.0 -53.9894846,-27.764841199221,0.0 -53.9897409,-27.764690199221,0.0 -53.9902446,-27.764781799221,0.0 -53.9908457,-27.765046199221,0.0 -53.9914993,-27.7652683992209,0.0 -53.9919585,-27.7657018992209,0.0 -53.9930928,-27.7670197992209,0.0 -53.9935471,-27.7673071992209,0.0 -53.993996,-27.7678956992209,0.0 -53.9944792,-27.7689900992209,0.0 -53.9951498,-27.7698946992209,0.0 -53.9954002,-27.7700916992209,0.0 -53.9958766,-27.7700726992209,0.0 -53.9965766,-27.7699485992209,0.0 -53.9970569,-27.7699680992209,0.0 -53.9979601,-27.7703285992208,0.0 -53.9986899,-27.7707121992208,0.0 -53.9993272,-27.7707528992208,0.0 -54.0000547,-27.7707396992208,0.0 -54.0006872,-27.7703964992209,0.0 -54.0011796,-27.7698198992209,0.0 -54.0018539,-27.7686629992209,0.0 -54.0020787,-27.7682540992209,0.0 -54.0024318,-27.7680299992209,0.0 -54.0028186,-27.7678008992209,0.0 -54.0037538,-27.7664132992209,0.0 -54.0046894,-27.764358299221,0.0 -54.005292,-27.762493499221,0.0 -54.0053512,-27.761322499221,0.0 -54.0053695,-27.7593112992211,0.0 -54.0052764,-27.7588323992211,0.0 -54.0050692,-27.7582624992211,0.0 -54.0046419,-27.7568849992211,0.0 -54.0044804,-27.7560203992211,0.0 -54.0042964,-27.7555738992211,0.0 -54.0040314,-27.7553978992211,0.0 -54.0033965,-27.7551063992211,0.0 -54.002215,-27.7542212992211,0.0 -54.0026134,-27.7537426992212,0.0 -54.0040282,-27.7530555992212,0.0 -54.00462,-27.7529155992212,0.0 -54.0052122,-27.7528717992212,0.0 -54.0056033,-27.7529833992212,0.0 -54.0060952,-27.7532254992212,0.0 -54.0073589,-27.7540535992212,0.0 -54.0087328,-27.7551802992211,0.0 -54.0097481,-27.7562660992211,0.0 -54.0107366,-27.7575618992211,0.0 -54.010872,-27.7579610992211,0.0 -54.0112781,-27.7587923992211,0.0 -54.0118834,-27.759781699221,0.0 -54.012799,-27.760973699221,0.0 -54.0138274,-27.762079599221,0.0 -54.0146238,-27.763090699221,0.0 -54.0156,-27.764236699221,0.0 -54.0162854,-27.7651529992209,0.0 -54.0164512,-27.7655606992209,0.0 -54.0166561,-27.7663708992209,0.0 -54.0169197,-27.7667963992209,0.0 -54.017628,-27.7670075992209,0.0 -54.0181426,-27.7669537992209,0.0 -54.0184922,-27.7667996992209,0.0 -54.0190085,-27.7664433992209,0.0 -54.0193292,-27.7657173992209,0.0 -54.0194606,-27.764643299221,0.0 -54.0193904,-27.763485699221,0.0 -54.0191831,-27.762040199221,0.0 -54.0187817,-27.761453399221,0.0 -54.018728,-27.760731699221,0.0 -54.0187088,-27.760096199221,0.0 -54.0188864,-27.7592195992211,0.0 -54.0192467,-27.7585342992211,0.0 -54.0197249,-27.7580609992211,0.0 -54.0212517,-27.7568553992211,0.0 -54.0216733,-27.7565975992211,0.0 -54.0222462,-27.7562056992211,0.0 -54.0226405,-27.7557042992211,0.0 -54.0226345,-27.7551777992211,0.0 -54.022543,-27.7546553992211,0.0 -54.0223882,-27.7541555992211,0.0 -54.0221633,-27.7537620992212,0.0 -54.0217847,-27.7534235992212,0.0 -54.0213323,-27.7531535992212,0.0 -54.0205223,-27.7525846992212,0.0 -54.020038,-27.7522162992212,0.0 -54.0195081,-27.7518243992212,0.0 -54.0188808,-27.7512129992212,0.0 -54.0183765,-27.7507837992212,0.0 -54.0180898,-27.7503187992212,0.0 -54.0179102,-27.7497020992212,0.0 -54.0177304,-27.7488576992212,0.0 -54.0177687,-27.7476223992213,0.0 -54.0176392,-27.7467108992213,0.0 -54.0175006,-27.7460811992213,0.0 -54.0174596,-27.7455066992213,0.0 -54.0173816,-27.7441315992213,0.0 -54.0183164,-27.7409749992214,0.0 -54.0185253,-27.7403061992214,0.0 -54.0187493,-27.7399337992214,0.0 -54.019092,-27.7397374992214,0.0 -54.0196771,-27.7395173992214,0.0 -54.0204622,-27.7394897992214,0.0 -54.021122,-27.7395798992214,0.0 -54.0216143,-27.7397218992214,0.0 -54.0216342,-27.7397233992214,0.0 -54.0225314,-27.7399420992214,0.0 -54.0231677,-27.7401792992214,0.0 -54.0237769,-27.7404488992214,0.0 -54.0242236,-27.7406946992214,0.0 -54.024507,-27.7411220992214,0.0 -54.0248803,-27.7419624992214,0.0 -54.0255293,-27.7435715992213,0.0 -54.0257097,-27.7439470992213,0.0 -54.0258192,-27.7445338992213,0.0 -54.0260448,-27.7451064992213,0.0 -54.026572,-27.7464934992213,0.0 -54.0268471,-27.7468963992213,0.0 -54.0272295,-27.7474280992213,0.0 -54.0275637,-27.7477725992213,0.0 -54.0281186,-27.7484580992213,0.0 -54.0286589,-27.7490313992212,0.0 -54.0290928,-27.7494125992212,0.0 -54.0294849,-27.7497139992212,0.0 -54.0301968,-27.7502156992212,0.0 -54.0309982,-27.7506091992212,0.0 -54.0314788,-27.7508502992212,0.0 -54.032075,-27.7509716992212,0.0 -54.0325909,-27.7511330992212,0.0 -54.0336231,-27.7514450992212,0.0 -54.0344754,-27.7516184992212,0.0 -54.0351765,-27.7517023992212,0.0 -54.0356074,-27.7516598992212,0.0 -54.0359383,-27.7517361992212,0.0 -54.0374114,-27.7517570992212,0.0 -54.0377278,-27.7518423992212,0.0 -54.0381366,-27.7519478992212,0.0 -54.0387014,-27.7522295992212,0.0 -54.0390243,-27.7523224992212,0.0 -54.0393541,-27.7522263992212,0.0 -54.0398642,-27.7522729992212,0.0 -54.0405158,-27.7522130992212,0.0 -54.0411304,-27.7520957992212,0.0 -54.0415148,-27.7519998992212,0.0 -54.0418008,-27.7518432992212,0.0 -54.0419195,-27.7514796992212,0.0 -54.0418605,-27.7511030992212,0.0 -54.0417704,-27.7507442992212,0.0 -54.041706,-27.7503989992212,0.0 -54.0417424,-27.7498589992212,0.0 -54.0416296,-27.7485698992213,0.0 -54.0416021,-27.7482556992213,0.0 -54.0417729,-27.7474986992213,0.0 -54.0418726,-27.7467415992213,0.0 -54.0416735,-27.7460141992213,0.0 -54.0412831,-27.7453394992213,0.0 -54.0405802,-27.7441990992213,0.0 -54.0402253,-27.7436830992213,0.0 -54.0397663,-27.7432076992214,0.0 -54.0392755,-27.7426360992214,0.0 -54.0389207,-27.7423406992214,0.0 -54.0386492,-27.7420033992214,0.0 -54.0380804,-27.7411896992214,0.0 -54.0380078,-27.7406483992214,0.0 -54.0381879,-27.7400699992214,0.0 -54.0384308,-27.7396708992214,0.0 -54.0388801,-27.7392729992214,0.0 -54.0394899,-27.7388622992214,0.0 -54.039969,-27.7385199992214,0.0 -54.0405321,-27.7382413992214,0.0 -54.0410935,-27.7380632992214,0.0 -54.0415174,-27.7379293992214,0.0 -54.0418955,-27.7379272992215,0.0 -54.043096,-27.7378679992215,0.0 -54.0439198,-27.7376560992215,0.0 -54.0445734,-27.7376080992215,0.0 -54.0452073,-27.7374576992215,0.0 -54.0455731,-27.7374650992215,0.0 -54.046075,-27.7375365992215,0.0 -54.0465518,-27.7375926992215,0.0 -54.0469117,-27.7375502992215,0.0 -54.0472344,-27.7376290992215,0.0 -54.0477207,-27.7377518992215,0.0 -54.0485386,-27.7378786992215,0.0 -54.0493249,-27.7380765992215,0.0 -54.0497167,-27.7381874992214,0.0 -54.0501522,-27.7384175992214,0.0 -54.0505817,-27.7386591992214,0.0 -54.0512072,-27.7389361992214,0.0 -54.0519589,-27.7393893992214,0.0 -54.0526874,-27.7397469992214,0.0 -54.0529924,-27.7398656992214,0.0 -54.0533409,-27.7400188992214,0.0 -54.0536583,-27.7401093992214,0.0 -54.0539821,-27.7401911992214,0.0 -54.0547165,-27.7402560992214,0.0 -54.0550958,-27.7402949992214,0.0 -54.0559879,-27.7403016992214,0.0 -54.0562601,-27.7402947992214,0.0 -54.0566233,-27.7403283992214,0.0 -54.0572096,-27.7401859992214,0.0 -54.0577438,-27.7399581992214,0.0 -54.0587314,-27.7395116992214,0.0 -54.0594582,-27.7391049992214,0.0 -54.0603668,-27.7384770992214,0.0 -54.0606503,-27.7381294992214,0.0 -54.0607818,-27.7378257992214,0.0 -54.0608103,-27.7374557992215,0.0 -54.0601752,-27.7354925992215,0.0 -54.0603602,-27.7327230992215,0.0 -54.0605562,-27.7321968992216,0.0 -54.0608611,-27.7319600992216,0.0 -54.0613172,-27.7320290992216,0.0 -54.0619108,-27.7323795992215,0.0 -54.0622664,-27.7326763992215,0.0 -54.0627628,-27.7329647992215,0.0 -54.0633742,-27.7332306992215,0.0 -54.0647236,-27.7340791992215,0.0 -54.0658388,-27.7349440992215,0.0 -54.0668617,-27.7394506992214,0.0 -54.0669754,-27.7401283992214,0.0 -54.0671365,-27.7406382992214,0.0 -54.0669971,-27.7417014992214,0.0 -54.0670033,-27.7422684992214,0.0 -54.0671007,-27.7427606992214,0.0 -54.0673415,-27.7434283992214,0.0 -54.0676327,-27.7435991992213,0.0 -54.0679571,-27.7436050992214,0.0 -54.0685258,-27.7432796992214,0.0 -54.0690789,-27.7427337992214,0.0 -54.0697334,-27.7415766992214,0.0 -54.0705449,-27.7360472992215,0.0 -54.0706295,-27.7359486992215,0.0 -54.0706812,-27.7358499992215,0.0 -54.0707258,-27.7357313992215,0.0 -54.0707657,-27.7356009992215,0.0 -54.067247,-27.7356115992215,0.0 -54.0672282,-27.7354870992215,0.0 -54.06724,-27.7353555992215,0.0 -54.0672611,-27.7352075992215,0.0 -54.0673057,-27.7350384992215,0.0 -54.0673821,-27.7347988992215,0.0 -54.0674056,-27.7346402992215,0.0 -54.0674091,-27.7344511992215,0.0 -54.0674396,-27.7343501992215,0.0 -54.0674749,-27.7342949992215,0.0 -54.0675312,-27.7342491992215,0.0 -54.0676299,-27.7341975992215,0.0 -54.0677544,-27.7341810992215,0.0 -54.0678343,-27.7341305992215,0.0 -54.0682218,-27.7336736992215,0.0 -54.0686235,-27.7332520992215,0.0 -54.0687527,-27.7330899992215,0.0 -54.0688267,-27.7329138992215,0.0 -54.0688326,-27.7327399992216,0.0 -54.0688114,-27.7325450992216,0.0 -54.0687762,-27.7323594992216,0.0 -54.0686306,-27.7321104992216,0.0 -54.068452,-27.7319237992216,0.0 -54.0681772,-27.7317769992216,0.0 -54.0679141,-27.7315890992216,0.0 -54.0673645,-27.7314410992216,0.0 -54.0671225,-27.7313916992216,0.0 -54.0668735,-27.7313682992216,0.0 -54.0665095,-27.7313611992216,0.0 -54.0659011,-27.7313799992216,0.0 -54.0653491,-27.7314668992216,0.0 -54.0649521,-27.7315913992216,0.0 -54.0647266,-27.7316101992216,0.0 -54.0644213,-27.7316230992216,0.0 -54.0641159,-27.7315937992216,0.0 -54.0638857,-27.7315255992216,0.0 -54.0636344,-27.7313846992216,0.0 -54.0633924,-27.7312096992216,0.0 -54.0632397,-27.7310323992216,0.0 -54.0630894,-27.7308890992216,0.0 -54.063026,-27.7308349992216,0.0 -54.062878,-27.7307457992216,0.0 -54.0627676,-27.7305601992216,0.0 -54.0627007,-27.7304967992216,0.0 -54.0626196,-27.7304486992216,0.0 -54.0625538,-27.7303887992216,0.0 -54.0625127,-27.7303370992216,0.0 -54.0624822,-27.7302689992216,0.0 -54.0624669,-27.7302031992216,0.0 -54.0624305,-27.7300069992216,0.0 -54.0623882,-27.7299059992216,0.0 -54.0623448,-27.7298390992216,0.0 -54.0622591,-27.7297615992216,0.0 -54.0621545,-27.7297169992216,0.0 -54.0620829,-27.7296992992216,0.0 -54.0619995,-27.7296957992216,0.0 -54.0618797,-27.7297086992216,0.0 -54.0617012,-27.7297427992216,0.0 -54.0615591,-27.7297650992216,0.0 -54.0614193,-27.7297627992216,0.0 -54.0602648,-27.7298038992216,0.0 -54.0598995,-27.7298049992216,0.0 -54.0597868,-27.7297955992216,0.0 -54.0596576,-27.7298061992216,0.0 -54.0595131,-27.7298507992216,0.0 -54.0592912,-27.7299952992216,0.0 -54.0588331,-27.7304462992216,0.0 -54.0587321,-27.7305167992216,0.0 -54.0585818,-27.7305918992216,0.0 -54.0584009,-27.7306553992216,0.0 -54.0582224,-27.7306647992216,0.0 -54.0578701,-27.7306118992216,0.0 -54.0576563,-27.7306365992216,0.0 -54.0574543,-27.7306834992216,0.0 -54.0572805,-27.7307516992216,0.0 -54.0571278,-27.7307915992216,0.0 -54.0570127,-27.7308009992216,0.0 -54.0568741,-27.7307938992216,0.0 -54.0566251,-27.7307704992216,0.0 -54.0562822,-27.7307058992216,0.0 -54.0559768,-27.7305824992216,0.0 -54.0557137,-27.7304368992216,0.0 -54.0553027,-27.7301056992216,0.0 -54.0551547,-27.7299694992216,0.0 -54.0550091,-27.7298190992216,0.0 -54.0548282,-27.7296687992216,0.0 -54.054295,-27.7293234992216,0.0 -54.0538886,-27.7290110992216,0.0 -54.053642,-27.7288066992216,0.0 -54.0533413,-27.7286469992216,0.0 -54.0530148,-27.7284543992216,0.0 -54.0527917,-27.7282828992216,0.0 -54.0526719,-27.7280644992216,0.0 -54.0525286,-27.7277402992216,0.0 -54.0523078,-27.7272469992216,0.0 -54.0522467,-27.7270602992217,0.0 -54.052195,-27.7267807992217,0.0 -54.0521856,-27.7266374992217,0.0 -54.0521903,-27.7264824992217,0.0 -54.052222,-27.7263085992217,0.0 -54.0522772,-27.7261700992217,0.0 -54.0524017,-27.7260044992217,0.0 -54.0524534,-27.7259116992217,0.0 -54.0524745,-27.7258164992217,0.0 -54.0525239,-27.7255357992217,0.0 -54.0526507,-27.7249626992217,0.0 -54.0526695,-27.7247136992217,0.0 -54.0526578,-27.7245327992217,0.0 -54.0526084,-27.7244223992217,0.0 -54.0524158,-27.7242462992217,0.0 -54.0519108,-27.7238868992217,0.0 -54.0515232,-27.7235791992217,0.0 -54.0512907,-27.7233442992217,0.0 -54.0509548,-27.7231304992217,0.0 -54.0506024,-27.7229613992217,0.0 -54.0504967,-27.7228861992217,0.0 -54.0502337,-27.7226019992217,0.0 -54.0501421,-27.7224868992217,0.0 -54.0500857,-27.7223388992217,0.0 -54.0500481,-27.7221110992217,0.0 -54.0500387,-27.7218056992218,0.0 -54.0499823,-27.7214815992218,0.0 -54.0498414,-27.7202929992218,0.0 -54.0497991,-27.7201238992218,0.0 -54.0496464,-27.7198090992218,0.0 -54.0495384,-27.7196517992218,0.0 -54.0494843,-27.7195095992218,0.0 -54.0494444,-27.7193486992218,0.0 -54.0494115,-27.7191619992218,0.0 -54.0493974,-27.7189023992218,0.0 -54.0494491,-27.7180673992218,0.0 -54.0493951,-27.7178441992218,0.0 -54.0493105,-27.7175811992218,0.0 -54.0492377,-27.7174049992218,0.0 -54.0491907,-27.7172968992218,0.0 -54.0491297,-27.7171935992218,0.0 -54.0490345,-27.7171113992218,0.0 -54.0489277,-27.7170479992218,0.0 -54.0485706,-27.7168646992218,0.0 -54.0475794,-27.7158875992219,0.0 -54.0473821,-27.7156996992219,0.0 -54.047238,-27.7154944992219,0.0 -54.0471284,-27.7152595992219,0.0 -54.0469655,-27.7147020992219,0.0 -54.0467745,-27.7142354992219,0.0 -54.04674,-27.7140600992219,0.0 -54.046729,-27.7139253992219,0.0 -54.0467541,-27.7138110992219,0.0 -54.0468246,-27.7137061992219,0.0 -54.0470908,-27.7134117992219,0.0 -54.0474494,-27.7127837992219,0.0 -54.0475042,-27.7125833992219,0.0 -54.0475261,-27.7124377992219,0.0 -54.0475152,-27.7122372992219,0.0 -54.0474165,-27.7119585992219,0.0 -54.0471753,-27.7114981992219,0.0 -54.0470939,-27.711291499222,0.0 -54.0470062,-27.710926599222,0.0 -54.0469827,-27.710798199222,0.0 -54.0469248,-27.710665099222,0.0 -54.046834,-27.710528899222,0.0 -54.0467917,-27.710441199222,0.0 -54.0467698,-27.710345599222,0.0 -54.0467729,-27.710257999222,0.0 -54.0467948,-27.710145199222,0.0 -54.04687,-27.709869599222,0.0 -54.0469373,-27.709706699222,0.0 -54.047014,-27.709579899222,0.0 -54.0468575,-27.709493799222,0.0 -54.046632,-27.709413899222,0.0 -54.0464346,-27.709368499222,0.0 -54.0462154,-27.709341899222,0.0 -54.046076,-27.709310499222,0.0 -54.0459962,-27.709244799222,0.0 -54.0459743,-27.709147699222,0.0 -54.0459805,-27.708934699222,0.0 -54.0459633,-27.708848599222,0.0 -54.0459147,-27.708789099222,0.0 -54.045636,-27.708618399222,0.0 -54.0454606,-27.708483699222,0.0 -54.0453823,-27.708392899222,0.0 -54.0439855,-27.707390699222,0.0 -54.0437083,-27.707168299222,0.0 -54.0435689,-27.707074399222,0.0 -54.0435267,-27.707042999222,0.0 -54.043511,-27.706996099222,0.0 -54.0435267,-27.706798699222,0.0 -54.0435157,-27.706725099222,0.0 -54.0434922,-27.706667199222,0.0 -54.0433419,-27.706488699222,0.0 -54.0431289,-27.706335199222,0.0 -54.0428971,-27.706238099222,0.0 -54.0426936,-27.706175499222,0.0 -54.0425057,-27.7060658992221,0.0 -54.0423741,-27.705868599222,0.0 -54.0422584,-27.7056525992221,0.0 -54.041833,-27.7049377992221,0.0 -54.0414825,-27.7043009992221,0.0 -54.041054,-27.7034569992221,0.0 -54.0409162,-27.7032549992221,0.0 -54.04078,-27.7031280992221,0.0 -54.040614,-27.7030419992221,0.0 -54.0404104,-27.7030028992221,0.0 -54.0402334,-27.7030059992221,0.0 -54.0400408,-27.7030372992221,0.0 -54.0398545,-27.7030983992221,0.0 -54.0394693,-27.7032377992221,0.0 -54.0392813,-27.7032846992221,0.0 -54.0390872,-27.7033097992221,0.0 -54.0388053,-27.7033269992221,0.0 -54.0386581,-27.7033144992221,0.0 -54.0385422,-27.7032674992221,0.0 -54.0381617,-27.7029354992221,0.0 -54.0380176,-27.7028321992221,0.0 -54.0378751,-27.7027616992221,0.0 -54.0377295,-27.7027021992221,0.0 -54.0375838,-27.7026739992221,0.0 -54.0370827,-27.7025847992221,0.0 -54.0366427,-27.7024938992221,0.0 -54.0364172,-27.7024641992221,0.0 -54.0362857,-27.7024656992221,0.0 -54.0360946,-27.7024844992221,0.0 -54.0353132,-27.7024014992221,0.0 -54.0351268,-27.7023991992221,0.0 -54.0342969,-27.7025220992221,0.0 -54.0341072,-27.7025384992221,0.0 -54.033943,-27.7025095992221,0.0 -54.0335734,-27.7023607992221,0.0 -54.0332837,-27.7021994992221,0.0 -54.0331318,-27.7021023992221,0.0 -54.0330191,-27.7019974992221,0.0 -54.0327591,-27.7016717992221,0.0 -54.0325399,-27.7013773992221,0.0 -54.0322611,-27.7011158992221,0.0 -54.0318117,-27.7008292992221,0.0 -54.0314914,-27.7006408992221,0.0 -54.0314155,-27.7005896992221,0.0 -54.0313576,-27.7005192992221,0.0 -54.0313028,-27.7003395992222,0.0 -54.0311337,-27.6990793992222,0.0 -54.031024,-27.6985946992222,0.0 -54.0310021,-27.6984490992222,0.0 -54.0309896,-27.6982610992222,0.0 -54.0308627,-27.6979017992222,0.0 -54.0307868,-27.6978249992222,0.0 -54.030577,-27.6976699992222,0.0 -54.0304149,-27.6975892992222,0.0 -54.0301377,-27.6974828992222,0.0 -54.0299451,-27.6974311992222,0.0 -54.0293878,-27.6973365992222,0.0 -54.0292373,-27.6972792992222,0.0 -54.0291496,-27.6971884992222,0.0 -54.0290247,-27.6968759992222,0.0 -54.0289836,-27.6967742992222,0.0 -54.0289597,-27.6966786992222,0.0 -54.0289668,-27.6963811992222,0.0 -54.0289758,-27.6963525992222,0.0 -54.0289942,-27.6963286992222,0.0 -54.029056,-27.6962574992222,0.0 -54.0291046,-27.6961658992222,0.0 -54.0291391,-27.6960638992222,0.0 -54.0291437,-27.6959920992222,0.0 -54.0291284,-27.6959278992222,0.0 -54.0290642,-27.6958275992222,0.0 -54.0288168,-27.6955629992222,0.0 -54.0286305,-27.6953593992222,0.0 -54.0285475,-27.6951933992223,0.0 -54.0285263,-27.6951362992222,0.0 -54.028513,-27.6950696992223,0.0 -54.0285185,-27.6950081992223,0.0 -54.0285318,-27.6949475992222,0.0 -54.0285757,-27.6948488992223,0.0 -54.0286468,-27.6947507992223,0.0 -54.0289715,-27.6942999992223,0.0 -54.0292929,-27.6939312992223,0.0 -54.0294166,-27.6937260992223,0.0 -54.0294824,-27.6935146992223,0.0 -54.0295027,-27.6933956992223,0.0 -54.0294839,-27.6932782992223,0.0 -54.0294291,-27.6931482992223,0.0 -54.0293445,-27.6930448992223,0.0 -54.0292114,-27.6929133992223,0.0 -54.0290956,-27.6927708992223,0.0 -54.0288716,-27.6925547992223,0.0 -54.0285209,-27.6922681992223,0.0 -54.0281795,-27.6919502992223,0.0 -54.0279475,-27.6917921992223,0.0 -54.0277481,-27.6916214992223,0.0 -54.0277003,-27.6915564992223,0.0 -54.0276651,-27.6914883992223,0.0 -54.0276521,-27.6914487992223,0.0 -54.0276486,-27.6914076992223,0.0 -54.0276698,-27.6913176992223,0.0 -54.0277888,-27.6911030992223,0.0 -54.0279673,-27.6909120992223,0.0 -54.0282069,-27.6906630992223,0.0 -54.0283619,-27.6905534992223,0.0 -54.0285969,-27.6904311992223,0.0 -54.0291383,-27.6902845992223,0.0 -54.0296006,-27.6901799992223,0.0 -54.029931,-27.6901251992223,0.0 -54.0300195,-27.6901055992223,0.0 -54.0301009,-27.6900751992223,0.0 -54.0301863,-27.6900076992223,0.0 -54.0302584,-27.6899257992223,0.0 -54.0303068,-27.6897884992223,0.0 -54.0303267,-27.6896234992224,0.0 -54.0302833,-27.6894392992224,0.0 -54.0302348,-27.6892826992224,0.0 -54.0302176,-27.6892348992224,0.0 -54.0302113,-27.6892035992224,0.0 -54.0302129,-27.6891753992224,0.0 -54.0302293,-27.6891519992224,0.0 -54.0302598,-27.6891315992224,0.0 -54.0302818,-27.6891002992224,0.0 -54.0301627,-27.6889433992224,0.0 -54.0301001,-27.6887776992224,0.0 -54.0300469,-27.6885490992224,0.0 -54.0296021,-27.6868013992224,0.0 -54.0306419,-27.6866698992224,0.0 -54.0312824,-27.6865821992224,0.0 -54.0320882,-27.6864713992224,0.0 -54.0329549,-27.6863582992224,0.0 -54.0335515,-27.6862580992224,0.0 -54.0339179,-27.6861891992224,0.0 -54.0342128,-27.6861150992224,0.0 -54.0345537,-27.6860231992224,0.0 -54.0348951,-27.6859103992224,0.0 -54.0352928,-27.6857709992224,0.0 -54.0355825,-27.6856284992224,0.0 -54.0360335,-27.6853951992224,0.0 -54.0363765,-27.6851853992224,0.0 -54.0366349,-27.6850036992224,0.0 -54.0373991,-27.6844258992225,0.0 -54.0349937,-27.6819845992225,0.0 -54.0349029,-27.6816650992225,0.0 -54.0347087,-27.6813769992225,0.0 -54.0345694,-27.6812798992225,0.0 -54.0344237,-27.6812171992225,0.0 -54.0341137,-27.6811420992225,0.0 -54.0336733,-27.6810670992225,0.0 -54.0330249,-27.6809899992225,0.0 -54.0325916,-27.6809008992225,0.0 -54.0321912,-27.6807501992225,0.0 -54.0316081,-27.6803872992225,0.0 -54.0311176,-27.6799797992225,0.0 -54.030869,-27.6798172992225,0.0 -54.0306145,-27.6797215992225,0.0 -54.0303209,-27.6795478992225,0.0 -54.0301691,-27.6793933992225,0.0 -54.0300171,-27.6791250992225,0.0 -54.0299237,-27.6788525992225,0.0 -54.0295479,-27.6780402992226,0.0 -54.0294737,-27.6779177992226,0.0 -54.0293928,-27.6778282992226,0.0 -54.0292036,-27.6776848992226,0.0 -54.0291433,-27.6775951992226,0.0 -54.029101,-27.6774917992226,0.0 -54.028987,-27.6771028992226,0.0 -54.0288959,-27.6769577992226,0.0 -54.0287847,-27.6768356992226,0.0 -54.0285623,-27.6766346992226,0.0 -54.0282742,-27.6764942992226,0.0 -54.0280362,-27.6763063992226,0.0 -54.0279172,-27.6762311992226,0.0 -54.0277809,-27.6761434992226,0.0 -54.0274848,-27.6757325992226,0.0 -54.0273816,-27.6756157992226,0.0 -54.0272783,-27.6755405992226,0.0 -54.0270481,-27.6753933992226,0.0 -54.0268946,-27.6752634992226,0.0 -54.026821,-27.6751506992226,0.0 -54.0267208,-27.6749643992226,0.0 -54.0266378,-27.6747904992226,0.0 -54.0265845,-27.6747356992226,0.0 -54.0265172,-27.6746965992226,0.0 -54.02637,-27.6746605992226,0.0 -54.0262071,-27.6746025992226,0.0 -54.0260803,-27.6745148992226,0.0 -54.0260145,-27.6744209992226,0.0 -54.0259957,-27.6743692992226,0.0 -54.0259926,-27.6743160992226,0.0 -54.0260177,-27.6742142992226,0.0 -54.0260278,-27.6741617992226,0.0 -54.0260255,-27.6741077992226,0.0 -54.026002,-27.6740263992226,0.0 -54.0259676,-27.6739652992226,0.0 -54.0259096,-27.6738556992226,0.0 -54.0259049,-27.6736817992226,0.0 -54.0259333,-27.6735103992226,0.0 -54.0258971,-27.6733310992227,0.0 -54.0258391,-27.6732229992227,0.0 -54.0257765,-27.6730882992227,0.0 -54.0256951,-27.6729943992227,0.0 -54.0256074,-27.6729410992227,0.0 -54.0255322,-27.6728627992227,0.0 -54.0254409,-27.6726796992227,0.0 -54.0253694,-27.6724619992227,0.0 -54.0253311,-27.6722223992227,0.0 -54.0253595,-27.6719382992227,0.0 -54.025425,-27.6718379992227,0.0 -54.0254701,-27.6717689992227,0.0 -54.0255416,-27.6716429992227,0.0 -54.0255808,-27.6715771992227,0.0 -54.025634,-27.6715348992227,0.0 -54.025717,-27.6715113992227,0.0 -54.0258031,-27.6714690992227,0.0 -54.0259613,-27.6713845992227,0.0 -54.0260412,-27.6713140992227,0.0 -54.0260866,-27.6712044992227,0.0 -54.0260834,-27.6710854992227,0.0 -54.0260537,-27.6709773992227,0.0 -54.0260036,-27.6708630992227,0.0 -54.0259418,-27.6707749992227,0.0 -54.0259174,-27.6707307992227,0.0 -54.0259065,-27.6706759992227,0.0 -54.0259315,-27.6705929992227,0.0 -54.0259879,-27.6705271992227,0.0 -54.0261367,-27.6704457992227,0.0 -54.0261578,-27.6704152992227,0.0 -54.0261649,-27.6703799992227,0.0 -54.0261539,-27.6703001992227,0.0 -54.0261132,-27.6701716992227,0.0 -54.0260552,-27.6699963992227,0.0 -54.0260349,-27.6699321992227,0.0 -54.0260444,-27.6698683992227,0.0 -54.0260709,-27.6698224992227,0.0 -54.0261242,-27.6697817992227,0.0 -54.0262463,-27.6697113992227,0.0 -54.0263293,-27.6696283992227,0.0 -54.0263854,-27.6695231992227,0.0 -54.0263935,-27.6693965992227,0.0 -54.026381,-27.6692806992227,0.0 -54.0264013,-27.6690770992227,0.0 -54.0264953,-27.6688421992227,0.0 -54.0265658,-27.6687498992227,0.0 -54.0266608,-27.6686775992227,0.0 -54.0267458,-27.6686354992227,0.0 -54.0268271,-27.6685744992227,0.0 -54.0268977,-27.6684710992227,0.0 -54.02694,-27.6683614992227,0.0 -54.0269994,-27.6681428992228,0.0 -54.0270186,-27.6680090992228,0.0 -54.0269937,-27.6678539992228,0.0 -54.0270064,-27.6676580992228,0.0 -54.0271154,-27.6674124992228,0.0 -54.0272469,-27.6672026992228,0.0 -54.0274145,-27.6670147992228,0.0 -54.0276196,-27.6668408992228,0.0 -54.0277668,-27.6667751992228,0.0 -54.0279313,-27.6667203992228,0.0 -54.0276807,-27.6666655992228,0.0 -54.0274677,-27.6665840992228,0.0 -54.0272219,-27.6665026992228,0.0 -54.0270481,-27.6664227992228,0.0 -54.0217639,-27.6658832992228,0.0 -54.0189353,-27.6667626992228,0.0 -54.0171781,-27.6686588992227,0.0 -54.0163068,-27.6713562992227,0.0 -54.0150166,-27.6724681992227,0.0 -54.0143932,-27.6723418992227,0.0 -54.014225,-27.6722335992227,0.0 -54.0128443,-27.6713430992227,0.0 -54.0128716,-27.6701699992227,0.0 -54.0136742,-27.6693323992227,0.0 -54.0140563,-27.6686338992227,0.0 -54.0140783,-27.6670465992228,0.0 -54.0136972,-27.6664239992228,0.0 -54.0129907,-27.6659087992228,0.0 -54.0114116,-27.6659440992228,0.0 -54.0092518,-27.6670198992228,0.0 -54.0081754,-27.6673069992228,0.0 -54.0077011,-27.6670777992228,0.0 -54.0046552,-27.6647712992228,0.0 -54.0039741,-27.6651142992228,0.0 -54.0035779,-27.6662756992228,0.0 -54.0024549,-27.6662070992228,0.0 -54.0016775,-27.6659363992228,0.0 -54.0024893,-27.6635711992228,0.0 -54.0015822,-27.6625848992229,0.0 -53.9996686,-27.6625622992229,0.0 -53.9965723,-27.6648579992228,0.0 -53.9956125,-27.6652378992228,0.0 -53.9951777,-27.6641269992228,0.0 -53.993553,-27.6644391992228,0.0 -53.992429,-27.6634996992228,0.0 -53.9914196,-27.6635663992228,0.0 -53.9880263,-27.6632223992228,0.0 -53.9859414,-27.6643420992228,0.0 -53.9836532,-27.6685497992227,0.0 -53.983358,-27.6702597992227,0.0 -53.9828725,-27.6705818992227,0.0 -53.9821913,-27.6706268992227,0.0 -53.9743459,-27.6672136992228,0.0 -53.9731663,-27.6666115992228,0.0 -53.9716803,-27.6671716992228,0.0 -53.9736489,-27.6701508992227,0.0 -53.9734014,-27.6709575992227,0.0 -53.9710282,-27.6725651992227,0.0 -53.9667116,-27.6747615992226,0.0 -53.9657759,-27.6750735992226,0.0 -53.9630571,-27.6756134992226,0.0 -53.9625915,-27.6766456992226,0.0 -53.9656207,-27.6784810992226,0.0 -53.9650475,-27.6801783992225,0.0 -53.9626003,-27.6805964992225,0.0 -53.9615105,-27.6807829992225,0.0 -53.9609623,-27.6804840992225,0.0 -53.9601239,-27.6806733992225,0.0 -53.9586782,-27.6838394992225,0.0 -53.9580514,-27.6846036992224,0.0 -53.9564149,-27.6855551992224,0.0 -53.9560508,-27.6860161992224,0.0 -53.9555611,-27.6862632992224,0.0 -53.9528504,-27.6862208992224,0.0 -53.9504961,-27.6848483992224,0.0 -53.9496973,-27.6848029992224,0.0 -53.9492827,-27.6869974992224,0.0 -53.9489357,-27.6875333992224,0.0 -53.9477046,-27.6885418992224,0.0 -53.9461915,-27.6895672992224,0.0 -53.9442429,-27.6899545992224,0.0 -53.9428221,-27.6888746992224,0.0 -53.9425075,-27.6876869992224,0.0 -53.9427147,-27.6869750992224,0.0 -53.9426239,-27.6861385992224,0.0 -53.9418029,-27.6857564992224,0.0 -53.9410766,-27.6867271992224,0.0 -53.9392415,-27.6871306992224,0.0 -53.9368406,-27.6860421992224,0.0 -53.9334808,-27.6865720992224,0.0 -53.9332689,-27.6882856992224,0.0 -53.92964,-27.6893432992224,0.0 -53.9287516,-27.6897660992223,0.0 -53.9272674,-27.6914717992223,0.0 -53.9228779,-27.6926118992223,0.0 -53.9175384,-27.6924192992223,0.0 -53.917116,-27.6933349992223,0.0 -53.9173844,-27.6936861992223,0.0 -53.9181409,-27.6946783992223,0.0 -53.9203411,-27.6957525992222,0.0 -53.9209334,-27.6969233992222,0.0 -53.9194214,-27.6974097992222,0.0 -53.9172621,-27.6971558992222,0.0 -53.9152828,-27.6989079992222,0.0 -53.9139281,-27.6991291992222,0.0 -53.9135121,-27.6995196992222,0.0 -53.912223,-27.7001667992222,0.0 -53.908777,-27.7011833992221,0.0 -53.9076312,-27.7001348992222,0.0 -53.9059536,-27.7009621992221,0.0 -53.9055233,-27.7014175992221,0.0 -53.9053938,-27.7022567992221,0.0 -53.9060736,-27.706451599222,0.0 -53.9049903,-27.708144699222,0.0 -53.9030636,-27.709499699222,0.0 -53.9019467,-27.710115199222,0.0 -53.9011086,-27.710788699222,0.0 -53.90157,-27.7141559992219,0.0 -53.9015771,-27.7152839992219,0.0 -53.8990003,-27.7176923992218,0.0 -53.8940854,-27.7207884992218,0.0 -53.8901087,-27.7223744992217,0.0 -53.8891127,-27.7225848992217,0.0 -53.8872418,-27.7224976992217,0.0 -53.8842124,-27.7228335992217,0.0 -53.8815862,-27.7226066992217,0.0 -53.8762925,-27.7237272992217,0.0 -53.8746563,-27.7242194992217,0.0 -53.8737536,-27.7243169992217,0.0 -53.8724019,-27.7250917992217,0.0 -53.8656698,-27.7280272992216,0.0 -53.8633745,-27.7266993992217,0.0 -53.8617124,-27.7259144992217,0.0 -53.8587889,-27.7257914992217,0.0 -53.8563732,-27.7258548992217,0.0 -53.8498993,-27.7264931992217,0.0 -53.8484962,-27.7269618992217,0.0 -53.8458511,-27.7293484992216,0.0 -53.8435851,-27.7289479992216,0.0 -53.8434237,-27.7311721992216,0.0 -53.8433606,-27.7320357992216,0.0 -53.8425817,-27.7341491992215,0.0 -53.8419323,-27.7350553992215,0.0 -53.8413435,-27.7355103992215,0.0 -53.8382152,-27.7379251992215,0.0 -53.8295544,-27.7473448992213,0.0 -53.8293212,-27.7505201992212,0.0 -53.829532,-27.7512910992212,0.0 -53.8289117,-27.7529055992212,0.0 -53.827205,-27.7552144992211,0.0 -53.8248323,-27.7571696992211,0.0 -53.8234797,-27.761811799221,0.0 -53.8216169,-27.763856899221,0.0 -53.8237054,-27.762773099221,0.0 -53.8289654,-27.764668399221,0.0 -53.834145,-27.7654552992209,0.0 -53.841894,-27.7651313992209,0.0 -53.845557,-27.7660225992209,0.0 -53.854329,-27.7661186992209,0.0 -53.8596187,-27.7659301992209,0.0 -53.8629851,-27.764822699221,0.0 -53.8640239,-27.763201199221,0.0 -53.8647403,-27.763002499221,0.0 -53.8662428,-27.763745699221,0.0 -53.8696685,-27.7647028992209,0.0 -53.8708072,-27.7651532992209,0.0 -53.8715775,-27.7657667992209,0.0 -53.872386,-27.7674612992209,0.0 -53.8735034,-27.7688384992209,0.0 -53.8765171,-27.7691479992209,0.0 -53.8772701,-27.7707630992208,0.0 -53.8787001,-27.7712434992208,0.0 -53.8795575,-27.7729560992208,0.0 -53.8857128,-27.7767242992207,0.0 -53.8874165,-27.7764504992207,0.0 -53.8887374,-27.7785008992207,0.0 -53.8926624,-27.7810604992207,0.0 -53.8935671,-27.7813418992206,0.0 -53.894591,-27.7812370992207,0.0 -53.8950468,-27.7810000992207,0.0 -53.8953486,-27.7805021992207,0.0 -53.89512,-27.7787025992207,0.0 -53.8960549,-27.7781735992207,0.0 -53.8974492,-27.7779661992207,0.0 -53.8972641,-27.7784650992207,0.0 -53.8964267,-27.7788100992207,0.0 -53.8968921,-27.7791578992207,0.0 -53.8984267,-27.7785615992207,0.0 -53.9002406,-27.7798704992207,0.0 -53.9026836,-27.7789364992207,0.0 -53.9036252,-27.7788423992207,0.0 -53.9045369,-27.7792779992207,0.0 -53.9053808,-27.7784140992207,0.0 -53.9064782,-27.7764971992207,0.0 -53.9061508,-27.7760863992207,0.0 -53.905906,-27.7752893992207,0.0 -53.9066867,-27.7746645992208,0.0 -53.9080361,-27.7746112992208,0.0 -53.9094613,-27.7736737992208,0.0 -53.9102904,-27.7733864992208,0.0 -53.913156,-27.7727682992208,0.0 -53.9146012,-27.7733503992208,0.0 -53.9174113,-27.7723413992208,0.0 -53.9178148,-27.7727025992208,0.0 -53.9189217,-27.7726671992208,0.0 -53.9196944,-27.7731061992208,0.0 -53.9199939,-27.7741738992208,0.0 -53.9225051,-27.7725058992208,0.0 -53.9232141,-27.7741224992208,0.0 -53.9245546,-27.7738398992208,0.0 -53.9254055,-27.7741204992208,0.0 -53.9261511,-27.7743663992208,0.0 -53.9277476,-27.7748928992208,0.0 -53.9284276,-27.7745069992208,0.0 -53.9318489,-27.7725649992208,0.0 -53.9371367,-27.7723995992208,0.0 -53.939319,-27.7706399992208,0.0 -53.940224,-27.7704102992208,0.0 -53.9414191,-27.7704405992208,0.0 -53.9424192,-27.7707658992208,0.0 -53.9444468,-27.7737183992208,0.0 -53.9498757,-27.7756714992208,0.0 -53.9534113,-27.7759758992208,0.0 -53.9578951,-27.7748664992208,0.0 -53.958594,-27.7753377992208,0.0 -53.9590208,-27.7761698992207,0.0 -53.95923,-27.7781389992207,0.0 -53.9596043,-27.7785009992207,0.0 -53.9610762,-27.7792990992207,0.0 -53.9629651,-27.7799150992207,0.0 -53.9637586,-27.7797789992207,0.0 -53.9641271,-27.7792033992207,0.0 -53.9649092,-27.7765875992207,0.0 -53.9645241,-27.7752004992208,0.0 -53.964997,-27.7747863992208,0.0</coordinates>
</LinearRing>
</outerBoundaryIs>
</Polygon>
</MultiGeometry>
</Placemark>
</Folder>
</Document></kml>
