<?xml version='1.0' encoding='UTF-8'?>
<kml xmlns:xsd="http://www.w3.org/2001/XMLSchema" xmlns:gx="http://www.google.com/kml/ext/2.2" xmlns:atom="http://www.w3.org/2005/Atom" xmlns="http://www.opengis.net/kml/2.2">
<Document>
<name>taquarucu_do_sul_4321329_localidades_2022</name>
<visibility>1</visibility>
<Schema name="Localidades" id="kml_schema_ft_Localidades">
<SimpleField type="xsd:string" name="CD_UF">
<displayName>CD_UF</displayName>
</SimpleField>
<SimpleField type="xsd:string" name="NM_UF">
<displayName>NM_UF</displayName>
</SimpleField>
<SimpleField type="xsd:string" name="SIGLA_UF">
<displayName>SIGLA_UF</displayName>
</SimpleField>
<SimpleField type="xsd:string" name="CD_MUN">
<displayName>CD_MUN</displayName>
</SimpleField>
<SimpleField type="xsd:string" name="NM_MUN">
<displayName>NM_MUN</displayName>
</SimpleField>
<SimpleField type="xsd:string" name="CD_RGINT">
<displayName>CD_RGINT</displayName>
</SimpleField>
<SimpleField type="xsd:string" name="NM_RGINT">
<displayName>NM_RGINT</displayName>
</SimpleField>
<SimpleField type="xsd:string" name="CD_RGI">
<displayName>CD_RGI</displayName>
</SimpleField>
<SimpleField type="xsd:string" name="NM_RGI">
<displayName>NM_RGI</displayName>
</SimpleField>
<SimpleField type="xsd:string" name="CT_LOCALIDADE">
<displayName>CT_LOCALIDADE</displayName>
</SimpleField>
<SimpleField type="xsd:string" name="SCT_LOCALIDADE">
<displayName>SCT_LOCALIDADE</displayName>
</SimpleField>
<SimpleField type="xsd:string" name="CD_LOCALIDADE">
<displayName>CD_LOCALIDADE</displayName>
</SimpleField>
<SimpleField type="xsd:string" name="NM_LOCALIDADE">
<displayName>NM_LOCALIDADE</displayName>
</SimpleField>
</Schema>
<Schema name="01. Cidade" id="kml_schema_ft_01._Cidade">
<SimpleField type="xsd:string" name="CD_UF">
<displayName>CD_UF</displayName>
</SimpleField>
<SimpleField type="xsd:string" name="NM_UF">
<displayName>NM_UF</displayName>
</SimpleField>
<SimpleField type="xsd:string" name="SIGLA_UF">
<displayName>SIGLA_UF</displayName>
</SimpleField>
<SimpleField type="xsd:string" name="CD_MUN">
<displayName>CD_MUN</displayName>
</SimpleField>
<SimpleField type="xsd:string" name="NM_MUN">
<displayName>NM_MUN</displayName>
</SimpleField>
<SimpleField type="xsd:string" name="CD_RGINT">
<displayName>CD_RGINT</displayName>
</SimpleField>
<SimpleField type="xsd:string" name="NM_RGINT">
<displayName>NM_RGINT</displayName>
</SimpleField>
<SimpleField type="xsd:string" name="CD_RGI">
<displayName>CD_RGI</displayName>
</SimpleField>
<SimpleField type="xsd:string" name="NM_RGI">
<displayName>NM_RGI</displayName>
</SimpleField>
<SimpleField type="xsd:string" name="CT_LOCALIDADE">
<displayName>CT_LOCALIDADE</displayName>
</SimpleField>
<SimpleField type="xsd:string" name="SCT_LOCALIDADE">
<displayName>SCT_LOCALIDADE</displayName>
</SimpleField>
<SimpleField type="xsd:string" name="CD_LOCALIDADE">
<displayName>CD_LOCALIDADE</displayName>
</SimpleField>
<SimpleField type="xsd:string" name="NM_LOCALIDADE">
<displayName>NM_LOCALIDADE</displayName>
</SimpleField>
<SimpleField type="xsd:string" name="LAT_LOCALIDADE">
<displayName>LAT_LOCALIDADE</displayName>
</SimpleField>
<SimpleField type="xsd:string" name="LONG_LOCALIDADE">
<displayName>LONG_LOCALIDADE</displayName>
</SimpleField>
</Schema>
<Schema name="Terra Indígena" id="kml_schema_ft_Terra_Indígena">
<SimpleField type="xsd:string" name="COD_TI">
<displayName>COD_TI</displayName>
</SimpleField>
<SimpleField type="xsd:string" name="NOM_TI">
<displayName>NOM_TI</displayName>
</SimpleField>
</Schema>
<Schema name="Município" id="kml_schema_ft_Município">
<SimpleField type="xsd:string" name="CD_UF">
<displayName>CD_UF</displayName>
</SimpleField>
<SimpleField type="xsd:string" name="NM_UF">
<displayName>NM_UF</displayName>
</SimpleField>
<SimpleField type="xsd:string" name="CD_MUN">
<displayName>CD_MUN</displayName>
</SimpleField>
<SimpleField type="xsd:string" name="NM_MUN">
<displayName>NM_MUN</displayName>
</SimpleField>
<SimpleField type="xsd:string" name="CD_RGINT">
<displayName>CD_RGINT</displayName>
</SimpleField>
<SimpleField type="xsd:string" name="NM_RGINT">
<displayName>NM_RGINT</displayName>
</SimpleField>
<SimpleField type="xsd:string" name="CD_RGI">
<displayName>CD_RGI</displayName>
</SimpleField>
<SimpleField type="xsd:string" name="NM_RGI">
<displayName>NM_RGI</displayName>
</SimpleField>
</Schema>
<Folder id="01. Cidade">
<name>01. Cidade</name>
<Folder id="01.03. Sede Municipal">
<name>01.03. Sede Municipal</name>
<Placemark id="01.03. Sede Municipal">
<name>Taquaruçu do Sul [4321329]</name>
<visibility>1</visibility>
<snippet> </snippet>
<description>&lt;center&gt;&lt;table&gt;&lt;tr&gt;&lt;th colspan='2' align='center'&gt;&lt;em&gt;Atributos&lt;/em&gt;&lt;/th&gt;&lt;/tr&gt;&lt;tr bgcolor="#E3E3F3"&gt;
&lt;th&gt;CD_UF&lt;/th&gt;
&lt;td&gt;43&lt;/td&gt;
&lt;/tr&gt;&lt;tr bgcolor=""&gt;
&lt;th&gt;NM_UF&lt;/th&gt;
&lt;td&gt;Rio Grande do Sul&lt;/td&gt;
&lt;/tr&gt;&lt;tr bgcolor="#E3E3F3"&gt;
&lt;th&gt;SIGLA_UF&lt;/th&gt;
&lt;td&gt;RS&lt;/td&gt;
&lt;/tr&gt;&lt;tr bgcolor=""&gt;
&lt;th&gt;CD_MUN&lt;/th&gt;
&lt;td&gt;4321329&lt;/td&gt;
&lt;/tr&gt;&lt;tr bgcolor="#E3E3F3"&gt;
&lt;th&gt;NM_MUN&lt;/th&gt;
&lt;td&gt;Taquaruçu do Sul&lt;/td&gt;
&lt;/tr&gt;&lt;tr bgcolor=""&gt;
&lt;th&gt;CD_RGINT&lt;/th&gt;
&lt;td&gt;4306&lt;/td&gt;
&lt;/tr&gt;&lt;tr bgcolor="#E3E3F3"&gt;
&lt;th&gt;NM_RGINT&lt;/th&gt;
&lt;td&gt;Passo Fundo&lt;/td&gt;
&lt;/tr&gt;&lt;tr bgcolor=""&gt;
&lt;th&gt;CD_RGI&lt;/th&gt;
&lt;td&gt;430029&lt;/td&gt;
&lt;/tr&gt;&lt;tr bgcolor="#E3E3F3"&gt;
&lt;th&gt;NM_RGI&lt;/th&gt;
&lt;td&gt;Frederico Westphalen&lt;/td&gt;
&lt;/tr&gt;&lt;tr bgcolor=""&gt;
&lt;th&gt;CT_LOCALIDADE&lt;/th&gt;
&lt;td&gt;Cidade&lt;/td&gt;
&lt;/tr&gt;&lt;tr bgcolor="#E3E3F3"&gt;
&lt;th&gt;SCT_LOCALIDADE&lt;/th&gt;
&lt;td&gt;Sede Municipal&lt;/td&gt;
&lt;/tr&gt;&lt;tr bgcolor=""&gt;
&lt;th&gt;CD_LOCALIDADE&lt;/th&gt;
&lt;td&gt;4321329&lt;/td&gt;
&lt;/tr&gt;&lt;tr bgcolor="#E3E3F3"&gt;
&lt;th&gt;NM_LOCALIDADE&lt;/th&gt;
&lt;td&gt;Taquaruçu do Sul&lt;/td&gt;
&lt;/tr&gt;&lt;tr bgcolor=""&gt;
&lt;th&gt;LAT_LOCALIDADE&lt;/th&gt;
&lt;td&gt;-27.3998&lt;/td&gt;
&lt;/tr&gt;&lt;tr bgcolor="#E3E3F3"&gt;
&lt;th&gt;LONG_LOCALIDADE&lt;/th&gt;
&lt;td&gt;-53.4696&lt;/td&gt;
&lt;/tr&gt;&lt;/table&gt;&lt;/center&gt;</description>
<Style>
<IconStyle>
<color>ff00aaff</color>
<scale>1.0</scale>
<Icon>
<href>http://maps.google.com/mapfiles/kml/shapes/placemark_circle.png</href>
</Icon>
</IconStyle>
<LabelStyle>
<scale>1.0</scale>
</LabelStyle>
<LineStyle>
<color>ffffffff</color>
<width>3</width>
<gx:labelVisibility>1</gx:labelVisibility>
</LineStyle>
<PolyStyle>
<color>00ffffff</color>
</PolyStyle>
</Style>
<ExtendedData>
<SchemaData schemaUrl="#kml_schema_ft_01._Cidade">
<SimpleData name="CD_UF">43</SimpleData>
<SimpleData name="NM_UF">Rio Grande do Sul</SimpleData>
<SimpleData name="SIGLA_UF">RS</SimpleData>
<SimpleData name="CD_MUN">4321329</SimpleData>
<SimpleData name="NM_MUN">Taquaruçu do Sul</SimpleData>
<SimpleData name="CD_RGINT">4306</SimpleData>
<SimpleData name="NM_RGINT">Passo Fundo</SimpleData>
<SimpleData name="CD_RGI">430029</SimpleData>
<SimpleData name="NM_RGI">Frederico Westphalen</SimpleData>
<SimpleData name="CT_LOCALIDADE">Cidade</SimpleData>
<SimpleData name="SCT_LOCALIDADE">Sede Municipal</SimpleData>
<SimpleData name="CD_LOCALIDADE">4321329</SimpleData>
<SimpleData name="NM_LOCALIDADE">Taquaruçu do Sul</SimpleData>
<SimpleData name="LAT_LOCALIDADE">-27.3998</SimpleData>
<SimpleData name="LONG_LOCALIDADE">-53.4696</SimpleData>
</SchemaData>
</ExtendedData>
<Point>
<extrude>0</extrude>
<coordinates>-53.469632,-27.3998049992278,0.0</coordinates>
</Point>
</Placemark>
</Folder>
</Folder>
<Folder id="12. Outras Localidades">
<name>12. Outras Localidades</name>
<Placemark id="12. Outras Localidades">
<name>Linha Fátima [432132900001]</name>
<visibility>1</visibility>
<snippet> </snippet>
<description>&lt;center&gt;&lt;table&gt;&lt;tr&gt;&lt;th colspan='2' align='center'&gt;&lt;em&gt;Attributes&lt;/em&gt;&lt;/th&gt;&lt;/tr&gt;&lt;tr bgcolor="#E3E3F3"&gt;
&lt;th&gt;CD_UF&lt;/th&gt;
&lt;td&gt;43&lt;/td&gt;
&lt;/tr&gt;&lt;tr bgcolor=""&gt;
&lt;th&gt;NM_UF&lt;/th&gt;
&lt;td&gt;Rio Grande do Sul&lt;/td&gt;
&lt;/tr&gt;&lt;tr bgcolor="#E3E3F3"&gt;
&lt;th&gt;SIGLA_UF&lt;/th&gt;
&lt;td&gt;RS&lt;/td&gt;
&lt;/tr&gt;&lt;tr bgcolor=""&gt;
&lt;th&gt;CD_MUN&lt;/th&gt;
&lt;td&gt;4321329&lt;/td&gt;
&lt;/tr&gt;&lt;tr bgcolor="#E3E3F3"&gt;
&lt;th&gt;NM_MUN&lt;/th&gt;
&lt;td&gt;Taquaruçu do Sul&lt;/td&gt;
&lt;/tr&gt;&lt;tr bgcolor=""&gt;
&lt;th&gt;CD_RGINT&lt;/th&gt;
&lt;td&gt;4306&lt;/td&gt;
&lt;/tr&gt;&lt;tr bgcolor="#E3E3F3"&gt;
&lt;th&gt;NM_RGINT&lt;/th&gt;
&lt;td&gt;Passo Fundo&lt;/td&gt;
&lt;/tr&gt;&lt;tr bgcolor=""&gt;
&lt;th&gt;CD_RGI&lt;/th&gt;
&lt;td&gt;430029&lt;/td&gt;
&lt;/tr&gt;&lt;tr bgcolor="#E3E3F3"&gt;
&lt;th&gt;NM_RGI&lt;/th&gt;
&lt;td&gt;Frederico Westphalen&lt;/td&gt;
&lt;/tr&gt;&lt;tr bgcolor=""&gt;
&lt;th&gt;CT_LOCALIDADE&lt;/th&gt;
&lt;td&gt;Outras Localidades&lt;/td&gt;
&lt;/tr&gt;&lt;tr bgcolor="#E3E3F3"&gt;
&lt;th&gt;SCT_LOCALIDADE&lt;/th&gt;
&lt;td&gt;&lt;/td&gt;
&lt;/tr&gt;&lt;tr bgcolor=""&gt;
&lt;th&gt;CD_LOCALIDADE&lt;/th&gt;
&lt;td&gt;432132900001&lt;/td&gt;
&lt;/tr&gt;&lt;tr bgcolor="#E3E3F3"&gt;
&lt;th&gt;NM_LOCALIDADE&lt;/th&gt;
&lt;td&gt;Linha Fátima&lt;/td&gt;
&lt;/tr&gt;&lt;/table&gt;&lt;/center&gt;</description>
<Style>
<IconStyle>
<color>ff0069d3</color>
<scale>0.6</scale>
<Icon>
<href>http://maps.google.com/mapfiles/kml/shapes/placemark_circle.png</href>
</Icon>
</IconStyle>
<LabelStyle>
<scale>0.6</scale>
</LabelStyle>
<LineStyle>
<width>1.0</width>
<gx:labelVisibility>1</gx:labelVisibility>
</LineStyle>
</Style>
<ExtendedData>
<SchemaData schemaUrl="#kml_schema_ft_Localidades">
<SimpleData name="CD_UF">43</SimpleData>
<SimpleData name="NM_UF">Rio Grande do Sul</SimpleData>
<SimpleData name="SIGLA_UF">RS</SimpleData>
<SimpleData name="CD_MUN">4321329</SimpleData>
<SimpleData name="NM_MUN">Taquaruçu do Sul</SimpleData>
<SimpleData name="CD_RGINT">4306</SimpleData>
<SimpleData name="NM_RGINT">Passo Fundo</SimpleData>
<SimpleData name="CD_RGI">430029</SimpleData>
<SimpleData name="NM_RGI">Frederico Westphalen</SimpleData>
<SimpleData name="CT_LOCALIDADE">Outras Localidades</SimpleData>
<SimpleData name="CD_LOCALIDADE">432132900001</SimpleData>
<SimpleData name="NM_LOCALIDADE">Linha Fátima</SimpleData>
</SchemaData>
</ExtendedData>
<Point>
<extrude>0</extrude>
<coordinates>-53.516275,-27.4313699992272,0.0</coordinates>
</Point>
</Placemark>
</Folder>
<Folder id="13. Referência">
<name>13. Referência</name>
<Placemark id="13. Referência">
<name>Taquaruçu do Sul [4321329]</name>
<visibility>1</visibility>
<snippet> </snippet>
<description>&lt;center&gt;&lt;table&gt;&lt;tr&gt;&lt;th colspan='2' align='center'&gt;&lt;em&gt;Attributes&lt;/em&gt;&lt;/th&gt;&lt;/tr&gt;&lt;tr bgcolor="#E3E3F3"&gt;
&lt;th&gt;CD_UF&lt;/th&gt;
&lt;td&gt;43&lt;/td&gt;
&lt;/tr&gt;&lt;tr bgcolor=""&gt;
&lt;th&gt;NM_UF&lt;/th&gt;
&lt;td&gt;Rio Grande do Sul&lt;/td&gt;
&lt;/tr&gt;&lt;tr bgcolor="#E3E3F3"&gt;
&lt;th&gt;CD_MUN&lt;/th&gt;
&lt;td&gt;4321329&lt;/td&gt;
&lt;/tr&gt;&lt;tr bgcolor=""&gt;
&lt;th&gt;NM_MUN&lt;/th&gt;
&lt;td&gt;Taquaruçu do Sul&lt;/td&gt;
&lt;/tr&gt;&lt;tr bgcolor="#E3E3F3"&gt;
&lt;th&gt;CD_RGINT&lt;/th&gt;
&lt;td&gt;4306&lt;/td&gt;
&lt;/tr&gt;&lt;tr bgcolor=""&gt;
&lt;th&gt;NM_RGINT&lt;/th&gt;
&lt;td&gt;Passo Fundo&lt;/td&gt;
&lt;/tr&gt;&lt;tr bgcolor="#E3E3F3"&gt;
&lt;th&gt;CD_RGI&lt;/th&gt;
&lt;td&gt;430029&lt;/td&gt;
&lt;/tr&gt;&lt;tr bgcolor=""&gt;
&lt;th&gt;NM_RGI&lt;/th&gt;
&lt;td&gt;Frederico Westphalen&lt;/td&gt;
&lt;/tr&gt;&lt;/table&gt;&lt;/center&gt;</description>
<Style>
<IconStyle>
<scale>0.7</scale>
</IconStyle>
<LabelStyle>
<scale>0.7</scale>
</LabelStyle>
<LineStyle>
<color>ffffffff</color>
<width>3</width>
<gx:labelVisibility>1</gx:labelVisibility>
</LineStyle>
<PolyStyle>
<color>00ffffff</color>
</PolyStyle>
</Style>
<ExtendedData>
<SchemaData schemaUrl="#kml_schema_ft_Município">
<SimpleData name="CD_UF">43</SimpleData>
<SimpleData name="NM_UF">Rio Grande do Sul</SimpleData>
<SimpleData name="CD_MUN">4321329</SimpleData>
<SimpleData name="NM_MUN">Taquaruçu do Sul</SimpleData>
<SimpleData name="CD_RGINT">4306</SimpleData>
<SimpleData name="NM_RGINT">Passo Fundo</SimpleData>
<SimpleData name="CD_RGI">430029</SimpleData>
<SimpleData name="NM_RGI">Frederico Westphalen</SimpleData>
</SchemaData>
</ExtendedData>
<MultiGeometry>
<Polygon>
<extrude>0</extrude>
<tessellate>1</tessellate>
<outerBoundaryIs>
<LinearRing>
<coordinates>-53.437021,-27.389464799228,0.0 -53.4369199,-27.4012176992278,0.0 -53.4251179,-27.4014943992278,0.0 -53.4251151,-27.4017277992278,0.0 -53.4250325,-27.4019843992278,0.0 -53.4250944,-27.4020944992277,0.0 -53.4251098,-27.4021775992278,0.0 -53.4250378,-27.4022323992278,0.0 -53.4249373,-27.4022544992278,0.0 -53.4248657,-27.4024281992277,0.0 -53.4248907,-27.4026710992277,0.0 -53.4248863,-27.4028343992277,0.0 -53.4249738,-27.4029390992277,0.0 -53.4251037,-27.4030711992277,0.0 -53.4251962,-27.4031635992277,0.0 -53.4253537,-27.4032329992277,0.0 -53.4255387,-27.4032661992277,0.0 -53.4256116,-27.4034031992277,0.0 -53.4255305,-27.4035222992277,0.0 -53.4253979,-27.4036729992277,0.0 -53.4252416,-27.4039330992277,0.0 -53.4250836,-27.4040726992277,0.0 -53.4250037,-27.4041466992277,0.0 -53.4250352,-27.4044056992277,0.0 -53.4250381,-27.4045711992277,0.0 -53.4251992,-27.4047931992277,0.0 -53.4253452,-27.4049952992277,0.0 -53.425358,-27.4051971992277,0.0 -53.4253291,-27.4054277992277,0.0 -53.4252892,-27.4055778992277,0.0 -53.4254429,-27.4056482992277,0.0 -53.4255718,-27.4057920992277,0.0 -53.425507,-27.4059766992277,0.0 -53.4254102,-27.4062040992277,0.0 -53.4252295,-27.4062575992277,0.0 -53.4250292,-27.4063107992277,0.0 -53.424875,-27.4063955992277,0.0 -53.4247479,-27.4066517992277,0.0 -53.4247868,-27.4069433992277,0.0 -53.4247346,-27.4072415992277,0.0 -53.4246912,-27.4074027992277,0.0 -53.4247308,-27.4075246992277,0.0 -53.4248233,-27.4077740992276,0.0 -53.424892,-27.4079833992276,0.0 -53.4249239,-27.4081234992276,0.0 -53.4248795,-27.4082304992276,0.0 -53.4247719,-27.4082989992276,0.0 -53.4248801,-27.4083977992276,0.0 -53.4248521,-27.4086477992276,0.0 -53.4247334,-27.4088234992276,0.0 -53.4247162,-27.4089350992276,0.0 -53.4248812,-27.4090480992276,0.0 -53.4249786,-27.4091579992276,0.0 -53.4248687,-27.4092989992276,0.0 -53.4247788,-27.4094359992276,0.0 -53.424839,-27.4096793992276,0.0 -53.4248649,-27.4099523992276,0.0 -53.4248927,-27.4101893992276,0.0 -53.4248773,-27.4104284992276,0.0 -53.4247309,-27.4105581992276,0.0 -53.4246618,-27.4106827992276,0.0 -53.4246725,-27.4108302992276,0.0 -53.424787,-27.4109880992276,0.0 -53.4248097,-27.4113634992276,0.0 -53.4248411,-27.4115924992276,0.0 -53.424769,-27.4118598992276,0.0 -53.4247265,-27.4121610992276,0.0 -53.4247894,-27.4123805992276,0.0 -53.424734,-27.4126580992276,0.0 -53.4247258,-27.4127889992276,0.0 -53.4247382,-27.4128908992275,0.0 -53.4247236,-27.4130013992275,0.0 -53.4246387,-27.4131301992276,0.0 -53.4245867,-27.4132265992275,0.0 -53.424546,-27.4133757992275,0.0 -53.4245986,-27.4135183992275,0.0 -53.4245554,-27.4138748992275,0.0 -53.4244532,-27.4142692992275,0.0 -53.4243959,-27.4143769992275,0.0 -53.4243183,-27.4144597992275,0.0 -53.4243169,-27.4145919992275,0.0 -53.4243836,-27.4146979992275,0.0 -53.4245498,-27.4148102992275,0.0 -53.424624,-27.4149347992275,0.0 -53.4246336,-27.4150154992275,0.0 -53.424598,-27.4153191992275,0.0 -53.4245269,-27.4156186992275,0.0 -53.4245063,-27.4156845992275,0.0 -53.4245236,-27.4157526992275,0.0 -53.4245755,-27.4158009992275,0.0 -53.4246353,-27.4159190992275,0.0 -53.4247471,-27.4159544992275,0.0 -53.4248806,-27.4159652992275,0.0 -53.4250798,-27.4159653992275,0.0 -53.4252191,-27.4160082992275,0.0 -53.4252828,-27.4160786992275,0.0 -53.4254762,-27.4165992992275,0.0 -53.4255542,-27.4168677992275,0.0 -53.4256108,-27.4169620992275,0.0 -53.4256865,-27.4170268992275,0.0 -53.4258423,-27.4170665992275,0.0 -53.4260504,-27.4171628992275,0.0 -53.4261988,-27.4172800992275,0.0 -53.426251,-27.4174116992275,0.0 -53.4263594,-27.4175773992275,0.0 -53.4264738,-27.4177369992275,0.0 -53.4265193,-27.4178455992275,0.0 -53.4266184,-27.4179727992275,0.0 -53.426677,-27.4181232992274,0.0 -53.4267775,-27.4183852992274,0.0 -53.426832,-27.4186052992274,0.0 -53.4269027,-27.4187266992274,0.0 -53.4270312,-27.4189984992274,0.0 -53.4271212,-27.4192694992274,0.0 -53.4271807,-27.4195848992274,0.0 -53.4272938,-27.4197319992274,0.0 -53.4273864,-27.4198558992274,0.0 -53.4274891,-27.4199878992274,0.0 -53.4275676,-27.4200707992274,0.0 -53.427109,-27.4235990992273,0.0 -53.4588171,-27.4370237992271,0.0 -53.4925049,-27.4502238992268,0.0 -53.4951075,-27.4491504992269,0.0 -53.4988777,-27.4502632992268,0.0 -53.4997314,-27.4520666992268,0.0 -53.5001415,-27.4584788992267,0.0 -53.5017084,-27.4603028992266,0.0 -53.5041114,-27.4597862992267,0.0 -53.5044628,-27.4597107992267,0.0 -53.5060114,-27.4574945992267,0.0 -53.5055746,-27.4497348992269,0.0 -53.5075619,-27.443676799227,0.0 -53.5135337,-27.443953999227,0.0 -53.5154823,-27.442467299227,0.0 -53.512275,-27.439892299227,0.0 -53.5063385,-27.4381206992271,0.0 -53.5042814,-27.4357932992271,0.0 -53.5056464,-27.4338533992272,0.0 -53.5136024,-27.4329013992272,0.0 -53.516365,-27.4325707992272,0.0 -53.5207133,-27.4320497992272,0.0 -53.5264349,-27.4348731992271,0.0 -53.5279883,-27.4380188992271,0.0 -53.5290882,-27.4372022992271,0.0 -53.5303413,-27.4333855992272,0.0 -53.5331675,-27.4287457992273,0.0 -53.5345641,-27.4270918992273,0.0 -53.5369474,-27.4264725992273,0.0 -53.5452368,-27.4293587992272,0.0 -53.5435737,-27.4348698992271,0.0 -53.5442481,-27.4351662992271,0.0 -53.5461309,-27.4340461992271,0.0 -53.5473047,-27.4319427992272,0.0 -53.5476084,-27.4266456992273,0.0 -53.546724,-27.4255363992273,0.0 -53.5362526,-27.4216395992274,0.0 -53.5351869,-27.4198970992274,0.0 -53.5357685,-27.4181816992275,0.0 -53.5455868,-27.4206929992274,0.0 -53.5503646,-27.4146089992275,0.0 -53.5523717,-27.4136561992275,0.0 -53.5559648,-27.4153921992275,0.0 -53.5578065,-27.4206636992274,0.0 -53.5623962,-27.4180033992275,0.0 -53.5641171,-27.4129217992276,0.0 -53.5648951,-27.4112736992276,0.0 -53.5718321,-27.4049681992277,0.0 -53.5709419,-27.4035152992277,0.0 -53.5624954,-27.4025657992277,0.0 -53.5569621,-27.3993840992278,0.0 -53.5559984,-27.3987041992278,0.0 -53.5553694,-27.3981445992278,0.0 -53.5550307,-27.3976091992278,0.0 -53.5545167,-27.3971966992278,0.0 -53.5539162,-27.3966634992279,0.0 -53.5531948,-27.3962534992279,0.0 -53.5516611,-27.3955001992279,0.0 -53.5512033,-27.3951984992279,0.0 -53.550783,-27.3944144992279,0.0 -53.5503146,-27.3947033992279,0.0 -53.5498445,-27.3952383992279,0.0 -53.5495609,-27.3956504992279,0.0 -53.5492806,-27.3959790992279,0.0 -53.5490089,-27.3962079992279,0.0 -53.5489034,-27.3963406992279,0.0 -53.5486726,-27.3964462992279,0.0 -53.5484324,-27.3965002992279,0.0 -53.5480014,-27.3965175992279,0.0 -53.5477883,-27.3963772992279,0.0 -53.5475614,-27.3961747992279,0.0 -53.5472541,-27.3959684992279,0.0 -53.5470638,-27.3956258992279,0.0 -53.5470523,-27.3949972992279,0.0 -53.5470019,-27.3945571992279,0.0 -53.5468123,-27.3943136992279,0.0 -53.5464502,-27.3941619992279,0.0 -53.5457843,-27.3939271992279,0.0 -53.5452623,-27.3938521992279,0.0 -53.5447662,-27.3937459992279,0.0 -53.5446201,-27.3935086992279,0.0 -53.5444466,-27.3930333992279,0.0 -53.5442494,-27.3926859992279,0.0 -53.5441082,-27.3923293992279,0.0 -53.5438937,-27.3919341992279,0.0 -53.5438247,-27.391527599228,0.0 -53.5436737,-27.391203499228,0.0 -53.543233,-27.390040799228,0.0 -53.5430032,-27.389859999228,0.0 -53.5427083,-27.389692599228,0.0 -53.5425369,-27.389699899228,0.0 -53.542388,-27.389845899228,0.0 -53.5423234,-27.389975099228,0.0 -53.5420527,-27.390026699228,0.0 -53.5419719,-27.390121199228,0.0 -53.5420328,-27.390318199228,0.0 -53.541975,-27.390430499228,0.0 -53.5416271,-27.390625199228,0.0 -53.5412346,-27.390808899228,0.0 -53.5408424,-27.391035999228,0.0 -53.5406709,-27.391062299228,0.0 -53.5404276,-27.391051099228,0.0 -53.5398161,-27.391282899228,0.0 -53.5394497,-27.391390399228,0.0 -53.5392362,-27.391520099228,0.0 -53.5389543,-27.3918214992279,0.0 -53.5388543,-27.3920773992279,0.0 -53.5388922,-27.3923980992279,0.0 -53.5388396,-27.3926790992279,0.0 -53.5387274,-27.3928176992279,0.0 -53.5385271,-27.3928559992279,0.0 -53.5383719,-27.3927908992279,0.0 -53.5381186,-27.3927699992279,0.0 -53.5376281,-27.3927236992279,0.0 -53.53704,-27.3927081992279,0.0 -53.5367699,-27.3924932992279,0.0 -53.53646,-27.3920822992279,0.0 -53.5363449,-27.3917442992279,0.0 -53.536184,-27.3914338992279,0.0 -53.5360002,-27.391125399228,0.0 -53.5357597,-27.390942799228,0.0 -53.535543,-27.390804999228,0.0 -53.5352735,-27.390626999228,0.0 -53.5350129,-27.390652599228,0.0 -53.5348282,-27.390796299228,0.0 -53.5346635,-27.390774799228,0.0 -53.5343482,-27.390642499228,0.0 -53.5342255,-27.390461999228,0.0 -53.5342617,-27.390195699228,0.0 -53.5343158,-27.390007199228,0.0 -53.5342119,-27.389847999228,0.0 -53.5339526,-27.389669899228,0.0 -53.5336594,-27.389330499228,0.0 -53.5334797,-27.389098999228,0.0 -53.5334167,-27.388836199228,0.0 -53.5332549,-27.388573599228,0.0 -53.532991,-27.388288299228,0.0 -53.532407,-27.387971199228,0.0 -53.5321816,-27.387782699228,0.0 -53.5321522,-27.387629099228,0.0 -53.5319828,-27.387449299228,0.0 -53.5316363,-27.387826599228,0.0 -53.5315771,-27.387927799228,0.0 -53.5313802,-27.388130699228,0.0 -53.5310087,-27.388355099228,0.0 -53.5306998,-27.388590499228,0.0 -53.5305245,-27.388755699228,0.0 -53.5301972,-27.389089499228,0.0 -53.5299399,-27.389297299228,0.0 -53.5296595,-27.389508399228,0.0 -53.5293076,-27.389601999228,0.0 -53.5217188,-27.3920982992279,0.0 -53.5204656,-27.3931234992279,0.0 -53.5202313,-27.3933150992279,0.0 -53.5190138,-27.3943098992279,0.0 -53.5189936,-27.3943166992279,0.0 -53.5166454,-27.3951056992279,0.0 -53.5141686,-27.3945781992279,0.0 -53.5129297,-27.3932770992279,0.0 -53.510536,-27.3940808992279,0.0 -53.5082445,-27.3914341992279,0.0 -53.5067766,-27.390938999228,0.0 -53.5027034,-27.391351399228,0.0 -53.4994436,-27.390262199228,0.0 -53.4992349,-27.387229299228,0.0 -53.4981752,-27.3859151992281,0.0 -53.4888059,-27.389309499228,0.0 -53.4806528,-27.387622499228,0.0 -53.4785831,-27.386383899228,0.0 -53.4801276,-27.3840577992281,0.0 -53.4776453,-27.3819756992281,0.0 -53.477339,-27.3796146992282,0.0 -53.4755199,-27.3764907992282,0.0 -53.4727616,-27.3744697992283,0.0 -53.4706782,-27.3717104992283,0.0 -53.4671262,-27.3706212992283,0.0 -53.467831,-27.3669844992284,0.0 -53.4670691,-27.3656621992284,0.0 -53.4641926,-27.3656051992284,0.0 -53.4632246,-27.3646881992285,0.0 -53.463089,-27.3622140992285,0.0 -53.4619385,-27.3607901992285,0.0 -53.4624987,-27.3590677992286,0.0 -53.4606472,-27.3558702992286,0.0 -53.4608688,-27.3526857992287,0.0 -53.4611713,-27.3526167992287,0.0 -53.4612168,-27.3523345992287,0.0 -53.4609857,-27.3519568992287,0.0 -53.4608459,-27.3516285992287,0.0 -53.460583,-27.3514382992287,0.0 -53.460534,-27.3511407992287,0.0 -53.4601316,-27.3513505992287,0.0 -53.4596908,-27.3514590992287,0.0 -53.4586644,-27.3511897992287,0.0 -53.4579518,-27.3510167992287,0.0 -53.4574503,-27.3507665992287,0.0 -53.4569823,-27.3506913992287,0.0 -53.4565201,-27.3508361992287,0.0 -53.4561569,-27.3510056992287,0.0 -53.4558838,-27.3514185992287,0.0 -53.4556508,-27.3516780992287,0.0 -53.4552946,-27.3518231992287,0.0 -53.4550753,-27.3520608992287,0.0 -53.4547111,-27.3523860992287,0.0 -53.4540959,-27.3527781992287,0.0 -53.4536876,-27.3529465992287,0.0 -53.4531574,-27.3530605992287,0.0 -53.4525478,-27.3531916992287,0.0 -53.4518163,-27.3535224992287,0.0 -53.4515925,-27.3536841992287,0.0 -53.4513974,-27.3539535992287,0.0 -53.4512992,-27.3543556992287,0.0 -53.451235,-27.3547331992286,0.0 -53.4513006,-27.3550946992286,0.0 -53.4513891,-27.3553621992286,0.0 -53.4516151,-27.3561491992286,0.0 -53.4517676,-27.3563430992286,0.0 -53.4520205,-27.3563648992286,0.0 -53.4522012,-27.3564526992286,0.0 -53.4519815,-27.3569604992286,0.0 -53.451746,-27.3570479992286,0.0 -53.4515191,-27.3571161992286,0.0 -53.4514389,-27.3573579992286,0.0 -53.4512226,-27.3575853992286,0.0 -53.4508257,-27.3577855992286,0.0 -53.4504064,-27.3581173992286,0.0 -53.4499263,-27.3583956992286,0.0 -53.4496619,-27.3587159992286,0.0 -53.4495098,-27.3590799992286,0.0 -53.4492055,-27.3593056992286,0.0 -53.4487972,-27.3593943992286,0.0 -53.4484156,-27.3596501992286,0.0 -53.4479274,-27.3599927992286,0.0 -53.4474508,-27.3603950992285,0.0 -53.4470996,-27.3608642992285,0.0 -53.4469506,-27.3610941992285,0.0 -53.446711,-27.3612137992285,0.0 -53.4463207,-27.3611347992285,0.0 -53.4457581,-27.3612924992285,0.0 -53.4453982,-27.3615567992285,0.0 -53.4451411,-27.3618978992285,0.0 -53.4448388,-27.3618449992285,0.0 -53.4445377,-27.3620467992285,0.0 -53.4440893,-27.3620677992285,0.0 -53.4437885,-27.3622733992285,0.0 -53.4435148,-27.3626807992285,0.0 -53.44316,-27.3630991992285,0.0 -53.4421076,-27.3645027992285,0.0 -53.4420425,-27.3646666992285,0.0 -53.4421145,-27.3648337992285,0.0 -53.4424314,-27.3651690992285,0.0 -53.4428439,-27.3656525992284,0.0 -53.4434148,-27.3663378992284,0.0 -53.4441374,-27.3670670992284,0.0 -53.4443897,-27.3675386992284,0.0 -53.4445611,-27.3681061992284,0.0 -53.4443185,-27.3684929992284,0.0 -53.4440117,-27.3687680992284,0.0 -53.4435771,-27.3689618992284,0.0 -53.443079,-27.3690384992284,0.0 -53.4419232,-27.3691733992284,0.0 -53.4410156,-27.3693150992284,0.0 -53.440122,-27.3694069992284,0.0 -53.4392719,-27.3697029992284,0.0 -53.4387024,-27.3700197992284,0.0 -53.4383871,-27.3704027992283,0.0 -53.4380193,-27.3707635992283,0.0 -53.4373064,-27.3712613992283,0.0 -53.4369357,-27.3716967992283,0.0 -53.4370782,-27.3727025992283,0.0 -53.4369955,-27.3734380992283,0.0 -53.4366288,-27.3740369992283,0.0 -53.4361811,-27.3747422992283,0.0 -53.4357271,-27.3753743992283,0.0 -53.4349678,-27.3758100992283,0.0 -53.4343891,-27.3759923992282,0.0 -53.4340641,-27.3762495992282,0.0 -53.4338717,-27.3765594992282,0.0 -53.4334373,-27.3770192992282,0.0 -53.4332617,-27.3774674992282,0.0 -53.433013,-27.3782237992282,0.0 -53.432846,-27.3790280992282,0.0 -53.4329422,-27.3798439992282,0.0 -53.4328319,-27.3806605992282,0.0 -53.4325996,-27.3810633992281,0.0 -53.4322766,-27.3813254992281,0.0 -53.4317499,-27.3818104992281,0.0 -53.4310831,-27.3820815992281,0.0 -53.4306699,-27.3823212992281,0.0 -53.430536,-27.3825378992281,0.0 -53.4304976,-27.3829333992281,0.0 -53.4306396,-27.3835167992281,0.0 -53.4311582,-27.3840657992281,0.0 -53.4314533,-27.3843608992281,0.0 -53.4318856,-27.3844857992281,0.0 -53.4323124,-27.3845061992281,0.0 -53.432854,-27.3847568992281,0.0 -53.4329811,-27.3850492992281,0.0 -53.4332332,-27.3854985992281,0.0 -53.4333011,-27.3861033992281,0.0 -53.4332616,-27.386520499228,0.0 -53.433344,-27.386789399228,0.0 -53.4335,-27.386955999228,0.0 -53.4338693,-27.387015299228,0.0 -53.4343646,-27.387106899228,0.0 -53.4346659,-27.387295799228,0.0 -53.4352764,-27.387415999228,0.0 -53.4357341,-27.387435199228,0.0 -53.4361844,-27.387520899228,0.0 -53.4364516,-27.387624899228,0.0 -53.4366644,-27.387789099228,0.0 -53.4367774,-27.387946799228,0.0 -53.4369215,-27.388067099228,0.0 -53.4371037,-27.388195499228,0.0 -53.4369728,-27.388846299228,0.0 -53.437021,-27.389464799228,0.0</coordinates>
</LinearRing>
</outerBoundaryIs>
</Polygon>
</MultiGeometry>
</Placemark>
<Placemark id="13. Referência">
<name>TI - Guarita [7650]</name>
<visibility>0</visibility>
<snippet> </snippet>
<description>&lt;center&gt;&lt;table&gt;&lt;tr&gt;&lt;th colspan='2' align='center'&gt;&lt;em&gt;Attributes&lt;/em&gt;&lt;/th&gt;&lt;/tr&gt;&lt;tr bgcolor="#E3E3F3"&gt;
&lt;th&gt;COD_TI&lt;/th&gt;
&lt;td&gt;7650&lt;/td&gt;
&lt;/tr&gt;&lt;tr bgcolor=""&gt;
&lt;th&gt;NOM_TI&lt;/th&gt;
&lt;td&gt;Guarita&lt;/td&gt;
&lt;/tr&gt;&lt;/table&gt;&lt;/center&gt;</description>
<Style>
<IconStyle>
<scale>0.7</scale>
</IconStyle>
<LabelStyle>
<scale>0.7</scale>
</LabelStyle>
<LineStyle>
<color>ff00aaaa</color>
<width>3</width>
<gx:labelVisibility>1</gx:labelVisibility>
</LineStyle>
<PolyStyle>
<color>3300aaaa</color>
</PolyStyle>
</Style>
<ExtendedData>
<SchemaData schemaUrl="#kml_schema_ft_Terra_Indígena">
<SimpleData name="COD_TI">7650</SimpleData>
<SimpleData name="NOM_TI">Guarita</SimpleData>
</SchemaData>
</ExtendedData>
<MultiGeometry>
<Polygon>
<extrude>0</extrude>
<tessellate>1</tessellate>
<outerBoundaryIs>
<LinearRing>
<coordinates>-53.5598306632909,-27.401033550337,0.0 -53.56018254,-27.4014558092277,0.0 -53.56086848,-27.4019222492278,0.0 -53.5613898,-27.4023063692277,0.0 -53.562365143294,-27.4024909003859,0.0 -53.5598306632909,-27.401033550337,0.0</coordinates>
</LinearRing>
</outerBoundaryIs>
</Polygon>
<Polygon>
<extrude>0</extrude>
<tessellate>1</tessellate>
<outerBoundaryIs>
<LinearRing>
<coordinates>-53.5626639114206,-27.4025847421738,0.0 -53.56281655,-27.4026356192277,0.0 -53.56372199,-27.4027728092277,0.0 -53.56498412,-27.4030471892277,0.0 -53.565917,-27.4032118092277,0.0 -53.56690475,-27.4032666892277,0.0 -53.568031228048,-27.4031881006226,0.0 -53.5626639114206,-27.4025847421738,0.0</coordinates>
</LinearRing>
</outerBoundaryIs>
</Polygon>
<Polygon>
<extrude>0</extrude>
<tessellate>1</tessellate>
<outerBoundaryIs>
<LinearRing>
<coordinates>-53.5702877235434,-27.4063719855542,0.0 -53.5699709,-27.4065591992277,0.0 -53.56942215,-27.4069433292276,0.0 -53.56884596,-27.4074920792276,0.0 -53.56832465,-27.4080682692276,0.0 -53.5682122034821,-27.4082585635773,0.0 -53.5702877235434,-27.4063719855542,0.0</coordinates>
</LinearRing>
</outerBoundaryIs>
</Polygon>
</MultiGeometry>
</Placemark>
</Folder>
</Document></kml>
