<?xml version='1.0' encoding='UTF-8'?>
<kml xmlns:xsd="http://www.w3.org/2001/XMLSchema" xmlns:gx="http://www.google.com/kml/ext/2.2" xmlns:atom="http://www.w3.org/2005/Atom" xmlns="http://www.opengis.net/kml/2.2">
<Document>
<name>prata_2512200_localidades_2022</name>
<visibility>1</visibility>
<Schema name="Localidades" id="kml_schema_ft_Localidades">
<SimpleField type="xsd:string" name="CD_UF">
<displayName>CD_UF</displayName>
</SimpleField>
<SimpleField type="xsd:string" name="NM_UF">
<displayName>NM_UF</displayName>
</SimpleField>
<SimpleField type="xsd:string" name="SIGLA_UF">
<displayName>SIGLA_UF</displayName>
</SimpleField>
<SimpleField type="xsd:string" name="CD_MUN">
<displayName>CD_MUN</displayName>
</SimpleField>
<SimpleField type="xsd:string" name="NM_MUN">
<displayName>NM_MUN</displayName>
</SimpleField>
<SimpleField type="xsd:string" name="CD_RGINT">
<displayName>CD_RGINT</displayName>
</SimpleField>
<SimpleField type="xsd:string" name="NM_RGINT">
<displayName>NM_RGINT</displayName>
</SimpleField>
<SimpleField type="xsd:string" name="CD_RGI">
<displayName>CD_RGI</displayName>
</SimpleField>
<SimpleField type="xsd:string" name="NM_RGI">
<displayName>NM_RGI</displayName>
</SimpleField>
<SimpleField type="xsd:string" name="CT_LOCALIDADE">
<displayName>CT_LOCALIDADE</displayName>
</SimpleField>
<SimpleField type="xsd:string" name="SCT_LOCALIDADE">
<displayName>SCT_LOCALIDADE</displayName>
</SimpleField>
<SimpleField type="xsd:string" name="CD_LOCALIDADE">
<displayName>CD_LOCALIDADE</displayName>
</SimpleField>
<SimpleField type="xsd:string" name="NM_LOCALIDADE">
<displayName>NM_LOCALIDADE</displayName>
</SimpleField>
</Schema>
<Schema name="01. Cidade" id="kml_schema_ft_01._Cidade">
<SimpleField type="xsd:string" name="CD_UF">
<displayName>CD_UF</displayName>
</SimpleField>
<SimpleField type="xsd:string" name="NM_UF">
<displayName>NM_UF</displayName>
</SimpleField>
<SimpleField type="xsd:string" name="SIGLA_UF">
<displayName>SIGLA_UF</displayName>
</SimpleField>
<SimpleField type="xsd:string" name="CD_MUN">
<displayName>CD_MUN</displayName>
</SimpleField>
<SimpleField type="xsd:string" name="NM_MUN">
<displayName>NM_MUN</displayName>
</SimpleField>
<SimpleField type="xsd:string" name="CD_RGINT">
<displayName>CD_RGINT</displayName>
</SimpleField>
<SimpleField type="xsd:string" name="NM_RGINT">
<displayName>NM_RGINT</displayName>
</SimpleField>
<SimpleField type="xsd:string" name="CD_RGI">
<displayName>CD_RGI</displayName>
</SimpleField>
<SimpleField type="xsd:string" name="NM_RGI">
<displayName>NM_RGI</displayName>
</SimpleField>
<SimpleField type="xsd:string" name="CT_LOCALIDADE">
<displayName>CT_LOCALIDADE</displayName>
</SimpleField>
<SimpleField type="xsd:string" name="SCT_LOCALIDADE">
<displayName>SCT_LOCALIDADE</displayName>
</SimpleField>
<SimpleField type="xsd:string" name="CD_LOCALIDADE">
<displayName>CD_LOCALIDADE</displayName>
</SimpleField>
<SimpleField type="xsd:string" name="NM_LOCALIDADE">
<displayName>NM_LOCALIDADE</displayName>
</SimpleField>
<SimpleField type="xsd:string" name="LAT_LOCALIDADE">
<displayName>LAT_LOCALIDADE</displayName>
</SimpleField>
<SimpleField type="xsd:string" name="LONG_LOCALIDADE">
<displayName>LONG_LOCALIDADE</displayName>
</SimpleField>
</Schema>
<Schema name="Município" id="kml_schema_ft_Município">
<SimpleField type="xsd:string" name="CD_UF">
<displayName>CD_UF</displayName>
</SimpleField>
<SimpleField type="xsd:string" name="NM_UF">
<displayName>NM_UF</displayName>
</SimpleField>
<SimpleField type="xsd:string" name="CD_MUN">
<displayName>CD_MUN</displayName>
</SimpleField>
<SimpleField type="xsd:string" name="NM_MUN">
<displayName>NM_MUN</displayName>
</SimpleField>
<SimpleField type="xsd:string" name="CD_RGINT">
<displayName>CD_RGINT</displayName>
</SimpleField>
<SimpleField type="xsd:string" name="NM_RGINT">
<displayName>NM_RGINT</displayName>
</SimpleField>
<SimpleField type="xsd:string" name="CD_RGI">
<displayName>CD_RGI</displayName>
</SimpleField>
<SimpleField type="xsd:string" name="NM_RGI">
<displayName>NM_RGI</displayName>
</SimpleField>
</Schema>
<Folder id="01. Cidade">
<name>01. Cidade</name>
<Folder id="01.03. Sede Municipal">
<name>01.03. Sede Municipal</name>
<Placemark id="01.03. Sede Municipal">
<name>Prata [2512200]</name>
<visibility>1</visibility>
<snippet> </snippet>
<description>&lt;center&gt;&lt;table&gt;&lt;tr&gt;&lt;th colspan='2' align='center'&gt;&lt;em&gt;Atributos&lt;/em&gt;&lt;/th&gt;&lt;/tr&gt;&lt;tr bgcolor="#E3E3F3"&gt;
&lt;th&gt;CD_UF&lt;/th&gt;
&lt;td&gt;25&lt;/td&gt;
&lt;/tr&gt;&lt;tr bgcolor=""&gt;
&lt;th&gt;NM_UF&lt;/th&gt;
&lt;td&gt;Paraíba&lt;/td&gt;
&lt;/tr&gt;&lt;tr bgcolor="#E3E3F3"&gt;
&lt;th&gt;SIGLA_UF&lt;/th&gt;
&lt;td&gt;PB&lt;/td&gt;
&lt;/tr&gt;&lt;tr bgcolor=""&gt;
&lt;th&gt;CD_MUN&lt;/th&gt;
&lt;td&gt;2512200&lt;/td&gt;
&lt;/tr&gt;&lt;tr bgcolor="#E3E3F3"&gt;
&lt;th&gt;NM_MUN&lt;/th&gt;
&lt;td&gt;Prata&lt;/td&gt;
&lt;/tr&gt;&lt;tr bgcolor=""&gt;
&lt;th&gt;CD_RGINT&lt;/th&gt;
&lt;td&gt;2502&lt;/td&gt;
&lt;/tr&gt;&lt;tr bgcolor="#E3E3F3"&gt;
&lt;th&gt;NM_RGINT&lt;/th&gt;
&lt;td&gt;Campina Grande&lt;/td&gt;
&lt;/tr&gt;&lt;tr bgcolor=""&gt;
&lt;th&gt;CD_RGI&lt;/th&gt;
&lt;td&gt;250007&lt;/td&gt;
&lt;/tr&gt;&lt;tr bgcolor="#E3E3F3"&gt;
&lt;th&gt;NM_RGI&lt;/th&gt;
&lt;td&gt;Monteiro&lt;/td&gt;
&lt;/tr&gt;&lt;tr bgcolor=""&gt;
&lt;th&gt;CT_LOCALIDADE&lt;/th&gt;
&lt;td&gt;Cidade&lt;/td&gt;
&lt;/tr&gt;&lt;tr bgcolor="#E3E3F3"&gt;
&lt;th&gt;SCT_LOCALIDADE&lt;/th&gt;
&lt;td&gt;Sede Municipal&lt;/td&gt;
&lt;/tr&gt;&lt;tr bgcolor=""&gt;
&lt;th&gt;CD_LOCALIDADE&lt;/th&gt;
&lt;td&gt;2512200&lt;/td&gt;
&lt;/tr&gt;&lt;tr bgcolor="#E3E3F3"&gt;
&lt;th&gt;NM_LOCALIDADE&lt;/th&gt;
&lt;td&gt;Prata&lt;/td&gt;
&lt;/tr&gt;&lt;tr bgcolor=""&gt;
&lt;th&gt;LAT_LOCALIDADE&lt;/th&gt;
&lt;td&gt;-7.6948&lt;/td&gt;
&lt;/tr&gt;&lt;tr bgcolor="#E3E3F3"&gt;
&lt;th&gt;LONG_LOCALIDADE&lt;/th&gt;
&lt;td&gt;-37.0844&lt;/td&gt;
&lt;/tr&gt;&lt;/table&gt;&lt;/center&gt;</description>
<Style>
<IconStyle>
<color>ff00aaff</color>
<scale>1.0</scale>
<Icon>
<href>http://maps.google.com/mapfiles/kml/shapes/placemark_circle.png</href>
</Icon>
</IconStyle>
<LabelStyle>
<scale>1.0</scale>
</LabelStyle>
<LineStyle>
<color>ffffffff</color>
<width>3</width>
<gx:labelVisibility>1</gx:labelVisibility>
</LineStyle>
<PolyStyle>
<color>00ffffff</color>
</PolyStyle>
</Style>
<ExtendedData>
<SchemaData schemaUrl="#kml_schema_ft_01._Cidade">
<SimpleData name="CD_UF">25</SimpleData>
<SimpleData name="NM_UF">Paraíba</SimpleData>
<SimpleData name="SIGLA_UF">PB</SimpleData>
<SimpleData name="CD_MUN">2512200</SimpleData>
<SimpleData name="NM_MUN">Prata</SimpleData>
<SimpleData name="CD_RGINT">2502</SimpleData>
<SimpleData name="NM_RGINT">Campina Grande</SimpleData>
<SimpleData name="CD_RGI">250007</SimpleData>
<SimpleData name="NM_RGI">Monteiro</SimpleData>
<SimpleData name="CT_LOCALIDADE">Cidade</SimpleData>
<SimpleData name="SCT_LOCALIDADE">Sede Municipal</SimpleData>
<SimpleData name="CD_LOCALIDADE">2512200</SimpleData>
<SimpleData name="NM_LOCALIDADE">Prata</SimpleData>
<SimpleData name="LAT_LOCALIDADE">-7.6948</SimpleData>
<SimpleData name="LONG_LOCALIDADE">-37.0844</SimpleData>
</SchemaData>
</ExtendedData>
<Point>
<extrude>0</extrude>
<coordinates>-37.084428,-7.69481699974863,0.0</coordinates>
</Point>
</Placemark>
</Folder>
</Folder>
<Folder id="12. Outras Localidades">
<name>12. Outras Localidades</name>
<Placemark id="12. Outras Localidades">
<name>Agrovila Macacos [251220000001]</name>
<visibility>1</visibility>
<snippet> </snippet>
<description>&lt;center&gt;&lt;table&gt;&lt;tr&gt;&lt;th colspan='2' align='center'&gt;&lt;em&gt;Attributes&lt;/em&gt;&lt;/th&gt;&lt;/tr&gt;&lt;tr bgcolor="#E3E3F3"&gt;
&lt;th&gt;CD_UF&lt;/th&gt;
&lt;td&gt;25&lt;/td&gt;
&lt;/tr&gt;&lt;tr bgcolor=""&gt;
&lt;th&gt;NM_UF&lt;/th&gt;
&lt;td&gt;Paraíba&lt;/td&gt;
&lt;/tr&gt;&lt;tr bgcolor="#E3E3F3"&gt;
&lt;th&gt;SIGLA_UF&lt;/th&gt;
&lt;td&gt;PB&lt;/td&gt;
&lt;/tr&gt;&lt;tr bgcolor=""&gt;
&lt;th&gt;CD_MUN&lt;/th&gt;
&lt;td&gt;2512200&lt;/td&gt;
&lt;/tr&gt;&lt;tr bgcolor="#E3E3F3"&gt;
&lt;th&gt;NM_MUN&lt;/th&gt;
&lt;td&gt;Prata&lt;/td&gt;
&lt;/tr&gt;&lt;tr bgcolor=""&gt;
&lt;th&gt;CD_RGINT&lt;/th&gt;
&lt;td&gt;2502&lt;/td&gt;
&lt;/tr&gt;&lt;tr bgcolor="#E3E3F3"&gt;
&lt;th&gt;NM_RGINT&lt;/th&gt;
&lt;td&gt;Campina Grande&lt;/td&gt;
&lt;/tr&gt;&lt;tr bgcolor=""&gt;
&lt;th&gt;CD_RGI&lt;/th&gt;
&lt;td&gt;250007&lt;/td&gt;
&lt;/tr&gt;&lt;tr bgcolor="#E3E3F3"&gt;
&lt;th&gt;NM_RGI&lt;/th&gt;
&lt;td&gt;Monteiro&lt;/td&gt;
&lt;/tr&gt;&lt;tr bgcolor=""&gt;
&lt;th&gt;CT_LOCALIDADE&lt;/th&gt;
&lt;td&gt;Outras Localidades&lt;/td&gt;
&lt;/tr&gt;&lt;tr bgcolor="#E3E3F3"&gt;
&lt;th&gt;SCT_LOCALIDADE&lt;/th&gt;
&lt;td&gt;&lt;/td&gt;
&lt;/tr&gt;&lt;tr bgcolor=""&gt;
&lt;th&gt;CD_LOCALIDADE&lt;/th&gt;
&lt;td&gt;251220000001&lt;/td&gt;
&lt;/tr&gt;&lt;tr bgcolor="#E3E3F3"&gt;
&lt;th&gt;NM_LOCALIDADE&lt;/th&gt;
&lt;td&gt;Agrovila Macacos&lt;/td&gt;
&lt;/tr&gt;&lt;/table&gt;&lt;/center&gt;</description>
<Style>
<IconStyle>
<color>ff0069d3</color>
<scale>0.6</scale>
<Icon>
<href>http://maps.google.com/mapfiles/kml/shapes/placemark_circle.png</href>
</Icon>
</IconStyle>
<LabelStyle>
<scale>0.6</scale>
</LabelStyle>
<LineStyle>
<width>1.0</width>
<gx:labelVisibility>1</gx:labelVisibility>
</LineStyle>
</Style>
<ExtendedData>
<SchemaData schemaUrl="#kml_schema_ft_Localidades">
<SimpleData name="CD_UF">25</SimpleData>
<SimpleData name="NM_UF">Paraíba</SimpleData>
<SimpleData name="SIGLA_UF">PB</SimpleData>
<SimpleData name="CD_MUN">2512200</SimpleData>
<SimpleData name="NM_MUN">Prata</SimpleData>
<SimpleData name="CD_RGINT">2502</SimpleData>
<SimpleData name="NM_RGINT">Campina Grande</SimpleData>
<SimpleData name="CD_RGI">250007</SimpleData>
<SimpleData name="NM_RGI">Monteiro</SimpleData>
<SimpleData name="CT_LOCALIDADE">Outras Localidades</SimpleData>
<SimpleData name="CD_LOCALIDADE">251220000001</SimpleData>
<SimpleData name="NM_LOCALIDADE">Agrovila Macacos</SimpleData>
</SchemaData>
</ExtendedData>
<Point>
<extrude>0</extrude>
<coordinates>-37.0468391,-7.63353539975059,0.0</coordinates>
</Point>
</Placemark>
<Placemark id="12. Outras Localidades">
<name>Sítio Balanço [251220000002]</name>
<visibility>1</visibility>
<snippet> </snippet>
<description>&lt;center&gt;&lt;table&gt;&lt;tr&gt;&lt;th colspan='2' align='center'&gt;&lt;em&gt;Attributes&lt;/em&gt;&lt;/th&gt;&lt;/tr&gt;&lt;tr bgcolor="#E3E3F3"&gt;
&lt;th&gt;CD_UF&lt;/th&gt;
&lt;td&gt;25&lt;/td&gt;
&lt;/tr&gt;&lt;tr bgcolor=""&gt;
&lt;th&gt;NM_UF&lt;/th&gt;
&lt;td&gt;Paraíba&lt;/td&gt;
&lt;/tr&gt;&lt;tr bgcolor="#E3E3F3"&gt;
&lt;th&gt;SIGLA_UF&lt;/th&gt;
&lt;td&gt;PB&lt;/td&gt;
&lt;/tr&gt;&lt;tr bgcolor=""&gt;
&lt;th&gt;CD_MUN&lt;/th&gt;
&lt;td&gt;2512200&lt;/td&gt;
&lt;/tr&gt;&lt;tr bgcolor="#E3E3F3"&gt;
&lt;th&gt;NM_MUN&lt;/th&gt;
&lt;td&gt;Prata&lt;/td&gt;
&lt;/tr&gt;&lt;tr bgcolor=""&gt;
&lt;th&gt;CD_RGINT&lt;/th&gt;
&lt;td&gt;2502&lt;/td&gt;
&lt;/tr&gt;&lt;tr bgcolor="#E3E3F3"&gt;
&lt;th&gt;NM_RGINT&lt;/th&gt;
&lt;td&gt;Campina Grande&lt;/td&gt;
&lt;/tr&gt;&lt;tr bgcolor=""&gt;
&lt;th&gt;CD_RGI&lt;/th&gt;
&lt;td&gt;250007&lt;/td&gt;
&lt;/tr&gt;&lt;tr bgcolor="#E3E3F3"&gt;
&lt;th&gt;NM_RGI&lt;/th&gt;
&lt;td&gt;Monteiro&lt;/td&gt;
&lt;/tr&gt;&lt;tr bgcolor=""&gt;
&lt;th&gt;CT_LOCALIDADE&lt;/th&gt;
&lt;td&gt;Outras Localidades&lt;/td&gt;
&lt;/tr&gt;&lt;tr bgcolor="#E3E3F3"&gt;
&lt;th&gt;SCT_LOCALIDADE&lt;/th&gt;
&lt;td&gt;&lt;/td&gt;
&lt;/tr&gt;&lt;tr bgcolor=""&gt;
&lt;th&gt;CD_LOCALIDADE&lt;/th&gt;
&lt;td&gt;251220000002&lt;/td&gt;
&lt;/tr&gt;&lt;tr bgcolor="#E3E3F3"&gt;
&lt;th&gt;NM_LOCALIDADE&lt;/th&gt;
&lt;td&gt;Sítio Balanço&lt;/td&gt;
&lt;/tr&gt;&lt;/table&gt;&lt;/center&gt;</description>
<Style>
<IconStyle>
<color>ff0069d3</color>
<scale>0.6</scale>
<Icon>
<href>http://maps.google.com/mapfiles/kml/shapes/placemark_circle.png</href>
</Icon>
</IconStyle>
<LabelStyle>
<scale>0.6</scale>
</LabelStyle>
<LineStyle>
<width>1.0</width>
<gx:labelVisibility>1</gx:labelVisibility>
</LineStyle>
</Style>
<ExtendedData>
<SchemaData schemaUrl="#kml_schema_ft_Localidades">
<SimpleData name="CD_UF">25</SimpleData>
<SimpleData name="NM_UF">Paraíba</SimpleData>
<SimpleData name="SIGLA_UF">PB</SimpleData>
<SimpleData name="CD_MUN">2512200</SimpleData>
<SimpleData name="NM_MUN">Prata</SimpleData>
<SimpleData name="CD_RGINT">2502</SimpleData>
<SimpleData name="NM_RGINT">Campina Grande</SimpleData>
<SimpleData name="CD_RGI">250007</SimpleData>
<SimpleData name="NM_RGI">Monteiro</SimpleData>
<SimpleData name="CT_LOCALIDADE">Outras Localidades</SimpleData>
<SimpleData name="CD_LOCALIDADE">251220000002</SimpleData>
<SimpleData name="NM_LOCALIDADE">Sítio Balanço</SimpleData>
</SchemaData>
</ExtendedData>
<Point>
<extrude>0</extrude>
<coordinates>-37.103461,-7.76683789974634,0.0</coordinates>
</Point>
</Placemark>
<Placemark id="12. Outras Localidades">
<name>Agrovila Lajinha [251220000003]</name>
<visibility>1</visibility>
<snippet> </snippet>
<description>&lt;center&gt;&lt;table&gt;&lt;tr&gt;&lt;th colspan='2' align='center'&gt;&lt;em&gt;Attributes&lt;/em&gt;&lt;/th&gt;&lt;/tr&gt;&lt;tr bgcolor="#E3E3F3"&gt;
&lt;th&gt;CD_UF&lt;/th&gt;
&lt;td&gt;25&lt;/td&gt;
&lt;/tr&gt;&lt;tr bgcolor=""&gt;
&lt;th&gt;NM_UF&lt;/th&gt;
&lt;td&gt;Paraíba&lt;/td&gt;
&lt;/tr&gt;&lt;tr bgcolor="#E3E3F3"&gt;
&lt;th&gt;SIGLA_UF&lt;/th&gt;
&lt;td&gt;PB&lt;/td&gt;
&lt;/tr&gt;&lt;tr bgcolor=""&gt;
&lt;th&gt;CD_MUN&lt;/th&gt;
&lt;td&gt;2512200&lt;/td&gt;
&lt;/tr&gt;&lt;tr bgcolor="#E3E3F3"&gt;
&lt;th&gt;NM_MUN&lt;/th&gt;
&lt;td&gt;Prata&lt;/td&gt;
&lt;/tr&gt;&lt;tr bgcolor=""&gt;
&lt;th&gt;CD_RGINT&lt;/th&gt;
&lt;td&gt;2502&lt;/td&gt;
&lt;/tr&gt;&lt;tr bgcolor="#E3E3F3"&gt;
&lt;th&gt;NM_RGINT&lt;/th&gt;
&lt;td&gt;Campina Grande&lt;/td&gt;
&lt;/tr&gt;&lt;tr bgcolor=""&gt;
&lt;th&gt;CD_RGI&lt;/th&gt;
&lt;td&gt;250007&lt;/td&gt;
&lt;/tr&gt;&lt;tr bgcolor="#E3E3F3"&gt;
&lt;th&gt;NM_RGI&lt;/th&gt;
&lt;td&gt;Monteiro&lt;/td&gt;
&lt;/tr&gt;&lt;tr bgcolor=""&gt;
&lt;th&gt;CT_LOCALIDADE&lt;/th&gt;
&lt;td&gt;Outras Localidades&lt;/td&gt;
&lt;/tr&gt;&lt;tr bgcolor="#E3E3F3"&gt;
&lt;th&gt;SCT_LOCALIDADE&lt;/th&gt;
&lt;td&gt;&lt;/td&gt;
&lt;/tr&gt;&lt;tr bgcolor=""&gt;
&lt;th&gt;CD_LOCALIDADE&lt;/th&gt;
&lt;td&gt;251220000003&lt;/td&gt;
&lt;/tr&gt;&lt;tr bgcolor="#E3E3F3"&gt;
&lt;th&gt;NM_LOCALIDADE&lt;/th&gt;
&lt;td&gt;Agrovila Lajinha&lt;/td&gt;
&lt;/tr&gt;&lt;/table&gt;&lt;/center&gt;</description>
<Style>
<IconStyle>
<color>ff0069d3</color>
<scale>0.6</scale>
<Icon>
<href>http://maps.google.com/mapfiles/kml/shapes/placemark_circle.png</href>
</Icon>
</IconStyle>
<LabelStyle>
<scale>0.6</scale>
</LabelStyle>
<LineStyle>
<width>1.0</width>
<gx:labelVisibility>1</gx:labelVisibility>
</LineStyle>
</Style>
<ExtendedData>
<SchemaData schemaUrl="#kml_schema_ft_Localidades">
<SimpleData name="CD_UF">25</SimpleData>
<SimpleData name="NM_UF">Paraíba</SimpleData>
<SimpleData name="SIGLA_UF">PB</SimpleData>
<SimpleData name="CD_MUN">2512200</SimpleData>
<SimpleData name="NM_MUN">Prata</SimpleData>
<SimpleData name="CD_RGINT">2502</SimpleData>
<SimpleData name="NM_RGINT">Campina Grande</SimpleData>
<SimpleData name="CD_RGI">250007</SimpleData>
<SimpleData name="NM_RGI">Monteiro</SimpleData>
<SimpleData name="CT_LOCALIDADE">Outras Localidades</SimpleData>
<SimpleData name="CD_LOCALIDADE">251220000003</SimpleData>
<SimpleData name="NM_LOCALIDADE">Agrovila Lajinha</SimpleData>
</SchemaData>
</ExtendedData>
<Point>
<extrude>0</extrude>
<coordinates>-37.0283231,-7.64975319975007,0.0</coordinates>
</Point>
</Placemark>
<Placemark id="12. Outras Localidades">
<name>Sítio Cabeça do Boi [251220000004]</name>
<visibility>1</visibility>
<snippet> </snippet>
<description>&lt;center&gt;&lt;table&gt;&lt;tr&gt;&lt;th colspan='2' align='center'&gt;&lt;em&gt;Attributes&lt;/em&gt;&lt;/th&gt;&lt;/tr&gt;&lt;tr bgcolor="#E3E3F3"&gt;
&lt;th&gt;CD_UF&lt;/th&gt;
&lt;td&gt;25&lt;/td&gt;
&lt;/tr&gt;&lt;tr bgcolor=""&gt;
&lt;th&gt;NM_UF&lt;/th&gt;
&lt;td&gt;Paraíba&lt;/td&gt;
&lt;/tr&gt;&lt;tr bgcolor="#E3E3F3"&gt;
&lt;th&gt;SIGLA_UF&lt;/th&gt;
&lt;td&gt;PB&lt;/td&gt;
&lt;/tr&gt;&lt;tr bgcolor=""&gt;
&lt;th&gt;CD_MUN&lt;/th&gt;
&lt;td&gt;2512200&lt;/td&gt;
&lt;/tr&gt;&lt;tr bgcolor="#E3E3F3"&gt;
&lt;th&gt;NM_MUN&lt;/th&gt;
&lt;td&gt;Prata&lt;/td&gt;
&lt;/tr&gt;&lt;tr bgcolor=""&gt;
&lt;th&gt;CD_RGINT&lt;/th&gt;
&lt;td&gt;2502&lt;/td&gt;
&lt;/tr&gt;&lt;tr bgcolor="#E3E3F3"&gt;
&lt;th&gt;NM_RGINT&lt;/th&gt;
&lt;td&gt;Campina Grande&lt;/td&gt;
&lt;/tr&gt;&lt;tr bgcolor=""&gt;
&lt;th&gt;CD_RGI&lt;/th&gt;
&lt;td&gt;250007&lt;/td&gt;
&lt;/tr&gt;&lt;tr bgcolor="#E3E3F3"&gt;
&lt;th&gt;NM_RGI&lt;/th&gt;
&lt;td&gt;Monteiro&lt;/td&gt;
&lt;/tr&gt;&lt;tr bgcolor=""&gt;
&lt;th&gt;CT_LOCALIDADE&lt;/th&gt;
&lt;td&gt;Outras Localidades&lt;/td&gt;
&lt;/tr&gt;&lt;tr bgcolor="#E3E3F3"&gt;
&lt;th&gt;SCT_LOCALIDADE&lt;/th&gt;
&lt;td&gt;&lt;/td&gt;
&lt;/tr&gt;&lt;tr bgcolor=""&gt;
&lt;th&gt;CD_LOCALIDADE&lt;/th&gt;
&lt;td&gt;251220000004&lt;/td&gt;
&lt;/tr&gt;&lt;tr bgcolor="#E3E3F3"&gt;
&lt;th&gt;NM_LOCALIDADE&lt;/th&gt;
&lt;td&gt;Sítio Cabeça do Boi&lt;/td&gt;
&lt;/tr&gt;&lt;/table&gt;&lt;/center&gt;</description>
<Style>
<IconStyle>
<color>ff0069d3</color>
<scale>0.6</scale>
<Icon>
<href>http://maps.google.com/mapfiles/kml/shapes/placemark_circle.png</href>
</Icon>
</IconStyle>
<LabelStyle>
<scale>0.6</scale>
</LabelStyle>
<LineStyle>
<width>1.0</width>
<gx:labelVisibility>1</gx:labelVisibility>
</LineStyle>
</Style>
<ExtendedData>
<SchemaData schemaUrl="#kml_schema_ft_Localidades">
<SimpleData name="CD_UF">25</SimpleData>
<SimpleData name="NM_UF">Paraíba</SimpleData>
<SimpleData name="SIGLA_UF">PB</SimpleData>
<SimpleData name="CD_MUN">2512200</SimpleData>
<SimpleData name="NM_MUN">Prata</SimpleData>
<SimpleData name="CD_RGINT">2502</SimpleData>
<SimpleData name="NM_RGINT">Campina Grande</SimpleData>
<SimpleData name="CD_RGI">250007</SimpleData>
<SimpleData name="NM_RGI">Monteiro</SimpleData>
<SimpleData name="CT_LOCALIDADE">Outras Localidades</SimpleData>
<SimpleData name="CD_LOCALIDADE">251220000004</SimpleData>
<SimpleData name="NM_LOCALIDADE">Sítio Cabeça do Boi</SimpleData>
</SchemaData>
</ExtendedData>
<Point>
<extrude>0</extrude>
<coordinates>-37.0302798,-7.65551679974989,0.0</coordinates>
</Point>
</Placemark>
<Placemark id="12. Outras Localidades">
<name>Sítio São Francisco [251220000005]</name>
<visibility>1</visibility>
<snippet> </snippet>
<description>&lt;center&gt;&lt;table&gt;&lt;tr&gt;&lt;th colspan='2' align='center'&gt;&lt;em&gt;Attributes&lt;/em&gt;&lt;/th&gt;&lt;/tr&gt;&lt;tr bgcolor="#E3E3F3"&gt;
&lt;th&gt;CD_UF&lt;/th&gt;
&lt;td&gt;25&lt;/td&gt;
&lt;/tr&gt;&lt;tr bgcolor=""&gt;
&lt;th&gt;NM_UF&lt;/th&gt;
&lt;td&gt;Paraíba&lt;/td&gt;
&lt;/tr&gt;&lt;tr bgcolor="#E3E3F3"&gt;
&lt;th&gt;SIGLA_UF&lt;/th&gt;
&lt;td&gt;PB&lt;/td&gt;
&lt;/tr&gt;&lt;tr bgcolor=""&gt;
&lt;th&gt;CD_MUN&lt;/th&gt;
&lt;td&gt;2512200&lt;/td&gt;
&lt;/tr&gt;&lt;tr bgcolor="#E3E3F3"&gt;
&lt;th&gt;NM_MUN&lt;/th&gt;
&lt;td&gt;Prata&lt;/td&gt;
&lt;/tr&gt;&lt;tr bgcolor=""&gt;
&lt;th&gt;CD_RGINT&lt;/th&gt;
&lt;td&gt;2502&lt;/td&gt;
&lt;/tr&gt;&lt;tr bgcolor="#E3E3F3"&gt;
&lt;th&gt;NM_RGINT&lt;/th&gt;
&lt;td&gt;Campina Grande&lt;/td&gt;
&lt;/tr&gt;&lt;tr bgcolor=""&gt;
&lt;th&gt;CD_RGI&lt;/th&gt;
&lt;td&gt;250007&lt;/td&gt;
&lt;/tr&gt;&lt;tr bgcolor="#E3E3F3"&gt;
&lt;th&gt;NM_RGI&lt;/th&gt;
&lt;td&gt;Monteiro&lt;/td&gt;
&lt;/tr&gt;&lt;tr bgcolor=""&gt;
&lt;th&gt;CT_LOCALIDADE&lt;/th&gt;
&lt;td&gt;Outras Localidades&lt;/td&gt;
&lt;/tr&gt;&lt;tr bgcolor="#E3E3F3"&gt;
&lt;th&gt;SCT_LOCALIDADE&lt;/th&gt;
&lt;td&gt;&lt;/td&gt;
&lt;/tr&gt;&lt;tr bgcolor=""&gt;
&lt;th&gt;CD_LOCALIDADE&lt;/th&gt;
&lt;td&gt;251220000005&lt;/td&gt;
&lt;/tr&gt;&lt;tr bgcolor="#E3E3F3"&gt;
&lt;th&gt;NM_LOCALIDADE&lt;/th&gt;
&lt;td&gt;Sítio São Francisco&lt;/td&gt;
&lt;/tr&gt;&lt;/table&gt;&lt;/center&gt;</description>
<Style>
<IconStyle>
<color>ff0069d3</color>
<scale>0.6</scale>
<Icon>
<href>http://maps.google.com/mapfiles/kml/shapes/placemark_circle.png</href>
</Icon>
</IconStyle>
<LabelStyle>
<scale>0.6</scale>
</LabelStyle>
<LineStyle>
<width>1.0</width>
<gx:labelVisibility>1</gx:labelVisibility>
</LineStyle>
</Style>
<ExtendedData>
<SchemaData schemaUrl="#kml_schema_ft_Localidades">
<SimpleData name="CD_UF">25</SimpleData>
<SimpleData name="NM_UF">Paraíba</SimpleData>
<SimpleData name="SIGLA_UF">PB</SimpleData>
<SimpleData name="CD_MUN">2512200</SimpleData>
<SimpleData name="NM_MUN">Prata</SimpleData>
<SimpleData name="CD_RGINT">2502</SimpleData>
<SimpleData name="NM_RGINT">Campina Grande</SimpleData>
<SimpleData name="CD_RGI">250007</SimpleData>
<SimpleData name="NM_RGI">Monteiro</SimpleData>
<SimpleData name="CT_LOCALIDADE">Outras Localidades</SimpleData>
<SimpleData name="CD_LOCALIDADE">251220000005</SimpleData>
<SimpleData name="NM_LOCALIDADE">Sítio São Francisco</SimpleData>
</SchemaData>
</ExtendedData>
<Point>
<extrude>0</extrude>
<coordinates>-37.1153016,-7.7021064997484,0.0</coordinates>
</Point>
</Placemark>
<Placemark id="12. Outras Localidades">
<name>Sítio do Melo [251220000006]</name>
<visibility>1</visibility>
<snippet> </snippet>
<description>&lt;center&gt;&lt;table&gt;&lt;tr&gt;&lt;th colspan='2' align='center'&gt;&lt;em&gt;Attributes&lt;/em&gt;&lt;/th&gt;&lt;/tr&gt;&lt;tr bgcolor="#E3E3F3"&gt;
&lt;th&gt;CD_UF&lt;/th&gt;
&lt;td&gt;25&lt;/td&gt;
&lt;/tr&gt;&lt;tr bgcolor=""&gt;
&lt;th&gt;NM_UF&lt;/th&gt;
&lt;td&gt;Paraíba&lt;/td&gt;
&lt;/tr&gt;&lt;tr bgcolor="#E3E3F3"&gt;
&lt;th&gt;SIGLA_UF&lt;/th&gt;
&lt;td&gt;PB&lt;/td&gt;
&lt;/tr&gt;&lt;tr bgcolor=""&gt;
&lt;th&gt;CD_MUN&lt;/th&gt;
&lt;td&gt;2512200&lt;/td&gt;
&lt;/tr&gt;&lt;tr bgcolor="#E3E3F3"&gt;
&lt;th&gt;NM_MUN&lt;/th&gt;
&lt;td&gt;Prata&lt;/td&gt;
&lt;/tr&gt;&lt;tr bgcolor=""&gt;
&lt;th&gt;CD_RGINT&lt;/th&gt;
&lt;td&gt;2502&lt;/td&gt;
&lt;/tr&gt;&lt;tr bgcolor="#E3E3F3"&gt;
&lt;th&gt;NM_RGINT&lt;/th&gt;
&lt;td&gt;Campina Grande&lt;/td&gt;
&lt;/tr&gt;&lt;tr bgcolor=""&gt;
&lt;th&gt;CD_RGI&lt;/th&gt;
&lt;td&gt;250007&lt;/td&gt;
&lt;/tr&gt;&lt;tr bgcolor="#E3E3F3"&gt;
&lt;th&gt;NM_RGI&lt;/th&gt;
&lt;td&gt;Monteiro&lt;/td&gt;
&lt;/tr&gt;&lt;tr bgcolor=""&gt;
&lt;th&gt;CT_LOCALIDADE&lt;/th&gt;
&lt;td&gt;Outras Localidades&lt;/td&gt;
&lt;/tr&gt;&lt;tr bgcolor="#E3E3F3"&gt;
&lt;th&gt;SCT_LOCALIDADE&lt;/th&gt;
&lt;td&gt;&lt;/td&gt;
&lt;/tr&gt;&lt;tr bgcolor=""&gt;
&lt;th&gt;CD_LOCALIDADE&lt;/th&gt;
&lt;td&gt;251220000006&lt;/td&gt;
&lt;/tr&gt;&lt;tr bgcolor="#E3E3F3"&gt;
&lt;th&gt;NM_LOCALIDADE&lt;/th&gt;
&lt;td&gt;Sítio do Melo&lt;/td&gt;
&lt;/tr&gt;&lt;/table&gt;&lt;/center&gt;</description>
<Style>
<IconStyle>
<color>ff0069d3</color>
<scale>0.6</scale>
<Icon>
<href>http://maps.google.com/mapfiles/kml/shapes/placemark_circle.png</href>
</Icon>
</IconStyle>
<LabelStyle>
<scale>0.6</scale>
</LabelStyle>
<LineStyle>
<width>1.0</width>
<gx:labelVisibility>1</gx:labelVisibility>
</LineStyle>
</Style>
<ExtendedData>
<SchemaData schemaUrl="#kml_schema_ft_Localidades">
<SimpleData name="CD_UF">25</SimpleData>
<SimpleData name="NM_UF">Paraíba</SimpleData>
<SimpleData name="SIGLA_UF">PB</SimpleData>
<SimpleData name="CD_MUN">2512200</SimpleData>
<SimpleData name="NM_MUN">Prata</SimpleData>
<SimpleData name="CD_RGINT">2502</SimpleData>
<SimpleData name="NM_RGINT">Campina Grande</SimpleData>
<SimpleData name="CD_RGI">250007</SimpleData>
<SimpleData name="NM_RGI">Monteiro</SimpleData>
<SimpleData name="CT_LOCALIDADE">Outras Localidades</SimpleData>
<SimpleData name="CD_LOCALIDADE">251220000006</SimpleData>
<SimpleData name="NM_LOCALIDADE">Sítio do Melo</SimpleData>
</SchemaData>
</ExtendedData>
<Point>
<extrude>0</extrude>
<coordinates>-37.050668,-7.73758379974727,0.0</coordinates>
</Point>
</Placemark>
</Folder>
<Folder id="13. Referência">
<name>13. Referência</name>
<Placemark id="13. Referência">
<name>Prata [2512200]</name>
<visibility>1</visibility>
<snippet> </snippet>
<description>&lt;center&gt;&lt;table&gt;&lt;tr&gt;&lt;th colspan='2' align='center'&gt;&lt;em&gt;Attributes&lt;/em&gt;&lt;/th&gt;&lt;/tr&gt;&lt;tr bgcolor="#E3E3F3"&gt;
&lt;th&gt;CD_UF&lt;/th&gt;
&lt;td&gt;25&lt;/td&gt;
&lt;/tr&gt;&lt;tr bgcolor=""&gt;
&lt;th&gt;NM_UF&lt;/th&gt;
&lt;td&gt;Paraíba&lt;/td&gt;
&lt;/tr&gt;&lt;tr bgcolor="#E3E3F3"&gt;
&lt;th&gt;CD_MUN&lt;/th&gt;
&lt;td&gt;2512200&lt;/td&gt;
&lt;/tr&gt;&lt;tr bgcolor=""&gt;
&lt;th&gt;NM_MUN&lt;/th&gt;
&lt;td&gt;Prata&lt;/td&gt;
&lt;/tr&gt;&lt;tr bgcolor="#E3E3F3"&gt;
&lt;th&gt;CD_RGINT&lt;/th&gt;
&lt;td&gt;2502&lt;/td&gt;
&lt;/tr&gt;&lt;tr bgcolor=""&gt;
&lt;th&gt;NM_RGINT&lt;/th&gt;
&lt;td&gt;Campina Grande&lt;/td&gt;
&lt;/tr&gt;&lt;tr bgcolor="#E3E3F3"&gt;
&lt;th&gt;CD_RGI&lt;/th&gt;
&lt;td&gt;250007&lt;/td&gt;
&lt;/tr&gt;&lt;tr bgcolor=""&gt;
&lt;th&gt;NM_RGI&lt;/th&gt;
&lt;td&gt;Monteiro&lt;/td&gt;
&lt;/tr&gt;&lt;/table&gt;&lt;/center&gt;</description>
<Style>
<IconStyle>
<scale>0.7</scale>
</IconStyle>
<LabelStyle>
<scale>0.7</scale>
</LabelStyle>
<LineStyle>
<color>ffffffff</color>
<width>3</width>
<gx:labelVisibility>1</gx:labelVisibility>
</LineStyle>
<PolyStyle>
<color>00ffffff</color>
</PolyStyle>
</Style>
<ExtendedData>
<SchemaData schemaUrl="#kml_schema_ft_Município">
<SimpleData name="CD_UF">25</SimpleData>
<SimpleData name="NM_UF">Paraíba</SimpleData>
<SimpleData name="CD_MUN">2512200</SimpleData>
<SimpleData name="NM_MUN">Prata</SimpleData>
<SimpleData name="CD_RGINT">2502</SimpleData>
<SimpleData name="NM_RGINT">Campina Grande</SimpleData>
<SimpleData name="CD_RGI">250007</SimpleData>
<SimpleData name="NM_RGI">Monteiro</SimpleData>
</SchemaData>
</ExtendedData>
<MultiGeometry>
<Polygon>
<extrude>0</extrude>
<tessellate>1</tessellate>
<outerBoundaryIs>
<LinearRing>
<coordinates>-37.1399222,-7.66606939974955,0.0 -37.1394439,-7.66528829974958,0.0 -37.1383821,-7.6645886997496,0.0 -37.1381376,-7.6644275997496,0.0 -37.1366086,-7.66394539974962,0.0 -37.1354529,-7.66305309974965,0.0 -37.1332842,-7.66197479974968,0.0 -37.1328265,-7.66163369974969,0.0 -37.1317636,-7.66079989974972,0.0 -37.1313126,-7.65941899974976,0.0 -37.1313952,-7.65859009974979,0.0 -37.1312215,-7.65622779974986,0.0 -37.1301114,-7.65313339974996,0.0 -37.1300272,-7.65289869974997,0.0 -37.1299446,-7.65280249974998,0.0 -37.128104,-7.65065659975004,0.0 -37.1264597,-7.64916659975009,0.0 -37.123125,-7.64699549975016,0.0 -37.1197815,-7.64525549975022,0.0 -37.1192802,-7.64517319975022,0.0 -37.1171816,-7.64482859975023,0.0 -37.1149006,-7.64304359975028,0.0 -37.1125061,-7.64201239975032,0.0 -37.1104796,-7.64157999975033,0.0 -37.1089488,-7.64063849975036,0.0 -37.1080436,-7.64008169975038,0.0 -37.1067856,-7.64038049975037,0.0 -37.1059998,-7.64026749975038,0.0 -37.1043745,-7.64076479975035,0.0 -37.103077,-7.64080729975035,0.0 -37.1008763,-7.64109929975035,0.0 -37.0986195,-7.64184349975032,0.0 -37.0971472,-7.6425500997503,0.0 -37.0969087,-7.64281579975029,0.0 -37.09652,-7.64324869975028,0.0 -37.0958281,-7.64349619975027,0.0 -37.0951905,-7.64311079975028,0.0 -37.094469,-7.64341879975027,0.0 -37.0923557,-7.64337859975027,0.0 -37.0910561,-7.64321029975028,0.0 -37.0892383,-7.6425047997503,0.0 -37.0881862,-7.64296649975029,0.0 -37.0880233,-7.64323629975028,0.0 -37.0879484,-7.64336019975027,0.0 -37.0870432,-7.64339889975027,0.0 -37.0858035,-7.64316979975028,0.0 -37.0849859,-7.64290649975029,0.0 -37.0843162,-7.64231049975031,0.0 -37.0834265,-7.64160369975033,0.0 -37.0852002,-7.64004349975038,0.0 -37.085804,-7.63852009975043,0.0 -37.0858905,-7.63830199975044,0.0 -37.0859371,-7.63818439975044,0.0 -37.0864609,-7.63771259975045,0.0 -37.0864807,-7.63662829975049,0.0 -37.0876214,-7.63437389975056,0.0 -37.0879281,-7.63349209975059,0.0 -37.0882678,-7.63251569975062,0.0 -37.0883853,-7.63058719975068,0.0 -37.0895834,-7.62803109975076,0.0 -37.0893566,-7.62743629975078,0.0 -37.0893203,-7.62734089975079,0.0 -37.0894061,-7.6268431997508,0.0 -37.089767,-7.62670429975081,0.0 -37.0907507,-7.62664979975081,0.0 -37.0911139,-7.62634609975081,0.0 -37.0914063,-7.62610149975083,0.0 -37.0920769,-7.62520679975085,0.0 -37.0922159,-7.62395569975089,0.0 -37.0919507,-7.62303969975092,0.0 -37.0912672,-7.62257929975094,0.0 -37.0907388,-7.62256929975094,0.0 -37.0907217,-7.62257569975093,0.0 -37.0902426,-7.62275469975093,0.0 -37.0898502,-7.62275839975093,0.0 -37.0898324,-7.62247249975094,0.0 -37.089992,-7.62179339975096,0.0 -37.0899443,-7.62153779975097,0.0 -37.0899643,-7.62149879975097,0.0 -37.0901072,-7.62122009975098,0.0 -37.0906177,-7.62094419975099,0.0 -37.090495,-7.620734599751,0.0 -37.090176,-7.620511699751,0.0 -37.0898582,-7.620424399751,0.0 -37.0894061,-7.620488899751,0.0 -37.0892763,-7.620520599751,0.0 -37.0891501,-7.620551499751,0.0 -37.088817,-7.620434199751,0.0 -37.0886184,-7.62018009975101,0.0 -37.0886304,-7.61986379975103,0.0 -37.0884771,-7.61960929975103,0.0 -37.0885001,-7.61941699975104,0.0 -37.088533,-7.61914189975105,0.0 -37.0891249,-7.61790159975109,0.0 -37.0895494,-7.61651229975113,0.0 -37.089501,-7.61618149975114,0.0 -37.0892417,-7.61589779975115,0.0 -37.0893431,-7.61544519975116,0.0 -37.0895643,-7.61490099975118,0.0 -37.0893946,-7.6145110997512,0.0 -37.089377,-7.6142552997512,0.0 -37.0897059,-7.61392089975121,0.0 -37.0899127,-7.61345219975123,0.0 -37.0899531,-7.61293979975124,0.0 -37.0898352,-7.61271749975125,0.0 -37.0897226,-7.61250529975125,0.0 -37.0894177,-7.61217689975127,0.0 -37.0892188,-7.61189269975128,0.0 -37.0892317,-7.61166669975128,0.0 -37.0894559,-7.61143879975129,0.0 -37.0903154,-7.6113552997513,0.0 -37.0907071,-7.61129139975129,0.0 -37.0909018,-7.6111373997513,0.0 -37.0911116,-7.61097139975131,0.0 -37.0911631,-7.61075029975131,0.0 -37.0912276,-7.61047339975132,0.0 -37.0912848,-7.61014159975133,0.0 -37.0914193,-7.61000479975134,0.0 -37.0917022,-7.60959559975135,0.0 -37.0916821,-7.60906869975137,0.0 -37.0914645,-7.60840819975139,0.0 -37.0914769,-7.6081219997514,0.0 -37.0911735,-7.6079592997514,0.0 -37.0914988,-7.60724849975142,0.0 -37.0921546,-7.60638399975145,0.0 -37.0927381,-7.60585149975147,0.0 -37.0931895,-7.60571169975147,0.0 -37.0939164,-7.60597589975146,0.0 -37.0942923,-7.60582169975147,0.0 -37.0945582,-7.60521689975149,0.0 -37.0945996,-7.6048099997515,0.0 -37.0951979,-7.60424719975152,0.0 -37.0955902,-7.60424349975152,0.0 -37.0957867,-7.60439219975151,0.0 -37.0963958,-7.6048531997515,0.0 -37.0965608,-7.60474619975151,0.0 -37.0968438,-7.60435209975152,0.0 -37.0968848,-7.60389999975153,0.0 -37.0969575,-7.60361319975154,0.0 -37.0968623,-7.60311719975156,0.0 -37.0968767,-7.60308609975156,0.0 -37.0969953,-7.60282979975157,0.0 -37.0971612,-7.60274509975157,0.0 -37.0974159,-7.60261509975157,0.0 -37.0978663,-7.60236989975158,0.0 -37.0981629,-7.6018249997516,0.0 -37.098304,-7.60151949975161,0.0 -37.0984143,-7.60128049975162,0.0 -37.0987282,-7.60096139975163,0.0 -37.0987742,-7.60081209975163,0.0 -37.0988307,-7.60062909975164,0.0 -37.0987674,-7.60032859975165,0.0 -37.0989236,-7.60008619975165,0.0 -37.0990572,-7.59985909975166,0.0 -37.0991304,-7.59961749975167,0.0 -37.0993773,-7.59939679975168,0.0 -37.0997232,-7.59926549975168,0.0 -37.0998745,-7.59930929975168,0.0 -37.0999765,-7.59937139975168,0.0 -37.0998954,-7.5987489997517,0.0 -37.0998954,-7.59793229975172,0.0 -37.0997348,-7.59747849975174,0.0 -37.0991205,-7.59644539975177,0.0 -37.0989041,-7.59615219975178,0.0 -37.0980734,-7.5955657997518,0.0 -37.0975987,-7.59529359975181,0.0 -37.0974242,-7.59524469975181,0.0 -37.0972706,-7.59512599975181,0.0 -37.0969495,-7.59487469975182,0.0 -37.0964818,-7.59454659975183,0.0 -37.0960839,-7.59436509975184,0.0 -37.0955953,-7.59423949975184,0.0 -37.0952113,-7.59420459975184,0.0 -37.0948483,-7.59422549975184,0.0 -37.0945342,-7.59420459975184,0.0 -37.0942689,-7.59424649975184,0.0 -37.0935639,-7.59439309975183,0.0 -37.0929286,-7.59452569975183,0.0 -37.0925238,-7.59457459975183,0.0 -37.0909182,-7.59510509975181,0.0 -37.0897173,-7.5955513997518,0.0 -37.088801,-7.59589199975179,0.0 -37.0885308,-7.59599159975178,0.0 -37.0883974,-7.59605739975178,0.0 -37.0882376,-7.59611029975178,0.0 -37.0878816,-7.59615919975178,0.0 -37.0876666,-7.59616889975178,0.0 -37.0874558,-7.59617309975178,0.0 -37.0872952,-7.59622199975178,0.0 -37.0869951,-7.59624289975178,0.0 -37.0866809,-7.59621499975178,0.0 -37.0864366,-7.59618009975178,0.0 -37.0863179,-7.59622199975178,0.0 -37.0861336,-7.59621909975178,0.0 -37.0858642,-7.59617309975178,0.0 -37.085564,-7.59613819975178,0.0 -37.0849986,-7.59608239975178,0.0 -37.0845797,-7.59601259975179,0.0 -37.0840562,-7.59592179975179,0.0 -37.0837421,-7.59591489975179,0.0 -37.0829672,-7.59586599975179,0.0 -37.0826601,-7.59590089975179,0.0 -37.0819201,-7.59579619975179,0.0 -37.0813268,-7.5956984997518,0.0 -37.077606,-7.59705969975175,0.0 -37.077271,-7.59722019975175,0.0 -37.0770965,-7.59733189975174,0.0 -37.0770197,-7.59754829975173,0.0 -37.076915,-7.59767399975173,0.0 -37.0767055,-7.59807889975172,0.0 -37.0767055,-7.59833709975171,0.0 -37.076552,-7.5985534997517,0.0 -37.0763984,-7.59891649975169,0.0 -37.0763774,-7.59907009975168,0.0 -37.0765548,-7.59951509975167,0.0 -37.0781343,-7.60265519975157,0.0 -37.080228,-7.60464219975151,0.0 -37.0794812,-7.61008829975134,0.0 -37.0769519,-7.61185989975128,0.0 -37.0748959,-7.6111427997513,0.0 -37.0726673,-7.61137849975129,0.0 -37.0708251,-7.61364129975122,0.0 -37.0704322,-7.61391289975121,0.0 -37.0669408,-7.61632739975113,0.0 -37.0648269,-7.61696229975112,0.0 -37.0627494,-7.61608429975114,0.0 -37.0610646,-7.61796069975109,0.0 -37.0563818,-7.62071939975099,0.0 -37.0515152,-7.62266789975094,0.0 -37.0486554,-7.62448459975088,0.0 -37.0446434,-7.6270332997508,0.0 -37.0437126,-7.62762459975077,0.0 -37.039331,-7.62755709975078,0.0 -37.0371471,-7.62977339975071,0.0 -37.0382054,-7.63263929975062,0.0 -37.0375657,-7.63485329975054,0.0 -37.037532,-7.63497009975054,0.0 -37.0371329,-7.63510479975054,0.0 -37.0358658,-7.63553229975052,0.0 -37.032325,-7.63561469975052,0.0 -37.0298697,-7.63567179975052,0.0 -37.0253173,-7.63881069975042,0.0 -37.0042308,-7.6551665997499,0.0 -37.0229031,-7.70773639974822,0.0 -37.026156,-7.71689469974793,0.0 -37.0267708,-7.71813639974789,0.0 -37.0275637,-7.71896409974786,0.0 -37.0289894,-7.72029489974782,0.0 -37.0292129,-7.72131819974779,0.0 -37.029345,-7.72192299974777,0.0 -37.030335,-7.7242235997477,0.0 -37.0312534,-7.72585939974765,0.0 -37.0324408,-7.72690529974761,0.0 -37.0333489,-7.7273852997476,0.0 -37.0346237,-7.72805919974757,0.0 -37.0351366,-7.72832839974757,0.0 -37.0363317,-7.72879999974755,0.0 -37.0374076,-7.72911609974754,0.0 -37.0382906,-7.72978639974752,0.0 -37.039103,-7.73129259974747,0.0 -37.0396009,-7.73273649974743,0.0 -37.039705,-7.73313569974741,0.0 -37.0399812,-7.73419459974738,0.0 -37.0406708,-7.73456679974737,0.0 -37.0413358,-7.73492559974736,0.0 -37.0423924,-7.73595969974732,0.0 -37.0437816,-7.73757779974727,0.0 -37.0446693,-7.73873089974723,0.0 -37.0456024,-7.73916579974722,0.0 -37.0477092,-7.74056829974718,0.0 -37.0485413,-7.74142979974715,0.0 -37.0486211,-7.74151229974715,0.0 -37.0499775,-7.74242599974712,0.0 -37.0505197,-7.7430341997471,0.0 -37.0519509,-7.74355569974708,0.0 -37.0532477,-7.74371299974707,0.0 -37.0535846,-7.74398389974707,0.0 -37.0538411,-7.74419019974706,0.0 -37.05429,-7.74461659974705,0.0 -37.0547408,-7.74475799974705,0.0 -37.054815,-7.74478119974704,0.0 -37.0548164,-7.74492689974704,0.0 -37.0548205,-7.74535539974702,0.0 -37.05454,-7.746128099747,0.0 -37.0549298,-7.74720759974697,0.0 -37.0560398,-7.74834539974693,0.0 -37.0565747,-7.74955399974689,0.0 -37.0572908,-7.75055209974686,0.0 -37.0591741,-7.75182609974682,0.0 -37.0595375,-7.75186499974682,0.0 -37.060628,-7.75198189974681,0.0 -37.0615952,-7.75188129974682,0.0 -37.0630383,-7.7522720997468,0.0 -37.0634628,-7.7524114997468,0.0 -37.0636945,-7.7524875997468,0.0 -37.0643786,-7.75287259974678,0.0 -37.0654924,-7.75304469974678,0.0 -37.0663195,-7.75333689974677,0.0 -37.0669633,-7.75330299974677,0.0 -37.0681373,-7.75324119974677,0.0 -37.0685179,-7.75335499974677,0.0 -37.0692033,-7.75388349974675,0.0 -37.0698783,-7.75468619974673,0.0 -37.0700649,-7.75487849974672,0.0 -37.0706184,-7.7554490997467,0.0 -37.0722267,-7.75669959974666,0.0 -37.0727568,-7.75739919974664,0.0 -37.0729714,-7.75794519974662,0.0 -37.0738264,-7.75840689974661,0.0 -37.0739107,-7.75900639974659,0.0 -37.0741628,-7.75936929974658,0.0 -37.0743863,-7.75948469974657,0.0 -37.0749617,-7.75945299974657,0.0 -37.0754328,-7.75946159974658,0.0 -37.0760383,-7.75983419974656,0.0 -37.0766336,-7.76050709974654,0.0 -37.0773641,-7.76163549974651,0.0 -37.0777487,-7.76216679974649,0.0 -37.0782642,-7.76270999974647,0.0 -37.0786995,-7.76307119974646,0.0 -37.0790542,-7.76322439974646,0.0 -37.0795379,-7.76318059974646,0.0 -37.0800072,-7.76299339974646,0.0 -37.0804901,-7.76287129974647,0.0 -37.0810535,-7.76295719974646,0.0 -37.0813562,-7.76313699974646,0.0 -37.0817644,-7.76340719974645,0.0 -37.0820793,-7.76349549974645,0.0 -37.0827279,-7.76395279974643,0.0 -37.0863192,-7.76548499974638,0.0 -37.087317,-7.76399999974643,0.0 -37.089435,-7.7619512997465,0.0 -37.0904796,-7.76094099974653,0.0 -37.0943954,-7.76331049974645,0.0 -37.0951295,-7.76675899974634,0.0 -37.0965599,-7.76973489974625,0.0 -37.0994106,-7.77089919974621,0.0 -37.105388,-7.77065659974622,0.0 -37.1175832,-7.76991959974624,0.0 -37.1201365,-7.77626229974604,0.0 -37.1208952,-7.77694239974602,0.0 -37.1229642,-7.77879729974596,0.0 -37.1247266,-7.77590699974605,0.0 -37.1281375,-7.7743984997461,0.0 -37.1312094,-7.77801809974599,0.0 -37.1343554,-7.78124879974588,0.0 -37.1385638,-7.78167359974587,0.0 -37.1487846,-7.77997549974592,0.0 -37.1519507,-7.77984419974593,0.0 -37.156781,-7.77686829974602,0.0 -37.1571765,-7.77545489974606,0.0 -37.1570323,-7.77299949974614,0.0 -37.1538109,-7.7681202997463,0.0 -37.1516682,-7.76237969974648,0.0 -37.1497538,-7.75967829974657,0.0 -37.1483286,-7.75814709974662,0.0 -37.1435733,-7.75427829974674,0.0 -37.1406638,-7.75006499974687,0.0 -37.1391985,-7.746189099747,0.0 -37.1389447,-7.74551769974702,0.0 -37.1400031,-7.74193399974713,0.0 -37.1425641,-7.73903039974723,0.0 -37.1462808,-7.7366363997473,0.0 -37.1487246,-7.73373249974739,0.0 -37.1505993,-7.72903229974754,0.0 -37.1509669,-7.7240466997477,0.0 -37.1501792,-7.71980289974784,0.0 -37.1501891,-7.71686569974793,0.0 -37.1504979,-7.71593269974796,0.0 -37.1519486,-7.7115500997481,0.0 -37.1537201,-7.70803609974821,0.0 -37.1545429,-7.70640379974827,0.0 -37.1610389,-7.69796689974853,0.0 -37.1610377,-7.69796629974854,0.0 -37.1575623,-7.69709219974856,0.0 -37.1565542,-7.6958381997486,0.0 -37.1555025,-7.69477939974863,0.0 -37.154195,-7.69381339974867,0.0 -37.1533673,-7.6925115997487,0.0 -37.1525777,-7.69047149974877,0.0 -37.1518345,-7.68855149974883,0.0 -37.1508061,-7.68678479974889,0.0 -37.1498282,-7.68555959974893,0.0 -37.1497363,-7.68387419974898,0.0 -37.1516757,-7.67688429974921,0.0 -37.1520217,-7.67520959974926,0.0 -37.1507867,-7.6739266997493,0.0 -37.1499831,-7.67199219974936,0.0 -37.1491515,-7.67028379974941,0.0 -37.1480052,-7.66880429974946,0.0 -37.1466569,-7.66827519974948,0.0 -37.1424135,-7.66803009974949,0.0 -37.1410657,-7.6675612997495,0.0 -37.1401036,-7.66639609974954,0.0 -37.1399222,-7.66606939974955,0.0</coordinates>
</LinearRing>
</outerBoundaryIs>
</Polygon>
</MultiGeometry>
</Placemark>
</Folder>
</Document></kml>
