<?xml version='1.0' encoding='UTF-8'?>
<kml xmlns:xsd="http://www.w3.org/2001/XMLSchema" xmlns:gx="http://www.google.com/kml/ext/2.2" xmlns:atom="http://www.w3.org/2005/Atom" xmlns="http://www.opengis.net/kml/2.2">
<Document>
<name>santa_helena_2513307_localidades_2022</name>
<visibility>1</visibility>
<Schema name="Povoados" id="kml_schema_ft_Povoados">
<SimpleField type="xsd:string" name="CD_UF">
<displayName>CD_UF</displayName>
</SimpleField>
<SimpleField type="xsd:string" name="NM_UF">
<displayName>NM_UF</displayName>
</SimpleField>
<SimpleField type="xsd:string" name="SIGLA_UF">
<displayName>SIGLA_UF</displayName>
</SimpleField>
<SimpleField type="xsd:string" name="CD_MUN">
<displayName>CD_MUN</displayName>
</SimpleField>
<SimpleField type="xsd:string" name="NM_MUN">
<displayName>NM_MUN</displayName>
</SimpleField>
<SimpleField type="xsd:string" name="CD_RGINT">
<displayName>CD_RGINT</displayName>
</SimpleField>
<SimpleField type="xsd:string" name="NM_RGINT">
<displayName>NM_RGINT</displayName>
</SimpleField>
<SimpleField type="xsd:string" name="CD_RGI">
<displayName>CD_RGI</displayName>
</SimpleField>
<SimpleField type="xsd:string" name="NM_RGI">
<displayName>NM_RGI</displayName>
</SimpleField>
<SimpleField type="xsd:string" name="CT_LOCALIDADE">
<displayName>CT_LOCALIDADE</displayName>
</SimpleField>
<SimpleField type="xsd:string" name="CD_LOCALIDADE">
<displayName>CD_LOCALIDADE</displayName>
</SimpleField>
<SimpleField type="xsd:string" name="NM_LOCALIDADE">
<displayName>NM_LOCALIDADE</displayName>
</SimpleField>
<SimpleField type="xsd:string" name="LAT_LOCALIDADE">
<displayName>LAT_LOCALIDADE</displayName>
</SimpleField>
<SimpleField type="xsd:string" name="LONG_LOCALIDADE">
<displayName>LONG_LOCALIDADE</displayName>
</SimpleField>
</Schema>
<Schema name="Localidades" id="kml_schema_ft_Localidades">
<SimpleField type="xsd:string" name="CD_UF">
<displayName>CD_UF</displayName>
</SimpleField>
<SimpleField type="xsd:string" name="NM_UF">
<displayName>NM_UF</displayName>
</SimpleField>
<SimpleField type="xsd:string" name="SIGLA_UF">
<displayName>SIGLA_UF</displayName>
</SimpleField>
<SimpleField type="xsd:string" name="CD_MUN">
<displayName>CD_MUN</displayName>
</SimpleField>
<SimpleField type="xsd:string" name="NM_MUN">
<displayName>NM_MUN</displayName>
</SimpleField>
<SimpleField type="xsd:string" name="CD_RGINT">
<displayName>CD_RGINT</displayName>
</SimpleField>
<SimpleField type="xsd:string" name="NM_RGINT">
<displayName>NM_RGINT</displayName>
</SimpleField>
<SimpleField type="xsd:string" name="CD_RGI">
<displayName>CD_RGI</displayName>
</SimpleField>
<SimpleField type="xsd:string" name="NM_RGI">
<displayName>NM_RGI</displayName>
</SimpleField>
<SimpleField type="xsd:string" name="CT_LOCALIDADE">
<displayName>CT_LOCALIDADE</displayName>
</SimpleField>
<SimpleField type="xsd:string" name="SCT_LOCALIDADE">
<displayName>SCT_LOCALIDADE</displayName>
</SimpleField>
<SimpleField type="xsd:string" name="CD_LOCALIDADE">
<displayName>CD_LOCALIDADE</displayName>
</SimpleField>
<SimpleField type="xsd:string" name="NM_LOCALIDADE">
<displayName>NM_LOCALIDADE</displayName>
</SimpleField>
</Schema>
<Schema name="01. Cidade" id="kml_schema_ft_01._Cidade">
<SimpleField type="xsd:string" name="CD_UF">
<displayName>CD_UF</displayName>
</SimpleField>
<SimpleField type="xsd:string" name="NM_UF">
<displayName>NM_UF</displayName>
</SimpleField>
<SimpleField type="xsd:string" name="SIGLA_UF">
<displayName>SIGLA_UF</displayName>
</SimpleField>
<SimpleField type="xsd:string" name="CD_MUN">
<displayName>CD_MUN</displayName>
</SimpleField>
<SimpleField type="xsd:string" name="NM_MUN">
<displayName>NM_MUN</displayName>
</SimpleField>
<SimpleField type="xsd:string" name="CD_RGINT">
<displayName>CD_RGINT</displayName>
</SimpleField>
<SimpleField type="xsd:string" name="NM_RGINT">
<displayName>NM_RGINT</displayName>
</SimpleField>
<SimpleField type="xsd:string" name="CD_RGI">
<displayName>CD_RGI</displayName>
</SimpleField>
<SimpleField type="xsd:string" name="NM_RGI">
<displayName>NM_RGI</displayName>
</SimpleField>
<SimpleField type="xsd:string" name="CT_LOCALIDADE">
<displayName>CT_LOCALIDADE</displayName>
</SimpleField>
<SimpleField type="xsd:string" name="SCT_LOCALIDADE">
<displayName>SCT_LOCALIDADE</displayName>
</SimpleField>
<SimpleField type="xsd:string" name="CD_LOCALIDADE">
<displayName>CD_LOCALIDADE</displayName>
</SimpleField>
<SimpleField type="xsd:string" name="NM_LOCALIDADE">
<displayName>NM_LOCALIDADE</displayName>
</SimpleField>
<SimpleField type="xsd:string" name="LAT_LOCALIDADE">
<displayName>LAT_LOCALIDADE</displayName>
</SimpleField>
<SimpleField type="xsd:string" name="LONG_LOCALIDADE">
<displayName>LONG_LOCALIDADE</displayName>
</SimpleField>
</Schema>
<Schema name="Município" id="kml_schema_ft_Município">
<SimpleField type="xsd:string" name="CD_UF">
<displayName>CD_UF</displayName>
</SimpleField>
<SimpleField type="xsd:string" name="NM_UF">
<displayName>NM_UF</displayName>
</SimpleField>
<SimpleField type="xsd:string" name="CD_MUN">
<displayName>CD_MUN</displayName>
</SimpleField>
<SimpleField type="xsd:string" name="NM_MUN">
<displayName>NM_MUN</displayName>
</SimpleField>
<SimpleField type="xsd:string" name="CD_RGINT">
<displayName>CD_RGINT</displayName>
</SimpleField>
<SimpleField type="xsd:string" name="NM_RGINT">
<displayName>NM_RGINT</displayName>
</SimpleField>
<SimpleField type="xsd:string" name="CD_RGI">
<displayName>CD_RGI</displayName>
</SimpleField>
<SimpleField type="xsd:string" name="NM_RGI">
<displayName>NM_RGI</displayName>
</SimpleField>
</Schema>
<Folder id="01. Cidade">
<name>01. Cidade</name>
<Folder id="01.03. Sede Municipal">
<name>01.03. Sede Municipal</name>
<Placemark id="01.03. Sede Municipal">
<name>Santa Helena [2513307]</name>
<visibility>1</visibility>
<snippet> </snippet>
<description>&lt;center&gt;&lt;table&gt;&lt;tr&gt;&lt;th colspan='2' align='center'&gt;&lt;em&gt;Atributos&lt;/em&gt;&lt;/th&gt;&lt;/tr&gt;&lt;tr bgcolor="#E3E3F3"&gt;
&lt;th&gt;CD_UF&lt;/th&gt;
&lt;td&gt;25&lt;/td&gt;
&lt;/tr&gt;&lt;tr bgcolor=""&gt;
&lt;th&gt;NM_UF&lt;/th&gt;
&lt;td&gt;Paraíba&lt;/td&gt;
&lt;/tr&gt;&lt;tr bgcolor="#E3E3F3"&gt;
&lt;th&gt;SIGLA_UF&lt;/th&gt;
&lt;td&gt;PB&lt;/td&gt;
&lt;/tr&gt;&lt;tr bgcolor=""&gt;
&lt;th&gt;CD_MUN&lt;/th&gt;
&lt;td&gt;2513307&lt;/td&gt;
&lt;/tr&gt;&lt;tr bgcolor="#E3E3F3"&gt;
&lt;th&gt;NM_MUN&lt;/th&gt;
&lt;td&gt;Santa Helena&lt;/td&gt;
&lt;/tr&gt;&lt;tr bgcolor=""&gt;
&lt;th&gt;CD_RGINT&lt;/th&gt;
&lt;td&gt;2504&lt;/td&gt;
&lt;/tr&gt;&lt;tr bgcolor="#E3E3F3"&gt;
&lt;th&gt;NM_RGINT&lt;/th&gt;
&lt;td&gt;Sousa - Cajazeiras&lt;/td&gt;
&lt;/tr&gt;&lt;tr bgcolor=""&gt;
&lt;th&gt;CD_RGI&lt;/th&gt;
&lt;td&gt;250015&lt;/td&gt;
&lt;/tr&gt;&lt;tr bgcolor="#E3E3F3"&gt;
&lt;th&gt;NM_RGI&lt;/th&gt;
&lt;td&gt;Cajazeiras&lt;/td&gt;
&lt;/tr&gt;&lt;tr bgcolor=""&gt;
&lt;th&gt;CT_LOCALIDADE&lt;/th&gt;
&lt;td&gt;Cidade&lt;/td&gt;
&lt;/tr&gt;&lt;tr bgcolor="#E3E3F3"&gt;
&lt;th&gt;SCT_LOCALIDADE&lt;/th&gt;
&lt;td&gt;Sede Municipal&lt;/td&gt;
&lt;/tr&gt;&lt;tr bgcolor=""&gt;
&lt;th&gt;CD_LOCALIDADE&lt;/th&gt;
&lt;td&gt;2513307&lt;/td&gt;
&lt;/tr&gt;&lt;tr bgcolor="#E3E3F3"&gt;
&lt;th&gt;NM_LOCALIDADE&lt;/th&gt;
&lt;td&gt;Santa Helena&lt;/td&gt;
&lt;/tr&gt;&lt;tr bgcolor=""&gt;
&lt;th&gt;LAT_LOCALIDADE&lt;/th&gt;
&lt;td&gt;-6.7219&lt;/td&gt;
&lt;/tr&gt;&lt;tr bgcolor="#E3E3F3"&gt;
&lt;th&gt;LONG_LOCALIDADE&lt;/th&gt;
&lt;td&gt;-38.6405&lt;/td&gt;
&lt;/tr&gt;&lt;/table&gt;&lt;/center&gt;</description>
<Style>
<IconStyle>
<color>ff00aaff</color>
<scale>1.0</scale>
<Icon>
<href>http://maps.google.com/mapfiles/kml/shapes/placemark_circle.png</href>
</Icon>
</IconStyle>
<LabelStyle>
<scale>1.0</scale>
</LabelStyle>
<LineStyle>
<color>ffffffff</color>
<width>3</width>
<gx:labelVisibility>1</gx:labelVisibility>
</LineStyle>
<PolyStyle>
<color>00ffffff</color>
</PolyStyle>
</Style>
<ExtendedData>
<SchemaData schemaUrl="#kml_schema_ft_01._Cidade">
<SimpleData name="CD_UF">25</SimpleData>
<SimpleData name="NM_UF">Paraíba</SimpleData>
<SimpleData name="SIGLA_UF">PB</SimpleData>
<SimpleData name="CD_MUN">2513307</SimpleData>
<SimpleData name="NM_MUN">Santa Helena</SimpleData>
<SimpleData name="CD_RGINT">2504</SimpleData>
<SimpleData name="NM_RGINT">Sousa - Cajazeiras</SimpleData>
<SimpleData name="CD_RGI">250015</SimpleData>
<SimpleData name="NM_RGI">Cajazeiras</SimpleData>
<SimpleData name="CT_LOCALIDADE">Cidade</SimpleData>
<SimpleData name="SCT_LOCALIDADE">Sede Municipal</SimpleData>
<SimpleData name="CD_LOCALIDADE">2513307</SimpleData>
<SimpleData name="NM_LOCALIDADE">Santa Helena</SimpleData>
<SimpleData name="LAT_LOCALIDADE">-6.7219</SimpleData>
<SimpleData name="LONG_LOCALIDADE">-38.6405</SimpleData>
</SchemaData>
</ExtendedData>
<Point>
<extrude>0</extrude>
<coordinates>-38.640456,-6.72192799977977,0.0</coordinates>
</Point>
</Placemark>
</Folder>
</Folder>
<Folder id="06. Povoados">
<name>06. Povoados</name>
<Placemark id="06. Povoados">
<name>Melancia [251330700002]</name>
<visibility>1</visibility>
<snippet> </snippet>
<description>&lt;center&gt;&lt;table&gt;&lt;tr&gt;&lt;th colspan='2' align='center'&gt;&lt;em&gt;Atributos&lt;/em&gt;&lt;/th&gt;&lt;/tr&gt;&lt;tr bgcolor="#E3E3F3"&gt;
&lt;th&gt;CD_UF&lt;/th&gt;
&lt;td&gt;25&lt;/td&gt;
&lt;/tr&gt;&lt;tr bgcolor=""&gt;
&lt;th&gt;NM_UF&lt;/th&gt;
&lt;td&gt;Paraíba&lt;/td&gt;
&lt;/tr&gt;&lt;tr bgcolor="#E3E3F3"&gt;
&lt;th&gt;SIGLA_UF&lt;/th&gt;
&lt;td&gt;PB&lt;/td&gt;
&lt;/tr&gt;&lt;tr bgcolor=""&gt;
&lt;th&gt;CD_MUN&lt;/th&gt;
&lt;td&gt;2513307&lt;/td&gt;
&lt;/tr&gt;&lt;tr bgcolor="#E3E3F3"&gt;
&lt;th&gt;NM_MUN&lt;/th&gt;
&lt;td&gt;Santa Helena&lt;/td&gt;
&lt;/tr&gt;&lt;tr bgcolor=""&gt;
&lt;th&gt;CD_RGINT&lt;/th&gt;
&lt;td&gt;2504&lt;/td&gt;
&lt;/tr&gt;&lt;tr bgcolor="#E3E3F3"&gt;
&lt;th&gt;NM_RGINT&lt;/th&gt;
&lt;td&gt;Sousa - Cajazeiras&lt;/td&gt;
&lt;/tr&gt;&lt;tr bgcolor=""&gt;
&lt;th&gt;CD_RGI&lt;/th&gt;
&lt;td&gt;250015&lt;/td&gt;
&lt;/tr&gt;&lt;tr bgcolor="#E3E3F3"&gt;
&lt;th&gt;NM_RGI&lt;/th&gt;
&lt;td&gt;Cajazeiras&lt;/td&gt;
&lt;/tr&gt;&lt;tr bgcolor=""&gt;
&lt;th&gt;CT_LOCALIDADE&lt;/th&gt;
&lt;td&gt;Povoado&lt;/td&gt;
&lt;/tr&gt;&lt;tr bgcolor="#E3E3F3"&gt;
&lt;th&gt;CD_LOCALIDADE&lt;/th&gt;
&lt;td&gt;251330700002&lt;/td&gt;
&lt;/tr&gt;&lt;tr bgcolor=""&gt;
&lt;th&gt;NM_LOCALIDADE&lt;/th&gt;
&lt;td&gt;Melancia&lt;/td&gt;
&lt;/tr&gt;&lt;tr bgcolor="#E3E3F3"&gt;
&lt;th&gt;LAT_LOCALIDADE&lt;/th&gt;
&lt;td&gt;-6.7153&lt;/td&gt;
&lt;/tr&gt;&lt;tr bgcolor=""&gt;
&lt;th&gt;LONG_LOCALIDADE&lt;/th&gt;
&lt;td&gt;-38.5621&lt;/td&gt;
&lt;/tr&gt;&lt;/table&gt;&lt;/center&gt;</description>
<Style>
<IconStyle>
<color>ff00ff54</color>
<scale>0.8</scale>
<Icon>
<href>http://maps.google.com/mapfiles/kml/shapes/placemark_circle.png</href>
</Icon>
</IconStyle>
<LabelStyle>
<scale>0.8</scale>
</LabelStyle>
<LineStyle>
<color>72ff54ff</color>
<width>1.0</width>
<gx:labelVisibility>1</gx:labelVisibility>
</LineStyle>
<PolyStyle>
<color>66ff54ff</color>
</PolyStyle>
</Style>
<ExtendedData>
<SchemaData schemaUrl="#kml_schema_ft_Povoados">
<SimpleData name="CD_UF">25</SimpleData>
<SimpleData name="NM_UF">Paraíba</SimpleData>
<SimpleData name="SIGLA_UF">PB</SimpleData>
<SimpleData name="CD_MUN">2513307</SimpleData>
<SimpleData name="NM_MUN">Santa Helena</SimpleData>
<SimpleData name="CD_RGINT">2504</SimpleData>
<SimpleData name="NM_RGINT">Sousa - Cajazeiras</SimpleData>
<SimpleData name="CD_RGI">250015</SimpleData>
<SimpleData name="NM_RGI">Cajazeiras</SimpleData>
<SimpleData name="CT_LOCALIDADE">Povoado</SimpleData>
<SimpleData name="CD_LOCALIDADE">251330700002</SimpleData>
<SimpleData name="NM_LOCALIDADE">Melancia</SimpleData>
<SimpleData name="LAT_LOCALIDADE">-6.7153</SimpleData>
<SimpleData name="LONG_LOCALIDADE">-38.5621</SimpleData>
</SchemaData>
</ExtendedData>
<Point>
<extrude>0</extrude>
<coordinates>-38.5621066881188,-6.71534681661166,0.0</coordinates>
</Point>
</Placemark>
<Placemark id="06. Povoados">
<name>Várzea da Ema [251330700003]</name>
<visibility>1</visibility>
<snippet> </snippet>
<description>&lt;center&gt;&lt;table&gt;&lt;tr&gt;&lt;th colspan='2' align='center'&gt;&lt;em&gt;Atributos&lt;/em&gt;&lt;/th&gt;&lt;/tr&gt;&lt;tr bgcolor="#E3E3F3"&gt;
&lt;th&gt;CD_UF&lt;/th&gt;
&lt;td&gt;25&lt;/td&gt;
&lt;/tr&gt;&lt;tr bgcolor=""&gt;
&lt;th&gt;NM_UF&lt;/th&gt;
&lt;td&gt;Paraíba&lt;/td&gt;
&lt;/tr&gt;&lt;tr bgcolor="#E3E3F3"&gt;
&lt;th&gt;SIGLA_UF&lt;/th&gt;
&lt;td&gt;PB&lt;/td&gt;
&lt;/tr&gt;&lt;tr bgcolor=""&gt;
&lt;th&gt;CD_MUN&lt;/th&gt;
&lt;td&gt;2513307&lt;/td&gt;
&lt;/tr&gt;&lt;tr bgcolor="#E3E3F3"&gt;
&lt;th&gt;NM_MUN&lt;/th&gt;
&lt;td&gt;Santa Helena&lt;/td&gt;
&lt;/tr&gt;&lt;tr bgcolor=""&gt;
&lt;th&gt;CD_RGINT&lt;/th&gt;
&lt;td&gt;2504&lt;/td&gt;
&lt;/tr&gt;&lt;tr bgcolor="#E3E3F3"&gt;
&lt;th&gt;NM_RGINT&lt;/th&gt;
&lt;td&gt;Sousa - Cajazeiras&lt;/td&gt;
&lt;/tr&gt;&lt;tr bgcolor=""&gt;
&lt;th&gt;CD_RGI&lt;/th&gt;
&lt;td&gt;250015&lt;/td&gt;
&lt;/tr&gt;&lt;tr bgcolor="#E3E3F3"&gt;
&lt;th&gt;NM_RGI&lt;/th&gt;
&lt;td&gt;Cajazeiras&lt;/td&gt;
&lt;/tr&gt;&lt;tr bgcolor=""&gt;
&lt;th&gt;CT_LOCALIDADE&lt;/th&gt;
&lt;td&gt;Povoado&lt;/td&gt;
&lt;/tr&gt;&lt;tr bgcolor="#E3E3F3"&gt;
&lt;th&gt;CD_LOCALIDADE&lt;/th&gt;
&lt;td&gt;251330700003&lt;/td&gt;
&lt;/tr&gt;&lt;tr bgcolor=""&gt;
&lt;th&gt;NM_LOCALIDADE&lt;/th&gt;
&lt;td&gt;Várzea da Ema&lt;/td&gt;
&lt;/tr&gt;&lt;tr bgcolor="#E3E3F3"&gt;
&lt;th&gt;LAT_LOCALIDADE&lt;/th&gt;
&lt;td&gt;-6.7906&lt;/td&gt;
&lt;/tr&gt;&lt;tr bgcolor=""&gt;
&lt;th&gt;LONG_LOCALIDADE&lt;/th&gt;
&lt;td&gt;-38.5228&lt;/td&gt;
&lt;/tr&gt;&lt;/table&gt;&lt;/center&gt;</description>
<Style>
<IconStyle>
<color>ff00ff54</color>
<scale>0.8</scale>
<Icon>
<href>http://maps.google.com/mapfiles/kml/shapes/placemark_circle.png</href>
</Icon>
</IconStyle>
<LabelStyle>
<scale>0.8</scale>
</LabelStyle>
<LineStyle>
<color>72ff54ff</color>
<width>1.0</width>
<gx:labelVisibility>1</gx:labelVisibility>
</LineStyle>
<PolyStyle>
<color>66ff54ff</color>
</PolyStyle>
</Style>
<ExtendedData>
<SchemaData schemaUrl="#kml_schema_ft_Povoados">
<SimpleData name="CD_UF">25</SimpleData>
<SimpleData name="NM_UF">Paraíba</SimpleData>
<SimpleData name="SIGLA_UF">PB</SimpleData>
<SimpleData name="CD_MUN">2513307</SimpleData>
<SimpleData name="NM_MUN">Santa Helena</SimpleData>
<SimpleData name="CD_RGINT">2504</SimpleData>
<SimpleData name="NM_RGINT">Sousa - Cajazeiras</SimpleData>
<SimpleData name="CD_RGI">250015</SimpleData>
<SimpleData name="NM_RGI">Cajazeiras</SimpleData>
<SimpleData name="CT_LOCALIDADE">Povoado</SimpleData>
<SimpleData name="CD_LOCALIDADE">251330700003</SimpleData>
<SimpleData name="NM_LOCALIDADE">Várzea da Ema</SimpleData>
<SimpleData name="LAT_LOCALIDADE">-6.7906</SimpleData>
<SimpleData name="LONG_LOCALIDADE">-38.5228</SimpleData>
</SchemaData>
</ExtendedData>
<Point>
<extrude>0</extrude>
<coordinates>-38.52282328,-6.79062624977756,0.0</coordinates>
</Point>
</Placemark>
<Placemark id="06. Povoados">
<name>Sítio Malhada Bonita [251330700004]</name>
<visibility>1</visibility>
<snippet> </snippet>
<description>&lt;center&gt;&lt;table&gt;&lt;tr&gt;&lt;th colspan='2' align='center'&gt;&lt;em&gt;Atributos&lt;/em&gt;&lt;/th&gt;&lt;/tr&gt;&lt;tr bgcolor="#E3E3F3"&gt;
&lt;th&gt;CD_UF&lt;/th&gt;
&lt;td&gt;25&lt;/td&gt;
&lt;/tr&gt;&lt;tr bgcolor=""&gt;
&lt;th&gt;NM_UF&lt;/th&gt;
&lt;td&gt;Paraíba&lt;/td&gt;
&lt;/tr&gt;&lt;tr bgcolor="#E3E3F3"&gt;
&lt;th&gt;SIGLA_UF&lt;/th&gt;
&lt;td&gt;PB&lt;/td&gt;
&lt;/tr&gt;&lt;tr bgcolor=""&gt;
&lt;th&gt;CD_MUN&lt;/th&gt;
&lt;td&gt;2513307&lt;/td&gt;
&lt;/tr&gt;&lt;tr bgcolor="#E3E3F3"&gt;
&lt;th&gt;NM_MUN&lt;/th&gt;
&lt;td&gt;Santa Helena&lt;/td&gt;
&lt;/tr&gt;&lt;tr bgcolor=""&gt;
&lt;th&gt;CD_RGINT&lt;/th&gt;
&lt;td&gt;2504&lt;/td&gt;
&lt;/tr&gt;&lt;tr bgcolor="#E3E3F3"&gt;
&lt;th&gt;NM_RGINT&lt;/th&gt;
&lt;td&gt;Sousa - Cajazeiras&lt;/td&gt;
&lt;/tr&gt;&lt;tr bgcolor=""&gt;
&lt;th&gt;CD_RGI&lt;/th&gt;
&lt;td&gt;250015&lt;/td&gt;
&lt;/tr&gt;&lt;tr bgcolor="#E3E3F3"&gt;
&lt;th&gt;NM_RGI&lt;/th&gt;
&lt;td&gt;Cajazeiras&lt;/td&gt;
&lt;/tr&gt;&lt;tr bgcolor=""&gt;
&lt;th&gt;CT_LOCALIDADE&lt;/th&gt;
&lt;td&gt;Povoado&lt;/td&gt;
&lt;/tr&gt;&lt;tr bgcolor="#E3E3F3"&gt;
&lt;th&gt;CD_LOCALIDADE&lt;/th&gt;
&lt;td&gt;251330700004&lt;/td&gt;
&lt;/tr&gt;&lt;tr bgcolor=""&gt;
&lt;th&gt;NM_LOCALIDADE&lt;/th&gt;
&lt;td&gt;Sítio Malhada Bonita&lt;/td&gt;
&lt;/tr&gt;&lt;tr bgcolor="#E3E3F3"&gt;
&lt;th&gt;LAT_LOCALIDADE&lt;/th&gt;
&lt;td&gt;-6.6995&lt;/td&gt;
&lt;/tr&gt;&lt;tr bgcolor=""&gt;
&lt;th&gt;LONG_LOCALIDADE&lt;/th&gt;
&lt;td&gt;-38.6625&lt;/td&gt;
&lt;/tr&gt;&lt;/table&gt;&lt;/center&gt;</description>
<Style>
<IconStyle>
<color>ff00ff54</color>
<scale>0.8</scale>
<Icon>
<href>http://maps.google.com/mapfiles/kml/shapes/placemark_circle.png</href>
</Icon>
</IconStyle>
<LabelStyle>
<scale>0.8</scale>
</LabelStyle>
<LineStyle>
<color>72ff54ff</color>
<width>1.0</width>
<gx:labelVisibility>1</gx:labelVisibility>
</LineStyle>
<PolyStyle>
<color>66ff54ff</color>
</PolyStyle>
</Style>
<ExtendedData>
<SchemaData schemaUrl="#kml_schema_ft_Povoados">
<SimpleData name="CD_UF">25</SimpleData>
<SimpleData name="NM_UF">Paraíba</SimpleData>
<SimpleData name="SIGLA_UF">PB</SimpleData>
<SimpleData name="CD_MUN">2513307</SimpleData>
<SimpleData name="NM_MUN">Santa Helena</SimpleData>
<SimpleData name="CD_RGINT">2504</SimpleData>
<SimpleData name="NM_RGINT">Sousa - Cajazeiras</SimpleData>
<SimpleData name="CD_RGI">250015</SimpleData>
<SimpleData name="NM_RGI">Cajazeiras</SimpleData>
<SimpleData name="CT_LOCALIDADE">Povoado</SimpleData>
<SimpleData name="CD_LOCALIDADE">251330700004</SimpleData>
<SimpleData name="NM_LOCALIDADE">Sítio Malhada Bonita</SimpleData>
<SimpleData name="LAT_LOCALIDADE">-6.6995</SimpleData>
<SimpleData name="LONG_LOCALIDADE">-38.6625</SimpleData>
</SchemaData>
</ExtendedData>
<Point>
<extrude>0</extrude>
<coordinates>-38.6625474433962,-6.69953793374275,0.0</coordinates>
</Point>
</Placemark>
</Folder>
<Folder id="12. Outras Localidades">
<name>12. Outras Localidades</name>
<Placemark id="12. Outras Localidades">
<name>Lagoa Grande [251330700005]</name>
<visibility>1</visibility>
<snippet> </snippet>
<description>&lt;center&gt;&lt;table&gt;&lt;tr&gt;&lt;th colspan='2' align='center'&gt;&lt;em&gt;Attributes&lt;/em&gt;&lt;/th&gt;&lt;/tr&gt;&lt;tr bgcolor="#E3E3F3"&gt;
&lt;th&gt;CD_UF&lt;/th&gt;
&lt;td&gt;25&lt;/td&gt;
&lt;/tr&gt;&lt;tr bgcolor=""&gt;
&lt;th&gt;NM_UF&lt;/th&gt;
&lt;td&gt;Paraíba&lt;/td&gt;
&lt;/tr&gt;&lt;tr bgcolor="#E3E3F3"&gt;
&lt;th&gt;SIGLA_UF&lt;/th&gt;
&lt;td&gt;PB&lt;/td&gt;
&lt;/tr&gt;&lt;tr bgcolor=""&gt;
&lt;th&gt;CD_MUN&lt;/th&gt;
&lt;td&gt;2513307&lt;/td&gt;
&lt;/tr&gt;&lt;tr bgcolor="#E3E3F3"&gt;
&lt;th&gt;NM_MUN&lt;/th&gt;
&lt;td&gt;Santa Helena&lt;/td&gt;
&lt;/tr&gt;&lt;tr bgcolor=""&gt;
&lt;th&gt;CD_RGINT&lt;/th&gt;
&lt;td&gt;2504&lt;/td&gt;
&lt;/tr&gt;&lt;tr bgcolor="#E3E3F3"&gt;
&lt;th&gt;NM_RGINT&lt;/th&gt;
&lt;td&gt;Sousa - Cajazeiras&lt;/td&gt;
&lt;/tr&gt;&lt;tr bgcolor=""&gt;
&lt;th&gt;CD_RGI&lt;/th&gt;
&lt;td&gt;250015&lt;/td&gt;
&lt;/tr&gt;&lt;tr bgcolor="#E3E3F3"&gt;
&lt;th&gt;NM_RGI&lt;/th&gt;
&lt;td&gt;Cajazeiras&lt;/td&gt;
&lt;/tr&gt;&lt;tr bgcolor=""&gt;
&lt;th&gt;CT_LOCALIDADE&lt;/th&gt;
&lt;td&gt;Outras Localidades&lt;/td&gt;
&lt;/tr&gt;&lt;tr bgcolor="#E3E3F3"&gt;
&lt;th&gt;SCT_LOCALIDADE&lt;/th&gt;
&lt;td&gt;&lt;/td&gt;
&lt;/tr&gt;&lt;tr bgcolor=""&gt;
&lt;th&gt;CD_LOCALIDADE&lt;/th&gt;
&lt;td&gt;251330700005&lt;/td&gt;
&lt;/tr&gt;&lt;tr bgcolor="#E3E3F3"&gt;
&lt;th&gt;NM_LOCALIDADE&lt;/th&gt;
&lt;td&gt;Lagoa Grande&lt;/td&gt;
&lt;/tr&gt;&lt;/table&gt;&lt;/center&gt;</description>
<Style>
<IconStyle>
<color>ff0069d3</color>
<scale>0.6</scale>
<Icon>
<href>http://maps.google.com/mapfiles/kml/shapes/placemark_circle.png</href>
</Icon>
</IconStyle>
<LabelStyle>
<scale>0.6</scale>
</LabelStyle>
<LineStyle>
<width>1.0</width>
<gx:labelVisibility>1</gx:labelVisibility>
</LineStyle>
</Style>
<ExtendedData>
<SchemaData schemaUrl="#kml_schema_ft_Localidades">
<SimpleData name="CD_UF">25</SimpleData>
<SimpleData name="NM_UF">Paraíba</SimpleData>
<SimpleData name="SIGLA_UF">PB</SimpleData>
<SimpleData name="CD_MUN">2513307</SimpleData>
<SimpleData name="NM_MUN">Santa Helena</SimpleData>
<SimpleData name="CD_RGINT">2504</SimpleData>
<SimpleData name="NM_RGINT">Sousa - Cajazeiras</SimpleData>
<SimpleData name="CD_RGI">250015</SimpleData>
<SimpleData name="NM_RGI">Cajazeiras</SimpleData>
<SimpleData name="CT_LOCALIDADE">Outras Localidades</SimpleData>
<SimpleData name="CD_LOCALIDADE">251330700005</SimpleData>
<SimpleData name="NM_LOCALIDADE">Lagoa Grande</SimpleData>
</SchemaData>
</ExtendedData>
<Point>
<extrude>0</extrude>
<coordinates>-38.6157286012,-6.70193113238041,0.0</coordinates>
</Point>
</Placemark>
<Placemark id="12. Outras Localidades">
<name>Vila Guedes [251330700006]</name>
<visibility>1</visibility>
<snippet> </snippet>
<description>&lt;center&gt;&lt;table&gt;&lt;tr&gt;&lt;th colspan='2' align='center'&gt;&lt;em&gt;Attributes&lt;/em&gt;&lt;/th&gt;&lt;/tr&gt;&lt;tr bgcolor="#E3E3F3"&gt;
&lt;th&gt;CD_UF&lt;/th&gt;
&lt;td&gt;25&lt;/td&gt;
&lt;/tr&gt;&lt;tr bgcolor=""&gt;
&lt;th&gt;NM_UF&lt;/th&gt;
&lt;td&gt;Paraíba&lt;/td&gt;
&lt;/tr&gt;&lt;tr bgcolor="#E3E3F3"&gt;
&lt;th&gt;SIGLA_UF&lt;/th&gt;
&lt;td&gt;PB&lt;/td&gt;
&lt;/tr&gt;&lt;tr bgcolor=""&gt;
&lt;th&gt;CD_MUN&lt;/th&gt;
&lt;td&gt;2513307&lt;/td&gt;
&lt;/tr&gt;&lt;tr bgcolor="#E3E3F3"&gt;
&lt;th&gt;NM_MUN&lt;/th&gt;
&lt;td&gt;Santa Helena&lt;/td&gt;
&lt;/tr&gt;&lt;tr bgcolor=""&gt;
&lt;th&gt;CD_RGINT&lt;/th&gt;
&lt;td&gt;2504&lt;/td&gt;
&lt;/tr&gt;&lt;tr bgcolor="#E3E3F3"&gt;
&lt;th&gt;NM_RGINT&lt;/th&gt;
&lt;td&gt;Sousa - Cajazeiras&lt;/td&gt;
&lt;/tr&gt;&lt;tr bgcolor=""&gt;
&lt;th&gt;CD_RGI&lt;/th&gt;
&lt;td&gt;250015&lt;/td&gt;
&lt;/tr&gt;&lt;tr bgcolor="#E3E3F3"&gt;
&lt;th&gt;NM_RGI&lt;/th&gt;
&lt;td&gt;Cajazeiras&lt;/td&gt;
&lt;/tr&gt;&lt;tr bgcolor=""&gt;
&lt;th&gt;CT_LOCALIDADE&lt;/th&gt;
&lt;td&gt;Outras Localidades&lt;/td&gt;
&lt;/tr&gt;&lt;tr bgcolor="#E3E3F3"&gt;
&lt;th&gt;SCT_LOCALIDADE&lt;/th&gt;
&lt;td&gt;&lt;/td&gt;
&lt;/tr&gt;&lt;tr bgcolor=""&gt;
&lt;th&gt;CD_LOCALIDADE&lt;/th&gt;
&lt;td&gt;251330700006&lt;/td&gt;
&lt;/tr&gt;&lt;tr bgcolor="#E3E3F3"&gt;
&lt;th&gt;NM_LOCALIDADE&lt;/th&gt;
&lt;td&gt;Vila Guedes&lt;/td&gt;
&lt;/tr&gt;&lt;/table&gt;&lt;/center&gt;</description>
<Style>
<IconStyle>
<color>ff0069d3</color>
<scale>0.6</scale>
<Icon>
<href>http://maps.google.com/mapfiles/kml/shapes/placemark_circle.png</href>
</Icon>
</IconStyle>
<LabelStyle>
<scale>0.6</scale>
</LabelStyle>
<LineStyle>
<width>1.0</width>
<gx:labelVisibility>1</gx:labelVisibility>
</LineStyle>
</Style>
<ExtendedData>
<SchemaData schemaUrl="#kml_schema_ft_Localidades">
<SimpleData name="CD_UF">25</SimpleData>
<SimpleData name="NM_UF">Paraíba</SimpleData>
<SimpleData name="SIGLA_UF">PB</SimpleData>
<SimpleData name="CD_MUN">2513307</SimpleData>
<SimpleData name="NM_MUN">Santa Helena</SimpleData>
<SimpleData name="CD_RGINT">2504</SimpleData>
<SimpleData name="NM_RGINT">Sousa - Cajazeiras</SimpleData>
<SimpleData name="CD_RGI">250015</SimpleData>
<SimpleData name="NM_RGI">Cajazeiras</SimpleData>
<SimpleData name="CT_LOCALIDADE">Outras Localidades</SimpleData>
<SimpleData name="CD_LOCALIDADE">251330700006</SimpleData>
<SimpleData name="NM_LOCALIDADE">Vila Guedes</SimpleData>
</SchemaData>
</ExtendedData>
<Point>
<extrude>0</extrude>
<coordinates>-38.6024814671,-6.7116466539801,0.0</coordinates>
</Point>
</Placemark>
<Placemark id="12. Outras Localidades">
<name>Sítio Retiro [251330700007]</name>
<visibility>1</visibility>
<snippet> </snippet>
<description>&lt;center&gt;&lt;table&gt;&lt;tr&gt;&lt;th colspan='2' align='center'&gt;&lt;em&gt;Attributes&lt;/em&gt;&lt;/th&gt;&lt;/tr&gt;&lt;tr bgcolor="#E3E3F3"&gt;
&lt;th&gt;CD_UF&lt;/th&gt;
&lt;td&gt;25&lt;/td&gt;
&lt;/tr&gt;&lt;tr bgcolor=""&gt;
&lt;th&gt;NM_UF&lt;/th&gt;
&lt;td&gt;Paraíba&lt;/td&gt;
&lt;/tr&gt;&lt;tr bgcolor="#E3E3F3"&gt;
&lt;th&gt;SIGLA_UF&lt;/th&gt;
&lt;td&gt;PB&lt;/td&gt;
&lt;/tr&gt;&lt;tr bgcolor=""&gt;
&lt;th&gt;CD_MUN&lt;/th&gt;
&lt;td&gt;2513307&lt;/td&gt;
&lt;/tr&gt;&lt;tr bgcolor="#E3E3F3"&gt;
&lt;th&gt;NM_MUN&lt;/th&gt;
&lt;td&gt;Santa Helena&lt;/td&gt;
&lt;/tr&gt;&lt;tr bgcolor=""&gt;
&lt;th&gt;CD_RGINT&lt;/th&gt;
&lt;td&gt;2504&lt;/td&gt;
&lt;/tr&gt;&lt;tr bgcolor="#E3E3F3"&gt;
&lt;th&gt;NM_RGINT&lt;/th&gt;
&lt;td&gt;Sousa - Cajazeiras&lt;/td&gt;
&lt;/tr&gt;&lt;tr bgcolor=""&gt;
&lt;th&gt;CD_RGI&lt;/th&gt;
&lt;td&gt;250015&lt;/td&gt;
&lt;/tr&gt;&lt;tr bgcolor="#E3E3F3"&gt;
&lt;th&gt;NM_RGI&lt;/th&gt;
&lt;td&gt;Cajazeiras&lt;/td&gt;
&lt;/tr&gt;&lt;tr bgcolor=""&gt;
&lt;th&gt;CT_LOCALIDADE&lt;/th&gt;
&lt;td&gt;Outras Localidades&lt;/td&gt;
&lt;/tr&gt;&lt;tr bgcolor="#E3E3F3"&gt;
&lt;th&gt;SCT_LOCALIDADE&lt;/th&gt;
&lt;td&gt;&lt;/td&gt;
&lt;/tr&gt;&lt;tr bgcolor=""&gt;
&lt;th&gt;CD_LOCALIDADE&lt;/th&gt;
&lt;td&gt;251330700007&lt;/td&gt;
&lt;/tr&gt;&lt;tr bgcolor="#E3E3F3"&gt;
&lt;th&gt;NM_LOCALIDADE&lt;/th&gt;
&lt;td&gt;Sítio Retiro&lt;/td&gt;
&lt;/tr&gt;&lt;/table&gt;&lt;/center&gt;</description>
<Style>
<IconStyle>
<color>ff0069d3</color>
<scale>0.6</scale>
<Icon>
<href>http://maps.google.com/mapfiles/kml/shapes/placemark_circle.png</href>
</Icon>
</IconStyle>
<LabelStyle>
<scale>0.6</scale>
</LabelStyle>
<LineStyle>
<width>1.0</width>
<gx:labelVisibility>1</gx:labelVisibility>
</LineStyle>
</Style>
<ExtendedData>
<SchemaData schemaUrl="#kml_schema_ft_Localidades">
<SimpleData name="CD_UF">25</SimpleData>
<SimpleData name="NM_UF">Paraíba</SimpleData>
<SimpleData name="SIGLA_UF">PB</SimpleData>
<SimpleData name="CD_MUN">2513307</SimpleData>
<SimpleData name="NM_MUN">Santa Helena</SimpleData>
<SimpleData name="CD_RGINT">2504</SimpleData>
<SimpleData name="NM_RGINT">Sousa - Cajazeiras</SimpleData>
<SimpleData name="CD_RGI">250015</SimpleData>
<SimpleData name="NM_RGI">Cajazeiras</SimpleData>
<SimpleData name="CT_LOCALIDADE">Outras Localidades</SimpleData>
<SimpleData name="CD_LOCALIDADE">251330700007</SimpleData>
<SimpleData name="NM_LOCALIDADE">Sítio Retiro</SimpleData>
</SchemaData>
</ExtendedData>
<Point>
<extrude>0</extrude>
<coordinates>-38.6531325794,-6.69287052668071,0.0</coordinates>
</Point>
</Placemark>
<Placemark id="12. Outras Localidades">
<name>Lagoa de Fora [251330700008]</name>
<visibility>1</visibility>
<snippet> </snippet>
<description>&lt;center&gt;&lt;table&gt;&lt;tr&gt;&lt;th colspan='2' align='center'&gt;&lt;em&gt;Attributes&lt;/em&gt;&lt;/th&gt;&lt;/tr&gt;&lt;tr bgcolor="#E3E3F3"&gt;
&lt;th&gt;CD_UF&lt;/th&gt;
&lt;td&gt;25&lt;/td&gt;
&lt;/tr&gt;&lt;tr bgcolor=""&gt;
&lt;th&gt;NM_UF&lt;/th&gt;
&lt;td&gt;Paraíba&lt;/td&gt;
&lt;/tr&gt;&lt;tr bgcolor="#E3E3F3"&gt;
&lt;th&gt;SIGLA_UF&lt;/th&gt;
&lt;td&gt;PB&lt;/td&gt;
&lt;/tr&gt;&lt;tr bgcolor=""&gt;
&lt;th&gt;CD_MUN&lt;/th&gt;
&lt;td&gt;2513307&lt;/td&gt;
&lt;/tr&gt;&lt;tr bgcolor="#E3E3F3"&gt;
&lt;th&gt;NM_MUN&lt;/th&gt;
&lt;td&gt;Santa Helena&lt;/td&gt;
&lt;/tr&gt;&lt;tr bgcolor=""&gt;
&lt;th&gt;CD_RGINT&lt;/th&gt;
&lt;td&gt;2504&lt;/td&gt;
&lt;/tr&gt;&lt;tr bgcolor="#E3E3F3"&gt;
&lt;th&gt;NM_RGINT&lt;/th&gt;
&lt;td&gt;Sousa - Cajazeiras&lt;/td&gt;
&lt;/tr&gt;&lt;tr bgcolor=""&gt;
&lt;th&gt;CD_RGI&lt;/th&gt;
&lt;td&gt;250015&lt;/td&gt;
&lt;/tr&gt;&lt;tr bgcolor="#E3E3F3"&gt;
&lt;th&gt;NM_RGI&lt;/th&gt;
&lt;td&gt;Cajazeiras&lt;/td&gt;
&lt;/tr&gt;&lt;tr bgcolor=""&gt;
&lt;th&gt;CT_LOCALIDADE&lt;/th&gt;
&lt;td&gt;Outras Localidades&lt;/td&gt;
&lt;/tr&gt;&lt;tr bgcolor="#E3E3F3"&gt;
&lt;th&gt;SCT_LOCALIDADE&lt;/th&gt;
&lt;td&gt;&lt;/td&gt;
&lt;/tr&gt;&lt;tr bgcolor=""&gt;
&lt;th&gt;CD_LOCALIDADE&lt;/th&gt;
&lt;td&gt;251330700008&lt;/td&gt;
&lt;/tr&gt;&lt;tr bgcolor="#E3E3F3"&gt;
&lt;th&gt;NM_LOCALIDADE&lt;/th&gt;
&lt;td&gt;Lagoa de Fora&lt;/td&gt;
&lt;/tr&gt;&lt;/table&gt;&lt;/center&gt;</description>
<Style>
<IconStyle>
<color>ff0069d3</color>
<scale>0.6</scale>
<Icon>
<href>http://maps.google.com/mapfiles/kml/shapes/placemark_circle.png</href>
</Icon>
</IconStyle>
<LabelStyle>
<scale>0.6</scale>
</LabelStyle>
<LineStyle>
<width>1.0</width>
<gx:labelVisibility>1</gx:labelVisibility>
</LineStyle>
</Style>
<ExtendedData>
<SchemaData schemaUrl="#kml_schema_ft_Localidades">
<SimpleData name="CD_UF">25</SimpleData>
<SimpleData name="NM_UF">Paraíba</SimpleData>
<SimpleData name="SIGLA_UF">PB</SimpleData>
<SimpleData name="CD_MUN">2513307</SimpleData>
<SimpleData name="NM_MUN">Santa Helena</SimpleData>
<SimpleData name="CD_RGINT">2504</SimpleData>
<SimpleData name="NM_RGINT">Sousa - Cajazeiras</SimpleData>
<SimpleData name="CD_RGI">250015</SimpleData>
<SimpleData name="NM_RGI">Cajazeiras</SimpleData>
<SimpleData name="CT_LOCALIDADE">Outras Localidades</SimpleData>
<SimpleData name="CD_LOCALIDADE">251330700008</SimpleData>
<SimpleData name="NM_LOCALIDADE">Lagoa de Fora</SimpleData>
</SchemaData>
</ExtendedData>
<Point>
<extrude>0</extrude>
<coordinates>-38.5337561591,-6.77826575517796,0.0</coordinates>
</Point>
</Placemark>
<Placemark id="12. Outras Localidades">
<name>Sítio São Bento [251330700009]</name>
<visibility>1</visibility>
<snippet> </snippet>
<description>&lt;center&gt;&lt;table&gt;&lt;tr&gt;&lt;th colspan='2' align='center'&gt;&lt;em&gt;Attributes&lt;/em&gt;&lt;/th&gt;&lt;/tr&gt;&lt;tr bgcolor="#E3E3F3"&gt;
&lt;th&gt;CD_UF&lt;/th&gt;
&lt;td&gt;25&lt;/td&gt;
&lt;/tr&gt;&lt;tr bgcolor=""&gt;
&lt;th&gt;NM_UF&lt;/th&gt;
&lt;td&gt;Paraíba&lt;/td&gt;
&lt;/tr&gt;&lt;tr bgcolor="#E3E3F3"&gt;
&lt;th&gt;SIGLA_UF&lt;/th&gt;
&lt;td&gt;PB&lt;/td&gt;
&lt;/tr&gt;&lt;tr bgcolor=""&gt;
&lt;th&gt;CD_MUN&lt;/th&gt;
&lt;td&gt;2513307&lt;/td&gt;
&lt;/tr&gt;&lt;tr bgcolor="#E3E3F3"&gt;
&lt;th&gt;NM_MUN&lt;/th&gt;
&lt;td&gt;Santa Helena&lt;/td&gt;
&lt;/tr&gt;&lt;tr bgcolor=""&gt;
&lt;th&gt;CD_RGINT&lt;/th&gt;
&lt;td&gt;2504&lt;/td&gt;
&lt;/tr&gt;&lt;tr bgcolor="#E3E3F3"&gt;
&lt;th&gt;NM_RGINT&lt;/th&gt;
&lt;td&gt;Sousa - Cajazeiras&lt;/td&gt;
&lt;/tr&gt;&lt;tr bgcolor=""&gt;
&lt;th&gt;CD_RGI&lt;/th&gt;
&lt;td&gt;250015&lt;/td&gt;
&lt;/tr&gt;&lt;tr bgcolor="#E3E3F3"&gt;
&lt;th&gt;NM_RGI&lt;/th&gt;
&lt;td&gt;Cajazeiras&lt;/td&gt;
&lt;/tr&gt;&lt;tr bgcolor=""&gt;
&lt;th&gt;CT_LOCALIDADE&lt;/th&gt;
&lt;td&gt;Outras Localidades&lt;/td&gt;
&lt;/tr&gt;&lt;tr bgcolor="#E3E3F3"&gt;
&lt;th&gt;SCT_LOCALIDADE&lt;/th&gt;
&lt;td&gt;&lt;/td&gt;
&lt;/tr&gt;&lt;tr bgcolor=""&gt;
&lt;th&gt;CD_LOCALIDADE&lt;/th&gt;
&lt;td&gt;251330700009&lt;/td&gt;
&lt;/tr&gt;&lt;tr bgcolor="#E3E3F3"&gt;
&lt;th&gt;NM_LOCALIDADE&lt;/th&gt;
&lt;td&gt;Sítio São Bento&lt;/td&gt;
&lt;/tr&gt;&lt;/table&gt;&lt;/center&gt;</description>
<Style>
<IconStyle>
<color>ff0069d3</color>
<scale>0.6</scale>
<Icon>
<href>http://maps.google.com/mapfiles/kml/shapes/placemark_circle.png</href>
</Icon>
</IconStyle>
<LabelStyle>
<scale>0.6</scale>
</LabelStyle>
<LineStyle>
<width>1.0</width>
<gx:labelVisibility>1</gx:labelVisibility>
</LineStyle>
</Style>
<ExtendedData>
<SchemaData schemaUrl="#kml_schema_ft_Localidades">
<SimpleData name="CD_UF">25</SimpleData>
<SimpleData name="NM_UF">Paraíba</SimpleData>
<SimpleData name="SIGLA_UF">PB</SimpleData>
<SimpleData name="CD_MUN">2513307</SimpleData>
<SimpleData name="NM_MUN">Santa Helena</SimpleData>
<SimpleData name="CD_RGINT">2504</SimpleData>
<SimpleData name="NM_RGINT">Sousa - Cajazeiras</SimpleData>
<SimpleData name="CD_RGI">250015</SimpleData>
<SimpleData name="NM_RGI">Cajazeiras</SimpleData>
<SimpleData name="CT_LOCALIDADE">Outras Localidades</SimpleData>
<SimpleData name="CD_LOCALIDADE">251330700009</SimpleData>
<SimpleData name="NM_LOCALIDADE">Sítio São Bento</SimpleData>
</SchemaData>
</ExtendedData>
<Point>
<extrude>0</extrude>
<coordinates>-38.6614841908,-6.71035845218014,0.0</coordinates>
</Point>
</Placemark>
</Folder>
<Folder id="13. Referência">
<name>13. Referência</name>
<Placemark id="13. Referência">
<name>Santa Helena [2513307]</name>
<visibility>1</visibility>
<snippet> </snippet>
<description>&lt;center&gt;&lt;table&gt;&lt;tr&gt;&lt;th colspan='2' align='center'&gt;&lt;em&gt;Attributes&lt;/em&gt;&lt;/th&gt;&lt;/tr&gt;&lt;tr bgcolor="#E3E3F3"&gt;
&lt;th&gt;CD_UF&lt;/th&gt;
&lt;td&gt;25&lt;/td&gt;
&lt;/tr&gt;&lt;tr bgcolor=""&gt;
&lt;th&gt;NM_UF&lt;/th&gt;
&lt;td&gt;Paraíba&lt;/td&gt;
&lt;/tr&gt;&lt;tr bgcolor="#E3E3F3"&gt;
&lt;th&gt;CD_MUN&lt;/th&gt;
&lt;td&gt;2513307&lt;/td&gt;
&lt;/tr&gt;&lt;tr bgcolor=""&gt;
&lt;th&gt;NM_MUN&lt;/th&gt;
&lt;td&gt;Santa Helena&lt;/td&gt;
&lt;/tr&gt;&lt;tr bgcolor="#E3E3F3"&gt;
&lt;th&gt;CD_RGINT&lt;/th&gt;
&lt;td&gt;2504&lt;/td&gt;
&lt;/tr&gt;&lt;tr bgcolor=""&gt;
&lt;th&gt;NM_RGINT&lt;/th&gt;
&lt;td&gt;Sousa - Cajazeiras&lt;/td&gt;
&lt;/tr&gt;&lt;tr bgcolor="#E3E3F3"&gt;
&lt;th&gt;CD_RGI&lt;/th&gt;
&lt;td&gt;250015&lt;/td&gt;
&lt;/tr&gt;&lt;tr bgcolor=""&gt;
&lt;th&gt;NM_RGI&lt;/th&gt;
&lt;td&gt;Cajazeiras&lt;/td&gt;
&lt;/tr&gt;&lt;/table&gt;&lt;/center&gt;</description>
<Style>
<IconStyle>
<scale>0.7</scale>
</IconStyle>
<LabelStyle>
<scale>0.7</scale>
</LabelStyle>
<LineStyle>
<color>ffffffff</color>
<width>3</width>
<gx:labelVisibility>1</gx:labelVisibility>
</LineStyle>
<PolyStyle>
<color>00ffffff</color>
</PolyStyle>
</Style>
<ExtendedData>
<SchemaData schemaUrl="#kml_schema_ft_Município">
<SimpleData name="CD_UF">25</SimpleData>
<SimpleData name="NM_UF">Paraíba</SimpleData>
<SimpleData name="CD_MUN">2513307</SimpleData>
<SimpleData name="NM_MUN">Santa Helena</SimpleData>
<SimpleData name="CD_RGINT">2504</SimpleData>
<SimpleData name="NM_RGINT">Sousa - Cajazeiras</SimpleData>
<SimpleData name="CD_RGI">250015</SimpleData>
<SimpleData name="NM_RGI">Cajazeiras</SimpleData>
</SchemaData>
</ExtendedData>
<MultiGeometry>
<Polygon>
<extrude>0</extrude>
<tessellate>1</tessellate>
<outerBoundaryIs>
<LinearRing>
<coordinates>-38.4896801,-6.74429629977905,0.0 -38.4895802,-6.74440149977905,0.0 -38.4891637,-6.74441189977905,0.0 -38.4890492,-6.74440149977905,0.0 -38.4889659,-6.74452649977904,0.0 -38.4885598,-6.74472429977904,0.0 -38.4881537,-6.74483879977904,0.0 -38.4879662,-6.74505749977903,0.0 -38.4879544,-6.74514419977903,0.0 -38.487935,-6.74528659977902,0.0 -38.4879766,-6.74542199977902,0.0 -38.4881849,-6.74560939977901,0.0 -38.4883507,-6.745890499779,0.0 -38.488466,-6.74620289977899,0.0 -38.4885389,-6.74646319977898,0.0 -38.4885389,-6.74668189977897,0.0 -38.4884556,-6.74711929977896,0.0 -38.4886326,-6.74740039977895,0.0 -38.4890179,-6.74757739977895,0.0 -38.4892685,-6.74761919977895,0.0 -38.4895177,-6.74766069977894,0.0 -38.4898093,-6.74779609977894,0.0 -38.4900384,-6.74811889977893,0.0 -38.4901009,-6.74836879977892,0.0 -38.490028,-6.74886859977891,0.0 -38.4900696,-6.7490351997789,0.0 -38.4903091,-6.7491288997789,0.0 -38.4905278,-6.74932679977889,0.0 -38.4905903,-6.74962879977888,0.0 -38.4905278,-6.74993069977887,0.0 -38.4904642,-6.75000039977887,0.0 -38.490205,-6.75028479977886,0.0 -38.4897989,-6.75103449977884,0.0 -38.4897364,-6.75139889977882,0.0 -38.489903,-6.75178419977881,0.0 -38.4901738,-6.75197159977881,0.0 -38.4904341,-6.7520861997788,0.0 -38.4905967,-6.7523147997788,0.0 -38.4905694,-6.75252349977879,0.0 -38.4904861,-6.75274219977878,0.0 -38.4902987,-6.75289839977878,0.0 -38.4894833,-6.75323519977877,0.0 -38.4893407,-6.75329409977876,0.0 -38.488893,-6.75347109977876,0.0 -38.4886118,-6.75354399977876,0.0 -38.4880391,-6.75356479977876,0.0 -38.4875497,-6.75389799977875,0.0 -38.4874248,-6.75409589977874,0.0 -38.4873102,-6.75427289977873,0.0 -38.4872269,-6.75448109977873,0.0 -38.4871853,-6.75464769977872,0.0 -38.4868208,-6.75487679977871,0.0 -38.4868416,-6.7551579997787,0.0 -38.4870395,-6.7553974997787,0.0 -38.4873623,-6.75566819977869,0.0 -38.4874352,-6.75577229977869,0.0 -38.4873935,-6.75593889977868,0.0 -38.4873935,-6.75615759977867,0.0 -38.4875289,-6.75623049977867,0.0 -38.4878204,-6.75614719977867,0.0 -38.4881016,-6.75610549977867,0.0 -38.4882786,-6.75606389977868,0.0 -38.4885702,-6.75612639977867,0.0 -38.488768,-6.75626169977867,0.0 -38.4891325,-6.75665739977865,0.0 -38.4893,-6.75680699977865,0.0 -38.489424,-6.75691779977865,0.0 -38.4895698,-6.75753209977863,0.0 -38.4895147,-6.75761049977863,0.0 -38.4892991,-6.75791739977862,0.0 -38.4891637,-6.7583130997786,0.0 -38.4894136,-6.7585004997786,0.0 -38.4897989,-6.75870879977859,0.0 -38.490028,-6.75891699977858,0.0 -38.4901113,-6.75916689977858,0.0 -38.4902675,-6.75931269977857,0.0 -38.4904175,-6.75939669977857,0.0 -38.4905278,-6.75945849977857,0.0 -38.4908193,-6.75961469977856,0.0 -38.4912879,-6.76032279977854,0.0 -38.4913878,-6.76053679977853,0.0 -38.4914337,-6.76063509977853,0.0 -38.4915066,-6.76083299977852,0.0 -38.4917647,-6.76097969977852,0.0 -38.4919648,-6.76109329977851,0.0 -38.4919508,-6.76119819977851,0.0 -38.4919439,-6.76124949977851,0.0 -38.4917253,-6.7614056997785,0.0 -38.4914233,-6.76206169977848,0.0 -38.4914337,-6.76241569977847,0.0 -38.4915378,-6.76274899977846,0.0 -38.4915691,-6.76306129977845,0.0 -38.4917149,-6.76369649977843,0.0 -38.4916628,-6.76411299977841,0.0 -38.4915587,-6.76422759977841,0.0 -38.4915378,-6.7645295997784,0.0 -38.4916836,-6.7646544997784,0.0 -38.4917982,-6.76489399977839,0.0 -38.4917044,-6.76497729977839,0.0 -38.4915482,-6.76517509977838,0.0 -38.4915066,-6.76546669977837,0.0 -38.4915691,-6.76566459977837,0.0 -38.4918502,-6.76590399977836,0.0 -38.4919439,-6.76611229977835,0.0 -38.4919439,-6.76635179977834,0.0 -38.4919856,-6.76652879977834,0.0 -38.4920585,-6.76678909977833,0.0 -38.4920481,-6.76688289977833,0.0 -38.4919127,-6.76697659977832,0.0 -38.4916732,-6.76689329977833,0.0 -38.4915691,-6.76697659977832,0.0 -38.491642,-6.76743469977831,0.0 -38.4917565,-6.7676845997783,0.0 -38.4917982,-6.76828859977828,0.0 -38.4919856,-6.76862179977827,0.0 -38.4921626,-6.76880919977826,0.0 -38.4926104,-6.76905909977826,0.0 -38.4928394,-6.76918409977825,0.0 -38.4931935,-6.76920489977825,0.0 -38.493256,-6.76911119977825,0.0 -38.493485,-6.76901749977826,0.0 -38.4937558,-6.76910079977826,0.0 -38.4941202,-6.76930909977825,0.0 -38.4946617,-6.76954849977824,0.0 -38.4947658,-6.76967349977824,0.0 -38.4950261,-6.76984009977823,0.0 -38.4953698,-6.76990259977823,0.0 -38.4956093,-6.76965269977824,0.0 -38.4958592,-6.76980889977823,0.0 -38.4960143,-6.76996399977823,0.0 -38.4960778,-6.77002749977823,0.0 -38.4963278,-6.77028789977822,0.0 -38.4964111,-6.77051689977821,0.0 -38.4962861,-6.7707772997782,0.0 -38.4961624,-6.7708415997782,0.0 -38.4960258,-6.7709125997782,0.0 -38.4958383,-6.77102719977819,0.0 -38.4957655,-6.77121459977819,0.0 -38.495755,-6.77153739977818,0.0 -38.4956717,-6.77176649977817,0.0 -38.495755,-6.77199559977816,0.0 -38.4958696,-6.77217259977816,0.0 -38.4960362,-6.77224549977815,0.0 -38.4960778,-6.77247459977815,0.0 -38.4962444,-6.77263079977814,0.0 -38.4962757,-6.77276609977814,0.0 -38.496359,-6.77287019977813,0.0 -38.4964735,-6.77284939977813,0.0 -38.4964947,-6.77281049977814,0.0 -38.496536,-6.77273489977814,0.0 -38.4966922,-6.77275569977814,0.0 -38.4970254,-6.77300559977813,0.0 -38.4972337,-6.77307849977813,0.0 -38.4973274,-6.77315139977812,0.0 -38.4972857,-6.77337009977812,0.0 -38.4972128,-6.77347419977812,0.0 -38.4972128,-6.77367199977811,0.0 -38.4970254,-6.77378659977811,0.0 -38.49689,-6.7738177997781,0.0 -38.4968067,-6.7739739997781,0.0 -38.4969733,-6.77451549977808,0.0 -38.4972649,-6.77475499977807,0.0 -38.497317,-6.77491119977807,0.0 -38.4972337,-6.77528599977806,0.0 -38.4969317,-6.77552549977805,0.0 -38.496661,-6.77573379977804,0.0 -38.4965985,-6.77590039977804,0.0 -38.4966505,-6.77622319977803,0.0 -38.496536,-6.77660849977801,0.0 -38.4964631,-6.777181199778,0.0 -38.4962861,-6.77778509977798,0.0 -38.4961195,-6.77813919977797,0.0 -38.4962236,-6.77868059977795,0.0 -38.4963486,-6.77908669977793,0.0 -38.4963278,-6.77940949977793,0.0 -38.4962236,-6.77975309977791,0.0 -38.4962757,-6.77988849977791,0.0 -38.4964423,-6.7801487997779,0.0 -38.4966089,-6.78034669977789,0.0 -38.496661,-6.78055489977789,0.0 -38.496661,-6.78063819977788,0.0 -38.4964215,-6.78069029977788,0.0 -38.4963486,-6.78069029977788,0.0 -38.4962861,-6.78084649977788,0.0 -38.496234,-6.78106519977787,0.0 -38.4961403,-6.78121089977786,0.0 -38.4960883,-6.78138799977786,0.0 -38.4961611,-6.78159619977786,0.0 -38.4962965,-6.78172119977785,0.0 -38.4965256,-6.78181489977785,0.0 -38.4966922,-6.78202319977784,0.0 -38.4966401,-6.78228349977783,0.0 -38.4964839,-6.78236679977783,0.0 -38.4962653,-6.78247089977783,0.0 -38.496057,-6.78247089977783,0.0 -38.4959425,-6.78249169977782,0.0 -38.4956974,-6.78262119977782,0.0 -38.4955468,-6.78267919977782,0.0 -38.4953594,-6.78289779977781,0.0 -38.4951199,-6.78313729977781,0.0 -38.4949012,-6.78350179977779,0.0 -38.4949012,-6.78383499977778,0.0 -38.4949533,-6.78401199977778,0.0 -38.4949116,-6.78426189977777,0.0 -38.4949116,-6.78452219977776,0.0 -38.4947658,-6.78464719977776,0.0 -38.4945576,-6.78476169977775,0.0 -38.4945576,-6.78509489977774,0.0 -38.4947866,-6.78528239977773,0.0 -38.4948387,-6.78549059977773,0.0 -38.4947658,-6.78580299977772,0.0 -38.4947033,-6.78615709977771,0.0 -38.4948387,-6.7862715997777,0.0 -38.4951823,-6.7862090997777,0.0 -38.495348,-6.78604349977771,0.0 -38.495578,-6.78581339977772,0.0 -38.4958696,-6.78574049977772,0.0 -38.4962236,-6.78594879977771,0.0 -38.4963798,-6.78612579977771,0.0 -38.4964191,-6.7863322997777,0.0 -38.4964631,-6.78656319977769,0.0 -38.4966505,-6.78686509977768,0.0 -38.496838,-6.78703169977768,0.0 -38.4970306,-6.78726669977767,0.0 -38.49714,-6.78736489977767,0.0 -38.4974003,-6.78745869977767,0.0 -38.4974794,-6.78748189977767,0.0 -38.4975773,-6.78751069977767,0.0 -38.4976606,-6.78759399977766,0.0 -38.4976656,-6.78772329977766,0.0 -38.497671,-6.78786479977765,0.0 -38.4978064,-6.78826049977764,0.0 -38.4980771,-6.78836459977764,0.0 -38.4985978,-6.78838539977764,0.0 -38.4988689,-6.78839739977763,0.0 -38.4993058,-6.78841659977763,0.0 -38.4994516,-6.78856239977763,0.0 -38.4995349,-6.78872899977763,0.0 -38.4997952,-6.78872899977763,0.0 -38.5002117,-6.78862489977763,0.0 -38.5003784,-6.78883319977762,0.0 -38.5003623,-6.78888129977762,0.0 -38.5002742,-6.78914549977761,0.0 -38.5003888,-6.7894578997776,0.0 -38.5006074,-6.78961409977759,0.0 -38.5008157,-6.78970779977759,0.0 -38.5010968,-6.78978069977759,0.0 -38.5014196,-6.78975989977759,0.0 -38.5017633,-6.7896348997776,0.0 -38.5020861,-6.7894266997776,0.0 -38.5022735,-6.7894370997776,0.0 -38.5025651,-6.7895932997776,0.0 -38.5028054,-6.78986249977759,0.0 -38.5029295,-6.78993689977759,0.0 -38.5033564,-6.79028049977757,0.0 -38.503523,-6.79030139977757,0.0 -38.5037108,-6.79011809977758,0.0 -38.5039604,-6.78987439977759,0.0 -38.5042207,-6.78987439977759,0.0 -38.5044914,-6.78997859977758,0.0 -38.5046836,-6.79019539977758,0.0 -38.5052203,-6.79080119977756,0.0 -38.5054911,-6.79088449977756,0.0 -38.5056577,-6.79076999977756,0.0 -38.5057618,-6.79059289977756,0.0 -38.5058347,-6.79041589977757,0.0 -38.5059268,-6.79029429977757,0.0 -38.506095,-6.79007229977758,0.0 -38.5063033,-6.79003059977758,0.0 -38.5067406,-6.79008269977758,0.0 -38.5078652,-6.79051999977757,0.0 -38.5081359,-6.79095739977755,0.0 -38.5083129,-6.79145719977754,0.0 -38.50849,-6.79175919977753,0.0 -38.5086774,-6.79188409977752,0.0 -38.5093855,-6.79194659977752,0.0 -38.5099478,-6.79216529977752,0.0 -38.5101873,-6.79222779977751,0.0 -38.5103747,-6.79234229977751,0.0 -38.5107079,-6.79244639977751,0.0 -38.5109891,-6.7924151997775,0.0 -38.511654,-6.7925018997775,0.0 -38.5119783,-6.7926025997775,0.0 -38.5121345,-6.7927379997775,0.0 -38.5121741,-6.79283939977749,0.0 -38.5122282,-6.79297749977749,0.0 -38.5123115,-6.79374799977747,0.0 -38.5124469,-6.79411249977745,0.0 -38.5127697,-6.79427909977744,0.0 -38.5129571,-6.79463309977744,0.0 -38.5127072,-6.79517459977742,0.0 -38.5126551,-6.79549739977741,0.0 -38.5128634,-6.7956639997774,0.0 -38.5131445,-6.7957264997774,0.0 -38.5133528,-6.7956639997774,0.0 -38.5136235,-6.79549739977741,0.0 -38.5140192,-6.7957368997774,0.0 -38.5142379,-6.79609089977739,0.0 -38.5145503,-6.79647619977738,0.0 -38.5147897,-6.79661159977737,0.0 -38.5151646,-6.79670529977737,0.0 -38.5153312,-6.79678859977737,0.0 -38.5154249,-6.79705929977736,0.0 -38.5153729,-6.79736129977735,0.0 -38.5155291,-6.79757999977734,0.0 -38.5159247,-6.79755909977734,0.0 -38.5162475,-6.79759039977734,0.0 -38.5163621,-6.79736129977735,0.0 -38.5165912,-6.79719469977735,0.0 -38.5168411,-6.79716339977735,0.0 -38.517036,-6.79715979977736,0.0 -38.517393,-6.79715299977736,0.0 -38.5179865,-6.79675729977737,0.0 -38.5179969,-6.79643449977738,0.0 -38.5178928,-6.79618459977738,0.0 -38.5176845,-6.79614299977739,0.0 -38.5175075,-6.79620549977738,0.0 -38.5173513,-6.79617419977738,0.0 -38.5172264,-6.79599719977739,0.0 -38.517268,-6.7957368997774,0.0 -38.5174021,-6.79555259977741,0.0 -38.51757,-6.79537239977741,0.0 -38.5178824,-6.79524749977742,0.0 -38.5181635,-6.79529949977741,0.0 -38.5183405,-6.79555989977741,0.0 -38.5187466,-6.7955285997774,0.0 -38.5195797,-6.79508089977742,0.0 -38.5199858,-6.79511209977742,0.0 -38.5205168,-6.7955702997774,0.0 -38.5208396,-6.79559109977741,0.0 -38.5209437,-6.79542449977741,0.0 -38.5210231,-6.79511059977742,0.0 -38.5210895,-6.79489339977743,0.0 -38.5214019,-6.79453939977744,0.0 -38.5217872,-6.79456019977744,0.0 -38.5222245,-6.79491429977743,0.0 -38.522464,-6.79522669977742,0.0 -38.5226931,-6.79532039977741,0.0 -38.5230367,-6.79549739977741,0.0 -38.5232658,-6.79545569977741,0.0 -38.5233699,-6.79527869977741,0.0 -38.5237656,-6.79525789977742,0.0 -38.5241301,-6.79546609977741,0.0 -38.5243175,-6.79546609977741,0.0 -38.5245154,-6.79509129977742,0.0 -38.5244732,-6.79461989977743,0.0 -38.5245258,-6.79443529977744,0.0 -38.5246715,-6.79429989977745,0.0 -38.5249527,-6.79426869977745,0.0 -38.5254004,-6.79428949977745,0.0 -38.525869,-6.79416449977745,0.0 -38.5261293,-6.79420619977745,0.0 -38.5266396,-6.79441449977744,0.0 -38.527129,-6.79487259977743,0.0 -38.5275663,-6.79518499977742,0.0 -38.5279724,-6.79522669977742,0.0 -38.5283994,-6.79517459977742,0.0 -38.5291283,-6.79468519977743,0.0 -38.529222,-6.79433109977745,0.0 -38.5296072,-6.79404999977745,0.0 -38.5300758,-6.79390419977746,0.0 -38.5310546,-6.79407079977745,0.0 -38.5317419,-6.79386259977746,0.0 -38.5321896,-6.79340439977747,0.0 -38.5325437,-6.79298789977749,0.0 -38.5328561,-6.79295669977749,0.0 -38.5330851,-6.79310239977748,0.0 -38.5330955,-6.79325859977748,0.0 -38.5331893,-6.79355019977747,0.0 -38.5333559,-6.79393549977746,0.0 -38.5333663,-6.79420619977745,0.0 -38.5333663,-6.79443529977744,0.0 -38.5334912,-6.79468519977743,0.0 -38.5336061,-6.79477709977743,0.0 -38.5339598,-6.79485179977743,0.0 -38.5340952,-6.79470599977743,0.0 -38.5341955,-6.79453269977744,0.0 -38.5343243,-6.79431029977745,0.0 -38.5344805,-6.79421659977745,0.0 -38.5347095,-6.79416449977745,0.0 -38.5349595,-6.79423739977745,0.0 -38.5353551,-6.79438319977744,0.0 -38.5357717,-6.79442489977744,0.0 -38.5361153,-6.79453939977744,0.0 -38.536511,-6.79461229977743,0.0 -38.5368025,-6.79454979977744,0.0 -38.5374065,-6.79393549977746,0.0 -38.5375523,-6.79362309977747,0.0 -38.5381145,-6.79342519977747,0.0 -38.5386352,-6.79355019977747,0.0 -38.5392079,-6.79371679977746,0.0 -38.5396244,-6.79370639977746,0.0 -38.539968,-6.79351889977747,0.0 -38.5403845,-6.7926754997775,0.0 -38.5409468,-6.79241519977751,0.0 -38.541707,-6.79222779977751,0.0 -38.5425712,-6.79214439977751,0.0 -38.5429565,-6.79199869977752,0.0 -38.5434459,-6.79156129977753,0.0 -38.5437791,-6.79097819977755,0.0 -38.544279,-6.79042629977757,0.0 -38.5447788,-6.79017639977758,0.0 -38.5460908,-6.79050959977757,0.0 -38.546549,-6.79093659977755,0.0 -38.5468197,-6.79136349977754,0.0 -38.5471737,-6.7924984997775,0.0 -38.5472466,-6.79317529977748,0.0 -38.547684,-6.79372719977746,0.0 -38.5482254,-6.79390419977746,0.0 -38.5489127,-6.79389379977746,0.0 -38.549503,-6.79371989977747,0.0 -38.5502559,-6.79349809977747,0.0 -38.5514534,-6.79319609977748,0.0 -38.5520157,-6.79328989977748,0.0 -38.5525364,-6.79367509977746,0.0 -38.5527758,-6.79411249977745,0.0 -38.5530258,-6.79470599977743,0.0 -38.5532861,-6.79509129977742,0.0 -38.5537234,-6.79513289977742,0.0 -38.5540219,-6.79499409977742,0.0 -38.5541712,-6.79492469977743,0.0 -38.5544627,-6.79501839977742,0.0 -38.554546,-6.79533079977741,0.0 -38.5544799,-6.7957868997774,0.0 -38.554887,-6.79620959977739,0.0 -38.5552314,-6.79624089977738,0.0 -38.5566091,-6.79646009977738,0.0 -38.5579242,-6.79644439977738,0.0 -38.5588166,-6.79635049977738,0.0 -38.5594898,-6.79627219977738,0.0 -38.5611807,-6.79671059977737,0.0 -38.5623079,-6.79639739977738,0.0 -38.5629341,-6.79603739977739,0.0 -38.5635291,-6.79544239977741,0.0 -38.5639831,-6.79486319977743,0.0 -38.5647502,-6.79422129977745,0.0 -38.5654547,-6.79382989977746,0.0 -38.5661123,-6.79367329977747,0.0 -38.567083,-6.79356369977747,0.0 -38.5676935,-6.79382989977746,0.0 -38.5679754,-6.79412729977745,0.0 -38.5683198,-6.79495709977742,0.0 -38.5683511,-6.79541109977741,0.0 -38.5684483,-6.7959092997774,0.0 -38.5684763,-6.79605299977739,0.0 -38.568946,-6.79631919977738,0.0 -38.5700263,-6.79669489977737,0.0 -38.5705429,-6.79725849977735,0.0 -38.5709279,-6.79791659977733,0.0 -38.5718076,-6.79594589977739,0.0 -38.5725617,-6.79430219977745,0.0 -38.5741941,-6.7926878997775,0.0 -38.578703,-6.78982599977759,0.0 -38.5793813,-6.78915909977761,0.0 -38.5798322,-6.78871569977762,0.0 -38.5818394,-6.78851729977763,0.0 -38.5829456,-6.78816549977764,0.0 -38.5840555,-6.78799099977765,0.0 -38.5849401,-6.78776549977766,0.0 -38.5856187,-6.78738429977767,0.0 -38.5862461,-6.78723169977767,0.0 -38.5872991,-6.78675429977769,0.0 -38.5882642,-6.7864262997777,0.0 -38.5891456,-6.7862937997777,0.0 -38.5901731,-6.78582879977772,0.0 -38.5910071,-6.78556279977773,0.0 -38.5923063,-6.78539809977773,0.0 -38.59293,-6.78569869977772,0.0 -38.59337,-6.7862814997777,0.0 -38.5941929,-6.78686699977769,0.0 -38.5957359,-6.7863611997777,0.0 -38.5965036,-6.78614869977771,0.0 -38.5975401,-6.78594499977771,0.0 -38.5981963,-6.7862149997777,0.0 -38.5985539,-6.78663099977769,0.0 -38.5986632,-6.78748659977766,0.0 -38.5993999,-6.78780609977765,0.0 -38.6000223,-6.78744889977767,0.0 -38.6000053,-6.78682009977769,0.0 -38.6000027,-6.78672399977769,0.0 -38.5995556,-6.78586609977772,0.0 -38.5994851,-6.78482639977775,0.0 -38.5997671,-6.78394529977778,0.0 -38.6003133,-6.78283509977781,0.0 -38.6018993,-6.78197169977784,0.0 -38.6026746,-6.78176019977785,0.0 -38.6037496,-6.78177789977785,0.0 -38.6046483,-6.78165449977785,0.0 -38.6056703,-6.78128439977787,0.0 -38.6074325,-6.78096729977787,0.0 -38.6085603,-6.78110819977787,0.0 -38.6092123,-6.78140779977786,0.0 -38.6097233,-6.78198929977784,0.0 -38.6102167,-6.78279989977782,0.0 -38.6116791,-6.7831388997778,0.0 -38.612578,-6.78308189977781,0.0 -38.6130714,-6.78294089977781,0.0 -38.6139278,-6.78243739977783,0.0 -38.6200866,-6.78051649977789,0.0 -38.6234744,-6.78037949977789,0.0 -38.6234923,-6.78037879977789,0.0 -38.6262192,-6.77860989977795,0.0 -38.6262261,-6.77860539977795,0.0 -38.62899,-6.77772019977798,0.0 -38.6290247,-6.77770909977798,0.0 -38.6304132,-6.77633649977802,0.0 -38.634601,-6.76991909977823,0.0 -38.6346054,-6.76991239977823,0.0 -38.6387368,-6.76895779977826,0.0 -38.6387698,-6.76895019977826,0.0 -38.6394723,-6.76799359977829,0.0 -38.6393855,-6.76586789977836,0.0 -38.6402662,-6.76399539977842,0.0 -38.6402689,-6.76398969977842,0.0 -38.6423574,-6.76346809977844,0.0 -38.6472981,-6.76319079977844,0.0 -38.6473005,-6.76319069977844,0.0 -38.6506098,-6.76185799977849,0.0 -38.6526802,-6.75976409977856,0.0 -38.652684,-6.75785459977862,0.0 -38.6524136,-6.75707989977864,0.0 -38.6518745,-6.75553949977869,0.0 -38.6508942,-6.75459419977872,0.0 -38.649972,-6.7522362997788,0.0 -38.6513988,-6.75140789977882,0.0 -38.6524699,-6.74760369977895,0.0 -38.6554654,-6.74580689977901,0.0 -38.6575338,-6.74076019977917,0.0 -38.6571858,-6.73951429977921,0.0 -38.6577923,-6.73832539977924,0.0 -38.6578221,-6.73723339977928,0.0 -38.6572525,-6.73592229977932,0.0 -38.6570344,-6.73307919977941,0.0 -38.6558332,-6.73086669977948,0.0 -38.6559754,-6.73024369977951,0.0 -38.6571855,-6.72940679977953,0.0 -38.6583957,-6.72856989977956,0.0 -38.659685,-6.72609909977964,0.0 -38.662469,-6.72464759977969,0.0 -38.6641097,-6.72478809977968,0.0 -38.6648867,-6.7240934997797,0.0 -38.6655359,-6.7211227997798,0.0 -38.6663192,-6.71980889977984,0.0 -38.6663249,-6.71969989977984,0.0 -38.6664649,-6.71704399977993,0.0 -38.6693142,-6.71476429978,0.0 -38.669818,-6.71220399978008,0.0 -38.6733838,-6.70964709978016,0.0 -38.6737403,-6.70888559978019,0.0 -38.6737337,-6.70798639978022,0.0 -38.6730609,-6.70699669978025,0.0 -38.6725406,-6.70623139978028,0.0 -38.6700365,-6.70254829978039,0.0 -38.6730594,-6.70063789978046,0.0 -38.6731505,-6.69722119978057,0.0 -38.6721912,-6.69546689978062,0.0 -38.6695229,-6.69245809978072,0.0 -38.6681041,-6.68860199978084,0.0 -38.6658919,-6.68528229978095,0.0 -38.6650196,-6.68397339978099,0.0 -38.6649954,-6.68107309978108,0.0 -38.6644625,-6.68019139978111,0.0 -38.661381,-6.67941289978114,0.0 -38.6605834,-6.67880189978116,0.0 -38.6623586,-6.67522719978127,0.0 -38.6623614,-6.6743178997813,0.0 -38.6615253,-6.67386379978132,0.0 -38.6594369,-6.67404739978131,0.0 -38.6556011,-6.67228029978137,0.0 -38.652911,-6.67327299978134,0.0 -38.6519647,-6.67318339978134,0.0 -38.6498279,-6.66904829978147,0.0 -38.6472147,-6.66399129978163,0.0 -38.6464061,-6.66242639978168,0.0 -38.6460225,-6.66026429978175,0.0 -38.6469653,-6.65420759978195,0.0 -38.648389,-6.65235029978201,0.0 -38.6483916,-6.65234689978201,0.0 -38.6493636,-6.65203829978202,0.0 -38.6493998,-6.65202679978202,0.0 -38.6518601,-6.64780879978216,0.0 -38.6532655,-6.64384039978228,0.0 -38.6570803,-6.64228949978233,0.0 -38.6567875,-6.63660179978251,0.0 -38.6552633,-6.63047879978271,0.0 -38.6532153,-6.62932389978275,0.0 -38.6509253,-6.62695459978283,0.0 -38.6500902,-6.62686939978283,0.0 -38.6500674,-6.62688649978283,0.0 -38.6491293,-6.62758579978281,0.0 -38.6469913,-6.62920179978275,0.0 -38.6469121,-6.62923629978275,0.0 -38.6468751,-6.62925229978275,0.0 -38.6453502,-6.62969369978274,0.0 -38.6442914,-6.63006819978273,0.0 -38.6440594,-6.63019379978272,0.0 -38.6438037,-6.63039939978271,0.0 -38.6434772,-6.6308700997827,0.0 -38.643314,-6.63110549978269,0.0 -38.6430989,-6.63164239978267,0.0 -38.6428823,-6.63204429978266,0.0 -38.6425228,-6.63250349978265,0.0 -38.6422222,-6.63288739978264,0.0 -38.6419188,-6.63322879978262,0.0 -38.6415904,-6.63352129978261,0.0 -38.6413647,-6.63367129978261,0.0 -38.6411137,-6.6337540997826,0.0 -38.6408499,-6.63378779978261,0.0 -38.6407082,-6.6338541997826,0.0 -38.640391,-6.6339588997826,0.0 -38.6398027,-6.6340946997826,0.0 -38.6393861,-6.63420389978259,0.0 -38.6391108,-6.63431149978259,0.0 -38.6385134,-6.63472989978257,0.0 -38.638374,-6.63489739978257,0.0 -38.6379064,-6.63538199978255,0.0 -38.6373159,-6.63586799978254,0.0 -38.6368324,-6.6371206997825,0.0 -38.6365741,-6.63758319978248,0.0 -38.6364109,-6.63787509978248,0.0 -38.6362867,-6.63801479978247,0.0 -38.6359195,-6.63842759978246,0.0 -38.6353777,-6.63886999978244,0.0 -38.6352987,-6.63895069978244,0.0 -38.6352211,-6.63914819978243,0.0 -38.6350531,-6.63950649978242,0.0 -38.634705,-6.6402354997824,0.0 -38.634541,-6.64039709978239,0.0 -38.6342853,-6.64060889978239,0.0 -38.6338701,-6.64084099978238,0.0 -38.6334425,-6.64106089978237,0.0 -38.6331005,-6.64124909978237,0.0 -38.6328624,-6.64138089978236,0.0 -38.6326922,-6.64154259978236,0.0 -38.6325413,-6.64178389978235,0.0 -38.6323248,-6.64219809978234,0.0 -38.6322533,-6.64239549978233,0.0 -38.6322494,-6.64259209978232,0.0 -38.6322574,-6.64275179978232,0.0 -38.6322168,-6.64296729978231,0.0 -38.6321141,-6.6431158997823,0.0 -38.6319684,-6.6432711997823,0.0 -38.631786,-6.64344529978229,0.0 -38.6317193,-6.64352599978229,0.0 -38.6315815,-6.64382859978228,0.0 -38.6313888,-6.64418099978227,0.0 -38.6312677,-6.64433599978227,0.0 -38.6309578,-6.64464059978226,0.0 -38.6307393,-6.64487659978225,0.0 -38.6306124,-6.64506849978224,0.0 -38.6305402,-6.64520449978224,0.0 -38.6305086,-6.64536349978223,0.0 -38.6304937,-6.64543849978223,0.0 -38.6303985,-6.64570379978222,0.0 -38.6303393,-6.64590109978222,0.0 -38.6299801,-6.64620009978221,0.0 -38.6296023,-6.6463660997822,0.0 -38.6289724,-6.64658759978219,0.0 -38.6289157,-6.64662389978219,0.0 -38.6267893,-6.64713969978218,0.0 -38.6260505,-6.64755359978216,0.0 -38.6256372,-6.64795159978215,0.0 -38.6255107,-6.64817419978214,0.0 -38.6253283,-6.64834829978214,0.0 -38.6252361,-6.64841759978214,0.0 -38.6250542,-6.64855419978213,0.0 -38.6248096,-6.64866759978213,0.0 -38.6240982,-6.64878629978213,0.0 -38.6236333,-6.64897589978212,0.0 -38.6230441,-6.64890529978212,0.0 -38.6227662,-6.64891819978212,0.0 -38.6222985,-6.64885599978212,0.0 -38.6218505,-6.64891019978212,0.0 -38.621066,-6.64909119978211,0.0 -38.620822,-6.64924759978211,0.0 -38.6204333,-6.6496451997821,0.0 -38.6198915,-6.65009999978208,0.0 -38.6197952,-6.65027309978208,0.0 -38.6196227,-6.65077889978206,0.0 -38.6190967,-6.65206899978202,0.0 -38.6182568,-6.65332589978198,0.0 -38.6179938,-6.65396789978196,0.0 -38.6177357,-6.65450539978194,0.0 -38.6175228,-6.65469829978193,0.0 -38.6172177,-6.65488609978193,0.0 -38.6163727,-6.65515379978192,0.0 -38.6162203,-6.65525999978191,0.0 -38.6157639,-6.6556583997819,0.0 -38.6156417,-6.6557150997819,0.0 -38.6149802,-6.6559130997819,0.0 -38.6144605,-6.65614029978189,0.0 -38.6136103,-6.65648789978188,0.0 -38.6127551,-6.65693999978186,0.0 -38.612298,-6.65727699978185,0.0 -38.6119576,-6.65760039978184,0.0 -38.6109707,-6.65835509978182,0.0 -38.6112165,-6.65943989978178,0.0 -38.6112133,-6.65969179978177,0.0 -38.6109525,-6.66047379978175,0.0 -38.6097438,-6.66231989978169,0.0 -38.6095215,-6.66276489978168,0.0 -38.6086367,-6.66547849978159,0.0 -38.6081838,-6.66725319978153,0.0 -38.6080942,-6.66748159978152,0.0 -38.6068901,-6.66912969978147,0.0 -38.6067251,-6.66921149978147,0.0 -38.6058268,-6.66911729978147,0.0 -38.6055382,-6.66913899978147,0.0 -38.6030389,-6.66984949978145,0.0 -38.6021737,-6.67050459978142,0.0 -38.6014194,-6.67171749978139,0.0 -38.5999937,-6.67495959978128,0.0 -38.5998532,-6.67503489978128,0.0 -38.5943688,-6.67373939978132,0.0 -38.5943143,-6.67380759978132,0.0 -38.5937038,-6.67578699978125,0.0 -38.593203,-6.68224949978105,0.0 -38.5931252,-6.68325309978102,0.0 -38.5922949,-6.68751459978088,0.0 -38.5922219,-6.68757689978088,0.0 -38.5884584,-6.68792079978086,0.0 -38.5883727,-6.68795249978086,0.0 -38.5879748,-6.68875249978084,0.0 -38.587844,-6.68901539978083,0.0 -38.5878328,-6.68910769978083,0.0 -38.588066,-6.69015579978079,0.0 -38.5881392,-6.69280939978071,0.0 -38.5862248,-6.69685599978058,0.0 -38.5865182,-6.69886809978051,0.0 -38.5864823,-6.69894839978051,0.0 -38.5860823,-6.69890379978051,0.0 -38.5843623,-6.69790339978054,0.0 -38.5822796,-6.69798239978054,0.0 -38.5821088,-6.69809499978054,0.0 -38.5820674,-6.69823069978053,0.0 -38.5820749,-6.69888799978051,0.0 -38.5819301,-6.69964389978049,0.0 -38.5819295,-6.69964549978049,0.0 -38.5816166,-6.69966749978049,0.0 -38.581525,-6.69971769978049,0.0 -38.5813035,-6.70023639978047,0.0 -38.5810689,-6.70068149978045,0.0 -38.580845,-6.70098509978044,0.0 -38.5804436,-6.70135839978043,0.0 -38.580034,-6.70209429978041,0.0 -38.5793609,-6.70288849978038,0.0 -38.5792483,-6.70325839978037,0.0 -38.5790562,-6.70419459978034,0.0 -38.5791002,-6.70428629978034,0.0 -38.5792114,-6.70433419978034,0.0 -38.5794078,-6.70430729978034,0.0 -38.5799978,-6.70430679978034,0.0 -38.580109,-6.70435469978034,0.0 -38.5801254,-6.70444969978033,0.0 -38.5715968,-6.70469259978033,0.0 -38.5675861,-6.70482209978032,0.0 -38.5669912,-6.70490749978032,0.0 -38.5633295,-6.70619679978028,0.0 -38.5629369,-6.70627999978027,0.0 -38.5625662,-6.70630669978027,0.0 -38.5619806,-6.70622339978028,0.0 -38.5593683,-6.70587089978029,0.0 -38.5586576,-6.70577509978029,0.0 -38.5567559,-6.7055184997803,0.0 -38.5555023,-6.70501559978032,0.0 -38.5456894,-6.69827029978053,0.0 -38.5453164,-6.69809469978054,0.0 -38.5449112,-6.69805429978054,0.0 -38.54396,-6.69828269978053,0.0 -38.536427,-6.70029529978047,0.0 -38.5357312,-6.70054109978046,0.0 -38.5352087,-6.70086399978045,0.0 -38.5333813,-6.70252359978039,0.0 -38.5328782,-6.70277659978039,0.0 -38.5323956,-6.70284949978038,0.0 -38.5289611,-6.7023823997804,0.0 -38.5237062,-6.70300379978038,0.0 -38.5200695,-6.70374489978036,0.0 -38.5202085,-6.70420169978034,0.0 -38.5201586,-6.70447109978033,0.0 -38.519969,-6.70472049978033,0.0 -38.5196996,-6.70486019978032,0.0 -38.5193105,-6.70497999978031,0.0 -38.5191209,-6.70491009978032,0.0 -38.5191209,-6.70473049978032,0.0 -38.5192007,-6.70457079978033,0.0 -38.5191708,-6.70437129978034,0.0 -38.5189612,-6.70425149978034,0.0 -38.5187317,-6.70427149978034,0.0 -38.5183426,-6.70441119978033,0.0 -38.5164567,-6.70488019978032,0.0 -38.5149001,-6.70496999978032,0.0 -38.5147305,-6.70508969978031,0.0 -38.514481,-6.70510969978031,0.0 -38.5141018,-6.70498989978032,0.0 -38.5134732,-6.70471049978032,0.0 -38.5129045,-6.70471049978033,0.0 -38.5126849,-6.70474049978032,0.0 -38.5122359,-6.70469059978033,0.0 -38.5118767,-6.70473049978032,0.0 -38.5114277,-6.70526929978031,0.0 -38.5109587,-6.7055785997803,0.0 -38.5109088,-6.70572829978029,0.0 -38.5108689,-6.70592789978029,0.0 -38.5107093,-6.70632699978027,0.0 -38.5104398,-6.70628709978027,0.0 -38.5098112,-6.70577819978029,0.0 -38.5094919,-6.70572829978029,0.0 -38.5093123,-6.70586799978029,0.0 -38.5088633,-6.70583809978029,0.0 -38.5084342,-6.70567839978029,0.0 -38.5083245,-6.70584809978029,0.0 -38.5082945,-6.70617729978028,0.0 -38.5084243,-6.70648669978027,0.0 -38.5086837,-6.70663629978026,0.0 -38.5089032,-6.70684589978026,0.0 -38.5088433,-6.70721509978025,0.0 -38.5086338,-6.70742459978024,0.0 -38.5079752,-6.70705539978025,0.0 -38.5075262,-6.70719509978024,0.0 -38.5074564,-6.70736469978024,0.0 -38.5074564,-6.70751439978023,0.0 -38.5074165,-6.70767409978023,0.0 -38.5072069,-6.70774389978023,0.0 -38.5070572,-6.70769399978023,0.0 -38.5070473,-6.70765409978023,0.0 -38.5070572,-6.70747449978024,0.0 -38.5068178,-6.70732479978024,0.0 -38.5064885,-6.70725499978024,0.0 -38.5061792,-6.70734479978024,0.0 -38.5055406,-6.70734479978024,0.0 -38.5047922,-6.70738469978024,0.0 -38.5041636,-6.70737469978024,0.0 -38.5037644,-6.70747449978023,0.0 -38.5036547,-6.70752439978023,0.0 -38.5036148,-6.70767409978023,0.0 -38.5037046,-6.70802329978022,0.0 -38.5037545,-6.70817299978021,0.0 -38.5036746,-6.70839249978021,0.0 -38.5034052,-6.7086718997802,0.0 -38.5033952,-6.70888139978019,0.0 -38.5032556,-6.70909099978018,0.0 -38.5030959,-6.70917079978018,0.0 -38.5030859,-6.70967969978016,0.0 -38.503036,-6.70987919978016,0.0 -38.5029882,-6.70999959978015,0.0 -38.5027467,-6.71060759978014,0.0 -38.5026668,-6.71079719978013,0.0 -38.5027068,-6.71091699978013,0.0 -38.5027766,-6.71098679978012,0.0 -38.5029063,-6.71096689978012,0.0 -38.5030033,-6.71085649978013,0.0 -38.5031957,-6.71063759978014,0.0 -38.5033254,-6.71067749978013,0.0 -38.5034052,-6.71087709978013,0.0 -38.5034551,-6.71096689978012,0.0 -38.503515,-6.71099679978012,0.0 -38.5036647,-6.71097679978012,0.0 -38.5037744,-6.71080719978013,0.0 -38.5040139,-6.71081719978013,0.0 -38.5041636,-6.71087709978013,0.0 -38.5042135,-6.71097679978012,0.0 -38.5041835,-6.71107659978012,0.0 -38.5040937,-6.71116639978012,0.0 -38.503944,-6.71122629978011,0.0 -38.5038443,-6.71131609978011,0.0 -38.5038343,-6.71147579978011,0.0 -38.5038842,-6.7116752997801,0.0 -38.5040139,-6.7118349997801,0.0 -38.5041436,-6.71212429978009,0.0 -38.5041336,-6.71227399978008,0.0 -38.5040339,-6.71264319978007,0.0 -38.5035848,-6.71286269978006,0.0 -38.5034052,-6.71289269978006,0.0 -38.5030432,-6.71312169978006,0.0 -38.5029163,-6.71320199978005,0.0 -38.502607,-6.71329179978005,0.0 -38.5023176,-6.71350129978004,0.0 -38.5019185,-6.71372079978004,0.0 -38.5015692,-6.71392039978003,0.0 -38.5013098,-6.71415989978002,0.0 -38.5009506,-6.71438939978002,0.0 -38.5006712,-6.71465879978,0.0 -38.5004617,-6.71491819978,0.0 -38.500312,-6.71527739977998,0.0 -38.5003319,-6.71544709977998,0.0 -38.5005614,-6.71556679977998,0.0 -38.5008209,-6.71557679977998,0.0 -38.5009506,-6.71564659977997,0.0 -38.5009905,-6.71589609977997,0.0 -38.5009107,-6.71610559977996,0.0 -38.5006512,-6.71628519977995,0.0 -38.5001124,-6.71673429977994,0.0 -38.5000625,-6.71692379977993,0.0 -38.5001823,-6.71710339977993,0.0 -38.5004716,-6.71726309977992,0.0 -38.5011502,-6.7179515997799,0.0 -38.5011402,-6.71823099977989,0.0 -38.5008508,-6.71826089977989,0.0 -38.5007111,-6.71844049977988,0.0 -38.5006712,-6.71861019977988,0.0 -38.5005016,-6.71884959977987,0.0 -38.5002621,-6.71890949977987,0.0 -38.4999029,-6.71898929977987,0.0 -38.4995237,-6.71901929977987,0.0 -38.4993241,-6.71911899977986,0.0 -38.4988652,-6.71925869977986,0.0 -38.4981966,-6.71936849977985,0.0 -38.4978773,-6.71932859977986,0.0 -38.4973185,-6.71932859977986,0.0 -38.4968496,-6.71925869977986,0.0 -38.49666,-6.71929869977985,0.0 -38.4964704,-6.71951819977985,0.0 -38.496201,-6.71947829977985,0.0 -38.4960513,-6.71939839977985,0.0 -38.4959016,-6.71913899977986,0.0 -38.4956023,-6.71898929977986,0.0 -38.494794,-6.71884959977987,0.0 -38.4945646,-6.71919889977986,0.0 -38.4944348,-6.71973769977984,0.0 -38.4943949,-6.72005699977983,0.0 -38.4942342,-6.72026849977983,0.0 -38.4942053,-6.72030639977982,0.0 -38.4942053,-6.72061579977981,0.0 -38.4940457,-6.7209649997798,0.0 -38.4937563,-6.7209948997798,0.0 -38.4935546,-6.7209084997798,0.0 -38.4931277,-6.72072549977981,0.0 -38.4926887,-6.72068559977981,0.0 -38.4923693,-6.72090509977981,0.0 -38.4919702,-6.72135419977979,0.0 -38.4918605,-6.72173329977978,0.0 -38.4918305,-6.72247169977975,0.0 -38.4914314,-6.72323999977973,0.0 -38.4912717,-6.72364909977972,0.0 -38.4909924,-6.7241080997797,0.0 -38.4904635,-6.72467689977968,0.0 -38.4904843,-6.72480479977968,0.0 -38.4905334,-6.72510599977967,0.0 -38.4905034,-6.72535539977966,0.0 -38.4903637,-6.72551509977966,0.0 -38.4901043,-6.72538529977966,0.0 -38.4900375,-6.72537199977966,0.0 -38.489805,-6.72532549977966,0.0 -38.4897451,-6.72533549977966,0.0 -38.4896054,-6.72573459977965,0.0 -38.4894757,-6.72588429977964,0.0 -38.4893759,-6.72593409977964,0.0 -38.4891364,-6.72592419977964,0.0 -38.488857,-6.72589419977964,0.0 -38.4885677,-6.72580439977965,0.0 -38.488428,-6.72584429977965,0.0 -38.4881486,-6.72600399977964,0.0 -38.4879091,-6.72592419977964,0.0 -38.4877395,-6.72596409977964,0.0 -38.4876297,-6.72609379977964,0.0 -38.4875599,-6.72634329977963,0.0 -38.4876397,-6.72650289977963,0.0 -38.4880189,-6.7272013997796,0.0 -38.4882184,-6.7272412997796,0.0 -38.4883282,-6.7272412997796,0.0 -38.4887074,-6.7272013997796,0.0 -38.4889768,-6.7272013997796,0.0 -38.4891963,-6.7272512997796,0.0 -38.4893559,-6.7273509997796,0.0 -38.4894358,-6.72747079977959,0.0 -38.4894358,-6.72755059977959,0.0 -38.4895455,-6.72770029977959,0.0 -38.4897347,-6.72776789977958,0.0 -38.4899347,-6.72781999977958,0.0 -38.4900943,-6.72788989977958,0.0 -38.490244,-6.72802959977957,0.0 -38.4901642,-6.72827899977957,0.0 -38.4900544,-6.72839879977956,0.0 -38.4899445,-6.72847659977956,0.0 -38.4895854,-6.72868809977955,0.0 -38.4895755,-6.72878789977955,0.0 -38.489765,-6.72892759977955,0.0 -38.4901113,-6.72903989977954,0.0 -38.4901342,-6.72904729977954,0.0 -38.4905932,-6.72932669977953,0.0 -38.4907229,-6.72957619977953,0.0 -38.4907629,-6.72973579977952,0.0 -38.4908626,-6.72982559977952,0.0 -38.4909425,-6.72992539977951,0.0 -38.4909524,-6.73018489977951,0.0 -38.4908427,-6.7303943997795,0.0 -38.4906232,-6.7305041997795,0.0 -38.4906075,-6.73071599977949,0.0 -38.4906032,-6.73077359977949,0.0 -38.4906428,-6.73083529977948,0.0 -38.4908527,-6.73116269977947,0.0 -38.4907728,-6.73146209977947,0.0 -38.4907329,-6.73174139977946,0.0 -38.4907423,-6.73182889977945,0.0 -38.4907629,-6.73202079977945,0.0 -38.4906836,-6.73218389977944,0.0 -38.4905932,-6.73237009977943,0.0 -38.490234,-6.73268939977943,0.0 -38.4903637,-6.73290889977942,0.0 -38.4905383,-6.73306399977941,0.0 -38.4906331,-6.73314839977941,0.0 -38.4907229,-6.7333578997794,0.0 -38.4906331,-6.73365729977939,0.0 -38.4904218,-6.73376879977939,0.0 -38.4902739,-6.73384679977939,0.0 -38.4899546,-6.73398649977938,0.0 -38.489765,-6.73416609977938,0.0 -38.4897351,-6.73453529977937,0.0 -38.489775,-6.73482469977936,0.0 -38.4900744,-6.73550319977934,0.0 -38.4899147,-6.73606199977932,0.0 -38.4900052,-6.73629079977931,0.0 -38.4900245,-6.7365409997793,0.0 -38.4898249,-6.73677049977929,0.0 -38.4895455,-6.73695009977929,0.0 -38.4894757,-6.73721949977928,0.0 -38.4893958,-6.73734919977928,0.0 -38.489326,-6.73737909977927,0.0 -38.4889468,-6.73735919977927,0.0 -38.4885178,-6.73711969977928,0.0 -38.4882883,-6.73700989977929,0.0 -38.4879789,-6.73696999977929,0.0 -38.4876696,-6.73702989977928,0.0 -38.4874701,-6.73703989977929,0.0 -38.4874509,-6.73703179977929,0.0 -38.487021,-6.73685029977929,0.0 -38.4861529,-6.7366406997793,0.0 -38.4857638,-6.7366207997793,0.0 -38.4854146,-6.73681039977929,0.0 -38.4853048,-6.73693009977929,0.0 -38.485215,-6.73710969977928,0.0 -38.4852074,-6.73728419977928,0.0 -38.485205,-6.73733919977928,0.0 -38.4850753,-6.73768839977927,0.0 -38.484776,-6.73775829977926,0.0 -38.484498,-6.73776699977926,0.0 -38.4844566,-6.73776829977926,0.0 -38.4842827,-6.73784489977926,0.0 -38.4842885,-6.73790959977926,0.0 -38.4843418,-6.73834059977924,0.0 -38.4849646,-6.73890099977923,0.0 -38.4850437,-6.73888569977922,0.0 -38.4863162,-6.73863949977923,0.0 -38.4868226,-6.73863399977923,0.0 -38.4875393,-6.73925749977921,0.0 -38.4878204,-6.7397885997792,0.0 -38.4882474,-6.74072579977917,0.0 -38.4886639,-6.74124639977915,0.0 -38.4891845,-6.74156919977914,0.0 -38.4898822,-6.74186079977913,0.0 -38.4902987,-6.74198569977913,0.0 -38.4903716,-6.74235019977912,0.0 -38.4903508,-6.7429019997791,0.0 -38.4903716,-6.74315199977909,0.0 -38.4904341,-6.74344349977908,0.0 -38.4903508,-6.74377669977907,0.0 -38.4901842,-6.74389129977907,0.0 -38.4899863,-6.74406829977906,0.0 -38.4897885,-6.74415159977906,0.0 -38.4896801,-6.74429629977905,0.0</coordinates>
</LinearRing>
</outerBoundaryIs>
</Polygon>
</MultiGeometry>
</Placemark>
</Folder>
</Document></kml>
