<?xml version='1.0' encoding='UTF-8'?>
<kml xmlns:xsd="http://www.w3.org/2001/XMLSchema" xmlns:gx="http://www.google.com/kml/ext/2.2" xmlns:atom="http://www.w3.org/2005/Atom" xmlns="http://www.opengis.net/kml/2.2">
<Document>
<name>jardim_de_piranhas_2405603_localidades_2022</name>
<visibility>1</visibility>
<Schema name="Povoados" id="kml_schema_ft_Povoados">
<SimpleField type="xsd:string" name="CD_UF">
<displayName>CD_UF</displayName>
</SimpleField>
<SimpleField type="xsd:string" name="NM_UF">
<displayName>NM_UF</displayName>
</SimpleField>
<SimpleField type="xsd:string" name="SIGLA_UF">
<displayName>SIGLA_UF</displayName>
</SimpleField>
<SimpleField type="xsd:string" name="CD_MUN">
<displayName>CD_MUN</displayName>
</SimpleField>
<SimpleField type="xsd:string" name="NM_MUN">
<displayName>NM_MUN</displayName>
</SimpleField>
<SimpleField type="xsd:string" name="CD_RGINT">
<displayName>CD_RGINT</displayName>
</SimpleField>
<SimpleField type="xsd:string" name="NM_RGINT">
<displayName>NM_RGINT</displayName>
</SimpleField>
<SimpleField type="xsd:string" name="CD_RGI">
<displayName>CD_RGI</displayName>
</SimpleField>
<SimpleField type="xsd:string" name="NM_RGI">
<displayName>NM_RGI</displayName>
</SimpleField>
<SimpleField type="xsd:string" name="CT_LOCALIDADE">
<displayName>CT_LOCALIDADE</displayName>
</SimpleField>
<SimpleField type="xsd:string" name="CD_LOCALIDADE">
<displayName>CD_LOCALIDADE</displayName>
</SimpleField>
<SimpleField type="xsd:string" name="NM_LOCALIDADE">
<displayName>NM_LOCALIDADE</displayName>
</SimpleField>
<SimpleField type="xsd:string" name="LAT_LOCALIDADE">
<displayName>LAT_LOCALIDADE</displayName>
</SimpleField>
<SimpleField type="xsd:string" name="LONG_LOCALIDADE">
<displayName>LONG_LOCALIDADE</displayName>
</SimpleField>
</Schema>
<Schema name="01. Cidade" id="kml_schema_ft_01._Cidade">
<SimpleField type="xsd:string" name="CD_UF">
<displayName>CD_UF</displayName>
</SimpleField>
<SimpleField type="xsd:string" name="NM_UF">
<displayName>NM_UF</displayName>
</SimpleField>
<SimpleField type="xsd:string" name="SIGLA_UF">
<displayName>SIGLA_UF</displayName>
</SimpleField>
<SimpleField type="xsd:string" name="CD_MUN">
<displayName>CD_MUN</displayName>
</SimpleField>
<SimpleField type="xsd:string" name="NM_MUN">
<displayName>NM_MUN</displayName>
</SimpleField>
<SimpleField type="xsd:string" name="CD_RGINT">
<displayName>CD_RGINT</displayName>
</SimpleField>
<SimpleField type="xsd:string" name="NM_RGINT">
<displayName>NM_RGINT</displayName>
</SimpleField>
<SimpleField type="xsd:string" name="CD_RGI">
<displayName>CD_RGI</displayName>
</SimpleField>
<SimpleField type="xsd:string" name="NM_RGI">
<displayName>NM_RGI</displayName>
</SimpleField>
<SimpleField type="xsd:string" name="CT_LOCALIDADE">
<displayName>CT_LOCALIDADE</displayName>
</SimpleField>
<SimpleField type="xsd:string" name="SCT_LOCALIDADE">
<displayName>SCT_LOCALIDADE</displayName>
</SimpleField>
<SimpleField type="xsd:string" name="CD_LOCALIDADE">
<displayName>CD_LOCALIDADE</displayName>
</SimpleField>
<SimpleField type="xsd:string" name="NM_LOCALIDADE">
<displayName>NM_LOCALIDADE</displayName>
</SimpleField>
<SimpleField type="xsd:string" name="LAT_LOCALIDADE">
<displayName>LAT_LOCALIDADE</displayName>
</SimpleField>
<SimpleField type="xsd:string" name="LONG_LOCALIDADE">
<displayName>LONG_LOCALIDADE</displayName>
</SimpleField>
</Schema>
<Schema name="Município" id="kml_schema_ft_Município">
<SimpleField type="xsd:string" name="CD_UF">
<displayName>CD_UF</displayName>
</SimpleField>
<SimpleField type="xsd:string" name="NM_UF">
<displayName>NM_UF</displayName>
</SimpleField>
<SimpleField type="xsd:string" name="CD_MUN">
<displayName>CD_MUN</displayName>
</SimpleField>
<SimpleField type="xsd:string" name="NM_MUN">
<displayName>NM_MUN</displayName>
</SimpleField>
<SimpleField type="xsd:string" name="CD_RGINT">
<displayName>CD_RGINT</displayName>
</SimpleField>
<SimpleField type="xsd:string" name="NM_RGINT">
<displayName>NM_RGINT</displayName>
</SimpleField>
<SimpleField type="xsd:string" name="CD_RGI">
<displayName>CD_RGI</displayName>
</SimpleField>
<SimpleField type="xsd:string" name="NM_RGI">
<displayName>NM_RGI</displayName>
</SimpleField>
</Schema>
<Folder id="01. Cidade">
<name>01. Cidade</name>
<Folder id="01.03. Sede Municipal">
<name>01.03. Sede Municipal</name>
<Placemark id="01.03. Sede Municipal">
<name>Jardim de Piranhas [2405603]</name>
<visibility>1</visibility>
<snippet> </snippet>
<description>&lt;center&gt;&lt;table&gt;&lt;tr&gt;&lt;th colspan='2' align='center'&gt;&lt;em&gt;Atributos&lt;/em&gt;&lt;/th&gt;&lt;/tr&gt;&lt;tr bgcolor="#E3E3F3"&gt;
&lt;th&gt;CD_UF&lt;/th&gt;
&lt;td&gt;24&lt;/td&gt;
&lt;/tr&gt;&lt;tr bgcolor=""&gt;
&lt;th&gt;NM_UF&lt;/th&gt;
&lt;td&gt;Rio Grande do Norte&lt;/td&gt;
&lt;/tr&gt;&lt;tr bgcolor="#E3E3F3"&gt;
&lt;th&gt;SIGLA_UF&lt;/th&gt;
&lt;td&gt;RN&lt;/td&gt;
&lt;/tr&gt;&lt;tr bgcolor=""&gt;
&lt;th&gt;CD_MUN&lt;/th&gt;
&lt;td&gt;2405603&lt;/td&gt;
&lt;/tr&gt;&lt;tr bgcolor="#E3E3F3"&gt;
&lt;th&gt;NM_MUN&lt;/th&gt;
&lt;td&gt;Jardim de Piranhas&lt;/td&gt;
&lt;/tr&gt;&lt;tr bgcolor=""&gt;
&lt;th&gt;CD_RGINT&lt;/th&gt;
&lt;td&gt;2402&lt;/td&gt;
&lt;/tr&gt;&lt;tr bgcolor="#E3E3F3"&gt;
&lt;th&gt;NM_RGINT&lt;/th&gt;
&lt;td&gt;Caicó&lt;/td&gt;
&lt;/tr&gt;&lt;tr bgcolor=""&gt;
&lt;th&gt;CD_RGI&lt;/th&gt;
&lt;td&gt;240007&lt;/td&gt;
&lt;/tr&gt;&lt;tr bgcolor="#E3E3F3"&gt;
&lt;th&gt;NM_RGI&lt;/th&gt;
&lt;td&gt;Caicó&lt;/td&gt;
&lt;/tr&gt;&lt;tr bgcolor=""&gt;
&lt;th&gt;CT_LOCALIDADE&lt;/th&gt;
&lt;td&gt;Cidade&lt;/td&gt;
&lt;/tr&gt;&lt;tr bgcolor="#E3E3F3"&gt;
&lt;th&gt;SCT_LOCALIDADE&lt;/th&gt;
&lt;td&gt;Sede Municipal&lt;/td&gt;
&lt;/tr&gt;&lt;tr bgcolor=""&gt;
&lt;th&gt;CD_LOCALIDADE&lt;/th&gt;
&lt;td&gt;2405603&lt;/td&gt;
&lt;/tr&gt;&lt;tr bgcolor="#E3E3F3"&gt;
&lt;th&gt;NM_LOCALIDADE&lt;/th&gt;
&lt;td&gt;Jardim de Piranhas&lt;/td&gt;
&lt;/tr&gt;&lt;tr bgcolor=""&gt;
&lt;th&gt;LAT_LOCALIDADE&lt;/th&gt;
&lt;td&gt;-6.3791&lt;/td&gt;
&lt;/tr&gt;&lt;tr bgcolor="#E3E3F3"&gt;
&lt;th&gt;LONG_LOCALIDADE&lt;/th&gt;
&lt;td&gt;-37.3494&lt;/td&gt;
&lt;/tr&gt;&lt;/table&gt;&lt;/center&gt;</description>
<Style>
<IconStyle>
<color>ff00aaff</color>
<scale>1.0</scale>
<Icon>
<href>http://maps.google.com/mapfiles/kml/shapes/placemark_circle.png</href>
</Icon>
</IconStyle>
<LabelStyle>
<scale>1.0</scale>
</LabelStyle>
<LineStyle>
<color>ffffffff</color>
<width>3</width>
<gx:labelVisibility>1</gx:labelVisibility>
</LineStyle>
<PolyStyle>
<color>00ffffff</color>
</PolyStyle>
</Style>
<ExtendedData>
<SchemaData schemaUrl="#kml_schema_ft_01._Cidade">
<SimpleData name="CD_UF">24</SimpleData>
<SimpleData name="NM_UF">Rio Grande do Norte</SimpleData>
<SimpleData name="SIGLA_UF">RN</SimpleData>
<SimpleData name="CD_MUN">2405603</SimpleData>
<SimpleData name="NM_MUN">Jardim de Piranhas</SimpleData>
<SimpleData name="CD_RGINT">2402</SimpleData>
<SimpleData name="NM_RGINT">Caicó</SimpleData>
<SimpleData name="CD_RGI">240007</SimpleData>
<SimpleData name="NM_RGI">Caicó</SimpleData>
<SimpleData name="CT_LOCALIDADE">Cidade</SimpleData>
<SimpleData name="SCT_LOCALIDADE">Sede Municipal</SimpleData>
<SimpleData name="CD_LOCALIDADE">2405603</SimpleData>
<SimpleData name="NM_LOCALIDADE">Jardim de Piranhas</SimpleData>
<SimpleData name="LAT_LOCALIDADE">-6.3791</SimpleData>
<SimpleData name="LONG_LOCALIDADE">-37.3494</SimpleData>
</SchemaData>
</ExtendedData>
<Point>
<extrude>0</extrude>
<coordinates>-37.349373,-6.37911599979081,0.0</coordinates>
</Point>
</Placemark>
</Folder>
</Folder>
<Folder id="06. Povoados">
<name>06. Povoados</name>
<Placemark id="06. Povoados">
<name>Timbaubinha [240560300001]</name>
<visibility>1</visibility>
<snippet> </snippet>
<description>&lt;center&gt;&lt;table&gt;&lt;tr&gt;&lt;th colspan='2' align='center'&gt;&lt;em&gt;Atributos&lt;/em&gt;&lt;/th&gt;&lt;/tr&gt;&lt;tr bgcolor="#E3E3F3"&gt;
&lt;th&gt;CD_UF&lt;/th&gt;
&lt;td&gt;24&lt;/td&gt;
&lt;/tr&gt;&lt;tr bgcolor=""&gt;
&lt;th&gt;NM_UF&lt;/th&gt;
&lt;td&gt;Rio Grande do Norte&lt;/td&gt;
&lt;/tr&gt;&lt;tr bgcolor="#E3E3F3"&gt;
&lt;th&gt;SIGLA_UF&lt;/th&gt;
&lt;td&gt;RN&lt;/td&gt;
&lt;/tr&gt;&lt;tr bgcolor=""&gt;
&lt;th&gt;CD_MUN&lt;/th&gt;
&lt;td&gt;2405603&lt;/td&gt;
&lt;/tr&gt;&lt;tr bgcolor="#E3E3F3"&gt;
&lt;th&gt;NM_MUN&lt;/th&gt;
&lt;td&gt;Jardim de Piranhas&lt;/td&gt;
&lt;/tr&gt;&lt;tr bgcolor=""&gt;
&lt;th&gt;CD_RGINT&lt;/th&gt;
&lt;td&gt;2402&lt;/td&gt;
&lt;/tr&gt;&lt;tr bgcolor="#E3E3F3"&gt;
&lt;th&gt;NM_RGINT&lt;/th&gt;
&lt;td&gt;Caicó&lt;/td&gt;
&lt;/tr&gt;&lt;tr bgcolor=""&gt;
&lt;th&gt;CD_RGI&lt;/th&gt;
&lt;td&gt;240007&lt;/td&gt;
&lt;/tr&gt;&lt;tr bgcolor="#E3E3F3"&gt;
&lt;th&gt;NM_RGI&lt;/th&gt;
&lt;td&gt;Caicó&lt;/td&gt;
&lt;/tr&gt;&lt;tr bgcolor=""&gt;
&lt;th&gt;CT_LOCALIDADE&lt;/th&gt;
&lt;td&gt;Povoado&lt;/td&gt;
&lt;/tr&gt;&lt;tr bgcolor="#E3E3F3"&gt;
&lt;th&gt;CD_LOCALIDADE&lt;/th&gt;
&lt;td&gt;240560300001&lt;/td&gt;
&lt;/tr&gt;&lt;tr bgcolor=""&gt;
&lt;th&gt;NM_LOCALIDADE&lt;/th&gt;
&lt;td&gt;Timbaubinha&lt;/td&gt;
&lt;/tr&gt;&lt;tr bgcolor="#E3E3F3"&gt;
&lt;th&gt;LAT_LOCALIDADE&lt;/th&gt;
&lt;td&gt;-6.3601&lt;/td&gt;
&lt;/tr&gt;&lt;tr bgcolor=""&gt;
&lt;th&gt;LONG_LOCALIDADE&lt;/th&gt;
&lt;td&gt;-37.3406&lt;/td&gt;
&lt;/tr&gt;&lt;/table&gt;&lt;/center&gt;</description>
<Style>
<IconStyle>
<color>ff00ff54</color>
<scale>0.8</scale>
<Icon>
<href>http://maps.google.com/mapfiles/kml/shapes/placemark_circle.png</href>
</Icon>
</IconStyle>
<LabelStyle>
<scale>0.8</scale>
</LabelStyle>
<LineStyle>
<color>72ff54ff</color>
<width>1.0</width>
<gx:labelVisibility>1</gx:labelVisibility>
</LineStyle>
<PolyStyle>
<color>66ff54ff</color>
</PolyStyle>
</Style>
<ExtendedData>
<SchemaData schemaUrl="#kml_schema_ft_Povoados">
<SimpleData name="CD_UF">24</SimpleData>
<SimpleData name="NM_UF">Rio Grande do Norte</SimpleData>
<SimpleData name="SIGLA_UF">RN</SimpleData>
<SimpleData name="CD_MUN">2405603</SimpleData>
<SimpleData name="NM_MUN">Jardim de Piranhas</SimpleData>
<SimpleData name="CD_RGINT">2402</SimpleData>
<SimpleData name="NM_RGINT">Caicó</SimpleData>
<SimpleData name="CD_RGI">240007</SimpleData>
<SimpleData name="NM_RGI">Caicó</SimpleData>
<SimpleData name="CT_LOCALIDADE">Povoado</SimpleData>
<SimpleData name="CD_LOCALIDADE">240560300001</SimpleData>
<SimpleData name="NM_LOCALIDADE">Timbaubinha</SimpleData>
<SimpleData name="LAT_LOCALIDADE">-6.3601</SimpleData>
<SimpleData name="LONG_LOCALIDADE">-37.3406</SimpleData>
</SchemaData>
</ExtendedData>
<Point>
<extrude>0</extrude>
<coordinates>-37.3405885434904,-6.36008177721671,0.0</coordinates>
</Point>
</Placemark>
</Folder>
<Folder id="13. Referência">
<name>13. Referência</name>
<Placemark id="13. Referência">
<name>Jardim de Piranhas [2405603]</name>
<visibility>1</visibility>
<snippet> </snippet>
<description>&lt;center&gt;&lt;table&gt;&lt;tr&gt;&lt;th colspan='2' align='center'&gt;&lt;em&gt;Attributes&lt;/em&gt;&lt;/th&gt;&lt;/tr&gt;&lt;tr bgcolor="#E3E3F3"&gt;
&lt;th&gt;CD_UF&lt;/th&gt;
&lt;td&gt;24&lt;/td&gt;
&lt;/tr&gt;&lt;tr bgcolor=""&gt;
&lt;th&gt;NM_UF&lt;/th&gt;
&lt;td&gt;Rio Grande do Norte&lt;/td&gt;
&lt;/tr&gt;&lt;tr bgcolor="#E3E3F3"&gt;
&lt;th&gt;CD_MUN&lt;/th&gt;
&lt;td&gt;2405603&lt;/td&gt;
&lt;/tr&gt;&lt;tr bgcolor=""&gt;
&lt;th&gt;NM_MUN&lt;/th&gt;
&lt;td&gt;Jardim de Piranhas&lt;/td&gt;
&lt;/tr&gt;&lt;tr bgcolor="#E3E3F3"&gt;
&lt;th&gt;CD_RGINT&lt;/th&gt;
&lt;td&gt;2402&lt;/td&gt;
&lt;/tr&gt;&lt;tr bgcolor=""&gt;
&lt;th&gt;NM_RGINT&lt;/th&gt;
&lt;td&gt;Caicó&lt;/td&gt;
&lt;/tr&gt;&lt;tr bgcolor="#E3E3F3"&gt;
&lt;th&gt;CD_RGI&lt;/th&gt;
&lt;td&gt;240007&lt;/td&gt;
&lt;/tr&gt;&lt;tr bgcolor=""&gt;
&lt;th&gt;NM_RGI&lt;/th&gt;
&lt;td&gt;Caicó&lt;/td&gt;
&lt;/tr&gt;&lt;/table&gt;&lt;/center&gt;</description>
<Style>
<IconStyle>
<scale>0.7</scale>
</IconStyle>
<LabelStyle>
<scale>0.7</scale>
</LabelStyle>
<LineStyle>
<color>ffffffff</color>
<width>3</width>
<gx:labelVisibility>1</gx:labelVisibility>
</LineStyle>
<PolyStyle>
<color>00ffffff</color>
</PolyStyle>
</Style>
<ExtendedData>
<SchemaData schemaUrl="#kml_schema_ft_Município">
<SimpleData name="CD_UF">24</SimpleData>
<SimpleData name="NM_UF">Rio Grande do Norte</SimpleData>
<SimpleData name="CD_MUN">2405603</SimpleData>
<SimpleData name="NM_MUN">Jardim de Piranhas</SimpleData>
<SimpleData name="CD_RGINT">2402</SimpleData>
<SimpleData name="NM_RGINT">Caicó</SimpleData>
<SimpleData name="CD_RGI">240007</SimpleData>
<SimpleData name="NM_RGI">Caicó</SimpleData>
</SchemaData>
</ExtendedData>
<MultiGeometry>
<Polygon>
<extrude>0</extrude>
<tessellate>1</tessellate>
<outerBoundaryIs>
<LinearRing>
<coordinates>-37.3813126,-6.43679889978895,0.0 -37.3814943,-6.43597529978898,0.0 -37.3815152,-6.43588019978898,0.0 -37.3816795,-6.435135199789,0.0 -37.3827862,-6.43360479978905,0.0 -37.3843534,-6.43276969978908,0.0 -37.3851544,-6.43161539978912,0.0 -37.3855716,-6.42857459978921,0.0 -37.3865951,-6.42603769978929,0.0 -37.3890643,-6.42372679978937,0.0 -37.3957741,-6.42012229978949,0.0 -37.39752,-6.41809879978955,0.0 -37.397595,-6.41719239978958,0.0 -37.3976699,-6.41628579978961,0.0 -37.3954812,-6.40989999978982,0.0 -37.3971612,-6.40506309978997,0.0 -37.3961239,-6.4011440997901,0.0 -37.3936025,-6.39700449979023,0.0 -37.388831,-6.39097929979042,0.0 -37.3884518,-6.38951379979047,0.0 -37.388214,-6.38722249979055,0.0 -37.3885489,-6.37973389979079,0.0 -37.3824487,-6.37341479979099,0.0 -37.3824459,-6.37341149979099,0.0 -37.3820012,-6.373041699791,0.0 -37.3819608,-6.373008099791,0.0 -37.377541,-6.36933209979112,0.0 -37.3763169,-6.35577189979156,0.0 -37.3778123,-6.35087689979172,0.0 -37.3778468,-6.35043859979173,0.0 -37.3781181,-6.34700639979184,0.0 -37.3773288,-6.34439259979193,0.0 -37.3719617,-6.33654669979218,0.0 -37.3705965,-6.33255549979231,0.0 -37.3668119,-6.32739669979248,0.0 -37.3665279,-6.32558269979253,0.0 -37.3633533,-6.32216559979264,0.0 -37.3549737,-6.3173496997928,0.0 -37.3511056,-6.31436919979289,0.0 -37.3430405,-6.31209599979297,0.0 -37.3348021,-6.30882079979308,0.0 -37.333958,-6.30833999979309,0.0 -37.3304244,-6.30632759979316,0.0 -37.3281923,-6.30320399979325,0.0 -37.3214502,-6.28281219979391,0.0 -37.3199389,-6.28055919979399,0.0 -37.3185236,-6.27965469979401,0.0 -37.3183254,-6.27952799979402,0.0 -37.3169756,-6.27866549979405,0.0 -37.3150945,-6.27815219979406,0.0 -37.3097759,-6.27777509979408,0.0 -37.3064581,-6.27806509979407,0.0 -37.3042003,-6.27826249979406,0.0 -37.30101,-6.27962839979401,0.0 -37.2868492,-6.28226559979393,0.0 -37.2786666,-6.28245569979392,0.0 -37.2747265,-6.28142609979396,0.0 -37.2731386,-6.279972199794,0.0 -37.2728639,-6.27489599979417,0.0 -37.2734977,-6.26982419979433,0.0 -37.2730128,-6.26315229979455,0.0 -37.2705525,-6.25171439979492,0.0 -37.2648241,-6.24357569979518,0.0 -37.259452,-6.23778639979536,0.0 -37.2515274,-6.22645829979573,0.0 -37.2450681,-6.22056629979592,0.0 -37.240731,-6.21888399979597,0.0 -37.2342715,-6.21327829979616,0.0 -37.2341453,-6.21325289979616,0.0 -37.2336032,-6.21314379979616,0.0 -37.2126799,-6.2089303997963,0.0 -37.2015813,-6.2057039997964,0.0 -37.1996754,-6.20408459979645,0.0 -37.1977686,-6.20246459979651,0.0 -37.1942385,-6.19824709979664,0.0 -37.1935209,-6.19585249979672,0.0 -37.1935238,-6.18425309979709,0.0 -37.1929439,-6.18307979979713,0.0 -37.1885074,-6.18066629979721,0.0 -37.1809074,-6.1809223997972,0.0 -37.174221,-6.18010359979723,0.0 -37.1656835,-6.17037449979754,0.0 -37.1634534,-6.16616829979768,0.0 -37.1624195,-6.15986369979788,0.0 -37.1613391,-6.15752789979796,0.0 -37.156923,-6.15248819979812,0.0 -37.1553316,-6.15208269979813,0.0 -37.1515487,-6.15236119979812,0.0 -37.1456207,-6.15060069979818,0.0 -37.1434117,-6.15084789979817,0.0 -37.1403861,-6.15235659979812,0.0 -37.1329634,-6.15418219979807,0.0 -37.1302672,-6.15601199979801,0.0 -37.1266757,-6.15687719979798,0.0 -37.1281924,-6.15807839979794,0.0 -37.1296802,-6.16130989979783,0.0 -37.1353053,-6.16729759979764,0.0 -37.1370151,-6.16984139979756,0.0 -37.1372288,-6.17074809979753,0.0 -37.1366826,-6.1716170997975,0.0 -37.1331629,-6.17457619979741,0.0 -37.133196,-6.17544799979738,0.0 -37.1391714,-6.17905379979726,0.0 -37.1407196,-6.1809517997972,0.0 -37.1446985,-6.18363059979711,0.0 -37.148442,-6.1842128997971,0.0 -37.1506632,-6.18498649979707,0.0 -37.1542272,-6.18921759979693,0.0 -37.1546816,-6.19055949979689,0.0 -37.1542384,-6.19234059979683,0.0 -37.1544231,-6.19288669979681,0.0 -37.1551896,-6.19386069979678,0.0 -37.1578531,-6.1964581997967,0.0 -37.1589396,-6.19842999979663,0.0 -37.163003,-6.20134519979654,0.0 -37.1648167,-6.20155999979653,0.0 -37.1688327,-6.20104909979655,0.0 -37.1721504,-6.20182939979652,0.0 -37.1738594,-6.20223099979651,0.0 -37.1743701,-6.20295619979649,0.0 -37.1750934,-6.20644389979638,0.0 -37.1791587,-6.2087200997963,0.0 -37.1812864,-6.20953619979628,0.0 -37.1830944,-6.20970319979627,0.0 -37.1879706,-6.20951689979628,0.0 -37.1923181,-6.21179049979621,0.0 -37.1930473,-6.21227169979619,0.0 -37.1997,-6.21878619979598,0.0 -37.2045869,-6.22279169979585,0.0 -37.2070794,-6.22483469979578,0.0 -37.2086447,-6.22570939979575,0.0 -37.2162852,-6.2272543997957,0.0 -37.2199109,-6.2306447997956,0.0 -37.2214197,-6.23410789979548,0.0 -37.2166198,-6.24546249979512,0.0 -37.2173209,-6.27483199979417,0.0 -37.2183852,-6.31942109979273,0.0 -37.2186586,-6.33096839979236,0.0 -37.2193792,-6.36158939979137,0.0 -37.2195321,-6.36808709979116,0.0 -37.2608993,-6.40432339979,0.0 -37.2888114,-6.42872869978921,0.0 -37.3184792,-6.45466909978837,0.0 -37.3805415,-6.43730719978893,0.0 -37.3812466,-6.43709649978894,0.0 -37.3813126,-6.43679889978895,0.0</coordinates>
</LinearRing>
</outerBoundaryIs>
</Polygon>
</MultiGeometry>
</Placemark>
</Folder>
</Document></kml>
