<?xml version='1.0' encoding='UTF-8'?>
<kml xmlns:xsd="http://www.w3.org/2001/XMLSchema" xmlns:gx="http://www.google.com/kml/ext/2.2" xmlns:atom="http://www.w3.org/2005/Atom" xmlns="http://www.opengis.net/kml/2.2">
<Document>
<name>vera_cruz_2414803_localidades_2022</name>
<visibility>1</visibility>
<Schema name="Povoados" id="kml_schema_ft_Povoados">
<SimpleField type="xsd:string" name="CD_UF">
<displayName>CD_UF</displayName>
</SimpleField>
<SimpleField type="xsd:string" name="NM_UF">
<displayName>NM_UF</displayName>
</SimpleField>
<SimpleField type="xsd:string" name="SIGLA_UF">
<displayName>SIGLA_UF</displayName>
</SimpleField>
<SimpleField type="xsd:string" name="CD_MUN">
<displayName>CD_MUN</displayName>
</SimpleField>
<SimpleField type="xsd:string" name="NM_MUN">
<displayName>NM_MUN</displayName>
</SimpleField>
<SimpleField type="xsd:string" name="CD_RGINT">
<displayName>CD_RGINT</displayName>
</SimpleField>
<SimpleField type="xsd:string" name="NM_RGINT">
<displayName>NM_RGINT</displayName>
</SimpleField>
<SimpleField type="xsd:string" name="CD_RGI">
<displayName>CD_RGI</displayName>
</SimpleField>
<SimpleField type="xsd:string" name="NM_RGI">
<displayName>NM_RGI</displayName>
</SimpleField>
<SimpleField type="xsd:string" name="CT_LOCALIDADE">
<displayName>CT_LOCALIDADE</displayName>
</SimpleField>
<SimpleField type="xsd:string" name="CD_LOCALIDADE">
<displayName>CD_LOCALIDADE</displayName>
</SimpleField>
<SimpleField type="xsd:string" name="NM_LOCALIDADE">
<displayName>NM_LOCALIDADE</displayName>
</SimpleField>
<SimpleField type="xsd:string" name="LAT_LOCALIDADE">
<displayName>LAT_LOCALIDADE</displayName>
</SimpleField>
<SimpleField type="xsd:string" name="LONG_LOCALIDADE">
<displayName>LONG_LOCALIDADE</displayName>
</SimpleField>
</Schema>
<Schema name="Núcleos Urbanos" id="kml_schema_ft_Núcleos_Urbanos">
<SimpleField type="xsd:string" name="CD_UF">
<displayName>CD_UF</displayName>
</SimpleField>
<SimpleField type="xsd:string" name="NM_UF">
<displayName>NM_UF</displayName>
</SimpleField>
<SimpleField type="xsd:string" name="SIGLA_UF">
<displayName>SIGLA_UF</displayName>
</SimpleField>
<SimpleField type="xsd:string" name="CD_MUN">
<displayName>CD_MUN</displayName>
</SimpleField>
<SimpleField type="xsd:string" name="NM_MUN">
<displayName>NM_MUN</displayName>
</SimpleField>
<SimpleField type="xsd:string" name="CD_RGINT">
<displayName>CD_RGINT</displayName>
</SimpleField>
<SimpleField type="xsd:string" name="NM_RGINT">
<displayName>NM_RGINT</displayName>
</SimpleField>
<SimpleField type="xsd:string" name="CD_RGI">
<displayName>CD_RGI</displayName>
</SimpleField>
<SimpleField type="xsd:string" name="NM_RGI">
<displayName>NM_RGI</displayName>
</SimpleField>
<SimpleField type="xsd:string" name="CT_LOCALIDADE">
<displayName>CT_LOCALIDADE</displayName>
</SimpleField>
<SimpleField type="xsd:string" name="CD_LOCALIDADE">
<displayName>CD_LOCALIDADE</displayName>
</SimpleField>
<SimpleField type="xsd:string" name="NM_LOCALIDADE">
<displayName>NM_LOCALIDADE</displayName>
</SimpleField>
<SimpleField type="xsd:string" name="LAT_LOCALIDADE">
<displayName>LAT_LOCALIDADE</displayName>
</SimpleField>
<SimpleField type="xsd:string" name="LONG_LOCALIDADE">
<displayName>LONG_LOCALIDADE</displayName>
</SimpleField>
</Schema>
<Schema name="01. Cidade" id="kml_schema_ft_01._Cidade">
<SimpleField type="xsd:string" name="CD_UF">
<displayName>CD_UF</displayName>
</SimpleField>
<SimpleField type="xsd:string" name="NM_UF">
<displayName>NM_UF</displayName>
</SimpleField>
<SimpleField type="xsd:string" name="SIGLA_UF">
<displayName>SIGLA_UF</displayName>
</SimpleField>
<SimpleField type="xsd:string" name="CD_MUN">
<displayName>CD_MUN</displayName>
</SimpleField>
<SimpleField type="xsd:string" name="NM_MUN">
<displayName>NM_MUN</displayName>
</SimpleField>
<SimpleField type="xsd:string" name="CD_RGINT">
<displayName>CD_RGINT</displayName>
</SimpleField>
<SimpleField type="xsd:string" name="NM_RGINT">
<displayName>NM_RGINT</displayName>
</SimpleField>
<SimpleField type="xsd:string" name="CD_RGI">
<displayName>CD_RGI</displayName>
</SimpleField>
<SimpleField type="xsd:string" name="NM_RGI">
<displayName>NM_RGI</displayName>
</SimpleField>
<SimpleField type="xsd:string" name="CT_LOCALIDADE">
<displayName>CT_LOCALIDADE</displayName>
</SimpleField>
<SimpleField type="xsd:string" name="SCT_LOCALIDADE">
<displayName>SCT_LOCALIDADE</displayName>
</SimpleField>
<SimpleField type="xsd:string" name="CD_LOCALIDADE">
<displayName>CD_LOCALIDADE</displayName>
</SimpleField>
<SimpleField type="xsd:string" name="NM_LOCALIDADE">
<displayName>NM_LOCALIDADE</displayName>
</SimpleField>
<SimpleField type="xsd:string" name="LAT_LOCALIDADE">
<displayName>LAT_LOCALIDADE</displayName>
</SimpleField>
<SimpleField type="xsd:string" name="LONG_LOCALIDADE">
<displayName>LONG_LOCALIDADE</displayName>
</SimpleField>
</Schema>
<Schema name="Município" id="kml_schema_ft_Município">
<SimpleField type="xsd:string" name="CD_UF">
<displayName>CD_UF</displayName>
</SimpleField>
<SimpleField type="xsd:string" name="NM_UF">
<displayName>NM_UF</displayName>
</SimpleField>
<SimpleField type="xsd:string" name="CD_MUN">
<displayName>CD_MUN</displayName>
</SimpleField>
<SimpleField type="xsd:string" name="NM_MUN">
<displayName>NM_MUN</displayName>
</SimpleField>
<SimpleField type="xsd:string" name="CD_RGINT">
<displayName>CD_RGINT</displayName>
</SimpleField>
<SimpleField type="xsd:string" name="NM_RGINT">
<displayName>NM_RGINT</displayName>
</SimpleField>
<SimpleField type="xsd:string" name="CD_RGI">
<displayName>CD_RGI</displayName>
</SimpleField>
<SimpleField type="xsd:string" name="NM_RGI">
<displayName>NM_RGI</displayName>
</SimpleField>
</Schema>
<Folder id="01. Cidade">
<name>01. Cidade</name>
<Folder id="01.03. Sede Municipal">
<name>01.03. Sede Municipal</name>
<Placemark id="01.03. Sede Municipal">
<name>Vera Cruz [2414803]</name>
<visibility>1</visibility>
<snippet> </snippet>
<description>&lt;center&gt;&lt;table&gt;&lt;tr&gt;&lt;th colspan='2' align='center'&gt;&lt;em&gt;Atributos&lt;/em&gt;&lt;/th&gt;&lt;/tr&gt;&lt;tr bgcolor="#E3E3F3"&gt;
&lt;th&gt;CD_UF&lt;/th&gt;
&lt;td&gt;24&lt;/td&gt;
&lt;/tr&gt;&lt;tr bgcolor=""&gt;
&lt;th&gt;NM_UF&lt;/th&gt;
&lt;td&gt;Rio Grande do Norte&lt;/td&gt;
&lt;/tr&gt;&lt;tr bgcolor="#E3E3F3"&gt;
&lt;th&gt;SIGLA_UF&lt;/th&gt;
&lt;td&gt;RN&lt;/td&gt;
&lt;/tr&gt;&lt;tr bgcolor=""&gt;
&lt;th&gt;CD_MUN&lt;/th&gt;
&lt;td&gt;2414803&lt;/td&gt;
&lt;/tr&gt;&lt;tr bgcolor="#E3E3F3"&gt;
&lt;th&gt;NM_MUN&lt;/th&gt;
&lt;td&gt;Vera Cruz&lt;/td&gt;
&lt;/tr&gt;&lt;tr bgcolor=""&gt;
&lt;th&gt;CD_RGINT&lt;/th&gt;
&lt;td&gt;2401&lt;/td&gt;
&lt;/tr&gt;&lt;tr bgcolor="#E3E3F3"&gt;
&lt;th&gt;NM_RGINT&lt;/th&gt;
&lt;td&gt;Natal&lt;/td&gt;
&lt;/tr&gt;&lt;tr bgcolor=""&gt;
&lt;th&gt;CD_RGI&lt;/th&gt;
&lt;td&gt;240001&lt;/td&gt;
&lt;/tr&gt;&lt;tr bgcolor="#E3E3F3"&gt;
&lt;th&gt;NM_RGI&lt;/th&gt;
&lt;td&gt;Natal&lt;/td&gt;
&lt;/tr&gt;&lt;tr bgcolor=""&gt;
&lt;th&gt;CT_LOCALIDADE&lt;/th&gt;
&lt;td&gt;Cidade&lt;/td&gt;
&lt;/tr&gt;&lt;tr bgcolor="#E3E3F3"&gt;
&lt;th&gt;SCT_LOCALIDADE&lt;/th&gt;
&lt;td&gt;Sede Municipal&lt;/td&gt;
&lt;/tr&gt;&lt;tr bgcolor=""&gt;
&lt;th&gt;CD_LOCALIDADE&lt;/th&gt;
&lt;td&gt;2414803&lt;/td&gt;
&lt;/tr&gt;&lt;tr bgcolor="#E3E3F3"&gt;
&lt;th&gt;NM_LOCALIDADE&lt;/th&gt;
&lt;td&gt;Vera Cruz&lt;/td&gt;
&lt;/tr&gt;&lt;tr bgcolor=""&gt;
&lt;th&gt;LAT_LOCALIDADE&lt;/th&gt;
&lt;td&gt;-6.044&lt;/td&gt;
&lt;/tr&gt;&lt;tr bgcolor="#E3E3F3"&gt;
&lt;th&gt;LONG_LOCALIDADE&lt;/th&gt;
&lt;td&gt;-35.4326&lt;/td&gt;
&lt;/tr&gt;&lt;/table&gt;&lt;/center&gt;</description>
<Style>
<IconStyle>
<color>ff00aaff</color>
<scale>1.0</scale>
<Icon>
<href>http://maps.google.com/mapfiles/kml/shapes/placemark_circle.png</href>
</Icon>
</IconStyle>
<LabelStyle>
<scale>1.0</scale>
</LabelStyle>
<LineStyle>
<color>ffffffff</color>
<width>3</width>
<gx:labelVisibility>1</gx:labelVisibility>
</LineStyle>
<PolyStyle>
<color>00ffffff</color>
</PolyStyle>
</Style>
<ExtendedData>
<SchemaData schemaUrl="#kml_schema_ft_01._Cidade">
<SimpleData name="CD_UF">24</SimpleData>
<SimpleData name="NM_UF">Rio Grande do Norte</SimpleData>
<SimpleData name="SIGLA_UF">RN</SimpleData>
<SimpleData name="CD_MUN">2414803</SimpleData>
<SimpleData name="NM_MUN">Vera Cruz</SimpleData>
<SimpleData name="CD_RGINT">2401</SimpleData>
<SimpleData name="NM_RGINT">Natal</SimpleData>
<SimpleData name="CD_RGI">240001</SimpleData>
<SimpleData name="NM_RGI">Natal</SimpleData>
<SimpleData name="CT_LOCALIDADE">Cidade</SimpleData>
<SimpleData name="SCT_LOCALIDADE">Sede Municipal</SimpleData>
<SimpleData name="CD_LOCALIDADE">2414803</SimpleData>
<SimpleData name="NM_LOCALIDADE">Vera Cruz</SimpleData>
<SimpleData name="LAT_LOCALIDADE">-6.044</SimpleData>
<SimpleData name="LONG_LOCALIDADE">-35.4326</SimpleData>
</SchemaData>
</ExtendedData>
<Point>
<extrude>0</extrude>
<coordinates>-35.432569,-6.04404399980162,0.0</coordinates>
</Point>
</Placemark>
</Folder>
</Folder>
<Folder id="05. Núcleos Urbanos">
<name>05. Núcleos Urbanos</name>
<Placemark id="localidades">
<name>Cobé de Cima [2414803001]</name>
<visibility>1</visibility>
<snippet> </snippet>
<description>&lt;center&gt;&lt;table&gt;&lt;tr&gt;&lt;th colspan='2' align='center'&gt;&lt;em&gt;Attributes&lt;/em&gt;&lt;/th&gt;&lt;/tr&gt;&lt;tr bgcolor="#E3E3F3"&gt;
&lt;th&gt;CD_UF&lt;/th&gt;
&lt;td&gt;24&lt;/td&gt;
&lt;/tr&gt;&lt;tr bgcolor=""&gt;
&lt;th&gt;NM_UF&lt;/th&gt;
&lt;td&gt;Rio Grande do Norte&lt;/td&gt;
&lt;/tr&gt;&lt;tr bgcolor="#E3E3F3"&gt;
&lt;th&gt;SIGLA_UF&lt;/th&gt;
&lt;td&gt;RN&lt;/td&gt;
&lt;/tr&gt;&lt;tr bgcolor=""&gt;
&lt;th&gt;CD_MUN&lt;/th&gt;
&lt;td&gt;2414803&lt;/td&gt;
&lt;/tr&gt;&lt;tr bgcolor="#E3E3F3"&gt;
&lt;th&gt;NM_MUN&lt;/th&gt;
&lt;td&gt;Vera Cruz&lt;/td&gt;
&lt;/tr&gt;&lt;tr bgcolor=""&gt;
&lt;th&gt;CD_RGINT&lt;/th&gt;
&lt;td&gt;2401&lt;/td&gt;
&lt;/tr&gt;&lt;tr bgcolor="#E3E3F3"&gt;
&lt;th&gt;NM_RGINT&lt;/th&gt;
&lt;td&gt;Natal&lt;/td&gt;
&lt;/tr&gt;&lt;tr bgcolor=""&gt;
&lt;th&gt;CD_RGI&lt;/th&gt;
&lt;td&gt;240001&lt;/td&gt;
&lt;/tr&gt;&lt;tr bgcolor="#E3E3F3"&gt;
&lt;th&gt;NM_RGI&lt;/th&gt;
&lt;td&gt;Natal&lt;/td&gt;
&lt;/tr&gt;&lt;tr bgcolor=""&gt;
&lt;th&gt;CT_LOCALIDADE&lt;/th&gt;
&lt;td&gt;Núcleo Urbano&lt;/td&gt;
&lt;/tr&gt;&lt;tr bgcolor="#E3E3F3"&gt;
&lt;th&gt;CD_LOCALIDADE&lt;/th&gt;
&lt;td&gt;2414803001&lt;/td&gt;
&lt;/tr&gt;&lt;tr bgcolor=""&gt;
&lt;th&gt;NM_LOCALIDADE&lt;/th&gt;
&lt;td&gt;Cobé de Cima&lt;/td&gt;
&lt;/tr&gt;&lt;tr bgcolor="#E3E3F3"&gt;
&lt;th&gt;LAT_LOCALIDADE&lt;/th&gt;
&lt;td&gt;-6.0399&lt;/td&gt;
&lt;/tr&gt;&lt;tr bgcolor=""&gt;
&lt;th&gt;LONG_LOCALIDADE&lt;/th&gt;
&lt;td&gt;-35.3813&lt;/td&gt;
&lt;/tr&gt;&lt;/table&gt;&lt;/center&gt;</description>
<Style>
<IconStyle>
<color>ff0000ff</color>
<scale>0.9</scale>
<Icon>
<href>http://maps.google.com/mapfiles/kml/shapes/placemark_circle.png</href>
</Icon>
</IconStyle>
<LabelStyle>
<scale>0.9</scale>
</LabelStyle>
<LineStyle>
<color>72ffffff</color>
<width>1.0</width>
<gx:labelVisibility>1</gx:labelVisibility>
</LineStyle>
<PolyStyle>
<color>66ff54ff</color>
</PolyStyle>
</Style>
<ExtendedData>
<SchemaData schemaUrl="#kml_schema_ft_Núcleos_Urbanos">
<SimpleData name="CD_UF">24</SimpleData>
<SimpleData name="NM_UF">Rio Grande do Norte</SimpleData>
<SimpleData name="SIGLA_UF">RN</SimpleData>
<SimpleData name="CD_MUN">2414803</SimpleData>
<SimpleData name="NM_MUN">Vera Cruz</SimpleData>
<SimpleData name="CD_RGINT">2401</SimpleData>
<SimpleData name="NM_RGINT">Natal</SimpleData>
<SimpleData name="CD_RGI">240001</SimpleData>
<SimpleData name="NM_RGI">Natal</SimpleData>
<SimpleData name="CT_LOCALIDADE">Núcleo Urbano</SimpleData>
<SimpleData name="CD_LOCALIDADE">2414803001</SimpleData>
<SimpleData name="NM_LOCALIDADE">Cobé de Cima</SimpleData>
<SimpleData name="LAT_LOCALIDADE">-6.0399</SimpleData>
<SimpleData name="LONG_LOCALIDADE">-35.3813</SimpleData>
</SchemaData>
</ExtendedData>
<Point>
<extrude>0</extrude>
<coordinates>-35.381253812572,-6.03987763474984,0.0</coordinates>
</Point>
</Placemark>
</Folder>
<Folder id="06. Povoados">
<name>06. Povoados</name>
<Placemark id="06. Povoados">
<name>Sítio Santa Cruz [241480300002]</name>
<visibility>1</visibility>
<snippet> </snippet>
<description>&lt;center&gt;&lt;table&gt;&lt;tr&gt;&lt;th colspan='2' align='center'&gt;&lt;em&gt;Atributos&lt;/em&gt;&lt;/th&gt;&lt;/tr&gt;&lt;tr bgcolor="#E3E3F3"&gt;
&lt;th&gt;CD_UF&lt;/th&gt;
&lt;td&gt;24&lt;/td&gt;
&lt;/tr&gt;&lt;tr bgcolor=""&gt;
&lt;th&gt;NM_UF&lt;/th&gt;
&lt;td&gt;Rio Grande do Norte&lt;/td&gt;
&lt;/tr&gt;&lt;tr bgcolor="#E3E3F3"&gt;
&lt;th&gt;SIGLA_UF&lt;/th&gt;
&lt;td&gt;RN&lt;/td&gt;
&lt;/tr&gt;&lt;tr bgcolor=""&gt;
&lt;th&gt;CD_MUN&lt;/th&gt;
&lt;td&gt;2414803&lt;/td&gt;
&lt;/tr&gt;&lt;tr bgcolor="#E3E3F3"&gt;
&lt;th&gt;NM_MUN&lt;/th&gt;
&lt;td&gt;Vera Cruz&lt;/td&gt;
&lt;/tr&gt;&lt;tr bgcolor=""&gt;
&lt;th&gt;CD_RGINT&lt;/th&gt;
&lt;td&gt;2401&lt;/td&gt;
&lt;/tr&gt;&lt;tr bgcolor="#E3E3F3"&gt;
&lt;th&gt;NM_RGINT&lt;/th&gt;
&lt;td&gt;Natal&lt;/td&gt;
&lt;/tr&gt;&lt;tr bgcolor=""&gt;
&lt;th&gt;CD_RGI&lt;/th&gt;
&lt;td&gt;240001&lt;/td&gt;
&lt;/tr&gt;&lt;tr bgcolor="#E3E3F3"&gt;
&lt;th&gt;NM_RGI&lt;/th&gt;
&lt;td&gt;Natal&lt;/td&gt;
&lt;/tr&gt;&lt;tr bgcolor=""&gt;
&lt;th&gt;CT_LOCALIDADE&lt;/th&gt;
&lt;td&gt;Povoado&lt;/td&gt;
&lt;/tr&gt;&lt;tr bgcolor="#E3E3F3"&gt;
&lt;th&gt;CD_LOCALIDADE&lt;/th&gt;
&lt;td&gt;241480300002&lt;/td&gt;
&lt;/tr&gt;&lt;tr bgcolor=""&gt;
&lt;th&gt;NM_LOCALIDADE&lt;/th&gt;
&lt;td&gt;Sítio Santa Cruz&lt;/td&gt;
&lt;/tr&gt;&lt;tr bgcolor="#E3E3F3"&gt;
&lt;th&gt;LAT_LOCALIDADE&lt;/th&gt;
&lt;td&gt;-6.0533&lt;/td&gt;
&lt;/tr&gt;&lt;tr bgcolor=""&gt;
&lt;th&gt;LONG_LOCALIDADE&lt;/th&gt;
&lt;td&gt;-35.5422&lt;/td&gt;
&lt;/tr&gt;&lt;/table&gt;&lt;/center&gt;</description>
<Style>
<IconStyle>
<color>ff00ff54</color>
<scale>0.8</scale>
<Icon>
<href>http://maps.google.com/mapfiles/kml/shapes/placemark_circle.png</href>
</Icon>
</IconStyle>
<LabelStyle>
<scale>0.8</scale>
</LabelStyle>
<LineStyle>
<color>72ff54ff</color>
<width>1.0</width>
<gx:labelVisibility>1</gx:labelVisibility>
</LineStyle>
<PolyStyle>
<color>66ff54ff</color>
</PolyStyle>
</Style>
<ExtendedData>
<SchemaData schemaUrl="#kml_schema_ft_Povoados">
<SimpleData name="CD_UF">24</SimpleData>
<SimpleData name="NM_UF">Rio Grande do Norte</SimpleData>
<SimpleData name="SIGLA_UF">RN</SimpleData>
<SimpleData name="CD_MUN">2414803</SimpleData>
<SimpleData name="NM_MUN">Vera Cruz</SimpleData>
<SimpleData name="CD_RGINT">2401</SimpleData>
<SimpleData name="NM_RGINT">Natal</SimpleData>
<SimpleData name="CD_RGI">240001</SimpleData>
<SimpleData name="NM_RGI">Natal</SimpleData>
<SimpleData name="CT_LOCALIDADE">Povoado</SimpleData>
<SimpleData name="CD_LOCALIDADE">241480300002</SimpleData>
<SimpleData name="NM_LOCALIDADE">Sítio Santa Cruz</SimpleData>
<SimpleData name="LAT_LOCALIDADE">-6.0533</SimpleData>
<SimpleData name="LONG_LOCALIDADE">-35.5422</SimpleData>
</SchemaData>
</ExtendedData>
<Point>
<extrude>0</extrude>
<coordinates>-35.5421976120689,-6.05328025842201,0.0</coordinates>
</Point>
</Placemark>
<Placemark id="06. Povoados">
<name>Araçá I [241480300003]</name>
<visibility>1</visibility>
<snippet> </snippet>
<description>&lt;center&gt;&lt;table&gt;&lt;tr&gt;&lt;th colspan='2' align='center'&gt;&lt;em&gt;Atributos&lt;/em&gt;&lt;/th&gt;&lt;/tr&gt;&lt;tr bgcolor="#E3E3F3"&gt;
&lt;th&gt;CD_UF&lt;/th&gt;
&lt;td&gt;24&lt;/td&gt;
&lt;/tr&gt;&lt;tr bgcolor=""&gt;
&lt;th&gt;NM_UF&lt;/th&gt;
&lt;td&gt;Rio Grande do Norte&lt;/td&gt;
&lt;/tr&gt;&lt;tr bgcolor="#E3E3F3"&gt;
&lt;th&gt;SIGLA_UF&lt;/th&gt;
&lt;td&gt;RN&lt;/td&gt;
&lt;/tr&gt;&lt;tr bgcolor=""&gt;
&lt;th&gt;CD_MUN&lt;/th&gt;
&lt;td&gt;2414803&lt;/td&gt;
&lt;/tr&gt;&lt;tr bgcolor="#E3E3F3"&gt;
&lt;th&gt;NM_MUN&lt;/th&gt;
&lt;td&gt;Vera Cruz&lt;/td&gt;
&lt;/tr&gt;&lt;tr bgcolor=""&gt;
&lt;th&gt;CD_RGINT&lt;/th&gt;
&lt;td&gt;2401&lt;/td&gt;
&lt;/tr&gt;&lt;tr bgcolor="#E3E3F3"&gt;
&lt;th&gt;NM_RGINT&lt;/th&gt;
&lt;td&gt;Natal&lt;/td&gt;
&lt;/tr&gt;&lt;tr bgcolor=""&gt;
&lt;th&gt;CD_RGI&lt;/th&gt;
&lt;td&gt;240001&lt;/td&gt;
&lt;/tr&gt;&lt;tr bgcolor="#E3E3F3"&gt;
&lt;th&gt;NM_RGI&lt;/th&gt;
&lt;td&gt;Natal&lt;/td&gt;
&lt;/tr&gt;&lt;tr bgcolor=""&gt;
&lt;th&gt;CT_LOCALIDADE&lt;/th&gt;
&lt;td&gt;Povoado&lt;/td&gt;
&lt;/tr&gt;&lt;tr bgcolor="#E3E3F3"&gt;
&lt;th&gt;CD_LOCALIDADE&lt;/th&gt;
&lt;td&gt;241480300003&lt;/td&gt;
&lt;/tr&gt;&lt;tr bgcolor=""&gt;
&lt;th&gt;NM_LOCALIDADE&lt;/th&gt;
&lt;td&gt;Araçá I&lt;/td&gt;
&lt;/tr&gt;&lt;tr bgcolor="#E3E3F3"&gt;
&lt;th&gt;LAT_LOCALIDADE&lt;/th&gt;
&lt;td&gt;-6.0441&lt;/td&gt;
&lt;/tr&gt;&lt;tr bgcolor=""&gt;
&lt;th&gt;LONG_LOCALIDADE&lt;/th&gt;
&lt;td&gt;-35.4482&lt;/td&gt;
&lt;/tr&gt;&lt;/table&gt;&lt;/center&gt;</description>
<Style>
<IconStyle>
<color>ff00ff54</color>
<scale>0.8</scale>
<Icon>
<href>http://maps.google.com/mapfiles/kml/shapes/placemark_circle.png</href>
</Icon>
</IconStyle>
<LabelStyle>
<scale>0.8</scale>
</LabelStyle>
<LineStyle>
<color>72ff54ff</color>
<width>1.0</width>
<gx:labelVisibility>1</gx:labelVisibility>
</LineStyle>
<PolyStyle>
<color>66ff54ff</color>
</PolyStyle>
</Style>
<ExtendedData>
<SchemaData schemaUrl="#kml_schema_ft_Povoados">
<SimpleData name="CD_UF">24</SimpleData>
<SimpleData name="NM_UF">Rio Grande do Norte</SimpleData>
<SimpleData name="SIGLA_UF">RN</SimpleData>
<SimpleData name="CD_MUN">2414803</SimpleData>
<SimpleData name="NM_MUN">Vera Cruz</SimpleData>
<SimpleData name="CD_RGINT">2401</SimpleData>
<SimpleData name="NM_RGINT">Natal</SimpleData>
<SimpleData name="CD_RGI">240001</SimpleData>
<SimpleData name="NM_RGI">Natal</SimpleData>
<SimpleData name="CT_LOCALIDADE">Povoado</SimpleData>
<SimpleData name="CD_LOCALIDADE">241480300003</SimpleData>
<SimpleData name="NM_LOCALIDADE">Araçá I</SimpleData>
<SimpleData name="LAT_LOCALIDADE">-6.0441</SimpleData>
<SimpleData name="LONG_LOCALIDADE">-35.4482</SimpleData>
</SchemaData>
</ExtendedData>
<Point>
<extrude>0</extrude>
<coordinates>-35.4481942017543,-6.04406153488933,0.0</coordinates>
</Point>
</Placemark>
<Placemark id="06. Povoados">
<name>Araçá II [241480300004]</name>
<visibility>1</visibility>
<snippet> </snippet>
<description>&lt;center&gt;&lt;table&gt;&lt;tr&gt;&lt;th colspan='2' align='center'&gt;&lt;em&gt;Atributos&lt;/em&gt;&lt;/th&gt;&lt;/tr&gt;&lt;tr bgcolor="#E3E3F3"&gt;
&lt;th&gt;CD_UF&lt;/th&gt;
&lt;td&gt;24&lt;/td&gt;
&lt;/tr&gt;&lt;tr bgcolor=""&gt;
&lt;th&gt;NM_UF&lt;/th&gt;
&lt;td&gt;Rio Grande do Norte&lt;/td&gt;
&lt;/tr&gt;&lt;tr bgcolor="#E3E3F3"&gt;
&lt;th&gt;SIGLA_UF&lt;/th&gt;
&lt;td&gt;RN&lt;/td&gt;
&lt;/tr&gt;&lt;tr bgcolor=""&gt;
&lt;th&gt;CD_MUN&lt;/th&gt;
&lt;td&gt;2414803&lt;/td&gt;
&lt;/tr&gt;&lt;tr bgcolor="#E3E3F3"&gt;
&lt;th&gt;NM_MUN&lt;/th&gt;
&lt;td&gt;Vera Cruz&lt;/td&gt;
&lt;/tr&gt;&lt;tr bgcolor=""&gt;
&lt;th&gt;CD_RGINT&lt;/th&gt;
&lt;td&gt;2401&lt;/td&gt;
&lt;/tr&gt;&lt;tr bgcolor="#E3E3F3"&gt;
&lt;th&gt;NM_RGINT&lt;/th&gt;
&lt;td&gt;Natal&lt;/td&gt;
&lt;/tr&gt;&lt;tr bgcolor=""&gt;
&lt;th&gt;CD_RGI&lt;/th&gt;
&lt;td&gt;240001&lt;/td&gt;
&lt;/tr&gt;&lt;tr bgcolor="#E3E3F3"&gt;
&lt;th&gt;NM_RGI&lt;/th&gt;
&lt;td&gt;Natal&lt;/td&gt;
&lt;/tr&gt;&lt;tr bgcolor=""&gt;
&lt;th&gt;CT_LOCALIDADE&lt;/th&gt;
&lt;td&gt;Povoado&lt;/td&gt;
&lt;/tr&gt;&lt;tr bgcolor="#E3E3F3"&gt;
&lt;th&gt;CD_LOCALIDADE&lt;/th&gt;
&lt;td&gt;241480300004&lt;/td&gt;
&lt;/tr&gt;&lt;tr bgcolor=""&gt;
&lt;th&gt;NM_LOCALIDADE&lt;/th&gt;
&lt;td&gt;Araçá II&lt;/td&gt;
&lt;/tr&gt;&lt;tr bgcolor="#E3E3F3"&gt;
&lt;th&gt;LAT_LOCALIDADE&lt;/th&gt;
&lt;td&gt;-6.0342&lt;/td&gt;
&lt;/tr&gt;&lt;tr bgcolor=""&gt;
&lt;th&gt;LONG_LOCALIDADE&lt;/th&gt;
&lt;td&gt;-35.4489&lt;/td&gt;
&lt;/tr&gt;&lt;/table&gt;&lt;/center&gt;</description>
<Style>
<IconStyle>
<color>ff00ff54</color>
<scale>0.8</scale>
<Icon>
<href>http://maps.google.com/mapfiles/kml/shapes/placemark_circle.png</href>
</Icon>
</IconStyle>
<LabelStyle>
<scale>0.8</scale>
</LabelStyle>
<LineStyle>
<color>72ff54ff</color>
<width>1.0</width>
<gx:labelVisibility>1</gx:labelVisibility>
</LineStyle>
<PolyStyle>
<color>66ff54ff</color>
</PolyStyle>
</Style>
<ExtendedData>
<SchemaData schemaUrl="#kml_schema_ft_Povoados">
<SimpleData name="CD_UF">24</SimpleData>
<SimpleData name="NM_UF">Rio Grande do Norte</SimpleData>
<SimpleData name="SIGLA_UF">RN</SimpleData>
<SimpleData name="CD_MUN">2414803</SimpleData>
<SimpleData name="NM_MUN">Vera Cruz</SimpleData>
<SimpleData name="CD_RGINT">2401</SimpleData>
<SimpleData name="NM_RGINT">Natal</SimpleData>
<SimpleData name="CD_RGI">240001</SimpleData>
<SimpleData name="NM_RGI">Natal</SimpleData>
<SimpleData name="CT_LOCALIDADE">Povoado</SimpleData>
<SimpleData name="CD_LOCALIDADE">241480300004</SimpleData>
<SimpleData name="NM_LOCALIDADE">Araçá II</SimpleData>
<SimpleData name="LAT_LOCALIDADE">-6.0342</SimpleData>
<SimpleData name="LONG_LOCALIDADE">-35.4489</SimpleData>
</SchemaData>
</ExtendedData>
<Point>
<extrude>0</extrude>
<coordinates>-35.4488681703296,-6.0341745602415,0.0</coordinates>
</Point>
</Placemark>
</Folder>
<Folder id="13. Referência">
<name>13. Referência</name>
<Placemark id="13. Referência">
<name>Vera Cruz [2414803]</name>
<visibility>1</visibility>
<snippet> </snippet>
<description>&lt;center&gt;&lt;table&gt;&lt;tr&gt;&lt;th colspan='2' align='center'&gt;&lt;em&gt;Attributes&lt;/em&gt;&lt;/th&gt;&lt;/tr&gt;&lt;tr bgcolor="#E3E3F3"&gt;
&lt;th&gt;CD_UF&lt;/th&gt;
&lt;td&gt;24&lt;/td&gt;
&lt;/tr&gt;&lt;tr bgcolor=""&gt;
&lt;th&gt;NM_UF&lt;/th&gt;
&lt;td&gt;Rio Grande do Norte&lt;/td&gt;
&lt;/tr&gt;&lt;tr bgcolor="#E3E3F3"&gt;
&lt;th&gt;CD_MUN&lt;/th&gt;
&lt;td&gt;2414803&lt;/td&gt;
&lt;/tr&gt;&lt;tr bgcolor=""&gt;
&lt;th&gt;NM_MUN&lt;/th&gt;
&lt;td&gt;Vera Cruz&lt;/td&gt;
&lt;/tr&gt;&lt;tr bgcolor="#E3E3F3"&gt;
&lt;th&gt;CD_RGINT&lt;/th&gt;
&lt;td&gt;2401&lt;/td&gt;
&lt;/tr&gt;&lt;tr bgcolor=""&gt;
&lt;th&gt;NM_RGINT&lt;/th&gt;
&lt;td&gt;Natal&lt;/td&gt;
&lt;/tr&gt;&lt;tr bgcolor="#E3E3F3"&gt;
&lt;th&gt;CD_RGI&lt;/th&gt;
&lt;td&gt;240001&lt;/td&gt;
&lt;/tr&gt;&lt;tr bgcolor=""&gt;
&lt;th&gt;NM_RGI&lt;/th&gt;
&lt;td&gt;Natal&lt;/td&gt;
&lt;/tr&gt;&lt;/table&gt;&lt;/center&gt;</description>
<Style>
<IconStyle>
<scale>0.7</scale>
</IconStyle>
<LabelStyle>
<scale>0.7</scale>
</LabelStyle>
<LineStyle>
<color>ffffffff</color>
<width>3</width>
<gx:labelVisibility>1</gx:labelVisibility>
</LineStyle>
<PolyStyle>
<color>00ffffff</color>
</PolyStyle>
</Style>
<ExtendedData>
<SchemaData schemaUrl="#kml_schema_ft_Município">
<SimpleData name="CD_UF">24</SimpleData>
<SimpleData name="NM_UF">Rio Grande do Norte</SimpleData>
<SimpleData name="CD_MUN">2414803</SimpleData>
<SimpleData name="NM_MUN">Vera Cruz</SimpleData>
<SimpleData name="CD_RGINT">2401</SimpleData>
<SimpleData name="NM_RGINT">Natal</SimpleData>
<SimpleData name="CD_RGI">240001</SimpleData>
<SimpleData name="NM_RGI">Natal</SimpleData>
</SchemaData>
</ExtendedData>
<MultiGeometry>
<Polygon>
<extrude>0</extrude>
<tessellate>1</tessellate>
<outerBoundaryIs>
<LinearRing>
<coordinates>-35.426796,-6.04621719980155,0.0 -35.4278361,-6.0479459998015,0.0 -35.428542,-6.04909659980146,0.0 -35.4290089,-6.04986919980144,0.0 -35.429209,-6.05019719980143,0.0 -35.4293601,-6.05043049980142,0.0 -35.4293922,-6.05048009980141,0.0 -35.4295473,-6.05129889980139,0.0 -35.4299626,-6.05349149980132,0.0 -35.430689,-6.05732569980119,0.0 -35.4322079,-6.06546209980093,0.0 -35.4363547,-6.06412359980097,0.0 -35.437428,-6.06374419980099,0.0 -35.4426375,-6.06190249980105,0.0 -35.4431769,-6.06773209980086,0.0 -35.4443528,-6.07038619980077,0.0 -35.4491297,-6.07498509980062,0.0 -35.4512857,-6.07740129980054,0.0 -35.4565571,-6.07845039980051,0.0 -35.4565622,-6.07844919980051,0.0 -35.4566197,-6.07843569980051,0.0 -35.4578921,-6.07813709980052,0.0 -35.4579764,-6.07811729980052,0.0 -35.4580581,-6.07809819980052,0.0 -35.4581393,-6.07807909980052,0.0 -35.4582172,-6.07806079980052,0.0 -35.4582996,-6.07804149980052,0.0 -35.4583816,-6.07802219980052,0.0 -35.4584616,-6.07800349980053,0.0 -35.4585072,-6.07799279980052,0.0 -35.4585477,-6.07798329980053,0.0 -35.458588,-6.07797379980052,0.0 -35.4586282,-6.07796439980053,0.0 -35.4586689,-6.07795479980053,0.0 -35.4587026,-6.07794689980053,0.0 -35.4587829,-6.07792799980053,0.0 -35.4588616,-6.07790959980053,0.0 -35.4589267,-6.07789429980053,0.0 -35.4590054,-6.07787579980053,0.0 -35.4590769,-6.07785909980053,0.0 -35.4591539,-6.07784099980053,0.0 -35.4591589,-6.07783979980053,0.0 -35.4591637,-6.07783869980053,0.0 -35.459168,-6.07783769980053,0.0 -35.459185,-6.07783369980053,0.0 -35.4591913,-6.07783219980053,0.0 -35.4591964,-6.07783099980053,0.0 -35.4591982,-6.07783059980053,0.0 -35.4592071,-6.07782849980053,0.0 -35.4592083,-6.07782819980053,0.0 -35.4592182,-6.07782589980053,0.0 -35.4592258,-6.07782409980053,0.0 -35.4592454,-6.07781949980053,0.0 -35.4597746,-6.07769529980054,0.0 -35.4602758,-6.07757719980054,0.0 -35.4602803,-6.07757609980054,0.0 -35.4603878,-6.07755079980054,0.0 -35.4603927,-6.07754969980054,0.0 -35.4603952,-6.07754909980054,0.0 -35.4604046,-6.07754689980054,0.0 -35.4604137,-6.07754469980054,0.0 -35.4604322,-6.07754029980054,0.0 -35.4604437,-6.07753759980054,0.0 -35.4604555,-6.07753489980054,0.0 -35.460467,-6.07753209980054,0.0 -35.4604894,-6.07752689980054,0.0 -35.460512,-6.07752149980054,0.0 -35.4605244,-6.07751859980054,0.0 -35.4605356,-6.07751599980054,0.0 -35.4605464,-6.07751349980054,0.0 -35.4605684,-6.07750829980054,0.0 -35.460588,-6.07750359980054,0.0 -35.4606097,-6.07749849980054,0.0 -35.4606314,-6.07749339980054,0.0 -35.4606362,-6.07749229980054,0.0 -35.4606486,-6.07748939980054,0.0 -35.4606596,-6.07748679980054,0.0 -35.4606801,-6.07748189980054,0.0 -35.4606985,-6.07747759980054,0.0 -35.4607088,-6.07747519980054,0.0 -35.460717,-6.07747319980054,0.0 -35.4607327,-6.07746949980054,0.0 -35.4608646,-6.07743849980054,0.0 -35.4609917,-6.07740849980054,0.0 -35.4611163,-6.07737909980055,0.0 -35.4611987,-6.07735969980055,0.0 -35.4612027,-6.07735879980055,0.0 -35.4612067,-6.07735779980055,0.0 -35.4612105,-6.07735689980055,0.0 -35.4612138,-6.07735609980055,0.0 -35.47105,-6.07319169980068,0.0 -35.4740823,-6.07299549980069,0.0 -35.4760762,-6.07195009980072,0.0 -35.4783503,-6.0726673998007,0.0 -35.4837806,-6.07231519980071,0.0 -35.4861065,-6.07292239980069,0.0 -35.4876555,-6.07369699980067,0.0 -35.4892373,-6.07410799980065,0.0 -35.4911085,-6.07402699980065,0.0 -35.491727,-6.07413319980065,0.0 -35.4920356,-6.07418619980065,0.0 -35.4926364,-6.07452909980064,0.0 -35.4916331,-6.06964199980079,0.0 -35.4883849,-6.06294889980101,0.0 -35.4896261,-6.06250749980103,0.0 -35.4903662,-6.06138419980106,0.0 -35.4914052,-6.06075739980108,0.0 -35.4920262,-6.06075429980108,0.0 -35.4925859,-6.06087649980108,0.0 -35.4931165,-6.06118449980107,0.0 -35.4940181,-6.06127399980107,0.0 -35.4953828,-6.06089419980108,0.0 -35.4964965,-6.05986289980111,0.0 -35.4983568,-6.05885929980114,0.0 -35.4986353,-6.05854749980116,0.0 -35.4996837,-6.05683109980121,0.0 -35.4998676,-6.05633219980123,0.0 -35.4999572,-6.05543019980126,0.0 -35.5002353,-6.05518029980126,0.0 -35.5006382,-6.05508329980127,0.0 -35.5012584,-6.05477049980128,0.0 -35.5020043,-6.05461149980128,0.0 -35.503836,-6.05441629980129,0.0 -35.5053266,-6.0541299998013,0.0 -35.5075281,-6.05334199980132,0.0 -35.5086789,-6.05333629980132,0.0 -35.5087298,-6.05134999980139,0.0 -35.5104388,-6.0509941998014,0.0 -35.5125679,-6.0511078998014,0.0 -35.5138434,-6.05153889980138,0.0 -35.515558,-6.05261979980135,0.0 -35.5167411,-6.05308129980133,0.0 -35.5189178,-6.05353799980131,0.0 -35.5214044,-6.05371319980131,0.0 -35.5235169,-6.05357859980131,0.0 -35.5257833,-6.05325709980132,0.0 -35.5308286,-6.05307799980133,0.0 -35.5343404,-6.05309269980133,0.0 -35.535676,-6.05302409980133,0.0 -35.5373289,-6.05271969980134,0.0 -35.5377914,-6.05286839980134,0.0 -35.5377963,-6.05286999980134,0.0 -35.5382741,-6.05302369980133,0.0 -35.5389491,-6.05365739980131,0.0 -35.5389551,-6.05366109980131,0.0 -35.539542,-6.0540310998013,0.0 -35.5395504,-6.0540363998013,0.0 -35.5399934,-6.0541236998013,0.0 -35.5400002,-6.0541249998013,0.0 -35.5408364,-6.0541033998013,0.0 -35.5414938,-6.0540863998013,0.0 -35.5414952,-6.0540869998013,0.0 -35.5414966,-6.0540874998013,0.0 -35.5431505,-6.05474409980128,0.0 -35.543411,-6.05484749980127,0.0 -35.5434432,-6.05486029980127,0.0 -35.5435662,-6.05490909980127,0.0 -35.5453893,-6.05563289980125,0.0 -35.5459537,-6.05500719980127,0.0 -35.5459565,-6.05500339980127,0.0 -35.5459593,-6.05499969980127,0.0 -35.546735,-6.0539547998013,0.0 -35.5421075,-6.05219089980136,0.0 -35.540284,-6.05149569980138,0.0 -35.5388059,-6.0509321998014,0.0 -35.4526349,-6.01808849980246,0.0 -35.422356,-6.00654779980283,0.0 -35.4220342,-6.00642519980284,0.0 -35.4220325,-6.00642449980284,0.0 -35.4216722,-6.00628719980284,0.0 -35.4194182,-6.00542669980287,0.0 -35.4065497,-6.00051409980303,0.0 -35.37344,-5.98737639980345,0.0 -35.3731762,-5.98749919980345,0.0 -35.3713996,-5.98800079980343,0.0 -35.3702842,-6.00526549980288,0.0 -35.3742191,-6.01299829980263,0.0 -35.382233,-6.01791499980247,0.0 -35.3821223,-6.02177129980234,0.0 -35.3809953,-6.02343759980229,0.0 -35.3801714,-6.02360469980228,0.0 -35.3784981,-6.02520989980223,0.0 -35.3781542,-6.02584699980221,0.0 -35.3773574,-6.02732329980216,0.0 -35.3768769,-6.02853149980213,0.0 -35.3766847,-6.02873279980212,0.0 -35.3766584,-6.02876029980212,0.0 -35.3766536,-6.02876539980212,0.0 -35.3765554,-6.02886859980211,0.0 -35.3758894,-6.02956719980209,0.0 -35.3756023,-6.02986629980208,0.0 -35.3749668,-6.03048509980206,0.0 -35.3740889,-6.03133609980203,0.0 -35.3727207,-6.03266729980199,0.0 -35.3721645,-6.03320819980197,0.0 -35.3718567,-6.03354989980196,0.0 -35.3716964,-6.03392529980195,0.0 -35.3712807,-6.03577509980189,0.0 -35.3707809,-6.03617819980188,0.0 -35.369122,-6.03896369980179,0.0 -35.3693848,-6.03910679980178,0.0 -35.3707547,-6.03982529980176,0.0 -35.3718796,-6.04059169980173,0.0 -35.3729141,-6.04096489980172,0.0 -35.3728767,-6.04100729980172,0.0 -35.3728564,-6.04103029980172,0.0 -35.371882,-6.04213579980168,0.0 -35.3718035,-6.04225329980168,0.0 -35.3716736,-6.04422659980162,0.0 -35.3712526,-6.04559059980157,0.0 -35.3712356,-6.04564599980157,0.0 -35.3711356,-6.04596959980156,0.0 -35.3711106,-6.04605049980156,0.0 -35.3710163,-6.04636099980155,0.0 -35.3708278,-6.04698209980153,0.0 -35.3702021,-6.04929079980145,0.0 -35.3701935,-6.04930259980145,0.0 -35.3698158,-6.04981839980144,0.0 -35.3693293,-6.0511026998014,0.0 -35.3690878,-6.05355479980132,0.0 -35.3668801,-6.05433289980129,0.0 -35.3651373,-6.05553349980125,0.0 -35.3663315,-6.05883699980114,0.0 -35.3678912,-6.05851659980116,0.0 -35.370785,-6.05952049980112,0.0 -35.3750045,-6.06004939980111,0.0 -35.3794578,-6.06089109980108,0.0 -35.3824226,-6.0601745998011,0.0 -35.3871788,-6.05866729980115,0.0 -35.3889558,-6.05443479980129,0.0 -35.3912874,-6.05184239980137,0.0 -35.3941734,-6.05112659980139,0.0 -35.3991698,-6.0511053998014,0.0 -35.4031606,-6.05273029980134,0.0 -35.4068324,-6.05302609980133,0.0 -35.4115977,-6.05378649980131,0.0 -35.4148712,-6.05236439980135,0.0 -35.4202394,-6.0478816998015,0.0 -35.4222673,-6.04748239980151,0.0 -35.4246038,-6.04645439980154,0.0 -35.4267438,-6.04622289980155,0.0 -35.426796,-6.04621719980155,0.0</coordinates>
</LinearRing>
</outerBoundaryIs>
</Polygon>
</MultiGeometry>
</Placemark>
</Folder>
</Document></kml>
