<?xml version='1.0' encoding='UTF-8'?>
<kml xmlns:xsd="http://www.w3.org/2001/XMLSchema" xmlns:gx="http://www.google.com/kml/ext/2.2" xmlns:atom="http://www.w3.org/2005/Atom" xmlns="http://www.opengis.net/kml/2.2">
<Document>
<name>aricanduva_3104452_localidades_2022</name>
<visibility>1</visibility>
<Schema name="Localidades" id="kml_schema_ft_Localidades">
<SimpleField type="xsd:string" name="CD_UF">
<displayName>CD_UF</displayName>
</SimpleField>
<SimpleField type="xsd:string" name="NM_UF">
<displayName>NM_UF</displayName>
</SimpleField>
<SimpleField type="xsd:string" name="SIGLA_UF">
<displayName>SIGLA_UF</displayName>
</SimpleField>
<SimpleField type="xsd:string" name="CD_MUN">
<displayName>CD_MUN</displayName>
</SimpleField>
<SimpleField type="xsd:string" name="NM_MUN">
<displayName>NM_MUN</displayName>
</SimpleField>
<SimpleField type="xsd:string" name="CD_RGINT">
<displayName>CD_RGINT</displayName>
</SimpleField>
<SimpleField type="xsd:string" name="NM_RGINT">
<displayName>NM_RGINT</displayName>
</SimpleField>
<SimpleField type="xsd:string" name="CD_RGI">
<displayName>CD_RGI</displayName>
</SimpleField>
<SimpleField type="xsd:string" name="NM_RGI">
<displayName>NM_RGI</displayName>
</SimpleField>
<SimpleField type="xsd:string" name="CT_LOCALIDADE">
<displayName>CT_LOCALIDADE</displayName>
</SimpleField>
<SimpleField type="xsd:string" name="SCT_LOCALIDADE">
<displayName>SCT_LOCALIDADE</displayName>
</SimpleField>
<SimpleField type="xsd:string" name="CD_LOCALIDADE">
<displayName>CD_LOCALIDADE</displayName>
</SimpleField>
<SimpleField type="xsd:string" name="NM_LOCALIDADE">
<displayName>NM_LOCALIDADE</displayName>
</SimpleField>
</Schema>
<Schema name="01. Cidade" id="kml_schema_ft_01._Cidade">
<SimpleField type="xsd:string" name="CD_UF">
<displayName>CD_UF</displayName>
</SimpleField>
<SimpleField type="xsd:string" name="NM_UF">
<displayName>NM_UF</displayName>
</SimpleField>
<SimpleField type="xsd:string" name="SIGLA_UF">
<displayName>SIGLA_UF</displayName>
</SimpleField>
<SimpleField type="xsd:string" name="CD_MUN">
<displayName>CD_MUN</displayName>
</SimpleField>
<SimpleField type="xsd:string" name="NM_MUN">
<displayName>NM_MUN</displayName>
</SimpleField>
<SimpleField type="xsd:string" name="CD_RGINT">
<displayName>CD_RGINT</displayName>
</SimpleField>
<SimpleField type="xsd:string" name="NM_RGINT">
<displayName>NM_RGINT</displayName>
</SimpleField>
<SimpleField type="xsd:string" name="CD_RGI">
<displayName>CD_RGI</displayName>
</SimpleField>
<SimpleField type="xsd:string" name="NM_RGI">
<displayName>NM_RGI</displayName>
</SimpleField>
<SimpleField type="xsd:string" name="CT_LOCALIDADE">
<displayName>CT_LOCALIDADE</displayName>
</SimpleField>
<SimpleField type="xsd:string" name="SCT_LOCALIDADE">
<displayName>SCT_LOCALIDADE</displayName>
</SimpleField>
<SimpleField type="xsd:string" name="CD_LOCALIDADE">
<displayName>CD_LOCALIDADE</displayName>
</SimpleField>
<SimpleField type="xsd:string" name="NM_LOCALIDADE">
<displayName>NM_LOCALIDADE</displayName>
</SimpleField>
<SimpleField type="xsd:string" name="LAT_LOCALIDADE">
<displayName>LAT_LOCALIDADE</displayName>
</SimpleField>
<SimpleField type="xsd:string" name="LONG_LOCALIDADE">
<displayName>LONG_LOCALIDADE</displayName>
</SimpleField>
</Schema>
<Schema name="Município" id="kml_schema_ft_Município">
<SimpleField type="xsd:string" name="CD_UF">
<displayName>CD_UF</displayName>
</SimpleField>
<SimpleField type="xsd:string" name="NM_UF">
<displayName>NM_UF</displayName>
</SimpleField>
<SimpleField type="xsd:string" name="CD_MUN">
<displayName>CD_MUN</displayName>
</SimpleField>
<SimpleField type="xsd:string" name="NM_MUN">
<displayName>NM_MUN</displayName>
</SimpleField>
<SimpleField type="xsd:string" name="CD_RGINT">
<displayName>CD_RGINT</displayName>
</SimpleField>
<SimpleField type="xsd:string" name="NM_RGINT">
<displayName>NM_RGINT</displayName>
</SimpleField>
<SimpleField type="xsd:string" name="CD_RGI">
<displayName>CD_RGI</displayName>
</SimpleField>
<SimpleField type="xsd:string" name="NM_RGI">
<displayName>NM_RGI</displayName>
</SimpleField>
</Schema>
<Folder id="01. Cidade">
<name>01. Cidade</name>
<Folder id="01.03. Sede Municipal">
<name>01.03. Sede Municipal</name>
<Placemark id="01.03. Sede Municipal">
<name>Aricanduva [3104452]</name>
<visibility>1</visibility>
<snippet> </snippet>
<description>&lt;center&gt;&lt;table&gt;&lt;tr&gt;&lt;th colspan='2' align='center'&gt;&lt;em&gt;Atributos&lt;/em&gt;&lt;/th&gt;&lt;/tr&gt;&lt;tr bgcolor="#E3E3F3"&gt;
&lt;th&gt;CD_UF&lt;/th&gt;
&lt;td&gt;31&lt;/td&gt;
&lt;/tr&gt;&lt;tr bgcolor=""&gt;
&lt;th&gt;NM_UF&lt;/th&gt;
&lt;td&gt;Minas Gerais&lt;/td&gt;
&lt;/tr&gt;&lt;tr bgcolor="#E3E3F3"&gt;
&lt;th&gt;SIGLA_UF&lt;/th&gt;
&lt;td&gt;MG&lt;/td&gt;
&lt;/tr&gt;&lt;tr bgcolor=""&gt;
&lt;th&gt;CD_MUN&lt;/th&gt;
&lt;td&gt;3104452&lt;/td&gt;
&lt;/tr&gt;&lt;tr bgcolor="#E3E3F3"&gt;
&lt;th&gt;NM_MUN&lt;/th&gt;
&lt;td&gt;Aricanduva&lt;/td&gt;
&lt;/tr&gt;&lt;tr bgcolor=""&gt;
&lt;th&gt;CD_RGINT&lt;/th&gt;
&lt;td&gt;3103&lt;/td&gt;
&lt;/tr&gt;&lt;tr bgcolor="#E3E3F3"&gt;
&lt;th&gt;NM_RGINT&lt;/th&gt;
&lt;td&gt;Teófilo Otoni&lt;/td&gt;
&lt;/tr&gt;&lt;tr bgcolor=""&gt;
&lt;th&gt;CD_RGI&lt;/th&gt;
&lt;td&gt;310014&lt;/td&gt;
&lt;/tr&gt;&lt;tr bgcolor="#E3E3F3"&gt;
&lt;th&gt;NM_RGI&lt;/th&gt;
&lt;td&gt;Capelinha&lt;/td&gt;
&lt;/tr&gt;&lt;tr bgcolor=""&gt;
&lt;th&gt;CT_LOCALIDADE&lt;/th&gt;
&lt;td&gt;Cidade&lt;/td&gt;
&lt;/tr&gt;&lt;tr bgcolor="#E3E3F3"&gt;
&lt;th&gt;SCT_LOCALIDADE&lt;/th&gt;
&lt;td&gt;Sede Municipal&lt;/td&gt;
&lt;/tr&gt;&lt;tr bgcolor=""&gt;
&lt;th&gt;CD_LOCALIDADE&lt;/th&gt;
&lt;td&gt;3104452&lt;/td&gt;
&lt;/tr&gt;&lt;tr bgcolor="#E3E3F3"&gt;
&lt;th&gt;NM_LOCALIDADE&lt;/th&gt;
&lt;td&gt;Aricanduva&lt;/td&gt;
&lt;/tr&gt;&lt;tr bgcolor=""&gt;
&lt;th&gt;LAT_LOCALIDADE&lt;/th&gt;
&lt;td&gt;-17.868&lt;/td&gt;
&lt;/tr&gt;&lt;tr bgcolor="#E3E3F3"&gt;
&lt;th&gt;LONG_LOCALIDADE&lt;/th&gt;
&lt;td&gt;-42.5563&lt;/td&gt;
&lt;/tr&gt;&lt;/table&gt;&lt;/center&gt;</description>
<Style>
<IconStyle>
<color>ff00aaff</color>
<scale>1.0</scale>
<Icon>
<href>http://maps.google.com/mapfiles/kml/shapes/placemark_circle.png</href>
</Icon>
</IconStyle>
<LabelStyle>
<scale>1.0</scale>
</LabelStyle>
<LineStyle>
<color>ffffffff</color>
<width>3</width>
<gx:labelVisibility>1</gx:labelVisibility>
</LineStyle>
<PolyStyle>
<color>00ffffff</color>
</PolyStyle>
</Style>
<ExtendedData>
<SchemaData schemaUrl="#kml_schema_ft_01._Cidade">
<SimpleData name="CD_UF">31</SimpleData>
<SimpleData name="NM_UF">Minas Gerais</SimpleData>
<SimpleData name="SIGLA_UF">MG</SimpleData>
<SimpleData name="CD_MUN">3104452</SimpleData>
<SimpleData name="NM_MUN">Aricanduva</SimpleData>
<SimpleData name="CD_RGINT">3103</SimpleData>
<SimpleData name="NM_RGINT">Teófilo Otoni</SimpleData>
<SimpleData name="CD_RGI">310014</SimpleData>
<SimpleData name="NM_RGI">Capelinha</SimpleData>
<SimpleData name="CT_LOCALIDADE">Cidade</SimpleData>
<SimpleData name="SCT_LOCALIDADE">Sede Municipal</SimpleData>
<SimpleData name="CD_LOCALIDADE">3104452</SimpleData>
<SimpleData name="NM_LOCALIDADE">Aricanduva</SimpleData>
<SimpleData name="LAT_LOCALIDADE">-17.868</SimpleData>
<SimpleData name="LONG_LOCALIDADE">-42.5563</SimpleData>
</SchemaData>
</ExtendedData>
<Point>
<extrude>0</extrude>
<coordinates>-42.5563,-17.8679999994474,0.0</coordinates>
</Point>
</Placemark>
</Folder>
</Folder>
<Folder id="12. Outras Localidades">
<name>12. Outras Localidades</name>
<Placemark id="12. Outras Localidades">
<name>Santo Antônio [310445200001]</name>
<visibility>1</visibility>
<snippet> </snippet>
<description>&lt;center&gt;&lt;table&gt;&lt;tr&gt;&lt;th colspan='2' align='center'&gt;&lt;em&gt;Attributes&lt;/em&gt;&lt;/th&gt;&lt;/tr&gt;&lt;tr bgcolor="#E3E3F3"&gt;
&lt;th&gt;CD_UF&lt;/th&gt;
&lt;td&gt;31&lt;/td&gt;
&lt;/tr&gt;&lt;tr bgcolor=""&gt;
&lt;th&gt;NM_UF&lt;/th&gt;
&lt;td&gt;Minas Gerais&lt;/td&gt;
&lt;/tr&gt;&lt;tr bgcolor="#E3E3F3"&gt;
&lt;th&gt;SIGLA_UF&lt;/th&gt;
&lt;td&gt;MG&lt;/td&gt;
&lt;/tr&gt;&lt;tr bgcolor=""&gt;
&lt;th&gt;CD_MUN&lt;/th&gt;
&lt;td&gt;3104452&lt;/td&gt;
&lt;/tr&gt;&lt;tr bgcolor="#E3E3F3"&gt;
&lt;th&gt;NM_MUN&lt;/th&gt;
&lt;td&gt;Aricanduva&lt;/td&gt;
&lt;/tr&gt;&lt;tr bgcolor=""&gt;
&lt;th&gt;CD_RGINT&lt;/th&gt;
&lt;td&gt;3103&lt;/td&gt;
&lt;/tr&gt;&lt;tr bgcolor="#E3E3F3"&gt;
&lt;th&gt;NM_RGINT&lt;/th&gt;
&lt;td&gt;Teófilo Otoni&lt;/td&gt;
&lt;/tr&gt;&lt;tr bgcolor=""&gt;
&lt;th&gt;CD_RGI&lt;/th&gt;
&lt;td&gt;310014&lt;/td&gt;
&lt;/tr&gt;&lt;tr bgcolor="#E3E3F3"&gt;
&lt;th&gt;NM_RGI&lt;/th&gt;
&lt;td&gt;Capelinha&lt;/td&gt;
&lt;/tr&gt;&lt;tr bgcolor=""&gt;
&lt;th&gt;CT_LOCALIDADE&lt;/th&gt;
&lt;td&gt;Outras Localidades&lt;/td&gt;
&lt;/tr&gt;&lt;tr bgcolor="#E3E3F3"&gt;
&lt;th&gt;SCT_LOCALIDADE&lt;/th&gt;
&lt;td&gt;&lt;/td&gt;
&lt;/tr&gt;&lt;tr bgcolor=""&gt;
&lt;th&gt;CD_LOCALIDADE&lt;/th&gt;
&lt;td&gt;310445200001&lt;/td&gt;
&lt;/tr&gt;&lt;tr bgcolor="#E3E3F3"&gt;
&lt;th&gt;NM_LOCALIDADE&lt;/th&gt;
&lt;td&gt;Santo Antônio&lt;/td&gt;
&lt;/tr&gt;&lt;/table&gt;&lt;/center&gt;</description>
<Style>
<IconStyle>
<color>ff0069d3</color>
<scale>0.6</scale>
<Icon>
<href>http://maps.google.com/mapfiles/kml/shapes/placemark_circle.png</href>
</Icon>
</IconStyle>
<LabelStyle>
<scale>0.6</scale>
</LabelStyle>
<LineStyle>
<width>1.0</width>
<gx:labelVisibility>1</gx:labelVisibility>
</LineStyle>
</Style>
<ExtendedData>
<SchemaData schemaUrl="#kml_schema_ft_Localidades">
<SimpleData name="CD_UF">31</SimpleData>
<SimpleData name="NM_UF">Minas Gerais</SimpleData>
<SimpleData name="SIGLA_UF">MG</SimpleData>
<SimpleData name="CD_MUN">3104452</SimpleData>
<SimpleData name="NM_MUN">Aricanduva</SimpleData>
<SimpleData name="CD_RGINT">3103</SimpleData>
<SimpleData name="NM_RGINT">Teófilo Otoni</SimpleData>
<SimpleData name="CD_RGI">310014</SimpleData>
<SimpleData name="NM_RGI">Capelinha</SimpleData>
<SimpleData name="CT_LOCALIDADE">Outras Localidades</SimpleData>
<SimpleData name="CD_LOCALIDADE">310445200001</SimpleData>
<SimpleData name="NM_LOCALIDADE">Santo Antônio</SimpleData>
</SchemaData>
</ExtendedData>
<Point>
<extrude>0</extrude>
<coordinates>-42.621744,-17.8194969994487,0.0</coordinates>
</Point>
</Placemark>
<Placemark id="12. Outras Localidades">
<name>Comunidade Brejão [310445200002]</name>
<visibility>1</visibility>
<snippet> </snippet>
<description>&lt;center&gt;&lt;table&gt;&lt;tr&gt;&lt;th colspan='2' align='center'&gt;&lt;em&gt;Attributes&lt;/em&gt;&lt;/th&gt;&lt;/tr&gt;&lt;tr bgcolor="#E3E3F3"&gt;
&lt;th&gt;CD_UF&lt;/th&gt;
&lt;td&gt;31&lt;/td&gt;
&lt;/tr&gt;&lt;tr bgcolor=""&gt;
&lt;th&gt;NM_UF&lt;/th&gt;
&lt;td&gt;Minas Gerais&lt;/td&gt;
&lt;/tr&gt;&lt;tr bgcolor="#E3E3F3"&gt;
&lt;th&gt;SIGLA_UF&lt;/th&gt;
&lt;td&gt;MG&lt;/td&gt;
&lt;/tr&gt;&lt;tr bgcolor=""&gt;
&lt;th&gt;CD_MUN&lt;/th&gt;
&lt;td&gt;3104452&lt;/td&gt;
&lt;/tr&gt;&lt;tr bgcolor="#E3E3F3"&gt;
&lt;th&gt;NM_MUN&lt;/th&gt;
&lt;td&gt;Aricanduva&lt;/td&gt;
&lt;/tr&gt;&lt;tr bgcolor=""&gt;
&lt;th&gt;CD_RGINT&lt;/th&gt;
&lt;td&gt;3103&lt;/td&gt;
&lt;/tr&gt;&lt;tr bgcolor="#E3E3F3"&gt;
&lt;th&gt;NM_RGINT&lt;/th&gt;
&lt;td&gt;Teófilo Otoni&lt;/td&gt;
&lt;/tr&gt;&lt;tr bgcolor=""&gt;
&lt;th&gt;CD_RGI&lt;/th&gt;
&lt;td&gt;310014&lt;/td&gt;
&lt;/tr&gt;&lt;tr bgcolor="#E3E3F3"&gt;
&lt;th&gt;NM_RGI&lt;/th&gt;
&lt;td&gt;Capelinha&lt;/td&gt;
&lt;/tr&gt;&lt;tr bgcolor=""&gt;
&lt;th&gt;CT_LOCALIDADE&lt;/th&gt;
&lt;td&gt;Outras Localidades&lt;/td&gt;
&lt;/tr&gt;&lt;tr bgcolor="#E3E3F3"&gt;
&lt;th&gt;SCT_LOCALIDADE&lt;/th&gt;
&lt;td&gt;&lt;/td&gt;
&lt;/tr&gt;&lt;tr bgcolor=""&gt;
&lt;th&gt;CD_LOCALIDADE&lt;/th&gt;
&lt;td&gt;310445200002&lt;/td&gt;
&lt;/tr&gt;&lt;tr bgcolor="#E3E3F3"&gt;
&lt;th&gt;NM_LOCALIDADE&lt;/th&gt;
&lt;td&gt;Comunidade Brejão&lt;/td&gt;
&lt;/tr&gt;&lt;/table&gt;&lt;/center&gt;</description>
<Style>
<IconStyle>
<color>ff0069d3</color>
<scale>0.6</scale>
<Icon>
<href>http://maps.google.com/mapfiles/kml/shapes/placemark_circle.png</href>
</Icon>
</IconStyle>
<LabelStyle>
<scale>0.6</scale>
</LabelStyle>
<LineStyle>
<width>1.0</width>
<gx:labelVisibility>1</gx:labelVisibility>
</LineStyle>
</Style>
<ExtendedData>
<SchemaData schemaUrl="#kml_schema_ft_Localidades">
<SimpleData name="CD_UF">31</SimpleData>
<SimpleData name="NM_UF">Minas Gerais</SimpleData>
<SimpleData name="SIGLA_UF">MG</SimpleData>
<SimpleData name="CD_MUN">3104452</SimpleData>
<SimpleData name="NM_MUN">Aricanduva</SimpleData>
<SimpleData name="CD_RGINT">3103</SimpleData>
<SimpleData name="NM_RGINT">Teófilo Otoni</SimpleData>
<SimpleData name="CD_RGI">310014</SimpleData>
<SimpleData name="NM_RGI">Capelinha</SimpleData>
<SimpleData name="CT_LOCALIDADE">Outras Localidades</SimpleData>
<SimpleData name="CD_LOCALIDADE">310445200002</SimpleData>
<SimpleData name="NM_LOCALIDADE">Comunidade Brejão</SimpleData>
</SchemaData>
</ExtendedData>
<Point>
<extrude>0</extrude>
<coordinates>-42.6074213,-17.8725119994473,0.0</coordinates>
</Point>
</Placemark>
</Folder>
<Folder id="13. Referência">
<name>13. Referência</name>
<Placemark id="13. Referência">
<name>Aricanduva [3104452]</name>
<visibility>1</visibility>
<snippet> </snippet>
<description>&lt;center&gt;&lt;table&gt;&lt;tr&gt;&lt;th colspan='2' align='center'&gt;&lt;em&gt;Attributes&lt;/em&gt;&lt;/th&gt;&lt;/tr&gt;&lt;tr bgcolor="#E3E3F3"&gt;
&lt;th&gt;CD_UF&lt;/th&gt;
&lt;td&gt;31&lt;/td&gt;
&lt;/tr&gt;&lt;tr bgcolor=""&gt;
&lt;th&gt;NM_UF&lt;/th&gt;
&lt;td&gt;Minas Gerais&lt;/td&gt;
&lt;/tr&gt;&lt;tr bgcolor="#E3E3F3"&gt;
&lt;th&gt;CD_MUN&lt;/th&gt;
&lt;td&gt;3104452&lt;/td&gt;
&lt;/tr&gt;&lt;tr bgcolor=""&gt;
&lt;th&gt;NM_MUN&lt;/th&gt;
&lt;td&gt;Aricanduva&lt;/td&gt;
&lt;/tr&gt;&lt;tr bgcolor="#E3E3F3"&gt;
&lt;th&gt;CD_RGINT&lt;/th&gt;
&lt;td&gt;3103&lt;/td&gt;
&lt;/tr&gt;&lt;tr bgcolor=""&gt;
&lt;th&gt;NM_RGINT&lt;/th&gt;
&lt;td&gt;Teófilo Otoni&lt;/td&gt;
&lt;/tr&gt;&lt;tr bgcolor="#E3E3F3"&gt;
&lt;th&gt;CD_RGI&lt;/th&gt;
&lt;td&gt;310014&lt;/td&gt;
&lt;/tr&gt;&lt;tr bgcolor=""&gt;
&lt;th&gt;NM_RGI&lt;/th&gt;
&lt;td&gt;Capelinha&lt;/td&gt;
&lt;/tr&gt;&lt;/table&gt;&lt;/center&gt;</description>
<Style>
<IconStyle>
<scale>0.7</scale>
</IconStyle>
<LabelStyle>
<scale>0.7</scale>
</LabelStyle>
<LineStyle>
<color>ffffffff</color>
<width>3</width>
<gx:labelVisibility>1</gx:labelVisibility>
</LineStyle>
<PolyStyle>
<color>00ffffff</color>
</PolyStyle>
</Style>
<ExtendedData>
<SchemaData schemaUrl="#kml_schema_ft_Município">
<SimpleData name="CD_UF">31</SimpleData>
<SimpleData name="NM_UF">Minas Gerais</SimpleData>
<SimpleData name="CD_MUN">3104452</SimpleData>
<SimpleData name="NM_MUN">Aricanduva</SimpleData>
<SimpleData name="CD_RGINT">3103</SimpleData>
<SimpleData name="NM_RGINT">Teófilo Otoni</SimpleData>
<SimpleData name="CD_RGI">310014</SimpleData>
<SimpleData name="NM_RGI">Capelinha</SimpleData>
</SchemaData>
</ExtendedData>
<MultiGeometry>
<Polygon>
<extrude>0</extrude>
<tessellate>1</tessellate>
<outerBoundaryIs>
<LinearRing>
<coordinates>-42.5541884,-17.8671942994474,0.0 -42.5542342,-17.8673720994474,0.0 -42.5542391,-17.8675346994474,0.0 -42.5541109,-17.8677121994474,0.0 -42.5539039,-17.8676628994474,0.0 -42.5538053,-17.8675247994474,0.0 -42.5536968,-17.8674360994474,0.0 -42.5534996,-17.8674755994474,0.0 -42.5533813,-17.8675741994474,0.0 -42.553332,-17.8677417994474,0.0 -42.5534207,-17.8678699994474,0.0 -42.5535095,-17.8679685994474,0.0 -42.5534257,-17.8681460994474,0.0 -42.5532433,-17.8681706994474,0.0 -42.5530954,-17.8680769994474,0.0 -42.5528883,-17.8680720994474,0.0 -42.5528489,-17.8679142994474,0.0 -42.55277,-17.8677713994474,0.0 -42.5526221,-17.8676875994474,0.0 -42.5521909,-17.8672943994474,0.0 -42.5521579,-17.8672642994474,0.0 -42.5516419,-17.8669201994474,0.0 -42.5510914,-17.8670233994474,0.0 -42.550979,-17.8670123994474,0.0 -42.5505813,-17.8669733994474,0.0 -42.5504044,-17.8670835994474,0.0 -42.550252,-17.8673605994474,0.0 -42.5501919,-17.8675545994474,0.0 -42.5500287,-17.8678058994474,0.0 -42.5499903,-17.8678651994474,0.0 -42.5498575,-17.8680017994474,0.0 -42.5497078,-17.8678649994474,0.0 -42.549557,-17.8677990994474,0.0 -42.5494253,-17.8677798994474,0.0 -42.5492175,-17.8678205994474,0.0 -42.549184,-17.8680162994474,0.0 -42.5492727,-17.8681155994474,0.0 -42.5493979,-17.8681827994474,0.0 -42.549364,-17.8683079994474,0.0 -42.5493581,-17.8683296994474,0.0 -42.5491773,-17.8683926994474,0.0 -42.5490341,-17.8684214994474,0.0 -42.548821,-17.8686150994474,0.0 -42.5486391,-17.8687857994474,0.0 -42.5484736,-17.8689755994474,0.0 -42.5483053,-17.8689081994474,0.0 -42.5481271,-17.8689603994474,0.0 -42.5480113,-17.8690519994474,0.0 -42.5479439,-17.8692109994474,0.0 -42.54795,-17.8693402994474,0.0 -42.5479194,-17.8696395994473,0.0 -42.5479807,-17.8697928994473,0.0 -42.5479042,-17.8699366994473,0.0 -42.5478308,-17.8700929994473,0.0 -42.547889,-17.8702120994473,0.0 -42.5477541,-17.8702519994473,0.0 -42.5475813,-17.8703742994473,0.0 -42.5476347,-17.8705704994473,0.0 -42.5475403,-17.8707360994473,0.0 -42.5475825,-17.8709087994473,0.0 -42.5475828,-17.8711243994473,0.0 -42.5474236,-17.8712499994473,0.0 -42.5473261,-17.8713735994473,0.0 -42.5472415,-17.8718089994473,0.0 -42.5474529,-17.8718980994473,0.0 -42.5475165,-17.8720469994473,0.0 -42.5475118,-17.8722165994473,0.0 -42.5473178,-17.8722875994473,0.0 -42.5472156,-17.8724043994473,0.0 -42.547306,-17.8725311994473,0.0 -42.547344,-17.8726683994473,0.0 -42.5472387,-17.8728472994473,0.0 -42.5472251,-17.8730711994473,0.0 -42.5471656,-17.8735155994472,0.0 -42.5472679,-17.8737033994472,0.0 -42.5474463,-17.8738974994472,0.0 -42.5474755,-17.8740414994472,0.0 -42.5474755,-17.8744014994472,0.0 -42.5475642,-17.8745631994472,0.0 -42.5477405,-17.8745777994472,0.0 -42.54792,-17.8746069994472,0.0 -42.5480233,-17.8750942994472,0.0 -42.5480066,-17.8752298994472,0.0 -42.5478595,-17.8753185994472,0.0 -42.5476445,-17.8753175994472,0.0 -42.5474025,-17.8753029994472,0.0 -42.5471938,-17.8754354994472,0.0 -42.5470623,-17.8755992994472,0.0 -42.5470934,-17.8760147994472,0.0 -42.5472782,-17.8761626994472,0.0 -42.5474578,-17.8765482994472,0.0 -42.5476586,-17.8767753994472,0.0 -42.5478155,-17.8771806994471,0.0 -42.5477748,-17.8773247994471,0.0 -42.5475649,-17.8773722994471,0.0 -42.5475205,-17.8775196994471,0.0 -42.5475203,-17.8775938994471,0.0 -42.5475202,-17.8776680994471,0.0 -42.5475646,-17.8778155994471,0.0 -42.547549,-17.8780088994471,0.0 -42.5474463,-17.8781858994471,0.0 -42.5473426,-17.8783037994471,0.0 -42.5473572,-17.8784664994471,0.0 -42.5474317,-17.8785998994471,0.0 -42.5475348,-17.8787102994471,0.0 -42.5476236,-17.8788655994471,0.0 -42.5477876,-17.8788656994471,0.0 -42.5479361,-17.8789104994471,0.0 -42.5479502,-17.8790577994471,0.0 -42.5479196,-17.8792392994471,0.0 -42.5479066,-17.8794124994471,0.0 -42.5480233,-17.8795161994471,0.0 -42.548332,-17.8796327994471,0.0 -42.5483625,-17.8797671994471,0.0 -42.5483257,-17.8799226994471,0.0 -42.5484357,-17.8800480994471,0.0 -42.5485473,-17.8801296994471,0.0 -42.548612,-17.8802963994471,0.0 -42.5488501,-17.8805395994471,0.0 -42.5483407,-17.8804618994471,0.0 -42.548435,-17.880758999447,0.0 -42.548794,-17.881086999447,0.0 -42.549154,-17.881367999447,0.0 -42.549563,-17.881580999447,0.0 -42.549996,-17.881769999447,0.0 -42.55055,-17.881937999447,0.0 -42.551032,-17.882127999447,0.0 -42.551537,-17.882294999447,0.0 -42.551996,-17.882391999447,0.0 -42.552454,-17.882511999447,0.0 -42.553319,-17.882936999447,0.0 -42.553728,-17.883172999447,0.0 -42.554112,-17.883430999447,0.0 -42.554447,-17.883735999447,0.0 -42.554781,-17.884132999447,0.0 -42.555067,-17.8845289994469,0.0 -42.555305,-17.8849249994469,0.0 -42.555493,-17.8853429994469,0.0 -42.555609,-17.8858069994469,0.0 -42.555652,-17.8863399994469,0.0 -42.555694,-17.8868959994469,0.0 -42.555684,-17.8878449994469,0.0 -42.555606,-17.8883769994468,0.0 -42.555599,-17.8890249994468,0.0 -42.555569,-17.8895109994468,0.0 -42.55554,-17.8899499994468,0.0 -42.555487,-17.8904359994468,0.0 -42.555408,-17.8909909994468,0.0 -42.555355,-17.8914529994468,0.0 -42.555301,-17.8919389994468,0.0 -42.555199,-17.8923779994467,0.0 -42.555146,-17.8928859994467,0.0 -42.555116,-17.8933949994467,0.0 -42.555111,-17.8938579994467,0.0 -42.555202,-17.8943449994467,0.0 -42.555437,-17.8949729994467,0.0 -42.555553,-17.8954369994467,0.0 -42.55579,-17.8958559994466,0.0 -42.556003,-17.8963209994466,0.0 -42.556265,-17.8966939994466,0.0 -42.556551,-17.8970899994466,0.0 -42.556763,-17.8975549994466,0.0 -42.556807,-17.8979959994466,0.0 -42.556826,-17.8984359994466,0.0 -42.556651,-17.8989429994466,0.0 -42.556428,-17.8995199994465,0.0 -42.556205,-17.9000039994465,0.0 -42.555885,-17.9005329994465,0.0 -42.555445,-17.9009679994465,0.0 -42.555054,-17.9013349994465,0.0 -42.554641,-17.9015389994465,0.0 -42.554204,-17.9016969994465,0.0 -42.5536711,-17.9017379994465,0.0 -42.553139,-17.9017319994465,0.0 -42.55268,-17.9017509994465,0.0 -42.55222,-17.9017929994465,0.0 -42.551687,-17.9019029994465,0.0 -42.551202,-17.9019909994465,0.0 -42.550719,-17.9019859994465,0.0 -42.55021,-17.9020499994465,0.0 -42.549751,-17.9020689994465,0.0 -42.549243,-17.9020639994465,0.0 -42.548759,-17.9021049994465,0.0 -42.548298,-17.9022159994465,0.0 -42.547692,-17.9024189994465,0.0 -42.547231,-17.9025299994465,0.0 -42.546673,-17.9027089994465,0.0 -42.546162,-17.9030049994465,0.0 -42.545701,-17.9031159994465,0.0 -42.545217,-17.9032269994464,0.0 -42.544683,-17.9033379994464,0.0 -42.544223,-17.9034029994464,0.0 -42.543764,-17.9034439994464,0.0 -42.543303,-17.9035549994464,0.0 -42.542818,-17.9036659994464,0.0 -42.542285,-17.9037999994464,0.0 -42.5418,-17.9039109994464,0.0 -42.54129,-17.9041139994464,0.0 -42.540805,-17.9042249994464,0.0 -42.540368,-17.9044059994464,0.0 -42.540002,-17.9046799994464,0.0 -42.539539,-17.9050219994464,0.0 -42.5391,-17.9053419994464,0.0 -42.538759,-17.9056389994464,0.0 -42.538393,-17.9059139994464,0.0 -42.538027,-17.9062109994464,0.0 -42.537685,-17.9065079994464,0.0 -42.537319,-17.9068059994464,0.0 -42.536977,-17.9071029994463,0.0 -42.536563,-17.9073999994463,0.0 -42.535927,-17.9080879994463,0.0 -42.535609,-17.9084549994463,0.0 -42.535291,-17.9087989994463,0.0 -42.534972,-17.9091659994463,0.0 -42.534677,-17.9095799994463,0.0 -42.534358,-17.9100399994463,0.0 -42.53394,-17.9106369994462,0.0 -42.533693,-17.9111439994462,0.0 -42.533471,-17.9115819994462,0.0 -42.533126,-17.9121799994462,0.0 -42.533,-17.9126419994462,0.0 -42.532801,-17.9131259994462,0.0 -42.532531,-17.9134939994462,0.0 -42.532357,-17.9139319994462,0.0 -42.532206,-17.9144389994461,0.0 -42.532104,-17.9148779994461,0.0 -42.532027,-17.9153169994461,0.0 -42.531925,-17.9158489994461,0.0 -42.531799,-17.9163099994461,0.0 -42.531649,-17.9167489994461,0.0 -42.531449,-17.9173249994461,0.0 -42.531322,-17.9178329994461,0.0 -42.531076,-17.918223999446,0.0 -42.530853,-17.918730999446,0.0 -42.53063,-17.919191999446,0.0 -42.53036,-17.919605999446,0.0 -42.530041,-17.920042999446,0.0 -42.529699,-17.920339999446,0.0 -42.52938,-17.920776999446,0.0 -42.529014,-17.921073999446,0.0 -42.528599,-17.921370999446,0.0 -42.528137,-17.921666999446,0.0 -42.527652,-17.921777999446,0.0 -42.52719,-17.9219809994459,0.0 -42.526777,-17.9221849994459,0.0 -42.526267,-17.9223189994459,0.0 -42.525783,-17.9224069994459,0.0 -42.525322,-17.9225639994459,0.0 -42.524788,-17.9227439994459,0.0 -42.524302,-17.9229709994459,0.0 -42.523841,-17.9231049994459,0.0 -42.523307,-17.9232609994459,0.0 -42.522822,-17.9234189994459,0.0 -42.522335,-17.9236449994459,0.0 -42.521872,-17.9239879994459,0.0 -42.521433,-17.9243069994459,0.0 -42.520946,-17.9246259994459,0.0 -42.520532,-17.9248769994459,0.0 -42.520094,-17.9251269994459,0.0 -42.519656,-17.9254469994459,0.0 -42.519242,-17.9256739994458,0.0 -42.518318,-17.9260809994458,0.0 -42.517761,-17.9262139994458,0.0 -42.517301,-17.9262789994458,0.0 -42.516839,-17.9264369994458,0.0 -42.516281,-17.9266619994458,0.0 -42.515357,-17.9270699994458,0.0 -42.514896,-17.9272269994458,0.0 -42.514021,-17.9276809994458,0.0 -42.513559,-17.9278849994458,0.0 -42.512732,-17.9282929994458,0.0 -42.512295,-17.9284969994458,0.0 -42.511881,-17.9287009994458,0.0 -42.511444,-17.9288579994458,0.0 -42.510909,-17.9291079994458,0.0 -42.510255,-17.9292399994458,0.0 -42.50977,-17.9293269994458,0.0 -42.509213,-17.9294369994457,0.0 -42.508704,-17.9295019994457,0.0 -42.508147,-17.9296119994457,0.0 -42.507687,-17.9296999994457,0.0 -42.507154,-17.9297169994457,0.0 -42.506623,-17.9296889994457,0.0 -42.505027,-17.9296719994457,0.0 -42.504594,-17.9294829994457,0.0 -42.504161,-17.9292239994458,0.0 -42.503704,-17.9290569994458,0.0 -42.503271,-17.9288209994458,0.0 -42.502912,-17.9285169994458,0.0 -42.502479,-17.9283269994458,0.0 -42.502022,-17.9280449994458,0.0 -42.501589,-17.9278549994458,0.0 -42.50113,-17.9278729994458,0.0 -42.500645,-17.9279379994458,0.0 -42.50017,-17.9280169994458,0.0 -42.500069,-17.9280549994458,0.0 -42.499642,-17.9282789994458,0.0 -42.499182,-17.9283639994458,0.0 -42.498723,-17.9284019994458,0.0 -42.498146,-17.9282999994458,0.0 -42.49769,-17.9281769994458,0.0 -42.49721,-17.9280769994458,0.0 -42.496754,-17.9279299994458,0.0 -42.496274,-17.9278069994458,0.0 -42.495649,-17.9277039994458,0.0 -42.49512,-17.9275799994458,0.0 -42.494641,-17.9274329994458,0.0 -42.494186,-17.9272409994458,0.0 -42.493757,-17.9269789994458,0.0 -42.493376,-17.9267189994458,0.0 -42.492971,-17.9264349994458,0.0 -42.492663,-17.9261069994458,0.0 -42.492236,-17.9257529994458,0.0 -42.4918947,-17.9254897994459,0.0 -42.491808,-17.9254229994459,0.0 -42.491404,-17.9250919994459,0.0 -42.49095,-17.9248309994459,0.0 -42.490521,-17.9245469994459,0.0 -42.490066,-17.9243769994459,0.0 -42.489583,-17.9244379994459,0.0 -42.489052,-17.9244749994459,0.0 -42.488591,-17.9246059994459,0.0 -42.488176,-17.9248529994459,0.0 -42.487784,-17.9252159994459,0.0 -42.487463,-17.9256029994459,0.0 -42.487071,-17.9259199994458,0.0 -42.486775,-17.9262839994458,0.0 -42.486613,-17.9266199994458,0.0 -42.486694,-17.9267439994458,0.0 -42.486807,-17.9271849994458,0.0 -42.487038,-17.9277199994458,0.0 -42.487248,-17.9281159994458,0.0 -42.487652,-17.9284229994458,0.0 -42.488083,-17.9285919994458,0.0 -42.488994,-17.9288839994458,0.0 -42.489474,-17.9290309994458,0.0 -42.489928,-17.9292699994458,0.0 -42.490456,-17.9294169994458,0.0 -42.490887,-17.9295859994457,0.0 -42.491192,-17.9300299994457,0.0 -42.491401,-17.9304719994457,0.0 -42.491465,-17.9309349994457,0.0 -42.491672,-17.9314459994457,0.0 -42.491858,-17.9318649994457,0.0 -42.49209,-17.9323539994457,0.0 -42.492299,-17.9327729994457,0.0 -42.492631,-17.9331019994457,0.0 -42.493109,-17.9333409994456,0.0 -42.493682,-17.9336509994456,0.0 -42.494186,-17.9337979994456,0.0 -42.494786,-17.9339229994456,0.0 -42.49529,-17.9340929994456,0.0 -42.495747,-17.9341699994456,0.0 -42.496127,-17.9344769994456,0.0 -42.496508,-17.9347369994456,0.0 -42.496911,-17.9351139994456,0.0 -42.497243,-17.9354189994456,0.0 -42.497551,-17.9357479994456,0.0 -42.498077,-17.9359879994456,0.0 -42.498536,-17.9359259994456,0.0 -42.499021,-17.9358189994456,0.0 -42.49994,-17.9356499994456,0.0 -42.500232,-17.9356249994456,0.0 -42.500608,-17.9356219994456,0.0 -42.501116,-17.9355349994456,0.0 -42.501577,-17.9354699994456,0.0 -42.502135,-17.9352909994456,0.0 -42.50262,-17.9351569994456,0.0 -42.503128,-17.9350929994456,0.0 -42.503661,-17.9350749994456,0.0 -42.504144,-17.9350799994456,0.0 -42.50463,-17.9348769994456,0.0 -42.504996,-17.9345799994456,0.0 -42.505339,-17.9341899994456,0.0 -42.505801,-17.9339859994456,0.0 -42.506286,-17.9338979994456,0.0 -42.506747,-17.9337639994456,0.0 -42.507207,-17.9336759994456,0.0 -42.507716,-17.9335889994456,0.0 -42.508201,-17.9334549994456,0.0 -42.508661,-17.9333669994456,0.0 -42.509123,-17.9332099994456,0.0 -42.509607,-17.9331219994456,0.0 -42.510116,-17.9330809994457,0.0 -42.51176,-17.9330979994456,0.0 -42.512244,-17.9330559994457,0.0 -42.512944,-17.9331559994456,0.0 -42.513498,-17.9333239994456,0.0 -42.514028,-17.9335139994456,0.0 -42.51451,-17.9336579994456,0.0 -42.514992,-17.9338249994456,0.0 -42.515448,-17.9341309994456,0.0 -42.515782,-17.9345509994456,0.0 -42.516067,-17.9350399994456,0.0 -42.516304,-17.9354359994456,0.0 -42.51654,-17.9359469994456,0.0 -42.516729,-17.9364119994456,0.0 -42.516917,-17.9368539994455,0.0 -42.517131,-17.9372499994455,0.0 -42.517222,-17.9376899994455,0.0 -42.517265,-17.9382459994455,0.0 -42.517283,-17.9387559994455,0.0 -42.51737,-17.9396829994455,0.0 -42.517461,-17.9401699994455,0.0 -42.517528,-17.9406559994455,0.0 -42.517571,-17.9411199994454,0.0 -42.517613,-17.9416759994454,0.0 -42.51768,-17.9422089994454,0.0 -42.517723,-17.9426719994454,0.0 -42.51779,-17.9432289994454,0.0 -42.518001,-17.9437629994454,0.0 -42.518238,-17.9442049994453,0.0 -42.518665,-17.9449969994453,0.0 -42.519237,-17.9457429994453,0.0 -42.51967,-17.9459329994453,0.0 -42.520104,-17.9460989994453,0.0 -42.52056,-17.9463589994453,0.0 -42.520992,-17.9466639994453,0.0 -42.521326,-17.9471069994453,0.0 -42.521681,-17.9478049994453,0.0 -42.521941,-17.9483629994452,0.0 -42.52208,-17.9488739994452,0.0 -42.522075,-17.9493829994452,0.0 -42.522021,-17.9498919994452,0.0 -42.521918,-17.9504459994452,0.0 -42.52184,-17.9508849994452,0.0 -42.521787,-17.9513249994452,0.0 -42.52166,-17.9518559994452,0.0 -42.521534,-17.9523639994451,0.0 -42.521431,-17.9529179994451,0.0 -42.521255,-17.9535179994451,0.0 -42.521152,-17.9540269994451,0.0 -42.521051,-17.9544649994451,0.0 -42.520853,-17.9548799994451,0.0 -42.520654,-17.9553409994451,0.0 -42.520431,-17.955801999445,0.0 -42.520232,-17.956285999445,0.0 -42.520106,-17.956770999445,0.0 -42.520028,-17.957255999445,0.0 -42.519926,-17.957763999445,0.0 -42.519873,-17.958202999445,0.0 -42.51977,-17.958757999445,0.0 -42.519691,-17.959265999445,0.0 -42.51968,-17.9603079994449,0.0 -42.51965,-17.9608399994449,0.0 -42.519669,-17.9613029994449,0.0 -42.519785,-17.9617669994449,0.0 -42.519925,-17.9622089994449,0.0 -42.520235,-17.9626279994449,0.0 -42.520594,-17.9629329994448,0.0 -42.521027,-17.9631459994448,0.0 -42.521509,-17.9633129994448,0.0 -42.521992,-17.9633639994448,0.0 -42.5225,-17.9633689994448,0.0 -42.52296,-17.9633499994448,0.0 -42.523422,-17.9631239994449,0.0 -42.523764,-17.9628259994449,0.0 -42.524034,-17.9624589994449,0.0 -42.52428,-17.9620679994449,0.0 -42.52443,-17.9616059994449,0.0 -42.524556,-17.9611209994449,0.0 -42.524755,-17.9607069994449,0.0 -42.524953,-17.9602459994449,0.0 -42.525079,-17.9598069994449,0.0 -42.525229,-17.9593459994449,0.0 -42.525331,-17.958906999445,0.0 -42.525481,-17.958445999445,0.0 -42.525607,-17.958006999445,0.0 -42.525829,-17.957592999445,0.0 -42.526124,-17.957201999445,0.0 -42.526418,-17.956857999445,0.0 -42.527293,-17.956403999445,0.0 -42.52766,-17.956082999445,0.0 -42.527978,-17.955761999445,0.0 -42.528344,-17.9554649994451,0.0 -42.528639,-17.9550519994451,0.0 -42.528669,-17.9544729994451,0.0 -42.528772,-17.9538959994451,0.0 -42.528947,-17.9533879994451,0.0 -42.529025,-17.9529259994451,0.0 -42.529271,-17.9525349994451,0.0 -42.529589,-17.9521679994451,0.0 -42.529981,-17.9517779994451,0.0 -42.530396,-17.9514349994452,0.0 -42.530714,-17.9510679994452,0.0 -42.531058,-17.9506319994452,0.0 -42.531448,-17.9503109994452,0.0 -42.531911,-17.9499919994452,0.0 -42.532277,-17.9497179994452,0.0 -42.532715,-17.9494219994452,0.0 -42.533081,-17.9491469994452,0.0 -42.533447,-17.9488499994452,0.0 -42.53396,-17.9484159994452,0.0 -42.534594,-17.9479589994453,0.0 -42.534936,-17.9475919994453,0.0 -42.535326,-17.9473179994453,0.0 -42.53574,-17.9470909994453,0.0 -42.53613,-17.9468399994453,0.0 -42.536664,-17.9466839994453,0.0 -42.537148,-17.9465959994453,0.0 -42.538188,-17.9466059994453,0.0 -42.538794,-17.9464969994453,0.0 -42.539278,-17.9464549994453,0.0 -42.539833,-17.9465999994453,0.0 -42.540386,-17.9468829994453,0.0 -42.540818,-17.9471419994453,0.0 -42.541373,-17.9472629994453,0.0 -42.541832,-17.9473139994453,0.0 -42.542266,-17.9474809994453,0.0 -42.542795,-17.9477179994453,0.0 -42.542984,-17.9481359994453,0.0 -42.543027,-17.9485989994452,0.0 -42.543046,-17.9491089994452,0.0 -42.543137,-17.9496189994452,0.0 -42.543132,-17.9501279994452,0.0 -42.543198,-17.9506379994452,0.0 -42.543333,-17.9516119994452,0.0 -42.543425,-17.9520529994451,0.0 -42.543638,-17.9524479994451,0.0 -42.543851,-17.9528669994451,0.0 -42.54421,-17.9532409994451,0.0 -42.544667,-17.9534769994451,0.0 -42.54515,-17.9535279994451,0.0 -42.545876,-17.9534659994451,0.0 -42.546314,-17.9532619994451,0.0 -42.54695,-17.9526199994451,0.0 -42.547198,-17.9520439994451,0.0 -42.54742,-17.9516069994452,0.0 -42.547571,-17.9510529994452,0.0 -42.547577,-17.9505659994452,0.0 -42.547654,-17.9501269994452,0.0 -42.547829,-17.9496429994452,0.0 -42.547955,-17.9491579994452,0.0 -42.548057,-17.9487189994452,0.0 -42.548134,-17.9482569994452,0.0 -42.548236,-17.9478179994453,0.0 -42.548289,-17.9473789994453,0.0 -42.548367,-17.9468709994453,0.0 -42.548757,-17.9465739994453,0.0 -42.549171,-17.9463229994453,0.0 -42.549538,-17.9459799994453,0.0 -42.550024,-17.9457299994453,0.0 -42.550461,-17.9455489994453,0.0 -42.550946,-17.9454379994453,0.0 -42.551431,-17.9453499994453,0.0 -42.552011,-17.9453559994453,0.0 -42.552494,-17.9454069994453,0.0 -42.552977,-17.9455279994453,0.0 -42.553432,-17.9458799994453,0.0 -42.553864,-17.9462309994453,0.0 -42.554345,-17.9464439994453,0.0 -42.55485,-17.9467039994453,0.0 -42.555332,-17.9469169994453,0.0 -42.555814,-17.9470149994453,0.0 -42.556829,-17.9471639994453,0.0 -42.557312,-17.9471449994453,0.0 -42.557772,-17.9471269994453,0.0 -42.558186,-17.9468989994453,0.0 -42.558671,-17.9467649994453,0.0 -42.559203,-17.9467469994453,0.0 -42.55971,-17.9468219994453,0.0 -42.560626,-17.9471549994453,0.0 -42.561131,-17.9473919994453,0.0 -42.561564,-17.9476269994453,0.0 -42.561948,-17.9478859994453,0.0 -42.562474,-17.9484239994452,0.0 -42.562832,-17.9489129994452,0.0 -42.563045,-17.9493089994452,0.0 -42.563258,-17.9497279994452,0.0 -42.563447,-17.9501929994452,0.0 -42.563586,-17.9506799994452,0.0 -42.563751,-17.9511209994452,0.0 -42.56389,-17.9516319994452,0.0 -42.563869,-17.9535759994451,0.0 -42.563768,-17.9540149994451,0.0 -42.563592,-17.9545919994451,0.0 -42.563466,-17.9550539994451,0.0 -42.563148,-17.9553979994451,0.0 -42.562998,-17.955835999445,0.0 -42.5628,-17.956250999445,0.0 -42.562627,-17.956665999445,0.0 -42.562549,-17.957104999445,0.0 -42.562447,-17.957566999445,0.0 -42.562394,-17.958052999445,0.0 -42.56234,-17.958560999445,0.0 -42.562334,-17.959093999445,0.0 -42.562377,-17.9595569994449,0.0 -42.562445,-17.9600439994449,0.0 -42.562439,-17.9605299994449,0.0 -42.562555,-17.9610169994449,0.0 -42.562574,-17.9614569994449,0.0 -42.562739,-17.9618989994449,0.0 -42.562927,-17.9624099994449,0.0 -42.563067,-17.9628509994449,0.0 -42.563401,-17.9633399994448,0.0 -42.563686,-17.9637829994448,0.0 -42.563971,-17.9642489994448,0.0 -42.56416,-17.9646679994448,0.0 -42.564446,-17.9651099994448,0.0 -42.564732,-17.9654829994448,0.0 -42.565091,-17.9658109994448,0.0 -42.56545,-17.9662079994448,0.0 -42.565784,-17.9666049994448,0.0 -42.566095,-17.9669319994447,0.0 -42.566429,-17.9673749994447,0.0 -42.566641,-17.9678169994447,0.0 -42.566685,-17.9683039994447,0.0 -42.56668,-17.9687669994447,0.0 -42.566723,-17.9692069994447,0.0 -42.566645,-17.9697619994447,0.0 -42.566518,-17.9702699994447,0.0 -42.566391,-17.9708009994446,0.0 -42.566362,-17.9713099994446,0.0 -42.566381,-17.9717959994446,0.0 -42.566521,-17.9722609994446,0.0 -42.5666897,-17.9726262994446,0.0 -42.566757,-17.9727719994446,0.0 -42.567211,-17.9733089994446,0.0 -42.567593,-17.9737529994446,0.0 -42.567927,-17.9741959994446,0.0 -42.568334,-17.9745469994445,0.0 -42.568742,-17.9748519994445,0.0 -42.569173,-17.9752729994445,0.0 -42.569386,-17.9756689994445,0.0 -42.569575,-17.9761339994445,0.0 -42.569618,-17.9765739994445,0.0 -42.569855,-17.9770619994445,0.0 -42.569922,-17.9775949994445,0.0 -42.569989,-17.9780589994445,0.0 -42.569978,-17.9791009994444,0.0 -42.569804,-17.9795389994444,0.0 -42.569486,-17.9798829994444,0.0 -42.569072,-17.9801329994444,0.0 -42.568634,-17.9803839994444,0.0 -42.568196,-17.9805879994444,0.0 -42.567662,-17.9807439994444,0.0 -42.567224,-17.9809719994444,0.0 -42.566858,-17.9813149994444,0.0 -42.566659,-17.9817529994444,0.0 -42.566582,-17.9822149994443,0.0 -42.566625,-17.9826549994443,0.0 -42.566863,-17.9830979994443,0.0 -42.567173,-17.9834939994443,0.0 -42.567313,-17.9839589994443,0.0 -42.567476,-17.9845389994443,0.0 -42.567615,-17.9850729994443,0.0 -42.567803,-17.9855839994442,0.0 -42.567992,-17.9860489994442,0.0 -42.568303,-17.9863759994442,0.0 -42.568761,-17.9865189994442,0.0 -42.569363,-17.9867339994442,0.0 -42.569796,-17.9869689994442,0.0 -42.570279,-17.9870669994442,0.0 -42.570787,-17.9870719994442,0.0 -42.571271,-17.9870069994442,0.0 -42.571622,-17.9869629994442,0.0 -42.57178,-17.9869429994442,0.0 -42.572361,-17.9868559994442,0.0 -42.572942,-17.9868389994442,0.0 -42.57345,-17.9868439994442,0.0 -42.57391,-17.9868019994442,0.0 -42.574395,-17.9867369994442,0.0 -42.574903,-17.9866729994442,0.0 -42.575388,-17.9866309994442,0.0 -42.575848,-17.9865669994442,0.0 -42.576527,-17.9864339994442,0.0 -42.577084,-17.9863469994442,0.0 -42.577545,-17.9862589994442,0.0 -42.578006,-17.9861479994442,0.0 -42.578539,-17.9860379994442,0.0 -42.578999,-17.9860189994442,0.0 -42.579457,-17.9861859994442,0.0 -42.579986,-17.9863989994442,0.0 -42.580492,-17.9866589994442,0.0 -42.581358,-17.9870839994442,0.0 -42.581815,-17.9873659994442,0.0 -42.582273,-17.9875099994442,0.0 -42.582755,-17.9876069994442,0.0 -42.583262,-17.9877739994442,0.0 -42.583791,-17.9880109994442,0.0 -42.584322,-17.9881779994442,0.0 -42.584755,-17.9883909994442,0.0 -42.58509,-17.9887179994442,0.0 -42.585522,-17.9890699994442,0.0 -42.585977,-17.9894439994441,0.0 -42.586482,-17.9897269994441,0.0 -42.586891,-17.9899629994441,0.0 -42.587376,-17.9898749994441,0.0 -42.587909,-17.9897409994441,0.0 -42.588394,-17.9896769994441,0.0 -42.588856,-17.9894729994441,0.0 -42.589365,-17.9893849994441,0.0 -42.589849,-17.9893199994441,0.0 -42.590381,-17.9893259994441,0.0 -42.591009,-17.9894009994442,0.0 -42.591492,-17.9894989994441,0.0 -42.591997,-17.9898279994441,0.0 -42.592283,-17.9901779994441,0.0 -42.592448,-17.9905959994441,0.0 -42.59271,-17.9910149994441,0.0 -42.592995,-17.9914809994441,0.0 -42.593474,-17.9919719994441,0.0 -42.594075,-17.9923019994441,0.0 -42.594484,-17.9925139994441,0.0 -42.594967,-17.9925419994441,0.0 -42.595935,-17.9925519994441,0.0 -42.59642,-17.9923939994441,0.0 -42.596859,-17.9921439994441,0.0 -42.597344,-17.9919869994441,0.0 -42.597805,-17.9918519994441,0.0 -42.598242,-17.9916949994441,0.0 -42.598704,-17.9914679994441,0.0 -42.599095,-17.9911469994441,0.0 -42.599414,-17.9907569994441,0.0 -42.59966,-17.9903659994441,0.0 -42.599956,-17.9898359994441,0.0 -42.600154,-17.9893749994442,0.0 -42.60028,-17.9889369994442,0.0 -42.600526,-17.9885449994442,0.0 -42.600893,-17.9881789994442,0.0 -42.601377,-17.9881139994442,0.0 -42.601861,-17.9881419994442,0.0 -42.602343,-17.9882849994442,0.0 -42.602825,-17.9884519994442,0.0 -42.603308,-17.9885259994442,0.0 -42.60379,-17.9887159994442,0.0 -42.604271,-17.9889289994442,0.0 -42.6044101,-17.9890170994442,0.0 -42.6044571,-17.9890467994442,0.0 -42.60468,-17.9891879994442,0.0 -42.60528,-17.9895869994441,0.0 -42.605664,-17.9899609994441,0.0 -42.606141,-17.9905219994441,0.0 -42.606426,-17.9910109994441,0.0 -42.60664,-17.9914059994441,0.0 -42.606756,-17.9918469994441,0.0 -42.606836,-17.9920859994441,0.0 -42.607071,-17.9918269994441,0.0 -42.607413,-17.9914829994441,0.0 -42.607782,-17.9909309994441,0.0 -42.607908,-17.9904929994441,0.0 -42.608203,-17.9900089994441,0.0 -42.608209,-17.9894999994441,0.0 -42.608287,-17.9889919994442,0.0 -42.608388,-17.9885059994442,0.0 -42.608562,-17.9880679994442,0.0 -42.608761,-17.9875609994442,0.0 -42.609009,-17.9870309994442,0.0 -42.609184,-17.9864999994442,0.0 -42.609385,-17.9857609994442,0.0 -42.609536,-17.9852539994443,0.0 -42.609638,-17.9847219994443,0.0 -42.609988,-17.9837069994443,0.0 -42.610138,-17.9831759994443,0.0 -42.610288,-17.9827379994443,0.0 -42.610463,-17.9822759994443,0.0 -42.610807,-17.9817009994444,0.0 -42.611102,-17.9812409994444,0.0 -42.611372,-17.9808729994444,0.0 -42.611691,-17.9804829994444,0.0 -42.612157,-17.9799319994444,0.0 -42.612451,-17.9795639994444,0.0 -42.613088,-17.9787369994444,0.0 -42.613383,-17.9783689994444,0.0 -42.613726,-17.9779559994445,0.0 -42.614044,-17.9776119994445,0.0 -42.614386,-17.9773139994445,0.0 -42.614752,-17.9769469994445,0.0 -42.61507,-17.9766259994445,0.0 -42.615412,-17.9763289994445,0.0 -42.615754,-17.9759849994445,0.0 -42.616073,-17.9755939994445,0.0 -42.616343,-17.9752029994445,0.0 -42.616615,-17.9746269994445,0.0 -42.616887,-17.9741209994446,0.0 -42.617061,-17.9736589994446,0.0 -42.617285,-17.9730829994446,0.0 -42.617459,-17.9725979994446,0.0 -42.617683,-17.9720219994446,0.0 -42.617785,-17.9715599994446,0.0 -42.617911,-17.9710519994446,0.0 -42.618063,-17.9704279994447,0.0 -42.618116,-17.9699659994447,0.0 -42.618242,-17.9694809994447,0.0 -42.618368,-17.9689729994447,0.0 -42.61847,-17.9685339994447,0.0 -42.618621,-17.9679329994447,0.0 -42.618747,-17.9674249994447,0.0 -42.618849,-17.9669859994447,0.0 -42.619,-17.9664549994448,0.0 -42.619126,-17.9659709994448,0.0 -42.619251,-17.9655319994448,0.0 -42.619353,-17.9650929994448,0.0 -42.6196,-17.9645629994448,0.0 -42.619847,-17.9641019994448,0.0 -42.620093,-17.9636649994448,0.0 -42.620583,-17.9631139994449,0.0 -42.620766,-17.9629769994448,0.0 -42.620949,-17.9628399994449,0.0 -42.621435,-17.9625439994449,0.0 -42.621921,-17.9623859994449,0.0 -42.622358,-17.9622049994449,0.0 -42.622917,-17.9619329994449,0.0 -42.623331,-17.9617279994449,0.0 -42.623768,-17.9615469994449,0.0 -42.624206,-17.9613199994449,0.0 -42.624595,-17.9610689994449,0.0 -42.625205,-17.9606119994449,0.0 -42.625644,-17.9602229994449,0.0 -42.626181,-17.9598349994449,0.0 -42.626595,-17.9595379994449,0.0 -42.627058,-17.9592179994449,0.0 -42.627471,-17.959013999445,0.0 -42.627933,-17.958832999445,0.0 -42.628587,-17.958676999445,0.0 -42.629241,-17.958659999445,0.0 -42.629773,-17.958618999445,0.0 -42.630233,-17.958553999445,0.0 -42.630766,-17.958512999445,0.0 -42.631758,-17.958521999445,0.0 -42.632265,-17.958549999445,0.0 -42.63328,-17.958652999445,0.0 -42.633811,-17.958726999445,0.0 -42.634391,-17.958801999445,0.0 -42.634974,-17.958575999445,0.0 -42.63481,-17.958111999445,0.0 -42.634523,-17.957761999445,0.0 -42.634261,-17.957365999445,0.0 -42.633976,-17.956876999445,0.0 -42.633666,-17.956479999445,0.0 -42.633308,-17.955943999445,0.0 -42.632998,-17.9555249994451,0.0 -42.632737,-17.9551059994451,0.0 -42.632548,-17.9546869994451,0.0 -42.632504,-17.9542469994451,0.0 -42.632509,-17.9537139994451,0.0 -42.632538,-17.9532519994451,0.0 -42.632569,-17.9526729994451,0.0 -42.632646,-17.9522339994451,0.0 -42.632748,-17.9516799994452,0.0 -42.632922,-17.9512409994452,0.0 -42.633122,-17.9506879994452,0.0 -42.633271,-17.9502489994452,0.0 -42.633446,-17.9497649994452,0.0 -42.633644,-17.9492569994452,0.0 -42.633842,-17.9488429994452,0.0 -42.634115,-17.9481969994452,0.0 -42.634314,-17.9477129994453,0.0 -42.634464,-17.9471819994453,0.0 -42.634614,-17.9467199994453,0.0 -42.634788,-17.9462819994453,0.0 -42.635059,-17.9458219994453,0.0 -42.635329,-17.9454079994453,0.0 -42.635576,-17.9449929994453,0.0 -42.636165,-17.9441649994454,0.0 -42.636558,-17.9435439994454,0.0 -42.636804,-17.9431299994454,0.0 -42.637173,-17.9426009994454,0.0 -42.63754,-17.9421179994454,0.0 -42.63786,-17.9416349994454,0.0 -42.638106,-17.9412209994454,0.0 -42.638305,-17.9407369994454,0.0 -42.638358,-17.9402279994455,0.0 -42.638461,-17.9396729994455,0.0 -42.638538,-17.9392109994455,0.0 -42.638618,-17.9384709994455,0.0 -42.638647,-17.9380079994455,0.0 -42.638798,-17.9374539994455,0.0 -42.638974,-17.9368539994455,0.0 -42.639148,-17.9363459994456,0.0 -42.639397,-17.9356999994456,0.0 -42.639522,-17.9352619994456,0.0 -42.639649,-17.9347539994456,0.0 -42.639754,-17.9338979994456,0.0 -42.639928,-17.9334369994456,0.0 -42.640176,-17.9329299994457,0.0 -42.640374,-17.9324919994457,0.0 -42.640475,-17.9320299994457,0.0 -42.640651,-17.9314059994457,0.0 -42.640776,-17.9309679994457,0.0 -42.641026,-17.9302529994457,0.0 -42.641176,-17.9297679994457,0.0 -42.641475,-17.9288909994458,0.0 -42.641576,-17.9284519994458,0.0 -42.64163,-17.9279429994458,0.0 -42.641714,-17.9269019994458,0.0 -42.641841,-17.9263019994458,0.0 -42.641847,-17.9256539994458,0.0 -42.641901,-17.9251909994459,0.0 -42.642074,-17.9247759994459,0.0 -42.642297,-17.9243149994459,0.0 -42.642567,-17.9239239994459,0.0 -42.642861,-17.9235099994459,0.0 -42.643204,-17.9230969994459,0.0 -42.643595,-17.9226609994459,0.0 -42.643961,-17.9223629994459,0.0 -42.644424,-17.9220669994459,0.0 -42.644885,-17.9218859994459,0.0 -42.645371,-17.921727999446,0.0 -42.645831,-17.921616999446,0.0 -42.64634,-17.921528999446,0.0 -42.646825,-17.921417999446,0.0 -42.647309,-17.921399999446,0.0 -42.647793,-17.921334999446,0.0 -42.648301,-17.921292999446,0.0 -42.648785,-17.921297999446,0.0 -42.64927,-17.921186999446,0.0 -42.649779,-17.921075999446,0.0 -42.650409,-17.920942999446,0.0 -42.650918,-17.920808999446,0.0 -42.651404,-17.920604999446,0.0 -42.651962,-17.920401999446,0.0 -42.652472,-17.920221999446,0.0 -42.652955,-17.920225999446,0.0 -42.653535,-17.920277999446,0.0 -42.654018,-17.920328999446,0.0 -42.654477,-17.920425999446,0.0 -42.654935,-17.920545999446,0.0 -42.655417,-17.920688999446,0.0 -42.656019,-17.920925999446,0.0 -42.656526,-17.921023999446,0.0 -42.657056,-17.921236999446,0.0 -42.657513,-17.921495999446,0.0 -42.657897,-17.921777999446,0.0 -42.65828,-17.9221749994459,0.0 -42.659144,-17.9228079994459,0.0 -42.659601,-17.9230439994459,0.0 -42.660009,-17.9233019994459,0.0 -42.660394,-17.9235609994459,0.0 -42.660946,-17.9238899994459,0.0 -42.661422,-17.9243069994459,0.0 -42.661503,-17.9238719994459,0.0 -42.661556,-17.9234089994459,0.0 -42.661634,-17.9229009994459,0.0 -42.661761,-17.9223229994459,0.0 -42.661958,-17.921884999446,0.0 -42.662253,-17.921494999446,0.0 -42.662619,-17.921196999446,0.0 -42.663009,-17.920876999446,0.0 -42.663279,-17.920438999446,0.0 -42.6633157,-17.920199899446,0.0 -42.663357,-17.919930999446,0.0 -42.6632076,-17.919767999446,0.0 -42.66295,-17.919486999446,0.0 -42.662519,-17.919158999446,0.0 -42.662086,-17.918899999446,0.0 -42.661702,-17.918618999446,0.0 -42.661246,-17.918289999446,0.0 -42.660839,-17.9179159994461,0.0 -42.66048,-17.9175189994461,0.0 -42.660194,-17.9171229994461,0.0 -42.659956,-17.9167269994461,0.0 -42.659646,-17.9163079994461,0.0 -42.659312,-17.9158179994461,0.0 -42.658978,-17.9153979994461,0.0 -42.658643,-17.9150479994461,0.0 -42.658358,-17.9145589994462,0.0 -42.658145,-17.9141639994462,0.0 -42.657908,-17.9136749994462,0.0 -42.657743,-17.9132569994462,0.0 -42.657506,-17.9127689994462,0.0 -42.657271,-17.9120949994462,0.0 -42.6573,-17.9116089994462,0.0 -42.657354,-17.9110999994462,0.0 -42.657505,-17.9105229994463,0.0 -42.6575555,-17.9102919994463,0.0 -42.6575605,-17.9102691994463,0.0 -42.657606,-17.9100609994463,0.0 -42.65783,-17.9094839994463,0.0 -42.658173,-17.9090709994463,0.0 -42.658516,-17.9086109994463,0.0 -42.65898,-17.9081519994463,0.0 -42.659393,-17.9079479994463,0.0 -42.659855,-17.9077439994463,0.0 -42.660316,-17.9075629994463,0.0 -42.660754,-17.9073359994463,0.0 -42.661144,-17.9070619994463,0.0 -42.661582,-17.9067179994464,0.0 -42.661972,-17.9063979994464,0.0 -42.662338,-17.9061009994464,0.0 -42.662728,-17.9058259994464,0.0 -42.663238,-17.9056459994464,0.0 -42.665728,-17.9056689994464,0.0 -42.666189,-17.9055579994464,0.0 -42.66665,-17.9053999994464,0.0 -42.667233,-17.9051279994464,0.0 -42.667792,-17.9048089994464,0.0 -42.668182,-17.9045349994464,0.0 -42.669057,-17.9040799994464,0.0 -42.669519,-17.9038529994464,0.0 -42.66998,-17.9036719994464,0.0 -42.670514,-17.9034459994464,0.0 -42.671024,-17.9032649994464,0.0 -42.671558,-17.9031079994464,0.0 -42.672067,-17.9029509994465,0.0 -42.6726,-17.9028859994465,0.0 -42.673156,-17.9028219994465,0.0 -42.673665,-17.9027109994465,0.0 -42.674126,-17.9025999994465,0.0 -42.674539,-17.9023719994465,0.0 -42.674929,-17.9021209994465,0.0 -42.675366,-17.9019169994465,0.0 -42.675804,-17.9016889994465,0.0 -42.676217,-17.9014619994465,0.0 -42.676607,-17.9011409994465,0.0 -42.677046,-17.9007749994465,0.0 -42.677388,-17.9004769994465,0.0 -42.677755,-17.9000409994465,0.0 -42.677977,-17.8996029994465,0.0 -42.678224,-17.8991419994466,0.0 -42.678422,-17.8986579994466,0.0 -42.678771,-17.8975959994466,0.0 -42.678922,-17.8970649994466,0.0 -42.679071,-17.8966269994466,0.0 -42.679172,-17.8961879994466,0.0 -42.679298,-17.8957259994467,0.0 -42.679351,-17.8952629994467,0.0 -42.679453,-17.8947319994467,0.0 -42.679532,-17.8940839994467,0.0 -42.679538,-17.8935059994467,0.0 -42.679495,-17.8929959994467,0.0 -42.679452,-17.8924629994467,0.0 -42.679432,-17.8920229994467,0.0 -42.679413,-17.8915139994468,0.0 -42.679421,-17.8907729994468,0.0 -42.679451,-17.8901939994468,0.0 -42.679456,-17.8897079994468,0.0 -42.679509,-17.8892459994468,0.0 -42.679562,-17.8887369994468,0.0 -42.679592,-17.8881819994469,0.0 -42.679645,-17.8877189994469,0.0 -42.6796736,-17.8876427994469,0.0 -42.679844,-17.8871879994469,0.0 -42.680091,-17.8866579994469,0.0 -42.68029,-17.8861509994469,0.0 -42.680464,-17.8856429994469,0.0 -42.680686,-17.8852289994469,0.0 -42.681101,-17.8848619994469,0.0 -42.681419,-17.8844949994469,0.0 -42.681761,-17.884126999447,0.0 -42.682055,-17.883782999447,0.0 -42.682301,-17.883367999447,0.0 -42.682522,-17.882976999447,0.0 -42.682915,-17.882401999447,0.0 -42.683185,-17.882010999447,0.0 -42.683622,-17.881782999447,0.0 -42.684132,-17.881625999447,0.0 -42.684592,-17.881513999447,0.0 -42.685125,-17.881379999447,0.0 -42.685658,-17.881315999447,0.0 -42.686118,-17.881273999447,0.0 -42.686626,-17.881185999447,0.0 -42.687207,-17.881121999447,0.0 -42.687789,-17.881034999447,0.0 -42.688273,-17.880969999447,0.0 -42.688732,-17.880950999447,0.0 -42.68924,-17.880931999447,0.0 -42.689724,-17.880866999447,0.0 -42.690232,-17.880848999447,0.0 -42.690764,-17.880853999447,0.0 -42.691248,-17.880834999447,0.0 -42.691708,-17.880792999447,0.0 -42.692167,-17.880773999447,0.0 -42.692628,-17.8806859994471,0.0 -42.693087,-17.8806439994471,0.0 -42.6933295,-17.8805999994471,0.0 -42.693572,-17.8805559994471,0.0 -42.694081,-17.8804219994471,0.0 -42.694542,-17.8802409994471,0.0 -42.695025,-17.8802909994471,0.0 -42.695581,-17.8803199994471,0.0 -42.696066,-17.8802319994471,0.0 -42.696479,-17.8800039994471,0.0 -42.696504,-17.8795349994471,0.0 -42.696138,-17.8791939994471,0.0 -42.695883,-17.8791189994471,0.0 -42.695474,-17.8789059994471,0.0 -42.695115,-17.8786249994471,0.0 -42.69478,-17.8782749994471,0.0 -42.694566,-17.8778789994471,0.0 -42.694304,-17.8775069994471,0.0 -42.693944,-17.8771789994471,0.0 -42.693901,-17.8767159994472,0.0 -42.694026,-17.8762539994472,0.0 -42.694249,-17.8757469994472,0.0 -42.694423,-17.8752849994472,0.0 -42.694332,-17.8747519994472,0.0 -42.694384,-17.8743129994472,0.0 -42.694535,-17.8737819994472,0.0 -42.694878,-17.8733449994472,0.0 -42.695316,-17.8730709994473,0.0 -42.695753,-17.8728669994473,0.0 -42.696094,-17.8725689994473,0.0 -42.696364,-17.8721549994473,0.0 -42.696514,-17.8717159994473,0.0 -42.696712,-17.8712549994473,0.0 -42.696862,-17.8707929994473,0.0 -42.696915,-17.8702609994473,0.0 -42.696824,-17.8697509994473,0.0 -42.696611,-17.8692859994474,0.0 -42.696203,-17.8689579994474,0.0 -42.695796,-17.8686069994474,0.0 -42.695362,-17.8684409994474,0.0 -42.694953,-17.8682289994474,0.0 -42.694447,-17.8681089994474,0.0 -42.693916,-17.8680339994474,0.0 -42.693361,-17.8678439994474,0.0 -42.692903,-17.8677469994474,0.0 -42.692421,-17.8676269994474,0.0 -42.691963,-17.8674379994474,0.0 -42.691505,-17.8673639994474,0.0 -42.691046,-17.8672669994474,0.0 -42.690539,-17.8672619994474,0.0 -42.690413,-17.8677239994474,0.0 -42.690748,-17.8680509994474,0.0 -42.69123,-17.8682639994474,0.0 -42.691614,-17.8685459994474,0.0 -42.691923,-17.8690349994474,0.0 -42.691749,-17.8694959994474,0.0 -42.69124,-17.8696069994473,0.0 -42.690757,-17.8695799994473,0.0 -42.690299,-17.8694829994473,0.0 -42.689768,-17.8693159994474,0.0 -42.689261,-17.8692649994474,0.0 -42.688779,-17.8690979994474,0.0 -42.688322,-17.8688859994474,0.0 -42.687841,-17.8686959994474,0.0 -42.687628,-17.8682309994474,0.0 -42.687801,-17.8677929994474,0.0 -42.688023,-17.8673779994474,0.0 -42.688269,-17.8669399994474,0.0 -42.688491,-17.8665259994474,0.0 -42.688689,-17.8661109994474,0.0 -42.688791,-17.8655559994475,0.0 -42.688577,-17.8651609994475,0.0 -42.688071,-17.8649939994475,0.0 -42.687682,-17.8652449994475,0.0 -42.687317,-17.8655189994475,0.0 -42.686975,-17.8658639994474,0.0 -42.686633,-17.8661849994474,0.0 -42.686124,-17.8662719994474,0.0 -42.68552,-17.8663129994474,0.0 -42.685062,-17.8661699994474,0.0 -42.684556,-17.8660029994474,0.0 -42.683976,-17.8659519994474,0.0 -42.683518,-17.8658319994474,0.0 -42.682987,-17.8656879994474,0.0 -42.682482,-17.8654979994475,0.0 -42.681879,-17.8653759994475,0.0 -42.681347,-17.8653719994475,0.0 -42.680839,-17.8654129994475,0.0 -42.680306,-17.8654779994475,0.0 -42.679846,-17.8655659994475,0.0 -42.678855,-17.8655569994475,0.0 -42.678323,-17.8655049994475,0.0 -42.67789,-17.8652929994475,0.0 -42.677531,-17.8650119994475,0.0 -42.677195,-17.8647079994475,0.0 -42.677006,-17.8642659994475,0.0 -42.676745,-17.8638239994475,0.0 -42.676289,-17.8634489994475,0.0 -42.675807,-17.8633289994475,0.0 -42.675349,-17.8631629994475,0.0 -42.674892,-17.8629499994475,0.0 -42.674435,-17.8627139994475,0.0 -42.673979,-17.8624319994475,0.0 -42.673619,-17.8621279994475,0.0 -42.673212,-17.8617309994476,0.0 -42.672731,-17.8614949994476,0.0 -42.672299,-17.8611899994476,0.0 -42.671814,-17.8613469994476,0.0 -42.671353,-17.8615279994476,0.0 -42.670893,-17.8615699994476,0.0 -42.670434,-17.8615429994476,0.0 -42.670245,-17.8611239994476,0.0 -42.670323,-17.8605919994476,0.0 -42.670473,-17.8601309994476,0.0 -42.670576,-17.8594839994476,0.0 -42.67075,-17.8590219994476,0.0 -42.670827,-17.8585599994476,0.0 -42.670759,-17.8580959994477,0.0 -42.670594,-17.8576779994477,0.0 -42.670259,-17.8573279994477,0.0 -42.669802,-17.8571849994477,0.0 -42.669344,-17.8570639994477,0.0 -42.668812,-17.8570599994477,0.0 -42.668329,-17.8570319994477,0.0 -42.667846,-17.8569579994477,0.0 -42.667511,-17.8566079994477,0.0 -42.667298,-17.8561889994477,0.0 -42.667278,-17.8557489994477,0.0 -42.6675,-17.8553109994477,0.0 -42.667723,-17.8548039994477,0.0 -42.667945,-17.8543659994478,0.0 -42.66831,-17.8540679994478,0.0 -42.668652,-17.8537709994478,0.0 -42.6689359,-17.8535507994478,0.0 -42.669066,-17.8534499994478,0.0 -42.669456,-17.8531759994478,0.0 -42.6696163,-17.8530556994478,0.0 -42.669821,-17.8529019994478,0.0 -42.670234,-17.8526739994478,0.0 -42.670624,-17.8524229994478,0.0 -42.670894,-17.8520089994478,0.0 -42.671067,-17.8515939994478,0.0 -42.67112,-17.8511549994478,0.0 -42.671101,-17.8506909994478,0.0 -42.671106,-17.8501589994479,0.0 -42.671063,-17.8496259994479,0.0 -42.671019,-17.8491629994479,0.0 -42.670952,-17.8486989994479,0.0 -42.670957,-17.8482129994479,0.0 -42.670938,-17.8476799994479,0.0 -42.670943,-17.8472169994479,0.0 -42.670923,-17.846776999448,0.0 -42.670831,-17.846336999448,0.0 -42.670666,-17.845917999448,0.0 -42.670282,-17.845659999448,0.0 -42.669922,-17.845378999448,0.0 -42.66944,-17.845258999448,0.0 -42.668956,-17.845276999448,0.0 -42.667941,-17.845267999448,0.0 -42.667339,-17.845030999448,0.0 -42.66698,-17.844656999448,0.0 -42.666671,-17.844144999448,0.0 -42.66636,-17.843817999448,0.0 -42.666,-17.843536999448,0.0 -42.665519,-17.8433469994481,0.0 -42.664844,-17.8431089994481,0.0 -42.664363,-17.8429419994481,0.0 -42.663881,-17.8427989994481,0.0 -42.663472,-17.8425639994481,0.0 -42.663016,-17.8422589994481,0.0 -42.662583,-17.8420459994481,0.0 -42.6621,-17.8419949994481,0.0 -42.66179,-17.8416219994481,0.0 -42.661799,-17.8406729994481,0.0 -42.66178,-17.8402099994481,0.0 -42.661688,-17.8397459994481,0.0 -42.66145,-17.8393499994482,0.0 -42.660991,-17.8393229994482,0.0 -42.660554,-17.8395039994482,0.0 -42.660213,-17.8398009994481,0.0 -42.659871,-17.8401459994481,0.0 -42.659362,-17.8403029994481,0.0 -42.658903,-17.8402289994481,0.0 -42.658592,-17.8399019994481,0.0 -42.6585,-17.8394609994481,0.0 -42.658409,-17.8389509994482,0.0 -42.658292,-17.8385099994482,0.0 -42.65813,-17.8378839994482,0.0 -42.657965,-17.8374649994482,0.0 -42.657752,-17.8369999994482,0.0 -42.657466,-17.8366269994482,0.0 -42.657155,-17.8362769994482,0.0 -42.656772,-17.8359029994482,0.0 -42.656559,-17.8355079994483,0.0 -42.656442,-17.8350669994483,0.0 -42.656399,-17.8346029994483,0.0 -42.656404,-17.8340939994483,0.0 -42.656481,-17.8336319994483,0.0 -42.656583,-17.8331229994483,0.0 -42.656599,-17.8315259994484,0.0 -42.656628,-17.8310629994484,0.0 -42.656609,-17.8305999994484,0.0 -42.656421,-17.8301119994484,0.0 -42.655938,-17.8300149994484,0.0 -42.655479,-17.8300339994484,0.0 -42.65497,-17.8301219994484,0.0 -42.654512,-17.8299789994484,0.0 -42.65408,-17.8297429994484,0.0 -42.653794,-17.8293469994484,0.0 -42.653606,-17.8288129994484,0.0 -42.653296,-17.8283929994484,0.0 -42.65301,-17.8279499994485,0.0 -42.6527,-17.8275769994485,0.0 -42.65239,-17.8271809994485,0.0 -42.652104,-17.8268069994485,0.0 -42.651988,-17.8263429994485,0.0 -42.651799,-17.8258789994485,0.0 -42.651539,-17.8253209994485,0.0 -42.651401,-17.8246479994486,0.0 -42.651357,-17.8242079994486,0.0 -42.651362,-17.8236979994486,0.0 -42.651415,-17.8232359994486,0.0 -42.651589,-17.8227979994486,0.0 -42.651931,-17.8224769994486,0.0 -42.65232,-17.8222259994486,0.0 -42.652781,-17.8219989994486,0.0 -42.653219,-17.8217479994486,0.0 -42.653729,-17.8214749994486,0.0 -42.654242,-17.8210169994486,0.0 -42.65444,-17.8205559994487,0.0 -42.654566,-17.8200709994487,0.0 -42.654644,-17.8195389994487,0.0 -42.654721,-17.8190999994487,0.0 -42.65487,-17.8186379994487,0.0 -42.654933,-17.8184189994487,0.0 -42.654996,-17.8181999994487,0.0 -42.655266,-17.8178089994487,0.0 -42.655727,-17.8176279994487,0.0 -42.656185,-17.8176779994487,0.0 -42.658215,-17.8176969994487,0.0 -42.658675,-17.8176789994487,0.0 -42.6587533,-17.8175869994487,0.0 -42.658961,-17.8173429994487,0.0 -42.658779,-17.8168919994488,0.0 -42.658542,-17.8164969994488,0.0 -42.658305,-17.8160079994488,0.0 -42.658116,-17.8155899994488,0.0 -42.65783,-17.8151469994488,0.0 -42.657544,-17.8147739994488,0.0 -42.65721,-17.8143769994488,0.0 -42.656972,-17.8139819994488,0.0 -42.656686,-17.8135849994488,0.0 -42.656352,-17.8132349994489,0.0 -42.656066,-17.8128159994489,0.0 -42.655707,-17.8124419994489,0.0 -42.655347,-17.8121609994489,0.0 -42.654939,-17.8118789994489,0.0 -42.654629,-17.8115289994489,0.0 -42.654247,-17.8111089994489,0.0 -42.653911,-17.8108039994489,0.0 -42.6536,-17.8104769994489,0.0 -42.653243,-17.8099879994489,0.0 -42.652983,-17.809452999449,0.0 -42.652769,-17.809033999449,0.0 -42.652533,-17.808545999449,0.0 -42.652321,-17.807987999449,0.0 -42.652253,-17.807547999449,0.0 -42.65221,-17.806991999449,0.0 -42.65224,-17.806482999449,0.0 -42.652244,-17.806019999449,0.0 -42.652322,-17.8055339994491,0.0 -42.65252,-17.8050729994491,0.0 -42.652694,-17.8046349994491,0.0 -42.652916,-17.8041969994491,0.0 -42.653113,-17.8037589994491,0.0 -42.653166,-17.8033199994491,0.0 -42.653147,-17.8027869994491,0.0 -42.652911,-17.8022529994492,0.0 -42.652746,-17.8018339994492,0.0 -42.652533,-17.8013929994492,0.0 -42.652417,-17.8009279994492,0.0 -42.652325,-17.8004879994492,0.0 -42.652282,-17.8000009994492,0.0 -42.652287,-17.7995379994492,0.0 -42.65222,-17.7989359994492,0.0 -42.652128,-17.7984719994493,0.0 -42.652138,-17.7975459994493,0.0 -42.652046,-17.7970819994493,0.0 -42.651881,-17.7966409994493,0.0 -42.651448,-17.7964509994493,0.0 -42.650989,-17.7964929994493,0.0 -42.650528,-17.7966279994493,0.0 -42.650021,-17.7965999994493,0.0 -42.64903,-17.7965909994493,0.0 -42.648522,-17.7966319994493,0.0 -42.648062,-17.7966969994493,0.0 -42.647579,-17.7966699994493,0.0 -42.647097,-17.7965489994493,0.0 -42.646835,-17.7961759994493,0.0 -42.646719,-17.7957119994493,0.0 -42.646485,-17.7950159994493,0.0 -42.646298,-17.7943659994494,0.0 -42.646133,-17.7939239994494,0.0 -42.64592,-17.7935059994494,0.0 -42.645828,-17.7930649994494,0.0 -42.645737,-17.7925549994494,0.0 -42.645574,-17.7918819994494,0.0 -42.645386,-17.7913709994494,0.0 -42.645173,-17.7909289994495,0.0 -42.644937,-17.7904639994495,0.0 -42.644748,-17.7900219994495,0.0 -42.644656,-17.7895809994495,0.0 -42.644517,-17.7889319994495,0.0 -42.644401,-17.7884679994495,0.0 -42.644309,-17.7880269994495,0.0 -42.64429,-17.7875869994495,0.0 -42.644294,-17.7871009994496,0.0 -42.644638,-17.7866179994496,0.0 -42.645098,-17.7864829994496,0.0 -42.645535,-17.7863019994496,0.0 -42.645588,-17.7858399994496,0.0 -42.645246,-17.7853709994496,0.0 -42.645051,-17.7851569994496,0.0 -42.644696,-17.7846459994496,0.0 -42.644388,-17.7841579994496,0.0 -42.644154,-17.7835549994496,0.0 -42.644065,-17.7829539994497,0.0 -42.644094,-17.7824699994497,0.0 -42.64422,-17.7819869994497,0.0 -42.644347,-17.7814799994497,0.0 -42.644448,-17.7810429994497,0.0 -42.644502,-17.7805129994497,0.0 -42.644557,-17.7799129994497,0.0 -42.64457,-17.7787819994498,0.0 -42.644527,-17.7783429994498,0.0 -42.644411,-17.7779039994498,0.0 -42.644248,-17.7774399994498,0.0 -42.644036,-17.7770229994498,0.0 -42.643751,-17.7766509994498,0.0 -42.643442,-17.7763239994498,0.0 -42.642964,-17.7759729994499,0.0 -42.642534,-17.7756919994499,0.0 -42.642176,-17.7753879994499,0.0 -42.641794,-17.7751069994499,0.0 -42.641194,-17.7748929994499,0.0 -42.640642,-17.7747259994499,0.0 -42.640137,-17.7746279994499,0.0 -42.63973,-17.7743699994499,0.0 -42.639325,-17.7739959994499,0.0 -42.638994,-17.7734389994499,0.0 -42.638447,-17.7728099994499,0.0 -42.637945,-17.7725049994499,0.0 -42.637488,-17.7724769994499,0.0 -42.637105,-17.77221899945,0.0 -42.636677,-17.77175299945,0.0 -42.636344,-17.77140299945,0.0 -42.636034,-17.77107699945,0.0 -42.635967,-17.77063799945,0.0 -42.636093,-17.77015399945,0.0 -42.636316,-17.76962599945,0.0 -42.636393,-17.76918799945,0.0 -42.636567,-17.76877499945,0.0 -42.63662,-17.7682679994501,0.0 -42.636505,-17.7678049994501,0.0 -42.636227,-17.7668789994501,0.0 -42.636063,-17.7664619994501,0.0 -42.635829,-17.7658819994501,0.0 -42.635666,-17.7653959994501,0.0 -42.635575,-17.7649099994501,0.0 -42.635364,-17.7644229994502,0.0 -42.635055,-17.7640739994502,0.0 -42.634672,-17.7638159994502,0.0 -42.634242,-17.7635579994502,0.0 -42.633737,-17.7634139994502,0.0 -42.633257,-17.7633169994502,0.0 -42.633142,-17.7628309994502,0.0 -42.633052,-17.7622529994502,0.0 -42.632816,-17.7618349994502,0.0 -42.63236,-17.7617149994502,0.0 -42.631396,-17.7617049994502,0.0 -42.630893,-17.7615379994502,0.0 -42.630269,-17.7613229994502,0.0 -42.62979,-17.7610879994503,0.0 -42.629334,-17.7608979994503,0.0 -42.628903,-17.7607319994503,0.0 -42.628444,-17.7607729994503,0.0 -42.627986,-17.7608839994503,0.0 -42.627021,-17.7610119994503,0.0 -42.626538,-17.7610529994503,0.0 -42.626181,-17.7607499994503,0.0 -42.62609,-17.7602869994503,0.0 -42.626143,-17.7598259994503,0.0 -42.626269,-17.7593429994503,0.0 -42.626347,-17.7588819994503,0.0 -42.6264,-17.7584439994503,0.0 -42.626405,-17.7579829994503,0.0 -42.626512,-17.7570609994504,0.0 -42.626685,-17.7566469994504,0.0 -42.626907,-17.7562569994504,0.0 -42.627686,-17.7555269994504,0.0 -42.627836,-17.7550439994504,0.0 -42.627842,-17.7545359994504,0.0 -42.627581,-17.7541409994504,0.0 -42.627101,-17.7540429994504,0.0 -42.626547,-17.7539909994504,0.0 -42.626065,-17.7540089994504,0.0 -42.625901,-17.7535919994505,0.0 -42.625955,-17.7531079994505,0.0 -42.626057,-17.7526479994505,0.0 -42.626086,-17.7521629994505,0.0 -42.626092,-17.7516789994505,0.0 -42.625856,-17.7512149994505,0.0 -42.625621,-17.7507739994505,0.0 -42.625482,-17.7503109994505,0.0 -42.625415,-17.7498479994506,0.0 -42.625373,-17.7492939994506,0.0 -42.624868,-17.7492199994506,0.0 -42.624386,-17.7491909994506,0.0 -42.623955,-17.7490249994506,0.0 -42.623499,-17.7488359994506,0.0 -42.623093,-17.7485779994506,0.0 -42.622761,-17.7481359994506,0.0 -42.6225,-17.7477639994506,0.0 -42.622071,-17.7473669994506,0.0 -42.621592,-17.7471539994506,0.0 -42.621134,-17.7471949994506,0.0 -42.620652,-17.7471899994506,0.0 -42.620245,-17.7469779994506,0.0 -42.619864,-17.7466049994506,0.0 -42.619484,-17.7461159994507,0.0 -42.619417,-17.7456769994507,0.0 -42.6194,-17.7450769994507,0.0 -42.619527,-17.7445239994507,0.0 -42.619653,-17.7440639994507,0.0 -42.620238,-17.7433779994507,0.0 -42.620244,-17.7429169994507,0.0 -42.620056,-17.7424759994508,0.0 -42.619577,-17.7422399994508,0.0 -42.619096,-17.7421889994508,0.0 -42.618638,-17.7422299994508,0.0 -42.618155,-17.7423169994508,0.0 -42.61765,-17.7423119994508,0.0 -42.617267,-17.7420539994508,0.0 -42.617007,-17.7416589994508,0.0 -42.616889,-17.7414269994508,0.0 -42.616771,-17.7411949994508,0.0 -42.616971,-17.7406199994508,0.0 -42.617841,-17.7403059994508,0.0 -42.618299,-17.7402649994508,0.0 -42.618712,-17.7399919994508,0.0 -42.619221,-17.7397439994508,0.0 -42.619347,-17.7392609994508,0.0 -42.619424,-17.7387999994509,0.0 -42.619502,-17.7383159994509,0.0 -42.619651,-17.7378789994509,0.0 -42.619537,-17.7373469994509,0.0 -42.619277,-17.7369749994509,0.0 -42.618821,-17.7368319994509,0.0 -42.618392,-17.7363659994509,0.0 -42.618422,-17.7359279994509,0.0 -42.618786,-17.7356539994509,0.0 -42.619245,-17.7355209994509,0.0 -42.619562,-17.7351779994509,0.0 -42.619375,-17.734737999451,0.0 -42.619114,-17.734341999451,0.0 -42.618757,-17.733968999451,0.0 -42.618257,-17.733502999451,0.0 -42.617851,-17.733220999451,0.0 -42.617396,-17.732939999451,0.0 -42.616965,-17.732772999451,0.0 -42.616607,-17.732492999451,0.0 -42.616371,-17.732028999451,0.0 -42.616377,-17.731520999451,0.0 -42.616407,-17.7310139994511,0.0 -42.616461,-17.7305299994511,0.0 -42.616442,-17.7300679994511,0.0 -42.616399,-17.7295829994511,0.0 -42.616333,-17.7290969994511,0.0 -42.616243,-17.7285189994511,0.0 -42.616152,-17.7280569994511,0.0 -42.615965,-17.7275469994512,0.0 -42.615995,-17.7270859994512,0.0 -42.616048,-17.7266249994512,0.0 -42.615789,-17.7261139994512,0.0 -42.615334,-17.7259019994512,0.0 -42.614854,-17.7257579994512,0.0 -42.614397,-17.7256839994512,0.0 -42.613942,-17.7254949994512,0.0 -42.61356,-17.7251909994512,0.0 -42.613228,-17.7247489994512,0.0 -42.612968,-17.7243309994512,0.0 -42.612708,-17.7239359994512,0.0 -42.612641,-17.7234499994513,0.0 -42.61248,-17.7227789994513,0.0 -42.612413,-17.7223169994513,0.0 -42.61237,-17.7218779994513,0.0 -42.612304,-17.7213929994513,0.0 -42.61207,-17.7207899994513,0.0 -42.611809,-17.7204179994513,0.0 -42.61138,-17.7200439994514,0.0 -42.611022,-17.7197639994514,0.0 -42.610615,-17.7195519994514,0.0 -42.61021,-17.7191549994514,0.0 -42.609926,-17.7187599994514,0.0 -42.609738,-17.7183189994514,0.0 -42.609333,-17.7179689994514,0.0 -42.608902,-17.7177789994514,0.0 -42.608421,-17.7177279994514,0.0 -42.607916,-17.7176069994514,0.0 -42.607437,-17.7173949994514,0.0 -42.606957,-17.7172509994514,0.0 -42.606405,-17.7170839994514,0.0 -42.606,-17.7167559994514,0.0 -42.605522,-17.7164049994515,0.0 -42.605019,-17.7161689994515,0.0 -42.604894,-17.7166059994514,0.0 -42.604865,-17.7170439994514,0.0 -42.604859,-17.7175519994514,0.0 -42.604902,-17.7179909994514,0.0 -42.604993,-17.7184529994514,0.0 -42.604916,-17.7188909994514,0.0 -42.604766,-17.7193279994514,0.0 -42.604425,-17.7196469994514,0.0 -42.604037,-17.7198969994514,0.0 -42.603625,-17.7201469994513,0.0 -42.60319,-17.7203039994513,0.0 -42.602777,-17.7205759994513,0.0 -42.601898,-17.7216049994513,0.0 -42.60151,-17.7219009994513,0.0 -42.601074,-17.7220809994513,0.0 -42.600592,-17.7220759994513,0.0 -42.600136,-17.7220019994513,0.0 -42.599792,-17.7220579994513,0.0 -42.599868,-17.7222299994513,0.0 -42.599983,-17.7227389994513,0.0 -42.599758,-17.7234519994513,0.0 -42.599849,-17.7239139994513,0.0 -42.600182,-17.7242179994512,0.0 -42.600662,-17.7243849994512,0.0 -42.601262,-17.7245759994512,0.0 -42.601692,-17.7248799994512,0.0 -42.601831,-17.7253199994512,0.0 -42.601826,-17.7258049994512,0.0 -42.601869,-17.7262439994512,0.0 -42.602226,-17.7265479994512,0.0 -42.602609,-17.7268059994512,0.0 -42.602676,-17.7272449994512,0.0 -42.602424,-17.7282109994511,0.0 -42.602274,-17.7286709994511,0.0 -42.602413,-17.7291109994511,0.0 -42.60282,-17.7293229994511,0.0 -42.603252,-17.7295129994511,0.0 -42.604263,-17.7295229994511,0.0 -42.604768,-17.7295519994511,0.0 -42.605199,-17.7298099994511,0.0 -42.605338,-17.7302499994511,0.0 -42.60514,-17.7306869994511,0.0 -42.604705,-17.7308899994511,0.0 -42.604247,-17.7309309994511,0.0 -42.603833,-17.7312729994511,0.0 -42.603924,-17.731757999451,0.0 -42.604282,-17.732038999451,0.0 -42.604639,-17.732411999451,0.0 -42.605045,-17.732646999451,0.0 -42.6050671,-17.732789799451,0.0 -42.605113,-17.733085999451,0.0 -42.604772,-17.733405999451,0.0 -42.604214,-17.733699999451,0.0 -42.603779,-17.733856999451,0.0 -42.602862,-17.734031999451,0.0 -42.602472,-17.734419999451,0.0 -42.602347,-17.734856999451,0.0 -42.602534,-17.7353439994509,0.0 -42.602866,-17.7357629994509,0.0 -42.603174,-17.7362039994509,0.0 -42.603532,-17.7364849994509,0.0 -42.604034,-17.7368139994509,0.0 -42.604392,-17.7371169994509,0.0 -42.604676,-17.7375359994509,0.0 -42.604743,-17.7379979994509,0.0 -42.604617,-17.7384579994509,0.0 -42.604395,-17.7388709994508,0.0 -42.60415,-17.7392839994508,0.0 -42.60383,-17.7398579994508,0.0 -42.603801,-17.7403189994508,0.0 -42.603916,-17.7407589994508,0.0 -42.604176,-17.7411539994508,0.0 -42.604388,-17.7415479994508,0.0 -42.604552,-17.7420119994508,0.0 -42.604788,-17.7424299994507,0.0 -42.605265,-17.7427809994507,0.0 -42.605697,-17.7429469994507,0.0 -42.606201,-17.7430679994507,0.0 -42.606632,-17.7433029994507,0.0 -42.607136,-17.7434929994507,0.0 -42.60764,-17.7435909994507,0.0 -42.608071,-17.7438259994507,0.0 -42.608503,-17.7439919994507,0.0 -42.608785,-17.7445259994507,0.0 -42.608636,-17.7449859994507,0.0 -42.608293,-17.7454209994507,0.0 -42.608336,-17.7458599994507,0.0 -42.6085,-17.7462769994507,0.0 -42.60893,-17.7466049994506,0.0 -42.609286,-17.7470239994506,0.0 -42.609693,-17.7472819994506,0.0 -42.610148,-17.7475179994506,0.0 -42.610481,-17.7478209994506,0.0 -42.610766,-17.7481699994506,0.0 -42.611099,-17.7485199994506,0.0 -42.611311,-17.7489379994506,0.0 -42.611451,-17.7493779994506,0.0 -42.61176,-17.7497039994506,0.0 -42.612068,-17.7501459994505,0.0 -42.612525,-17.7501969994505,0.0 -42.612984,-17.7500859994505,0.0 -42.61344,-17.7502299994505,0.0 -42.613652,-17.7506239994505,0.0 -42.613887,-17.7511339994505,0.0 -42.613929,-17.7516659994505,0.0 -42.614019,-17.7522209994505,0.0 -42.614062,-17.7526829994505,0.0 -42.614007,-17.7532819994505,0.0 -42.614265,-17.7538849994504,0.0 -42.614451,-17.7544179994504,0.0 -42.614567,-17.7548569994504,0.0 -42.614682,-17.7553199994504,0.0 -42.614749,-17.7557589994504,0.0 -42.614912,-17.7562689994504,0.0 -42.615026,-17.7567779994504,0.0 -42.615189,-17.7573099994504,0.0 -42.615521,-17.7577749994503,0.0 -42.615829,-17.7581479994503,0.0 -42.61609,-17.7585429994503,0.0 -42.616252,-17.7590749994503,0.0 -42.616368,-17.7595149994503,0.0 -42.616051,-17.7598349994503,0.0 -42.615758,-17.7601779994503,0.0 -42.615441,-17.7604979994503,0.0 -42.615027,-17.7609319994503,0.0 -42.614901,-17.7614149994502,0.0 -42.614653,-17.7619659994502,0.0 -42.614576,-17.7624039994502,0.0 -42.614616,-17.7630739994502,0.0 -42.614924,-17.7635619994502,0.0 -42.615083,-17.7643939994502,0.0 -42.61515,-17.7648329994502,0.0 -42.615217,-17.7652959994501,0.0 -42.615574,-17.7656689994501,0.0 -42.616031,-17.7657659994501,0.0 -42.616411,-17.7662079994501,0.0 -42.616454,-17.7666699994501,0.0 -42.616569,-17.7671099994501,0.0 -42.616636,-17.7675719994501,0.0 -42.616511,-17.7680089994501,0.0 -42.616289,-17.7683989994501,0.0 -42.616019,-17.76885799945,0.0 -42.615629,-17.76924599945,0.0 -42.615168,-17.76951799945,0.0 -42.6151443,-17.76952899945,0.0 -42.614732,-17.76972099945,0.0 -42.614201,-17.76983099945,0.0 -42.613719,-17.76987199945,0.0 -42.613165,-17.76986599945,0.0 -42.612706,-17.76999999945,0.0 -42.61227,-17.77022599945,0.0 -42.611808,-17.77054399945,0.0 -42.611324,-17.77072399945,0.0 -42.610863,-17.77104199945,0.0 -42.610425,-17.77140699945,0.0 -42.610013,-17.77163299945,0.0 -42.609649,-17.77190599945,0.0 -42.609475,-17.7723429994499,0.0 -42.609494,-17.7727809994499,0.0 -42.609345,-17.7732179994499,0.0 -42.609291,-17.7736559994499,0.0 -42.609551,-17.7740739994499,0.0 -42.609909,-17.7743779994499,0.0 -42.610292,-17.7746359994499,0.0 -42.61043,-17.7751679994499,0.0 -42.610208,-17.7755809994499,0.0 -42.609915,-17.7759249994499,0.0 -42.609717,-17.7763839994498,0.0 -42.609712,-17.7768689994498,0.0 -42.609779,-17.7773309994498,0.0 -42.609891,-17.7780239994498,0.0 -42.609934,-17.7784629994498,0.0 -42.609783,-17.7790159994498,0.0 -42.609584,-17.7795439994498,0.0 -42.609124,-17.7797469994497,0.0 -42.608615,-17.7800419994497,0.0 -42.608322,-17.7803849994497,0.0 -42.607908,-17.7807959994497,0.0 -42.60759,-17.7811619994497,0.0 -42.607345,-17.7815509994497,0.0 -42.607123,-17.7820109994497,0.0 -42.606949,-17.7824469994497,0.0 -42.606798,-17.7829989994497,0.0 -42.606358,-17.7835489994496,0.0 -42.605848,-17.7839359994496,0.0 -42.605342,-17.7839759994496,0.0 -42.604836,-17.7839709994496,0.0 -42.603922,-17.7838689994496,0.0 -42.603316,-17.7841389994496,0.0 -42.602975,-17.7844589994496,0.0 -42.602901,-17.7849159994496,0.0 -42.60285,-17.7849529994496,0.0 -42.602463,-17.7851049994496,0.0 -42.602121,-17.7854019994496,0.0 -42.602044,-17.7858409994496,0.0 -42.602379,-17.7861689994496,0.0 -42.602641,-17.7865419994496,0.0 -42.602951,-17.7868919994496,0.0 -42.603237,-17.7872879994495,0.0 -42.603402,-17.7877059994495,0.0 -42.603493,-17.7882169994495,0.0 -42.603513,-17.7886569994495,0.0 -42.603459,-17.7892119994495,0.0 -42.603478,-17.7896979994495,0.0 -42.603642,-17.7901629994495,0.0 -42.603904,-17.7905589994495,0.0 -42.604044,-17.7910229994494,0.0 -42.603966,-17.7915079994494,0.0 -42.603575,-17.7918979994494,0.0 -42.603114,-17.7921019994494,0.0 -42.602701,-17.7923529994494,0.0 -42.602264,-17.7925339994494,0.0 -42.602042,-17.7929249994494,0.0 -42.602255,-17.7933899994494,0.0 -42.602565,-17.7937869994494,0.0 -42.602851,-17.7941829994494,0.0 -42.602749,-17.7946219994494,0.0 -42.602384,-17.7948959994493,0.0 -42.60197,-17.7951929994493,0.0 -42.601557,-17.7954439994493,0.0 -42.601047,-17.7956469994493,0.0 -42.600586,-17.7958049994493,0.0 -42.600126,-17.7959159994493,0.0 -42.599667,-17.7959349994493,0.0 -42.59916,-17.7958369994493,0.0 -42.598677,-17.7958329994493,0.0 -42.598218,-17.7957819994493,0.0 -42.597829,-17.7960559994493,0.0 -42.597631,-17.7964709994493,0.0 -42.5976045,-17.7966904994493,0.0 -42.597578,-17.7969099994493,0.0 -42.5975635,-17.7971529994493,0.0 -42.597549,-17.7973959994493,0.0 -42.597351,-17.7978109994493,0.0 -42.597033,-17.7981779994493,0.0 -42.596787,-17.7986149994493,0.0 -42.596565,-17.7990529994492,0.0 -42.59639,-17.7995369994492,0.0 -42.596339,-17.7997914994492,0.0 -42.596288,-17.8000459994492,0.0 -42.596138,-17.8005769994492,0.0 -42.59606,-17.8010389994492,0.0 -42.596031,-17.8015709994492,0.0 -42.596001,-17.8020569994492,0.0 -42.59599,-17.8030989994491,0.0 -42.596009,-17.8036309994491,0.0 -42.596004,-17.8041169994491,0.0 -42.595854,-17.8046019994491,0.0 -42.595583,-17.8050619994491,0.0 -42.595265,-17.8054299994491,0.0 -42.594851,-17.8057729994491,0.0 -42.59446,-17.806115999449,0.0 -42.594118,-17.806459999449,0.0 -42.593752,-17.806803999449,0.0 -42.593411,-17.807101999449,0.0 -42.593021,-17.807351999449,0.0 -42.592559,-17.807625999449,0.0 -42.592169,-17.807945999449,0.0 -42.591804,-17.808219999449,0.0 -42.591391,-17.808447999449,0.0 -42.590929,-17.808651999449,0.0 -42.590516,-17.808878999449,0.0 -42.590078,-17.809152999449,0.0 -42.589688,-17.809449999449,0.0 -42.58937,-17.8097939994489,0.0 -42.589053,-17.8101149994489,0.0 -42.588783,-17.8104829994489,0.0 -42.588609,-17.8109439994489,0.0 -42.588386,-17.8114279994489,0.0 -42.588261,-17.8118669994489,0.0 -42.588111,-17.8123279994489,0.0 -42.588034,-17.8127669994489,0.0 -42.587884,-17.8132289994489,0.0 -42.587637,-17.8136889994488,0.0 -42.587488,-17.8141509994488,0.0 -42.587121,-17.8145179994488,0.0 -42.586804,-17.8148389994488,0.0 -42.586582,-17.8152299994488,0.0 -42.586432,-17.8156679994488,0.0 -42.586427,-17.8161309994488,0.0 -42.586398,-17.8166169994488,0.0 -42.586393,-17.8170799994488,0.0 -42.586461,-17.8175209994487,0.0 -42.586456,-17.8180069994487,0.0 -42.586378,-17.8184689994487,0.0 -42.586325,-17.8189309994487,0.0 -42.586127,-17.8193459994487,0.0 -42.585666,-17.8195729994487,0.0 -42.585206,-17.8196379994487,0.0 -42.584746,-17.8196799994487,0.0 -42.584215,-17.8196749994487,0.0 -42.583756,-17.8196469994487,0.0 -42.583272,-17.8196419994487,0.0 -42.582765,-17.8196139994487,0.0 -42.582233,-17.8196089994487,0.0 -42.581726,-17.8196509994487,0.0 -42.581241,-17.8197849994487,0.0 -42.580804,-17.8199659994487,0.0 -42.580343,-17.8200999994487,0.0 -42.578886,-17.8207799994487,0.0 -42.578376,-17.8210069994486,0.0 -42.577915,-17.8211409994486,0.0 -42.577383,-17.8212279994486,0.0 -42.576899,-17.8212929994486,0.0 -42.576389,-17.8214499994486,0.0 -42.575928,-17.8216079994486,0.0 -42.575323,-17.8217409994486,0.0 -42.574839,-17.8217819994486,0.0 -42.574356,-17.8217309994486,0.0 -42.573923,-17.8215649994486,0.0 -42.573491,-17.8213059994486,0.0 -42.573157,-17.8208859994487,0.0 -42.572896,-17.8203969994487,0.0 -42.572635,-17.8199549994487,0.0 -42.572373,-17.8195819994487,0.0 -42.571966,-17.8192769994487,0.0 -42.571387,-17.8191559994487,0.0 -42.570879,-17.8192199994487,0.0 -42.570513,-17.8195409994487,0.0 -42.5703693,-17.8197939994487,0.0 -42.5703633,-17.8198045994487,0.0 -42.5702932,-17.8199280994487,0.0 -42.570291,-17.8199319994487,0.0 -42.5702953,-17.8201244994487,0.0 -42.570307,-17.8206499994487,0.0 -42.570375,-17.8211129994486,0.0 -42.570346,-17.8215529994486,0.0 -42.5701,-17.8219669994486,0.0 -42.569878,-17.8223589994486,0.0 -42.56968,-17.8228199994486,0.0 -42.569338,-17.8231399994486,0.0 -42.56897,-17.8236459994486,0.0 -42.5687,-17.8240139994486,0.0 -42.56843,-17.8244739994485,0.0 -42.568184,-17.8248649994485,0.0 -42.568097,-17.8250724994485,0.0 -42.56801,-17.8252799994485,0.0 -42.5679955,-17.8254999994485,0.0 -42.567981,-17.8257199994485,0.0 -42.567952,-17.8261819994485,0.0 -42.567942,-17.8271549994485,0.0 -42.568009,-17.8276179994485,0.0 -42.568004,-17.8280809994485,0.0 -42.567902,-17.8286129994484,0.0 -42.567489,-17.8288169994484,0.0 -42.567076,-17.8290439994484,0.0 -42.566615,-17.8291319994484,0.0 -42.566084,-17.8291269994484,0.0 -42.565576,-17.8291449994484,0.0 -42.565117,-17.8291639994484,0.0 -42.564609,-17.8292049994484,0.0 -42.564148,-17.8293389994484,0.0 -42.563734,-17.8295899994484,0.0 -42.563464,-17.8299809994484,0.0 -42.563339,-17.8304189994484,0.0 -42.563382,-17.8309289994484,0.0 -42.563449,-17.8313929994484,0.0 -42.563541,-17.8318569994484,0.0 -42.56356,-17.8322969994483,0.0 -42.563579,-17.8328059994483,0.0 -42.563573,-17.8333149994483,0.0 -42.56352,-17.8338009994483,0.0 -42.563514,-17.8343569994483,0.0 -42.563557,-17.8348659994483,0.0 -42.563624,-17.8353069994483,0.0 -42.563764,-17.8357939994482,0.0 -42.563952,-17.8363049994482,0.0 -42.564092,-17.8367699994482,0.0 -42.564256,-17.8373039994482,0.0 -42.564371,-17.8378139994482,0.0 -42.564438,-17.8383009994482,0.0 -42.564457,-17.8387639994482,0.0 -42.564434,-17.8409629994481,0.0 -42.56438,-17.8414259994481,0.0 -42.564375,-17.8418879994481,0.0 -42.564418,-17.8424209994481,0.0 -42.564509,-17.8429549994481,0.0 -42.564625,-17.843418999448,0.0 -42.564717,-17.843882999448,0.0 -42.564881,-17.844300999448,0.0 -42.565143,-17.844719999448,0.0 -42.565477,-17.845070999448,0.0 -42.565812,-17.845374999448,0.0 -42.566147,-17.845701999448,0.0 -42.566554,-17.846076999448,0.0 -42.566758,-17.846205999448,0.0 -42.566962,-17.846334999448,0.0 -42.567421,-17.846408999448,0.0 -42.567926,-17.846622999448,0.0 -42.568431,-17.846881999448,0.0 -42.56879,-17.8471639994479,0.0 -42.569319,-17.8474469994479,0.0 -42.569775,-17.8477749994479,0.0 -42.570134,-17.8481029994479,0.0 -42.57042,-17.8484759994479,0.0 -42.57056,-17.8489169994479,0.0 -42.570604,-17.8493809994479,0.0 -42.570551,-17.8498199994479,0.0 -42.570449,-17.8502819994479,0.0 -42.570323,-17.8507439994479,0.0 -42.569908,-17.8511099994478,0.0 -42.569495,-17.8513369994478,0.0 -42.569058,-17.8515409994478,0.0 -42.5688837,-17.8515477994478,0.0 -42.568848,-17.8515491994478,0.0 -42.568574,-17.8515599994478,0.0 -42.568115,-17.8515089994478,0.0 -42.567632,-17.8514809994478,0.0 -42.566714,-17.8514259994478,0.0 -42.56623,-17.8515139994478,0.0 -42.565791,-17.8518329994478,0.0 -42.565353,-17.8521299994478,0.0 -42.564891,-17.8524029994478,0.0 -42.564429,-17.8526299994478,0.0 -42.563967,-17.8529029994478,0.0 -42.563529,-17.8531299994478,0.0 -42.56302,-17.8532409994478,0.0 -42.56244,-17.8533049994478,0.0 -42.561956,-17.8532999994478,0.0 -42.561499,-17.8531339994478,0.0 -42.56097,-17.8528509994478,0.0 -42.560465,-17.8525679994478,0.0 -42.560081,-17.8523089994478,0.0 -42.559698,-17.8520279994478,0.0 -42.559215,-17.8519529994478,0.0 -42.558732,-17.8519489994478,0.0 -42.558273,-17.8519209994478,0.0 -42.557763,-17.8520779994478,0.0 -42.557327,-17.8522359994478,0.0 -42.557008,-17.8526489994478,0.0 -42.556762,-17.8530629994478,0.0 -42.556708,-17.8535259994478,0.0 -42.556752,-17.8539659994478,0.0 -42.556844,-17.8544069994478,0.0 -42.557008,-17.8548479994477,0.0 -42.5572427,-17.8548510994477,0.0 -42.5572591,-17.8549306994477,0.0 -42.5572754,-17.8550102994477,0.0 -42.5573459,-17.8553024994477,0.0 -42.5572592,-17.8555119994477,0.0 -42.5572989,-17.8556636994477,0.0 -42.5573025,-17.8558658994477,0.0 -42.557187,-17.8560031994477,0.0 -42.5571292,-17.8561638994477,0.0 -42.5573585,-17.8561981994477,0.0 -42.5573982,-17.8563787994477,0.0 -42.5572025,-17.8565740994477,0.0 -42.5571232,-17.8567484994477,0.0 -42.5571141,-17.8569206994477,0.0 -42.5571778,-17.8570315994477,0.0 -42.5570965,-17.8571637994477,0.0 -42.5571146,-17.8573007994477,0.0 -42.5571227,-17.8574511994477,0.0 -42.5571461,-17.8576854994477,0.0 -42.5573078,-17.8578428994477,0.0 -42.5572278,-17.8580088994477,0.0 -42.557081,-17.8581424994477,0.0 -42.5569801,-17.8583166994477,0.0 -42.5569856,-17.8584614994476,0.0 -42.5570154,-17.8586624994476,0.0 -42.557222,-17.8588049994476,0.0 -42.5572955,-17.8589643994476,0.0 -42.5571881,-17.8591115994476,0.0 -42.5571126,-17.8591829994476,0.0 -42.5570371,-17.8592543994476,0.0 -42.5571396,-17.8594649994476,0.0 -42.5572122,-17.8595880994476,0.0 -42.5572339,-17.8597634994476,0.0 -42.5571046,-17.8599529994476,0.0 -42.5571491,-17.8601495994476,0.0 -42.5573644,-17.8603726994476,0.0 -42.5574792,-17.8606025994476,0.0 -42.5574343,-17.8606995994476,0.0 -42.5573895,-17.8607965994476,0.0 -42.5572817,-17.8607887994476,0.0 -42.5571738,-17.8607810994476,0.0 -42.5569411,-17.8608551994476,0.0 -42.5567613,-17.8610030994476,0.0 -42.5566346,-17.8610771994476,0.0 -42.5567455,-17.8612093994476,0.0 -42.5568037,-17.8613495994476,0.0 -42.5566662,-17.8615002994476,0.0 -42.5565816,-17.8616958994476,0.0 -42.5566133,-17.8619232994476,0.0 -42.5566027,-17.8621876994475,0.0 -42.5565551,-17.8623516994475,0.0 -42.5564282,-17.8624573994475,0.0 -42.5564123,-17.8626953994475,0.0 -42.5564652,-17.8628486994475,0.0 -42.5564441,-17.8630231994475,0.0 -42.5564282,-17.8631976994475,0.0 -42.5565393,-17.8633722994475,0.0 -42.5566239,-17.8635096994475,0.0 -42.5565181,-17.8636789994475,0.0 -42.5564018,-17.8638798994475,0.0 -42.5563383,-17.8640173994475,0.0 -42.5561797,-17.8641125994475,0.0 -42.5560316,-17.8641336994475,0.0 -42.555873,-17.8641971994475,0.0 -42.5557037,-17.8642500994475,0.0 -42.5553634,-17.8644748994475,0.0 -42.5551479,-17.8646149994475,0.0 -42.5550587,-17.8648395994475,0.0 -42.5550195,-17.8650962994475,0.0 -42.5549055,-17.8652851994475,0.0 -42.5547878,-17.8654776994475,0.0 -42.5547842,-17.8656380994475,0.0 -42.5547308,-17.8657913994474,0.0 -42.5547468,-17.8660123994474,0.0 -42.5547201,-17.8661728994474,0.0 -42.5548805,-17.8662761994474,0.0 -42.5549197,-17.8664366994474,0.0 -42.5548342,-17.8665578994474,0.0 -42.5546844,-17.8666433994474,0.0 -42.5544884,-17.8666718994474,0.0 -42.5544171,-17.8668287994474,0.0 -42.5543992,-17.8669855994474,0.0 -42.5543251,-17.8671355994474,0.0 -42.5541884,-17.8671942994474,0.0</coordinates>
</LinearRing>
</outerBoundaryIs>
</Polygon>
</MultiGeometry>
</Placemark>
</Folder>
</Document></kml>
