<?xml version='1.0' encoding='UTF-8'?>
<kml xmlns:xsd="http://www.w3.org/2001/XMLSchema" xmlns:gx="http://www.google.com/kml/ext/2.2" xmlns:atom="http://www.w3.org/2005/Atom" xmlns="http://www.opengis.net/kml/2.2">
<Document>
<name>carvalhopolis_3114709_localidades_2022</name>
<visibility>1</visibility>
<Schema name="01. Cidade" id="kml_schema_ft_01._Cidade">
<SimpleField type="xsd:string" name="CD_UF">
<displayName>CD_UF</displayName>
</SimpleField>
<SimpleField type="xsd:string" name="NM_UF">
<displayName>NM_UF</displayName>
</SimpleField>
<SimpleField type="xsd:string" name="SIGLA_UF">
<displayName>SIGLA_UF</displayName>
</SimpleField>
<SimpleField type="xsd:string" name="CD_MUN">
<displayName>CD_MUN</displayName>
</SimpleField>
<SimpleField type="xsd:string" name="NM_MUN">
<displayName>NM_MUN</displayName>
</SimpleField>
<SimpleField type="xsd:string" name="CD_RGINT">
<displayName>CD_RGINT</displayName>
</SimpleField>
<SimpleField type="xsd:string" name="NM_RGINT">
<displayName>NM_RGINT</displayName>
</SimpleField>
<SimpleField type="xsd:string" name="CD_RGI">
<displayName>CD_RGI</displayName>
</SimpleField>
<SimpleField type="xsd:string" name="NM_RGI">
<displayName>NM_RGI</displayName>
</SimpleField>
<SimpleField type="xsd:string" name="CT_LOCALIDADE">
<displayName>CT_LOCALIDADE</displayName>
</SimpleField>
<SimpleField type="xsd:string" name="SCT_LOCALIDADE">
<displayName>SCT_LOCALIDADE</displayName>
</SimpleField>
<SimpleField type="xsd:string" name="CD_LOCALIDADE">
<displayName>CD_LOCALIDADE</displayName>
</SimpleField>
<SimpleField type="xsd:string" name="NM_LOCALIDADE">
<displayName>NM_LOCALIDADE</displayName>
</SimpleField>
<SimpleField type="xsd:string" name="LAT_LOCALIDADE">
<displayName>LAT_LOCALIDADE</displayName>
</SimpleField>
<SimpleField type="xsd:string" name="LONG_LOCALIDADE">
<displayName>LONG_LOCALIDADE</displayName>
</SimpleField>
</Schema>
<Schema name="Município" id="kml_schema_ft_Município">
<SimpleField type="xsd:string" name="CD_UF">
<displayName>CD_UF</displayName>
</SimpleField>
<SimpleField type="xsd:string" name="NM_UF">
<displayName>NM_UF</displayName>
</SimpleField>
<SimpleField type="xsd:string" name="CD_MUN">
<displayName>CD_MUN</displayName>
</SimpleField>
<SimpleField type="xsd:string" name="NM_MUN">
<displayName>NM_MUN</displayName>
</SimpleField>
<SimpleField type="xsd:string" name="CD_RGINT">
<displayName>CD_RGINT</displayName>
</SimpleField>
<SimpleField type="xsd:string" name="NM_RGINT">
<displayName>NM_RGINT</displayName>
</SimpleField>
<SimpleField type="xsd:string" name="CD_RGI">
<displayName>CD_RGI</displayName>
</SimpleField>
<SimpleField type="xsd:string" name="NM_RGI">
<displayName>NM_RGI</displayName>
</SimpleField>
</Schema>
<Folder id="01. Cidade">
<name>01. Cidade</name>
<Folder id="01.03. Sede Municipal">
<name>01.03. Sede Municipal</name>
<Placemark id="01.03. Sede Municipal">
<name>Carvalhópolis [3114709]</name>
<visibility>1</visibility>
<snippet> </snippet>
<description>&lt;center&gt;&lt;table&gt;&lt;tr&gt;&lt;th colspan='2' align='center'&gt;&lt;em&gt;Atributos&lt;/em&gt;&lt;/th&gt;&lt;/tr&gt;&lt;tr bgcolor="#E3E3F3"&gt;
&lt;th&gt;CD_UF&lt;/th&gt;
&lt;td&gt;31&lt;/td&gt;
&lt;/tr&gt;&lt;tr bgcolor=""&gt;
&lt;th&gt;NM_UF&lt;/th&gt;
&lt;td&gt;Minas Gerais&lt;/td&gt;
&lt;/tr&gt;&lt;tr bgcolor="#E3E3F3"&gt;
&lt;th&gt;SIGLA_UF&lt;/th&gt;
&lt;td&gt;MG&lt;/td&gt;
&lt;/tr&gt;&lt;tr bgcolor=""&gt;
&lt;th&gt;CD_MUN&lt;/th&gt;
&lt;td&gt;3114709&lt;/td&gt;
&lt;/tr&gt;&lt;tr bgcolor="#E3E3F3"&gt;
&lt;th&gt;NM_MUN&lt;/th&gt;
&lt;td&gt;Carvalhópolis&lt;/td&gt;
&lt;/tr&gt;&lt;tr bgcolor=""&gt;
&lt;th&gt;CD_RGINT&lt;/th&gt;
&lt;td&gt;3108&lt;/td&gt;
&lt;/tr&gt;&lt;tr bgcolor="#E3E3F3"&gt;
&lt;th&gt;NM_RGINT&lt;/th&gt;
&lt;td&gt;Varginha&lt;/td&gt;
&lt;/tr&gt;&lt;tr bgcolor=""&gt;
&lt;th&gt;CD_RGI&lt;/th&gt;
&lt;td&gt;310042&lt;/td&gt;
&lt;/tr&gt;&lt;tr bgcolor="#E3E3F3"&gt;
&lt;th&gt;NM_RGI&lt;/th&gt;
&lt;td&gt;Alfenas&lt;/td&gt;
&lt;/tr&gt;&lt;tr bgcolor=""&gt;
&lt;th&gt;CT_LOCALIDADE&lt;/th&gt;
&lt;td&gt;Cidade&lt;/td&gt;
&lt;/tr&gt;&lt;tr bgcolor="#E3E3F3"&gt;
&lt;th&gt;SCT_LOCALIDADE&lt;/th&gt;
&lt;td&gt;Sede Municipal&lt;/td&gt;
&lt;/tr&gt;&lt;tr bgcolor=""&gt;
&lt;th&gt;CD_LOCALIDADE&lt;/th&gt;
&lt;td&gt;3114709&lt;/td&gt;
&lt;/tr&gt;&lt;tr bgcolor="#E3E3F3"&gt;
&lt;th&gt;NM_LOCALIDADE&lt;/th&gt;
&lt;td&gt;Carvalhópolis&lt;/td&gt;
&lt;/tr&gt;&lt;tr bgcolor=""&gt;
&lt;th&gt;LAT_LOCALIDADE&lt;/th&gt;
&lt;td&gt;-21.7782&lt;/td&gt;
&lt;/tr&gt;&lt;tr bgcolor="#E3E3F3"&gt;
&lt;th&gt;LONG_LOCALIDADE&lt;/th&gt;
&lt;td&gt;-45.8432&lt;/td&gt;
&lt;/tr&gt;&lt;/table&gt;&lt;/center&gt;</description>
<Style>
<IconStyle>
<color>ff00aaff</color>
<scale>1.0</scale>
<Icon>
<href>http://maps.google.com/mapfiles/kml/shapes/placemark_circle.png</href>
</Icon>
</IconStyle>
<LabelStyle>
<scale>1.0</scale>
</LabelStyle>
<LineStyle>
<color>ffffffff</color>
<width>3</width>
<gx:labelVisibility>1</gx:labelVisibility>
</LineStyle>
<PolyStyle>
<color>00ffffff</color>
</PolyStyle>
</Style>
<ExtendedData>
<SchemaData schemaUrl="#kml_schema_ft_01._Cidade">
<SimpleData name="CD_UF">31</SimpleData>
<SimpleData name="NM_UF">Minas Gerais</SimpleData>
<SimpleData name="SIGLA_UF">MG</SimpleData>
<SimpleData name="CD_MUN">3114709</SimpleData>
<SimpleData name="NM_MUN">Carvalhópolis</SimpleData>
<SimpleData name="CD_RGINT">3108</SimpleData>
<SimpleData name="NM_RGINT">Varginha</SimpleData>
<SimpleData name="CD_RGI">310042</SimpleData>
<SimpleData name="NM_RGI">Alfenas</SimpleData>
<SimpleData name="CT_LOCALIDADE">Cidade</SimpleData>
<SimpleData name="SCT_LOCALIDADE">Sede Municipal</SimpleData>
<SimpleData name="CD_LOCALIDADE">3114709</SimpleData>
<SimpleData name="NM_LOCALIDADE">Carvalhópolis</SimpleData>
<SimpleData name="LAT_LOCALIDADE">-21.7782</SimpleData>
<SimpleData name="LONG_LOCALIDADE">-45.8432</SimpleData>
</SchemaData>
</ExtendedData>
<Point>
<extrude>0</extrude>
<coordinates>-45.8432,-21.7781999993484,0.0</coordinates>
</Point>
</Placemark>
</Folder>
</Folder>
<Folder id="13. Referência">
<name>13. Referência</name>
<Placemark id="13. Referência">
<name>Carvalhópolis [3114709]</name>
<visibility>1</visibility>
<snippet> </snippet>
<description>&lt;center&gt;&lt;table&gt;&lt;tr&gt;&lt;th colspan='2' align='center'&gt;&lt;em&gt;Attributes&lt;/em&gt;&lt;/th&gt;&lt;/tr&gt;&lt;tr bgcolor="#E3E3F3"&gt;
&lt;th&gt;CD_UF&lt;/th&gt;
&lt;td&gt;31&lt;/td&gt;
&lt;/tr&gt;&lt;tr bgcolor=""&gt;
&lt;th&gt;NM_UF&lt;/th&gt;
&lt;td&gt;Minas Gerais&lt;/td&gt;
&lt;/tr&gt;&lt;tr bgcolor="#E3E3F3"&gt;
&lt;th&gt;CD_MUN&lt;/th&gt;
&lt;td&gt;3114709&lt;/td&gt;
&lt;/tr&gt;&lt;tr bgcolor=""&gt;
&lt;th&gt;NM_MUN&lt;/th&gt;
&lt;td&gt;Carvalhópolis&lt;/td&gt;
&lt;/tr&gt;&lt;tr bgcolor="#E3E3F3"&gt;
&lt;th&gt;CD_RGINT&lt;/th&gt;
&lt;td&gt;3108&lt;/td&gt;
&lt;/tr&gt;&lt;tr bgcolor=""&gt;
&lt;th&gt;NM_RGINT&lt;/th&gt;
&lt;td&gt;Varginha&lt;/td&gt;
&lt;/tr&gt;&lt;tr bgcolor="#E3E3F3"&gt;
&lt;th&gt;CD_RGI&lt;/th&gt;
&lt;td&gt;310042&lt;/td&gt;
&lt;/tr&gt;&lt;tr bgcolor=""&gt;
&lt;th&gt;NM_RGI&lt;/th&gt;
&lt;td&gt;Alfenas&lt;/td&gt;
&lt;/tr&gt;&lt;/table&gt;&lt;/center&gt;</description>
<Style>
<IconStyle>
<scale>0.7</scale>
</IconStyle>
<LabelStyle>
<scale>0.7</scale>
</LabelStyle>
<LineStyle>
<color>ffffffff</color>
<width>3</width>
<gx:labelVisibility>1</gx:labelVisibility>
</LineStyle>
<PolyStyle>
<color>00ffffff</color>
</PolyStyle>
</Style>
<ExtendedData>
<SchemaData schemaUrl="#kml_schema_ft_Município">
<SimpleData name="CD_UF">31</SimpleData>
<SimpleData name="NM_UF">Minas Gerais</SimpleData>
<SimpleData name="CD_MUN">3114709</SimpleData>
<SimpleData name="NM_MUN">Carvalhópolis</SimpleData>
<SimpleData name="CD_RGINT">3108</SimpleData>
<SimpleData name="NM_RGINT">Varginha</SimpleData>
<SimpleData name="CD_RGI">310042</SimpleData>
<SimpleData name="NM_RGI">Alfenas</SimpleData>
</SchemaData>
</ExtendedData>
<MultiGeometry>
<Polygon>
<extrude>0</extrude>
<tessellate>1</tessellate>
<outerBoundaryIs>
<LinearRing>
<coordinates>-45.8372814,-21.7888378993481,0.0 -45.837787,-21.7888409993481,0.0 -45.837995,-21.7889459993481,0.0 -45.838179,-21.7890959993481,0.0 -45.83835,-21.7892469993481,0.0 -45.838583,-21.7893519993481,0.0 -45.838817,-21.7893989993481,0.0 -45.839,-21.7895729993481,0.0 -45.839085,-21.7898029993481,0.0 -45.839182,-21.7900099993481,0.0 -45.839353,-21.7901839993481,0.0 -45.83945,-21.7903909993481,0.0 -45.839449,-21.7906209993481,0.0 -45.839361,-21.7908509993481,0.0 -45.839433,-21.7910809993481,0.0 -45.839667,-21.7911049993481,0.0 -45.839913,-21.791106999348,0.0 -45.840147,-21.7910969993481,0.0 -45.840381,-21.791040999348,0.0 -45.840615,-21.7910079993481,0.0 -45.840712,-21.791237999348,0.0 -45.840785,-21.791467999348,0.0 -45.840882,-21.791675999348,0.0 -45.840868,-21.791916999348,0.0 -45.840743,-21.792157999348,0.0 -45.840521,-21.792270999348,0.0 -45.840544,-21.792489999348,0.0 -45.840579,-21.792731999348,0.0 -45.840713,-21.793007999348,0.0 -45.840699,-21.793225999348,0.0 -45.840525,-21.793374999348,0.0 -45.840356,-21.792936999348,0.0 -45.84016,-21.792786999348,0.0 -45.839938,-21.792888999348,0.0 -45.84001,-21.793118999348,0.0 -45.839788,-21.793197999348,0.0 -45.839542,-21.793196999348,0.0 -45.839356,-21.793333999348,0.0 -45.839491,-21.793529999348,0.0 -45.839649,-21.793714999348,0.0 -45.83966,-21.793944999348,0.0 -45.839634,-21.794173999348,0.0 -45.839534,-21.794391999348,0.0 -45.839312,-21.794516999348,0.0 -45.839273,-21.794746999348,0.0 -45.839444,-21.794919999348,0.0 -45.839504,-21.795138999348,0.0 -45.839429,-21.795379999348,0.0 -45.839182,-21.795424999348,0.0 -45.838949,-21.7953769993479,0.0 -45.83874,-21.7952499993479,0.0 -45.838494,-21.795259999348,0.0 -45.83826,-21.7952809993479,0.0 -45.838173,-21.7954879993479,0.0 -45.838257,-21.7957059993479,0.0 -45.838379,-21.7959029993479,0.0 -45.838526,-21.7960759993479,0.0 -45.838709,-21.7962149993479,0.0 -45.838881,-21.7963649993479,0.0 -45.838928,-21.7965959993479,0.0 -45.838865,-21.7968249993479,0.0 -45.838864,-21.7970549993479,0.0 -45.838948,-21.7972619993479,0.0 -45.838971,-21.7974919993479,0.0 -45.838786,-21.7976639993479,0.0 -45.838612,-21.7978579993479,0.0 -45.838561,-21.7980879993479,0.0 -45.838547,-21.7983289993479,0.0 -45.838362,-21.7984659993479,0.0 -45.838237,-21.7986829993479,0.0 -45.838297,-21.7989249993479,0.0 -45.83848,-21.7990989993479,0.0 -45.838528,-21.7993169993479,0.0 -45.838527,-21.7995469993479,0.0 -45.838587,-21.7997889993478,0.0 -45.838733,-21.7999739993478,0.0 -45.838781,-21.8001929993478,0.0 -45.838705,-21.8004329993478,0.0 -45.838642,-21.8006629993478,0.0 -45.838739,-21.8008819993478,0.0 -45.838935,-21.8010439993478,0.0 -45.839156,-21.8011719993478,0.0 -45.839327,-21.8013569993478,0.0 -45.839338,-21.8015869993478,0.0 -45.839238,-21.8018039993478,0.0 -45.838793,-21.8019859993478,0.0 -45.838804,-21.8022039993478,0.0 -45.838852,-21.8024339993478,0.0 -45.83885,-21.8026639993478,0.0 -45.838922,-21.8029059993478,0.0 -45.839131,-21.8030109993478,0.0 -45.839252,-21.8032409993478,0.0 -45.839485,-21.8033809993478,0.0 -45.839719,-21.8033479993478,0.0 -45.839954,-21.8032919993478,0.0 -45.840187,-21.8034079993478,0.0 -45.840691,-21.8034109993478,0.0 -45.84095,-21.8033889993478,0.0 -45.841183,-21.8035169993478,0.0 -45.841416,-21.8036219993478,0.0 -45.841538,-21.8038179993477,0.0 -45.841635,-21.8040489993477,0.0 -45.841843,-21.8041529993477,0.0 -45.84204,-21.8042809993477,0.0 -45.842124,-21.8045109993477,0.0 -45.842172,-21.8047299993477,0.0 -45.842331,-21.8048919993477,0.0 -45.842577,-21.8049279993477,0.0 -45.842835,-21.8048949993477,0.0 -45.843094,-21.8048849993477,0.0 -45.843265,-21.8050469993477,0.0 -45.843511,-21.8051859993477,0.0 -45.843608,-21.8054049993477,0.0 -45.84363,-21.8056469993477,0.0 -45.843802,-21.8058199993477,0.0 -45.844036,-21.8058099993477,0.0 -45.84427,-21.8057879993477,0.0 -45.844515,-21.8058469993477,0.0 -45.844612,-21.8060659993477,0.0 -45.844537,-21.8062839993477,0.0 -45.844303,-21.8063399993477,0.0 -45.844069,-21.8063499993477,0.0 -45.844018,-21.8065689993477,0.0 -45.844252,-21.8066159993477,0.0 -45.84451,-21.8066059993477,0.0 -45.845028,-21.8065629993477,0.0 -45.845273,-21.8066449993477,0.0 -45.84537,-21.8068639993477,0.0 -45.845591,-21.8069919993477,0.0 -45.845849,-21.8070739993477,0.0 -45.846034,-21.8069369993477,0.0 -45.84622,-21.8067649993477,0.0 -45.846455,-21.8066399993477,0.0 -45.846713,-21.8066419993477,0.0 -45.846897,-21.8068039993477,0.0 -45.846883,-21.8070339993477,0.0 -45.846808,-21.8072629993477,0.0 -45.846868,-21.8074929993477,0.0 -45.847089,-21.8075869993477,0.0 -45.847322,-21.8075989993477,0.0 -45.847556,-21.8076929993477,0.0 -45.847677,-21.8078889993477,0.0 -45.848145,-21.8079149993477,0.0 -45.848341,-21.8080649993476,0.0 -45.848253,-21.8082719993476,0.0 -45.848215,-21.8085009993476,0.0 -45.848534,-21.8086479993476,0.0 -45.848951,-21.8086789993476,0.0 -45.848977,-21.8086669993476,0.0 -45.849138,-21.8085069993476,0.0 -45.849324,-21.8083579993476,0.0 -45.849485,-21.8081979993476,0.0 -45.849634,-21.8080269993476,0.0 -45.849783,-21.8078319993476,0.0 -45.849895,-21.8076139993477,0.0 -45.850032,-21.8074199993477,0.0 -45.850119,-21.8071899993477,0.0 -45.850393,-21.8068009993477,0.0 -45.850591,-21.8065609993477,0.0 -45.850865,-21.8061949993477,0.0 -45.851038,-21.8059889993477,0.0 -45.8512,-21.8057939993477,0.0 -45.851361,-21.8055879993477,0.0 -45.851535,-21.8053369993477,0.0 -45.851672,-21.8051299993477,0.0 -45.851821,-21.8049589993477,0.0 -45.852007,-21.8047419993477,0.0 -45.852217,-21.8045699993477,0.0 -45.852477,-21.8043769993477,0.0 -45.852687,-21.8041819993477,0.0 -45.852849,-21.8039649993477,0.0 -45.852973,-21.8037699993478,0.0 -45.853086,-21.8035519993478,0.0 -45.853222,-21.8033579993478,0.0 -45.853371,-21.8031519993478,0.0 -45.85352,-21.8029339993478,0.0 -45.853694,-21.8026819993478,0.0 -45.853856,-21.8024189993478,0.0 -45.853981,-21.8021669993478,0.0 -45.854106,-21.8019379993478,0.0 -45.854267,-21.8017429993478,0.0 -45.854428,-21.8015829993478,0.0 -45.854589,-21.8013889993478,0.0 -45.854738,-21.8011939993478,0.0 -45.854887,-21.8009879993478,0.0 -45.855012,-21.8007699993478,0.0 -45.855173,-21.8005529993478,0.0 -45.855322,-21.8003699993478,0.0 -45.855484,-21.8001979993478,0.0 -45.855632,-21.8000149993478,0.0 -45.855806,-21.7998209993478,0.0 -45.855992,-21.7996379993478,0.0 -45.856202,-21.7995359993478,0.0 -45.856424,-21.7993989993479,0.0 -45.856659,-21.7993429993478,0.0 -45.856893,-21.7992759993478,0.0 -45.857176,-21.7992659993479,0.0 -45.85741,-21.7992789993479,0.0 -45.857693,-21.7992799993479,0.0 -45.857926,-21.7993159993479,0.0 -45.858184,-21.7994319993479,0.0 -45.85987,-21.7994419993478,0.0 -45.860129,-21.7994209993479,0.0 -45.860425,-21.7993989993479,0.0 -45.860683,-21.7993889993479,0.0 -45.860929,-21.7993909993479,0.0 -45.861164,-21.7993349993479,0.0 -45.861447,-21.7992899993479,0.0 -45.861681,-21.7992569993479,0.0 -45.861965,-21.7991899993479,0.0 -45.862199,-21.7990649993479,0.0 -45.862422,-21.7989509993479,0.0 -45.862644,-21.7988149993479,0.0 -45.862866,-21.7987009993479,0.0 -45.863077,-21.7985299993479,0.0 -45.863299,-21.7983359993479,0.0 -45.86351,-21.7981989993479,0.0 -45.863744,-21.7981309993479,0.0 -45.86399,-21.7981099993479,0.0 -45.864261,-21.7980539993479,0.0 -45.864471,-21.7979289993479,0.0 -45.864657,-21.7977919993479,0.0 -45.864867,-21.7976089993479,0.0 -45.86509,-21.7974949993479,0.0 -45.865324,-21.7974739993479,0.0 -45.86557,-21.7975209993479,0.0 -45.865816,-21.7975339993479,0.0 -45.866074,-21.7975579993479,0.0 -45.866345,-21.7975709993479,0.0 -45.866616,-21.7975159993479,0.0 -45.86685,-21.7974589993479,0.0 -45.867109,-21.7973689993479,0.0 -45.867319,-21.7972319993479,0.0 -45.867579,-21.7970609993479,0.0 -45.867765,-21.7969009993479,0.0 -45.867926,-21.7967069993479,0.0 -45.868136,-21.7965469993479,0.0 -45.868322,-21.7963299993479,0.0 -45.86852,-21.7961239993479,0.0 -45.868755,-21.7959649993479,0.0 -45.86899,-21.7958389993479,0.0 -45.869237,-21.7956909993479,0.0 -45.869447,-21.7955549993479,0.0 -45.869657,-21.795451999348,0.0 -45.869892,-21.7953619993479,0.0 -45.870126,-21.7953059993479,0.0 -45.870397,-21.7953299993479,0.0 -45.870629,-21.7954919993479,0.0 -45.870899,-21.7955859993479,0.0 -45.871157,-21.7956909993479,0.0 -45.871428,-21.7957499993479,0.0 -45.871711,-21.7957629993479,0.0 -45.871957,-21.7957639993479,0.0 -45.872228,-21.7957199993479,0.0 -45.872487,-21.7956869993479,0.0 -45.872721,-21.7955729993479,0.0 -45.872968,-21.795424999348,0.0 -45.873203,-21.7953229993479,0.0 -45.87329,-21.795104999348,0.0 -45.873353,-21.794875999348,0.0 -45.873404,-21.794657999348,0.0 -45.873467,-21.794416999348,0.0 -45.873592,-21.794198999348,0.0 -45.873716,-21.793946999348,0.0 -45.873841,-21.793717999348,0.0 -45.874002,-21.793499999348,0.0 -45.874176,-21.793305999348,0.0 -45.874386,-21.793134999348,0.0 -45.874609,-21.792974999348,0.0 -45.874856,-21.792883999348,0.0 -45.87509,-21.792850999348,0.0 -45.875337,-21.792748999348,0.0 -45.875559,-21.792646999348,0.0 -45.875879,-21.792590999348,0.0 -45.876138,-21.792580999348,0.0 -45.876679,-21.792583999348,0.0 -45.876913,-21.792562999348,0.0 -45.877172,-21.792529999348,0.0 -45.877394,-21.792449999348,0.0 -45.877641,-21.792313999348,0.0 -45.877863,-21.792188999348,0.0 -45.878073,-21.792085999348,0.0 -45.87832,-21.791937999348,0.0 -45.878506,-21.791801999348,0.0 -45.878729,-21.791618999348,0.0 -45.878902,-21.791458999348,0.0 -45.879051,-21.791252999348,0.0 -45.8792,-21.7910579993481,0.0 -45.879349,-21.7908409993481,0.0 -45.87951,-21.7906809993481,0.0 -45.879684,-21.7905089993481,0.0 -45.879931,-21.7903609993481,0.0 -45.880214,-21.7902589993481,0.0 -45.880461,-21.7901459993481,0.0 -45.880671,-21.7900209993481,0.0 -45.880906,-21.7898839993481,0.0 -45.881116,-21.7897699993481,0.0 -45.881314,-21.7896339993481,0.0 -45.881524,-21.7894969993481,0.0 -45.88171,-21.7893369993481,0.0 -45.881895,-21.7891539993481,0.0 -45.882032,-21.7889249993481,0.0 -45.88212,-21.7887179993481,0.0 -45.882244,-21.7884659993481,0.0 -45.882332,-21.7882139993481,0.0 -45.882383,-21.7879959993481,0.0 -45.882397,-21.7877769993481,0.0 -45.882411,-21.7875249993481,0.0 -45.882424,-21.7872829993481,0.0 -45.882426,-21.7870189993481,0.0 -45.882452,-21.7868009993482,0.0 -45.882491,-21.7865249993482,0.0 -45.882578,-21.7863189993482,0.0 -45.882789,-21.7861699993482,0.0 -45.883035,-21.7861489993482,0.0 -45.883233,-21.7860119993482,0.0 -45.883492,-21.7859449993482,0.0 -45.88375,-21.7858999993482,0.0 -45.883997,-21.7858439993482,0.0 -45.884231,-21.7857649993482,0.0 -45.884478,-21.7856629993482,0.0 -45.884663,-21.7855259993482,0.0 -45.884861,-21.7853889993482,0.0 -45.885059,-21.7852639993482,0.0 -45.885294,-21.7851499993482,0.0 -45.88554,-21.7850589993482,0.0 -45.885799,-21.7849459993482,0.0 -45.886046,-21.7848319993482,0.0 -45.886268,-21.7847419993482,0.0 -45.886515,-21.7846509993482,0.0 -45.886799,-21.7845609993482,0.0 -45.887083,-21.7844589993482,0.0 -45.887305,-21.7843799993482,0.0 -45.887551,-21.7843349993482,0.0 -45.887785,-21.7843479993482,0.0 -45.888081,-21.7842809993482,0.0 -45.888376,-21.7842479993482,0.0 -45.88866,-21.7842029993482,0.0 -45.888918,-21.7841239993482,0.0 -45.889165,-21.7840679993482,0.0 -45.889448,-21.7840469993482,0.0 -45.890051,-21.7840499993482,0.0 -45.890322,-21.7840059993482,0.0 -45.890557,-21.7839269993482,0.0 -45.890815,-21.7839169993482,0.0 -45.891074,-21.7839179993482,0.0 -45.891394,-21.7839079993482,0.0 -45.891677,-21.7838639993482,0.0 -45.891924,-21.7837849993482,0.0 -45.892195,-21.7837519993482,0.0 -45.89249,-21.7837419993482,0.0 -45.892798,-21.7837439993482,0.0 -45.893056,-21.7837339993482,0.0 -45.89334,-21.7836659993482,0.0 -45.89355,-21.7834949993482,0.0 -45.893711,-21.7833119993482,0.0 -45.893848,-21.7830829993482,0.0 -45.89396,-21.7828649993482,0.0 -45.894023,-21.7826129993483,0.0 -45.894086,-21.7823829993483,0.0 -45.894125,-21.7821539993483,0.0 -45.894175,-21.7819119993483,0.0 -45.894275,-21.7816949993483,0.0 -45.894485,-21.7815809993483,0.0 -45.894634,-21.7813979993483,0.0 -45.894844,-21.7812949993483,0.0 -45.89509,-21.7812739993483,0.0 -45.895299,-21.7813779993483,0.0 -45.895582,-21.7813689993483,0.0 -45.895816,-21.7813469993483,0.0 -45.8959345,-21.7813302993483,0.0 -45.89605,-21.7813139993483,0.0 -45.896297,-21.7812349993483,0.0 -45.896531,-21.7811549993483,0.0 -45.896815,-21.7810649993483,0.0 -45.897049,-21.7809969993483,0.0 -45.897247,-21.7808489993483,0.0 -45.897383,-21.7806659993483,0.0 -45.897422,-21.7804479993483,0.0 -45.897362,-21.7802059993483,0.0 -45.897326,-21.7799759993483,0.0 -45.897315,-21.7797569993483,0.0 -45.897324,-21.7784359993483,0.0 -45.897313,-21.7782169993484,0.0 -45.897277,-21.7779869993484,0.0 -45.897266,-21.7777459993484,0.0 -45.897244,-21.7774579993484,0.0 -45.897208,-21.7773079993484,0.0 -45.897148,-21.7770899993484,0.0 -45.897038,-21.7768819993484,0.0 -45.896941,-21.7766629993484,0.0 -45.896795,-21.7764789993484,0.0 -45.896673,-21.7762709993484,0.0 -45.89638,-21.7758559993484,0.0 -45.895978,-21.7752329993484,0.0 -45.895819,-21.7750479993484,0.0 -45.895673,-21.7748519993484,0.0 -45.895502,-21.7746899993484,0.0 -45.895343,-21.7744819993484,0.0 -45.895197,-21.7742739993485,0.0 -45.895099,-21.7740669993485,0.0 -45.894782,-21.7736739993485,0.0 -45.894598,-21.7735009993485,0.0 -45.894281,-21.7730619993485,0.0 -45.894135,-21.7728429993485,0.0 -45.893989,-21.7726119993485,0.0 -45.893818,-21.7724269993485,0.0 -45.89361,-21.7722649993485,0.0 -45.893377,-21.7721139993485,0.0 -45.893156,-21.7720209993485,0.0 -45.892898,-21.7719739993485,0.0 -45.892627,-21.7720179993485,0.0 -45.892406,-21.7719369993485,0.0 -45.892185,-21.7718429993485,0.0 -45.891952,-21.7717039993485,0.0 -45.891768,-21.7715539993485,0.0 -45.891597,-21.7713689993485,0.0 -45.891475,-21.7711729993485,0.0 -45.891403,-21.7709309993485,0.0 -45.891405,-21.7707009993485,0.0 -45.891418,-21.7704829993485,0.0 -45.891494,-21.7702529993485,0.0 -45.891544,-21.7700239993486,0.0 -45.89162,-21.7697709993486,0.0 -45.891695,-21.7695419993486,0.0 -45.89177,-21.7693009993486,0.0 -45.891895,-21.7690599993486,0.0 -45.892032,-21.7688309993486,0.0 -45.892144,-21.7686249993486,0.0 -45.892268,-21.7684179993486,0.0 -45.892405,-21.7682349993486,0.0 -45.892505,-21.7680289993486,0.0 -45.892827,-21.7676399993486,0.0 -45.892939,-21.7674339993486,0.0 -45.893063,-21.7672279993486,0.0 -45.893188,-21.7669979993486,0.0 -45.893325,-21.7667919993486,0.0 -45.893449,-21.7665629993486,0.0 -45.893537,-21.7662989993486,0.0 -45.893637,-21.7660699993486,0.0 -45.893737,-21.7658519993486,0.0 -45.893837,-21.7656229993487,0.0 -45.8939,-21.7653819993487,0.0 -45.893963,-21.7651519993487,0.0 -45.8941,-21.7649229993487,0.0 -45.894199,-21.7647169993487,0.0 -45.894336,-21.7645219993487,0.0 -45.894485,-21.7643389993487,0.0 -45.894597,-21.7641209993487,0.0 -45.894746,-21.7639149993487,0.0 -45.894919,-21.7637209993487,0.0 -45.895093,-21.7635149993487,0.0 -45.895303,-21.7634119993487,0.0 -45.895538,-21.7632869993487,0.0 -45.895713,-21.7628279993487,0.0 -45.8958,-21.7626099993487,0.0 -45.895851,-21.7623809993487,0.0 -45.895865,-21.7621169993487,0.0 -45.895867,-21.7618519993487,0.0 -45.895856,-21.7615989993488,0.0 -45.895821,-21.7613349993488,0.0 -45.895761,-21.7610809993488,0.0 -45.895676,-21.7608739993488,0.0 -45.895554,-21.7606659993488,0.0 -45.895334,-21.7605159993488,0.0 -45.895101,-21.7604109993488,0.0 -45.894917,-21.7602259993488,0.0 -45.894709,-21.7600639993488,0.0 -45.894476,-21.7599129993488,0.0 -45.89428,-21.7597739993488,0.0 -45.893864,-21.7594729993488,0.0 -45.893668,-21.7593459993488,0.0 -45.893497,-21.7591839993488,0.0 -45.89335,-21.7589869993488,0.0 -45.893216,-21.7587569993488,0.0 -45.893156,-21.7585269993488,0.0 -45.893059,-21.7582849993488,0.0 -45.892851,-21.7581229993488,0.0 -45.892569,-21.7580169993488,0.0 -45.892385,-21.7578669993488,0.0 -45.892165,-21.7577279993489,0.0 -45.891931,-21.7576229993488,0.0 -45.891698,-21.7575869993488,0.0 -45.891415,-21.7575049993488,0.0 -45.891121,-21.7574119993489,0.0 -45.890875,-21.7573299993489,0.0 -45.89063,-21.7572359993489,0.0 -45.890434,-21.7570509993489,0.0 -45.890201,-21.7569119993489,0.0 -45.889956,-21.7568189993489,0.0 -45.889391,-21.7566549993489,0.0 -45.889121,-21.7565609993489,0.0 -45.888925,-21.7563759993489,0.0 -45.888704,-21.7562949993489,0.0 -45.888483,-21.7562009993489,0.0 -45.888238,-21.7560849993489,0.0 -45.88798,-21.7560379993489,0.0 -45.887746,-21.7559899993489,0.0 -45.887525,-21.7558629993489,0.0 -45.887354,-21.7557009993489,0.0 -45.887208,-21.7555279993489,0.0 -45.887123,-21.7552969993489,0.0 -45.887075,-21.7550329993489,0.0 -45.88704,-21.7548019993489,0.0 -45.887017,-21.7545719993489,0.0 -45.886994,-21.7543079993489,0.0 -45.886996,-21.7540669993489,0.0 -45.88696,-21.7538359993489,0.0 -45.886876,-21.7535719993489,0.0 -45.88684,-21.7533529993489,0.0 -45.88678,-21.753133999349,0.0 -45.886696,-21.752868999349,0.0 -45.886623,-21.752650999349,0.0 -45.886551,-21.752408999349,0.0 -45.886442,-21.752177999349,0.0 -45.886357,-21.751947999349,0.0 -45.886235,-21.751739999349,0.0 -45.886077,-21.751531999349,0.0 -45.885906,-21.751324999349,0.0 -45.88576,-21.751116999349,0.0 -45.885589,-21.750931999349,0.0 -45.885393,-21.750712999349,0.0 -45.885222,-21.750538999349,0.0 -45.885026,-21.750353999349,0.0 -45.884943,-21.750183999349,0.0 -45.885062,-21.749508999349,0.0 -45.884939,-21.749313999349,0.0 -45.884779,-21.7491289993491,0.0 -45.884557,-21.7489799993491,0.0 -45.884298,-21.7489109993491,0.0 -45.884052,-21.7488989993491,0.0 -45.883793,-21.749002999349,0.0 -45.883546,-21.7490259993491,0.0 -45.8833,-21.7490719993491,0.0 -45.883066,-21.7491639993491,0.0 -45.882844,-21.7492439993491,0.0 -45.882635,-21.749358999349,0.0 -45.882413,-21.749439999349,0.0 -45.882179,-21.749508999349,0.0 -45.88139,-21.749508999349,0.0 -45.881144,-21.749519999349,0.0 -45.880909,-21.749577999349,0.0 -45.880712,-21.749703999349,0.0 -45.880527,-21.749853999349,0.0 -45.879699,-21.750334999349,0.0 -45.879452,-21.750379999349,0.0 -45.879181,-21.750481999349,0.0 -45.878947,-21.750514999349,0.0 -45.878688,-21.750547999349,0.0 -45.878442,-21.750557999349,0.0 -45.877901,-21.750554999349,0.0 -45.877642,-21.750564999349,0.0 -45.877347,-21.750608999349,0.0 -45.877063,-21.750664999349,0.0 -45.876804,-21.750755999349,0.0 -45.876546,-21.750811999349,0.0 -45.876299,-21.750855999349,0.0 -45.8761857,-21.750866599349,0.0 -45.876065,-21.750877999349,0.0 -45.87577,-21.750956999349,0.0 -45.875486,-21.751046999349,0.0 -45.875252,-21.751091999349,0.0 -45.875005,-21.751135999349,0.0 -45.874771,-21.751191999349,0.0 -45.874488,-21.751282999349,0.0 -45.874266,-21.751372999349,0.0 -45.873995,-21.751428999349,0.0 -45.873773,-21.751508999349,0.0 -45.873526,-21.751633999349,0.0 -45.873292,-21.751654999349,0.0 -45.873058,-21.751710999349,0.0 -45.872824,-21.751652999349,0.0 -45.872566,-21.751593999349,0.0 -45.872321,-21.751534999349,0.0 -45.872075,-21.751463999349,0.0 -45.871842,-21.751359999349,0.0 -45.871596,-21.751265999349,0.0 -45.871351,-21.751183999349,0.0 -45.871068,-21.751136999349,0.0 -45.87076,-21.751134999349,0.0 -45.870503,-21.751052999349,0.0 -45.870257,-21.750959999349,0.0 -45.869975,-21.750877999349,0.0 -45.869729,-21.750829999349,0.0 -45.869495,-21.750782999349,0.0 -45.869237,-21.750723999349,0.0 -45.868992,-21.750699999349,0.0 -45.868733,-21.750674999349,0.0 -45.868487,-21.750661999349,0.0 -45.866937,-21.750652999349,0.0 -45.866679,-21.750593999349,0.0 -45.866446,-21.750512999349,0.0 -45.866225,-21.750372999349,0.0 -45.865932,-21.749914999349,0.0 -45.865709,-21.749791999349,0.0 -45.865088,-21.749585999349,0.0 -45.864817,-21.749539999349,0.0 -45.864546,-21.749458999349,0.0 -45.864348,-21.749320999349,0.0 -45.864176,-21.7491019993491,0.0 -45.864077,-21.7488719993491,0.0 -45.864078,-21.7486189993491,0.0 -45.864189,-21.7483309993491,0.0 -45.864275,-21.7480889993491,0.0 -45.864386,-21.7478589993491,0.0 -45.864497,-21.7476169993491,0.0 -45.864706,-21.7473529993491,0.0 -45.865088,-21.7469959993491,0.0 -45.86552,-21.7465359993491,0.0 -45.865742,-21.7463279993491,0.0 -45.865927,-21.7461329993491,0.0 -45.866074,-21.7459599993491,0.0 -45.866222,-21.7457759993491,0.0 -45.866358,-21.7455799993491,0.0 -45.866481,-21.7453499993491,0.0 -45.86658,-21.7451199993491,0.0 -45.866605,-21.7448779993491,0.0 -45.86674,-21.7446129993492,0.0 -45.8669,-21.7443829993492,0.0 -45.867061,-21.7441879993492,0.0 -45.867196,-21.7439689993492,0.0 -45.867295,-21.7437619993492,0.0 -45.867406,-21.7435199993492,0.0 -45.867455,-21.7433009993492,0.0 -45.867529,-21.7430709993492,0.0 -45.867591,-21.7428409993492,0.0 -45.867616,-21.7426219993492,0.0 -45.867616,-21.7423799993492,0.0 -45.867529,-21.7421729993492,0.0 -45.867382,-21.7419429993492,0.0 -45.867246,-21.7417589993492,0.0 -45.867074,-21.7415509993492,0.0 -45.866889,-21.7413789993492,0.0 -45.866741,-21.7411709993492,0.0 -45.866606,-21.7409759993492,0.0 -45.866421,-21.7408259993492,0.0 -45.866076,-21.7405959993493,0.0 -45.86583,-21.7404459993493,0.0 -45.865669,-21.7402849993493,0.0 -45.865472,-21.7401579993493,0.0 -45.865226,-21.7400769993493,0.0 -45.864893,-21.7399739993493,0.0 -45.864635,-21.7399049993493,0.0 -45.864388,-21.7398469993493,0.0 -45.864142,-21.7398119993493,0.0 -45.863908,-21.7397779993493,0.0 -45.863674,-21.7397319993493,0.0 -45.863415,-21.7396739993493,0.0 -45.863156,-21.7396389993493,0.0 -45.862873,-21.7396159993493,0.0 -45.862577,-21.7395929993493,0.0 -45.862343,-21.7395589993493,0.0 -45.862109,-21.7395359993493,0.0 -45.861862,-21.7395009993493,0.0 -45.861628,-21.7394889993493,0.0 -45.861333,-21.7394889993493,0.0 -45.861037,-21.7394779993493,0.0 -45.86079,-21.7394659993493,0.0 -45.860507,-21.7394659993493,0.0 -45.860248,-21.7394539993493,0.0 -45.859953,-21.7394429993493,0.0 -45.859657,-21.7394079993493,0.0 -45.859398,-21.7393739993493,0.0 -45.859065,-21.7393509993493,0.0 -45.858745,-21.7393269993493,0.0 -45.858425,-21.7393159993493,0.0 -45.858092,-21.7392809993493,0.0 -45.857772,-21.7392699993493,0.0 -45.857464,-21.7392349993493,0.0 -45.857143,-21.7391999993493,0.0 -45.856835,-21.7391999993493,0.0 -45.856552,-21.7391769993493,0.0 -45.856232,-21.7391649993493,0.0 -45.855948,-21.7391309993493,0.0 -45.855677,-21.7390959993493,0.0 -45.855394,-21.7390499993493,0.0 -45.855098,-21.7390269993493,0.0 -45.854815,-21.7389809993493,0.0 -45.854581,-21.7389579993493,0.0 -45.854273,-21.7389119993493,0.0 -45.854026,-21.7388539993493,0.0 -45.853792,-21.7388189993493,0.0 -45.853509,-21.7387959993493,0.0 -45.853213,-21.7387499993493,0.0 -45.85293,-21.7387149993493,0.0 -45.852696,-21.7386809993493,0.0 -45.852388,-21.7386119993493,0.0 -45.852141,-21.7385429993493,0.0 -45.85187,-21.7385189993493,0.0 -45.851599,-21.7385189993493,0.0 -45.851303,-21.7384959993493,0.0 -45.851057,-21.7384619993493,0.0 -45.850823,-21.7384149993493,0.0 -45.850256,-21.7382769993493,0.0 -45.84996,-21.7382309993493,0.0 -45.849739,-21.7381389993493,0.0 -45.849468,-21.7380809993493,0.0 -45.849209,-21.7380009993493,0.0 -45.848741,-21.7379309993493,0.0 -45.848457,-21.7378969993493,0.0 -45.848223,-21.7378039993493,0.0 -45.847965,-21.7377349993493,0.0 -45.847743,-21.7376319993493,0.0 -45.847509,-21.7374929993493,0.0 -45.847262,-21.7373549993493,0.0 -45.847078,-21.7371939993493,0.0 -45.846917,-21.7370329993493,0.0 -45.846794,-21.7368019993493,0.0 -45.846671,-21.7365489993494,0.0 -45.846573,-21.7363299993494,0.0 -45.846536,-21.7361119993494,0.0 -45.846487,-21.7358699993494,0.0 -45.846438,-21.7356399993494,0.0 -45.846388,-21.7353979993494,0.0 -45.846327,-21.7351329993494,0.0 -45.846265,-21.7349139993494,0.0 -45.846179,-21.7346729993494,0.0 -45.846118,-21.7344309993494,0.0 -45.846056,-21.7342009993494,0.0 -45.845995,-21.7339819993494,0.0 -45.845896,-21.7337749993494,0.0 -45.845773,-21.7335439993494,0.0 -45.845687,-21.7333249993494,0.0 -45.845515,-21.7331069993494,0.0 -45.84533,-21.7329109993494,0.0 -45.845145,-21.7327729993494,0.0 -45.844985,-21.7325999993494,0.0 -45.844776,-21.7324389993494,0.0 -45.844529,-21.7323119993494,0.0 -45.844308,-21.7321509993495,0.0 -45.844123,-21.7320009993495,0.0 -45.843913,-21.7318739993495,0.0 -45.843692,-21.7317359993495,0.0 -45.843495,-21.7315979993495,0.0 -45.843261,-21.7314599993495,0.0 -45.843014,-21.7313789993495,0.0 -45.842546,-21.7311719993495,0.0 -45.842287,-21.7310329993495,0.0 -45.842053,-21.7309069993495,0.0 -45.841807,-21.7307109993495,0.0 -45.841573,-21.7305729993495,0.0 -45.841314,-21.7304919993495,0.0 -45.84108,-21.7303999993495,0.0 -45.840859,-21.7302959993495,0.0 -45.840588,-21.7301919993495,0.0 -45.840353,-21.7300889993495,0.0 -45.840144,-21.7299849993495,0.0 -45.83991,-21.7298929993495,0.0 -45.839639,-21.7297779993495,0.0 -45.839417,-21.7296849993495,0.0 -45.839159,-21.7296049993495,0.0 -45.838912,-21.7295929993495,0.0 -45.83858,-21.7295929993495,0.0 -45.838345,-21.7295809993495,0.0 -45.837853,-21.7295809993495,0.0 -45.837557,-21.7296729993495,0.0 -45.837347,-21.7298109993495,0.0 -45.837101,-21.7299029993495,0.0 -45.836879,-21.7299949993495,0.0 -45.836645,-21.7300639993495,0.0 -45.836399,-21.7301219993495,0.0 -45.836164,-21.7301899993495,0.0 -45.83593,-21.7302129993495,0.0 -45.835684,-21.7302359993495,0.0 -45.835497,-21.7302949993495,0.0 -45.835166,-21.7304199993495,0.0 -45.834895,-21.7304889993495,0.0 -45.834599,-21.7305469993495,0.0 -45.8344684,-21.7305711993495,0.0 -45.834291,-21.7306039993495,0.0 -45.833996,-21.7306499993495,0.0 -45.833749,-21.7306839993495,0.0 -45.833478,-21.7306959993495,0.0 -45.833232,-21.7307189993495,0.0 -45.832973,-21.7307759993495,0.0 -45.832714,-21.7308219993495,0.0 -45.832456,-21.7308569993495,0.0 -45.8322521,-21.7308770993495,0.0 -45.832111,-21.7308909993495,0.0 -45.831889,-21.7309829993495,0.0 -45.831593,-21.7310399993495,0.0 -45.831359,-21.7310519993495,0.0 -45.831063,-21.7310629993495,0.0 -45.830459,-21.7310629993495,0.0 -45.830213,-21.7310399993495,0.0 -45.829942,-21.7309819993495,0.0 -45.82972,-21.7308779993495,0.0 -45.829474,-21.7307519993495,0.0 -45.82924,-21.7307169993495,0.0 -45.828993,-21.7306709993495,0.0 -45.828735,-21.7306249993495,0.0 -45.828488,-21.7306009993495,0.0 -45.828242,-21.7305549993495,0.0 -45.827996,-21.7304859993495,0.0 -45.827762,-21.7303709993495,0.0 -45.827503,-21.7302329993495,0.0 -45.827244,-21.7301289993495,0.0 -45.827035,-21.7300019993495,0.0 -45.826825,-21.7298639993495,0.0 -45.826604,-21.7297259993495,0.0 -45.826357,-21.7295759993495,0.0 -45.826111,-21.7294609993495,0.0 -45.825877,-21.7293339993495,0.0 -45.825631,-21.7292649993495,0.0 -45.825384,-21.7291839993495,0.0 -45.82515,-21.7291259993495,0.0 -45.824879,-21.7290569993495,0.0 -45.824645,-21.7290219993495,0.0 -45.824411,-21.7288379993495,0.0 -45.824202,-21.7287339993495,0.0 -45.823943,-21.7286769993495,0.0 -45.823697,-21.7285609993495,0.0 -45.82345,-21.7284349993495,0.0 -45.823241,-21.7283079993496,0.0 -45.823019,-21.7281809993496,0.0 -45.822835,-21.7280429993496,0.0 -45.822638,-21.7278929993496,0.0 -45.822404,-21.7277779993496,0.0 -45.822108,-21.7277089993496,0.0 -45.821923,-21.7275129993496,0.0 -45.821763,-21.7273059993496,0.0 -45.821603,-21.7271099993496,0.0 -45.821468,-21.7269029993496,0.0 -45.82132,-21.7266949993496,0.0 -45.821172,-21.7265109993496,0.0 -45.821037,-21.7262919993496,0.0 -45.820877,-21.7260619993496,0.0 -45.820729,-21.7258779993496,0.0 -45.820569,-21.7256469993496,0.0 -45.820421,-21.7254629993496,0.0 -45.820249,-21.7252439993496,0.0 -45.820064,-21.7250369993496,0.0 -45.819904,-21.7248639993496,0.0 -45.819732,-21.7246679993496,0.0 -45.81951,-21.7244729993496,0.0 -45.819264,-21.7242769993496,0.0 -45.819067,-21.7240929993496,0.0 -45.81887,-21.7239199993497,0.0 -45.818451,-21.7236659993497,0.0 -45.81823,-21.7235509993497,0.0 -45.817996,-21.7234239993497,0.0 -45.817577,-21.7232169993497,0.0 -45.817343,-21.7230899993497,0.0 -45.817121,-21.7229059993497,0.0 -45.816899,-21.7227439993497,0.0 -45.816665,-21.7226869993497,0.0 -45.816431,-21.7226409993497,0.0 -45.816173,-21.7225829993497,0.0 -45.815889,-21.7225369993497,0.0 -45.81552,-21.7225249993497,0.0 -45.815261,-21.7225249993497,0.0 -45.815027,-21.7225709993497,0.0 -45.814817,-21.7226859993497,0.0 -45.814571,-21.7227089993497,0.0 -45.814337,-21.7227199993497,0.0 -45.814066,-21.7227309993497,0.0 -45.813807,-21.7227659993497,0.0 -45.813573,-21.7227889993497,0.0 -45.813265,-21.7228349993497,0.0 -45.813031,-21.7228689993497,0.0 -45.81276,-21.7229149993497,0.0 -45.812464,-21.7229719993497,0.0 -45.812181,-21.7229719993497,0.0 -45.811885,-21.7229949993497,0.0 -45.811035,-21.7230979993497,0.0 -45.810739,-21.7231549993497,0.0 -45.810406,-21.7232129993497,0.0 -45.810172,-21.7232239993497,0.0 -45.809827,-21.7232469993497,0.0 -45.809187,-21.7232469993497,0.0 -45.808854,-21.7232579993497,0.0 -45.807979,-21.7232569993497,0.0 -45.807684,-21.7232229993497,0.0 -45.8074,-21.7231419993497,0.0 -45.806784,-21.7231419993497,0.0 -45.806316,-21.7232099993497,0.0 -45.80602,-21.7232789993497,0.0 -45.805429,-21.7233939993497,0.0 -45.805195,-21.7234969993497,0.0 -45.804961,-21.7236929993497,0.0 -45.804788,-21.7238539993496,0.0 -45.804492,-21.7240029993496,0.0 -45.804209,-21.7240949993496,0.0 -45.803975,-21.7242099993496,0.0 -45.80379,-21.7243599993496,0.0 -45.803617,-21.7245209993496,0.0 -45.803383,-21.7247169993496,0.0 -45.803186,-21.7248889993496,0.0 -45.802988,-21.7250159993496,0.0 -45.802754,-21.7251999993496,0.0 -45.802545,-21.7253839993496,0.0 -45.802372,-21.7255559993496,0.0 -45.802175,-21.7257519993496,0.0 -45.80199,-21.7259129993496,0.0 -45.801817,-21.7260849993496,0.0 -45.801632,-21.7263039993496,0.0 -45.801533,-21.7265229993496,0.0 -45.801385,-21.7267409993496,0.0 -45.801213,-21.7269369993496,0.0 -45.80104,-21.7270859993496,0.0 -45.800868,-21.7272819993496,0.0 -45.800707,-21.7274659993496,0.0 -45.800535,-21.7276499993496,0.0 -45.800374,-21.7278459993496,0.0 -45.800189,-21.7280409993496,0.0 -45.799906,-21.7281449993495,0.0 -45.799696,-21.7283399993495,0.0 -45.799302,-21.7286619993495,0.0 -45.79908,-21.7287659993495,0.0 -45.79887,-21.7288809993495,0.0 -45.798661,-21.7289839993495,0.0 -45.798439,-21.7291109993495,0.0 -45.798193,-21.7292489993495,0.0 -45.797971,-21.7293749993495,0.0 -45.797761,-21.7295019993495,0.0 -45.797478,-21.7295939993495,0.0 -45.797231,-21.7296859993495,0.0 -45.796972,-21.7298009993495,0.0 -45.796751,-21.7298809993495,0.0 -45.796529,-21.7299839993495,0.0 -45.796295,-21.7301219993495,0.0 -45.79611,-21.7302719993495,0.0 -45.795962,-21.7304559993495,0.0 -45.795912,-21.7306859993495,0.0 -45.795912,-21.7309399993495,0.0 -45.795899,-21.7311579993495,0.0 -45.795899,-21.7313889993495,0.0 -45.795874,-21.7316299993495,0.0 -45.795837,-21.7318489993495,0.0 -45.795788,-21.7320789993495,0.0 -45.795726,-21.7322979993495,0.0 -45.795652,-21.7325169993494,0.0 -45.79559,-21.7327349993494,0.0 -45.795602,-21.7329649993494,0.0 -45.795664,-21.7332069993494,0.0 -45.795688,-21.7334259993494,0.0 -45.7957,-21.7336449993494,0.0 -45.7957,-21.7338749993494,0.0 -45.795725,-21.7340939993494,0.0 -45.795811,-21.7343119993494,0.0 -45.795921,-21.7345309993494,0.0 -45.796069,-21.7347499993494,0.0 -45.796205,-21.7349339993494,0.0 -45.796352,-21.7351419993494,0.0 -45.796451,-21.7353489993494,0.0 -45.796512,-21.7355789993494,0.0 -45.796549,-21.7358209993494,0.0 -45.796635,-21.7360509993494,0.0 -45.796857,-21.7361549993494,0.0 -45.797078,-21.7362359993494,0.0 -45.797325,-21.7362929993494,0.0 -45.797583,-21.7363169993494,0.0 -45.79783,-21.7363509993494,0.0 -45.798064,-21.7364439993494,0.0 -45.798298,-21.7365699993493,0.0 -45.79847,-21.7367319993493,0.0 -45.798581,-21.7369389993493,0.0 -45.798593,-21.7371689993493,0.0 -45.798507,-21.7373759993493,0.0 -45.798396,-21.7375839993493,0.0 -45.798408,-21.7378019993493,0.0 -45.798642,-21.7378829993493,0.0 -45.798901,-21.7379979993493,0.0 -45.799135,-21.7380679993493,0.0 -45.799393,-21.7381369993493,0.0 -45.799615,-21.7382399993493,0.0 -45.799603,-21.7384939993493,0.0 -45.799565,-21.7387239993493,0.0 -45.799491,-21.7389429993493,0.0 -45.799405,-21.7391499993493,0.0 -45.799245,-21.7393569993493,0.0 -45.799084,-21.7395409993493,0.0 -45.798912,-21.7397019993493,0.0 -45.798714,-21.7398629993493,0.0 -45.798529,-21.7400009993493,0.0 -45.798418,-21.7401969993493,0.0 -45.798394,-21.7404379993493,0.0 -45.798529,-21.7406339993492,0.0 -45.798751,-21.7407379993493,0.0 -45.798997,-21.7407959993492,0.0 -45.799219,-21.7408989993492,0.0 -45.799231,-21.7411179993492,0.0 -45.799145,-21.7413249993492,0.0 -45.798984,-21.7414859993492,0.0 -45.79891,-21.7417049993492,0.0 -45.798885,-21.7419349993492,0.0 -45.79891,-21.7421889993492,0.0 -45.798922,-21.7424189993492,0.0 -45.798934,-21.7426379993492,0.0 -45.798934,-21.7428679993492,0.0 -45.798995,-21.7431099993492,0.0 -45.799094,-21.7433399993492,0.0 -45.799266,-21.7435129993492,0.0 -45.7995,-21.7435239993492,0.0 -45.799771,-21.7434319993492,0.0 -45.800018,-21.7433979993492,0.0 -45.800277,-21.7434099993492,0.0 -45.800498,-21.7434899993492,0.0 -45.800745,-21.7435709993492,0.0 -45.800979,-21.7436289993492,0.0 -45.80125,-21.7436289993492,0.0 -45.801546,-21.7435599993492,0.0 -45.801829,-21.7434679993492,0.0 -45.802063,-21.7434449993492,0.0 -45.80231,-21.7434459993492,0.0 -45.802544,-21.7434919993492,0.0 -45.802778,-21.7435149993492,0.0 -45.803037,-21.7435269993492,0.0 -45.80332,-21.7435269993492,0.0 -45.803554,-21.7434919993492,0.0 -45.803825,-21.7434469993492,0.0 -45.804059,-21.7433659993492,0.0 -45.804294,-21.7432279993492,0.0 -45.804516,-21.7430899993492,0.0 -45.804799,-21.7429869993492,0.0 -45.805095,-21.7429059993492,0.0 -45.805378,-21.7429059993492,0.0 -45.805649,-21.7429179993492,0.0 -45.805883,-21.7429759993492,0.0 -45.80608,-21.7431139993492,0.0 -45.806499,-21.7434599993492,0.0 -45.806684,-21.7436319993492,0.0 -45.806832,-21.7438169993492,0.0 -45.806992,-21.7440009993492,0.0 -45.807139,-21.7442199993492,0.0 -45.807299,-21.7444269993492,0.0 -45.807533,-21.7445419993492,0.0 -45.807817,-21.7446809993492,0.0 -45.808026,-21.7448299993492,0.0 -45.808248,-21.7449229993491,0.0 -45.808494,-21.7449459993491,0.0 -45.808741,-21.7449459993491,0.0 -45.808987,-21.7449349993491,0.0 -45.809234,-21.7448889993492,0.0 -45.809455,-21.7448079993491,0.0 -45.809714,-21.7447969993492,0.0 -45.809948,-21.7448659993492,0.0 -45.810096,-21.7450389993491,0.0 -45.810281,-21.7452119993491,0.0 -45.810244,-21.7454299993491,0.0 -45.810034,-21.7455449993491,0.0 -45.809788,-21.7456259993491,0.0 -45.80959,-21.7457639993491,0.0 -45.809442,-21.7459479993491,0.0 -45.809652,-21.7460979993491,0.0 -45.81012,-21.7461899993491,0.0 -45.810206,-21.7464089993491,0.0 -45.81028,-21.7466389993491,0.0 -45.81012,-21.7468229993491,0.0 -45.809885,-21.7469149993491,0.0 -45.809713,-21.7470649993491,0.0 -45.809676,-21.7472829993491,0.0 -45.810021,-21.7473179993491,0.0 -45.810267,-21.7472259993491,0.0 -45.810489,-21.7471459993491,0.0 -45.810735,-21.7471229993491,0.0 -45.810785,-21.7473419993491,0.0 -45.810711,-21.7475719993491,0.0 -45.810563,-21.7477439993491,0.0 -45.810316,-21.7478479993491,0.0 -45.810082,-21.7479169993491,0.0 -45.809835,-21.7479739993491,0.0 -45.809577,-21.7480199993491,0.0 -45.809342,-21.7481009993491,0.0 -45.809157,-21.7482619993491,0.0 -45.808948,-21.7483649993491,0.0 -45.808701,-21.7484229993491,0.0 -45.808443,-21.7484339993491,0.0 -45.808208,-21.7484679993491,0.0 -45.807962,-21.7485489993491,0.0 -45.807802,-21.7487209993491,0.0 -45.807752,-21.748951999349,0.0 -45.807863,-21.749169999349,0.0 -45.808072,-21.749308999349,0.0 -45.808319,-21.749388999349,0.0 -45.80854,-21.749469999349,0.0 -45.808738,-21.749607999349,0.0 -45.80891,-21.749769999349,0.0 -45.808552,-21.750226999349,0.0 -45.807731,-21.750289999349,0.0 -45.807472,-21.750322999349,0.0 -45.807226,-21.750321999349,0.0 -45.807004,-21.750400999349,0.0 -45.806855,-21.750571999349,0.0 -45.806829,-21.750801999349,0.0 -45.80679,-21.751019999349,0.0 -45.806617,-21.751168999349,0.0 -45.806383,-21.751201999349,0.0 -45.806125,-21.751176999349,0.0 -45.805891,-21.751117999349,0.0 -45.805671,-21.750978999349,0.0 -45.80523,-21.750745999349,0.0 -45.805034,-21.750618999349,0.0 -45.804813,-21.750536999349,0.0 -45.804579,-21.750489999349,0.0 -45.804345,-21.750499999349,0.0 -45.804111,-21.750589999349,0.0 -45.803999,-21.750795999349,0.0 -45.803985,-21.751025999349,0.0 -45.803983,-21.751267999349,0.0 -45.804019,-21.751485999349,0.0 -45.803992,-21.751703999349,0.0 -45.803819,-21.751909999349,0.0 -45.80367,-21.752092999349,0.0 -45.803521,-21.752310999349,0.0 -45.803433,-21.752528999349,0.0 -45.803419,-21.752792999349,0.0 -45.8034,-21.7554019993489,0.0 -45.803423,-21.7556319993489,0.0 -45.803446,-21.7558509993489,0.0 -45.803445,-21.7561149993489,0.0 -45.803455,-21.7563449993489,0.0 -45.803503,-21.7565869993489,0.0 -45.803526,-21.7568279993489,0.0 -45.803524,-21.7570699993489,0.0 -45.803449,-21.7572879993489,0.0 -45.803312,-21.7574709993489,0.0 -45.803126,-21.7576189993488,0.0 -45.803039,-21.7578249993488,0.0 -45.802975,-21.7580779993488,0.0 -45.802925,-21.7583189993488,0.0 -45.802788,-21.7585019993488,0.0 -45.802566,-21.7585809993488,0.0 -45.802331,-21.7586949993488,0.0 -45.802097,-21.7587849993488,0.0 -45.801923,-21.7589569993488,0.0 -45.801689,-21.7590469993488,0.0 -45.801455,-21.7591029993488,0.0 -45.80133,-21.7593439993488,0.0 -45.801439,-21.7595509993488,0.0 -45.801673,-21.7595989993488,0.0 -45.801931,-21.7596459993488,0.0 -45.802164,-21.7597049993488,0.0 -45.802434,-21.7597639993488,0.0 -45.802668,-21.7598349993488,0.0 -45.802876,-21.7599619993488,0.0 -45.803122,-21.7599749993488,0.0 -45.803368,-21.7600459993488,0.0 -45.803551,-21.7601849993488,0.0 -45.803673,-21.7603929993488,0.0 -45.803832,-21.7605549993488,0.0 -45.804027,-21.7607169993488,0.0 -45.804199,-21.7608669993488,0.0 -45.80437,-21.7610289993488,0.0 -45.804467,-21.7612479993488,0.0 -45.804514,-21.7614779993487,0.0 -45.804513,-21.7617309993488,0.0 -45.804462,-21.7619609993487,0.0 -45.80424,-21.7620509993487,0.0 -45.804017,-21.7621759993487,0.0 -45.80377,-21.7622669993487,0.0 -45.803536,-21.7623109993487,0.0 -45.803277,-21.7623789993487,0.0 -45.803043,-21.7624809993487,0.0 -45.802943,-21.7626869993487,0.0 -45.80288,-21.7629049993487,0.0 -45.802805,-21.7631349993487,0.0 -45.802705,-21.7633519993487,0.0 -45.802543,-21.7635239993487,0.0 -45.802419,-21.7637299993487,0.0 -45.802258,-21.7639239993487,0.0 -45.802121,-21.7641189993487,0.0 -45.801984,-21.7643249993487,0.0 -45.801921,-21.7645659993487,0.0 -45.801882,-21.7647959993487,0.0 -45.801856,-21.7650139993487,0.0 -45.801804,-21.7654729993487,0.0 -45.801789,-21.7657379993486,0.0 -45.801775,-21.7659789993487,0.0 -45.801749,-21.7662089993486,0.0 -45.801723,-21.7664499993486,0.0 -45.801647,-21.7667019993486,0.0 -45.801474,-21.7668849993486,0.0 -45.801313,-21.7670569993486,0.0 -45.801127,-21.7671939993486,0.0 -45.800856,-21.7672029993486,0.0 -45.800364,-21.7672229993486,0.0 -45.799589,-21.7672189993486,0.0 -45.799281,-21.7672049993486,0.0 -45.799034,-21.7672609993486,0.0 -45.798776,-21.7672709993486,0.0 -45.798542,-21.7673039993486,0.0 -45.79832,-21.7673829993486,0.0 -45.798086,-21.7674389993486,0.0 -45.797814,-21.7675059993486,0.0 -45.797555,-21.7675969993486,0.0 -45.797333,-21.7676869993486,0.0 -45.797086,-21.7677779993486,0.0 -45.796778,-21.7678449993486,0.0 -45.796483,-21.7678319993486,0.0 -45.796224,-21.7678649993486,0.0 -45.795941,-21.7679199993486,0.0 -45.795695,-21.7679529993486,0.0 -45.795461,-21.7679979993486,0.0 -45.795177,-21.7680649993486,0.0 -45.794918,-21.7681439993486,0.0 -45.794635,-21.7681999993486,0.0 -45.794363,-21.7683239993486,0.0 -45.794141,-21.7684149993486,0.0 -45.793906,-21.7685049993486,0.0 -45.793659,-21.7686189993486,0.0 -45.793425,-21.7687319993486,0.0 -45.793215,-21.7688339993486,0.0 -45.792968,-21.7689709993486,0.0 -45.792708,-21.7691069993486,0.0 -45.792288,-21.7693569993486,0.0 -45.792053,-21.7695509993486,0.0 -45.79183,-21.7696989993486,0.0 -45.791669,-21.7698709993486,0.0 -45.791471,-21.7700769993486,0.0 -45.791273,-21.7702249993486,0.0 -45.791038,-21.7703499993485,0.0 -45.790791,-21.7704749993485,0.0 -45.79052,-21.7706109993485,0.0 -45.790297,-21.7707479993485,0.0 -45.790087,-21.7708609993485,0.0 -45.78984,-21.7709519993485,0.0 -45.789618,-21.7710419993485,0.0 -45.789359,-21.7711099993485,0.0 -45.789064,-21.7711189993485,0.0 -45.788805,-21.7712099993485,0.0 -45.788595,-21.7713119993485,0.0 -45.78836,-21.7714249993485,0.0 -45.788101,-21.7715499993485,0.0 -45.787842,-21.7716519993485,0.0 -45.787619,-21.7717419993485,0.0 -45.787336,-21.7718099993485,0.0 -45.787101,-21.7719229993485,0.0 -45.786879,-21.7720249993485,0.0 -45.786669,-21.7721499993485,0.0 -45.786447,-21.7722409993485,0.0 -45.786175,-21.7723659993485,0.0 -45.785916,-21.7724789993485,0.0 -45.785681,-21.7725919993485,0.0 -45.785459,-21.7726829993485,0.0 -45.78499,-21.7729329993485,0.0 -45.784755,-21.7730689993485,0.0 -45.784545,-21.7731949993485,0.0 -45.784322,-21.7733539993485,0.0 -45.78416,-21.7735829993485,0.0 -45.783925,-21.7737649993485,0.0 -45.783703,-21.7738679993485,0.0 -45.783468,-21.7739809993485,0.0 -45.783222,-21.7740829993485,0.0 -45.782963,-21.7741269993485,0.0 -45.782729,-21.7741949993484,0.0 -45.782433,-21.7742849993485,0.0 -45.782198,-21.7743179993484,0.0 -45.781952,-21.7743279993485,0.0 -45.781337,-21.7743239993485,0.0 -45.781091,-21.7742989993484,0.0 -45.780833,-21.7742859993485,0.0 -45.780587,-21.7742619993485,0.0 -45.780205,-21.7742479993485,0.0 -45.779873,-21.7742229993484,0.0 -45.779554,-21.7741169993485,0.0 -45.779296,-21.7740469993485,0.0 -45.779001,-21.7739989993485,0.0 -45.778731,-21.7739509993485,0.0 -45.778472,-21.7739269993485,0.0 -45.778226,-21.7739139993485,0.0 -45.77798,-21.7738889993485,0.0 -45.777611,-21.7738749993485,0.0 -45.777365,-21.7738509993485,0.0 -45.777021,-21.7738369993485,0.0 -45.776762,-21.7738239993485,0.0 -45.776517,-21.7737989993485,0.0 -45.776184,-21.7737739993485,0.0 -45.775852,-21.7737379993485,0.0 -45.775582,-21.7737019993485,0.0 -45.775324,-21.7736539993485,0.0 -45.775053,-21.7736409993485,0.0 -45.774795,-21.7736279993485,0.0 -45.774548,-21.7737179993485,0.0 -45.77424,-21.7738079993485,0.0 -45.773944,-21.7738749993485,0.0 -45.773697,-21.7739199993485,0.0 -45.773414,-21.7739639993485,0.0 -45.773118,-21.7740419993485,0.0 -45.772859,-21.7741559993485,0.0 -45.772365,-21.7743829993484,0.0 -45.772082,-21.7744149993484,0.0 -45.771859,-21.7745289993484,0.0 -45.771686,-21.7746769993484,0.0 -45.7715,-21.7748369993484,0.0 -45.771253,-21.7749729993484,0.0 -45.771031,-21.7751209993484,0.0 -45.77082,-21.7752689993484,0.0 -45.770635,-21.7754059993484,0.0 -45.7704,-21.7755539993484,0.0 -45.770165,-21.7756909993484,0.0 -45.769955,-21.7758389993484,0.0 -45.769781,-21.7759869993484,0.0 -45.769509,-21.7761459993484,0.0 -45.769299,-21.7762829993484,0.0 -45.769015,-21.7763729993484,0.0 -45.768768,-21.7764859993484,0.0 -45.768546,-21.7765649993484,0.0 -45.768299,-21.7766669993484,0.0 -45.768041,-21.7767119993484,0.0 -45.767499,-21.7767769993484,0.0 -45.767228,-21.7767979993484,0.0 -45.766994,-21.7767509993484,0.0 -45.766748,-21.7767609993484,0.0 -45.766477,-21.7768509993484,0.0 -45.766242,-21.7769419993484,0.0 -45.766032,-21.7770549993484,0.0 -45.765822,-21.7772149993484,0.0 -45.765648,-21.7773749993484,0.0 -45.765499,-21.7775919993484,0.0 -45.765362,-21.7778209993484,0.0 -45.765262,-21.7780389993484,0.0 -45.7652321,-21.7781168993484,0.0 -45.765174,-21.7782679993484,0.0 -45.765072,-21.7787729993483,0.0 -45.765046,-21.7790259993483,0.0 -45.765019,-21.7792439993483,0.0 -45.765005,-21.7794739993483,0.0 -45.764978,-21.7799109993483,0.0 -45.764966,-21.7814399993483,0.0 -45.764977,-21.7816689993483,0.0 -45.764973,-21.7821869993483,0.0 -45.764984,-21.7824279993483,0.0 -45.764995,-21.7826469993482,0.0 -45.764993,-21.7829229993482,0.0 -45.765003,-21.7831409993482,0.0 -45.765038,-21.7833939993482,0.0 -45.765098,-21.7836129993482,0.0 -45.765109,-21.7838429993482,0.0 -45.765082,-21.7840959993482,0.0 -45.765007,-21.7843369993482,0.0 -45.764882,-21.7845659993482,0.0 -45.764708,-21.7847479993482,0.0 -45.764486,-21.7848729993482,0.0 -45.7643,-21.7850219993482,0.0 -45.764066,-21.7851009993482,0.0 -45.763844,-21.7852029993482,0.0 -45.763597,-21.7853049993482,0.0 -45.763387,-21.7854069993482,0.0 -45.763128,-21.7854969993482,0.0 -45.76293,-21.7856219993482,0.0 -45.762509,-21.7858719993482,0.0 -45.762299,-21.7859749993482,0.0 -45.761903,-21.7862709993482,0.0 -45.761656,-21.7863959993482,0.0 -45.761458,-21.7865669993482,0.0 -45.761334,-21.7867619993482,0.0 -45.761234,-21.7869789993482,0.0 -45.761171,-21.7871969993481,0.0 -45.761132,-21.7874609993481,0.0 -45.76113,-21.7877029993481,0.0 -45.761165,-21.7879439993481,0.0 -45.761213,-21.7881749993481,0.0 -45.761235,-21.7884389993481,0.0 -45.761246,-21.7886919993481,0.0 -45.761256,-21.7889679993481,0.0 -45.761279,-21.7892329993481,0.0 -45.761314,-21.7894629993481,0.0 -45.761361,-21.7897269993481,0.0 -45.761408,-21.7900039993481,0.0 -45.761468,-21.7902219993481,0.0 -45.761467,-21.7904639993481,0.0 -45.761527,-21.7906829993481,0.0 -45.761648,-21.7908899993481,0.0 -45.76177,-21.7911089993481,0.0 -45.761879,-21.791316999348,0.0 -45.762025,-21.791489999348,0.0 -45.762246,-21.791640999348,0.0 -45.762503,-21.791757999348,0.0 -45.762761,-21.791850999348,0.0 -45.763032,-21.791910999348,0.0 -45.764102,-21.791916999348,0.0 -45.764349,-21.791907999348,0.0 -45.764596,-21.791759999348,0.0 -45.76488,-21.791611999348,0.0 -45.765102,-21.791521999348,0.0 -45.765361,-21.791430999348,0.0 -45.765657,-21.791329999348,0.0 -45.765929,-21.791192999348,0.0 -45.766188,-21.7910919993481,0.0 -45.766435,-21.7910009993481,0.0 -45.76667,-21.7908989993481,0.0 -45.766917,-21.7907969993481,0.0 -45.767237,-21.7907989993481,0.0 -45.76752,-21.7907899993481,0.0 -45.767791,-21.7907449993481,0.0 -45.768087,-21.7906549993481,0.0 -45.768383,-21.7905879993481,0.0 -45.768617,-21.7905669993481,0.0 -45.769158,-21.7905699993481,0.0 -45.769404,-21.7905949993481,0.0 -45.769625,-21.7906879993481,0.0 -45.769833,-21.7908269993481,0.0 -45.770029,-21.7910129993481,0.0 -45.770213,-21.791162999348,0.0 -45.770383,-21.791359999348,0.0 -45.77053,-21.791532999348,0.0 -45.770897,-21.791856999348,0.0 -45.771093,-21.792007999348,0.0 -45.771288,-21.792180999348,0.0 -45.771496,-21.792331999348,0.0 -45.771705,-21.792447999348,0.0 -45.771864,-21.792621999348,0.0 -45.772134,-21.792657999348,0.0 -45.772417,-21.792728999348,0.0 -45.772638,-21.792810999348,0.0 -45.77292,-21.792857999348,0.0 -45.773178,-21.792940999348,0.0 -45.773424,-21.792999999348,0.0 -45.77367,-21.793092999348,0.0 -45.773927,-21.793220999348,0.0 -45.774148,-21.793360999348,0.0 -45.774306,-21.793533999348,0.0 -45.774477,-21.793718999348,0.0 -45.774673,-21.793880999348,0.0 -45.774857,-21.794019999348,0.0 -45.775065,-21.794193999348,0.0 -45.775285,-21.794321999348,0.0 -45.775531,-21.794426999348,0.0 -45.775764,-21.794485999348,0.0 -45.775998,-21.794521999348,0.0 -45.776502,-21.794524999348,0.0 -45.776786,-21.794491999348,0.0 -45.777069,-21.794447999348,0.0 -45.777328,-21.794391999348,0.0 -45.777599,-21.794370999348,0.0 -45.777833,-21.794360999348,0.0 -45.778153,-21.794362999348,0.0 -45.778448,-21.794421999348,0.0 -45.778693,-21.794515999348,0.0 -45.778951,-21.794654999348,0.0 -45.779171,-21.794805999348,0.0 -45.779342,-21.795047999348,0.0 -45.779575,-21.795198999348,0.0 -45.779783,-21.7953159993479,0.0 -45.780028,-21.7954669993479,0.0 -45.780212,-21.7956059993479,0.0 -45.78042,-21.7957329993479,0.0 -45.780653,-21.7958839993479,0.0 -45.780836,-21.7960459993479,0.0 -45.781057,-21.7962089993479,0.0 -45.781228,-21.7963819993479,0.0 -45.781387,-21.7965439993479,0.0 -45.781533,-21.7967169993479,0.0 -45.781729,-21.7969139993479,0.0 -45.781912,-21.7970649993479,0.0 -45.782328,-21.7974119993479,0.0 -45.782549,-21.7975509993479,0.0 -45.782769,-21.7977139993479,0.0 -45.783039,-21.7978529993479,0.0 -45.78326,-21.7979699993479,0.0 -45.78348,-21.7980749993479,0.0 -45.78375,-21.7981909993479,0.0 -45.784033,-21.7982849993479,0.0 -45.784265,-21.7984589993479,0.0 -45.784573,-21.7985299993479,0.0 -45.784868,-21.7985549993479,0.0 -45.785126,-21.7985679993479,0.0 -45.78536,-21.7985919993479,0.0 -45.785618,-21.7986049993479,0.0 -45.785914,-21.7986189993479,0.0 -45.786197,-21.7986429993479,0.0 -45.786443,-21.7986559993479,0.0 -45.786725,-21.7987039993479,0.0 -45.786971,-21.7987289993479,0.0 -45.787242,-21.7987759993479,0.0 -45.787488,-21.7988239993479,0.0 -45.787745,-21.7989629993479,0.0 -45.787941,-21.7990909993479,0.0 -45.7881,-21.7992989993479,0.0 -45.788184,-21.7995289993478,0.0 -45.788207,-21.7997589993478,0.0 -45.788218,-21.7999889993478,0.0 -45.788241,-21.8002079993478,0.0 -45.788237,-21.8007019993478,0.0 -45.788211,-21.8009779993478,0.0 -45.788184,-21.8012419993478,0.0 -45.788146,-21.8014949993478,0.0 -45.788083,-21.8017129993478,0.0 -45.787994,-21.8019769993478,0.0 -45.787931,-21.8022399993478,0.0 -45.78788,-21.8024929993478,0.0 -45.78778,-21.8027569993478,0.0 -45.787679,-21.8030089993478,0.0 -45.787604,-21.8032269993478,0.0 -45.787516,-21.8034789993478,0.0 -45.787378,-21.8038119993477,0.0 -45.787229,-21.8040409993477,0.0 -45.787068,-21.8042349993477,0.0 -45.786931,-21.8044529993477,0.0 -45.786818,-21.8046479993477,0.0 -45.786669,-21.8048879993477,0.0 -45.786557,-21.8051169993477,0.0 -45.786469,-21.8053469993477,0.0 -45.786307,-21.8055869993477,0.0 -45.786133,-21.8058269993477,0.0 -45.785996,-21.8060219993477,0.0 -45.785847,-21.8062389993477,0.0 -45.785698,-21.8064339993477,0.0 -45.785399,-21.8068919993477,0.0 -45.78525,-21.8070979993477,0.0 -45.785101,-21.8072689993477,0.0 -45.784915,-21.8074859993477,0.0 -45.784766,-21.8076809993477,0.0 -45.784592,-21.8078869993477,0.0 -45.784467,-21.8080929993476,0.0 -45.784294,-21.8082869993476,0.0 -45.784132,-21.8084469993476,0.0 -45.783873,-21.8085139993476,0.0 -45.783712,-21.8086969993476,0.0 -45.783538,-21.8089259993476,0.0 -45.783401,-21.8091439993476,0.0 -45.783252,-21.8093729993476,0.0 -45.783103,-21.8095669993476,0.0 -45.782978,-21.8097849993476,0.0 -45.782865,-21.8100479993476,0.0 -45.782753,-21.8102779993476,0.0 -45.78264,-21.8105409993476,0.0 -45.782552,-21.8108169993476,0.0 -45.782513,-21.8110919993476,0.0 -45.782487,-21.8113449993476,0.0 -45.782498,-21.8115639993476,0.0 -45.782582,-21.8118279993476,0.0 -45.782728,-21.8120249993475,0.0 -45.782911,-21.8121979993475,0.0 -45.783144,-21.8123259993475,0.0 -45.783611,-21.8125359993475,0.0 -45.783905,-21.8126869993475,0.0 -45.784187,-21.8128159993475,0.0 -45.784469,-21.8129549993475,0.0 -45.784764,-21.8130829993475,0.0 -45.785009,-21.8131769993475,0.0 -45.78523,-21.8132929993475,0.0 -45.7855,-21.8134099993475,0.0 -45.785758,-21.8135489993475,0.0 -45.785966,-21.8137349993475,0.0 -45.786186,-21.8139769993475,0.0 -45.786344,-21.8141389993475,0.0 -45.786502,-21.8144159993475,0.0 -45.786587,-21.8146469993475,0.0 -45.786672,-21.8148539993475,0.0 -45.786781,-21.8151079993475,0.0 -45.786865,-21.8153839993475,0.0 -45.786913,-21.8156029993475,0.0 -45.786947,-21.8158789993475,0.0 -45.787042,-21.8164309993474,0.0 -45.787127,-21.8166499993474,0.0 -45.787199,-21.8168799993474,0.0 -45.787259,-21.8170989993474,0.0 -45.787368,-21.8173409993474,0.0 -45.787452,-21.8176059993474,0.0 -45.787512,-21.8178819993474,0.0 -45.787547,-21.8181469993474,0.0 -45.787582,-21.8183999993474,0.0 -45.787578,-21.8189399993474,0.0 -45.787564,-21.8191699993474,0.0 -45.787525,-21.8194339993474,0.0 -45.787462,-21.8196639993474,0.0 -45.787423,-21.8199279993474,0.0 -45.787373,-21.8201459993474,0.0 -45.787359,-21.8203639993474,0.0 -45.787345,-21.8205939993473,0.0 -45.787341,-21.8211119993473,0.0 -45.787352,-21.8213409993473,0.0 -45.787362,-21.8215599993473,0.0 -45.787408,-21.8220429993473,0.0 -45.787407,-21.8222839993473,0.0 -45.787417,-21.8225139993473,0.0 -45.787453,-21.8227329993473,0.0 -45.787466,-21.8229199993473,0.0 -45.787537,-21.8229059993473,0.0 -45.787784,-21.8228609993473,0.0 -45.788006,-21.8227819993473,0.0 -45.788241,-21.8226919993473,0.0 -45.788524,-21.8226249993473,0.0 -45.788747,-21.8225339993473,0.0 -45.788933,-21.8223399993473,0.0 -45.789192,-21.8221689993473,0.0 -45.789427,-21.8220899993473,0.0 -45.789673,-21.8220339993473,0.0 -45.789957,-21.8219669993473,0.0 -45.790204,-21.8219219993473,0.0 -45.79045,-21.8219119993473,0.0 -45.790721,-21.8219029993473,0.0 -45.790955,-21.8218809993473,0.0 -45.791189,-21.8218709993473,0.0 -45.791434,-21.8219529993473,0.0 -45.791681,-21.8218399993473,0.0 -45.791941,-21.8217609993473,0.0 -45.792212,-21.8217159993473,0.0 -45.792495,-21.8217179993473,0.0 -45.792766,-21.8217309993473,0.0 -45.793024,-21.8217559993473,0.0 -45.79327,-21.8217579993473,0.0 -45.793603,-21.8217479993473,0.0 -45.793837,-21.8217269993473,0.0 -45.794108,-21.8217049993473,0.0 -45.794391,-21.8216489993473,0.0 -45.794662,-21.8215819993473,0.0 -45.795107,-21.8214009993473,0.0 -45.795801,-21.8207619993473,0.0 -45.796023,-21.8206139993473,0.0 -45.796234,-21.8204539993474,0.0 -45.796322,-21.8202359993474,0.0 -45.796569,-21.8201339993474,0.0 -45.796839,-21.8201359993474,0.0 -45.797085,-21.8201599993474,0.0 -45.797356,-21.8202079993473,0.0 -45.797564,-21.8203239993474,0.0 -45.797847,-21.8204289993474,0.0 -45.798043,-21.8205569993473,0.0 -45.798276,-21.8206959993474,0.0 -45.798496,-21.8208359993473,0.0 -45.798655,-21.8210089993473,0.0 -45.79874,-21.8212389993473,0.0 -45.798909,-21.8216769993473,0.0 -45.798981,-21.8218959993473,0.0 -45.799078,-21.8221609993473,0.0 -45.799324,-21.8221969993473,0.0 -45.799792,-21.8220849993473,0.0 -45.800002,-21.8219829993473,0.0 -45.800237,-21.8219039993473,0.0 -45.800472,-21.8217669993473,0.0 -45.800707,-21.8216419993473,0.0 -45.800966,-21.8215749993473,0.0 -45.801224,-21.8215999993473,0.0 -45.801494,-21.8216699993473,0.0 -45.801727,-21.8217639993473,0.0 -45.801986,-21.8217769993473,0.0 -45.80222,-21.8217439993473,0.0 -45.802491,-21.8217339993473,0.0 -45.802762,-21.8216779993473,0.0 -45.803021,-21.8216219993473,0.0 -45.803305,-21.8215779993473,0.0 -45.803564,-21.8215099993473,0.0 -45.803774,-21.8213969993473,0.0 -45.804021,-21.8212029993473,0.0 -45.804329,-21.8211469993473,0.0 -45.804563,-21.8211369993473,0.0 -45.805585,-21.8211429993473,0.0 -45.805831,-21.8211329993473,0.0 -45.806078,-21.8210889993473,0.0 -45.806264,-21.8209409993473,0.0 -45.806474,-21.8207809993473,0.0 -45.806696,-21.8206789993473,0.0 -45.806858,-21.8204959993473,0.0 -45.806884,-21.8202779993474,0.0 -45.807008,-21.8200829993474,0.0 -45.807071,-21.8198539993474,0.0 -45.807147,-21.8196359993474,0.0 -45.807271,-21.8194299993474,0.0 -45.807445,-21.8192239993474,0.0 -45.807631,-21.8190639993474,0.0 -45.807877,-21.8190079993474,0.0 -45.808112,-21.8189289993474,0.0 -45.808322,-21.8188149993474,0.0 -45.808532,-21.8187129993474,0.0 -45.80873,-21.8185419993474,0.0 -45.808953,-21.8184049993474,0.0 -45.80915,-21.8182799993474,0.0 -45.809349,-21.8181089993474,0.0 -45.809547,-21.8179489993474,0.0 -45.809769,-21.8178349993474,0.0 -45.810003,-21.8177679993474,0.0 -45.81025,-21.8177579993474,0.0 -45.81046,-21.8176329993474,0.0 -45.810682,-21.8175309993474,0.0 -45.810917,-21.8174169993474,0.0 -45.811163,-21.8173959993474,0.0 -45.811421,-21.8174429993474,0.0 -45.811705,-21.8174449993474,0.0 -45.811878,-21.8172619993474,0.0 -45.812027,-21.8170789993474,0.0 -45.812273,-21.8170809993474,0.0 -45.812519,-21.8170939993474,0.0 -45.812765,-21.8171299993474,0.0 -45.813307,-21.8171329993474,0.0 -45.813578,-21.8171109993474,0.0 -45.813837,-21.8170669993474,0.0 -45.814071,-21.8170109993474,0.0 -45.814317,-21.8169889993474,0.0 -45.814564,-21.8169789993474,0.0 -45.81481,-21.8169229993474,0.0 -45.815032,-21.8168439993474,0.0 -45.815279,-21.8168109993474,0.0 -45.815808,-21.8168149993474,0.0 -45.815994,-21.8166549993474,0.0 -45.816106,-21.8164599993474,0.0 -45.8161459,-21.8164118993474,0.0 -45.816267,-21.8162659993475,0.0 -45.816478,-21.8161519993475,0.0 -45.8167,-21.8160149993475,0.0 -45.816935,-21.8158559993475,0.0 -45.817133,-21.8157309993475,0.0 -45.817367,-21.8156629993475,0.0 -45.817614,-21.8155149993475,0.0 -45.817702,-21.8152969993475,0.0 -45.817778,-21.8150789993475,0.0 -45.817927,-21.8148959993475,0.0 -45.818014,-21.8146899993475,0.0 -45.818016,-21.8144249993475,0.0 -45.817968,-21.8141949993475,0.0 -45.817896,-21.8139529993475,0.0 -45.817885,-21.8137349993475,0.0 -45.817924,-21.8134819993475,0.0 -45.818098,-21.8132989993475,0.0 -45.818259,-21.8131399993475,0.0 -45.818408,-21.8129449993475,0.0 -45.818532,-21.8127499993475,0.0 -45.818706,-21.8125899993475,0.0 -45.818793,-21.8123839993475,0.0 -45.818807,-21.8121429993475,0.0 -45.818784,-21.8119129993476,0.0 -45.818737,-21.8116829993476,0.0 -45.818553,-21.8115319993476,0.0 -45.818456,-21.8113249993476,0.0 -45.818408,-21.8110939993476,0.0 -45.818412,-21.8105889993476,0.0 -45.818389,-21.8103699993476,0.0 -45.818353,-21.8101399993476,0.0 -45.818355,-21.8098989993476,0.0 -45.818369,-21.8096799993476,0.0 -45.818481,-21.8094629993476,0.0 -45.818642,-21.8092799993476,0.0 -45.818913,-21.8092809993476,0.0 -45.819135,-21.8092019993476,0.0 -45.819284,-21.8090189993476,0.0 -45.819421,-21.8088129993476,0.0 -45.819582,-21.8086299993476,0.0 -45.81978,-21.8084819993476,0.0 -45.819966,-21.8083219993476,0.0 -45.820313,-21.8079789993476,0.0 -45.820462,-21.8077849993476,0.0 -45.820636,-21.8076249993477,0.0 -45.820797,-21.8074649993477,0.0 -45.820946,-21.8072929993477,0.0 -45.821058,-21.8070869993477,0.0 -45.821232,-21.8068929993477,0.0 -45.821381,-21.8066979993477,0.0 -45.821542,-21.8065149993477,0.0 -45.82174,-21.8063669993477,0.0 -45.82195,-21.8062529993477,0.0 -45.822197,-21.8061629993477,0.0 -45.822431,-21.8061409993477,0.0 -45.822689,-21.8061429993477,0.0 -45.822924,-21.8060409993477,0.0 -45.823073,-21.8058459993477,0.0 -45.823222,-21.8056629993477,0.0 -45.823432,-21.8055379993477,0.0 -45.823654,-21.8054129993477,0.0 -45.823864,-21.8052989993477,0.0 -45.82405,-21.8051279993477,0.0 -45.824077,-21.8048869993477,0.0 -45.824029,-21.8046679993477,0.0 -45.823969,-21.8044379993477,0.0 -45.823872,-21.8042069993477,0.0 -45.823861,-21.8039769993477,0.0 -45.823838,-21.8037469993478,0.0 -45.823815,-21.8035059993478,0.0 -45.823819,-21.8030119993478,0.0 -45.823808,-21.8027819993478,0.0 -45.823773,-21.8025399993478,0.0 -45.823676,-21.8023209993478,0.0 -45.82364,-21.8020789993478,0.0 -45.823617,-21.8018609993478,0.0 -45.823557,-21.8016189993478,0.0 -45.823547,-21.8013889993478,0.0 -45.823561,-21.8011589993478,0.0 -45.823599,-21.8009069993478,0.0 -45.82365,-21.8006539993478,0.0 -45.823763,-21.8004249993478,0.0 -45.823911,-21.8002529993478,0.0 -45.824024,-21.8000469993478,0.0 -45.82416,-21.7998639993478,0.0 -45.824272,-21.7996579993478,0.0 -45.82436,-21.7994399993479,0.0 -45.824448,-21.7992339993479,0.0 -45.824609,-21.7990739993479,0.0 -45.824819,-21.7989249993479,0.0 -45.825054,-21.7988459993479,0.0 -45.825288,-21.7987899993479,0.0 -45.825559,-21.7987459993479,0.0 -45.825793,-21.7987359993479,0.0 -45.826064,-21.7987369993479,0.0 -45.826309,-21.7988309993479,0.0 -45.826543,-21.7987629993479,0.0 -45.826778,-21.7987299993479,0.0 -45.827245,-21.7987099993479,0.0 -45.827553,-21.7987119993479,0.0 -45.827787,-21.7986899993479,0.0 -45.828046,-21.7986689993479,0.0 -45.82828,-21.7986589993479,0.0 -45.828453,-21.7984869993479,0.0 -45.828565,-21.7982579993479,0.0 -45.828641,-21.7980399993479,0.0 -45.828741,-21.7978339993479,0.0 -45.828804,-21.7976159993479,0.0 -45.828867,-21.7973749993479,0.0 -45.828955,-21.7971569993479,0.0 -45.829152,-21.7970199993479,0.0 -45.829387,-21.7969179993479,0.0 -45.829597,-21.7967809993479,0.0 -45.829795,-21.7966449993479,0.0 -45.829993,-21.7964619993479,0.0 -45.830142,-21.7962789993479,0.0 -45.83023,-21.7960729993479,0.0 -45.830305,-21.7958429993479,0.0 -45.830381,-21.7956019993479,0.0 -45.830507,-21.7951429993479,0.0 -45.830607,-21.794901999348,0.0 -45.830683,-21.794660999348,0.0 -45.830807,-21.794443999348,0.0 -45.830956,-21.794225999348,0.0 -45.831117,-21.794065999348,0.0 -45.831303,-21.793894999348,0.0 -45.831723,-21.793644999348,0.0 -45.831885,-21.793472999348,0.0 -45.832021,-21.793266999348,0.0 -45.832084,-21.793048999348,0.0 -45.832197,-21.792842999348,0.0 -45.832272,-21.792601999348,0.0 -45.83236,-21.792371999348,0.0 -45.832472,-21.792131999348,0.0 -45.832548,-21.791878999348,0.0 -45.83266,-21.791649999348,0.0 -45.83276,-21.791443999348,0.0 -45.832872,-21.791236999348,0.0 -45.832972,-21.7910079993481,0.0 -45.833146,-21.7908479993481,0.0 -45.833331,-21.7906879993481,0.0 -45.833602,-21.7906559993481,0.0 -45.833837,-21.7905879993481,0.0 -45.834071,-21.7904969993481,0.0 -45.834318,-21.7904069993481,0.0 -45.834577,-21.7903509993481,0.0 -45.834823,-21.7903179993481,0.0 -45.835045,-21.7902389993481,0.0 -45.835231,-21.7900789993481,0.0 -45.835404,-21.7899189993481,0.0 -45.835627,-21.7897599993481,0.0 -45.835861,-21.7896799993481,0.0 -45.836133,-21.7895669993481,0.0 -45.836331,-21.7894069993481,0.0 -45.83648,-21.7892239993481,0.0 -45.836617,-21.7890179993481,0.0 -45.836778,-21.7888469993481,0.0 -45.837024,-21.7888139993481,0.0 -45.8372528,-21.7888352993481,0.0 -45.8372814,-21.7888378993481,0.0</coordinates>
</LinearRing>
</outerBoundaryIs>
</Polygon>
</MultiGeometry>
</Placemark>
</Folder>
</Document></kml>
