<?xml version='1.0' encoding='UTF-8'?>
<kml xmlns:xsd="http://www.w3.org/2001/XMLSchema" xmlns:gx="http://www.google.com/kml/ext/2.2" xmlns:atom="http://www.w3.org/2005/Atom" xmlns="http://www.opengis.net/kml/2.2">
<Document>
<name>fernandes_tourinho_3125804_localidades_2022</name>
<visibility>1</visibility>
<Schema name="Vilas" id="kml_schema_ft_Vilas">
<SimpleField type="xsd:string" name="CD_UF">
<displayName>CD_UF</displayName>
</SimpleField>
<SimpleField type="xsd:string" name="NM_UF">
<displayName>NM_UF</displayName>
</SimpleField>
<SimpleField type="xsd:string" name="SIGLA_UF">
<displayName>SIGLA_UF</displayName>
</SimpleField>
<SimpleField type="xsd:string" name="CD_MUN">
<displayName>CD_MUN</displayName>
</SimpleField>
<SimpleField type="xsd:string" name="NM_MUN">
<displayName>NM_MUN</displayName>
</SimpleField>
<SimpleField type="xsd:string" name="CD_RGINT">
<displayName>CD_RGINT</displayName>
</SimpleField>
<SimpleField type="xsd:string" name="NM_RGINT">
<displayName>NM_RGINT</displayName>
</SimpleField>
<SimpleField type="xsd:string" name="CD_RGI">
<displayName>CD_RGI</displayName>
</SimpleField>
<SimpleField type="xsd:string" name="NM_RGI">
<displayName>NM_RGI</displayName>
</SimpleField>
<SimpleField type="xsd:string" name="CT_LOCALIDADE">
<displayName>CT_LOCALIDADE</displayName>
</SimpleField>
<SimpleField type="xsd:string" name="CD_LOCALIDADE">
<displayName>CD_LOCALIDADE</displayName>
</SimpleField>
<SimpleField type="xsd:string" name="NM_LOCALIDADE">
<displayName>NM_LOCALIDADE</displayName>
</SimpleField>
<SimpleField type="xsd:string" name="LAT_LOCALIDADE">
<displayName>LAT_LOCALIDADE</displayName>
</SimpleField>
<SimpleField type="xsd:string" name="LONG_LOCALIDADE">
<displayName>LONG_LOCALIDADE</displayName>
</SimpleField>
</Schema>
<Schema name="Localidades" id="kml_schema_ft_Localidades">
<SimpleField type="xsd:string" name="CD_UF">
<displayName>CD_UF</displayName>
</SimpleField>
<SimpleField type="xsd:string" name="NM_UF">
<displayName>NM_UF</displayName>
</SimpleField>
<SimpleField type="xsd:string" name="SIGLA_UF">
<displayName>SIGLA_UF</displayName>
</SimpleField>
<SimpleField type="xsd:string" name="CD_MUN">
<displayName>CD_MUN</displayName>
</SimpleField>
<SimpleField type="xsd:string" name="NM_MUN">
<displayName>NM_MUN</displayName>
</SimpleField>
<SimpleField type="xsd:string" name="CD_RGINT">
<displayName>CD_RGINT</displayName>
</SimpleField>
<SimpleField type="xsd:string" name="NM_RGINT">
<displayName>NM_RGINT</displayName>
</SimpleField>
<SimpleField type="xsd:string" name="CD_RGI">
<displayName>CD_RGI</displayName>
</SimpleField>
<SimpleField type="xsd:string" name="NM_RGI">
<displayName>NM_RGI</displayName>
</SimpleField>
<SimpleField type="xsd:string" name="CT_LOCALIDADE">
<displayName>CT_LOCALIDADE</displayName>
</SimpleField>
<SimpleField type="xsd:string" name="SCT_LOCALIDADE">
<displayName>SCT_LOCALIDADE</displayName>
</SimpleField>
<SimpleField type="xsd:string" name="CD_LOCALIDADE">
<displayName>CD_LOCALIDADE</displayName>
</SimpleField>
<SimpleField type="xsd:string" name="NM_LOCALIDADE">
<displayName>NM_LOCALIDADE</displayName>
</SimpleField>
</Schema>
<Schema name="01. Cidade" id="kml_schema_ft_01._Cidade">
<SimpleField type="xsd:string" name="CD_UF">
<displayName>CD_UF</displayName>
</SimpleField>
<SimpleField type="xsd:string" name="NM_UF">
<displayName>NM_UF</displayName>
</SimpleField>
<SimpleField type="xsd:string" name="SIGLA_UF">
<displayName>SIGLA_UF</displayName>
</SimpleField>
<SimpleField type="xsd:string" name="CD_MUN">
<displayName>CD_MUN</displayName>
</SimpleField>
<SimpleField type="xsd:string" name="NM_MUN">
<displayName>NM_MUN</displayName>
</SimpleField>
<SimpleField type="xsd:string" name="CD_RGINT">
<displayName>CD_RGINT</displayName>
</SimpleField>
<SimpleField type="xsd:string" name="NM_RGINT">
<displayName>NM_RGINT</displayName>
</SimpleField>
<SimpleField type="xsd:string" name="CD_RGI">
<displayName>CD_RGI</displayName>
</SimpleField>
<SimpleField type="xsd:string" name="NM_RGI">
<displayName>NM_RGI</displayName>
</SimpleField>
<SimpleField type="xsd:string" name="CT_LOCALIDADE">
<displayName>CT_LOCALIDADE</displayName>
</SimpleField>
<SimpleField type="xsd:string" name="SCT_LOCALIDADE">
<displayName>SCT_LOCALIDADE</displayName>
</SimpleField>
<SimpleField type="xsd:string" name="CD_LOCALIDADE">
<displayName>CD_LOCALIDADE</displayName>
</SimpleField>
<SimpleField type="xsd:string" name="NM_LOCALIDADE">
<displayName>NM_LOCALIDADE</displayName>
</SimpleField>
<SimpleField type="xsd:string" name="LAT_LOCALIDADE">
<displayName>LAT_LOCALIDADE</displayName>
</SimpleField>
<SimpleField type="xsd:string" name="LONG_LOCALIDADE">
<displayName>LONG_LOCALIDADE</displayName>
</SimpleField>
</Schema>
<Schema name="Município" id="kml_schema_ft_Município">
<SimpleField type="xsd:string" name="CD_UF">
<displayName>CD_UF</displayName>
</SimpleField>
<SimpleField type="xsd:string" name="NM_UF">
<displayName>NM_UF</displayName>
</SimpleField>
<SimpleField type="xsd:string" name="CD_MUN">
<displayName>CD_MUN</displayName>
</SimpleField>
<SimpleField type="xsd:string" name="NM_MUN">
<displayName>NM_MUN</displayName>
</SimpleField>
<SimpleField type="xsd:string" name="CD_RGINT">
<displayName>CD_RGINT</displayName>
</SimpleField>
<SimpleField type="xsd:string" name="NM_RGINT">
<displayName>NM_RGINT</displayName>
</SimpleField>
<SimpleField type="xsd:string" name="CD_RGI">
<displayName>CD_RGI</displayName>
</SimpleField>
<SimpleField type="xsd:string" name="NM_RGI">
<displayName>NM_RGI</displayName>
</SimpleField>
</Schema>
<Folder id="01. Cidade">
<name>01. Cidade</name>
<Folder id="01.03. Sede Municipal">
<name>01.03. Sede Municipal</name>
<Placemark id="01.03. Sede Municipal">
<name>Fernandes Tourinho [3125804]</name>
<visibility>1</visibility>
<snippet> </snippet>
<description>&lt;center&gt;&lt;table&gt;&lt;tr&gt;&lt;th colspan='2' align='center'&gt;&lt;em&gt;Atributos&lt;/em&gt;&lt;/th&gt;&lt;/tr&gt;&lt;tr bgcolor="#E3E3F3"&gt;
&lt;th&gt;CD_UF&lt;/th&gt;
&lt;td&gt;31&lt;/td&gt;
&lt;/tr&gt;&lt;tr bgcolor=""&gt;
&lt;th&gt;NM_UF&lt;/th&gt;
&lt;td&gt;Minas Gerais&lt;/td&gt;
&lt;/tr&gt;&lt;tr bgcolor="#E3E3F3"&gt;
&lt;th&gt;SIGLA_UF&lt;/th&gt;
&lt;td&gt;MG&lt;/td&gt;
&lt;/tr&gt;&lt;tr bgcolor=""&gt;
&lt;th&gt;CD_MUN&lt;/th&gt;
&lt;td&gt;3125804&lt;/td&gt;
&lt;/tr&gt;&lt;tr bgcolor="#E3E3F3"&gt;
&lt;th&gt;NM_MUN&lt;/th&gt;
&lt;td&gt;Fernandes Tourinho&lt;/td&gt;
&lt;/tr&gt;&lt;tr bgcolor=""&gt;
&lt;th&gt;CD_RGINT&lt;/th&gt;
&lt;td&gt;3104&lt;/td&gt;
&lt;/tr&gt;&lt;tr bgcolor="#E3E3F3"&gt;
&lt;th&gt;NM_RGINT&lt;/th&gt;
&lt;td&gt;Governador Valadares&lt;/td&gt;
&lt;/tr&gt;&lt;tr bgcolor=""&gt;
&lt;th&gt;CD_RGI&lt;/th&gt;
&lt;td&gt;310020&lt;/td&gt;
&lt;/tr&gt;&lt;tr bgcolor="#E3E3F3"&gt;
&lt;th&gt;NM_RGI&lt;/th&gt;
&lt;td&gt;Governador Valadares&lt;/td&gt;
&lt;/tr&gt;&lt;tr bgcolor=""&gt;
&lt;th&gt;CT_LOCALIDADE&lt;/th&gt;
&lt;td&gt;Cidade&lt;/td&gt;
&lt;/tr&gt;&lt;tr bgcolor="#E3E3F3"&gt;
&lt;th&gt;SCT_LOCALIDADE&lt;/th&gt;
&lt;td&gt;Sede Municipal&lt;/td&gt;
&lt;/tr&gt;&lt;tr bgcolor=""&gt;
&lt;th&gt;CD_LOCALIDADE&lt;/th&gt;
&lt;td&gt;3125804&lt;/td&gt;
&lt;/tr&gt;&lt;tr bgcolor="#E3E3F3"&gt;
&lt;th&gt;NM_LOCALIDADE&lt;/th&gt;
&lt;td&gt;Fernandes Tourinho&lt;/td&gt;
&lt;/tr&gt;&lt;tr bgcolor=""&gt;
&lt;th&gt;LAT_LOCALIDADE&lt;/th&gt;
&lt;td&gt;-19.1528&lt;/td&gt;
&lt;/tr&gt;&lt;tr bgcolor="#E3E3F3"&gt;
&lt;th&gt;LONG_LOCALIDADE&lt;/th&gt;
&lt;td&gt;-42.0828&lt;/td&gt;
&lt;/tr&gt;&lt;/table&gt;&lt;/center&gt;</description>
<Style>
<IconStyle>
<color>ff00aaff</color>
<scale>1.0</scale>
<Icon>
<href>http://maps.google.com/mapfiles/kml/shapes/placemark_circle.png</href>
</Icon>
</IconStyle>
<LabelStyle>
<scale>1.0</scale>
</LabelStyle>
<LineStyle>
<color>ffffffff</color>
<width>3</width>
<gx:labelVisibility>1</gx:labelVisibility>
</LineStyle>
<PolyStyle>
<color>00ffffff</color>
</PolyStyle>
</Style>
<ExtendedData>
<SchemaData schemaUrl="#kml_schema_ft_01._Cidade">
<SimpleData name="CD_UF">31</SimpleData>
<SimpleData name="NM_UF">Minas Gerais</SimpleData>
<SimpleData name="SIGLA_UF">MG</SimpleData>
<SimpleData name="CD_MUN">3125804</SimpleData>
<SimpleData name="NM_MUN">Fernandes Tourinho</SimpleData>
<SimpleData name="CD_RGINT">3104</SimpleData>
<SimpleData name="NM_RGINT">Governador Valadares</SimpleData>
<SimpleData name="CD_RGI">310020</SimpleData>
<SimpleData name="NM_RGI">Governador Valadares</SimpleData>
<SimpleData name="CT_LOCALIDADE">Cidade</SimpleData>
<SimpleData name="SCT_LOCALIDADE">Sede Municipal</SimpleData>
<SimpleData name="CD_LOCALIDADE">3125804</SimpleData>
<SimpleData name="NM_LOCALIDADE">Fernandes Tourinho</SimpleData>
<SimpleData name="LAT_LOCALIDADE">-19.1528</SimpleData>
<SimpleData name="LONG_LOCALIDADE">-42.0828</SimpleData>
</SchemaData>
</ExtendedData>
<Point>
<extrude>0</extrude>
<coordinates>-42.0828,-19.1527999994136,0.0</coordinates>
</Point>
</Placemark>
</Folder>
</Folder>
<Folder id="04. Vilas">
<name>04. Vilas</name>
<Placemark id="04. Vilas">
<name>Senhora da Penha [312580410]</name>
<visibility>1</visibility>
<snippet> </snippet>
<description>&lt;center&gt;&lt;table&gt;&lt;tr&gt;&lt;th colspan='2' align='center'&gt;&lt;em&gt;Atributos&lt;/em&gt;&lt;/th&gt;&lt;/tr&gt;&lt;tr bgcolor="#E3E3F3"&gt;
&lt;th&gt;CD_UF&lt;/th&gt;
&lt;td&gt;31&lt;/td&gt;
&lt;/tr&gt;&lt;tr bgcolor=""&gt;
&lt;th&gt;NM_UF&lt;/th&gt;
&lt;td&gt;Minas Gerais&lt;/td&gt;
&lt;/tr&gt;&lt;tr bgcolor="#E3E3F3"&gt;
&lt;th&gt;SIGLA_UF&lt;/th&gt;
&lt;td&gt;MG&lt;/td&gt;
&lt;/tr&gt;&lt;tr bgcolor=""&gt;
&lt;th&gt;CD_MUN&lt;/th&gt;
&lt;td&gt;3125804&lt;/td&gt;
&lt;/tr&gt;&lt;tr bgcolor="#E3E3F3"&gt;
&lt;th&gt;NM_MUN&lt;/th&gt;
&lt;td&gt;Fernandes Tourinho&lt;/td&gt;
&lt;/tr&gt;&lt;tr bgcolor=""&gt;
&lt;th&gt;CD_RGINT&lt;/th&gt;
&lt;td&gt;3104&lt;/td&gt;
&lt;/tr&gt;&lt;tr bgcolor="#E3E3F3"&gt;
&lt;th&gt;NM_RGINT&lt;/th&gt;
&lt;td&gt;Governador Valadares&lt;/td&gt;
&lt;/tr&gt;&lt;tr bgcolor=""&gt;
&lt;th&gt;CD_RGI&lt;/th&gt;
&lt;td&gt;310020&lt;/td&gt;
&lt;/tr&gt;&lt;tr bgcolor="#E3E3F3"&gt;
&lt;th&gt;NM_RGI&lt;/th&gt;
&lt;td&gt;Governador Valadares&lt;/td&gt;
&lt;/tr&gt;&lt;tr bgcolor=""&gt;
&lt;th&gt;CT_LOCALIDADE&lt;/th&gt;
&lt;td&gt;Vila&lt;/td&gt;
&lt;/tr&gt;&lt;tr bgcolor="#E3E3F3"&gt;
&lt;th&gt;CD_LOCALIDADE&lt;/th&gt;
&lt;td&gt;312580410&lt;/td&gt;
&lt;/tr&gt;&lt;tr bgcolor=""&gt;
&lt;th&gt;NM_LOCALIDADE&lt;/th&gt;
&lt;td&gt;Senhora da Penha&lt;/td&gt;
&lt;/tr&gt;&lt;tr bgcolor="#E3E3F3"&gt;
&lt;th&gt;LAT_LOCALIDADE&lt;/th&gt;
&lt;td&gt;-19.1028&lt;/td&gt;
&lt;/tr&gt;&lt;tr bgcolor=""&gt;
&lt;th&gt;LONG_LOCALIDADE&lt;/th&gt;
&lt;td&gt;-42.1464&lt;/td&gt;
&lt;/tr&gt;&lt;/table&gt;&lt;/center&gt;</description>
<Style>
<IconStyle>
<color>ffff5400</color>
<scale>1.0</scale>
<Icon>
<href>http://maps.google.com/mapfiles/kml/shapes/placemark_circle.png</href>
</Icon>
</IconStyle>
<LabelStyle>
<scale>0.9</scale>
</LabelStyle>
<LineStyle>
<color>72ffffff</color>
<width>1.0</width>
<gx:labelVisibility>1</gx:labelVisibility>
</LineStyle>
<PolyStyle>
<color>660054ff</color>
</PolyStyle>
</Style>
<ExtendedData>
<SchemaData schemaUrl="#kml_schema_ft_Vilas">
<SimpleData name="CD_UF">31</SimpleData>
<SimpleData name="NM_UF">Minas Gerais</SimpleData>
<SimpleData name="SIGLA_UF">MG</SimpleData>
<SimpleData name="CD_MUN">3125804</SimpleData>
<SimpleData name="NM_MUN">Fernandes Tourinho</SimpleData>
<SimpleData name="CD_RGINT">3104</SimpleData>
<SimpleData name="NM_RGINT">Governador Valadares</SimpleData>
<SimpleData name="CD_RGI">310020</SimpleData>
<SimpleData name="NM_RGI">Governador Valadares</SimpleData>
<SimpleData name="CT_LOCALIDADE">Vila</SimpleData>
<SimpleData name="CD_LOCALIDADE">312580410</SimpleData>
<SimpleData name="NM_LOCALIDADE">Senhora da Penha</SimpleData>
<SimpleData name="LAT_LOCALIDADE">-19.1028</SimpleData>
<SimpleData name="LONG_LOCALIDADE">-42.1464</SimpleData>
</SchemaData>
</ExtendedData>
<Point>
<extrude>0</extrude>
<coordinates>-42.1464,-19.1027999994149,0.0</coordinates>
</Point>
</Placemark>
</Folder>
<Folder id="12. Outras Localidades">
<name>12. Outras Localidades</name>
<Placemark id="12. Outras Localidades">
<name>Córrego do Arroz [312580400001]</name>
<visibility>1</visibility>
<snippet> </snippet>
<description>&lt;center&gt;&lt;table&gt;&lt;tr&gt;&lt;th colspan='2' align='center'&gt;&lt;em&gt;Attributes&lt;/em&gt;&lt;/th&gt;&lt;/tr&gt;&lt;tr bgcolor="#E3E3F3"&gt;
&lt;th&gt;CD_UF&lt;/th&gt;
&lt;td&gt;31&lt;/td&gt;
&lt;/tr&gt;&lt;tr bgcolor=""&gt;
&lt;th&gt;NM_UF&lt;/th&gt;
&lt;td&gt;Minas Gerais&lt;/td&gt;
&lt;/tr&gt;&lt;tr bgcolor="#E3E3F3"&gt;
&lt;th&gt;SIGLA_UF&lt;/th&gt;
&lt;td&gt;MG&lt;/td&gt;
&lt;/tr&gt;&lt;tr bgcolor=""&gt;
&lt;th&gt;CD_MUN&lt;/th&gt;
&lt;td&gt;3125804&lt;/td&gt;
&lt;/tr&gt;&lt;tr bgcolor="#E3E3F3"&gt;
&lt;th&gt;NM_MUN&lt;/th&gt;
&lt;td&gt;Fernandes Tourinho&lt;/td&gt;
&lt;/tr&gt;&lt;tr bgcolor=""&gt;
&lt;th&gt;CD_RGINT&lt;/th&gt;
&lt;td&gt;3104&lt;/td&gt;
&lt;/tr&gt;&lt;tr bgcolor="#E3E3F3"&gt;
&lt;th&gt;NM_RGINT&lt;/th&gt;
&lt;td&gt;Governador Valadares&lt;/td&gt;
&lt;/tr&gt;&lt;tr bgcolor=""&gt;
&lt;th&gt;CD_RGI&lt;/th&gt;
&lt;td&gt;310020&lt;/td&gt;
&lt;/tr&gt;&lt;tr bgcolor="#E3E3F3"&gt;
&lt;th&gt;NM_RGI&lt;/th&gt;
&lt;td&gt;Governador Valadares&lt;/td&gt;
&lt;/tr&gt;&lt;tr bgcolor=""&gt;
&lt;th&gt;CT_LOCALIDADE&lt;/th&gt;
&lt;td&gt;Outras Localidades&lt;/td&gt;
&lt;/tr&gt;&lt;tr bgcolor="#E3E3F3"&gt;
&lt;th&gt;SCT_LOCALIDADE&lt;/th&gt;
&lt;td&gt;&lt;/td&gt;
&lt;/tr&gt;&lt;tr bgcolor=""&gt;
&lt;th&gt;CD_LOCALIDADE&lt;/th&gt;
&lt;td&gt;312580400001&lt;/td&gt;
&lt;/tr&gt;&lt;tr bgcolor="#E3E3F3"&gt;
&lt;th&gt;NM_LOCALIDADE&lt;/th&gt;
&lt;td&gt;Córrego do Arroz&lt;/td&gt;
&lt;/tr&gt;&lt;/table&gt;&lt;/center&gt;</description>
<Style>
<IconStyle>
<color>ff0069d3</color>
<scale>0.6</scale>
<Icon>
<href>http://maps.google.com/mapfiles/kml/shapes/placemark_circle.png</href>
</Icon>
</IconStyle>
<LabelStyle>
<scale>0.6</scale>
</LabelStyle>
<LineStyle>
<width>1.0</width>
<gx:labelVisibility>1</gx:labelVisibility>
</LineStyle>
</Style>
<ExtendedData>
<SchemaData schemaUrl="#kml_schema_ft_Localidades">
<SimpleData name="CD_UF">31</SimpleData>
<SimpleData name="NM_UF">Minas Gerais</SimpleData>
<SimpleData name="SIGLA_UF">MG</SimpleData>
<SimpleData name="CD_MUN">3125804</SimpleData>
<SimpleData name="NM_MUN">Fernandes Tourinho</SimpleData>
<SimpleData name="CD_RGINT">3104</SimpleData>
<SimpleData name="NM_RGINT">Governador Valadares</SimpleData>
<SimpleData name="CD_RGI">310020</SimpleData>
<SimpleData name="NM_RGI">Governador Valadares</SimpleData>
<SimpleData name="CT_LOCALIDADE">Outras Localidades</SimpleData>
<SimpleData name="CD_LOCALIDADE">312580400001</SimpleData>
<SimpleData name="NM_LOCALIDADE">Córrego do Arroz</SimpleData>
</SchemaData>
</ExtendedData>
<Point>
<extrude>0</extrude>
<coordinates>-42.07535,-19.0826769994154,0.0</coordinates>
</Point>
</Placemark>
</Folder>
<Folder id="13. Referência">
<name>13. Referência</name>
<Placemark id="13. Referência">
<name>Fernandes Tourinho [3125804]</name>
<visibility>1</visibility>
<snippet> </snippet>
<description>&lt;center&gt;&lt;table&gt;&lt;tr&gt;&lt;th colspan='2' align='center'&gt;&lt;em&gt;Attributes&lt;/em&gt;&lt;/th&gt;&lt;/tr&gt;&lt;tr bgcolor="#E3E3F3"&gt;
&lt;th&gt;CD_UF&lt;/th&gt;
&lt;td&gt;31&lt;/td&gt;
&lt;/tr&gt;&lt;tr bgcolor=""&gt;
&lt;th&gt;NM_UF&lt;/th&gt;
&lt;td&gt;Minas Gerais&lt;/td&gt;
&lt;/tr&gt;&lt;tr bgcolor="#E3E3F3"&gt;
&lt;th&gt;CD_MUN&lt;/th&gt;
&lt;td&gt;3125804&lt;/td&gt;
&lt;/tr&gt;&lt;tr bgcolor=""&gt;
&lt;th&gt;NM_MUN&lt;/th&gt;
&lt;td&gt;Fernandes Tourinho&lt;/td&gt;
&lt;/tr&gt;&lt;tr bgcolor="#E3E3F3"&gt;
&lt;th&gt;CD_RGINT&lt;/th&gt;
&lt;td&gt;3104&lt;/td&gt;
&lt;/tr&gt;&lt;tr bgcolor=""&gt;
&lt;th&gt;NM_RGINT&lt;/th&gt;
&lt;td&gt;Governador Valadares&lt;/td&gt;
&lt;/tr&gt;&lt;tr bgcolor="#E3E3F3"&gt;
&lt;th&gt;CD_RGI&lt;/th&gt;
&lt;td&gt;310020&lt;/td&gt;
&lt;/tr&gt;&lt;tr bgcolor=""&gt;
&lt;th&gt;NM_RGI&lt;/th&gt;
&lt;td&gt;Governador Valadares&lt;/td&gt;
&lt;/tr&gt;&lt;/table&gt;&lt;/center&gt;</description>
<Style>
<IconStyle>
<scale>0.7</scale>
</IconStyle>
<LabelStyle>
<scale>0.7</scale>
</LabelStyle>
<LineStyle>
<color>ffffffff</color>
<width>3</width>
<gx:labelVisibility>1</gx:labelVisibility>
</LineStyle>
<PolyStyle>
<color>00ffffff</color>
</PolyStyle>
</Style>
<ExtendedData>
<SchemaData schemaUrl="#kml_schema_ft_Município">
<SimpleData name="CD_UF">31</SimpleData>
<SimpleData name="NM_UF">Minas Gerais</SimpleData>
<SimpleData name="CD_MUN">3125804</SimpleData>
<SimpleData name="NM_MUN">Fernandes Tourinho</SimpleData>
<SimpleData name="CD_RGINT">3104</SimpleData>
<SimpleData name="NM_RGINT">Governador Valadares</SimpleData>
<SimpleData name="CD_RGI">310020</SimpleData>
<SimpleData name="NM_RGI">Governador Valadares</SimpleData>
</SchemaData>
</ExtendedData>
<MultiGeometry>
<Polygon>
<extrude>0</extrude>
<tessellate>1</tessellate>
<outerBoundaryIs>
<LinearRing>
<coordinates>-42.1514592,-19.0896909994152,0.0 -42.1514657,-19.0896575994152,0.0 -42.151536,-19.0892989994153,0.0 -42.151659,-19.0888169994153,0.0 -42.151855,-19.0883119994153,0.0 -42.152026,-19.0878989994153,0.0 -42.152221,-19.0874399994153,0.0 -42.152441,-19.0869819994153,0.0 -42.15266,-19.0865919994153,0.0 -42.152856,-19.0861789994153,0.0 -42.153123,-19.0857669994153,0.0 -42.153416,-19.0852849994154,0.0 -42.153683,-19.0848729994154,0.0 -42.153927,-19.0844369994154,0.0 -42.154123,-19.0840009994154,0.0 -42.154221,-19.0835419994154,0.0 -42.154296,-19.0830829994154,0.0 -42.154419,-19.0826469994154,0.0 -42.154445,-19.0821869994154,0.0 -42.154448,-19.0816819994154,0.0 -42.154402,-19.0811529994155,0.0 -42.154235,-19.0806929994155,0.0 -42.153899,-19.0801629994155,0.0 -42.153683,-19.0797709994155,0.0 -42.153468,-19.0793339994155,0.0 -42.1533,-19.0789189994155,0.0 -42.15294,-19.0784809994155,0.0 -42.152337,-19.0781339994155,0.0 -42.152146,-19.0776969994156,0.0 -42.151761,-19.0774419994156,0.0 -42.151375,-19.0771419994156,0.0 -42.151038,-19.0768189994156,0.0 -42.150678,-19.0764499994156,0.0 -42.150196,-19.0759879994156,0.0 -42.149835,-19.0756879994156,0.0 -42.149474,-19.0753639994156,0.0 -42.148945,-19.0749259994156,0.0 -42.148535,-19.0745789994156,0.0 -42.148174,-19.0743019994156,0.0 -42.147692,-19.0740009994156,0.0 -42.147234,-19.0736769994157,0.0 -42.146776,-19.0734689994157,0.0 -42.146342,-19.0732369994157,0.0 -42.145933,-19.0730049994157,0.0 -42.145475,-19.0727279994157,0.0 -42.145065,-19.0724729994157,0.0 -42.14468,-19.0721959994157,0.0 -42.144222,-19.0719179994157,0.0 -42.14374,-19.0715939994157,0.0 -42.143282,-19.0712939994157,0.0 -42.142872,-19.0710849994157,0.0 -42.142438,-19.0708299994157,0.0 -42.142053,-19.0705529994157,0.0 -42.141643,-19.0702979994157,0.0 -42.141234,-19.0700209994157,0.0 -42.140849,-19.0696749994158,0.0 -42.140488,-19.0693509994158,0.0 -42.140199,-19.0690049994158,0.0 -42.139624,-19.0680379994158,0.0 -42.139457,-19.0676239994158,0.0 -42.13912,-19.0672309994158,0.0 -42.138808,-19.0668849994158,0.0 -42.138423,-19.0664469994158,0.0 -42.138111,-19.0661009994159,0.0 -42.137774,-19.0657089994159,0.0 -42.137438,-19.0652939994159,0.0 -42.137029,-19.0647869994159,0.0 -42.13662,-19.0643939994159,0.0 -42.136284,-19.0640019994159,0.0 -42.135972,-19.0635179994159,0.0 -42.135829,-19.0630579994159,0.0 -42.135614,-19.0626429994159,0.0 -42.13535,-19.062228999416,0.0 -42.135086,-19.061836999416,0.0 -42.134607,-19.060961999416,0.0 -42.134343,-19.060523999416,0.0 -42.134127,-19.060131999416,0.0 -42.133839,-19.059739999416,0.0 -42.133527,-19.059347999416,0.0 -42.133239,-19.058956999416,0.0 -42.132927,-19.0585649994161,0.0 -42.132711,-19.0581729994161,0.0 -42.132544,-19.0577129994161,0.0 -42.132281,-19.0571139994161,0.0 -42.132091,-19.0565389994161,0.0 -42.131972,-19.0561019994161,0.0 -42.131853,-19.0555959994161,0.0 -42.131831,-19.0551589994161,0.0 -42.131739,-19.0542849994162,0.0 -42.131717,-19.0538489994162,0.0 -42.131695,-19.0533659994162,0.0 -42.1317,-19.0522629994162,0.0 -42.131727,-19.0518029994162,0.0 -42.131849,-19.0513669994162,0.0 -42.132021,-19.0509089994162,0.0 -42.132265,-19.0504499994163,0.0 -42.132508,-19.0500599994163,0.0 -42.132776,-19.0496479994163,0.0 -42.13336,-19.0488689994163,0.0 -42.1337,-19.0484569994163,0.0 -42.13404,-19.0480679994163,0.0 -42.134332,-19.0477239994163,0.0 -42.134648,-19.0473349994163,0.0 -42.134988,-19.0468769994164,0.0 -42.13528,-19.0465109994164,0.0 -42.135523,-19.0461209994164,0.0 -42.135791,-19.0457089994164,0.0 -42.136107,-19.0453189994164,0.0 -42.136399,-19.0448609994164,0.0 -42.136715,-19.0445179994164,0.0 -42.136983,-19.0440359994164,0.0 -42.137179,-19.0435539994164,0.0 -42.13735,-19.0430729994164,0.0 -42.137498,-19.0425449994165,0.0 -42.137597,-19.0420859994165,0.0 -42.137647,-19.0415569994165,0.0 -42.13765,-19.0410979994165,0.0 -42.137628,-19.0406149994165,0.0 -42.137534,-19.0400859994165,0.0 -42.137342,-19.0396029994165,0.0 -42.1372,-19.0391429994166,0.0 -42.136769,-19.0382219994166,0.0 -42.136529,-19.0378299994166,0.0 -42.136217,-19.0373919994166,0.0 -42.136002,-19.0369769994166,0.0 -42.135738,-19.0365859994166,0.0 -42.135551,-19.0363039994166,0.0 -42.135426,-19.0361249994166,0.0 -42.135186,-19.0357099994166,0.0 -42.134923,-19.0352259994167,0.0 -42.134659,-19.0348349994167,0.0 -42.134299,-19.0343269994167,0.0 -42.134011,-19.0339589994167,0.0 -42.133722,-19.0336129994167,0.0 -42.133338,-19.0331739994167,0.0 -42.133074,-19.0328059994167,0.0 -42.132737,-19.0323899994167,0.0 -42.131992,-19.0316749994168,0.0 -42.13168,-19.0313059994168,0.0 -42.131343,-19.0309139994168,0.0 -42.131031,-19.0305449994168,0.0 -42.130718,-19.0301989994168,0.0 -42.130357,-19.0298749994168,0.0 -42.129804,-19.0294359994168,0.0 -42.129346,-19.0291129994168,0.0 -42.128841,-19.0286509994168,0.0 -42.128505,-19.0282359994168,0.0 -42.128193,-19.0278439994168,0.0 -42.127929,-19.0274289994169,0.0 -42.127713,-19.0269919994169,0.0 -42.127522,-19.0265769994169,0.0 -42.127283,-19.0260709994169,0.0 -42.126995,-19.0255869994169,0.0 -42.126731,-19.0251949994169,0.0 -42.126619,-19.0249939994169,0.0 -42.126442,-19.0250329994169,0.0 -42.12591,-19.0251449994169,0.0 -42.125402,-19.0252349994169,0.0 -42.124894,-19.0253479994169,0.0 -42.124338,-19.0254599994169,0.0 -42.123782,-19.0255959994169,0.0 -42.12325,-19.0257079994169,0.0 -42.122742,-19.0257979994169,0.0 -42.12233,-19.0260259994169,0.0 -42.121894,-19.0261849994169,0.0 -42.121458,-19.0264359994169,0.0 -42.121094,-19.0267329994169,0.0 -42.12073,-19.0270989994169,0.0 -42.120391,-19.0273959994169,0.0 -42.120075,-19.0277169994168,0.0 -42.119783,-19.0280599994168,0.0 -42.11942,-19.0283339994168,0.0 -42.119031,-19.0286309994168,0.0 -42.118668,-19.0289049994168,0.0 -42.117892,-19.0294079994168,0.0 -42.117455,-19.0297959994168,0.0 -42.117068,-19.0300469994168,0.0 -42.116631,-19.0302979994168,0.0 -42.116099,-19.0305489994168,0.0 -42.115639,-19.0307299994168,0.0 -42.115227,-19.0309349994168,0.0 -42.114767,-19.0310709994168,0.0 -42.114284,-19.0311379994168,0.0 -42.113776,-19.0312049994168,0.0 -42.113268,-19.0312259994168,0.0 -42.112713,-19.0311539994168,0.0 -42.112182,-19.0310139994168,0.0 -42.111675,-19.0308969994168,0.0 -42.111217,-19.0307339994168,0.0 -42.110783,-19.0305249994168,0.0 -42.110374,-19.0301559994168,0.0 -42.110013,-19.0298319994168,0.0 -42.109628,-19.0295319994168,0.0 -42.109147,-19.0292079994168,0.0 -42.108689,-19.0289299994168,0.0 -42.108328,-19.0286529994168,0.0 -42.107919,-19.0283059994168,0.0 -42.107509,-19.0280289994168,0.0 -42.107051,-19.0277969994168,0.0 -42.10657,-19.0274959994169,0.0 -42.106112,-19.0272409994169,0.0 -42.105702,-19.0269869994169,0.0 -42.105293,-19.0267089994169,0.0 -42.104981,-19.0263859994169,0.0 -42.104595,-19.0261089994169,0.0 -42.104234,-19.0258079994169,0.0 -42.103849,-19.0255309994169,0.0 -42.103416,-19.0251379994169,0.0 -42.103031,-19.0248609994169,0.0 -42.102646,-19.0245599994169,0.0 -42.102212,-19.0242829994169,0.0 -42.101778,-19.0241199994169,0.0 -42.101272,-19.0239569994169,0.0 -42.100813,-19.0239089994169,0.0 -42.099847,-19.0239049994169,0.0 -42.099338,-19.0241549994169,0.0 -42.09895,-19.0244979994169,0.0 -42.09861,-19.0247949994169,0.0 -42.098294,-19.0251839994169,0.0 -42.097929,-19.0256649994169,0.0 -42.097565,-19.0260769994169,0.0 -42.097249,-19.0264429994169,0.0 -42.096957,-19.0268789994169,0.0 -42.096641,-19.0272679994169,0.0 -42.096325,-19.0276109994168,0.0 -42.096033,-19.0279779994168,0.0 -42.095717,-19.0283899994168,0.0 -42.095401,-19.0288479994168,0.0 -42.095229,-19.0293529994168,0.0 -42.095033,-19.0298799994168,0.0 -42.094862,-19.0302929994168,0.0 -42.094787,-19.0307289994168,0.0 -42.094785,-19.0311889994168,0.0 -42.094807,-19.0316719994167,0.0 -42.094804,-19.0321769994167,0.0 -42.094753,-19.0326589994167,0.0 -42.094679,-19.0330959994167,0.0 -42.094411,-19.0334849994167,0.0 -42.093974,-19.0339429994167,0.0 -42.093633,-19.0343319994167,0.0 -42.093197,-19.0346059994167,0.0 -42.092713,-19.0347179994167,0.0 -42.092085,-19.0348069994167,0.0 -42.091626,-19.0348279994167,0.0 -42.091166,-19.0349179994167,0.0 -42.090706,-19.0350309994167,0.0 -42.090222,-19.0351899994167,0.0 -42.089738,-19.0354169994166,0.0 -42.089301,-19.0357369994166,0.0 -42.08872,-19.0361249994166,0.0 -42.088355,-19.0364679994166,0.0 -42.088064,-19.0368569994166,0.0 -42.087431,-19.0376809994166,0.0 -42.087163,-19.0381169994166,0.0 -42.086968,-19.0385299994166,0.0 -42.08682,-19.0389879994166,0.0 -42.086697,-19.0394469994165,0.0 -42.08655,-19.0399749994165,0.0 -42.086403,-19.0404109994165,0.0 -42.086303,-19.0409159994165,0.0 -42.086156,-19.0414209994165,0.0 -42.086081,-19.0418799994165,0.0 -42.086079,-19.0423399994165,0.0 -42.086101,-19.0427769994165,0.0 -42.086171,-19.0432819994164,0.0 -42.08653,-19.0437899994164,0.0 -42.086939,-19.0441359994164,0.0 -42.087493,-19.0445519994164,0.0 -42.087951,-19.0448069994164,0.0 -42.088385,-19.0450389994164,0.0 -42.088794,-19.0452709994164,0.0 -42.0889291,-19.0453697994164,0.0 -42.089204,-19.0455709994164,0.0 -42.089588,-19.0459179994164,0.0 -42.089974,-19.0461719994164,0.0 -42.090383,-19.0464729994164,0.0 -42.090792,-19.0468189994163,0.0 -42.091153,-19.0471429994163,0.0 -42.091513,-19.0475809994163,0.0 -42.091704,-19.0479949994163,0.0 -42.09192,-19.0484099994163,0.0 -42.092111,-19.0488699994163,0.0 -42.092229,-19.0493529994163,0.0 -42.092251,-19.0498589994163,0.0 -42.092079,-19.0504329994163,0.0 -42.091883,-19.0508449994162,0.0 -42.091495,-19.0511649994162,0.0 -42.091131,-19.0515079994162,0.0 -42.090718,-19.0518739994162,0.0 -42.090354,-19.0521709994162,0.0 -42.089918,-19.0524679994162,0.0 -42.089482,-19.0526729994162,0.0 -42.089046,-19.0528319994162,0.0 -42.088634,-19.0530589994162,0.0 -42.08827,-19.0533339994162,0.0 -42.087834,-19.0536759994162,0.0 -42.08747,-19.0539499994162,0.0 -42.087082,-19.0542239994162,0.0 -42.08667,-19.0544749994162,0.0 -42.086113,-19.0547479994161,0.0 -42.085701,-19.0549529994161,0.0 -42.08524,-19.0552039994161,0.0 -42.084805,-19.0553629994161,0.0 -42.08432,-19.0555669994161,0.0 -42.08386,-19.0557719994161,0.0 -42.083448,-19.0559999994161,0.0 -42.083012,-19.0562049994161,0.0 -42.082552,-19.0564089994161,0.0 -42.081995,-19.0566599994161,0.0 -42.081438,-19.0569559994161,0.0 -42.081025,-19.0572069994161,0.0 -42.080614,-19.0574119994161,0.0 -42.080178,-19.0575929994161,0.0 -42.079717,-19.0578209994161,0.0 -42.079306,-19.0580259994161,0.0 -42.078845,-19.0582999994161,0.0 -42.078312,-19.058595999416,0.0 -42.077876,-19.058823999416,0.0 -42.077488,-19.059074999416,0.0 -42.077076,-19.059324999416,0.0 -42.076639,-19.059575999416,0.0 -42.07613,-19.059940999416,0.0 -42.075718,-19.060168999416,0.0 -42.075282,-19.060465999416,0.0 -42.074554,-19.061013999416,0.0 -42.074093,-19.061379999416,0.0 -42.073607,-19.061767999416,0.0 -42.073268,-19.062064999416,0.0 -42.072879,-19.062361999416,0.0 -42.072515,-19.0626819994159,0.0 -42.072199,-19.0630019994159,0.0 -42.071883,-19.0633909994159,0.0 -42.071591,-19.0638719994159,0.0 -42.071347,-19.0643309994159,0.0 -42.071079,-19.0646969994159,0.0 -42.070811,-19.0652019994159,0.0 -42.070639,-19.0656369994159,0.0 -42.070419,-19.0661649994159,0.0 -42.07032,-19.0666009994158,0.0 -42.070318,-19.0670829994158,0.0 -42.070388,-19.0675659994158,0.0 -42.07041,-19.0680029994158,0.0 -42.07048,-19.0684629994158,0.0 -42.07055,-19.0688999994158,0.0 -42.070692,-19.0694519994158,0.0 -42.070786,-19.0699349994158,0.0 -42.070808,-19.0704409994157,0.0 -42.07066,-19.0708989994157,0.0 -42.070296,-19.0712419994157,0.0 -42.069908,-19.0715159994157,0.0 -42.069424,-19.0715829994157,0.0 -42.067926,-19.0715759994157,0.0 -42.067467,-19.0714819994157,0.0 -42.067008,-19.0714339994157,0.0 -42.06585,-19.0711529994157,0.0 -42.065392,-19.0709899994157,0.0 -42.064933,-19.0708499994157,0.0 -42.064499,-19.0706639994157,0.0 -42.064114,-19.0704089994157,0.0 -42.063704,-19.0701539994157,0.0 -42.063591,-19.0700799994157,0.0 -42.063295,-19.0698769994158,0.0 -42.062958,-19.0695309994158,0.0 -42.062694,-19.0691619994158,0.0 -42.062382,-19.0687699994158,0.0 -42.062094,-19.0683779994158,0.0 -42.061855,-19.0679399994158,0.0 -42.06164,-19.0674789994158,0.0 -42.061521,-19.0670189994158,0.0 -42.06133,-19.0666049994158,0.0 -42.061139,-19.0661669994158,0.0 -42.060972,-19.0657299994159,0.0 -42.060806,-19.0652689994159,0.0 -42.060687,-19.0648089994159,0.0 -42.06052,-19.0643949994159,0.0 -42.060257,-19.0639569994159,0.0 -42.060017,-19.0635419994159,0.0 -42.059826,-19.0631279994159,0.0 -42.059587,-19.0626669994159,0.0 -42.059372,-19.062160999416,0.0 -42.059205,-19.061699999416,0.0 -42.059039,-19.061216999416,0.0 -42.05892,-19.060779999416,0.0 -42.058826,-19.060342999416,0.0 -42.058586,-19.059881999416,0.0 -42.058324,-19.059282999416,0.0 -42.058084,-19.058845999416,0.0 -42.057869,-19.058384999416,0.0 -42.057654,-19.0578789994161,0.0 -42.057367,-19.0573029994161,0.0 -42.057152,-19.0568419994161,0.0 -42.056914,-19.0562899994161,0.0 -42.056747,-19.0557829994161,0.0 -42.056605,-19.0552769994161,0.0 -42.056438,-19.0548629994161,0.0 -42.056344,-19.0544259994162,0.0 -42.056274,-19.0539199994162,0.0 -42.056204,-19.0533449994162,0.0 -42.056207,-19.0527939994162,0.0 -42.056186,-19.0521499994162,0.0 -42.056192,-19.0510699994162,0.0 -42.056171,-19.0504959994163,0.0 -42.056176,-19.0494849994163,0.0 -42.056155,-19.0489789994163,0.0 -42.056109,-19.0484499994163,0.0 -42.056039,-19.0479679994163,0.0 -42.055824,-19.0474149994163,0.0 -42.055682,-19.0469779994163,0.0 -42.055419,-19.0464479994164,0.0 -42.055083,-19.0460329994164,0.0 -42.054819,-19.0456179994164,0.0 -42.054434,-19.0452489994164,0.0 -42.054098,-19.0448559994164,0.0 -42.053807,-19.0445039994164,0.0 -42.053737,-19.0446249994164,0.0 -42.053468,-19.0451519994164,0.0 -42.053224,-19.0456109994164,0.0 -42.052836,-19.0459529994164,0.0 -42.052496,-19.0462729994164,0.0 -42.052204,-19.0466169994164,0.0 -42.051912,-19.0469829994163,0.0 -42.051645,-19.0473489994163,0.0 -42.051208,-19.0476459994163,0.0 -42.05082,-19.0478969994163,0.0 -42.050408,-19.0481479994163,0.0 -42.049947,-19.0484669994163,0.0 -42.049559,-19.0487639994163,0.0 -42.049171,-19.0490149994163,0.0 -42.048855,-19.0493579994163,0.0 -42.048515,-19.0496779994163,0.0 -42.048151,-19.0499519994163,0.0 -42.047739,-19.0502489994163,0.0 -42.047279,-19.0504759994163,0.0 -42.046625,-19.0507949994163,0.0 -42.046019,-19.0510449994162,0.0 -42.045607,-19.0512499994162,0.0 -42.045098,-19.0515919994162,0.0 -42.044614,-19.0518189994162,0.0 -42.044154,-19.0519089994162,0.0 -42.043694,-19.0520219994162,0.0 -42.043186,-19.0521109994162,0.0 -42.042582,-19.0522459994162,0.0 -42.042049,-19.0524269994162,0.0 -42.041517,-19.0525629994162,0.0 -42.040912,-19.0527439994162,0.0 -42.040403,-19.0528789994162,0.0 -42.039919,-19.0530369994162,0.0 -42.039411,-19.0531959994162,0.0 -42.038975,-19.0533549994162,0.0 -42.038515,-19.0535129994162,0.0 -42.038079,-19.0536949994162,0.0 -42.037596,-19.0537849994162,0.0 -42.037112,-19.0537819994162,0.0 -42.036629,-19.0538029994162,0.0 -42.036001,-19.0538229994162,0.0 -42.034913,-19.0538169994162,0.0 -42.034164,-19.0539059994162,0.0 -42.033197,-19.0539929994162,0.0 -42.032737,-19.0541059994162,0.0 -42.032253,-19.0541489994162,0.0 -42.031503,-19.0543289994162,0.0 -42.031044,-19.0543959994162,0.0 -42.030439,-19.0545999994161,0.0 -42.029978,-19.0548269994161,0.0 -42.029566,-19.0551009994161,0.0 -42.02913,-19.0553749994161,0.0 -42.028717,-19.0556479994161,0.0 -42.028329,-19.0558989994161,0.0 -42.027893,-19.0561729994161,0.0 -42.027481,-19.0563779994161,0.0 -42.027069,-19.0566739994161,0.0 -42.026705,-19.0569479994161,0.0 -42.02634,-19.0572909994161,0.0 -42.025975,-19.0577719994161,0.0 -42.025756,-19.0581609994161,0.0 -42.025464,-19.058527999416,0.0 -42.025147,-19.059054999416,0.0 -42.024951,-19.059535999416,0.0 -42.024852,-19.059971999416,0.0 -42.024777,-19.060430999416,0.0 -42.024726,-19.060890999416,0.0 -42.024651,-19.061349999416,0.0 -42.024502,-19.062037999416,0.0 -42.024452,-19.0624749994159,0.0 -42.024352,-19.0629569994159,0.0 -42.024277,-19.0635079994159,0.0 -42.024153,-19.0641049994159,0.0 -42.024029,-19.0646099994159,0.0 -42.023978,-19.0650689994159,0.0 -42.023731,-19.0660329994158,0.0 -42.023632,-19.0665149994158,0.0 -42.023581,-19.0669739994158,0.0 -42.023458,-19.0674559994158,0.0 -42.023407,-19.0679379994158,0.0 -42.02338,-19.0684209994158,0.0 -42.023378,-19.0689029994158,0.0 -42.023327,-19.0693389994158,0.0 -42.023373,-19.0697759994158,0.0 -42.0237018,-19.0699624994157,0.0 -42.023782,-19.0700079994158,0.0 -42.02441,-19.0700339994157,0.0 -42.024918,-19.0700359994158,0.0 -42.025401,-19.0701079994158,0.0 -42.02586,-19.0701789994157,0.0 -42.026342,-19.0702959994157,0.0 -42.026776,-19.0704819994157,0.0 -42.027234,-19.0706679994157,0.0 -42.02762,-19.0709459994157,0.0 -42.028054,-19.0711089994157,0.0 -42.028463,-19.0713639994157,0.0 -42.028824,-19.0716409994157,0.0 -42.029233,-19.0719189994157,0.0 -42.02957,-19.0722419994157,0.0 -42.029713,-19.0726789994157,0.0 -42.029928,-19.0730709994157,0.0 -42.030143,-19.0735089994157,0.0 -42.030334,-19.0739229994157,0.0 -42.030428,-19.0743829994156,0.0 -42.030522,-19.0748659994156,0.0 -42.030593,-19.0753029994156,0.0 -42.030614,-19.0757629994156,0.0 -42.030563,-19.0762219994156,0.0 -42.030464,-19.0766809994156,0.0 -42.030365,-19.0771629994156,0.0 -42.030193,-19.0776679994155,0.0 -42.030046,-19.0781039994155,0.0 -42.029947,-19.0785399994155,0.0 -42.029847,-19.0790679994155,0.0 -42.029796,-19.0795499994155,0.0 -42.029939,-19.0800099994155,0.0 -42.030227,-19.0803559994155,0.0 -42.030636,-19.0806339994155,0.0 -42.031119,-19.0807969994155,0.0 -42.031626,-19.0808919994155,0.0 -42.032035,-19.0811459994155,0.0 -42.032396,-19.0815159994155,0.0 -42.032708,-19.0818849994154,0.0 -42.033068,-19.0822769994154,0.0 -42.033501,-19.0827389994154,0.0 -42.033861,-19.0831539994154,0.0 -42.034173,-19.0835239994154,0.0 -42.034486,-19.0838699994154,0.0 -42.03487,-19.0842159994154,0.0 -42.035207,-19.0846089994154,0.0 -42.03547,-19.0849769994154,0.0 -42.035783,-19.0853469994154,0.0 -42.036046,-19.0857389994153,0.0 -42.036335,-19.0860849994153,0.0 -42.036623,-19.0864539994153,0.0 -42.036862,-19.0868449994153,0.0 -42.037102,-19.0872599994153,0.0 -42.037075,-19.0876969994153,0.0 -42.037145,-19.0881569994153,0.0 -42.03736,-19.0886169994153,0.0 -42.03743,-19.0890769994153,0.0 -42.037428,-19.0895369994152,0.0 -42.037474,-19.0899729994152,0.0 -42.037471,-19.0905019994152,0.0 -42.037492,-19.0910069994152,0.0 -42.037514,-19.0914669994152,0.0 -42.037535,-19.0920189994152,0.0 -42.03782,-19.0929849994152,0.0 -42.038157,-19.0932849994152,0.0 -42.038566,-19.0935399994151,0.0 -42.039049,-19.0937489994151,0.0 -42.039434,-19.0940039994151,0.0 -42.039746,-19.0943269994151,0.0 -42.040058,-19.0947189994151,0.0 -42.040492,-19.0949969994151,0.0 -42.04095,-19.0951829994151,0.0 -42.041432,-19.0954839994151,0.0 -42.041865,-19.0957849994151,0.0 -42.042251,-19.0960629994151,0.0 -42.042563,-19.0964089994151,0.0 -42.042924,-19.0967089994151,0.0 -42.043334,-19.0969409994151,0.0 -42.043694,-19.097309999415,0.0 -42.044031,-19.097633999415,0.0 -42.044367,-19.097979999415,0.0 -42.04468,-19.098302999415,0.0 -42.045016,-19.098717999415,0.0 -42.045231,-19.099109999415,0.0 -42.04535,-19.099592999415,0.0 -42.045517,-19.100030999415,0.0 -42.045708,-19.100444999415,0.0 -42.045947,-19.100836999415,0.0 -42.046235,-19.1012059994149,0.0 -42.046548,-19.1015519994149,0.0 -42.046812,-19.1019209994149,0.0 -42.046882,-19.1024039994149,0.0 -42.046903,-19.1028629994149,0.0 -42.046877,-19.1033459994149,0.0 -42.046657,-19.1038039994149,0.0 -42.046437,-19.1041939994149,0.0 -42.046121,-19.1045599994149,0.0 -42.045636,-19.1048789994148,0.0 -42.044811,-19.1053349994148,0.0 -42.044375,-19.1056539994148,0.0 -42.043914,-19.1058819994148,0.0 -42.043502,-19.1061099994148,0.0 -42.042945,-19.1063139994148,0.0 -42.042509,-19.1064959994148,0.0 -42.042193,-19.1068159994148,0.0 -42.041876,-19.1072279994148,0.0 -42.041656,-19.1076859994148,0.0 -42.041533,-19.1081449994148,0.0 -42.041434,-19.1086499994147,0.0 -42.041335,-19.1090859994147,0.0 -42.041235,-19.1096139994147,0.0 -42.041039,-19.1101189994147,0.0 -42.040868,-19.1105319994147,0.0 -42.040526,-19.1110579994147,0.0 -42.039992,-19.1114689994147,0.0 -42.039508,-19.1116049994147,0.0 -42.038879,-19.1116939994147,0.0 -42.038395,-19.1118519994147,0.0 -42.037766,-19.1120099994147,0.0 -42.037161,-19.1120989994147,0.0 -42.036748,-19.1123959994147,0.0 -42.035971,-19.1131269994146,0.0 -42.035655,-19.1134469994146,0.0 -42.035267,-19.1137209994146,0.0 -42.034805,-19.1140639994146,0.0 -42.034345,-19.1142909994146,0.0 -42.033836,-19.1144489994146,0.0 -42.033255,-19.1146529994146,0.0 -42.032771,-19.1148349994146,0.0 -42.0327,-19.1148949994146,0.0 -42.032382,-19.1151769994146,0.0 -42.032211,-19.1156129994146,0.0 -42.03245,-19.1160969994146,0.0 -42.032786,-19.1164429994146,0.0 -42.033147,-19.1167899994145,0.0 -42.033532,-19.1171129994145,0.0 -42.034014,-19.1174139994145,0.0 -42.034424,-19.1176229994145,0.0 -42.034858,-19.1178089994145,0.0 -42.035219,-19.1181099994145,0.0 -42.035726,-19.1181349994145,0.0 -42.036257,-19.1183209994145,0.0 -42.036691,-19.1184839994145,0.0 -42.03715,-19.1186249994145,0.0 -42.037608,-19.1188339994145,0.0 -42.038065,-19.1191339994145,0.0 -42.038402,-19.1194579994145,0.0 -42.038666,-19.1198959994145,0.0 -42.038905,-19.1203099994144,0.0 -42.039048,-19.1207479994144,0.0 -42.039239,-19.1212079994144,0.0 -42.039406,-19.1216459994144,0.0 -42.039573,-19.1220599994144,0.0 -42.039764,-19.1225199994144,0.0 -42.03993,-19.1230729994144,0.0 -42.039975,-19.1235549994144,0.0 -42.039973,-19.1240379994144,0.0 -42.039946,-19.1245199994143,0.0 -42.039992,-19.1250259994143,0.0 -42.040134,-19.1255089994143,0.0 -42.040325,-19.1259929994143,0.0 -42.040539,-19.1265449994143,0.0 -42.04073,-19.1270059994143,0.0 -42.04097,-19.1273979994143,0.0 -42.041354,-19.1278359994143,0.0 -42.041691,-19.1281589994142,0.0 -42.042222,-19.1283229994142,0.0 -42.042777,-19.1285779994142,0.0 -42.043211,-19.1287409994142,0.0 -42.043669,-19.1289039994142,0.0 -42.044079,-19.1291129994142,0.0 -42.044489,-19.1293909994142,0.0 -42.044826,-19.1296909994142,0.0 -42.045162,-19.1300829994142,0.0 -42.04545,-19.1304519994142,0.0 -42.045665,-19.1308899994142,0.0 -42.045929,-19.1313739994142,0.0 -42.046144,-19.1318339994142,0.0 -42.046383,-19.1322489994141,0.0 -42.046598,-19.1327789994141,0.0 -42.046668,-19.1332159994141,0.0 -42.046835,-19.1336989994141,0.0 -42.046953,-19.1341589994141,0.0 -42.047048,-19.1345959994141,0.0 -42.047173,-19.1350539994141,0.0 -42.047235,-19.1356309994141,0.0 -42.047305,-19.136159999414,0.0 -42.047399,-19.136642999414,0.0 -42.047493,-19.137102999414,0.0 -42.047587,-19.137608999414,0.0 -42.047682,-19.138045999414,0.0 -42.047752,-19.138482999414,0.0 -42.047747,-19.139424999414,0.0 -42.047792,-19.1399529994139,0.0 -42.047935,-19.1404369994139,0.0 -42.048247,-19.1408979994139,0.0 -42.048705,-19.1411529994139,0.0 -42.049284,-19.1413159994139,0.0 -42.049791,-19.1415259994139,0.0 -42.050297,-19.1416889994139,0.0 -42.050804,-19.1419669994139,0.0 -42.051238,-19.1421529994139,0.0 -42.051696,-19.1423619994139,0.0 -42.052178,-19.1427319994139,0.0 -42.052515,-19.1430319994139,0.0 -42.052803,-19.1433779994139,0.0 -42.053091,-19.1437699994138,0.0 -42.053306,-19.1441619994138,0.0 -42.053497,-19.1446229994138,0.0 -42.053615,-19.1451749994138,0.0 -42.053782,-19.1456809994138,0.0 -42.053803,-19.1461629994138,0.0 -42.053753,-19.1465999994138,0.0 -42.053702,-19.1471049994138,0.0 -42.053627,-19.1475409994137,0.0 -42.053624,-19.1480469994137,0.0 -42.053573,-19.1484829994137,0.0 -42.053546,-19.1490799994137,0.0 -42.05352,-19.1495169994137,0.0 -42.053517,-19.1500219994137,0.0 -42.05349,-19.1505049994137,0.0 -42.053536,-19.1509419994137,0.0 -42.053582,-19.1514699994136,0.0 -42.053627,-19.1520449994136,0.0 -42.053744,-19.1526889994136,0.0 -42.053887,-19.1531719994136,0.0 -42.05403,-19.1536089994136,0.0 -42.054245,-19.1540239994136,0.0 -42.054436,-19.1544379994136,0.0 -42.054675,-19.1549219994136,0.0 -42.054818,-19.1553589994135,0.0 -42.055009,-19.1558429994135,0.0 -42.055152,-19.1562799994135,0.0 -42.055319,-19.1567169994135,0.0 -42.055461,-19.1572009994135,0.0 -42.055555,-19.1576379994135,0.0 -42.055698,-19.1581209994135,0.0 -42.055889,-19.1585349994135,0.0 -42.056153,-19.1589729994135,0.0 -42.056514,-19.1593199994134,0.0 -42.056947,-19.1596209994134,0.0 -42.057453,-19.1599449994134,0.0 -42.057911,-19.1602459994134,0.0 -42.058297,-19.1604999994134,0.0 -42.058706,-19.1607319994134,0.0 -42.059189,-19.1609409994134,0.0 -42.059744,-19.1611729994134,0.0 -42.06025,-19.1614059994134,0.0 -42.060781,-19.1616609994134,0.0 -42.061288,-19.1618929994134,0.0 -42.061867,-19.1621029994134,0.0 -42.062446,-19.1622889994134,0.0 -42.062904,-19.1624979994134,0.0 -42.063556,-19.1626619994134,0.0 -42.064039,-19.1628029994133,0.0 -42.064522,-19.1628739994133,0.0 -42.065005,-19.1629909994133,0.0 -42.065464,-19.1631309994133,0.0 -42.065972,-19.1631329994133,0.0 -42.066576,-19.1631589994133,0.0 -42.067132,-19.1632309994133,0.0 -42.068051,-19.1632809994133,0.0 -42.068582,-19.1633529994133,0.0 -42.069138,-19.1634239994133,0.0 -42.069645,-19.1635189994133,0.0 -42.070129,-19.1635899994133,0.0 -42.070636,-19.1636379994133,0.0 -42.071143,-19.1637099994133,0.0 -42.071603,-19.1637809994133,0.0 -42.072182,-19.1639899994133,0.0 -42.072665,-19.1641299994133,0.0 -42.072946,-19.1642652994133,0.0 -42.073099,-19.1643389994133,0.0 -42.073509,-19.1645479994133,0.0 -42.073992,-19.1646879994133,0.0 -42.074474,-19.1648739994133,0.0 -42.074982,-19.1649679994133,0.0 -42.075441,-19.1650629994133,0.0 -42.075972,-19.1651339994133,0.0 -42.076431,-19.1652049994133,0.0 -42.076939,-19.1652079994133,0.0 -42.077422,-19.1653019994133,0.0 -42.077881,-19.1654419994133,0.0 -42.078315,-19.1656049994133,0.0 -42.078701,-19.1658589994133,0.0 -42.079038,-19.1662049994133,0.0 -42.079253,-19.1666429994133,0.0 -42.079492,-19.1672189994132,0.0 -42.079586,-19.1676789994132,0.0 -42.079656,-19.1681159994132,0.0 -42.079823,-19.1685529994132,0.0 -42.080087,-19.1689909994132,0.0 -42.080303,-19.1693819994132,0.0 -42.08047,-19.1697969994132,0.0 -42.080733,-19.1703259994132,0.0 -42.080973,-19.1707409994131,0.0 -42.0811302,-19.1710948994131,0.0 -42.081188,-19.1712249994131,0.0 -42.081403,-19.1717309994131,0.0 -42.081569,-19.1722609994131,0.0 -42.081664,-19.1727209994131,0.0 -42.081685,-19.1731799994131,0.0 -42.081731,-19.1736629994131,0.0 -42.0817875,-19.1741082994131,0.0 -42.081801,-19.1742149994131,0.0 -42.081796,-19.175156999413,0.0 -42.081818,-19.175593999413,0.0 -42.081888,-19.176029999413,0.0 -42.081983,-19.176466999413,0.0 -42.082125,-19.176927999413,0.0 -42.082389,-19.177296999413,0.0 -42.082847,-19.177711999413,0.0 -42.083329,-19.178058999413,0.0 -42.083738,-19.1783369994129,0.0 -42.084172,-19.1785919994129,0.0 -42.084655,-19.1787319994129,0.0 -42.085114,-19.1788489994129,0.0 -42.085621,-19.1789429994129,0.0 -42.086105,-19.1789909994129,0.0 -42.086685,-19.1790169994129,0.0 -42.087193,-19.1790189994129,0.0 -42.087773,-19.1790449994129,0.0 -42.088305,-19.1790479994129,0.0 -42.088789,-19.1789579994129,0.0 -42.089249,-19.1788219994129,0.0 -42.089686,-19.1786169994129,0.0 -42.090122,-19.1784589994129,0.0 -42.09109,-19.1782329994129,0.0 -42.091671,-19.178235999413,0.0 -42.09213,-19.178283999413,0.0 -42.09259,-19.178262999413,0.0 -42.093146,-19.178150999413,0.0 -42.093703,-19.178015999413,0.0 -42.094284,-19.177903999413,0.0 -42.094744,-19.177836999413,0.0 -42.095252,-19.177838999413,0.0 -42.095735,-19.177863999413,0.0 -42.096387,-19.178050999413,0.0 -42.096822,-19.178213999413,0.0 -42.09728,-19.1784229994129,0.0 -42.097617,-19.1787459994129,0.0 -42.097808,-19.1791839994129,0.0 -42.098023,-19.1796899994129,0.0 -42.098118,-19.1801729994129,0.0 -42.098309,-19.1805879994129,0.0 -42.098525,-19.1809789994129,0.0 -42.09891,-19.1813259994129,0.0 -42.099271,-19.1816029994129,0.0 -42.099681,-19.1818809994129,0.0 -42.100115,-19.1822039994129,0.0 -42.100597,-19.1824819994128,0.0 -42.101055,-19.1827369994128,0.0 -42.101489,-19.1829919994128,0.0 -42.101947,-19.1832239994128,0.0 -42.102406,-19.1833869994128,0.0 -42.102865,-19.1835269994128,0.0 -42.103348,-19.1837129994128,0.0 -42.103903,-19.1838759994128,0.0 -42.104483,-19.1840169994128,0.0 -42.105038,-19.1842029994128,0.0 -42.105496,-19.1844119994128,0.0 -42.105979,-19.1845749994128,0.0 -42.106511,-19.1846919994128,0.0 -42.10697,-19.1847859994128,0.0 -42.107429,-19.1849259994128,0.0 -42.10796,-19.1850209994128,0.0 -42.108419,-19.1850919994128,0.0 -42.108878,-19.1852319994128,0.0 -42.109385,-19.1854639994128,0.0 -42.109892,-19.1856499994128,0.0 -42.110326,-19.1858589994128,0.0 -42.110809,-19.1860449994128,0.0 -42.111243,-19.1863219994127,0.0 -42.111628,-19.1865769994127,0.0 -42.112038,-19.1868779994127,0.0 -42.112375,-19.1871779994127,0.0 -42.112784,-19.1875239994127,0.0 -42.113194,-19.1878479994127,0.0 -42.113604,-19.1880799994127,0.0 -42.114038,-19.1883799994127,0.0 -42.114399,-19.1887039994127,0.0 -42.114687,-19.1890499994127,0.0 -42.115024,-19.1894419994127,0.0 -42.115385,-19.1897879994127,0.0 -42.115426,-19.1898189994127,0.0 -42.115337,-19.1896269994127,0.0 -42.11517,-19.1891669994127,0.0 -42.114906,-19.1887979994127,0.0 -42.11462,-19.1879229994127,0.0 -42.114405,-19.1875319994127,0.0 -42.114165,-19.1871399994127,0.0 -42.113853,-19.1867019994127,0.0 -42.113588,-19.1863329994127,0.0 -42.1133,-19.1858949994128,0.0 -42.112964,-19.1854339994128,0.0 -42.112749,-19.1850189994128,0.0 -42.112436,-19.1845809994128,0.0 -42.112197,-19.1841439994128,0.0 -42.111981,-19.1836829994128,0.0 -42.111863,-19.1831769994128,0.0 -42.111817,-19.1827169994128,0.0 -42.111771,-19.1822349994128,0.0 -42.111769,-19.1820059994129,0.0 -42.111773,-19.1817749994129,0.0 -42.1118,-19.1813159994129,0.0 -42.111805,-19.1803049994129,0.0 -42.111856,-19.1797069994129,0.0 -42.111883,-19.1792709994129,0.0 -42.111958,-19.1787889994129,0.0 -42.112081,-19.178329999413,0.0 -42.112228,-19.177824999413,0.0 -42.1124,-19.177296999413,0.0 -42.112669,-19.176792999413,0.0 -42.112913,-19.176356999413,0.0 -42.113229,-19.175967999413,0.0 -42.113666,-19.175624999413,0.0 -42.114103,-19.175305999413,0.0 -42.114516,-19.174962999413,0.0 -42.114904,-19.174665999413,0.0 -42.115245,-19.1743459994131,0.0 -42.115416,-19.1739329994131,0.0 -42.115612,-19.1734279994131,0.0 -42.115711,-19.1728999994131,0.0 -42.115714,-19.1724179994131,0.0 -42.115525,-19.1714979994131,0.0 -42.115286,-19.1709679994131,0.0 -42.114951,-19.1701389994132,0.0 -42.114784,-19.1696559994132,0.0 -42.114641,-19.1692189994132,0.0 -42.114523,-19.1687589994132,0.0 -42.114428,-19.1683219994132,0.0 -42.114382,-19.1678849994132,0.0 -42.11439,-19.1663449994133,0.0 -42.114465,-19.1658859994133,0.0 -42.114467,-19.1653809994133,0.0 -42.114518,-19.1648519994133,0.0 -42.114691,-19.1642329994133,0.0 -42.114789,-19.1637969994133,0.0 -42.114817,-19.1631759994133,0.0 -42.114867,-19.1627399994134,0.0 -42.114966,-19.1623039994134,0.0 -42.11509,-19.1617759994134,0.0 -42.115189,-19.1613399994134,0.0 -42.115215,-19.1608109994134,0.0 -42.115218,-19.1602599994134,0.0 -42.115172,-19.1597769994134,0.0 -42.115078,-19.1593169994134,0.0 -42.114959,-19.1588569994135,0.0 -42.114865,-19.1583509994135,0.0 -42.114819,-19.1578679994135,0.0 -42.114773,-19.1573619994135,0.0 -42.114679,-19.1569249994135,0.0 -42.114393,-19.1560509994135,0.0 -42.114105,-19.1555669994135,0.0 -42.113841,-19.1551519994136,0.0 -42.113457,-19.1545759994136,0.0 -42.113242,-19.1541839994136,0.0 -42.112906,-19.1536539994136,0.0 -42.112593,-19.1532389994136,0.0 -42.112281,-19.1528469994136,0.0 -42.111968,-19.1525009994136,0.0 -42.11168,-19.1521319994136,0.0 -42.111296,-19.1516709994136,0.0 -42.110959,-19.1512329994137,0.0 -42.110671,-19.1508179994137,0.0 -42.110335,-19.1502649994137,0.0 -42.110023,-19.1498039994137,0.0 -42.109735,-19.1494119994137,0.0 -42.109327,-19.1489279994137,0.0 -42.10899,-19.1485589994137,0.0 -42.108629,-19.1481659994137,0.0 -42.108341,-19.1477969994137,0.0 -42.108029,-19.1473359994137,0.0 -42.107886,-19.1468299994138,0.0 -42.108034,-19.1463709994138,0.0 -42.108374,-19.1460739994138,0.0 -42.108786,-19.1457539994138,0.0 -42.109151,-19.1454569994138,0.0 -42.109659,-19.1452529994138,0.0 -42.110192,-19.1451629994138,0.0 -42.110676,-19.1450269994138,0.0 -42.111233,-19.1448459994138,0.0 -42.111693,-19.1446869994138,0.0 -42.112226,-19.1445519994138,0.0 -42.112758,-19.1444619994138,0.0 -42.113242,-19.1443269994138,0.0 -42.113655,-19.1440529994138,0.0 -42.113995,-19.1437329994138,0.0 -42.114311,-19.1433889994139,0.0 -42.114603,-19.1430229994139,0.0 -42.11475,-19.1425869994139,0.0 -42.114873,-19.1421279994139,0.0 -42.115069,-19.1415769994139,0.0 -42.115289,-19.1411189994139,0.0 -42.115825,-19.1402939994139,0.0 -42.116117,-19.1399279994139,0.0 -42.116433,-19.139537999414,0.0 -42.116702,-19.139079999414,0.0 -42.117018,-19.138713999414,0.0 -42.117407,-19.138324999414,0.0 -42.117795,-19.138073999414,0.0 -42.118255,-19.137914999414,0.0 -42.118763,-19.137824999414,0.0 -42.119899,-19.137830999414,0.0 -42.120358,-19.137901999414,0.0 -42.120866,-19.137949999414,0.0 -42.121349,-19.137951999414,0.0 -42.121881,-19.138091999414,0.0 -42.122363,-19.138323999414,0.0 -42.122797,-19.138555999414,0.0 -42.123256,-19.138695999414,0.0 -42.124271,-19.138745999414,0.0 -42.124802,-19.138839999414,0.0 -42.125406,-19.139003999414,0.0 -42.125914,-19.138959999414,0.0 -42.126374,-19.138846999414,0.0 -42.126858,-19.138688999414,0.0 -42.127222,-19.138414999414,0.0 -42.127539,-19.138024999414,0.0 -42.127831,-19.137612999414,0.0 -42.12805,-19.137199999414,0.0 -42.128246,-19.136718999414,0.0 -42.128345,-19.136259999414,0.0 -42.128396,-19.1356619994141,0.0 -42.128519,-19.1352029994141,0.0 -42.128643,-19.1346979994141,0.0 -42.128742,-19.1342389994141,0.0 -42.128913,-19.1338259994141,0.0 -42.129157,-19.1334139994141,0.0 -42.129352,-19.1329779994141,0.0 -42.129596,-19.1325649994141,0.0 -42.129912,-19.1322449994141,0.0 -42.1303,-19.1319939994141,0.0 -42.130785,-19.1317429994142,0.0 -42.131221,-19.1315839994142,0.0 -42.131704,-19.1315639994142,0.0 -42.132261,-19.1315429994142,0.0 -42.132769,-19.1314529994142,0.0 -42.133228,-19.1314319994142,0.0 -42.133688,-19.1313879994142,0.0 -42.134147,-19.1314589994142,0.0 -42.134586,-19.1314459994142,0.0 -42.135089,-19.1314869994142,0.0 -42.135645,-19.1316039994142,0.0 -42.136079,-19.1318129994142,0.0 -42.136562,-19.1320209994142,0.0 -42.137864,-19.1327169994141,0.0 -42.13837,-19.1330169994141,0.0 -42.138902,-19.1331349994141,0.0 -42.139409,-19.1332519994141,0.0 -42.139868,-19.1333459994141,0.0 -42.140277,-19.1335999994141,0.0 -42.140951,-19.1342469994141,0.0 -42.141215,-19.1346609994141,0.0 -42.14167,-19.1355369994141,0.0 -42.141958,-19.136065999414,0.0 -42.142173,-19.136503999414,0.0 -42.142437,-19.136941999414,0.0 -42.142604,-19.137424999414,0.0 -42.142796,-19.137838999414,0.0 -42.143011,-19.138230999414,0.0 -42.143251,-19.138645999414,0.0 -42.143491,-19.139128999414,0.0 -42.143803,-19.139612999414,0.0 -42.144091,-19.1399819994139,0.0 -42.144404,-19.1403509994139,0.0 -42.144789,-19.1406049994139,0.0 -42.14532,-19.1407459994139,0.0 -42.145851,-19.1409319994139,0.0 -42.146286,-19.1411629994139,0.0 -42.146695,-19.1414179994139,0.0 -42.147272,-19.1421099994139,0.0 -42.147609,-19.1424559994139,0.0 -42.148092,-19.1426879994139,0.0 -42.148575,-19.1428509994139,0.0 -42.149082,-19.1429909994139,0.0 -42.149614,-19.1429469994139,0.0 -42.15005,-19.1427189994139,0.0 -42.150414,-19.1424449994139,0.0 -42.150682,-19.1420789994139,0.0 -42.150998,-19.1416429994139,0.0 -42.15129,-19.1411849994139,0.0 -42.151583,-19.1407499994139,0.0 -42.15185,-19.1403599994139,0.0 -42.152191,-19.1399249994139,0.0 -42.152507,-19.1395589994139,0.0 -42.152871,-19.139215999414,0.0 -42.153235,-19.138917999414,0.0 -42.153696,-19.138644999414,0.0 -42.154108,-19.138439999414,0.0 -42.154568,-19.138303999414,0.0 -42.155053,-19.138144999414,0.0 -42.155537,-19.137870999414,0.0 -42.155926,-19.137573999414,0.0 -42.156121,-19.137114999414,0.0 -42.156148,-19.136655999414,0.0 -42.15615,-19.136172999414,0.0 -42.156104,-19.135712999414,0.0 -42.156033,-19.1352309994141,0.0 -42.155987,-19.1347939994141,0.0 -42.155992,-19.1337829994141,0.0 -42.156018,-19.1332769994141,0.0 -42.156166,-19.1327949994141,0.0 -42.156385,-19.1324059994141,0.0 -42.156581,-19.1319929994142,0.0 -42.156873,-19.1315349994142,0.0 -42.157213,-19.1312369994142,0.0 -42.157649,-19.1310319994142,0.0 -42.158085,-19.1307809994142,0.0 -42.158473,-19.1305299994142,0.0 -42.158837,-19.1302329994142,0.0 -42.159129,-19.1298899994142,0.0 -42.159445,-19.1294769994142,0.0 -42.159713,-19.1290879994142,0.0 -42.160029,-19.1286519994142,0.0 -42.160709,-19.1280579994142,0.0 -42.161169,-19.1278529994143,0.0 -42.161629,-19.1277169994143,0.0 -42.16209,-19.1275579994143,0.0 -42.162598,-19.1273989994143,0.0 -42.163082,-19.1272409994143,0.0 -42.16359,-19.1271509994143,0.0 -42.164098,-19.1270839994143,0.0 -42.164703,-19.1269949994143,0.0 -42.165163,-19.1269509994143,0.0 -42.166131,-19.1267249994143,0.0 -42.166664,-19.1265199994143,0.0 -42.167172,-19.1263849994143,0.0 -42.167705,-19.1261569994143,0.0 -42.168142,-19.1258139994143,0.0 -42.168434,-19.1254709994143,0.0 -42.168749,-19.1251499994143,0.0 -42.169162,-19.1248069994143,0.0 -42.169622,-19.1246939994143,0.0 -42.170106,-19.1245819994143,0.0 -42.170711,-19.1243309994144,0.0 -42.1711,-19.1240109994143,0.0 -42.171488,-19.1237599994144,0.0 -42.171997,-19.1234629994144,0.0 -42.172409,-19.1231659994144,0.0 -42.17287,-19.1228009994144,0.0 -42.173259,-19.1224579994144,0.0 -42.173623,-19.1221829994144,0.0 -42.174059,-19.1219089994144,0.0 -42.174495,-19.1217039994144,0.0 -42.174931,-19.1215449994144,0.0 -42.175512,-19.1214099994144,0.0 -42.175948,-19.1212509994144,0.0 -42.176408,-19.1211379994144,0.0 -42.176868,-19.1210019994144,0.0 -42.1774,-19.1208659994144,0.0 -42.177787,-19.1207759994144,0.0 -42.177715,-19.1206609994144,0.0 -42.177331,-19.1201529994145,0.0 -42.177067,-19.1197849994145,0.0 -42.176778,-19.1194389994145,0.0 -42.176465,-19.1190699994145,0.0 -42.175791,-19.1184699994145,0.0 -42.175551,-19.1180549994145,0.0 -42.175311,-19.1176629994145,0.0 -42.175072,-19.1170649994145,0.0 -42.174954,-19.1166279994145,0.0 -42.174666,-19.1161209994146,0.0 -42.174426,-19.1157289994146,0.0 -42.174162,-19.1152689994146,0.0 -42.173826,-19.1148079994146,0.0 -42.17361,-19.1143929994146,0.0 -42.173274,-19.1138169994146,0.0 -42.173034,-19.1134259994146,0.0 -42.17265,-19.1129179994146,0.0 -42.17241,-19.1125269994147,0.0 -42.17217,-19.1120199994147,0.0 -42.171931,-19.1116059994147,0.0 -42.171594,-19.1112139994147,0.0 -42.17116,-19.1108669994147,0.0 -42.170824,-19.1104519994147,0.0 -42.170463,-19.1100139994147,0.0 -42.170151,-19.1096449994147,0.0 -42.169863,-19.1092069994147,0.0 -42.169623,-19.1087919994148,0.0 -42.16931,-19.1084239994148,0.0 -42.168925,-19.1080539994148,0.0 -42.168516,-19.1075929994148,0.0 -42.16818,-19.1071779994148,0.0 -42.167891,-19.1068319994148,0.0 -42.167555,-19.1064629994148,0.0 -42.167121,-19.1060929994148,0.0 -42.16676,-19.1058159994148,0.0 -42.166423,-19.1055159994148,0.0 -42.166038,-19.1051699994148,0.0 -42.16558,-19.1047309994149,0.0 -42.165074,-19.1043379994149,0.0 -42.164665,-19.1040149994149,0.0 -42.164304,-19.1037379994149,0.0 -42.16387,-19.1033679994149,0.0 -42.163509,-19.1030909994149,0.0 -42.163099,-19.1028359994149,0.0 -42.162714,-19.1025819994149,0.0 -42.162256,-19.1022579994149,0.0 -42.161798,-19.1020039994149,0.0 -42.161412,-19.1017259994149,0.0 -42.160979,-19.1014029994149,0.0 -42.160593,-19.1010789994149,0.0 -42.160232,-19.100778999415,0.0 -42.159847,-19.100478999415,0.0 -42.159462,-19.100109999415,0.0 -42.159077,-19.099762999415,0.0 -42.158667,-19.099439999415,0.0 -42.158282,-19.099184999415,0.0 -42.157872,-19.098930999415,0.0 -42.157438,-19.098675999415,0.0 -42.1572407,-19.098572699415,0.0 -42.156907,-19.098397999415,0.0 -42.156401,-19.098165999415,0.0 -42.15587,-19.098002999415,0.0 -42.155682,-19.097910999415,0.0 -42.155412,-19.097771999415,0.0 -42.15505,-19.097493999415,0.0 -42.154819,-19.097245999415,0.0 -42.154642,-19.0970559994151,0.0 -42.154329,-19.0967329994151,0.0 -42.153968,-19.0962949994151,0.0 -42.153535,-19.0958789994151,0.0 -42.15315,-19.0955789994151,0.0 -42.152692,-19.0952089994151,0.0 -42.152404,-19.0947709994151,0.0 -42.152189,-19.0942879994151,0.0 -42.151901,-19.0937579994151,0.0 -42.151686,-19.0932749994151,0.0 -42.151519,-19.0927679994152,0.0 -42.151401,-19.0923079994152,0.0 -42.151307,-19.0917339994152,0.0 -42.15126,-19.0912969994152,0.0 -42.151263,-19.0907449994152,0.0 -42.151338,-19.0902859994152,0.0 -42.151437,-19.0898039994152,0.0 -42.1514592,-19.0896909994152,0.0</coordinates>
</LinearRing>
</outerBoundaryIs>
</Polygon>
</MultiGeometry>
</Placemark>
</Folder>
</Document></kml>
