<?xml version='1.0' encoding='UTF-8'?>
<kml xmlns:xsd="http://www.w3.org/2001/XMLSchema" xmlns:gx="http://www.google.com/kml/ext/2.2" xmlns:atom="http://www.w3.org/2005/Atom" xmlns="http://www.opengis.net/kml/2.2">
<Document>
<name>mendes_pimentel_3141504_localidades_2022</name>
<visibility>1</visibility>
<Schema name="Localidades" id="kml_schema_ft_Localidades">
<SimpleField type="xsd:string" name="CD_UF">
<displayName>CD_UF</displayName>
</SimpleField>
<SimpleField type="xsd:string" name="NM_UF">
<displayName>NM_UF</displayName>
</SimpleField>
<SimpleField type="xsd:string" name="SIGLA_UF">
<displayName>SIGLA_UF</displayName>
</SimpleField>
<SimpleField type="xsd:string" name="CD_MUN">
<displayName>CD_MUN</displayName>
</SimpleField>
<SimpleField type="xsd:string" name="NM_MUN">
<displayName>NM_MUN</displayName>
</SimpleField>
<SimpleField type="xsd:string" name="CD_RGINT">
<displayName>CD_RGINT</displayName>
</SimpleField>
<SimpleField type="xsd:string" name="NM_RGINT">
<displayName>NM_RGINT</displayName>
</SimpleField>
<SimpleField type="xsd:string" name="CD_RGI">
<displayName>CD_RGI</displayName>
</SimpleField>
<SimpleField type="xsd:string" name="NM_RGI">
<displayName>NM_RGI</displayName>
</SimpleField>
<SimpleField type="xsd:string" name="CT_LOCALIDADE">
<displayName>CT_LOCALIDADE</displayName>
</SimpleField>
<SimpleField type="xsd:string" name="SCT_LOCALIDADE">
<displayName>SCT_LOCALIDADE</displayName>
</SimpleField>
<SimpleField type="xsd:string" name="CD_LOCALIDADE">
<displayName>CD_LOCALIDADE</displayName>
</SimpleField>
<SimpleField type="xsd:string" name="NM_LOCALIDADE">
<displayName>NM_LOCALIDADE</displayName>
</SimpleField>
</Schema>
<Schema name="01. Cidade" id="kml_schema_ft_01._Cidade">
<SimpleField type="xsd:string" name="CD_UF">
<displayName>CD_UF</displayName>
</SimpleField>
<SimpleField type="xsd:string" name="NM_UF">
<displayName>NM_UF</displayName>
</SimpleField>
<SimpleField type="xsd:string" name="SIGLA_UF">
<displayName>SIGLA_UF</displayName>
</SimpleField>
<SimpleField type="xsd:string" name="CD_MUN">
<displayName>CD_MUN</displayName>
</SimpleField>
<SimpleField type="xsd:string" name="NM_MUN">
<displayName>NM_MUN</displayName>
</SimpleField>
<SimpleField type="xsd:string" name="CD_RGINT">
<displayName>CD_RGINT</displayName>
</SimpleField>
<SimpleField type="xsd:string" name="NM_RGINT">
<displayName>NM_RGINT</displayName>
</SimpleField>
<SimpleField type="xsd:string" name="CD_RGI">
<displayName>CD_RGI</displayName>
</SimpleField>
<SimpleField type="xsd:string" name="NM_RGI">
<displayName>NM_RGI</displayName>
</SimpleField>
<SimpleField type="xsd:string" name="CT_LOCALIDADE">
<displayName>CT_LOCALIDADE</displayName>
</SimpleField>
<SimpleField type="xsd:string" name="SCT_LOCALIDADE">
<displayName>SCT_LOCALIDADE</displayName>
</SimpleField>
<SimpleField type="xsd:string" name="CD_LOCALIDADE">
<displayName>CD_LOCALIDADE</displayName>
</SimpleField>
<SimpleField type="xsd:string" name="NM_LOCALIDADE">
<displayName>NM_LOCALIDADE</displayName>
</SimpleField>
<SimpleField type="xsd:string" name="LAT_LOCALIDADE">
<displayName>LAT_LOCALIDADE</displayName>
</SimpleField>
<SimpleField type="xsd:string" name="LONG_LOCALIDADE">
<displayName>LONG_LOCALIDADE</displayName>
</SimpleField>
</Schema>
<Schema name="Município" id="kml_schema_ft_Município">
<SimpleField type="xsd:string" name="CD_UF">
<displayName>CD_UF</displayName>
</SimpleField>
<SimpleField type="xsd:string" name="NM_UF">
<displayName>NM_UF</displayName>
</SimpleField>
<SimpleField type="xsd:string" name="CD_MUN">
<displayName>CD_MUN</displayName>
</SimpleField>
<SimpleField type="xsd:string" name="NM_MUN">
<displayName>NM_MUN</displayName>
</SimpleField>
<SimpleField type="xsd:string" name="CD_RGINT">
<displayName>CD_RGINT</displayName>
</SimpleField>
<SimpleField type="xsd:string" name="NM_RGINT">
<displayName>NM_RGINT</displayName>
</SimpleField>
<SimpleField type="xsd:string" name="CD_RGI">
<displayName>CD_RGI</displayName>
</SimpleField>
<SimpleField type="xsd:string" name="NM_RGI">
<displayName>NM_RGI</displayName>
</SimpleField>
</Schema>
<Folder id="01. Cidade">
<name>01. Cidade</name>
<Folder id="01.03. Sede Municipal">
<name>01.03. Sede Municipal</name>
<Placemark id="01.03. Sede Municipal">
<name>Mendes Pimentel [3141504]</name>
<visibility>1</visibility>
<snippet> </snippet>
<description>&lt;center&gt;&lt;table&gt;&lt;tr&gt;&lt;th colspan='2' align='center'&gt;&lt;em&gt;Atributos&lt;/em&gt;&lt;/th&gt;&lt;/tr&gt;&lt;tr bgcolor="#E3E3F3"&gt;
&lt;th&gt;CD_UF&lt;/th&gt;
&lt;td&gt;31&lt;/td&gt;
&lt;/tr&gt;&lt;tr bgcolor=""&gt;
&lt;th&gt;NM_UF&lt;/th&gt;
&lt;td&gt;Minas Gerais&lt;/td&gt;
&lt;/tr&gt;&lt;tr bgcolor="#E3E3F3"&gt;
&lt;th&gt;SIGLA_UF&lt;/th&gt;
&lt;td&gt;MG&lt;/td&gt;
&lt;/tr&gt;&lt;tr bgcolor=""&gt;
&lt;th&gt;CD_MUN&lt;/th&gt;
&lt;td&gt;3141504&lt;/td&gt;
&lt;/tr&gt;&lt;tr bgcolor="#E3E3F3"&gt;
&lt;th&gt;NM_MUN&lt;/th&gt;
&lt;td&gt;Mendes Pimentel&lt;/td&gt;
&lt;/tr&gt;&lt;tr bgcolor=""&gt;
&lt;th&gt;CD_RGINT&lt;/th&gt;
&lt;td&gt;3104&lt;/td&gt;
&lt;/tr&gt;&lt;tr bgcolor="#E3E3F3"&gt;
&lt;th&gt;NM_RGINT&lt;/th&gt;
&lt;td&gt;Governador Valadares&lt;/td&gt;
&lt;/tr&gt;&lt;tr bgcolor=""&gt;
&lt;th&gt;CD_RGI&lt;/th&gt;
&lt;td&gt;310022&lt;/td&gt;
&lt;/tr&gt;&lt;tr bgcolor="#E3E3F3"&gt;
&lt;th&gt;NM_RGI&lt;/th&gt;
&lt;td&gt;Mantena&lt;/td&gt;
&lt;/tr&gt;&lt;tr bgcolor=""&gt;
&lt;th&gt;CT_LOCALIDADE&lt;/th&gt;
&lt;td&gt;Cidade&lt;/td&gt;
&lt;/tr&gt;&lt;tr bgcolor="#E3E3F3"&gt;
&lt;th&gt;SCT_LOCALIDADE&lt;/th&gt;
&lt;td&gt;Sede Municipal&lt;/td&gt;
&lt;/tr&gt;&lt;tr bgcolor=""&gt;
&lt;th&gt;CD_LOCALIDADE&lt;/th&gt;
&lt;td&gt;3141504&lt;/td&gt;
&lt;/tr&gt;&lt;tr bgcolor="#E3E3F3"&gt;
&lt;th&gt;NM_LOCALIDADE&lt;/th&gt;
&lt;td&gt;Mendes Pimentel&lt;/td&gt;
&lt;/tr&gt;&lt;tr bgcolor=""&gt;
&lt;th&gt;LAT_LOCALIDADE&lt;/th&gt;
&lt;td&gt;-18.6582&lt;/td&gt;
&lt;/tr&gt;&lt;tr bgcolor="#E3E3F3"&gt;
&lt;th&gt;LONG_LOCALIDADE&lt;/th&gt;
&lt;td&gt;-41.4024&lt;/td&gt;
&lt;/tr&gt;&lt;/table&gt;&lt;/center&gt;</description>
<Style>
<IconStyle>
<color>ff00aaff</color>
<scale>1.0</scale>
<Icon>
<href>http://maps.google.com/mapfiles/kml/shapes/placemark_circle.png</href>
</Icon>
</IconStyle>
<LabelStyle>
<scale>1.0</scale>
</LabelStyle>
<LineStyle>
<color>ffffffff</color>
<width>3</width>
<gx:labelVisibility>1</gx:labelVisibility>
</LineStyle>
<PolyStyle>
<color>00ffffff</color>
</PolyStyle>
</Style>
<ExtendedData>
<SchemaData schemaUrl="#kml_schema_ft_01._Cidade">
<SimpleData name="CD_UF">31</SimpleData>
<SimpleData name="NM_UF">Minas Gerais</SimpleData>
<SimpleData name="SIGLA_UF">MG</SimpleData>
<SimpleData name="CD_MUN">3141504</SimpleData>
<SimpleData name="NM_MUN">Mendes Pimentel</SimpleData>
<SimpleData name="CD_RGINT">3104</SimpleData>
<SimpleData name="NM_RGINT">Governador Valadares</SimpleData>
<SimpleData name="CD_RGI">310022</SimpleData>
<SimpleData name="NM_RGI">Mantena</SimpleData>
<SimpleData name="CT_LOCALIDADE">Cidade</SimpleData>
<SimpleData name="SCT_LOCALIDADE">Sede Municipal</SimpleData>
<SimpleData name="CD_LOCALIDADE">3141504</SimpleData>
<SimpleData name="NM_LOCALIDADE">Mendes Pimentel</SimpleData>
<SimpleData name="LAT_LOCALIDADE">-18.6582</SimpleData>
<SimpleData name="LONG_LOCALIDADE">-41.4024</SimpleData>
</SchemaData>
</ExtendedData>
<Point>
<extrude>0</extrude>
<coordinates>-41.4024,-18.6581999994265,0.0</coordinates>
</Point>
</Placemark>
</Folder>
</Folder>
<Folder id="12. Outras Localidades">
<name>12. Outras Localidades</name>
<Placemark id="12. Outras Localidades">
<name>Oliveira Justino [314150400001]</name>
<visibility>1</visibility>
<snippet> </snippet>
<description>&lt;center&gt;&lt;table&gt;&lt;tr&gt;&lt;th colspan='2' align='center'&gt;&lt;em&gt;Attributes&lt;/em&gt;&lt;/th&gt;&lt;/tr&gt;&lt;tr bgcolor="#E3E3F3"&gt;
&lt;th&gt;CD_UF&lt;/th&gt;
&lt;td&gt;31&lt;/td&gt;
&lt;/tr&gt;&lt;tr bgcolor=""&gt;
&lt;th&gt;NM_UF&lt;/th&gt;
&lt;td&gt;Minas Gerais&lt;/td&gt;
&lt;/tr&gt;&lt;tr bgcolor="#E3E3F3"&gt;
&lt;th&gt;SIGLA_UF&lt;/th&gt;
&lt;td&gt;MG&lt;/td&gt;
&lt;/tr&gt;&lt;tr bgcolor=""&gt;
&lt;th&gt;CD_MUN&lt;/th&gt;
&lt;td&gt;3141504&lt;/td&gt;
&lt;/tr&gt;&lt;tr bgcolor="#E3E3F3"&gt;
&lt;th&gt;NM_MUN&lt;/th&gt;
&lt;td&gt;Mendes Pimentel&lt;/td&gt;
&lt;/tr&gt;&lt;tr bgcolor=""&gt;
&lt;th&gt;CD_RGINT&lt;/th&gt;
&lt;td&gt;3104&lt;/td&gt;
&lt;/tr&gt;&lt;tr bgcolor="#E3E3F3"&gt;
&lt;th&gt;NM_RGINT&lt;/th&gt;
&lt;td&gt;Governador Valadares&lt;/td&gt;
&lt;/tr&gt;&lt;tr bgcolor=""&gt;
&lt;th&gt;CD_RGI&lt;/th&gt;
&lt;td&gt;310022&lt;/td&gt;
&lt;/tr&gt;&lt;tr bgcolor="#E3E3F3"&gt;
&lt;th&gt;NM_RGI&lt;/th&gt;
&lt;td&gt;Mantena&lt;/td&gt;
&lt;/tr&gt;&lt;tr bgcolor=""&gt;
&lt;th&gt;CT_LOCALIDADE&lt;/th&gt;
&lt;td&gt;Outras Localidades&lt;/td&gt;
&lt;/tr&gt;&lt;tr bgcolor="#E3E3F3"&gt;
&lt;th&gt;SCT_LOCALIDADE&lt;/th&gt;
&lt;td&gt;&lt;/td&gt;
&lt;/tr&gt;&lt;tr bgcolor=""&gt;
&lt;th&gt;CD_LOCALIDADE&lt;/th&gt;
&lt;td&gt;314150400001&lt;/td&gt;
&lt;/tr&gt;&lt;tr bgcolor="#E3E3F3"&gt;
&lt;th&gt;NM_LOCALIDADE&lt;/th&gt;
&lt;td&gt;Oliveira Justino&lt;/td&gt;
&lt;/tr&gt;&lt;/table&gt;&lt;/center&gt;</description>
<Style>
<IconStyle>
<color>ff0069d3</color>
<scale>0.6</scale>
<Icon>
<href>http://maps.google.com/mapfiles/kml/shapes/placemark_circle.png</href>
</Icon>
</IconStyle>
<LabelStyle>
<scale>0.6</scale>
</LabelStyle>
<LineStyle>
<width>1.0</width>
<gx:labelVisibility>1</gx:labelVisibility>
</LineStyle>
</Style>
<ExtendedData>
<SchemaData schemaUrl="#kml_schema_ft_Localidades">
<SimpleData name="CD_UF">31</SimpleData>
<SimpleData name="NM_UF">Minas Gerais</SimpleData>
<SimpleData name="SIGLA_UF">MG</SimpleData>
<SimpleData name="CD_MUN">3141504</SimpleData>
<SimpleData name="NM_MUN">Mendes Pimentel</SimpleData>
<SimpleData name="CD_RGINT">3104</SimpleData>
<SimpleData name="NM_RGINT">Governador Valadares</SimpleData>
<SimpleData name="CD_RGI">310022</SimpleData>
<SimpleData name="NM_RGI">Mantena</SimpleData>
<SimpleData name="CT_LOCALIDADE">Outras Localidades</SimpleData>
<SimpleData name="CD_LOCALIDADE">314150400001</SimpleData>
<SimpleData name="NM_LOCALIDADE">Oliveira Justino</SimpleData>
</SchemaData>
</ExtendedData>
<Point>
<extrude>0</extrude>
<coordinates>-41.340281,-18.6120299994277,0.0</coordinates>
</Point>
</Placemark>
<Placemark id="12. Outras Localidades">
<name>São Sebastião [314150400002]</name>
<visibility>1</visibility>
<snippet> </snippet>
<description>&lt;center&gt;&lt;table&gt;&lt;tr&gt;&lt;th colspan='2' align='center'&gt;&lt;em&gt;Attributes&lt;/em&gt;&lt;/th&gt;&lt;/tr&gt;&lt;tr bgcolor="#E3E3F3"&gt;
&lt;th&gt;CD_UF&lt;/th&gt;
&lt;td&gt;31&lt;/td&gt;
&lt;/tr&gt;&lt;tr bgcolor=""&gt;
&lt;th&gt;NM_UF&lt;/th&gt;
&lt;td&gt;Minas Gerais&lt;/td&gt;
&lt;/tr&gt;&lt;tr bgcolor="#E3E3F3"&gt;
&lt;th&gt;SIGLA_UF&lt;/th&gt;
&lt;td&gt;MG&lt;/td&gt;
&lt;/tr&gt;&lt;tr bgcolor=""&gt;
&lt;th&gt;CD_MUN&lt;/th&gt;
&lt;td&gt;3141504&lt;/td&gt;
&lt;/tr&gt;&lt;tr bgcolor="#E3E3F3"&gt;
&lt;th&gt;NM_MUN&lt;/th&gt;
&lt;td&gt;Mendes Pimentel&lt;/td&gt;
&lt;/tr&gt;&lt;tr bgcolor=""&gt;
&lt;th&gt;CD_RGINT&lt;/th&gt;
&lt;td&gt;3104&lt;/td&gt;
&lt;/tr&gt;&lt;tr bgcolor="#E3E3F3"&gt;
&lt;th&gt;NM_RGINT&lt;/th&gt;
&lt;td&gt;Governador Valadares&lt;/td&gt;
&lt;/tr&gt;&lt;tr bgcolor=""&gt;
&lt;th&gt;CD_RGI&lt;/th&gt;
&lt;td&gt;310022&lt;/td&gt;
&lt;/tr&gt;&lt;tr bgcolor="#E3E3F3"&gt;
&lt;th&gt;NM_RGI&lt;/th&gt;
&lt;td&gt;Mantena&lt;/td&gt;
&lt;/tr&gt;&lt;tr bgcolor=""&gt;
&lt;th&gt;CT_LOCALIDADE&lt;/th&gt;
&lt;td&gt;Outras Localidades&lt;/td&gt;
&lt;/tr&gt;&lt;tr bgcolor="#E3E3F3"&gt;
&lt;th&gt;SCT_LOCALIDADE&lt;/th&gt;
&lt;td&gt;&lt;/td&gt;
&lt;/tr&gt;&lt;tr bgcolor=""&gt;
&lt;th&gt;CD_LOCALIDADE&lt;/th&gt;
&lt;td&gt;314150400002&lt;/td&gt;
&lt;/tr&gt;&lt;tr bgcolor="#E3E3F3"&gt;
&lt;th&gt;NM_LOCALIDADE&lt;/th&gt;
&lt;td&gt;São Sebastião&lt;/td&gt;
&lt;/tr&gt;&lt;/table&gt;&lt;/center&gt;</description>
<Style>
<IconStyle>
<color>ff0069d3</color>
<scale>0.6</scale>
<Icon>
<href>http://maps.google.com/mapfiles/kml/shapes/placemark_circle.png</href>
</Icon>
</IconStyle>
<LabelStyle>
<scale>0.6</scale>
</LabelStyle>
<LineStyle>
<width>1.0</width>
<gx:labelVisibility>1</gx:labelVisibility>
</LineStyle>
</Style>
<ExtendedData>
<SchemaData schemaUrl="#kml_schema_ft_Localidades">
<SimpleData name="CD_UF">31</SimpleData>
<SimpleData name="NM_UF">Minas Gerais</SimpleData>
<SimpleData name="SIGLA_UF">MG</SimpleData>
<SimpleData name="CD_MUN">3141504</SimpleData>
<SimpleData name="NM_MUN">Mendes Pimentel</SimpleData>
<SimpleData name="CD_RGINT">3104</SimpleData>
<SimpleData name="NM_RGINT">Governador Valadares</SimpleData>
<SimpleData name="CD_RGI">310022</SimpleData>
<SimpleData name="NM_RGI">Mantena</SimpleData>
<SimpleData name="CT_LOCALIDADE">Outras Localidades</SimpleData>
<SimpleData name="CD_LOCALIDADE">314150400002</SimpleData>
<SimpleData name="NM_LOCALIDADE">São Sebastião</SimpleData>
</SchemaData>
</ExtendedData>
<Point>
<extrude>0</extrude>
<coordinates>-41.35388,-18.6498669994267,0.0</coordinates>
</Point>
</Placemark>
<Placemark id="12. Outras Localidades">
<name>Córrego do Centro [314150400003]</name>
<visibility>1</visibility>
<snippet> </snippet>
<description>&lt;center&gt;&lt;table&gt;&lt;tr&gt;&lt;th colspan='2' align='center'&gt;&lt;em&gt;Attributes&lt;/em&gt;&lt;/th&gt;&lt;/tr&gt;&lt;tr bgcolor="#E3E3F3"&gt;
&lt;th&gt;CD_UF&lt;/th&gt;
&lt;td&gt;31&lt;/td&gt;
&lt;/tr&gt;&lt;tr bgcolor=""&gt;
&lt;th&gt;NM_UF&lt;/th&gt;
&lt;td&gt;Minas Gerais&lt;/td&gt;
&lt;/tr&gt;&lt;tr bgcolor="#E3E3F3"&gt;
&lt;th&gt;SIGLA_UF&lt;/th&gt;
&lt;td&gt;MG&lt;/td&gt;
&lt;/tr&gt;&lt;tr bgcolor=""&gt;
&lt;th&gt;CD_MUN&lt;/th&gt;
&lt;td&gt;3141504&lt;/td&gt;
&lt;/tr&gt;&lt;tr bgcolor="#E3E3F3"&gt;
&lt;th&gt;NM_MUN&lt;/th&gt;
&lt;td&gt;Mendes Pimentel&lt;/td&gt;
&lt;/tr&gt;&lt;tr bgcolor=""&gt;
&lt;th&gt;CD_RGINT&lt;/th&gt;
&lt;td&gt;3104&lt;/td&gt;
&lt;/tr&gt;&lt;tr bgcolor="#E3E3F3"&gt;
&lt;th&gt;NM_RGINT&lt;/th&gt;
&lt;td&gt;Governador Valadares&lt;/td&gt;
&lt;/tr&gt;&lt;tr bgcolor=""&gt;
&lt;th&gt;CD_RGI&lt;/th&gt;
&lt;td&gt;310022&lt;/td&gt;
&lt;/tr&gt;&lt;tr bgcolor="#E3E3F3"&gt;
&lt;th&gt;NM_RGI&lt;/th&gt;
&lt;td&gt;Mantena&lt;/td&gt;
&lt;/tr&gt;&lt;tr bgcolor=""&gt;
&lt;th&gt;CT_LOCALIDADE&lt;/th&gt;
&lt;td&gt;Outras Localidades&lt;/td&gt;
&lt;/tr&gt;&lt;tr bgcolor="#E3E3F3"&gt;
&lt;th&gt;SCT_LOCALIDADE&lt;/th&gt;
&lt;td&gt;&lt;/td&gt;
&lt;/tr&gt;&lt;tr bgcolor=""&gt;
&lt;th&gt;CD_LOCALIDADE&lt;/th&gt;
&lt;td&gt;314150400003&lt;/td&gt;
&lt;/tr&gt;&lt;tr bgcolor="#E3E3F3"&gt;
&lt;th&gt;NM_LOCALIDADE&lt;/th&gt;
&lt;td&gt;Córrego do Centro&lt;/td&gt;
&lt;/tr&gt;&lt;/table&gt;&lt;/center&gt;</description>
<Style>
<IconStyle>
<color>ff0069d3</color>
<scale>0.6</scale>
<Icon>
<href>http://maps.google.com/mapfiles/kml/shapes/placemark_circle.png</href>
</Icon>
</IconStyle>
<LabelStyle>
<scale>0.6</scale>
</LabelStyle>
<LineStyle>
<width>1.0</width>
<gx:labelVisibility>1</gx:labelVisibility>
</LineStyle>
</Style>
<ExtendedData>
<SchemaData schemaUrl="#kml_schema_ft_Localidades">
<SimpleData name="CD_UF">31</SimpleData>
<SimpleData name="NM_UF">Minas Gerais</SimpleData>
<SimpleData name="SIGLA_UF">MG</SimpleData>
<SimpleData name="CD_MUN">3141504</SimpleData>
<SimpleData name="NM_MUN">Mendes Pimentel</SimpleData>
<SimpleData name="CD_RGINT">3104</SimpleData>
<SimpleData name="NM_RGINT">Governador Valadares</SimpleData>
<SimpleData name="CD_RGI">310022</SimpleData>
<SimpleData name="NM_RGI">Mantena</SimpleData>
<SimpleData name="CT_LOCALIDADE">Outras Localidades</SimpleData>
<SimpleData name="CD_LOCALIDADE">314150400003</SimpleData>
<SimpleData name="NM_LOCALIDADE">Córrego do Centro</SimpleData>
</SchemaData>
</ExtendedData>
<Point>
<extrude>0</extrude>
<coordinates>-41.318304,-18.5798659994285,0.0</coordinates>
</Point>
</Placemark>
</Folder>
<Folder id="13. Referência">
<name>13. Referência</name>
<Placemark id="13. Referência">
<name>Mendes Pimentel [3141504]</name>
<visibility>1</visibility>
<snippet> </snippet>
<description>&lt;center&gt;&lt;table&gt;&lt;tr&gt;&lt;th colspan='2' align='center'&gt;&lt;em&gt;Attributes&lt;/em&gt;&lt;/th&gt;&lt;/tr&gt;&lt;tr bgcolor="#E3E3F3"&gt;
&lt;th&gt;CD_UF&lt;/th&gt;
&lt;td&gt;31&lt;/td&gt;
&lt;/tr&gt;&lt;tr bgcolor=""&gt;
&lt;th&gt;NM_UF&lt;/th&gt;
&lt;td&gt;Minas Gerais&lt;/td&gt;
&lt;/tr&gt;&lt;tr bgcolor="#E3E3F3"&gt;
&lt;th&gt;CD_MUN&lt;/th&gt;
&lt;td&gt;3141504&lt;/td&gt;
&lt;/tr&gt;&lt;tr bgcolor=""&gt;
&lt;th&gt;NM_MUN&lt;/th&gt;
&lt;td&gt;Mendes Pimentel&lt;/td&gt;
&lt;/tr&gt;&lt;tr bgcolor="#E3E3F3"&gt;
&lt;th&gt;CD_RGINT&lt;/th&gt;
&lt;td&gt;3104&lt;/td&gt;
&lt;/tr&gt;&lt;tr bgcolor=""&gt;
&lt;th&gt;NM_RGINT&lt;/th&gt;
&lt;td&gt;Governador Valadares&lt;/td&gt;
&lt;/tr&gt;&lt;tr bgcolor="#E3E3F3"&gt;
&lt;th&gt;CD_RGI&lt;/th&gt;
&lt;td&gt;310022&lt;/td&gt;
&lt;/tr&gt;&lt;tr bgcolor=""&gt;
&lt;th&gt;NM_RGI&lt;/th&gt;
&lt;td&gt;Mantena&lt;/td&gt;
&lt;/tr&gt;&lt;/table&gt;&lt;/center&gt;</description>
<Style>
<IconStyle>
<scale>0.7</scale>
</IconStyle>
<LabelStyle>
<scale>0.7</scale>
</LabelStyle>
<LineStyle>
<color>ffffffff</color>
<width>3</width>
<gx:labelVisibility>1</gx:labelVisibility>
</LineStyle>
<PolyStyle>
<color>00ffffff</color>
</PolyStyle>
</Style>
<ExtendedData>
<SchemaData schemaUrl="#kml_schema_ft_Município">
<SimpleData name="CD_UF">31</SimpleData>
<SimpleData name="NM_UF">Minas Gerais</SimpleData>
<SimpleData name="CD_MUN">3141504</SimpleData>
<SimpleData name="NM_MUN">Mendes Pimentel</SimpleData>
<SimpleData name="CD_RGINT">3104</SimpleData>
<SimpleData name="NM_RGINT">Governador Valadares</SimpleData>
<SimpleData name="CD_RGI">310022</SimpleData>
<SimpleData name="NM_RGI">Mantena</SimpleData>
</SchemaData>
</ExtendedData>
<MultiGeometry>
<Polygon>
<extrude>0</extrude>
<tessellate>1</tessellate>
<outerBoundaryIs>
<LinearRing>
<coordinates>-41.4207954,-18.6962994994255,0.0 -41.420848,-18.6962989994255,0.0 -41.421332,-18.6963869994255,0.0 -41.421791,-18.6964519994255,0.0 -41.422321,-18.6964469994255,0.0 -41.422781,-18.6965809994255,0.0 -41.423313,-18.6966679994255,0.0 -41.423772,-18.6967789994255,0.0 -41.424353,-18.6969809994255,0.0 -41.424789,-18.6971609994255,0.0 -41.425107,-18.6975719994254,0.0 -41.425328,-18.6979609994254,0.0 -41.425551,-18.6985109994254,0.0 -41.425916,-18.6988289994254,0.0 -41.426375,-18.6989169994254,0.0 -41.426857,-18.6989129994254,0.0 -41.427314,-18.6987249994254,0.0 -41.427818,-18.6984449994254,0.0 -41.428226,-18.6982109994254,0.0 -41.428583,-18.6977709994254,0.0 -41.428724,-18.6973329994255,0.0 -41.428671,-18.6968499994255,0.0 -41.428521,-18.6963919994255,0.0 -41.428275,-18.6959109994255,0.0 -41.428247,-18.6954749994255,0.0 -41.428049,-18.6949709994255,0.0 -41.42819,-18.6945329994255,0.0 -41.428451,-18.6941619994255,0.0 -41.428858,-18.6938599994255,0.0 -41.429341,-18.6938549994255,0.0 -41.429945,-18.6939649994255,0.0 -41.430428,-18.6940069994255,0.0 -41.431032,-18.6941159994255,0.0 -41.431709,-18.6942019994255,0.0 -41.432169,-18.6943359994255,0.0 -41.432652,-18.6944469994255,0.0 -41.433257,-18.6946479994255,0.0 -41.433765,-18.6947589994255,0.0 -41.434249,-18.6948919994255,0.0 -41.434925,-18.6949779994255,0.0 -41.43565,-18.6950409994255,0.0 -41.436182,-18.6951509994255,0.0 -41.436617,-18.6953079994255,0.0 -41.437126,-18.6955329994255,0.0 -41.437586,-18.6956899994255,0.0 -41.438071,-18.6958689994255,0.0 -41.438652,-18.6960709994255,0.0 -41.439184,-18.6962499994255,0.0 -41.439694,-18.6966139994255,0.0 -41.440108,-18.6969319994255,0.0 -41.4403379,-18.6971322994255,0.0 -41.440473,-18.6972499994255,0.0 -41.440766,-18.6976159994255,0.0 -41.441035,-18.6979809994254,0.0 -41.441472,-18.6982529994254,0.0 -41.441981,-18.6984549994254,0.0 -41.44244,-18.6985199994254,0.0 -41.443016,-18.6982389994254,0.0 -41.443472,-18.6980049994254,0.0 -41.443879,-18.6976789994254,0.0 -41.444092,-18.6972409994254,0.0 -41.444039,-18.6967809994255,0.0 -41.444066,-18.6964773994255,0.0 -41.444082,-18.6962979994255,0.0 -41.444101,-18.6957459994255,0.0 -41.444266,-18.6953309994255,0.0 -41.444406,-18.6948929994255,0.0 -41.444619,-18.6944539994255,0.0 -41.444929,-18.6940829994255,0.0 -41.445238,-18.6936209994255,0.0 -41.445594,-18.6930659994256,0.0 -41.446024,-18.6925789994256,0.0 -41.446359,-18.6922769994256,0.0 -41.44662,-18.6918839994256,0.0 -41.446978,-18.6914899994256,0.0 -41.447215,-18.6910739994256,0.0 -41.447623,-18.6908399994256,0.0 -41.447957,-18.6904919994256,0.0 -41.448411,-18.6900279994256,0.0 -41.448868,-18.6899319994256,0.0 -41.449376,-18.6900199994256,0.0 -41.449765,-18.6902689994256,0.0 -41.450226,-18.6905869994256,0.0 -41.450543,-18.6909289994256,0.0 -41.451004,-18.6912229994256,0.0 -41.451394,-18.6915649994256,0.0 -41.452218,-18.6919709994256,0.0 -41.452655,-18.6922199994256,0.0 -41.453137,-18.6922159994256,0.0 -41.45362,-18.6921879994256,0.0 -41.454103,-18.6922299994256,0.0 -41.454657,-18.6922019994256,0.0 -41.45514,-18.6921969994256,0.0 -41.45567,-18.6921469994256,0.0 -41.456152,-18.6921419994256,0.0 -41.456852,-18.6921129994256,0.0 -41.459602,-18.6920879994256,0.0 -41.460253,-18.6920589994256,0.0 -41.460757,-18.6918019994256,0.0 -41.461357,-18.6914279994256,0.0 -41.461764,-18.6911259994256,0.0 -41.462123,-18.6908459994256,0.0 -41.462457,-18.6905439994256,0.0 -41.462962,-18.6903099994256,0.0 -41.463369,-18.6900529994256,0.0 -41.463728,-18.6897739994257,0.0 -41.464135,-18.6894719994257,0.0 -41.463645,-18.6886939994257,0.0 -41.46328,-18.6883529994257,0.0 -41.462501,-18.6877159994257,0.0 -41.462184,-18.6873739994257,0.0 -41.461697,-18.6868959994257,0.0 -41.461332,-18.6866229994257,0.0 -41.460968,-18.6863279994257,0.0 -41.460627,-18.6860089994257,0.0 -41.460357,-18.6856199994258,0.0 -41.459965,-18.6850029994258,0.0 -41.459695,-18.6845459994258,0.0 -41.459354,-18.6841579994258,0.0 -41.459011,-18.6836549994258,0.0 -41.458766,-18.6832669994258,0.0 -41.458568,-18.6827629994258,0.0 -41.458683,-18.6822789994259,0.0 -41.458702,-18.6817729994259,0.0 -41.45877,-18.6813349994259,0.0 -41.458813,-18.6808059994259,0.0 -41.458688,-18.6803019994259,0.0 -41.458611,-18.6798189994259,0.0 -41.458485,-18.6793379994259,0.0 -41.45848,-18.6788319994259,0.0 -41.458595,-18.678255999426,0.0 -41.458808,-18.677862999426,0.0 -41.458897,-18.677103999426,0.0 -41.459084,-18.676480999426,0.0 -41.459127,-18.676020999426,0.0 -41.459411,-18.675466999426,0.0 -41.459599,-18.674935999426,0.0 -41.459735,-18.6740149994261,0.0 -41.4598323,-18.6734655994261,0.0 -41.459849,-18.6733709994261,0.0 -41.459856,-18.6733241994261,0.0 -41.459861,-18.6732909994261,0.0 -41.459939,-18.6727719994261,0.0 -41.460006,-18.6721739994261,0.0 -41.460049,-18.6716899994261,0.0 -41.460432,-18.6713649994261,0.0 -41.460669,-18.6709719994261,0.0 -41.461246,-18.6707369994262,0.0 -41.461823,-18.6705479994262,0.0 -41.462304,-18.6704509994262,0.0 -41.462762,-18.6703779994262,0.0 -41.463268,-18.6703269994262,0.0 -41.463797,-18.6701389994262,0.0 -41.464253,-18.6699509994262,0.0 -41.464784,-18.6699459994262,0.0 -41.465747,-18.6697759994262,0.0 -41.466397,-18.6696549994262,0.0 -41.466854,-18.6695589994262,0.0 -41.467457,-18.6695079994262,0.0 -41.467963,-18.6695029994262,0.0 -41.46871,-18.6694039994262,0.0 -41.469241,-18.6693759994262,0.0 -41.469915,-18.6692549994262,0.0 -41.470372,-18.6691819994262,0.0 -41.470926,-18.6690159994262,0.0 -41.471381,-18.6687129994262,0.0 -41.471739,-18.6683649994262,0.0 -41.47205,-18.6680399994262,0.0 -41.472408,-18.6677149994262,0.0 -41.472718,-18.6673439994262,0.0 -41.47298,-18.6669739994262,0.0 -41.473192,-18.6665349994263,0.0 -41.473403,-18.6659119994263,0.0 -41.473373,-18.6653609994263,0.0 -41.473368,-18.6648549994263,0.0 -41.473388,-18.6644179994263,0.0 -41.473455,-18.6639119994263,0.0 -41.473402,-18.6633829994263,0.0 -41.473443,-18.6626699994264,0.0 -41.473316,-18.6620739994264,0.0 -41.473311,-18.6615219994264,0.0 -41.47333,-18.6610849994264,0.0 -41.473398,-18.6606009994264,0.0 -41.473514,-18.6601409994264,0.0 -41.473678,-18.6596559994264,0.0 -41.473697,-18.6592189994264,0.0 -41.473668,-18.6587369994265,0.0 -41.473591,-18.6582319994265,0.0 -41.473538,-18.6577259994265,0.0 -41.473485,-18.6572669994265,0.0 -41.473577,-18.6568059994265,0.0 -41.473668,-18.6562769994265,0.0 -41.473856,-18.6557919994265,0.0 -41.47419,-18.6553979994266,0.0 -41.474499,-18.6550269994266,0.0 -41.474953,-18.6545629994266,0.0 -41.47548,-18.6541909994266,0.0 -41.475958,-18.6537729994266,0.0 -41.476391,-18.6536079994266,0.0 -41.476872,-18.6534879994266,0.0 -41.477402,-18.6534369994266,0.0 -41.477979,-18.6532249994266,0.0 -41.478432,-18.6527379994266,0.0 -41.478887,-18.6523659994266,0.0 -41.479027,-18.6519279994266,0.0 -41.479191,-18.6514209994267,0.0 -41.479524,-18.6509809994267,0.0 -41.479785,-18.6506109994267,0.0 -41.480192,-18.6502389994267,0.0 -41.480648,-18.6500279994267,0.0 -41.481128,-18.6498169994267,0.0 -41.481586,-18.6497889994267,0.0 -41.482044,-18.6498079994267,0.0 -41.482527,-18.6498499994267,0.0 -41.483035,-18.6499829994267,0.0 -41.483542,-18.6500239994267,0.0 -41.484,-18.6499969994267,0.0 -41.484603,-18.6499689994267,0.0 -41.485132,-18.6498719994267,0.0 -41.485684,-18.6495909994267,0.0 -41.486188,-18.6493329994267,0.0 -41.486546,-18.6489619994267,0.0 -41.486881,-18.6486369994267,0.0 -41.487311,-18.6483109994267,0.0 -41.487573,-18.6478949994267,0.0 -41.487906,-18.6474549994268,0.0 -41.488118,-18.6470159994268,0.0 -41.488331,-18.6466229994268,0.0 -41.488351,-18.6461859994268,0.0 -41.488561,-18.6454949994268,0.0 -41.488578,-18.6448049994268,0.0 -41.488568,-18.6438159994269,0.0 -41.488684,-18.6433779994269,0.0 -41.488825,-18.6429399994269,0.0 -41.488964,-18.6424559994269,0.0 -41.489346,-18.6420619994269,0.0 -41.489705,-18.6417369994269,0.0 -41.490038,-18.6413429994269,0.0 -41.4901056,-18.6411776994269,0.0 -41.490227,-18.6408809994269,0.0 -41.490367,-18.6404429994269,0.0 -41.490483,-18.639981999427,0.0 -41.490575,-18.639520999427,0.0 -41.490691,-18.639082999427,0.0 -41.490662,-18.638600999427,0.0 -41.490633,-18.638094999427,0.0 -41.490415,-18.637234999427,0.0 -41.490069,-18.637272999427,0.0 -41.489613,-18.637483999427,0.0 -41.489133,-18.637671999427,0.0 -41.488627,-18.637676999427,0.0 -41.48817,-18.637795999427,0.0 -41.487518,-18.637778999427,0.0 -41.487059,-18.637667999427,0.0 -41.486575,-18.637557999427,0.0 -41.485923,-18.637425999427,0.0 -41.485415,-18.637338999427,0.0 -41.484956,-18.637204999427,0.0 -41.484376,-18.637071999427,0.0 -41.483868,-18.636984999427,0.0 -41.483336,-18.636828999427,0.0 -41.482852,-18.636672999427,0.0 -41.482369,-18.636584999427,0.0 -41.481594,-18.636269999427,0.0 -41.481158,-18.6360669994271,0.0 -41.480746,-18.6358409994271,0.0 -41.480381,-18.6355689994271,0.0 -41.479921,-18.6353429994271,0.0 -41.479363,-18.6350489994271,0.0 -41.478854,-18.6348009994271,0.0 -41.478441,-18.6345519994271,0.0 -41.477907,-18.6341659994271,0.0 -41.477518,-18.6338479994271,0.0 -41.477007,-18.6333919994271,0.0 -41.476424,-18.6330299994271,0.0 -41.476035,-18.6326659994271,0.0 -41.47567,-18.6323469994272,0.0 -41.475063,-18.6319619994272,0.0 -41.474751,-18.6317901994272,0.0 -41.474529,-18.6316679994272,0.0 -41.473948,-18.6314429994272,0.0 -41.473512,-18.6312629994272,0.0 -41.473004,-18.6310379994272,0.0 -41.472567,-18.6307889994272,0.0 -41.472082,-18.6305409994272,0.0 -41.471647,-18.6303839994272,0.0 -41.470945,-18.6301599994272,0.0 -41.470438,-18.6301189994272,0.0 -41.469956,-18.6301229994272,0.0 -41.469474,-18.6302199994272,0.0 -41.468655,-18.6302959994272,0.0 -41.467933,-18.6303939994272,0.0 -41.467476,-18.6305139994272,0.0 -41.46673,-18.6307039994272,0.0 -41.466396,-18.6310289994272,0.0 -41.46577,-18.6311499994272,0.0 -41.465311,-18.6311079994272,0.0 -41.464706,-18.6308839994272,0.0 -41.464199,-18.6307959994272,0.0 -41.463664,-18.6304329994272,0.0 -41.463229,-18.6302759994272,0.0 -41.462864,-18.6300039994272,0.0 -41.462451,-18.6296859994272,0.0 -41.46177,-18.6290939994272,0.0 -41.461357,-18.6288219994272,0.0 -41.460919,-18.6284579994273,0.0 -41.460481,-18.6280709994273,0.0 -41.460043,-18.6276609994273,0.0 -41.459725,-18.6272039994273,0.0 -41.459044,-18.6266129994273,0.0 -41.458703,-18.6262479994273,0.0 -41.458267,-18.6260449994273,0.0 -41.457517,-18.6258679994273,0.0 -41.457033,-18.6257109994273,0.0 -41.456598,-18.6255539994273,0.0 -41.455823,-18.6252849994273,0.0 -41.455387,-18.6251049994273,0.0 -41.454832,-18.6249949994273,0.0 -41.454372,-18.6248619994274,0.0 -41.453768,-18.6247059994274,0.0 -41.453308,-18.6245259994274,0.0 -41.452801,-18.6245309994274,0.0 -41.452269,-18.6243979994274,0.0 -41.451618,-18.6243349994274,0.0 -41.451135,-18.6242699994274,0.0 -41.450676,-18.6242279994274,0.0 -41.450145,-18.6242099994274,0.0 -41.44947,-18.6241699994274,0.0 -41.449057,-18.6238749994274,0.0 -41.448716,-18.6235329994274,0.0 -41.448206,-18.6231929994274,0.0 -41.447888,-18.6228049994274,0.0 -41.447595,-18.6224169994274,0.0 -41.447326,-18.6220049994274,0.0 -41.44696,-18.6216399994274,0.0 -41.446619,-18.6212759994274,0.0 -41.4463168,-18.6210705994274,0.0 -41.446273,-18.6210407994275,0.0 -41.4461427,-18.6209521994275,0.0 -41.4460888,-18.6209155994275,0.0 -41.446085,-18.6209129994275,0.0 -41.4460806,-18.6209097994275,0.0 -41.4459476,-18.6208144994275,0.0 -41.445672,-18.6206169994275,0.0 -41.445379,-18.6202749994275,0.0 -41.444896,-18.6202109994275,0.0 -41.444415,-18.6202609994275,0.0 -41.443908,-18.6202879994275,0.0 -41.44333,-18.6203629994275,0.0 -41.442728,-18.6204599994275,0.0 -41.442176,-18.6206489994275,0.0 -41.441718,-18.6206759994275,0.0 -41.440994,-18.6206819994275,0.0 -41.44044,-18.6207329994275,0.0 -41.439957,-18.6206919994275,0.0 -41.439259,-18.6207439994275,0.0 -41.438751,-18.6206109994275,0.0 -41.436315,-18.6206319994275,0.0 -41.435784,-18.6205679994275,0.0 -41.435325,-18.6204339994275,0.0 -41.434623,-18.6202109994275,0.0 -41.434091,-18.6200309994275,0.0 -41.433582,-18.6197829994275,0.0 -41.432952,-18.6195129994275,0.0 -41.432493,-18.6194019994275,0.0 -41.43201,-18.6193829994275,0.0 -41.431239,-18.6193899994275,0.0 -41.430757,-18.6194169994275,0.0 -41.4303,-18.6195819994275,0.0 -41.429651,-18.6197719994275,0.0 -41.428978,-18.6200079994275,0.0 -41.428353,-18.6202199994275,0.0 -41.427873,-18.6204779994275,0.0 -41.427202,-18.6209199994275,0.0 -41.426601,-18.6211099994274,0.0 -41.425999,-18.6211839994274,0.0 -41.425444,-18.6211889994274,0.0 -41.424865,-18.6211019994274,0.0 -41.424283,-18.6208539994275,0.0 -41.423774,-18.6205829994275,0.0 -41.423432,-18.6201489994275,0.0 -41.423306,-18.6195519994275,0.0 -41.42318,-18.6189789994275,0.0 -41.423344,-18.6184939994275,0.0 -41.423363,-18.6180109994275,0.0 -41.422949,-18.6175089994275,0.0 -41.422464,-18.6173299994275,0.0 -41.42186,-18.6172199994275,0.0 -41.421258,-18.6172709994276,0.0 -41.42068,-18.6173219994275,0.0 -41.420053,-18.6173049994275,0.0 -41.419546,-18.6172409994275,0.0 -41.419014,-18.6171069994276,0.0 -41.418553,-18.6168809994276,0.0 -41.418261,-18.6165389994276,0.0 -41.418183,-18.6160339994276,0.0 -41.418058,-18.6155749994276,0.0 -41.41815,-18.6150689994276,0.0 -41.418266,-18.6146079994276,0.0 -41.41855,-18.6140759994276,0.0 -41.418691,-18.6136379994276,0.0 -41.419001,-18.6133139994277,0.0 -41.41931,-18.6128969994277,0.0 -41.419378,-18.6124599994277,0.0 -41.4194708,-18.6122260994277,0.0 -41.419543,-18.6120439994277,0.0 -41.419587,-18.6116069994277,0.0 -41.419655,-18.6111699994277,0.0 -41.419721,-18.6105249994277,0.0 -41.419909,-18.6100179994277,0.0 -41.42017,-18.6095099994278,0.0 -41.420309,-18.6089339994278,0.0 -41.420255,-18.6083819994278,0.0 -41.420034,-18.6079469994278,0.0 -41.419933,-18.6074879994278,0.0 -41.419905,-18.6070519994278,0.0 -41.419875,-18.6064769994278,0.0 -41.419507,-18.6058829994278,0.0 -41.419214,-18.6054479994279,0.0 -41.4189889,-18.6051400994279,0.0 -41.418847,-18.6049459994279,0.0 -41.418387,-18.6047199994279,0.0 -41.417806,-18.6045409994279,0.0 -41.4177535,-18.6045203994279,0.0 -41.417347,-18.6043609994279,0.0 -41.416718,-18.6042289994279,0.0 -41.416184,-18.6038659994279,0.0 -41.415891,-18.6034999994279,0.0 -41.415526,-18.6030899994279,0.0 -41.415159,-18.6026099994279,0.0 -41.41489,-18.602152999428,0.0 -41.414573,-18.601810999428,0.0 -41.413892,-18.601264999428,0.0 -41.413312,-18.601108999428,0.0 -41.412707,-18.600906999428,0.0 -41.412248,-18.600795999428,0.0 -41.411812,-18.600569999428,0.0 -41.411328,-18.600390999428,0.0 -41.410844,-18.600233999428,0.0 -41.410263,-18.600008999428,0.0 -41.409779,-18.599805999428,0.0 -41.409246,-18.599580999428,0.0 -41.40857,-18.599425999428,0.0 -41.408061,-18.599200999428,0.0 -41.40736,-18.599068999428,0.0 -41.406853,-18.598957999428,0.0 -41.406225,-18.598848999428,0.0 -41.405332,-18.598787999428,0.0 -41.404753,-18.598769999428,0.0 -41.403355,-18.598781999428,0.0 -41.402703,-18.598672999428,0.0 -41.401929,-18.598472999428,0.0 -41.401493,-18.598268999428,0.0 -41.401057,-18.5980889994281,0.0 -41.400622,-18.5979319994281,0.0 -41.400113,-18.5976609994281,0.0 -41.399652,-18.5973659994281,0.0 -41.399119,-18.5971179994281,0.0 -41.39861,-18.5968229994281,0.0 -41.398101,-18.5965519994281,0.0 -41.397665,-18.5963709994281,0.0 -41.397301,-18.5960989994281,0.0 -41.396692,-18.5955289994281,0.0 -41.396255,-18.5951879994281,0.0 -41.395477,-18.5945049994282,0.0 -41.394894,-18.5940269994282,0.0 -41.39448,-18.5935939994282,0.0 -41.394089,-18.5931149994282,0.0 -41.393747,-18.5926119994282,0.0 -41.393405,-18.5921549994282,0.0 -41.39304,-18.5918359994282,0.0 -41.392628,-18.5916099994282,0.0 -41.392192,-18.5913839994282,0.0 -41.391611,-18.5911589994282,0.0 -41.391055,-18.5910259994282,0.0 -41.390549,-18.5910299994282,0.0 -41.390042,-18.5910109994282,0.0 -41.38963,-18.5907389994282,0.0 -41.389242,-18.5904899994282,0.0 -41.388513,-18.5899439994283,0.0 -41.388101,-18.5897409994283,0.0 -41.387737,-18.5894679994283,0.0 -41.387228,-18.5892189994283,0.0 -41.386768,-18.5890389994283,0.0 -41.386309,-18.5888819994283,0.0 -41.3858,-18.5886339994283,0.0 -41.385243,-18.5883859994283,0.0 -41.384687,-18.5882759994283,0.0 -41.384252,-18.5880949994283,0.0 -41.38372,-18.5879849994283,0.0 -41.3829,-18.5879919994283,0.0 -41.382369,-18.5879279994283,0.0 -41.381911,-18.5879549994283,0.0 -41.381407,-18.5881199994283,0.0 -41.380829,-18.5882399994283,0.0 -41.380373,-18.5884739994283,0.0 -41.379941,-18.5887069994283,0.0 -41.379485,-18.5889409994283,0.0 -41.379078,-18.5891979994283,0.0 -41.37855,-18.5894779994283,0.0 -41.378191,-18.5897569994283,0.0 -41.377711,-18.5899909994283,0.0 -41.377231,-18.5902019994283,0.0 -41.376798,-18.5903669994283,0.0 -41.376294,-18.5905549994282,0.0 -41.37562,-18.5906989994282,0.0 -41.375042,-18.5908189994282,0.0 -41.374538,-18.5910299994282,0.0 -41.374057,-18.5911719994282,0.0 -41.373551,-18.5912229994282,0.0 -41.3733131,-18.5912741994282,0.0 -41.372998,-18.5913419994282,0.0 -41.372467,-18.5913469994282,0.0 -41.3721635,-18.5913295994282,0.0 -41.371768,-18.5913069994282,0.0 -41.3712888,-18.5911383994282,0.0 -41.3711825,-18.5911009994282,0.0 -41.371066,-18.5910599994282,0.0 -41.37063,-18.5909029994282,0.0 -41.370337,-18.5904909994283,0.0 -41.3703029,-18.5903540994283,0.0 -41.370296,-18.5903262994283,0.0 -41.370137,-18.5896879994283,0.0 -41.370132,-18.5892059994283,0.0 -41.370223,-18.5885839994283,0.0 -41.370266,-18.5880779994283,0.0 -41.370309,-18.5875259994283,0.0 -41.370474,-18.5870869994283,0.0 -41.370542,-18.5866269994284,0.0 -41.370803,-18.5861419994284,0.0 -41.371112,-18.5857249994284,0.0 -41.371518,-18.5852849994284,0.0 -41.371852,-18.5849369994284,0.0 -41.37257,-18.5843329994284,0.0 -41.372831,-18.5839169994284,0.0 -41.373237,-18.5834769994284,0.0 -41.373619,-18.5830829994284,0.0 -41.374146,-18.5826869994285,0.0 -41.374505,-18.5824079994285,0.0 -41.374839,-18.5820829994285,0.0 -41.37527,-18.5817579994285,0.0 -41.375581,-18.5814329994285,0.0 -41.376034,-18.5809459994285,0.0 -41.376294,-18.5804379994285,0.0 -41.376411,-18.5799779994285,0.0 -41.376502,-18.5794479994285,0.0 -41.376738,-18.5788709994286,0.0 -41.376924,-18.5781339994286,0.0 -41.376988,-18.5773279994286,0.0 -41.377104,-18.5767989994286,0.0 -41.377315,-18.5761989994286,0.0 -41.377311,-18.5756929994286,0.0 -41.377354,-18.5752099994287,0.0 -41.377334,-18.5730949994287,0.0 -41.37735,-18.5722439994287,0.0 -41.377078,-18.5715329994287,0.0 -41.376977,-18.5710049994288,0.0 -41.376778,-18.5703859994288,0.0 -41.376627,-18.5697439994288,0.0 -41.376454,-18.5692159994288,0.0 -41.376087,-18.5686449994288,0.0 -41.375841,-18.5681179994288,0.0 -41.375522,-18.5675689994289,0.0 -41.375033,-18.5668599994289,0.0 -41.37464,-18.5660819994289,0.0 -41.374275,-18.5656709994289,0.0 -41.373982,-18.5653289994289,0.0 -41.373449,-18.5650339994289,0.0 -41.373036,-18.5647389994289,0.0 -41.372696,-18.5644429994289,0.0 -41.372402,-18.5639629994289,0.0 -41.372109,-18.563573999429,0.0 -41.371863,-18.563070999429,0.0 -41.371714,-18.562634999429,0.0 -41.371638,-18.562152999429,0.0 -41.371633,-18.561692999429,0.0 -41.371579,-18.561072999429,0.0 -41.371694,-18.560496999429,0.0 -41.371738,-18.5600599994291,0.0 -41.371757,-18.5595079994291,0.0 -41.371777,-18.5590249994291,0.0 -41.371891,-18.5583109994291,0.0 -41.371983,-18.5578269994291,0.0 -41.372099,-18.5573889994291,0.0 -41.37224,-18.5569509994291,0.0 -41.372355,-18.5564209994291,0.0 -41.372446,-18.5557999994292,0.0 -41.37256,-18.5551779994292,0.0 -41.372701,-18.5546939994292,0.0 -41.372768,-18.5541649994292,0.0 -41.372595,-18.5537519994292,0.0 -41.372446,-18.5532939994292,0.0 -41.372272,-18.5527429994292,0.0 -41.372075,-18.5523079994293,0.0 -41.371902,-18.5518269994293,0.0 -41.371561,-18.5514159994293,0.0 -41.370784,-18.5508699994293,0.0 -41.370372,-18.5506209994293,0.0 -41.370056,-18.5503019994293,0.0 -41.369691,-18.5500059994293,0.0 -41.369181,-18.5495739994293,0.0 -41.368888,-18.5491619994293,0.0 -41.368425,-18.5486829994293,0.0 -41.368109,-18.5483639994294,0.0 -41.367551,-18.5480239994294,0.0 -41.366995,-18.5478219994294,0.0 -41.366441,-18.5478719994294,0.0 -41.365984,-18.5479679994294,0.0 -41.365309,-18.5479509994294,0.0 -41.364248,-18.5479599994294,0.0 -41.363789,-18.5478489994294,0.0 -41.363377,-18.5475999994294,0.0 -41.363037,-18.5473039994294,0.0 -41.362625,-18.5470769994294,0.0 -41.3622359,-18.5466678994294,0.0 -41.362235,-18.5466669994294,0.0 -41.361893,-18.5462329994294,0.0 -41.36184,-18.5456809994294,0.0 -41.361932,-18.5451979994294,0.0 -41.362097,-18.5447819994294,0.0 -41.36214,-18.5442759994295,0.0 -41.362329,-18.5437919994295,0.0 -41.362662,-18.5433059994295,0.0 -41.362996,-18.5429579994295,0.0 -41.363233,-18.5425649994295,0.0 -41.363447,-18.5421729994295,0.0 -41.363707,-18.5417099994295,0.0 -41.363848,-18.5412489994295,0.0 -41.363843,-18.5407899994296,0.0 -41.363862,-18.5402149994296,0.0 -41.363713,-18.5397559994296,0.0 -41.363395,-18.5392759994296,0.0 -41.363151,-18.5388869994296,0.0 -41.362882,-18.5385209994296,0.0 -41.362397,-18.5381579994296,0.0 -41.361839,-18.5378629994296,0.0 -41.361428,-18.5376369994296,0.0 -41.360944,-18.5375259994296,0.0 -41.360459,-18.5372079994297,0.0 -41.359999,-18.5369129994297,0.0 -41.359705,-18.5364559994297,0.0 -41.35946,-18.5360669994297,0.0 -41.359215,-18.5356319994297,0.0 -41.359019,-18.5352199994297,0.0 -41.358868,-18.5346009994297,0.0 -41.358854,-18.5330599994298,0.0 -41.358776,-18.5324859994298,0.0 -41.358555,-18.5320049994298,0.0 -41.358358,-18.5315469994298,0.0 -41.358088,-18.5310199994298,0.0 -41.357771,-18.5306779994298,0.0 -41.357335,-18.5304519994298,0.0 -41.357042,-18.5300859994298,0.0 -41.356918,-18.5296509994299,0.0 -41.356745,-18.5292379994299,0.0 -41.356548,-18.5288029994299,0.0 -41.356424,-18.5283669994299,0.0 -41.356107,-18.5279789994299,0.0 -41.355812,-18.5274069994299,0.0 -41.355615,-18.5268789994299,0.0 -41.355369,-18.5263529994299,0.0 -41.355098,-18.52575699943,0.0 -41.354949,-18.52532099943,0.0 -41.355227,-18.52403099943,0.0 -41.355271,-18.52359399943,0.0 -41.355097,-18.52308999943,0.0 -41.354997,-18.52263099943,0.0 -41.35504,-18.5220559994301,0.0 -41.355083,-18.5215489994301,0.0 -41.355319,-18.5209959994301,0.0 -41.355484,-18.5205799994301,0.0 -41.355576,-18.5200969994301,0.0 -41.355811,-18.5194739994301,0.0 -41.355902,-18.5188979994301,0.0 -41.355898,-18.5184379994301,0.0 -41.355845,-18.5179789994302,0.0 -41.355889,-18.5174729994302,0.0 -41.355933,-18.5170349994302,0.0 -41.356146,-18.5165969994302,0.0 -41.356455,-18.5161799994302,0.0 -41.356766,-18.5158559994302,0.0 -41.357003,-18.5154399994302,0.0 -41.357336,-18.5149999994302,0.0 -41.357646,-18.5146759994302,0.0 -41.358004,-18.5142129994303,0.0 -41.358314,-18.5138879994303,0.0 -41.3583993,-18.5137634994303,0.0 -41.358599,-18.5134719994303,0.0 -41.358908,-18.5129629994303,0.0 -41.35929,-18.5126149994303,0.0 -41.359527,-18.5121299994303,0.0 -41.359764,-18.5117149994303,0.0 -41.360216,-18.5110439994303,0.0 -41.360452,-18.5105129994304,0.0 -41.360689,-18.5100509994304,0.0 -41.360878,-18.5096359994304,0.0 -41.360897,-18.5091299994304,0.0 -41.360917,-18.5086469994304,0.0 -41.360984,-18.5081399994304,0.0 -41.361052,-18.5076799994304,0.0 -41.361144,-18.5071729994304,0.0 -41.361043,-18.5067369994305,0.0 -41.361015,-18.5062779994305,0.0 -41.361083,-18.5058399994305,0.0 -41.361176,-18.5054019994305,0.0 -41.361316,-18.5049639994305,0.0 -41.361408,-18.5045039994305,0.0 -41.361694,-18.5041329994305,0.0 -41.362101,-18.5038309994305,0.0 -41.362604,-18.5034819994305,0.0 -41.363059,-18.5032479994305,0.0 -41.363467,-18.5029919994306,0.0 -41.363897,-18.5026429994306,0.0 -41.364159,-18.5022729994306,0.0 -41.364396,-18.5018569994306,0.0 -41.364656,-18.5013259994306,0.0 -41.364821,-18.5008879994306,0.0 -41.364927,-18.4989159994307,0.0 -41.36353,-18.4988479994307,0.0 -41.363049,-18.4989059994307,0.0 -41.362447,-18.4989889994307,0.0 -41.361888,-18.4988419994307,0.0 -41.361253,-18.4986039994307,0.0 -41.360766,-18.4984539994307,0.0 -41.36028,-18.4983279994307,0.0 -41.359719,-18.4981339994307,0.0 -41.359089,-18.4980569994307,0.0 -41.358359,-18.4978439994307,0.0 -41.357824,-18.4977189994307,0.0 -41.357218,-18.4976419994307,0.0 -41.356825,-18.4973979994307,0.0 -41.356408,-18.4971539994307,0.0 -41.355828,-18.4971219994307,0.0 -41.355369,-18.4971099994307,0.0 -41.354595,-18.4970829994307,0.0 -41.354017,-18.4971429994307,0.0 -41.353762,-18.4975409994307,0.0 -41.353604,-18.4979599994307,0.0 -41.353351,-18.4984499994307,0.0 -41.352764,-18.4994869994306,0.0 -41.352477,-18.5004169994306,0.0 -41.352264,-18.5008559994306,0.0 -41.351787,-18.5013429994306,0.0 -41.351429,-18.5017369994306,0.0 -41.350998,-18.5020389994306,0.0 -41.35064,-18.5024559994306,0.0 -41.350186,-18.5028739994306,0.0 -41.349779,-18.5031989994305,0.0 -41.349251,-18.5033419994305,0.0 -41.348794,-18.5034599994305,0.0 -41.34824,-18.5035339994305,0.0 -41.347783,-18.5036069994305,0.0 -41.347203,-18.5034279994305,0.0 -41.346839,-18.5031549994306,0.0 -41.346354,-18.5028139994306,0.0 -41.345845,-18.5025879994306,0.0 -41.34548,-18.5022009994306,0.0 -41.345164,-18.5018809994306,0.0 -41.344847,-18.5015159994306,0.0 -41.34429,-18.5011299994306,0.0 -41.344141,-18.5006939994306,0.0 -41.34392,-18.5002819994306,0.0 -41.343496,-18.5000269994306,0.0 -41.343388,-18.4997969994306,0.0 -41.342942,-18.4993699994306,0.0 -41.342503,-18.4991959994307,0.0 -41.341945,-18.4991179994306,0.0 -41.341387,-18.4990159994307,0.0 -41.340903,-18.4989819994307,0.0 -41.340366,-18.4987869994307,0.0 -41.339829,-18.4985699994307,0.0 -41.339265,-18.4982379994307,0.0 -41.338845,-18.4979019994307,0.0 -41.338522,-18.4975639994307,0.0 -41.338151,-18.4972049994307,0.0 -41.337802,-18.4968209994307,0.0 -41.337477,-18.4964139994307,0.0 -41.337062,-18.4962169994307,0.0 -41.336506,-18.4962299994307,0.0 -41.336047,-18.4961949994307,0.0 -41.335565,-18.4962529994307,0.0 -41.335112,-18.4964709994307,0.0 -41.334612,-18.4967369994307,0.0 -41.334209,-18.4970229994307,0.0 -41.33388,-18.4973769994307,0.0 -41.333507,-18.4978929994307,0.0 -41.333158,-18.4983849994307,0.0 -41.332805,-18.4987389994307,0.0 -41.332329,-18.4990039994306,0.0 -41.331877,-18.4992689994306,0.0 -41.3315,-18.4995999994306,0.0 -41.330312,-18.5000349994306,0.0 -41.328738,-18.5004319994306,0.0 -41.32821,-18.5006659994306,0.0 -41.327753,-18.5007849994306,0.0 -41.327272,-18.5009039994306,0.0 -41.326793,-18.5011609994306,0.0 -41.326434,-18.5014399994306,0.0 -41.326149,-18.5019249994306,0.0 -41.325694,-18.5022729994306,0.0 -41.325432,-18.5026429994306,0.0 -41.325146,-18.5029909994306,0.0 -41.324861,-18.5033839994305,0.0 -41.324428,-18.5035489994305,0.0 -41.323899,-18.5036909994305,0.0 -41.323299,-18.5039259994305,0.0 -41.322818,-18.5040679994305,0.0 -41.322386,-18.5042549994305,0.0 -41.321906,-18.5044659994305,0.0 -41.321402,-18.5047229994305,0.0 -41.320566,-18.5051209994305,0.0 -41.320516,-18.5053509994305,0.0 -41.320472,-18.5057889994305,0.0 -41.320115,-18.5062509994305,0.0 -41.319756,-18.5065989994305,0.0 -41.31947,-18.5069699994304,0.0 -41.319161,-18.5073629994304,0.0 -41.318875,-18.5077329994304,0.0 -41.318565,-18.5081729994304,0.0 -41.318401,-18.5086109994304,0.0 -41.318236,-18.5090259994304,0.0 -41.317974,-18.5094649994304,0.0 -41.317665,-18.5098589994304,0.0 -41.317379,-18.5102289994304,0.0 -41.317118,-18.5106679994303,0.0 -41.316711,-18.5110159994303,0.0 -41.315702,-18.5113929994303,0.0 -41.31515,-18.5116499994303,0.0 -41.314694,-18.5118379994303,0.0 -41.314164,-18.5118649994303,0.0 -41.313706,-18.5118229994303,0.0 -41.313078,-18.5117129994303,0.0 -41.312666,-18.5115089994303,0.0 -41.312159,-18.5113529994303,0.0 -41.311627,-18.5112189994303,0.0 -41.311169,-18.5111309994303,0.0 -41.310686,-18.5110889994303,0.0 -41.310179,-18.5109779994303,0.0 -41.309552,-18.5109369994303,0.0 -41.308878,-18.5110119994303,0.0 -41.308372,-18.5110159994303,0.0 -41.307649,-18.5111139994303,0.0 -41.307144,-18.5111869994303,0.0 -41.306566,-18.5113059994303,0.0 -41.306037,-18.5113799994303,0.0 -41.305531,-18.5114529994303,0.0 -41.305074,-18.5115259994303,0.0 -41.304473,-18.5116919994303,0.0 -41.304016,-18.5118329994303,0.0 -41.303511,-18.5118829994303,0.0 -41.303006,-18.5120479994303,0.0 -41.302405,-18.5122139994303,0.0 -41.301972,-18.5123789994303,0.0 -41.301372,-18.5125679994303,0.0 -41.300892,-18.5128009994303,0.0 -41.300291,-18.5130359994303,0.0 -41.29974,-18.5133399994303,0.0 -41.299284,-18.5136189994303,0.0 -41.298877,-18.5138759994303,0.0 -41.298493,-18.5141319994303,0.0 -41.298087,-18.5144799994303,0.0 -41.297655,-18.5147129994302,0.0 -41.297223,-18.5149929994302,0.0 -41.296791,-18.5151569994302,0.0 -41.296117,-18.5152779994302,0.0 -41.295635,-18.5153049994302,0.0 -41.295105,-18.5153089994302,0.0 -41.294648,-18.5154049994302,0.0 -41.294241,-18.5156609994302,0.0 -41.293761,-18.5159409994302,0.0 -41.293355,-18.5163349994302,0.0 -41.293021,-18.5167509994302,0.0 -41.292808,-18.5171899994302,0.0 -41.292595,-18.5175829994302,0.0 -41.292599,-18.5181349994301,0.0 -41.292531,-18.5185949994301,0.0 -41.292513,-18.5192159994301,0.0 -41.292445,-18.5197449994301,0.0 -41.292522,-18.5202509994301,0.0 -41.292526,-18.5207569994301,0.0 -41.292579,-18.5212619994301,0.0 -41.292776,-18.5216969994301,0.0 -41.29307,-18.52220099943,0.0 -41.293362,-18.52254299943,0.0 -41.293703,-18.52295399943,0.0 -41.294091,-18.52322699943,0.0 -41.294407,-18.52354699943,0.0 -41.294459,-18.52398299943,0.0 -41.294247,-18.52446799943,0.0 -41.293913,-18.52483799943,0.0 -41.293529,-18.52509399943,0.0 -41.293001,-18.52530599943,0.0 -41.292496,-18.52544799943,0.0 -41.292015,-18.5256119994299,0.0 -41.291583,-18.5258229994299,0.0 -41.291249,-18.5261249994299,0.0 -41.290793,-18.5263809994299,0.0 -41.290434,-18.5266829994299,0.0 -41.290269,-18.5270979994299,0.0 -41.290201,-18.5276279994299,0.0 -41.290253,-18.5280639994299,0.0 -41.290354,-18.5285689994299,0.0 -41.290431,-18.5290509994299,0.0 -41.290604,-18.5295559994298,0.0 -41.290584,-18.5299929994298,0.0 -41.290564,-18.5304529994298,0.0 -41.290472,-18.5309139994298,0.0 -41.290137,-18.5312149994298,0.0 -41.2900073,-18.5313049994298,0.0 -41.289634,-18.5315639994298,0.0 -41.289226,-18.5317749994298,0.0 -41.28877,-18.5320309994298,0.0 -41.288362,-18.5322639994298,0.0 -41.287979,-18.5325199994298,0.0 -41.287668,-18.5328449994298,0.0 -41.287237,-18.5331009994298,0.0 -41.286951,-18.5334949994297,0.0 -41.286787,-18.5340019994297,0.0 -41.286671,-18.5344859994297,0.0 -41.286651,-18.5349459994297,0.0 -41.286872,-18.5354959994297,0.0 -41.286974,-18.5360469994297,0.0 -41.287415,-18.5369169994297,0.0 -41.287732,-18.5373049994297,0.0 -41.288437,-18.5379659994296,0.0 -41.2888405,-18.5381463994296,0.0 -41.288994,-18.5382149994296,0.0 -41.289477,-18.5383259994296,0.0 -41.289985,-18.5385519994296,0.0 -41.290493,-18.5387319994296,0.0 -41.290952,-18.5388429994296,0.0 -41.291411,-18.5388849994296,0.0 -41.291917,-18.5389269994296,0.0 -41.292423,-18.5389229994296,0.0 -41.292882,-18.5389419994296,0.0 -41.293437,-18.5390529994296,0.0 -41.293897,-18.5392329994296,0.0 -41.294429,-18.5394119994296,0.0 -41.294865,-18.5397309994296,0.0 -41.295182,-18.5400499994296,0.0 -41.295474,-18.5404159994296,0.0 -41.295862,-18.5406879994296,0.0 -41.296395,-18.5409599994295,0.0 -41.296902,-18.5410479994295,0.0 -41.297406,-18.5409709994296,0.0 -41.297866,-18.5409709994296,0.0 -41.2980584,-18.5409402994295,0.0 -41.298323,-18.5408979994296,0.0 -41.298879,-18.5410549994295,0.0 -41.299195,-18.5413739994295,0.0 -41.29944,-18.5417629994295,0.0 -41.299155,-18.5422249994295,0.0 -41.298796,-18.5425269994295,0.0 -41.2988,-18.5429869994295,0.0 -41.29878,-18.5434239994295,0.0 -41.298591,-18.5439079994295,0.0 -41.298378,-18.5443699994295,0.0 -41.298238,-18.5448539994295,0.0 -41.298074,-18.5453609994294,0.0 -41.297861,-18.5458689994294,0.0 -41.297793,-18.5463059994294,0.0 -41.297701,-18.5468129994294,0.0 -41.297802,-18.5472949994294,0.0 -41.29754,-18.5477109994294,0.0 -41.297472,-18.5481709994294,0.0 -41.29726,-18.5486559994294,0.0 -41.296998,-18.5491179994293,0.0 -41.296495,-18.5493979994293,0.0 -41.296088,-18.5497229994293,0.0 -41.295632,-18.5499569994293,0.0 -41.295176,-18.5502369994293,0.0 -41.294719,-18.5503319994293,0.0 -41.294261,-18.5503819994293,0.0 -41.293684,-18.5504559994293,0.0 -41.293179,-18.5505979994293,0.0 -41.292722,-18.5508079994293,0.0 -41.292315,-18.5510649994293,0.0 -41.291981,-18.5515269994293,0.0 -41.29172,-18.5519659994293,0.0 -41.291555,-18.5524279994292,0.0 -41.291512,-18.5529569994292,0.0 -41.291565,-18.5534849994292,0.0 -41.291569,-18.5539449994292,0.0 -41.291646,-18.5544499994292,0.0 -41.2916481,-18.5546860994292,0.0 -41.291651,-18.5550249994292,0.0 -41.291534,-18.5554629994292,0.0 -41.291467,-18.5559689994292,0.0 -41.291254,-18.5564079994292,0.0 -41.290895,-18.5567329994291,0.0 -41.290512,-18.5570119994291,0.0 -41.290152,-18.5572909994291,0.0 -41.289819,-18.5577069994291,0.0 -41.289605,-18.5580999994291,0.0 -41.289321,-18.5586539994291,0.0 -41.289012,-18.5592309994291,0.0 -41.288896,-18.5596689994291,0.0 -41.288755,-18.560106999429,0.0 -41.288736,-18.560658999429,0.0 -41.288645,-18.561326999429,0.0 -41.288746,-18.561808999429,0.0 -41.289064,-18.562288999429,0.0 -41.289502,-18.562791999429,0.0 -41.289916,-18.563178999429,0.0 -41.29028,-18.563451999429,0.0 -41.290694,-18.5639089994289,0.0 -41.290962,-18.5642969994289,0.0 -41.291352,-18.5647079994289,0.0 -41.291621,-18.5651429994289,0.0 -41.291865,-18.5655319994289,0.0 -41.292254,-18.5658729994289,0.0 -41.2924344,-18.5661123994289,0.0 -41.292547,-18.5662619994289,0.0 -41.292863,-18.5665809994289,0.0 -41.29318,-18.5669239994289,0.0 -41.293546,-18.5674499994289,0.0 -41.293864,-18.5678839994289,0.0 -41.293964,-18.5683199994288,0.0 -41.294137,-18.5688469994288,0.0 -41.294239,-18.5694439994288,0.0 -41.294364,-18.5699259994288,0.0 -41.294417,-18.5704319994288,0.0 -41.294542,-18.5709829994288,0.0 -41.294667,-18.5714179994288,0.0 -41.294841,-18.5719919994287,0.0 -41.295038,-18.5724959994287,0.0 -41.295331,-18.5728849994287,0.0 -41.295937,-18.5732249994287,0.0 -41.296349,-18.5734279994287,0.0 -41.29698,-18.5739289994287,0.0 -41.297369,-18.5742939994287,0.0 -41.297806,-18.5746809994287,0.0 -41.29822,-18.5751369994287,0.0 -41.298682,-18.5755019994286,0.0 -41.298854,-18.5759139994286,0.0 -41.298931,-18.5763499994286,0.0 -41.298935,-18.5768099994286,0.0 -41.298891,-18.5772699994286,0.0 -41.298846,-18.5777079994286,0.0 -41.298856,-18.5787649994286,0.0 -41.29903,-18.5793389994285,0.0 -41.299324,-18.5798419994285,0.0 -41.299593,-18.5802539994285,0.0 -41.300007,-18.5807789994285,0.0 -41.300228,-18.5811909994285,0.0 -41.300595,-18.5817859994285,0.0 -41.3008403,-18.5820424994285,0.0 -41.301228,-18.5824479994285,0.0 -41.301569,-18.5828359994285,0.0 -41.301911,-18.5833389994284,0.0 -41.302157,-18.5838889994284,0.0 -41.302523,-18.5843459994284,0.0 -41.302768,-18.5847349994284,0.0 -41.30294,-18.5851469994284,0.0 -41.302969,-18.5856529994284,0.0 -41.30319,-18.5860879994284,0.0 -41.303435,-18.5864999994284,0.0 -41.303655,-18.5868889994283,0.0 -41.303877,-18.5874389994283,0.0 -41.304098,-18.5878509994283,0.0 -41.304223,-18.5883789994283,0.0 -41.30442,-18.5888139994283,0.0 -41.304689,-18.5892029994283,0.0 -41.304982,-18.5896369994283,0.0 -41.305254,-18.5903709994283,0.0 -41.3055,-18.5909439994282,0.0 -41.305626,-18.5914949994282,0.0 -41.305635,-18.5925519994282,0.0 -41.305808,-18.5930109994282,0.0 -41.305934,-18.5935609994282,0.0 -41.306035,-18.5940659994282,0.0 -41.306184,-18.5945709994281,0.0 -41.30631,-18.5950989994281,0.0 -41.306506,-18.5955109994281,0.0 -41.306631,-18.5959699994281,0.0 -41.306828,-18.5963819994281,0.0 -41.306833,-18.5969339994281,0.0 -41.306596,-18.5973959994281,0.0 -41.306238,-18.5978359994281,0.0 -41.305976,-18.5982289994281,0.0 -41.30586,-18.598735999428,0.0 -41.305625,-18.599426999428,0.0 -41.305414,-18.600072999428,0.0 -41.305274,-18.600533999428,0.0 -41.304794,-18.600836999428,0.0 -41.3047203,-18.600886099428,0.0 -41.304339,-18.601139999428,0.0 -41.303809,-18.601212999428,0.0 -41.30323,-18.601263999428,0.0 -41.302725,-18.601382999428,0.0 -41.302219,-18.601455999428,0.0 -41.301713,-18.601505999428,0.0 -41.301208,-18.601670999428,0.0 -41.300703,-18.601812999428,0.0 -41.300173,-18.601840999428,0.0 -41.299692,-18.6019599994279,0.0 -41.299235,-18.6021239994279,0.0 -41.298779,-18.6023349994279,0.0 -41.298155,-18.6026849994279,0.0 -41.297771,-18.6029409994279,0.0 -41.297437,-18.6032659994279,0.0 -41.297128,-18.6037739994279,0.0 -41.296963,-18.6041889994279,0.0 -41.29716,-18.6046939994279,0.0 -41.297405,-18.6050819994279,0.0 -41.297723,-18.6055859994279,0.0 -41.297847,-18.6060219994278,0.0 -41.2979,-18.6064809994278,0.0 -41.297856,-18.6070099994278,0.0 -41.297788,-18.6074479994278,0.0 -41.297623,-18.6078859994278,0.0 -41.297312,-18.6082099994278,0.0 -41.296857,-18.6085359994278,0.0 -41.296377,-18.6087469994278,0.0 -41.29597,-18.6091409994278,0.0 -41.295708,-18.6095109994278,0.0 -41.295422,-18.6098809994277,0.0 -41.295258,-18.6103889994277,0.0 -41.295142,-18.6108719994277,0.0 -41.295073,-18.6113099994277,0.0 -41.294958,-18.6118629994277,0.0 -41.294962,-18.6123229994277,0.0 -41.294918,-18.6128059994277,0.0 -41.294826,-18.6133349994277,0.0 -41.294686,-18.6138189994276,0.0 -41.29457,-18.6143259994276,0.0 -41.294381,-18.6147419994276,0.0 -41.294144,-18.6152269994276,0.0 -41.294317,-18.6156849994276,0.0 -41.294538,-18.6160969994276,0.0 -41.294878,-18.6164389994276,0.0 -41.29522,-18.6168729994276,0.0 -41.29573,-18.6172599994275,0.0 -41.296119,-18.6176019994275,0.0 -41.296507,-18.6179199994275,0.0 -41.296849,-18.6183549994275,0.0 -41.297287,-18.6187419994275,0.0 -41.297675,-18.6190609994275,0.0 -41.298042,-18.6195409994275,0.0 -41.298479,-18.6198819994275,0.0 -41.29882,-18.6202929994275,0.0 -41.299113,-18.6206579994275,0.0 -41.299432,-18.6212539994274,0.0 -41.299604,-18.6216889994274,0.0 -41.29985,-18.6221699994274,0.0 -41.299951,-18.6226519994274,0.0 -41.29981,-18.6231129994274,0.0 -41.299959,-18.6235719994274,0.0 -41.299868,-18.6241929994274,0.0 -41.299752,-18.6246769994273,0.0 -41.299612,-18.6251609994273,0.0 -41.299714,-18.6257579994273,0.0 -41.299912,-18.6263309994273,0.0 -41.300327,-18.6269029994273,0.0 -41.300669,-18.6274059994273,0.0 -41.300986,-18.6277479994273,0.0 -41.301183,-18.6282749994273,0.0 -41.301404,-18.6286649994273,0.0 -41.301721,-18.6290299994272,0.0 -41.301967,-18.6295339994272,0.0 -41.302259,-18.6298759994272,0.0 -41.302528,-18.6302419994272,0.0 -41.302991,-18.6307899994272,0.0 -41.303382,-18.6313159994272,0.0 -41.3037,-18.6317959994272,0.0 -41.303897,-18.6322539994272,0.0 -41.303998,-18.6327359994271,0.0 -41.303833,-18.6331739994271,0.0 -41.303693,-18.6336809994271,0.0 -41.303335,-18.6340979994271,0.0 -41.302977,-18.6346069994271,0.0 -41.302521,-18.6348409994271,0.0 -41.302016,-18.6350289994271,0.0 -41.301584,-18.6352159994271,0.0 -41.301127,-18.6353349994271,0.0 -41.300669,-18.6354079994271,0.0 -41.300091,-18.6354589994271,0.0 -41.299487,-18.6353719994271,0.0 -41.298787,-18.6352849994271,0.0 -41.297868,-18.6351089994271,0.0 -41.297409,-18.6349519994271,0.0 -41.296972,-18.6346789994271,0.0 -41.296632,-18.6343829994271,0.0 -41.296196,-18.6342259994271,0.0 -41.29552,-18.6340929994271,0.0 -41.295012,-18.6340059994271,0.0 -41.294432,-18.6338489994271,0.0 -41.293972,-18.6336689994271,0.0 -41.293344,-18.6335589994271,0.0 -41.292837,-18.6334719994271,0.0 -41.292306,-18.6334759994271,0.0 -41.291823,-18.6334109994271,0.0 -41.291173,-18.6335309994271,0.0 -41.290666,-18.6334889994271,0.0 -41.29004,-18.6335859994271,0.0 -41.289581,-18.6335209994271,0.0 -41.288569,-18.6336209994271,0.0 -41.287966,-18.6336949994271,0.0 -41.287244,-18.6337929994271,0.0 -41.286714,-18.6338659994271,0.0 -41.286184,-18.6339859994271,0.0 -41.28539,-18.6341529994271,0.0 -41.28486,-18.6342949994271,0.0 -41.284355,-18.6344599994271,0.0 -41.283923,-18.6346249994271,0.0 -41.283441,-18.6347209994271,0.0 -41.28296,-18.6348859994271,0.0 -41.282455,-18.6350049994271,0.0 -41.281998,-18.6351459994271,0.0 -41.281516,-18.6352879994271,0.0 -41.281084,-18.6354989994271,0.0 -41.280702,-18.6358699994271,0.0 -41.280271,-18.636240999427,0.0 -41.279865,-18.636749999427,0.0 -41.279579,-18.637143999427,0.0 -41.279222,-18.637605999427,0.0 -41.278936,-18.637999999427,0.0 -41.278506,-18.638554999427,0.0 -41.278077,-18.639086999427,0.0 -41.277815,-18.639479999427,0.0 -41.277555,-18.640079999427,0.0 -41.277487,-18.6405409994269,0.0 -41.277274,-18.6410249994269,0.0 -41.277109,-18.6414409994269,0.0 -41.276824,-18.6419259994269,0.0 -41.2766686,-18.6424062994269,0.0 -41.27666,-18.6424329994269,0.0 -41.276504,-18.6426929994269,0.0 -41.276327,-18.6429879994269,0.0 -41.276043,-18.6436339994269,0.0 -41.275782,-18.6441189994268,0.0 -41.27557,-18.6446489994268,0.0 -41.275237,-18.6452499994268,0.0 -41.275024,-18.6456879994268,0.0 -41.274738,-18.6460359994268,0.0 -41.274379,-18.6464059994268,0.0 -41.274069,-18.6467309994268,0.0 -41.273564,-18.6469649994268,0.0 -41.273108,-18.6472209994268,0.0 -41.272603,-18.6473639994268,0.0 -41.272074,-18.6476439994268,0.0 -41.271692,-18.6479919994267,0.0 -41.271431,-18.6484769994267,0.0 -41.271218,-18.6489379994267,0.0 -41.271077,-18.6493989994267,0.0 -41.271154,-18.6499509994267,0.0 -41.271206,-18.6503869994267,0.0 -41.27121,-18.6508469994267,0.0 -41.271359,-18.6512829994267,0.0 -41.271484,-18.6517419994266,0.0 -41.271705,-18.6521999994266,0.0 -41.27195,-18.6526809994266,0.0 -41.272195,-18.6530689994266,0.0 -41.27273,-18.6535249994266,0.0 -41.273262,-18.6536819994266,0.0 -41.273817,-18.6536539994266,0.0 -41.274299,-18.6536269994266,0.0 -41.274829,-18.6535539994266,0.0 -41.27536,-18.6535959994266,0.0 -41.275819,-18.6537299994266,0.0 -41.276113,-18.6541409994266,0.0 -41.276141,-18.6546469994266,0.0 -41.275904,-18.6550629994266,0.0 -41.275376,-18.6554119994265,0.0 -41.27492,-18.6556689994265,0.0 -41.274634,-18.6560159994265,0.0 -41.273914,-18.6564589994265,0.0 -41.273579,-18.6567599994265,0.0 -41.273244,-18.6570849994265,0.0 -41.272812,-18.6573639994265,0.0 -41.27226,-18.6576449994265,0.0 -41.271803,-18.6578319994265,0.0 -41.271371,-18.6580429994265,0.0 -41.270939,-18.6582989994265,0.0 -41.270556,-18.6586009994265,0.0 -41.270074,-18.6587429994265,0.0 -41.269472,-18.6587709994265,0.0 -41.269039,-18.6590039994265,0.0 -41.268608,-18.6592839994264,0.0 -41.268079,-18.6595639994264,0.0 -41.26772,-18.6598429994264,0.0 -41.267095,-18.6600779994264,0.0 -41.266662,-18.6602879994264,0.0 -41.265699,-18.6604799994264,0.0 -41.265242,-18.6605989994264,0.0 -41.264655,-18.6606249994264,0.0 -41.264157,-18.6607219994264,0.0 -41.26375,-18.6610709994264,0.0 -41.263342,-18.6612809994264,0.0 -41.263008,-18.6616739994264,0.0 -41.262819,-18.6621129994264,0.0 -41.262702,-18.6625739994264,0.0 -41.262537,-18.6629889994264,0.0 -41.262227,-18.6633819994263,0.0 -41.261794,-18.6635929994263,0.0 -41.261312,-18.6636429994263,0.0 -41.260781,-18.6636239994263,0.0 -41.260299,-18.6635819994263,0.0 -41.259891,-18.6639069994263,0.0 -41.259605,-18.6642999994263,0.0 -41.259173,-18.6645559994263,0.0 -41.258692,-18.6647209994263,0.0 -41.258333,-18.6650229994263,0.0 -41.257974,-18.6653019994263,0.0 -41.257663,-18.6656259994263,0.0 -41.257474,-18.6660879994263,0.0 -41.257552,-18.6667079994263,0.0 -41.257893,-18.6670499994262,0.0 -41.258305,-18.6672999994262,0.0 -41.258598,-18.6677569994262,0.0 -41.258772,-18.6682619994262,0.0 -41.258704,-18.6687449994262,0.0 -41.258442,-18.6691149994262,0.0 -41.258325,-18.6695989994262,0.0 -41.258185,-18.6700599994262,0.0 -41.25814,-18.6705199994262,0.0 -41.258289,-18.6709789994261,0.0 -41.25851,-18.6714139994261,0.0 -41.258876,-18.6718249994261,0.0 -41.259144,-18.6721909994261,0.0 -41.259437,-18.6725789994261,0.0 -41.259827,-18.6730589994261,0.0 -41.260048,-18.6734479994261,0.0 -41.260124,-18.6739079994261,0.0 -41.259936,-18.6744379994261,0.0 -41.259843,-18.674875999426,0.0 -41.260041,-18.675333999426,0.0 -41.260214,-18.675837999426,0.0 -41.260387,-18.676296999426,0.0 -41.2608,-18.676591999426,0.0 -41.26114,-18.676888999426,0.0 -41.261624,-18.677022999426,0.0 -41.262131,-18.677087999426,0.0 -41.26259,-18.677198999426,0.0 -41.262931,-18.677540999426,0.0 -41.263032,-18.677999999426,0.0 -41.263011,-18.6784369994259,0.0 -41.262871,-18.6788979994259,0.0 -41.262514,-18.6794299994259,0.0 -41.262083,-18.6798469994259,0.0 -41.26228,-18.6803289994259,0.0 -41.262501,-18.6807869994259,0.0 -41.262674,-18.6812449994259,0.0 -41.263087,-18.6814949994259,0.0 -41.263405,-18.6819519994259,0.0 -41.263935,-18.6819479994259,0.0 -41.264324,-18.6822209994258,0.0 -41.264593,-18.6826319994258,0.0 -41.264645,-18.6830689994258,0.0 -41.264674,-18.6836439994258,0.0 -41.264702,-18.6840799994258,0.0 -41.265019,-18.6843999994258,0.0 -41.265216,-18.6849269994258,0.0 -41.265173,-18.6854329994258,0.0 -41.26496,-18.6859409994257,0.0 -41.26482,-18.6865169994257,0.0 -41.264969,-18.6869979994257,0.0 -41.26478,-18.6874599994257,0.0 -41.264324,-18.6877159994257,0.0 -41.26396,-18.6874199994257,0.0 -41.263479,-18.6876539994257,0.0 -41.263387,-18.6881149994257,0.0 -41.263318,-18.6885749994257,0.0 -41.262813,-18.6887169994257,0.0 -41.262285,-18.6890209994257,0.0 -41.262266,-18.6895959994257,0.0 -41.262173,-18.6900329994256,0.0 -41.261691,-18.6901059994256,0.0 -41.261233,-18.6901559994256,0.0 -41.260701,-18.6899759994256,0.0 -41.260194,-18.6899109994256,0.0 -41.259883,-18.6902359994256,0.0 -41.259354,-18.6904699994256,0.0 -41.258897,-18.6906569994256,0.0 -41.258611,-18.6910739994256,0.0 -41.258374,-18.6914659994256,0.0 -41.257819,-18.6915629994256,0.0 -41.256901,-18.6913399994256,0.0 -41.256322,-18.6913449994256,0.0 -41.255841,-18.6916019994256,0.0 -41.255433,-18.6918349994256,0.0 -41.255049,-18.6920909994256,0.0 -41.254543,-18.6921179994256,0.0 -41.254011,-18.6919839994256,0.0 -41.253526,-18.6917349994256,0.0 -41.253066,-18.6915779994256,0.0 -41.252607,-18.6915359994256,0.0 -41.252124,-18.6914699994256,0.0 -41.251642,-18.6914739994256,0.0 -41.251185,-18.6916619994256,0.0 -41.250753,-18.6918949994256,0.0 -41.250466,-18.6922649994256,0.0 -41.250206,-18.6927959994256,0.0 -41.250162,-18.6932799994256,0.0 -41.250142,-18.6937399994255,0.0 -41.25005,-18.6942919994255,0.0 -41.25015,-18.6947279994255,0.0 -41.25013,-18.6951649994255,0.0 -41.250182,-18.6956019994255,0.0 -41.250355,-18.6960139994255,0.0 -41.250647,-18.6963569994255,0.0 -41.250988,-18.6966759994255,0.0 -41.2514,-18.6969029994255,0.0 -41.251716,-18.6972219994255,0.0 -41.252081,-18.6975179994254,0.0 -41.252494,-18.6978369994254,0.0 -41.252859,-18.6982249994254,0.0 -41.253297,-18.6985429994254,0.0 -41.253637,-18.6988629994254,0.0 -41.254076,-18.6993419994254,0.0 -41.254321,-18.6997769994254,0.0 -41.254542,-18.7001889994254,0.0 -41.254618,-18.7006249994254,0.0 -41.254526,-18.7011319994254,0.0 -41.25441,-18.7016389994253,0.0 -41.254317,-18.7020989994253,0.0 -41.254154,-18.7026979994253,0.0 -41.254037,-18.7031589994253,0.0 -41.253605,-18.7033699994253,0.0 -41.253196,-18.7035799994253,0.0 -41.252714,-18.7036759994253,0.0 -41.252232,-18.7036799994253,0.0 -41.25175,-18.7037519994253,0.0 -41.251293,-18.7039169994253,0.0 -41.251104,-18.7044239994253,0.0 -41.250915,-18.7048859994252,0.0 -41.250798,-18.7053239994252,0.0 -41.250366,-18.7055569994252,0.0 -41.249885,-18.7057679994252,0.0 -41.249405,-18.7060709994252,0.0 -41.249143,-18.7064639994252,0.0 -41.249051,-18.7069009994252,0.0 -41.248862,-18.7074319994252,0.0 -41.248649,-18.7078929994252,0.0 -41.248557,-18.7083999994252,0.0 -41.248368,-18.7088149994252,0.0 -41.24796,-18.7090719994251,0.0 -41.247479,-18.7093279994251,0.0 -41.247048,-18.7092009994251,0.0 -41.247289,-18.7096749994251,0.0 -41.24763,-18.7099709994251,0.0 -41.248315,-18.7099839994251,0.0 -41.24857,-18.7098479994251,0.0 -41.249052,-18.7097299994251,0.0 -41.249557,-18.7096109994251,0.0 -41.250038,-18.7094229994251,0.0 -41.250471,-18.7092349994251,0.0 -41.251024,-18.7090469994251,0.0 -41.251506,-18.7089739994252,0.0 -41.251966,-18.7091079994251,0.0 -41.252474,-18.7092419994251,0.0 -41.25291,-18.7094229994251,0.0 -41.253346,-18.7096489994251,0.0 -41.2535705,-18.7097302994251,0.0 -41.253782,-18.7098069994251,0.0 -41.254147,-18.7101029994251,0.0 -41.254605,-18.7100759994251,0.0 -41.255111,-18.7099799994251,0.0 -41.255593,-18.7099529994251,0.0 -41.255928,-18.7095829994251,0.0 -41.256238,-18.7091889994251,0.0 -41.256426,-18.7086359994252,0.0 -41.256422,-18.7081529994252,0.0 -41.256586,-18.7075999994252,0.0 -41.256969,-18.7073209994252,0.0 -41.257429,-18.7074089994252,0.0 -41.257862,-18.7072449994252,0.0 -41.258319,-18.7071259994252,0.0 -41.258848,-18.7069609994252,0.0 -41.259354,-18.7067959994252,0.0 -41.25986,-18.7066999994252,0.0 -41.260512,-18.7067629994252,0.0 -41.26126,-18.7068259994252,0.0 -41.261791,-18.7068219994252,0.0 -41.2623,-18.7070019994252,0.0 -41.262713,-18.7073209994252,0.0 -41.263222,-18.7075689994252,0.0 -41.263705,-18.7077029994252,0.0 -41.264164,-18.7077459994252,0.0 -41.264623,-18.7077189994252,0.0 -41.265082,-18.7078299994252,0.0 -41.265735,-18.7080319994252,0.0 -41.266171,-18.7082119994252,0.0 -41.266727,-18.7082539994252,0.0 -41.267256,-18.7081119994252,0.0 -41.267714,-18.7080619994252,0.0 -41.268198,-18.7081499994252,0.0 -41.268706,-18.7083069994252,0.0 -41.269188,-18.7082799994252,0.0 -41.269695,-18.7082759994252,0.0 -41.270178,-18.7082949994252,0.0 -41.270686,-18.7084059994252,0.0 -41.271121,-18.7085629994252,0.0 -41.271748,-18.7085349994252,0.0 -41.272448,-18.7085299994252,0.0 -41.273029,-18.7087089994252,0.0 -41.273442,-18.7090039994251,0.0 -41.273807,-18.7093689994251,0.0 -41.274148,-18.7097109994251,0.0 -41.274512,-18.7099839994251,0.0 -41.274853,-18.7103039994251,0.0 -41.275266,-18.7105989994251,0.0 -41.275871,-18.7107779994251,0.0 -41.276329,-18.7107509994251,0.0 -41.276836,-18.7108159994251,0.0 -41.277417,-18.7109489994251,0.0 -41.277876,-18.7110149994251,0.0 -41.278431,-18.7110099994251,0.0 -41.278914,-18.7111209994251,0.0 -41.279543,-18.7112769994251,0.0 -41.280221,-18.7115009994251,0.0 -41.280657,-18.7116589994251,0.0 -41.281188,-18.7116549994251,0.0 -41.281693,-18.7115119994251,0.0 -41.282272,-18.7114389994251,0.0 -41.282803,-18.7115029994251,0.0 -41.2830505,-18.7115009994251,0.0 -41.283088,-18.7115006994251,0.0 -41.2831939,-18.7114998994251,0.0 -41.2832169,-18.7114996994251,0.0 -41.28331,-18.7114989994251,0.0 -41.283817,-18.7115639994251,0.0 -41.284277,-18.7116749994251,0.0 -41.284759,-18.7116709994251,0.0 -41.285242,-18.7117359994251,0.0 -41.28604,-18.7119369994251,0.0 -41.286644,-18.7119779994251,0.0 -41.287128,-18.7120659994251,0.0 -41.287586,-18.7120849994251,0.0 -41.288044,-18.7120579994251,0.0 -41.288575,-18.7120309994251,0.0 -41.289056,-18.7118659994251,0.0 -41.289538,-18.7117699994251,0.0 -41.289971,-18.7116059994251,0.0 -41.290815,-18.7115759994251,0.0 -41.291297,-18.7115029994251,0.0 -41.291827,-18.7114289994251,0.0 -41.292358,-18.7114249994251,0.0 -41.292791,-18.7112609994251,0.0 -41.293297,-18.7111179994251,0.0 -41.293728,-18.7108159994251,0.0 -41.294137,-18.7106059994251,0.0 -41.29464,-18.7102569994251,0.0 -41.295048,-18.7099539994251,0.0 -41.29548,-18.7097669994251,0.0 -41.295961,-18.7095329994251,0.0 -41.296393,-18.7092989994251,0.0 -41.296777,-18.7090429994251,0.0 -41.297184,-18.7087639994252,0.0 -41.297617,-18.7085769994252,0.0 -41.298097,-18.7083199994252,0.0 -41.298602,-18.7080399994252,0.0 -41.299081,-18.7077139994252,0.0 -41.299585,-18.7074339994252,0.0 -41.300042,-18.7072689994252,0.0 -41.300547,-18.7070349994252,0.0 -41.30115,-18.7069609994252,0.0 -41.301608,-18.7069339994252,0.0 -41.302332,-18.7069279994252,0.0 -41.30284,-18.7070619994252,0.0 -41.303323,-18.7071039994252,0.0 -41.303783,-18.7072609994252,0.0 -41.304508,-18.7073929994252,0.0 -41.305039,-18.7074799994252,0.0 -41.305499,-18.7076609994252,0.0 -41.305985,-18.7079779994252,0.0 -41.306374,-18.7082739994252,0.0 -41.306739,-18.7085929994252,0.0 -41.306959,-18.7089819994251,0.0 -41.307132,-18.7094409994251,0.0 -41.307427,-18.7099669994251,0.0 -41.307552,-18.7104719994251,0.0 -41.307556,-18.7109319994251,0.0 -41.307609,-18.7113679994251,0.0 -41.30783,-18.7118489994251,0.0 -41.308221,-18.7124209994251,0.0 -41.308682,-18.7126929994251,0.0 -41.309191,-18.712849999425,0.0 -41.309674,-18.712936999425,0.0 -41.3100424,-18.712897999425,0.0 -41.3100591,-18.712896199425,0.0 -41.310373,-18.712862999425,0.0 -41.310687,-18.712859999425,0.0 -41.310808,-18.712858799425,0.0 -41.3108099,-18.712858799425,0.0 -41.311001,-18.712856999425,0.0 -41.311484,-18.712898999425,0.0 -41.313076,-18.7128859994251,0.0 -41.313558,-18.712812999425,0.0 -41.314089,-18.7127859994251,0.0 -41.314644,-18.712780999425,0.0 -41.315222,-18.7127299994251,0.0 -41.315679,-18.7125659994251,0.0 -41.316135,-18.7122629994251,0.0 -41.316591,-18.7120289994251,0.0 -41.317048,-18.7118409994251,0.0 -41.31765,-18.7116979994251,0.0 -41.318157,-18.7116939994251,0.0 -41.318593,-18.7118969994251,0.0 -41.318958,-18.7122159994251,0.0 -41.319831,-18.7126689994251,0.0 -41.320219,-18.712940999425,0.0 -41.320632,-18.713190999425,0.0 -41.321093,-18.713462999425,0.0 -41.321482,-18.713804999425,0.0 -41.321679,-18.714216999425,0.0 -41.322092,-18.714511999425,0.0 -41.322432,-18.714807999425,0.0 -41.323305,-18.715260999425,0.0 -41.323764,-18.715325999425,0.0 -41.324177,-18.715552999425,0.0 -41.324589,-18.715801999425,0.0 -41.325146,-18.715957999425,0.0 -41.325678,-18.716045999425,0.0 -41.326329,-18.716039999425,0.0 -41.326811,-18.715989999425,0.0 -41.327342,-18.715962999425,0.0 -41.327897,-18.715934999425,0.0 -41.328958,-18.715925999425,0.0 -41.329465,-18.715898999425,0.0 -41.330769,-18.716071999425,0.0 -41.33241,-18.716057999425,0.0 -41.333063,-18.716167999425,0.0 -41.333763,-18.716207999425,0.0 -41.334222,-18.716272999425,0.0 -41.334825,-18.716267999425,0.0 -41.335307,-18.716148999425,0.0 -41.335764,-18.716029999425,0.0 -41.336318,-18.715932999425,0.0 -41.336776,-18.715790999425,0.0 -41.337256,-18.715602999425,0.0 -41.33793,-18.715367999425,0.0 -41.338411,-18.715225999425,0.0 -41.33894,-18.715036999425,0.0 -41.339421,-18.714848999425,0.0 -41.340022,-18.714567999425,0.0 -41.340405,-18.714265999425,0.0 -41.340813,-18.713986999425,0.0 -41.341774,-18.713518999425,0.0 -41.342206,-18.713330999425,0.0 -41.342711,-18.713119999425,0.0 -41.343288,-18.712930999425,0.0 -41.343745,-18.7127889994251,0.0 -41.344252,-18.7127159994251,0.0 -41.344733,-18.7125509994251,0.0 -41.345236,-18.7122249994251,0.0 -41.345642,-18.7117379994251,0.0 -41.345928,-18.7113219994251,0.0 -41.34631,-18.7109739994251,0.0 -41.346741,-18.7105329994251,0.0 -41.347316,-18.7101139994251,0.0 -41.347699,-18.7097889994251,0.0 -41.348514,-18.7091849994251,0.0 -41.348944,-18.7087669994252,0.0 -41.349376,-18.7085329994252,0.0 -41.34988,-18.7082069994252,0.0 -41.350335,-18.7078579994252,0.0 -41.350815,-18.7075319994252,0.0 -41.351222,-18.7072759994252,0.0 -41.351799,-18.7069719994252,0.0 -41.352495,-18.7066209994252,0.0 -41.35312,-18.7063629994252,0.0 -41.353578,-18.7062669994252,0.0 -41.354277,-18.7062609994252,0.0 -41.3545253,-18.7062213994252,0.0 -41.354735,-18.7061879994252,0.0 -41.355266,-18.7061839994252,0.0 -41.355747,-18.7060189994252,0.0 -41.356299,-18.7057609994252,0.0 -41.356779,-18.7054809994252,0.0 -41.357355,-18.7050619994252,0.0 -41.357738,-18.7048059994253,0.0 -41.358121,-18.7044809994253,0.0 -41.358504,-18.7041099994253,0.0 -41.358983,-18.7037839994253,0.0 -41.35944,-18.7036419994253,0.0 -41.359848,-18.7034079994253,0.0 -41.36028,-18.7031519994253,0.0 -41.36076,-18.7028949994253,0.0 -41.361167,-18.7024999994253,0.0 -41.361671,-18.7022199994253,0.0 -41.362103,-18.7020089994253,0.0 -41.362535,-18.7017529994253,0.0 -41.362968,-18.7015879994253,0.0 -41.363617,-18.7013299994253,0.0 -41.364074,-18.7011879994253,0.0 -41.364556,-18.7011149994254,0.0 -41.365327,-18.7010389994254,0.0 -41.366003,-18.7010789994254,0.0 -41.366824,-18.7010719994254,0.0 -41.367499,-18.7010199994254,0.0 -41.36803,-18.7010389994254,0.0 -41.368561,-18.7010339994254,0.0 -41.36902,-18.7011449994254,0.0 -41.369479,-18.7011869994253,0.0 -41.369987,-18.7012979994254,0.0 -41.370566,-18.7013619994253,0.0 -41.37134,-18.7014929994253,0.0 -41.371752,-18.7016959994253,0.0 -41.372308,-18.7018069994253,0.0 -41.372767,-18.7018719994253,0.0 -41.373272,-18.7017519994253,0.0 -41.373874,-18.7016319994253,0.0 -41.374379,-18.7014439994253,0.0 -41.374812,-18.7012329994253,0.0 -41.375821,-18.7008099994254,0.0 -41.376472,-18.7007129994254,0.0 -41.377028,-18.7008919994254,0.0 -41.377465,-18.7010949994253,0.0 -41.377823,-18.7012269994254,0.0 -41.3779,-18.7012519994253,0.0 -41.378408,-18.7013399994253,0.0 -41.378915,-18.7013809994253,0.0 -41.379397,-18.7013769994253,0.0 -41.379856,-18.7013499994254,0.0 -41.380362,-18.7013229994253,0.0 -41.38082,-18.7012269994254,0.0 -41.381301,-18.7010849994254,0.0 -41.38178,-18.7007589994254,0.0 -41.382114,-18.7003419994254,0.0 -41.382472,-18.6999019994254,0.0 -41.382926,-18.6995069994254,0.0 -41.383237,-18.6991369994254,0.0 -41.383474,-18.6987439994254,0.0 -41.383809,-18.6984189994254,0.0 -41.384192,-18.6981399994254,0.0 -41.384842,-18.6979729994254,0.0 -41.385396,-18.6978299994254,0.0 -41.385926,-18.6977799994254,0.0 -41.386385,-18.6977989994254,0.0 -41.38694,-18.6978859994254,0.0 -41.3874,-18.6980199994254,0.0 -41.387955,-18.6980609994254,0.0 -41.388969,-18.6980519994254,0.0 -41.389426,-18.6979789994254,0.0 -41.389859,-18.6978139994254,0.0 -41.390317,-18.6977179994254,0.0 -41.390748,-18.6974619994255,0.0 -41.39128,-18.6975029994254,0.0 -41.391741,-18.6977749994254,0.0 -41.392178,-18.6980469994254,0.0 -41.39261,-18.6978819994254,0.0 -41.393282,-18.6974849994254,0.0 -41.39369,-18.6972289994255,0.0 -41.394049,-18.6969269994255,0.0 -41.394481,-18.6967389994255,0.0 -41.394913,-18.6965049994255,0.0 -41.395394,-18.6963629994255,0.0 -41.395853,-18.6963819994255,0.0 -41.396866,-18.6963729994255,0.0 -41.397374,-18.6964839994255,0.0 -41.397833,-18.6965259994255,0.0 -41.398292,-18.6965909994255,0.0 -41.398896,-18.6966539994255,0.0 -41.399476,-18.6967869994255,0.0 -41.400056,-18.6968739994255,0.0 -41.400515,-18.6969389994255,0.0 -41.401193,-18.6971629994255,0.0 -41.402113,-18.6974769994254,0.0 -41.402525,-18.6977029994254,0.0 -41.402962,-18.6979519994254,0.0 -41.403421,-18.6980859994254,0.0 -41.403858,-18.6982659994254,0.0 -41.404827,-18.6987179994254,0.0 -41.405336,-18.6989659994254,0.0 -41.405748,-18.6991689994254,0.0 -41.40633,-18.6994629994254,0.0 -41.406863,-18.6996419994254,0.0 -41.408214,-18.6996299994254,0.0 -41.408794,-18.6997169994254,0.0 -41.409277,-18.6998049994254,0.0 -41.409808,-18.6998459994254,0.0 -41.410266,-18.6998189994254,0.0 -41.410821,-18.6997449994254,0.0 -41.41135,-18.6996029994254,0.0 -41.411831,-18.6994369994254,0.0 -41.412312,-18.6992259994254,0.0 -41.412767,-18.6989459994254,0.0 -41.413199,-18.6986669994254,0.0 -41.413558,-18.6983869994254,0.0 -41.413844,-18.6980399994254,0.0 -41.414178,-18.6976459994254,0.0 -41.414488,-18.6972989994255,0.0 -41.414896,-18.6970189994255,0.0 -41.415375,-18.6966929994255,0.0 -41.415879,-18.6963899994255,0.0 -41.416262,-18.6961329994255,0.0 -41.41667,-18.6958539994255,0.0 -41.417149,-18.6955049994255,0.0 -41.4177,-18.6951319994255,0.0 -41.418158,-18.6950589994255,0.0 -41.418762,-18.6951219994255,0.0 -41.419176,-18.6955789994255,0.0 -41.419469,-18.6959439994255,0.0 -41.419858,-18.6961929994255,0.0 -41.420317,-18.6963039994255,0.0 -41.420738,-18.6962999994255,0.0 -41.4207954,-18.6962994994255,0.0</coordinates>
</LinearRing>
</outerBoundaryIs>
</Polygon>
</MultiGeometry>
</Placemark>
</Folder>
</Document></kml>
