<?xml version='1.0' encoding='UTF-8'?>
<kml xmlns:xsd="http://www.w3.org/2001/XMLSchema" xmlns:gx="http://www.google.com/kml/ext/2.2" xmlns:atom="http://www.w3.org/2005/Atom" xmlns="http://www.opengis.net/kml/2.2">
<Document>
<name>serra_azul_de_minas_3166501_localidades_2022</name>
<visibility>1</visibility>
<Schema name="Localidades" id="kml_schema_ft_Localidades">
<SimpleField type="xsd:string" name="CD_UF">
<displayName>CD_UF</displayName>
</SimpleField>
<SimpleField type="xsd:string" name="NM_UF">
<displayName>NM_UF</displayName>
</SimpleField>
<SimpleField type="xsd:string" name="SIGLA_UF">
<displayName>SIGLA_UF</displayName>
</SimpleField>
<SimpleField type="xsd:string" name="CD_MUN">
<displayName>CD_MUN</displayName>
</SimpleField>
<SimpleField type="xsd:string" name="NM_MUN">
<displayName>NM_MUN</displayName>
</SimpleField>
<SimpleField type="xsd:string" name="CD_RGINT">
<displayName>CD_RGINT</displayName>
</SimpleField>
<SimpleField type="xsd:string" name="NM_RGINT">
<displayName>NM_RGINT</displayName>
</SimpleField>
<SimpleField type="xsd:string" name="CD_RGI">
<displayName>CD_RGI</displayName>
</SimpleField>
<SimpleField type="xsd:string" name="NM_RGI">
<displayName>NM_RGI</displayName>
</SimpleField>
<SimpleField type="xsd:string" name="CT_LOCALIDADE">
<displayName>CT_LOCALIDADE</displayName>
</SimpleField>
<SimpleField type="xsd:string" name="SCT_LOCALIDADE">
<displayName>SCT_LOCALIDADE</displayName>
</SimpleField>
<SimpleField type="xsd:string" name="CD_LOCALIDADE">
<displayName>CD_LOCALIDADE</displayName>
</SimpleField>
<SimpleField type="xsd:string" name="NM_LOCALIDADE">
<displayName>NM_LOCALIDADE</displayName>
</SimpleField>
</Schema>
<Schema name="01. Cidade" id="kml_schema_ft_01._Cidade">
<SimpleField type="xsd:string" name="CD_UF">
<displayName>CD_UF</displayName>
</SimpleField>
<SimpleField type="xsd:string" name="NM_UF">
<displayName>NM_UF</displayName>
</SimpleField>
<SimpleField type="xsd:string" name="SIGLA_UF">
<displayName>SIGLA_UF</displayName>
</SimpleField>
<SimpleField type="xsd:string" name="CD_MUN">
<displayName>CD_MUN</displayName>
</SimpleField>
<SimpleField type="xsd:string" name="NM_MUN">
<displayName>NM_MUN</displayName>
</SimpleField>
<SimpleField type="xsd:string" name="CD_RGINT">
<displayName>CD_RGINT</displayName>
</SimpleField>
<SimpleField type="xsd:string" name="NM_RGINT">
<displayName>NM_RGINT</displayName>
</SimpleField>
<SimpleField type="xsd:string" name="CD_RGI">
<displayName>CD_RGI</displayName>
</SimpleField>
<SimpleField type="xsd:string" name="NM_RGI">
<displayName>NM_RGI</displayName>
</SimpleField>
<SimpleField type="xsd:string" name="CT_LOCALIDADE">
<displayName>CT_LOCALIDADE</displayName>
</SimpleField>
<SimpleField type="xsd:string" name="SCT_LOCALIDADE">
<displayName>SCT_LOCALIDADE</displayName>
</SimpleField>
<SimpleField type="xsd:string" name="CD_LOCALIDADE">
<displayName>CD_LOCALIDADE</displayName>
</SimpleField>
<SimpleField type="xsd:string" name="NM_LOCALIDADE">
<displayName>NM_LOCALIDADE</displayName>
</SimpleField>
<SimpleField type="xsd:string" name="LAT_LOCALIDADE">
<displayName>LAT_LOCALIDADE</displayName>
</SimpleField>
<SimpleField type="xsd:string" name="LONG_LOCALIDADE">
<displayName>LONG_LOCALIDADE</displayName>
</SimpleField>
</Schema>
<Schema name="Município" id="kml_schema_ft_Município">
<SimpleField type="xsd:string" name="CD_UF">
<displayName>CD_UF</displayName>
</SimpleField>
<SimpleField type="xsd:string" name="NM_UF">
<displayName>NM_UF</displayName>
</SimpleField>
<SimpleField type="xsd:string" name="CD_MUN">
<displayName>CD_MUN</displayName>
</SimpleField>
<SimpleField type="xsd:string" name="NM_MUN">
<displayName>NM_MUN</displayName>
</SimpleField>
<SimpleField type="xsd:string" name="CD_RGINT">
<displayName>CD_RGINT</displayName>
</SimpleField>
<SimpleField type="xsd:string" name="NM_RGINT">
<displayName>NM_RGINT</displayName>
</SimpleField>
<SimpleField type="xsd:string" name="CD_RGI">
<displayName>CD_RGI</displayName>
</SimpleField>
<SimpleField type="xsd:string" name="NM_RGI">
<displayName>NM_RGI</displayName>
</SimpleField>
</Schema>
<Folder id="01. Cidade">
<name>01. Cidade</name>
<Folder id="01.03. Sede Municipal">
<name>01.03. Sede Municipal</name>
<Placemark id="01.03. Sede Municipal">
<name>Serra Azul de Minas [3166501]</name>
<visibility>1</visibility>
<snippet> </snippet>
<description>&lt;center&gt;&lt;table&gt;&lt;tr&gt;&lt;th colspan='2' align='center'&gt;&lt;em&gt;Atributos&lt;/em&gt;&lt;/th&gt;&lt;/tr&gt;&lt;tr bgcolor="#E3E3F3"&gt;
&lt;th&gt;CD_UF&lt;/th&gt;
&lt;td&gt;31&lt;/td&gt;
&lt;/tr&gt;&lt;tr bgcolor=""&gt;
&lt;th&gt;NM_UF&lt;/th&gt;
&lt;td&gt;Minas Gerais&lt;/td&gt;
&lt;/tr&gt;&lt;tr bgcolor="#E3E3F3"&gt;
&lt;th&gt;SIGLA_UF&lt;/th&gt;
&lt;td&gt;MG&lt;/td&gt;
&lt;/tr&gt;&lt;tr bgcolor=""&gt;
&lt;th&gt;CD_MUN&lt;/th&gt;
&lt;td&gt;3166501&lt;/td&gt;
&lt;/tr&gt;&lt;tr bgcolor="#E3E3F3"&gt;
&lt;th&gt;NM_MUN&lt;/th&gt;
&lt;td&gt;Serra Azul de Minas&lt;/td&gt;
&lt;/tr&gt;&lt;tr bgcolor=""&gt;
&lt;th&gt;CD_RGINT&lt;/th&gt;
&lt;td&gt;3103&lt;/td&gt;
&lt;/tr&gt;&lt;tr bgcolor="#E3E3F3"&gt;
&lt;th&gt;NM_RGINT&lt;/th&gt;
&lt;td&gt;Teófilo Otoni&lt;/td&gt;
&lt;/tr&gt;&lt;tr bgcolor=""&gt;
&lt;th&gt;CD_RGI&lt;/th&gt;
&lt;td&gt;310016&lt;/td&gt;
&lt;/tr&gt;&lt;tr bgcolor="#E3E3F3"&gt;
&lt;th&gt;NM_RGI&lt;/th&gt;
&lt;td&gt;Diamantina&lt;/td&gt;
&lt;/tr&gt;&lt;tr bgcolor=""&gt;
&lt;th&gt;CT_LOCALIDADE&lt;/th&gt;
&lt;td&gt;Cidade&lt;/td&gt;
&lt;/tr&gt;&lt;tr bgcolor="#E3E3F3"&gt;
&lt;th&gt;SCT_LOCALIDADE&lt;/th&gt;
&lt;td&gt;Sede Municipal&lt;/td&gt;
&lt;/tr&gt;&lt;tr bgcolor=""&gt;
&lt;th&gt;CD_LOCALIDADE&lt;/th&gt;
&lt;td&gt;3166501&lt;/td&gt;
&lt;/tr&gt;&lt;tr bgcolor="#E3E3F3"&gt;
&lt;th&gt;NM_LOCALIDADE&lt;/th&gt;
&lt;td&gt;Serra Azul de Minas&lt;/td&gt;
&lt;/tr&gt;&lt;tr bgcolor=""&gt;
&lt;th&gt;LAT_LOCALIDADE&lt;/th&gt;
&lt;td&gt;-18.3619&lt;/td&gt;
&lt;/tr&gt;&lt;tr bgcolor="#E3E3F3"&gt;
&lt;th&gt;LONG_LOCALIDADE&lt;/th&gt;
&lt;td&gt;-43.1702&lt;/td&gt;
&lt;/tr&gt;&lt;/table&gt;&lt;/center&gt;</description>
<Style>
<IconStyle>
<color>ff00aaff</color>
<scale>1.0</scale>
<Icon>
<href>http://maps.google.com/mapfiles/kml/shapes/placemark_circle.png</href>
</Icon>
</IconStyle>
<LabelStyle>
<scale>1.0</scale>
</LabelStyle>
<LineStyle>
<color>ffffffff</color>
<width>3</width>
<gx:labelVisibility>1</gx:labelVisibility>
</LineStyle>
<PolyStyle>
<color>00ffffff</color>
</PolyStyle>
</Style>
<ExtendedData>
<SchemaData schemaUrl="#kml_schema_ft_01._Cidade">
<SimpleData name="CD_UF">31</SimpleData>
<SimpleData name="NM_UF">Minas Gerais</SimpleData>
<SimpleData name="SIGLA_UF">MG</SimpleData>
<SimpleData name="CD_MUN">3166501</SimpleData>
<SimpleData name="NM_MUN">Serra Azul de Minas</SimpleData>
<SimpleData name="CD_RGINT">3103</SimpleData>
<SimpleData name="NM_RGINT">Teófilo Otoni</SimpleData>
<SimpleData name="CD_RGI">310016</SimpleData>
<SimpleData name="NM_RGI">Diamantina</SimpleData>
<SimpleData name="CT_LOCALIDADE">Cidade</SimpleData>
<SimpleData name="SCT_LOCALIDADE">Sede Municipal</SimpleData>
<SimpleData name="CD_LOCALIDADE">3166501</SimpleData>
<SimpleData name="NM_LOCALIDADE">Serra Azul de Minas</SimpleData>
<SimpleData name="LAT_LOCALIDADE">-18.3619</SimpleData>
<SimpleData name="LONG_LOCALIDADE">-43.1702</SimpleData>
</SchemaData>
</ExtendedData>
<Point>
<extrude>0</extrude>
<coordinates>-43.1702,-18.3618999994343,0.0</coordinates>
</Point>
</Placemark>
</Folder>
</Folder>
<Folder id="12. Outras Localidades">
<name>12. Outras Localidades</name>
<Placemark id="12. Outras Localidades">
<name>Córrego do Feijão [316650100001]</name>
<visibility>1</visibility>
<snippet> </snippet>
<description>&lt;center&gt;&lt;table&gt;&lt;tr&gt;&lt;th colspan='2' align='center'&gt;&lt;em&gt;Attributes&lt;/em&gt;&lt;/th&gt;&lt;/tr&gt;&lt;tr bgcolor="#E3E3F3"&gt;
&lt;th&gt;CD_UF&lt;/th&gt;
&lt;td&gt;31&lt;/td&gt;
&lt;/tr&gt;&lt;tr bgcolor=""&gt;
&lt;th&gt;NM_UF&lt;/th&gt;
&lt;td&gt;Minas Gerais&lt;/td&gt;
&lt;/tr&gt;&lt;tr bgcolor="#E3E3F3"&gt;
&lt;th&gt;SIGLA_UF&lt;/th&gt;
&lt;td&gt;MG&lt;/td&gt;
&lt;/tr&gt;&lt;tr bgcolor=""&gt;
&lt;th&gt;CD_MUN&lt;/th&gt;
&lt;td&gt;3166501&lt;/td&gt;
&lt;/tr&gt;&lt;tr bgcolor="#E3E3F3"&gt;
&lt;th&gt;NM_MUN&lt;/th&gt;
&lt;td&gt;Serra Azul de Minas&lt;/td&gt;
&lt;/tr&gt;&lt;tr bgcolor=""&gt;
&lt;th&gt;CD_RGINT&lt;/th&gt;
&lt;td&gt;3103&lt;/td&gt;
&lt;/tr&gt;&lt;tr bgcolor="#E3E3F3"&gt;
&lt;th&gt;NM_RGINT&lt;/th&gt;
&lt;td&gt;Teófilo Otoni&lt;/td&gt;
&lt;/tr&gt;&lt;tr bgcolor=""&gt;
&lt;th&gt;CD_RGI&lt;/th&gt;
&lt;td&gt;310016&lt;/td&gt;
&lt;/tr&gt;&lt;tr bgcolor="#E3E3F3"&gt;
&lt;th&gt;NM_RGI&lt;/th&gt;
&lt;td&gt;Diamantina&lt;/td&gt;
&lt;/tr&gt;&lt;tr bgcolor=""&gt;
&lt;th&gt;CT_LOCALIDADE&lt;/th&gt;
&lt;td&gt;Outras Localidades&lt;/td&gt;
&lt;/tr&gt;&lt;tr bgcolor="#E3E3F3"&gt;
&lt;th&gt;SCT_LOCALIDADE&lt;/th&gt;
&lt;td&gt;&lt;/td&gt;
&lt;/tr&gt;&lt;tr bgcolor=""&gt;
&lt;th&gt;CD_LOCALIDADE&lt;/th&gt;
&lt;td&gt;316650100001&lt;/td&gt;
&lt;/tr&gt;&lt;tr bgcolor="#E3E3F3"&gt;
&lt;th&gt;NM_LOCALIDADE&lt;/th&gt;
&lt;td&gt;Córrego do Feijão&lt;/td&gt;
&lt;/tr&gt;&lt;/table&gt;&lt;/center&gt;</description>
<Style>
<IconStyle>
<color>ff0069d3</color>
<scale>0.6</scale>
<Icon>
<href>http://maps.google.com/mapfiles/kml/shapes/placemark_circle.png</href>
</Icon>
</IconStyle>
<LabelStyle>
<scale>0.6</scale>
</LabelStyle>
<LineStyle>
<width>1.0</width>
<gx:labelVisibility>1</gx:labelVisibility>
</LineStyle>
</Style>
<ExtendedData>
<SchemaData schemaUrl="#kml_schema_ft_Localidades">
<SimpleData name="CD_UF">31</SimpleData>
<SimpleData name="NM_UF">Minas Gerais</SimpleData>
<SimpleData name="SIGLA_UF">MG</SimpleData>
<SimpleData name="CD_MUN">3166501</SimpleData>
<SimpleData name="NM_MUN">Serra Azul de Minas</SimpleData>
<SimpleData name="CD_RGINT">3103</SimpleData>
<SimpleData name="NM_RGINT">Teófilo Otoni</SimpleData>
<SimpleData name="CD_RGI">310016</SimpleData>
<SimpleData name="NM_RGI">Diamantina</SimpleData>
<SimpleData name="CT_LOCALIDADE">Outras Localidades</SimpleData>
<SimpleData name="CD_LOCALIDADE">316650100001</SimpleData>
<SimpleData name="NM_LOCALIDADE">Córrego do Feijão</SimpleData>
</SchemaData>
</ExtendedData>
<Point>
<extrude>0</extrude>
<coordinates>-43.1619847,-18.3840764994337,0.0</coordinates>
</Point>
</Placemark>
<Placemark id="12. Outras Localidades">
<name>Guritas [316650100002]</name>
<visibility>1</visibility>
<snippet> </snippet>
<description>&lt;center&gt;&lt;table&gt;&lt;tr&gt;&lt;th colspan='2' align='center'&gt;&lt;em&gt;Attributes&lt;/em&gt;&lt;/th&gt;&lt;/tr&gt;&lt;tr bgcolor="#E3E3F3"&gt;
&lt;th&gt;CD_UF&lt;/th&gt;
&lt;td&gt;31&lt;/td&gt;
&lt;/tr&gt;&lt;tr bgcolor=""&gt;
&lt;th&gt;NM_UF&lt;/th&gt;
&lt;td&gt;Minas Gerais&lt;/td&gt;
&lt;/tr&gt;&lt;tr bgcolor="#E3E3F3"&gt;
&lt;th&gt;SIGLA_UF&lt;/th&gt;
&lt;td&gt;MG&lt;/td&gt;
&lt;/tr&gt;&lt;tr bgcolor=""&gt;
&lt;th&gt;CD_MUN&lt;/th&gt;
&lt;td&gt;3166501&lt;/td&gt;
&lt;/tr&gt;&lt;tr bgcolor="#E3E3F3"&gt;
&lt;th&gt;NM_MUN&lt;/th&gt;
&lt;td&gt;Serra Azul de Minas&lt;/td&gt;
&lt;/tr&gt;&lt;tr bgcolor=""&gt;
&lt;th&gt;CD_RGINT&lt;/th&gt;
&lt;td&gt;3103&lt;/td&gt;
&lt;/tr&gt;&lt;tr bgcolor="#E3E3F3"&gt;
&lt;th&gt;NM_RGINT&lt;/th&gt;
&lt;td&gt;Teófilo Otoni&lt;/td&gt;
&lt;/tr&gt;&lt;tr bgcolor=""&gt;
&lt;th&gt;CD_RGI&lt;/th&gt;
&lt;td&gt;310016&lt;/td&gt;
&lt;/tr&gt;&lt;tr bgcolor="#E3E3F3"&gt;
&lt;th&gt;NM_RGI&lt;/th&gt;
&lt;td&gt;Diamantina&lt;/td&gt;
&lt;/tr&gt;&lt;tr bgcolor=""&gt;
&lt;th&gt;CT_LOCALIDADE&lt;/th&gt;
&lt;td&gt;Outras Localidades&lt;/td&gt;
&lt;/tr&gt;&lt;tr bgcolor="#E3E3F3"&gt;
&lt;th&gt;SCT_LOCALIDADE&lt;/th&gt;
&lt;td&gt;&lt;/td&gt;
&lt;/tr&gt;&lt;tr bgcolor=""&gt;
&lt;th&gt;CD_LOCALIDADE&lt;/th&gt;
&lt;td&gt;316650100002&lt;/td&gt;
&lt;/tr&gt;&lt;tr bgcolor="#E3E3F3"&gt;
&lt;th&gt;NM_LOCALIDADE&lt;/th&gt;
&lt;td&gt;Guritas&lt;/td&gt;
&lt;/tr&gt;&lt;/table&gt;&lt;/center&gt;</description>
<Style>
<IconStyle>
<color>ff0069d3</color>
<scale>0.6</scale>
<Icon>
<href>http://maps.google.com/mapfiles/kml/shapes/placemark_circle.png</href>
</Icon>
</IconStyle>
<LabelStyle>
<scale>0.6</scale>
</LabelStyle>
<LineStyle>
<width>1.0</width>
<gx:labelVisibility>1</gx:labelVisibility>
</LineStyle>
</Style>
<ExtendedData>
<SchemaData schemaUrl="#kml_schema_ft_Localidades">
<SimpleData name="CD_UF">31</SimpleData>
<SimpleData name="NM_UF">Minas Gerais</SimpleData>
<SimpleData name="SIGLA_UF">MG</SimpleData>
<SimpleData name="CD_MUN">3166501</SimpleData>
<SimpleData name="NM_MUN">Serra Azul de Minas</SimpleData>
<SimpleData name="CD_RGINT">3103</SimpleData>
<SimpleData name="NM_RGINT">Teófilo Otoni</SimpleData>
<SimpleData name="CD_RGI">310016</SimpleData>
<SimpleData name="NM_RGI">Diamantina</SimpleData>
<SimpleData name="CT_LOCALIDADE">Outras Localidades</SimpleData>
<SimpleData name="CD_LOCALIDADE">316650100002</SimpleData>
<SimpleData name="NM_LOCALIDADE">Guritas</SimpleData>
</SchemaData>
</ExtendedData>
<Point>
<extrude>0</extrude>
<coordinates>-43.2296,-18.3302459994351,0.0</coordinates>
</Point>
</Placemark>
<Placemark id="12. Outras Localidades">
<name>Araújo [316650100003]</name>
<visibility>1</visibility>
<snippet> </snippet>
<description>&lt;center&gt;&lt;table&gt;&lt;tr&gt;&lt;th colspan='2' align='center'&gt;&lt;em&gt;Attributes&lt;/em&gt;&lt;/th&gt;&lt;/tr&gt;&lt;tr bgcolor="#E3E3F3"&gt;
&lt;th&gt;CD_UF&lt;/th&gt;
&lt;td&gt;31&lt;/td&gt;
&lt;/tr&gt;&lt;tr bgcolor=""&gt;
&lt;th&gt;NM_UF&lt;/th&gt;
&lt;td&gt;Minas Gerais&lt;/td&gt;
&lt;/tr&gt;&lt;tr bgcolor="#E3E3F3"&gt;
&lt;th&gt;SIGLA_UF&lt;/th&gt;
&lt;td&gt;MG&lt;/td&gt;
&lt;/tr&gt;&lt;tr bgcolor=""&gt;
&lt;th&gt;CD_MUN&lt;/th&gt;
&lt;td&gt;3166501&lt;/td&gt;
&lt;/tr&gt;&lt;tr bgcolor="#E3E3F3"&gt;
&lt;th&gt;NM_MUN&lt;/th&gt;
&lt;td&gt;Serra Azul de Minas&lt;/td&gt;
&lt;/tr&gt;&lt;tr bgcolor=""&gt;
&lt;th&gt;CD_RGINT&lt;/th&gt;
&lt;td&gt;3103&lt;/td&gt;
&lt;/tr&gt;&lt;tr bgcolor="#E3E3F3"&gt;
&lt;th&gt;NM_RGINT&lt;/th&gt;
&lt;td&gt;Teófilo Otoni&lt;/td&gt;
&lt;/tr&gt;&lt;tr bgcolor=""&gt;
&lt;th&gt;CD_RGI&lt;/th&gt;
&lt;td&gt;310016&lt;/td&gt;
&lt;/tr&gt;&lt;tr bgcolor="#E3E3F3"&gt;
&lt;th&gt;NM_RGI&lt;/th&gt;
&lt;td&gt;Diamantina&lt;/td&gt;
&lt;/tr&gt;&lt;tr bgcolor=""&gt;
&lt;th&gt;CT_LOCALIDADE&lt;/th&gt;
&lt;td&gt;Outras Localidades&lt;/td&gt;
&lt;/tr&gt;&lt;tr bgcolor="#E3E3F3"&gt;
&lt;th&gt;SCT_LOCALIDADE&lt;/th&gt;
&lt;td&gt;&lt;/td&gt;
&lt;/tr&gt;&lt;tr bgcolor=""&gt;
&lt;th&gt;CD_LOCALIDADE&lt;/th&gt;
&lt;td&gt;316650100003&lt;/td&gt;
&lt;/tr&gt;&lt;tr bgcolor="#E3E3F3"&gt;
&lt;th&gt;NM_LOCALIDADE&lt;/th&gt;
&lt;td&gt;Araújo&lt;/td&gt;
&lt;/tr&gt;&lt;/table&gt;&lt;/center&gt;</description>
<Style>
<IconStyle>
<color>ff0069d3</color>
<scale>0.6</scale>
<Icon>
<href>http://maps.google.com/mapfiles/kml/shapes/placemark_circle.png</href>
</Icon>
</IconStyle>
<LabelStyle>
<scale>0.6</scale>
</LabelStyle>
<LineStyle>
<width>1.0</width>
<gx:labelVisibility>1</gx:labelVisibility>
</LineStyle>
</Style>
<ExtendedData>
<SchemaData schemaUrl="#kml_schema_ft_Localidades">
<SimpleData name="CD_UF">31</SimpleData>
<SimpleData name="NM_UF">Minas Gerais</SimpleData>
<SimpleData name="SIGLA_UF">MG</SimpleData>
<SimpleData name="CD_MUN">3166501</SimpleData>
<SimpleData name="NM_MUN">Serra Azul de Minas</SimpleData>
<SimpleData name="CD_RGINT">3103</SimpleData>
<SimpleData name="NM_RGINT">Teófilo Otoni</SimpleData>
<SimpleData name="CD_RGI">310016</SimpleData>
<SimpleData name="NM_RGI">Diamantina</SimpleData>
<SimpleData name="CT_LOCALIDADE">Outras Localidades</SimpleData>
<SimpleData name="CD_LOCALIDADE">316650100003</SimpleData>
<SimpleData name="NM_LOCALIDADE">Araújo</SimpleData>
</SchemaData>
</ExtendedData>
<Point>
<extrude>0</extrude>
<coordinates>-43.1716581,-18.4019775994332,0.0</coordinates>
</Point>
</Placemark>
</Folder>
<Folder id="13. Referência">
<name>13. Referência</name>
<Placemark id="13. Referência">
<name>Serra Azul de Minas [3166501]</name>
<visibility>1</visibility>
<snippet> </snippet>
<description>&lt;center&gt;&lt;table&gt;&lt;tr&gt;&lt;th colspan='2' align='center'&gt;&lt;em&gt;Attributes&lt;/em&gt;&lt;/th&gt;&lt;/tr&gt;&lt;tr bgcolor="#E3E3F3"&gt;
&lt;th&gt;CD_UF&lt;/th&gt;
&lt;td&gt;31&lt;/td&gt;
&lt;/tr&gt;&lt;tr bgcolor=""&gt;
&lt;th&gt;NM_UF&lt;/th&gt;
&lt;td&gt;Minas Gerais&lt;/td&gt;
&lt;/tr&gt;&lt;tr bgcolor="#E3E3F3"&gt;
&lt;th&gt;CD_MUN&lt;/th&gt;
&lt;td&gt;3166501&lt;/td&gt;
&lt;/tr&gt;&lt;tr bgcolor=""&gt;
&lt;th&gt;NM_MUN&lt;/th&gt;
&lt;td&gt;Serra Azul de Minas&lt;/td&gt;
&lt;/tr&gt;&lt;tr bgcolor="#E3E3F3"&gt;
&lt;th&gt;CD_RGINT&lt;/th&gt;
&lt;td&gt;3103&lt;/td&gt;
&lt;/tr&gt;&lt;tr bgcolor=""&gt;
&lt;th&gt;NM_RGINT&lt;/th&gt;
&lt;td&gt;Teófilo Otoni&lt;/td&gt;
&lt;/tr&gt;&lt;tr bgcolor="#E3E3F3"&gt;
&lt;th&gt;CD_RGI&lt;/th&gt;
&lt;td&gt;310016&lt;/td&gt;
&lt;/tr&gt;&lt;tr bgcolor=""&gt;
&lt;th&gt;NM_RGI&lt;/th&gt;
&lt;td&gt;Diamantina&lt;/td&gt;
&lt;/tr&gt;&lt;/table&gt;&lt;/center&gt;</description>
<Style>
<IconStyle>
<scale>0.7</scale>
</IconStyle>
<LabelStyle>
<scale>0.7</scale>
</LabelStyle>
<LineStyle>
<color>ffffffff</color>
<width>3</width>
<gx:labelVisibility>1</gx:labelVisibility>
</LineStyle>
<PolyStyle>
<color>00ffffff</color>
</PolyStyle>
</Style>
<ExtendedData>
<SchemaData schemaUrl="#kml_schema_ft_Município">
<SimpleData name="CD_UF">31</SimpleData>
<SimpleData name="NM_UF">Minas Gerais</SimpleData>
<SimpleData name="CD_MUN">3166501</SimpleData>
<SimpleData name="NM_MUN">Serra Azul de Minas</SimpleData>
<SimpleData name="CD_RGINT">3103</SimpleData>
<SimpleData name="NM_RGINT">Teófilo Otoni</SimpleData>
<SimpleData name="CD_RGI">310016</SimpleData>
<SimpleData name="NM_RGI">Diamantina</SimpleData>
</SchemaData>
</ExtendedData>
<MultiGeometry>
<Polygon>
<extrude>0</extrude>
<tessellate>1</tessellate>
<outerBoundaryIs>
<LinearRing>
<coordinates>-43.2007881,-18.4348143994323,0.0 -43.200855,-18.4346219994323,0.0 -43.201024,-18.4341629994324,0.0 -43.201313,-18.4337259994324,0.0 -43.201603,-18.4333819994324,0.0 -43.201916,-18.4330599994324,0.0 -43.202253,-18.4327619994324,0.0 -43.202687,-18.4324859994324,0.0 -43.203096,-18.4322569994324,0.0 -43.203578,-18.4320269994324,0.0 -43.204059,-18.4318669994324,0.0 -43.204517,-18.4316369994324,0.0 -43.204974,-18.4314529994324,0.0 -43.205528,-18.4311319994324,0.0 -43.206082,-18.4308339994325,0.0 -43.206708,-18.4306039994325,0.0 -43.207238,-18.4304439994325,0.0 -43.20784,-18.4302599994325,0.0 -43.20837,-18.4302369994325,0.0 -43.208972,-18.4302379994325,0.0 -43.209477,-18.4303299994325,0.0 -43.209934,-18.4303529994325,0.0 -43.210392,-18.4303989994325,0.0 -43.210897,-18.4305369994325,0.0 -43.211523,-18.4306759994325,0.0 -43.211981,-18.4307449994325,0.0 -43.212534,-18.4308139994325,0.0 -43.213618,-18.4308149994325,0.0 -43.214172,-18.4307689994325,0.0 -43.214653,-18.4308379994325,0.0 -43.215159,-18.4308379994325,0.0 -43.215712,-18.4308619994324,0.0 -43.216194,-18.4308619994325,0.0 -43.216651,-18.4309309994324,0.0 -43.217109,-18.4309539994324,0.0 -43.218168,-18.4309549994324,0.0 -43.218649,-18.4310469994324,0.0 -43.219107,-18.4309779994324,0.0 -43.219564,-18.4308859994324,0.0 -43.219926,-18.4305649994325,0.0 -43.220143,-18.4301279994325,0.0 -43.220335,-18.4295539994325,0.0 -43.220528,-18.4290019994325,0.0 -43.220673,-18.4284969994325,0.0 -43.220721,-18.4279459994325,0.0 -43.220818,-18.4273479994325,0.0 -43.220891,-18.4268889994326,0.0 -43.221131,-18.4264979994326,0.0 -43.221565,-18.4260619994326,0.0 -43.222047,-18.4258779994326,0.0 -43.222576,-18.4257629994326,0.0 -43.223082,-18.4257179994326,0.0 -43.223515,-18.4255339994326,0.0 -43.223949,-18.4253039994326,0.0 -43.224479,-18.4250979994326,0.0 -43.224936,-18.4249369994326,0.0 -43.225418,-18.4247309994326,0.0 -43.225899,-18.4244319994326,0.0 -43.226285,-18.4241559994326,0.0 -43.226694,-18.4238809994326,0.0 -43.227079,-18.4236279994326,0.0 -43.227489,-18.4233299994326,0.0 -43.2277873,-18.4230638994327,0.0 -43.22785,-18.4230079994327,0.0 -43.228283,-18.4227329994327,0.0 -43.228693,-18.4225029994327,0.0 -43.229174,-18.4222499994327,0.0 -43.229656,-18.4220669994327,0.0 -43.230162,-18.4219289994327,0.0 -43.230619,-18.4218139994327,0.0 -43.231149,-18.4216079994327,0.0 -43.231582,-18.4213319994327,0.0 -43.232016,-18.4210799994327,0.0 -43.232449,-18.4207349994327,0.0 -43.23281,-18.4203669994327,0.0 -43.233316,-18.4200919994327,0.0 -43.233894,-18.4199769994327,0.0 -43.234905,-18.4199779994327,0.0 -43.235435,-18.4199549994327,0.0 -43.235988,-18.4199549994327,0.0 -43.236542,-18.4198629994327,0.0 -43.237096,-18.4197489994327,0.0 -43.237602,-18.4194729994327,0.0 -43.237915,-18.4191519994328,0.0 -43.238252,-18.4187839994328,0.0 -43.238589,-18.4183929994328,0.0 -43.238926,-18.4179799994328,0.0 -43.239239,-18.4175659994328,0.0 -43.239553,-18.4172219994328,0.0 -43.239866,-18.4168539994328,0.0 -43.240299,-18.4164869994328,0.0 -43.240708,-18.4161879994328,0.0 -43.241022,-18.4158209994328,0.0 -43.241142,-18.4153609994329,0.0 -43.241142,-18.4148329994329,0.0 -43.24107,-18.4143959994329,0.0 -43.241022,-18.4139589994329,0.0 -43.241071,-18.4134539994329,0.0 -43.241071,-18.4124659994329,0.0 -43.241095,-18.4120059994329,0.0 -43.241096,-18.411086999433,0.0 -43.241192,-18.410626999433,0.0 -43.241337,-18.410075999433,0.0 -43.241481,-18.409615999433,0.0 -43.241867,-18.409248999433,0.0 -43.242324,-18.409041999433,0.0 -43.242854,-18.408903999433,0.0 -43.243769,-18.408582999433,0.0 -43.244226,-18.408490999433,0.0 -43.244732,-18.408307999433,0.0 -43.245069,-18.4080089994331,0.0 -43.245454,-18.4076409994331,0.0 -43.245815,-18.4073429994331,0.0 -43.246128,-18.4070209994331,0.0 -43.246489,-18.4067219994331,0.0 -43.246899,-18.4062399994331,0.0 -43.247043,-18.4057579994331,0.0 -43.246995,-18.4052749994331,0.0 -43.246779,-18.4047689994331,0.0 -43.246587,-18.4043329994331,0.0 -43.246394,-18.4038499994332,0.0 -43.246129,-18.4034819994332,0.0 -43.245793,-18.4031139994332,0.0 -43.245408,-18.4026089994332,0.0 -43.245119,-18.4021489994332,0.0 -43.244926,-18.4016439994332,0.0 -43.24483,-18.4011149994332,0.0 -43.244782,-18.4006549994332,0.0 -43.244783,-18.4001729994333,0.0 -43.244807,-18.3997129994333,0.0 -43.244879,-18.3992769994333,0.0 -43.245024,-18.3987939994333,0.0 -43.245361,-18.3983349994333,0.0 -43.24577,-18.3980819994333,0.0 -43.246179,-18.3978059994333,0.0 -43.246565,-18.3975539994333,0.0 -43.246998,-18.3973239994333,0.0 -43.24748,-18.3971859994333,0.0 -43.247937,-18.3970949994333,0.0 -43.248442,-18.3969109994333,0.0 -43.248996,-18.3967269994333,0.0 -43.249478,-18.3966119994334,0.0 -43.249935,-18.3964749994334,0.0 -43.250465,-18.3963599994334,0.0 -43.2505937,-18.3963469994334,0.0 -43.2506314,-18.3963429994334,0.0 -43.2506655,-18.3963400994334,0.0 -43.250922,-18.3963139994334,0.0 -43.251403,-18.3963599994334,0.0 -43.251909,-18.3963599994334,0.0 -43.252342,-18.3961999994334,0.0 -43.252848,-18.3960389994334,0.0 -43.253281,-18.3957859994334,0.0 -43.253642,-18.3954419994334,0.0 -43.254028,-18.3950969994334,0.0 -43.254292,-18.3947289994334,0.0 -43.254581,-18.3942929994334,0.0 -43.255111,-18.3937869994334,0.0 -43.255593,-18.3934659994334,0.0 -43.256098,-18.3931669994334,0.0 -43.256628,-18.3928689994334,0.0 -43.257061,-18.3926159994335,0.0 -43.257494,-18.3923859994335,0.0 -43.257952,-18.3921569994335,0.0 -43.258433,-18.3921109994335,0.0 -43.258842,-18.3923179994335,0.0 -43.259252,-18.3926389994335,0.0 -43.259613,-18.3930299994334,0.0 -43.260046,-18.3934209994334,0.0 -43.260575,-18.3936969994334,0.0 -43.261081,-18.3937659994334,0.0 -43.261562,-18.3937659994334,0.0 -43.262043,-18.3937889994334,0.0 -43.262573,-18.3937889994334,0.0 -43.26303,-18.3936049994334,0.0 -43.263223,-18.3931459994334,0.0 -43.263416,-18.3927089994335,0.0 -43.26356,-18.3922269994335,0.0 -43.263681,-18.3917669994335,0.0 -43.263801,-18.3912849994335,0.0 -43.26397,-18.3907099994335,0.0 -43.264114,-18.3902509994335,0.0 -43.264355,-18.3897679994335,0.0 -43.264572,-18.3893779994335,0.0 -43.264789,-18.3889179994336,0.0 -43.265029,-18.3885269994336,0.0 -43.265391,-18.3881139994336,0.0 -43.265776,-18.3878149994336,0.0 -43.266185,-18.3875849994336,0.0 -43.266667,-18.3872409994336,0.0 -43.2671,-18.3869879994336,0.0 -43.267629,-18.3866899994336,0.0 -43.268087,-18.3865749994336,0.0 -43.268616,-18.3864369994336,0.0 -43.26917,-18.3863679994336,0.0 -43.269748,-18.3863679994336,0.0 -43.270253,-18.3862529994336,0.0 -43.270783,-18.3862529994336,0.0 -43.271312,-18.3862769994336,0.0 -43.271794,-18.3863689994336,0.0 -43.272251,-18.3866439994336,0.0 -43.272829,-18.3868509994336,0.0 -43.273262,-18.3871269994336,0.0 -43.273719,-18.3872419994336,0.0 -43.274128,-18.3875179994336,0.0 -43.274561,-18.3878399994336,0.0 -43.274922,-18.3881609994336,0.0 -43.275307,-18.3885289994336,0.0 -43.275644,-18.3889429994336,0.0 -43.275957,-18.3892879994335,0.0 -43.276342,-18.3895859994335,0.0 -43.276727,-18.3898619994335,0.0 -43.277112,-18.3901609994335,0.0 -43.277474,-18.3904369994335,0.0 -43.27781,-18.3907359994335,0.0 -43.278147,-18.3910799994335,0.0 -43.278508,-18.3914939994335,0.0 -43.278773,-18.3919079994335,0.0 -43.27911,-18.3922069994335,0.0 -43.279423,-18.3926889994335,0.0 -43.279712,-18.3931489994334,0.0 -43.28,-18.3935389994334,0.0 -43.280265,-18.3939529994334,0.0 -43.280602,-18.3943439994334,0.0 -43.281011,-18.3948029994334,0.0 -43.281396,-18.3951249994334,0.0 -43.281926,-18.3955159994334,0.0 -43.282431,-18.3958609994334,0.0 -43.282841,-18.3961139994334,0.0 -43.283322,-18.3962969994334,0.0 -43.2839,-18.3965039994334,0.0 -43.284405,-18.3965039994334,0.0 -43.284863,-18.3964359994334,0.0 -43.285344,-18.3963209994334,0.0 -43.285994,-18.3961369994334,0.0 -43.286909,-18.3957229994334,0.0 -43.28739,-18.3954939994334,0.0 -43.287992,-18.3951029994334,0.0 -43.288449,-18.3947809994334,0.0 -43.288738,-18.3944369994334,0.0 -43.28922,-18.3942529994334,0.0 -43.289653,-18.3940689994334,0.0 -43.29011,-18.3939999994334,0.0 -43.290592,-18.3940229994334,0.0 -43.291097,-18.3940229994334,0.0 -43.291603,-18.3940459994334,0.0 -43.292036,-18.3942529994334,0.0 -43.292662,-18.3944139994334,0.0 -43.293191,-18.3944599994334,0.0 -43.293769,-18.3945059994334,0.0 -43.294299,-18.3946209994334,0.0 -43.294756,-18.3946899994334,0.0 -43.295213,-18.3947129994334,0.0 -43.296224,-18.3947129994334,0.0 -43.29673,-18.3946669994334,0.0 -43.297163,-18.3945059994334,0.0 -43.297693,-18.3942989994334,0.0 -43.298174,-18.3941609994334,0.0 -43.298632,-18.3940469994334,0.0 -43.299161,-18.3940469994334,0.0 -43.299618,-18.3941839994334,0.0 -43.300172,-18.3943219994334,0.0 -43.300726,-18.3944829994334,0.0 -43.301303,-18.3945059994334,0.0 -43.301785,-18.3944599994334,0.0 -43.302339,-18.3942299994334,0.0 -43.302844,-18.3940009994334,0.0 -43.303277,-18.3937709994334,0.0 -43.303759,-18.3935179994334,0.0 -43.304216,-18.3932419994334,0.0 -43.304625,-18.3930119994334,0.0 -43.305107,-18.3926909994335,0.0 -43.305564,-18.3923919994335,0.0 -43.306527,-18.3918859994335,0.0 -43.306936,-18.3915649994335,0.0 -43.307393,-18.3911739994335,0.0 -43.307899,-18.3909669994335,0.0 -43.308332,-18.3908059994335,0.0 -43.308934,-18.3906909994335,0.0 -43.309415,-18.3907139994335,0.0 -43.309969,-18.3907599994335,0.0 -43.310619,-18.3907599994335,0.0 -43.311221,-18.3908059994335,0.0 -43.31175,-18.3908059994335,0.0 -43.312304,-18.3907599994335,0.0 -43.312834,-18.3908749994335,0.0 -43.313387,-18.3909669994335,0.0 -43.31382,-18.3912199994335,0.0 -43.314182,-18.3915639994335,0.0 -43.31447,-18.3919089994335,0.0 -43.314759,-18.3923229994335,0.0 -43.315048,-18.3926899994335,0.0 -43.315313,-18.3930809994334,0.0 -43.315578,-18.3935179994334,0.0 -43.315915,-18.3939769994334,0.0 -43.316228,-18.3943219994334,0.0 -43.316541,-18.3947589994334,0.0 -43.31683,-18.3952179994334,0.0 -43.317119,-18.3956089994334,0.0 -43.317407,-18.3961369994334,0.0 -43.317817,-18.3965279994334,0.0 -43.318202,-18.3968729994333,0.0 -43.318587,-18.3971939994333,0.0 -43.319454,-18.3977459994333,0.0 -43.319911,-18.3979529994333,0.0 -43.320874,-18.3981819994333,0.0 -43.321355,-18.3982279994333,0.0 -43.32227,-18.3983199994333,0.0 -43.322752,-18.3984119994333,0.0 -43.323281,-18.3984809994333,0.0 -43.323739,-18.3983889994333,0.0 -43.324268,-18.3982969994333,0.0 -43.325014,-18.3982509994333,0.0 -43.325544,-18.3982509994333,0.0 -43.326025,-18.3982049994333,0.0 -43.326531,-18.3981129994333,0.0 -43.327036,-18.3981589994333,0.0 -43.329251,-18.3981579994333,0.0 -43.329829,-18.3981119994333,0.0 -43.330334,-18.3979289994333,0.0 -43.330816,-18.3979279994333,0.0 -43.331418,-18.3978359994333,0.0 -43.331899,-18.3977209994333,0.0 -43.332404,-18.3975839994333,0.0 -43.332862,-18.3974229994333,0.0 -43.333295,-18.3972389994333,0.0 -43.33368,-18.3969859994333,0.0 -43.334041,-18.3966869994333,0.0 -43.334402,-18.3963649994334,0.0 -43.334715,-18.3959969994334,0.0 -43.335004,-18.3956069994334,0.0 -43.335317,-18.3952619994334,0.0 -43.335702,-18.3949169994334,0.0 -43.335991,-18.3945269994334,0.0 -43.336255,-18.3941359994334,0.0 -43.336406,-18.3939999994334,0.0 -43.336352,-18.3939519994334,0.0 -43.335991,-18.3936299994334,0.0 -43.335678,-18.3932859994334,0.0 -43.335461,-18.3928949994334,0.0 -43.335244,-18.3924579994335,0.0 -43.335003,-18.3920679994335,0.0 -43.334835,-18.3916079994335,0.0 -43.33457,-18.3912409994335,0.0 -43.333992,-18.3903209994335,0.0 -43.333679,-18.3898849994335,0.0 -43.333486,-18.3893789994335,0.0 -43.333318,-18.3889429994336,0.0 -43.333125,-18.3885289994336,0.0 -43.332957,-18.3880469994336,0.0 -43.332716,-18.3875409994336,0.0 -43.332451,-18.3867829994336,0.0 -43.332451,-18.3862999994336,0.0 -43.332691,-18.3857029994336,0.0 -43.332956,-18.3852889994337,0.0 -43.333245,-18.3848979994337,0.0 -43.333654,-18.3845759994337,0.0 -43.334039,-18.3843009994337,0.0 -43.334496,-18.3840479994337,0.0 -43.335002,-18.3838869994337,0.0 -43.335411,-18.3836339994337,0.0 -43.335579,-18.3832199994337,0.0 -43.335652,-18.3827839994337,0.0 -43.335579,-18.3823239994337,0.0 -43.335411,-18.3818869994337,0.0 -43.335314,-18.3814279994338,0.0 -43.335218,-18.3809449994338,0.0 -43.335025,-18.3805089994338,0.0 -43.334833,-18.3800949994338,0.0 -43.334568,-18.3796349994338,0.0 -43.334207,-18.3791299994338,0.0 -43.333894,-18.3787159994338,0.0 -43.333629,-18.3783029994338,0.0 -43.33334,-18.3778659994338,0.0 -43.333027,-18.3774749994339,0.0 -43.33269,-18.3771539994339,0.0 -43.332353,-18.3767169994339,0.0 -43.33204,-18.3763039994339,0.0 -43.331655,-18.3759359994339,0.0 -43.331246,-18.3756139994339,0.0 -43.330884,-18.3752929994339,0.0 -43.330547,-18.3748789994339,0.0 -43.330162,-18.3746029994339,0.0 -43.329729,-18.3743969994339,0.0 -43.329296,-18.3741669994339,0.0 -43.328862,-18.3739829994339,0.0 -43.328405,-18.373867999434,0.0 -43.327924,-18.373821999434,0.0 -43.327394,-18.373752999434,0.0 -43.326865,-18.373661999434,0.0 -43.32595,-18.373569999434,0.0 -43.325469,-18.373454999434,0.0 -43.325059,-18.373178999434,0.0 -43.324434,-18.372489999434,0.0 -43.324121,-18.372052999434,0.0 -43.323832,-18.371708999434,0.0 -43.323543,-18.371340999434,0.0 -43.32323,-18.370903999434,0.0 -43.322941,-18.370513999434,0.0 -43.322652,-18.3700079994341,0.0 -43.322363,-18.3696179994341,0.0 -43.321882,-18.3693879994341,0.0 -43.321473,-18.3691579994341,0.0 -43.321136,-18.3688589994341,0.0 -43.320727,-18.3685609994341,0.0 -43.320317,-18.3682849994341,0.0 -43.319884,-18.3680089994341,0.0 -43.319571,-18.3676639994341,0.0 -43.319282,-18.3672969994341,0.0 -43.318921,-18.3667909994341,0.0 -43.318608,-18.3664699994341,0.0 -43.318223,-18.3661479994342,0.0 -43.317862,-18.3658029994342,0.0 -43.317044,-18.3653899994342,0.0 -43.316635,-18.3651369994342,0.0 -43.316226,-18.3648379994342,0.0 -43.315792,-18.3646539994342,0.0 -43.315263,-18.3645169994342,0.0 -43.314733,-18.3644019994342,0.0 -43.314156,-18.3643559994342,0.0 -43.313626,-18.3642639994342,0.0 -43.313169,-18.3641259994342,0.0 -43.312543,-18.3640569994342,0.0 -43.312014,-18.3640569994342,0.0 -43.31146,-18.3639419994342,0.0 -43.310955,-18.3637349994342,0.0 -43.310449,-18.3637349994342,0.0 -43.30992,-18.3636899994342,0.0 -43.30939,-18.3635289994342,0.0 -43.308933,-18.3633679994342,0.0 -43.308524,-18.3631379994342,0.0 -43.308115,-18.3629309994342,0.0 -43.307682,-18.3627469994342,0.0 -43.307296,-18.3624949994342,0.0 -43.306526,-18.3619429994343,0.0 -43.306093,-18.3615529994343,0.0 -43.305852,-18.3610929994343,0.0 -43.305515,-18.3605179994343,0.0 -43.305227,-18.3600589994343,0.0 -43.304553,-18.3592319994343,0.0 -43.304168,-18.3589099994343,0.0 -43.303831,-18.3584959994344,0.0 -43.303494,-18.3580599994344,0.0 -43.303061,-18.3576689994344,0.0 -43.302772,-18.3573239994344,0.0 -43.302459,-18.3570019994344,0.0 -43.302194,-18.3566119994344,0.0 -43.301905,-18.3562669994344,0.0 -43.301617,-18.3558079994344,0.0 -43.301376,-18.3552559994344,0.0 -43.301183,-18.3548419994345,0.0 -43.300871,-18.3543599994345,0.0 -43.300654,-18.3539459994345,0.0 -43.300245,-18.3534409994345,0.0 -43.29998,-18.3529579994345,0.0 -43.299884,-18.3525209994345,0.0 -43.299667,-18.3520619994345,0.0 -43.299523,-18.3515559994345,0.0 -43.299427,-18.3511199994346,0.0 -43.299282,-18.3506599994346,0.0 -43.299066,-18.3502229994346,0.0 -43.298945,-18.3497639994346,0.0 -43.298897,-18.3492579994346,0.0 -43.298849,-18.3487759994346,0.0 -43.298777,-18.3482469994346,0.0 -43.298777,-18.3472589994347,0.0 -43.298753,-18.3467529994347,0.0 -43.298705,-18.3463169994347,0.0 -43.298705,-18.3458339994347,0.0 -43.298801,-18.3453739994347,0.0 -43.298921,-18.3449149994347,0.0 -43.298681,-18.3445239994347,0.0 -43.298584,-18.3440879994347,0.0 -43.298464,-18.3436509994348,0.0 -43.298392,-18.3431219994348,0.0 -43.298344,-18.3426629994348,0.0 -43.298368,-18.3422029994348,0.0 -43.298223,-18.3417439994348,0.0 -43.297983,-18.3413299994348,0.0 -43.297838,-18.3408699994348,0.0 -43.29767,-18.3404339994348,0.0 -43.297429,-18.3400429994348,0.0 -43.296852,-18.3393079994349,0.0 -43.296587,-18.3389399994349,0.0 -43.296274,-18.3385719994349,0.0 -43.295889,-18.3381819994349,0.0 -43.295432,-18.3378829994349,0.0 -43.295071,-18.3374919994349,0.0 -43.294782,-18.3370789994349,0.0 -43.294566,-18.3366419994349,0.0 -43.294253,-18.3362739994349,0.0 -43.293892,-18.335906999435,0.0 -43.293555,-18.335446999435,0.0 -43.293194,-18.335101999435,0.0 -43.292761,-18.334596999435,0.0 -43.292424,-18.334251999435,0.0 -43.292015,-18.333929999435,0.0 -43.291678,-18.333607999435,0.0 -43.291342,-18.333263999435,0.0 -43.290957,-18.332872999435,0.0 -43.290644,-18.332412999435,0.0 -43.290018,-18.3317699994351,0.0 -43.289657,-18.3314019994351,0.0 -43.28932,-18.3311039994351,0.0 -43.289008,-18.3307359994351,0.0 -43.288647,-18.3303679994351,0.0 -43.288358,-18.3299999994351,0.0 -43.288093,-18.3295409994351,0.0 -43.287756,-18.3291729994351,0.0 -43.287371,-18.3288279994351,0.0 -43.286962,-18.3284149994352,0.0 -43.286626,-18.3281159994352,0.0 -43.286217,-18.3277709994352,0.0 -43.28588,-18.3272889994352,0.0 -43.285567,-18.3268979994352,0.0 -43.285278,-18.3264379994352,0.0 -43.284941,-18.3260939994352,0.0 -43.284629,-18.3257259994352,0.0 -43.284292,-18.3253809994352,0.0 -43.284027,-18.3250129994352,0.0 -43.283666,-18.3246459994353,0.0 -43.283281,-18.3243469994353,0.0 -43.283065,-18.3239559994353,0.0 -43.282776,-18.3235889994353,0.0 -43.282656,-18.3231519994353,0.0 -43.282921,-18.3226919994353,0.0 -43.283137,-18.3223019994353,0.0 -43.283498,-18.3219339994353,0.0 -43.283642,-18.3214289994353,0.0 -43.283618,-18.3209919994353,0.0 -43.283643,-18.3205089994354,0.0 -43.283739,-18.3200729994354,0.0 -43.283955,-18.3196819994354,0.0 -43.284028,-18.3192449994354,0.0 -43.283763,-18.3188779994354,0.0 -43.283306,-18.3187169994354,0.0 -43.282776,-18.3187169994354,0.0 -43.282271,-18.3187629994354,0.0 -43.281814,-18.3188319994354,0.0 -43.281381,-18.3189919994354,0.0 -43.280876,-18.3188549994354,0.0 -43.280274,-18.3187169994354,0.0 -43.279769,-18.3185789994354,0.0 -43.27924,-18.3183949994354,0.0 -43.278831,-18.3181419994354,0.0 -43.278373,-18.3178889994354,0.0 -43.278109,-18.3174749994354,0.0 -43.277772,-18.3171769994355,0.0 -43.277459,-18.3168549994355,0.0 -43.277171,-18.3165099994355,0.0 -43.276858,-18.3161649994355,0.0 -43.276569,-18.3157979994355,0.0 -43.276208,-18.3154299994355,0.0 -43.275775,-18.3151769994355,0.0 -43.275342,-18.3148319994355,0.0 -43.274909,-18.3146029994355,0.0 -43.274548,-18.3143039994355,0.0 -43.274043,-18.3142119994355,0.0 -43.273538,-18.3143269994355,0.0 -43.273105,-18.3146939994355,0.0 -43.272407,-18.3153609994355,0.0 -43.271998,-18.3156359994355,0.0 -43.271589,-18.3158659994355,0.0 -43.271156,-18.3161649994355,0.0 -43.270698,-18.3163029994355,0.0 -43.270217,-18.3159809994355,0.0 -43.269784,-18.3156819994355,0.0 -43.269423,-18.3153599994355,0.0 -43.269087,-18.3149699994355,0.0 -43.268509,-18.3141879994355,0.0 -43.268173,-18.3136139994355,0.0 -43.267884,-18.3132229994356,0.0 -43.267571,-18.3128319994356,0.0 -43.267379,-18.3123949994356,0.0 -43.267042,-18.3120509994356,0.0 -43.266633,-18.3117059994356,0.0 -43.266296,-18.3113609994356,0.0 -43.266008,-18.3109709994356,0.0 -43.265719,-18.3106259994356,0.0 -43.265527,-18.3102119994356,0.0 -43.265045,-18.3099359994356,0.0 -43.264877,-18.3094769994357,0.0 -43.264324,-18.3090629994357,0.0 -43.264059,-18.3086719994357,0.0 -43.263867,-18.3081209994357,0.0 -43.263651,-18.3070869994357,0.0 -43.263723,-18.3066269994357,0.0 -43.263635,-18.3061419994357,0.0 -43.263506,-18.3065119994357,0.0 -43.26329,-18.3070179994357,0.0 -43.263097,-18.3074999994357,0.0 -43.26288,-18.3079369994357,0.0 -43.262688,-18.3083729994357,0.0 -43.262399,-18.3087869994357,0.0 -43.262231,-18.3092229994357,0.0 -43.26199,-18.3096599994356,0.0 -43.261701,-18.3101199994356,0.0 -43.261436,-18.3104869994356,0.0 -43.261124,-18.3108089994356,0.0 -43.260618,-18.3111759994356,0.0 -43.260161,-18.3114289994356,0.0 -43.259728,-18.3117049994356,0.0 -43.259319,-18.3119569994356,0.0 -43.258886,-18.3123019994356,0.0 -43.258477,-18.3126239994356,0.0 -43.258068,-18.3129679994356,0.0 -43.257707,-18.3133129994355,0.0 -43.25737,-18.3136579994355,0.0 -43.257057,-18.3140939994355,0.0 -43.256816,-18.3145309994355,0.0 -43.256599,-18.3149439994355,0.0 -43.256407,-18.3153579994355,0.0 -43.255974,-18.3162309994355,0.0 -43.255781,-18.3166679994355,0.0 -43.255637,-18.3171039994354,0.0 -43.25554,-18.3175409994354,0.0 -43.255372,-18.3179999994354,0.0 -43.255299,-18.3184829994354,0.0 -43.255107,-18.3189189994354,0.0 -43.254938,-18.3193329994354,0.0 -43.254601,-18.3198159994354,0.0 -43.254313,-18.3201599994354,0.0 -43.254,-18.3205969994354,0.0 -43.253783,-18.3210559994353,0.0 -43.25359,-18.3214699994353,0.0 -43.253446,-18.3219749994353,0.0 -43.253349,-18.3224349994353,0.0 -43.253301,-18.3228949994353,0.0 -43.253301,-18.3233999994353,0.0 -43.253229,-18.3238829994353,0.0 -43.253181,-18.3243879994353,0.0 -43.25318,-18.3248939994352,0.0 -43.253132,-18.3253299994352,0.0 -43.252916,-18.3258589994352,0.0 -43.252627,-18.3262719994352,0.0 -43.25229,-18.3265709994352,0.0 -43.251857,-18.3267319994352,0.0 -43.251351,-18.3268239994352,0.0 -43.250774,-18.3268459994352,0.0 -43.250293,-18.3268459994352,0.0 -43.249787,-18.3272139994352,0.0 -43.249474,-18.3276729994352,0.0 -43.249306,-18.3280869994352,0.0 -43.249065,-18.3285239994352,0.0 -43.248608,-18.3287069994351,0.0 -43.248102,-18.3286839994351,0.0 -43.247621,-18.3284769994351,0.0 -43.247236,-18.3281549994352,0.0 -43.246827,-18.3278569994352,0.0 -43.246322,-18.3276039994352,0.0 -43.245889,-18.3273739994352,0.0 -43.245456,-18.3271669994352,0.0 -43.244975,-18.3269599994352,0.0 -43.24447,-18.3267529994352,0.0 -43.244013,-18.3266149994352,0.0 -43.243411,-18.3264539994352,0.0 -43.242954,-18.3263389994352,0.0 -43.242473,-18.3261549994352,0.0 -43.241895,-18.3258789994352,0.0 -43.241535,-18.3256029994352,0.0 -43.241053,-18.3253269994352,0.0 -43.240717,-18.3249359994352,0.0 -43.240452,-18.3244309994353,0.0 -43.240308,-18.3238559994353,0.0 -43.240308,-18.3228679994353,0.0 -43.240333,-18.3223629994353,0.0 -43.240333,-18.3217879994353,0.0 -43.240237,-18.3213049994353,0.0 -43.240189,-18.3208229994354,0.0 -43.240045,-18.3202939994354,0.0 -43.239828,-18.3198579994354,0.0 -43.239684,-18.3193979994354,0.0 -43.239444,-18.3189379994354,0.0 -43.239131,-18.3184559994354,0.0 -43.23877,-18.3180879994354,0.0 -43.238265,-18.3177429994354,0.0 -43.237904,-18.3174669994354,0.0 -43.237567,-18.3171449994354,0.0 -43.237447,-18.3166859994355,0.0 -43.237303,-18.3161799994355,0.0 -43.237303,-18.3156059994355,0.0 -43.2374,-18.3151459994355,0.0 -43.237544,-18.3146179994355,0.0 -43.237665,-18.3140889994355,0.0 -43.237857,-18.3136749994355,0.0 -43.238002,-18.3131929994356,0.0 -43.238002,-18.3126869994356,0.0 -43.237954,-18.3122509994356,0.0 -43.237882,-18.3117449994356,0.0 -43.237545,-18.3114229994356,0.0 -43.237136,-18.3111699994356,0.0 -43.236655,-18.3109639994356,0.0 -43.236222,-18.3108029994356,0.0 -43.235717,-18.3106639994356,0.0 -43.23526,-18.3106179994356,0.0 -43.234779,-18.3105029994356,0.0 -43.234274,-18.3104799994356,0.0 -43.233792,-18.3103879994356,0.0 -43.233311,-18.3102039994356,0.0 -43.232782,-18.3098359994356,0.0 -43.232397,-18.3094679994357,0.0 -43.232109,-18.3091009994357,0.0 -43.231892,-18.3086639994357,0.0 -43.231652,-18.3082499994357,0.0 -43.23146,-18.3077219994357,0.0 -43.231195,-18.3071699994357,0.0 -43.230835,-18.3068249994357,0.0 -43.23045,-18.3065489994357,0.0 -43.230041,-18.3062729994357,0.0 -43.229295,-18.3055609994358,0.0 -43.229079,-18.3051699994358,0.0 -43.22879,-18.3048249994358,0.0 -43.228622,-18.3042739994358,0.0 -43.2285781,-18.3038740994358,0.0 -43.228574,-18.3038369994358,0.0 -43.228599,-18.3032859994358,0.0 -43.228599,-18.3027109994358,0.0 -43.228671,-18.3022059994358,0.0 -43.228575,-18.3012859994359,0.0 -43.228503,-18.3008269994359,0.0 -43.228383,-18.3003899994359,0.0 -43.228215,-18.2999069994359,0.0 -43.227854,-18.2995629994359,0.0 -43.227566,-18.2992179994359,0.0 -43.227085,-18.2989879994359,0.0 -43.226627,-18.2989649994359,0.0 -43.2263246,-18.2989953994359,0.0 -43.22617,-18.2990109994359,0.0 -43.225713,-18.2991249994359,0.0 -43.2256229,-18.2991938994359,0.0 -43.225352,-18.2994009994359,0.0 -43.224967,-18.2998139994359,0.0 -43.22463,-18.3001819994359,0.0 -43.224317,-18.3005719994359,0.0 -43.224004,-18.3010549994359,0.0 -43.22374,-18.3014679994359,0.0 -43.223475,-18.3018589994359,0.0 -43.22309,-18.3021809994358,0.0 -43.222681,-18.3024099994358,0.0 -43.222175,-18.3024099994358,0.0 -43.221718,-18.3024559994358,0.0 -43.221189,-18.3025019994358,0.0 -43.220732,-18.3025699994358,0.0 -43.220371,-18.3028459994358,0.0 -43.220034,-18.3031899994358,0.0 -43.219769,-18.3036499994358,0.0 -43.219576,-18.3043849994358,0.0 -43.219576,-18.3058329994357,0.0 -43.219624,-18.3062929994357,0.0 -43.219744,-18.3067519994357,0.0 -43.219984,-18.3072349994357,0.0 -43.220128,-18.3076719994357,0.0 -43.220248,-18.3081079994357,0.0 -43.22032,-18.3086599994357,0.0 -43.220272,-18.3090959994357,0.0 -43.220271,-18.3101989994356,0.0 -43.220223,-18.3106359994356,0.0 -43.220079,-18.3111179994356,0.0 -43.21991,-18.3115319994356,0.0 -43.219693,-18.3119679994356,0.0 -43.219452,-18.3123819994356,0.0 -43.21914,-18.3127959994356,0.0 -43.218803,-18.3130939994356,0.0 -43.218393,-18.3135079994355,0.0 -43.218056,-18.3138979994355,0.0 -43.217671,-18.3142889994355,0.0 -43.217286,-18.3145869994355,0.0 -43.216925,-18.3149089994355,0.0 -43.216564,-18.3151839994355,0.0 -43.215866,-18.3158499994355,0.0 -43.215457,-18.3161719994355,0.0 -43.215072,-18.3164709994355,0.0 -43.214783,-18.3168149994355,0.0 -43.21447,-18.3171829994354,0.0 -43.214181,-18.3177339994354,0.0 -43.214036,-18.3181939994354,0.0 -43.213844,-18.3186759994354,0.0 -43.213771,-18.3191589994354,0.0 -43.213771,-18.3196869994354,0.0 -43.213819,-18.3201239994354,0.0 -43.213963,-18.3205599994354,0.0 -43.214203,-18.3209739994353,0.0 -43.214444,-18.3214109994353,0.0 -43.21466,-18.3218249994353,0.0 -43.214925,-18.3222149994353,0.0 -43.215261,-18.3225369994353,0.0 -43.215598,-18.3229509994353,0.0 -43.215887,-18.3233419994353,0.0 -43.216127,-18.3237549994353,0.0 -43.216319,-18.3241689994353,0.0 -43.216463,-18.3246749994352,0.0 -43.216559,-18.3251109994352,0.0 -43.216511,-18.3255479994352,0.0 -43.216391,-18.3259849994352,0.0 -43.216246,-18.3265129994352,0.0 -43.216077,-18.3270179994352,0.0 -43.215837,-18.3274319994352,0.0 -43.215596,-18.3279139994352,0.0 -43.215331,-18.3283279994352,0.0 -43.215018,-18.3288329994351,0.0 -43.214729,-18.3292009994351,0.0 -43.214416,-18.3296369994351,0.0 -43.214007,-18.3300509994351,0.0 -43.21367,-18.3304639994351,0.0 -43.213308,-18.3308089994351,0.0 -43.212851,-18.3310839994351,0.0 -43.212394,-18.3314059994351,0.0 -43.212057,-18.3317499994351,0.0 -43.211696,-18.3320949994351,0.0 -43.211407,-18.332462999435,0.0 -43.211166,-18.332875999435,0.0 -43.210829,-18.333449999435,0.0 -43.210612,-18.333886999435,0.0 -43.210443,-18.334299999435,0.0 -43.210227,-18.334782999435,0.0 -43.21001,-18.335195999435,0.0 -43.209625,-18.335609999435,0.0 -43.209215,-18.335815999435,0.0 -43.208758,-18.335907999435,0.0 -43.208253,-18.335907999435,0.0 -43.207796,-18.335930999435,0.0 -43.20729,-18.3359989994349,0.0 -43.206809,-18.3359989994349,0.0 -43.206328,-18.336021999435,0.0 -43.205823,-18.336021999435,0.0 -43.205341,-18.3361589994349,0.0 -43.204956,-18.3365039994349,0.0 -43.204691,-18.3369169994349,0.0 -43.204402,-18.3373309994349,0.0 -43.204113,-18.3376749994349,0.0 -43.203776,-18.3380659994349,0.0 -43.203511,-18.3384789994349,0.0 -43.203343,-18.3388929994349,0.0 -43.20315,-18.3393289994349,0.0 -43.202933,-18.3397199994349,0.0 -43.202644,-18.3400869994348,0.0 -43.202187,-18.3402939994348,0.0 -43.20173,-18.3402019994348,0.0 -43.201224,-18.3400639994348,0.0 -43.200719,-18.3400629994348,0.0 -43.20019,-18.3399939994348,0.0 -43.199684,-18.3400859994348,0.0 -43.199227,-18.3401779994348,0.0 -43.198698,-18.3403149994348,0.0 -43.19824,-18.3404069994348,0.0 -43.197759,-18.3404529994348,0.0 -43.197254,-18.3405209994348,0.0 -43.196748,-18.3404979994348,0.0 -43.196243,-18.3403599994348,0.0 -43.195786,-18.3401299994348,0.0 -43.195305,-18.3401749994348,0.0 -43.19492,-18.3404279994348,0.0 -43.19439,-18.3411629994348,0.0 -43.194053,-18.3415079994348,0.0 -43.193571,-18.3416219994348,0.0 -43.193114,-18.3416679994348,0.0 -43.192633,-18.3415299994348,0.0 -43.192176,-18.3413919994348,0.0 -43.191671,-18.3413449994348,0.0 -43.191117,-18.3412759994348,0.0 -43.190636,-18.3413449994348,0.0 -43.190155,-18.3412759994348,0.0 -43.189674,-18.3412289994348,0.0 -43.188711,-18.3410449994348,0.0 -43.188182,-18.3409989994348,0.0 -43.187725,-18.3408829994348,0.0 -43.187219,-18.3407679994348,0.0 -43.186811,-18.3405379994348,0.0 -43.186498,-18.3402159994348,0.0 -43.186089,-18.3399859994348,0.0 -43.185319,-18.3394339994349,0.0 -43.184959,-18.3391579994349,0.0 -43.184478,-18.3389279994349,0.0 -43.1839,-18.3389509994349,0.0 -43.183346,-18.3390889994349,0.0 -43.182865,-18.3393409994349,0.0 -43.182215,-18.3395239994349,0.0 -43.18171,-18.3394779994349,0.0 -43.181229,-18.3394779994349,0.0 -43.180603,-18.3394089994349,0.0 -43.178582,-18.3394069994349,0.0 -43.178101,-18.3394299994349,0.0 -43.177643,-18.3395219994349,0.0 -43.177186,-18.3396359994349,0.0 -43.176729,-18.3397049994349,0.0 -43.176175,-18.3397039994349,0.0 -43.17567,-18.3397729994348,0.0 -43.175213,-18.3399109994348,0.0 -43.174635,-18.3400019994348,0.0 -43.174178,-18.3399559994348,0.0 -43.173745,-18.3397949994349,0.0 -43.17324,-18.3396569994349,0.0 -43.172687,-18.3396099994349,0.0 -43.172181,-18.3396099994349,0.0 -43.171724,-18.3395869994349,0.0 -43.171315,-18.3393799994349,0.0 -43.170882,-18.3392179994349,0.0 -43.170473,-18.3389419994349,0.0 -43.169656,-18.3384819994349,0.0 -43.16915,-18.3383439994349,0.0 -43.168693,-18.3382519994349,0.0 -43.168188,-18.3382509994349,0.0 -43.1678725,-18.3382827994349,0.0 -43.167731,-18.3382969994349,0.0 -43.167297,-18.3385949994349,0.0 -43.167153,-18.3390319994349,0.0 -43.166575,-18.3393529994349,0.0 -43.166262,-18.3396979994349,0.0 -43.166165,-18.3401339994348,0.0 -43.166165,-18.3406169994348,0.0 -43.166044,-18.3410759994348,0.0 -43.165635,-18.3415129994348,0.0 -43.165298,-18.3419489994348,0.0 -43.165129,-18.3423849994348,0.0 -43.164647,-18.3425459994348,0.0 -43.164166,-18.3425459994348,0.0 -43.163709,-18.3426599994348,0.0 -43.163396,-18.3430509994348,0.0 -43.16354,-18.3435099994348,0.0 -43.163708,-18.3439699994347,0.0 -43.163226,-18.3441309994347,0.0 -43.162769,-18.3444979994347,0.0 -43.162624,-18.3449339994347,0.0 -43.162311,-18.3452559994347,0.0 -43.161902,-18.3455309994347,0.0 -43.161541,-18.3458069994347,0.0 -43.161228,-18.3461739994347,0.0 -43.160818,-18.3464499994347,0.0 -43.160289,-18.3465869994347,0.0 -43.159807,-18.3467709994347,0.0 -43.159374,-18.3470229994347,0.0 -43.159037,-18.3473439994347,0.0 -43.159037,-18.3478039994346,0.0 -43.159108,-18.3482639994346,0.0 -43.159493,-18.3485629994346,0.0 -43.159372,-18.3490219994346,0.0 -43.159324,-18.3495049994346,0.0 -43.159179,-18.3499409994346,0.0 -43.159059,-18.3503779994346,0.0 -43.159227,-18.3507909994346,0.0 -43.159419,-18.3512279994345,0.0 -43.159443,-18.3516879994345,0.0 -43.159442,-18.3521699994345,0.0 -43.15949,-18.3527679994345,0.0 -43.15961,-18.3532039994345,0.0 -43.159778,-18.3536409994345,0.0 -43.15985,-18.3540779994345,0.0 -43.15991,-18.3543189994345,0.0 -43.15997,-18.3545599994345,0.0 -43.160138,-18.3549739994344,0.0 -43.160234,-18.3554109994344,0.0 -43.159969,-18.3558699994344,0.0 -43.159511,-18.3560079994344,0.0 -43.159054,-18.3559379994344,0.0 -43.158621,-18.3557539994344,0.0 -43.158236,-18.3555009994344,0.0 -43.157779,-18.3555699994344,0.0 -43.157538,-18.3559829994344,0.0 -43.157201,-18.3563279994344,0.0 -43.15684,-18.3566259994344,0.0 -43.156358,-18.3568329994344,0.0 -43.155901,-18.3568779994344,0.0 -43.155709,-18.3564419994344,0.0 -43.155805,-18.3559819994344,0.0 -43.156022,-18.3555459994344,0.0 -43.155782,-18.3550629994344,0.0 -43.155349,-18.3547409994345,0.0 -43.154844,-18.3546029994345,0.0 -43.154363,-18.3546019994345,0.0 -43.153905,-18.3547169994345,0.0 -43.153376,-18.3548539994344,0.0 -43.152389,-18.3548529994344,0.0 -43.151932,-18.3548069994345,0.0 -43.151379,-18.3546919994345,0.0 -43.150921,-18.3547139994345,0.0 -43.15044,-18.3548519994345,0.0 -43.149935,-18.3548739994344,0.0 -43.149429,-18.3548739994344,0.0 -43.148972,-18.3548509994345,0.0 -43.148467,-18.3548499994345,0.0 -43.148033,-18.3550569994344,0.0 -43.147696,-18.3554469994344,0.0 -43.147431,-18.3558839994344,0.0 -43.147214,-18.3563199994344,0.0 -43.147165,-18.3568709994344,0.0 -43.1472375,-18.3572011994344,0.0 -43.147261,-18.3573079994344,0.0 -43.147526,-18.3577219994344,0.0 -43.147862,-18.3580899994344,0.0 -43.148127,-18.3584579994344,0.0 -43.148222,-18.3588939994343,0.0 -43.14827,-18.3593309994343,0.0 -43.14839,-18.3598139994343,0.0 -43.148342,-18.3602729994343,0.0 -43.148125,-18.3607099994343,0.0 -43.147811,-18.3610999994343,0.0 -43.147402,-18.3614899994343,0.0 -43.147089,-18.3618349994343,0.0 -43.146776,-18.3621559994343,0.0 -43.146342,-18.3623629994343,0.0 -43.145885,-18.3623849994343,0.0 -43.145404,-18.3623849994343,0.0 -43.144922,-18.3623609994343,0.0 -43.144393,-18.3622229994343,0.0 -43.143912,-18.3621309994343,0.0 -43.143407,-18.3620839994343,0.0 -43.142949,-18.3620609994343,0.0 -43.142516,-18.3622219994343,0.0 -43.142107,-18.3624279994343,0.0 -43.141746,-18.3627029994342,0.0 -43.141264,-18.3629099994342,0.0 -43.140903,-18.3631849994342,0.0 -43.140614,-18.3635759994342,0.0 -43.140373,-18.3639659994342,0.0 -43.140348,-18.3644489994342,0.0 -43.140396,-18.3648849994342,0.0 -43.140468,-18.3653909994342,0.0 -43.140419,-18.3658959994342,0.0 -43.14025,-18.3664249994341,0.0 -43.140105,-18.3669069994341,0.0 -43.139984,-18.3673439994341,0.0 -43.139816,-18.3677569994341,0.0 -43.139575,-18.3681469994341,0.0 -43.139454,-18.3686069994341,0.0 -43.139333,-18.3690429994341,0.0 -43.139212,-18.3695029994341,0.0 -43.13926,-18.3700539994341,0.0 -43.139356,-18.370536999434,0.0 -43.139548,-18.370973999434,0.0 -43.139788,-18.371387999434,0.0 -43.140052,-18.371823999434,0.0 -43.140269,-18.372214999434,0.0 -43.140533,-18.372628999434,0.0 -43.140846,-18.372973999434,0.0 -43.141062,-18.373410999434,0.0 -43.141471,-18.373640999434,0.0 -43.141856,-18.373893999434,0.0 -43.142216,-18.3741699994339,0.0 -43.142601,-18.3745379994339,0.0 -43.14301,-18.3748829994339,0.0 -43.143394,-18.3753429994339,0.0 -43.143683,-18.3757569994339,0.0 -43.144019,-18.3761709994339,0.0 -43.144404,-18.3766079994339,0.0 -43.144717,-18.3769989994339,0.0 -43.145174,-18.3772519994339,0.0 -43.145823,-18.3775969994339,0.0 -43.146232,-18.3778039994339,0.0 -43.146737,-18.3779649994338,0.0 -43.147291,-18.3781499994338,0.0 -43.147748,-18.3783799994338,0.0 -43.148205,-18.3785409994338,0.0 -43.148686,-18.3787709994338,0.0 -43.149143,-18.3788629994338,0.0 -43.149408,-18.3792309994338,0.0 -43.149456,-18.3796909994338,0.0 -43.149455,-18.3801959994338,0.0 -43.149358,-18.3810699994338,0.0 -43.149334,-18.3815289994338,0.0 -43.149333,-18.3819889994337,0.0 -43.149381,-18.3824479994337,0.0 -43.149525,-18.3829079994337,0.0 -43.149741,-18.3833219994337,0.0 -43.149861,-18.3837579994337,0.0 -43.149885,-18.3842409994337,0.0 -43.149884,-18.3847009994337,0.0 -43.14986,-18.3852059994337,0.0 -43.149715,-18.3856649994336,0.0 -43.149498,-18.3860789994336,0.0 -43.149161,-18.3863999994336,0.0 -43.148751,-18.3866529994336,0.0 -43.148246,-18.3867669994336,0.0 -43.147764,-18.3866979994336,0.0 -43.147283,-18.3865599994336,0.0 -43.146778,-18.3864209994336,0.0 -43.146369,-18.3862139994336,0.0 -43.145888,-18.3860299994336,0.0 -43.145455,-18.3858459994336,0.0 -43.144949,-18.3856159994336,0.0 -43.144444,-18.3854309994336,0.0 -43.144011,-18.3852699994336,0.0 -43.143554,-18.3852469994337,0.0 -43.14312,-18.3854529994336,0.0 -43.142855,-18.3858439994336,0.0 -43.142662,-18.3863029994336,0.0 -43.142517,-18.3867849994336,0.0 -43.142276,-18.3871759994336,0.0 -43.142059,-18.3876809994336,0.0 -43.141842,-18.3881639994336,0.0 -43.141697,-18.3886229994336,0.0 -43.141456,-18.3890819994335,0.0 -43.141095,-18.3894039994335,0.0 -43.140565,-18.3895869994335,0.0 -43.14006,-18.3897939994335,0.0 -43.139554,-18.3899539994335,0.0 -43.139097,-18.3900679994335,0.0 -43.138663,-18.3902519994335,0.0 -43.138182,-18.3904119994335,0.0 -43.137724,-18.3905729994335,0.0 -43.137291,-18.3907329994335,0.0 -43.136905,-18.3909859994335,0.0 -43.136424,-18.3912839994335,0.0 -43.135966,-18.3915819994335,0.0 -43.135581,-18.3918579994335,0.0 -43.135147,-18.3922019994335,0.0 -43.13481,-18.3925689994335,0.0 -43.1344,-18.3929599994334,0.0 -43.134063,-18.3932579994334,0.0 -43.133726,-18.3936019994334,0.0 -43.133436,-18.3944749994334,0.0 -43.133195,-18.3948659994334,0.0 -43.132978,-18.3952789994334,0.0 -43.132978,-18.3957389994334,0.0 -43.133001,-18.3962669994334,0.0 -43.133193,-18.3968419994333,0.0 -43.133482,-18.3972099994333,0.0 -43.133794,-18.3976699994333,0.0 -43.134107,-18.3980149994333,0.0 -43.134395,-18.3983589994333,0.0 -43.134756,-18.3986359994333,0.0 -43.135189,-18.3990039994333,0.0 -43.135549,-18.3993489994333,0.0 -43.13591,-18.3996479994333,0.0 -43.136343,-18.3999699994333,0.0 -43.136776,-18.4001539994333,0.0 -43.137161,-18.4004299994332,0.0 -43.137522,-18.4007059994332,0.0 -43.137883,-18.4010279994332,0.0 -43.138268,-18.4013039994332,0.0 -43.138676,-18.4015799994332,0.0 -43.139061,-18.4018559994332,0.0 -43.139374,-18.4022699994332,0.0 -43.139542,-18.4027299994332,0.0 -43.139686,-18.4032129994332,0.0 -43.139613,-18.4036489994332,0.0 -43.13942,-18.4041539994332,0.0 -43.138987,-18.4044069994331,0.0 -43.138529,-18.4046589994331,0.0 -43.138047,-18.4049799994331,0.0 -43.137686,-18.4052789994331,0.0 -43.137445,-18.4057609994331,0.0 -43.13742,-18.4062209994331,0.0 -43.13742,-18.4067949994331,0.0 -43.137395,-18.4073009994331,0.0 -43.137226,-18.4077369994331,0.0 -43.137009,-18.408173999433,0.0 -43.136744,-18.408563999433,0.0 -43.136431,-18.408953999433,0.0 -43.136165,-18.409413999433,0.0 -43.135804,-18.409780999433,0.0 -43.135419,-18.410055999433,0.0 -43.134817,-18.410308999433,0.0 -43.134335,-18.410399999433,0.0 -43.133902,-18.410559999433,0.0 -43.133396,-18.410766999433,0.0 -43.132962,-18.410949999433,0.0 -43.132625,-18.411363999433,0.0 -43.132528,-18.4118689994329,0.0 -43.13272,-18.4123289994329,0.0 -43.132936,-18.4128339994329,0.0 -43.133153,-18.4132479994329,0.0 -43.133297,-18.4137539994329,0.0 -43.133513,-18.4141909994329,0.0 -43.133729,-18.4146499994329,0.0 -43.134018,-18.4149949994329,0.0 -43.134282,-18.4154549994329,0.0 -43.134859,-18.4162369994328,0.0 -43.13522,-18.4166279994328,0.0 -43.135652,-18.4169959994328,0.0 -43.135941,-18.4173639994328,0.0 -43.136133,-18.4177779994328,0.0 -43.136205,-18.4182139994328,0.0 -43.13618,-18.4186509994328,0.0 -43.136108,-18.4191099994328,0.0 -43.135866,-18.4200289994327,0.0 -43.135914,-18.4206039994327,0.0 -43.135986,-18.4210399994327,0.0 -43.135984,-18.4221199994327,0.0 -43.135936,-18.4226029994327,0.0 -43.135863,-18.4230389994327,0.0 -43.135598,-18.4234069994326,0.0 -43.135261,-18.4237049994326,0.0 -43.134827,-18.4239349994326,0.0 -43.134394,-18.4240949994326,0.0 -43.133936,-18.4241409994326,0.0 -43.133479,-18.4242319994326,0.0 -43.133021,-18.4243699994326,0.0 -43.132564,-18.4244149994326,0.0 -43.131456,-18.4244139994326,0.0 -43.130951,-18.4244599994326,0.0 -43.130469,-18.4244819994326,0.0 -43.12994,-18.4245969994326,0.0 -43.129434,-18.4245959994326,0.0 -43.128952,-18.4246189994326,0.0 -43.128447,-18.4246179994326,0.0 -43.127893,-18.4246409994326,0.0 -43.127388,-18.4245479994326,0.0 -43.126906,-18.4245249994326,0.0 -43.126377,-18.4244319994326,0.0 -43.125895,-18.4243629994326,0.0 -43.125414,-18.4243389994326,0.0 -43.124956,-18.4244769994326,0.0 -43.124499,-18.4245909994326,0.0 -43.123945,-18.4250039994326,0.0 -43.123607,-18.4253259994326,0.0 -43.123222,-18.4256009994326,0.0 -43.122596,-18.4258299994326,0.0 -43.121681,-18.4261509994326,0.0 -43.121343,-18.4265179994326,0.0 -43.121054,-18.4269089994326,0.0 -43.120789,-18.4272759994325,0.0 -43.120547,-18.4276899994325,0.0 -43.120138,-18.4279189994325,0.0 -43.119632,-18.4281249994325,0.0 -43.119175,-18.4282629994325,0.0 -43.118693,-18.4283769994325,0.0 -43.118163,-18.4284219994325,0.0 -43.117706,-18.4284909994325,0.0 -43.1172,-18.4285819994325,0.0 -43.116743,-18.4286049994325,0.0 -43.116213,-18.4287189994325,0.0 -43.115731,-18.4288339994325,0.0 -43.115033,-18.4290399994325,0.0 -43.114576,-18.4291769994325,0.0 -43.114118,-18.4292459994325,0.0 -43.113636,-18.4292909994325,0.0 -43.113131,-18.4293589994325,0.0 -43.11258,-18.4295319994325,0.0 -43.112167,-18.4297719994325,0.0 -43.111686,-18.4299549994325,0.0 -43.111252,-18.4301619994325,0.0 -43.110891,-18.4304369994325,0.0 -43.110505,-18.4306899994324,0.0 -43.110024,-18.4308039994324,0.0 -43.109542,-18.4307569994325,0.0 -43.109037,-18.4307109994325,0.0 -43.108002,-18.4307099994324,0.0 -43.107544,-18.4307319994324,0.0 -43.107038,-18.4307779994324,0.0 -43.106557,-18.4309609994325,0.0 -43.106075,-18.4310749994324,0.0 -43.105594,-18.4312129994324,0.0 -43.105208,-18.4315109994324,0.0 -43.104822,-18.4318319994324,0.0 -43.104509,-18.4321769994324,0.0 -43.104316,-18.4325899994324,0.0 -43.10393,-18.4335549994324,0.0 -43.103737,-18.4340139994324,0.0 -43.103567,-18.4345189994324,0.0 -43.103495,-18.4350019994323,0.0 -43.10347,-18.4354609994323,0.0 -43.103469,-18.4359209994323,0.0 -43.103421,-18.4364489994323,0.0 -43.103348,-18.4369089994323,0.0 -43.103299,-18.4374599994323,0.0 -43.103299,-18.4379199994323,0.0 -43.103322,-18.4383789994322,0.0 -43.103346,-18.4388159994322,0.0 -43.103344,-18.4399189994322,0.0 -43.103247,-18.4403779994322,0.0 -43.103102,-18.4408379994322,0.0 -43.102933,-18.4412509994322,0.0 -43.102644,-18.4416879994322,0.0 -43.102306,-18.4421699994321,0.0 -43.102113,-18.4426059994321,0.0 -43.101848,-18.4430649994321,0.0 -43.101775,-18.4435249994321,0.0 -43.101702,-18.4439609994321,0.0 -43.101654,-18.4444209994321,0.0 -43.101629,-18.4448799994321,0.0 -43.101653,-18.4453399994321,0.0 -43.101772,-18.4457769994321,0.0 -43.101916,-18.446212999432,0.0 -43.102253,-18.446603999432,0.0 -43.102662,-18.446834999432,0.0 -43.102999,-18.447202999432,0.0 -43.103311,-18.447639999432,0.0 -43.103431,-18.448075999432,0.0 -43.103454,-18.448581999432,0.0 -43.103406,-18.449178999432,0.0 -43.103357,-18.449661999432,0.0 -43.103621,-18.4500979994319,0.0 -43.103958,-18.4504439994319,0.0 -43.104246,-18.4507879994319,0.0 -43.104631,-18.4510419994319,0.0 -43.104944,-18.4514329994319,0.0 -43.105015,-18.4519609994319,0.0 -43.105135,-18.4524669994319,0.0 -43.105134,-18.4535009994318,0.0 -43.105037,-18.4540059994318,0.0 -43.104892,-18.4545579994318,0.0 -43.104867,-18.4550169994318,0.0 -43.104867,-18.4555459994318,0.0 -43.104794,-18.4560509994318,0.0 -43.104865,-18.4566259994318,0.0 -43.104864,-18.4576369994317,0.0 -43.10484,-18.4580729994317,0.0 -43.104839,-18.4585789994317,0.0 -43.104766,-18.4590379994317,0.0 -43.104766,-18.4594979994317,0.0 -43.104524,-18.4600259994317,0.0 -43.104187,-18.4604849994317,0.0 -43.103873,-18.4609209994317,0.0 -43.103246,-18.4616099994316,0.0 -43.102909,-18.4619769994316,0.0 -43.102499,-18.4623209994316,0.0 -43.102113,-18.4626199994316,0.0 -43.101752,-18.4629179994316,0.0 -43.101318,-18.4633079994316,0.0 -43.101212,-18.4634356994316,0.0 -43.100956,-18.4637439994316,0.0 -43.100522,-18.4642719994316,0.0 -43.100401,-18.4647549994316,0.0 -43.100401,-18.4652139994315,0.0 -43.100424,-18.4657429994315,0.0 -43.100544,-18.4662029994315,0.0 -43.101,-18.4670759994315,0.0 -43.101336,-18.4679499994315,0.0 -43.101601,-18.4683869994315,0.0 -43.10213,-18.4686169994315,0.0 -43.102612,-18.4685709994315,0.0 -43.103214,-18.4686409994315,0.0 -43.104249,-18.4686419994314,0.0 -43.104731,-18.4686659994314,0.0 -43.10526,-18.4688959994314,0.0 -43.105765,-18.4691489994314,0.0 -43.106199,-18.4693569994314,0.0 -43.106704,-18.4695179994314,0.0 -43.107137,-18.4697479994314,0.0 -43.107595,-18.4699329994314,0.0 -43.108052,-18.4700479994314,0.0 -43.108582,-18.4700949994314,0.0 -43.109112,-18.4697959994314,0.0 -43.109522,-18.4694749994314,0.0 -43.1101,-18.4690389994314,0.0 -43.110461,-18.4687639994314,0.0 -43.110895,-18.4684889994315,0.0 -43.111377,-18.4683509994315,0.0 -43.111859,-18.4683519994315,0.0 -43.112364,-18.4683289994315,0.0 -43.112942,-18.4685139994315,0.0 -43.113303,-18.4688359994314,0.0 -43.113784,-18.4689739994314,0.0 -43.114241,-18.4692269994314,0.0 -43.114578,-18.4695489994314,0.0 -43.114915,-18.4699399994314,0.0 -43.115011,-18.4704459994314,0.0 -43.115154,-18.4709979994314,0.0 -43.115154,-18.4714799994314,0.0 -43.115057,-18.4720539994314,0.0 -43.115008,-18.4725369994314,0.0 -43.114839,-18.4730189994313,0.0 -43.114814,-18.4735249994313,0.0 -43.115055,-18.4739619994313,0.0 -43.115391,-18.4743759994313,0.0 -43.115728,-18.4746749994313,0.0 -43.116234,-18.4749279994313,0.0 -43.116619,-18.4752269994313,0.0 -43.117244,-18.4755719994313,0.0 -43.117677,-18.4758259994313,0.0 -43.118086,-18.4761019994313,0.0 -43.118544,-18.4763089994313,0.0 -43.119025,-18.4763319994312,0.0 -43.119555,-18.4764939994312,0.0 -43.119988,-18.4766549994312,0.0 -43.120903,-18.4770929994312,0.0 -43.121481,-18.4772079994312,0.0 -43.121962,-18.4772089994312,0.0 -43.12242,-18.4770479994312,0.0 -43.122854,-18.4768189994312,0.0 -43.123528,-18.4764979994312,0.0 -43.123938,-18.4762679994313,0.0 -43.124444,-18.4761539994313,0.0 -43.124901,-18.4760629994313,0.0 -43.125383,-18.4759249994313,0.0 -43.125937,-18.4759259994313,0.0 -43.126442,-18.4760869994313,0.0 -43.1269,-18.4762709994313,0.0 -43.127333,-18.4765469994312,0.0 -43.127718,-18.4768009994312,0.0 -43.128151,-18.4770999994312,0.0 -43.12856,-18.4773759994312,0.0 -43.128969,-18.4776289994312,0.0 -43.129523,-18.4778129994312,0.0 -43.130029,-18.4778369994312,0.0 -43.13051,-18.4779059994312,0.0 -43.130992,-18.4778149994312,0.0 -43.131546,-18.4776769994312,0.0 -43.132003,-18.4776549994312,0.0 -43.132485,-18.4775859994312,0.0 -43.132967,-18.4775869994312,0.0 -43.133496,-18.4776789994312,0.0 -43.13405,-18.4778179994312,0.0 -43.134532,-18.4779099994312,0.0 -43.135013,-18.4780249994312,0.0 -43.135567,-18.4781639994312,0.0 -43.136121,-18.4782559994312,0.0 -43.136626,-18.4783259994312,0.0 -43.137108,-18.4783489994312,0.0 -43.137638,-18.4784409994312,0.0 -43.138143,-18.4784649994312,0.0 -43.138601,-18.4784419994312,0.0 -43.139179,-18.4783969994312,0.0 -43.13966,-18.4785809994312,0.0 -43.140166,-18.4786509994312,0.0 -43.141177,-18.4786969994312,0.0 -43.141659,-18.4787669994312,0.0 -43.142189,-18.4787669994312,0.0 -43.142646,-18.4788599994312,0.0 -43.143128,-18.4790209994312,0.0 -43.143585,-18.4792049994312,0.0 -43.14409,-18.4794349994312,0.0 -43.1445,-18.4797799994312,0.0 -43.144957,-18.4800109994312,0.0 -43.145511,-18.4800339994312,0.0 -43.145968,-18.4801029994312,0.0 -43.146498,-18.4801729994312,0.0 -43.1471,-18.4803109994312,0.0 -43.147606,-18.4803119994311,0.0 -43.148063,-18.4803349994311,0.0 -43.14852,-18.4804499994311,0.0 -43.14905,-18.4805889994311,0.0 -43.149459,-18.4807959994311,0.0 -43.149893,-18.4809799994311,0.0 -43.150374,-18.4810719994311,0.0 -43.150856,-18.4811419994311,0.0 -43.151361,-18.4812569994311,0.0 -43.151867,-18.4813029994311,0.0 -43.152325,-18.4813499994311,0.0 -43.152806,-18.4813499994311,0.0 -43.153288,-18.4812129994311,0.0 -43.15389,-18.4809829994311,0.0 -43.154324,-18.4807079994311,0.0 -43.154758,-18.4803639994311,0.0 -43.155577,-18.4798129994312,0.0 -43.155987,-18.4796059994312,0.0 -43.156492,-18.4795609994312,0.0 -43.156926,-18.4793999994312,0.0 -43.157432,-18.4794009994312,0.0 -43.157937,-18.4794239994312,0.0 -43.158395,-18.4795159994312,0.0 -43.158901,-18.4794479994312,0.0 -43.159406,-18.4795629994312,0.0 -43.15996,-18.4797699994312,0.0 -43.160441,-18.4798859994312,0.0 -43.160995,-18.4800469994312,0.0 -43.161501,-18.4802309994311,0.0 -43.161982,-18.4802779994311,0.0 -43.16256,-18.4803469994311,0.0 -43.163475,-18.4805309994311,0.0 -43.163957,-18.4805549994311,0.0 -43.164559,-18.4805779994311,0.0 -43.16504,-18.4806479994311,0.0 -43.165642,-18.4808089994311,0.0 -43.166124,-18.4809699994311,0.0 -43.166557,-18.4812229994311,0.0 -43.16699,-18.4814989994311,0.0 -43.167351,-18.4817749994311,0.0 -43.167736,-18.4820509994311,0.0 -43.167754,-18.4821119994311,0.0 -43.168001,-18.4820289994311,0.0 -43.168411,-18.4817989994311,0.0 -43.16882,-18.4815929994311,0.0 -43.168951,-18.4814166994311,0.0 -43.16911,-18.4812019994311,0.0 -43.169303,-18.4807659994311,0.0 -43.16952,-18.4803519994311,0.0 -43.169737,-18.4799619994312,0.0 -43.16993,-18.4795479994312,0.0 -43.170195,-18.4791119994312,0.0 -43.17046,-18.4786069994312,0.0 -43.170702,-18.4782159994312,0.0 -43.170919,-18.4778259994312,0.0 -43.171184,-18.4774579994312,0.0 -43.171353,-18.4770219994312,0.0 -43.17145,-18.4765389994312,0.0 -43.17145,-18.4760569994313,0.0 -43.171474,-18.4755509994313,0.0 -43.171451,-18.4751149994313,0.0 -43.171451,-18.4745859994313,0.0 -43.171403,-18.4741499994313,0.0 -43.171331,-18.4737129994313,0.0 -43.171236,-18.4731839994313,0.0 -43.171067,-18.4727249994313,0.0 -43.170875,-18.4722419994314,0.0 -43.170707,-18.4718049994314,0.0 -43.170539,-18.4712769994314,0.0 -43.170322,-18.4708629994314,0.0 -43.169793,-18.4700809994314,0.0 -43.169577,-18.4695979994314,0.0 -43.169385,-18.4691159994314,0.0 -43.169096,-18.4687249994314,0.0 -43.168735,-18.4682649994315,0.0 -43.168422,-18.4678969994315,0.0 -43.168158,-18.4674139994315,0.0 -43.16799,-18.4669319994315,0.0 -43.167991,-18.4653459994315,0.0 -43.168112,-18.4647259994316,0.0 -43.168112,-18.4641969994316,0.0 -43.168161,-18.4635769994316,0.0 -43.168234,-18.4630719994316,0.0 -43.168379,-18.4626119994316,0.0 -43.168451,-18.4619459994316,0.0 -43.16862,-18.4613249994316,0.0 -43.168765,-18.4607279994317,0.0 -43.168958,-18.4602229994317,0.0 -43.169224,-18.4597399994317,0.0 -43.169441,-18.4592579994317,0.0 -43.169754,-18.4587299994317,0.0 -43.169971,-18.4582239994317,0.0 -43.170454,-18.4573059994317,0.0 -43.170671,-18.4569149994318,0.0 -43.171033,-18.4562259994318,0.0 -43.171298,-18.4558359994318,0.0 -43.171611,-18.4553299994318,0.0 -43.171924,-18.4549629994318,0.0 -43.172406,-18.4546409994318,0.0 -43.172816,-18.4544349994318,0.0 -43.173322,-18.4541829994318,0.0 -43.173779,-18.4540679994318,0.0 -43.174261,-18.4539529994318,0.0 -43.174815,-18.4539079994318,0.0 -43.17532,-18.4539539994318,0.0 -43.176042,-18.4541619994318,0.0 -43.176861,-18.4544609994318,0.0 -43.17792,-18.4547369994318,0.0 -43.178474,-18.4548989994318,0.0 -43.178979,-18.4550599994318,0.0 -43.179461,-18.4552209994318,0.0 -43.179894,-18.4554509994318,0.0 -43.180351,-18.4557039994318,0.0 -43.18076,-18.4559339994318,0.0 -43.18117,-18.4561869994318,0.0 -43.181675,-18.4564859994318,0.0 -43.182036,-18.4567619994318,0.0 -43.182421,-18.4570379994318,0.0 -43.182782,-18.4573369994317,0.0 -43.183793,-18.4583719994317,0.0 -43.184202,-18.4587169994317,0.0 -43.184659,-18.4590389994317,0.0 -43.18502,-18.4593379994317,0.0 -43.185405,-18.4597979994317,0.0 -43.185814,-18.4602799994317,0.0 -43.186223,-18.4606479994317,0.0 -43.186728,-18.4610849994317,0.0 -43.187186,-18.4613379994316,0.0 -43.187763,-18.4614769994316,0.0 -43.188293,-18.4615689994316,0.0 -43.188943,-18.4616609994316,0.0 -43.189449,-18.4616849994316,0.0 -43.191255,-18.4616859994316,0.0 -43.191809,-18.4616629994316,0.0 -43.192339,-18.4613419994316,0.0 -43.192628,-18.4608819994317,0.0 -43.192893,-18.4603079994317,0.0 -43.192966,-18.4598249994317,0.0 -43.192966,-18.4588369994317,0.0 -43.193039,-18.4582629994317,0.0 -43.193087,-18.4578029994317,0.0 -43.193136,-18.4573209994318,0.0 -43.193377,-18.4567469994318,0.0 -43.19369,-18.4563559994318,0.0 -43.1941,-18.4559889994318,0.0 -43.194509,-18.4557819994318,0.0 -43.1946843,-18.4557295994318,0.0 -43.194967,-18.4556449994318,0.0 -43.195401,-18.4554609994318,0.0 -43.195834,-18.4552999994318,0.0 -43.196316,-18.4551169994318,0.0 -43.196749,-18.4549329994318,0.0 -43.197207,-18.4546349994318,0.0 -43.1974,-18.4541979994318,0.0 -43.197401,-18.4532789994319,0.0 -43.197353,-18.4528199994319,0.0 -43.197209,-18.4523599994319,0.0 -43.197016,-18.4519459994319,0.0 -43.196848,-18.4515319994319,0.0 -43.196631,-18.4510959994319,0.0 -43.196391,-18.4506819994319,0.0 -43.196199,-18.4502449994319,0.0 -43.195958,-18.4498089994319,0.0 -43.19579,-18.449394999432,0.0 -43.195573,-18.449003999432,0.0 -43.195526,-18.448520999432,0.0 -43.195622,-18.448038999432,0.0 -43.195695,-18.447601999432,0.0 -43.19584,-18.447050999432,0.0 -43.19596,-18.446476999432,0.0 -43.196153,-18.446016999432,0.0 -43.196322,-18.4455809994321,0.0 -43.196467,-18.4450519994321,0.0 -43.196588,-18.4446159994321,0.0 -43.196805,-18.4440179994321,0.0 -43.1968063,-18.4440136994321,0.0 -43.196949,-18.4435359994321,0.0 -43.197094,-18.4430759994321,0.0 -43.197263,-18.4426399994321,0.0 -43.197528,-18.4422259994322,0.0 -43.197841,-18.4418129994322,0.0 -43.198106,-18.4414219994322,0.0 -43.19842,-18.4410319994322,0.0 -43.198589,-18.4406189994322,0.0 -43.198854,-18.4401589994322,0.0 -43.199143,-18.4396999994322,0.0 -43.199408,-18.4393319994322,0.0 -43.199769,-18.4388269994322,0.0 -43.20001,-18.4384359994323,0.0 -43.200203,-18.4379999994323,0.0 -43.200324,-18.4375399994323,0.0 -43.200421,-18.4371039994323,0.0 -43.200421,-18.4361159994323,0.0 -43.200566,-18.4355409994323,0.0 -43.200687,-18.4351049994323,0.0 -43.2007881,-18.4348143994323,0.0</coordinates>
</LinearRing>
</outerBoundaryIs>
</Polygon>
</MultiGeometry>
</Placemark>
</Folder>
</Document></kml>
