<?xml version='1.0' encoding='UTF-8'?>
<kml xmlns:xsd="http://www.w3.org/2001/XMLSchema" xmlns:gx="http://www.google.com/kml/ext/2.2" xmlns:atom="http://www.w3.org/2005/Atom" xmlns="http://www.opengis.net/kml/2.2">
<Document>
<name>alto_paraiso_4128625_localidades_2022</name>
<visibility>1</visibility>
<Schema name="Povoados" id="kml_schema_ft_Povoados">
<SimpleField type="xsd:string" name="CD_UF">
<displayName>CD_UF</displayName>
</SimpleField>
<SimpleField type="xsd:string" name="NM_UF">
<displayName>NM_UF</displayName>
</SimpleField>
<SimpleField type="xsd:string" name="SIGLA_UF">
<displayName>SIGLA_UF</displayName>
</SimpleField>
<SimpleField type="xsd:string" name="CD_MUN">
<displayName>CD_MUN</displayName>
</SimpleField>
<SimpleField type="xsd:string" name="NM_MUN">
<displayName>NM_MUN</displayName>
</SimpleField>
<SimpleField type="xsd:string" name="CD_RGINT">
<displayName>CD_RGINT</displayName>
</SimpleField>
<SimpleField type="xsd:string" name="NM_RGINT">
<displayName>NM_RGINT</displayName>
</SimpleField>
<SimpleField type="xsd:string" name="CD_RGI">
<displayName>CD_RGI</displayName>
</SimpleField>
<SimpleField type="xsd:string" name="NM_RGI">
<displayName>NM_RGI</displayName>
</SimpleField>
<SimpleField type="xsd:string" name="CT_LOCALIDADE">
<displayName>CT_LOCALIDADE</displayName>
</SimpleField>
<SimpleField type="xsd:string" name="CD_LOCALIDADE">
<displayName>CD_LOCALIDADE</displayName>
</SimpleField>
<SimpleField type="xsd:string" name="NM_LOCALIDADE">
<displayName>NM_LOCALIDADE</displayName>
</SimpleField>
<SimpleField type="xsd:string" name="LAT_LOCALIDADE">
<displayName>LAT_LOCALIDADE</displayName>
</SimpleField>
<SimpleField type="xsd:string" name="LONG_LOCALIDADE">
<displayName>LONG_LOCALIDADE</displayName>
</SimpleField>
</Schema>
<Schema name="01. Cidade" id="kml_schema_ft_01._Cidade">
<SimpleField type="xsd:string" name="CD_UF">
<displayName>CD_UF</displayName>
</SimpleField>
<SimpleField type="xsd:string" name="NM_UF">
<displayName>NM_UF</displayName>
</SimpleField>
<SimpleField type="xsd:string" name="SIGLA_UF">
<displayName>SIGLA_UF</displayName>
</SimpleField>
<SimpleField type="xsd:string" name="CD_MUN">
<displayName>CD_MUN</displayName>
</SimpleField>
<SimpleField type="xsd:string" name="NM_MUN">
<displayName>NM_MUN</displayName>
</SimpleField>
<SimpleField type="xsd:string" name="CD_RGINT">
<displayName>CD_RGINT</displayName>
</SimpleField>
<SimpleField type="xsd:string" name="NM_RGINT">
<displayName>NM_RGINT</displayName>
</SimpleField>
<SimpleField type="xsd:string" name="CD_RGI">
<displayName>CD_RGI</displayName>
</SimpleField>
<SimpleField type="xsd:string" name="NM_RGI">
<displayName>NM_RGI</displayName>
</SimpleField>
<SimpleField type="xsd:string" name="CT_LOCALIDADE">
<displayName>CT_LOCALIDADE</displayName>
</SimpleField>
<SimpleField type="xsd:string" name="SCT_LOCALIDADE">
<displayName>SCT_LOCALIDADE</displayName>
</SimpleField>
<SimpleField type="xsd:string" name="CD_LOCALIDADE">
<displayName>CD_LOCALIDADE</displayName>
</SimpleField>
<SimpleField type="xsd:string" name="NM_LOCALIDADE">
<displayName>NM_LOCALIDADE</displayName>
</SimpleField>
<SimpleField type="xsd:string" name="LAT_LOCALIDADE">
<displayName>LAT_LOCALIDADE</displayName>
</SimpleField>
<SimpleField type="xsd:string" name="LONG_LOCALIDADE">
<displayName>LONG_LOCALIDADE</displayName>
</SimpleField>
</Schema>
<Schema name="Município" id="kml_schema_ft_Município">
<SimpleField type="xsd:string" name="CD_UF">
<displayName>CD_UF</displayName>
</SimpleField>
<SimpleField type="xsd:string" name="NM_UF">
<displayName>NM_UF</displayName>
</SimpleField>
<SimpleField type="xsd:string" name="CD_MUN">
<displayName>CD_MUN</displayName>
</SimpleField>
<SimpleField type="xsd:string" name="NM_MUN">
<displayName>NM_MUN</displayName>
</SimpleField>
<SimpleField type="xsd:string" name="CD_RGINT">
<displayName>CD_RGINT</displayName>
</SimpleField>
<SimpleField type="xsd:string" name="NM_RGINT">
<displayName>NM_RGINT</displayName>
</SimpleField>
<SimpleField type="xsd:string" name="CD_RGI">
<displayName>CD_RGI</displayName>
</SimpleField>
<SimpleField type="xsd:string" name="NM_RGI">
<displayName>NM_RGI</displayName>
</SimpleField>
</Schema>
<Folder id="01. Cidade">
<name>01. Cidade</name>
<Folder id="01.03. Sede Municipal">
<name>01.03. Sede Municipal</name>
<Placemark id="01.03. Sede Municipal">
<name>Alto Paraíso [4128625]</name>
<visibility>1</visibility>
<snippet> </snippet>
<description>&lt;center&gt;&lt;table&gt;&lt;tr&gt;&lt;th colspan='2' align='center'&gt;&lt;em&gt;Atributos&lt;/em&gt;&lt;/th&gt;&lt;/tr&gt;&lt;tr bgcolor="#E3E3F3"&gt;
&lt;th&gt;CD_UF&lt;/th&gt;
&lt;td&gt;41&lt;/td&gt;
&lt;/tr&gt;&lt;tr bgcolor=""&gt;
&lt;th&gt;NM_UF&lt;/th&gt;
&lt;td&gt;Paraná&lt;/td&gt;
&lt;/tr&gt;&lt;tr bgcolor="#E3E3F3"&gt;
&lt;th&gt;SIGLA_UF&lt;/th&gt;
&lt;td&gt;PR&lt;/td&gt;
&lt;/tr&gt;&lt;tr bgcolor=""&gt;
&lt;th&gt;CD_MUN&lt;/th&gt;
&lt;td&gt;4128625&lt;/td&gt;
&lt;/tr&gt;&lt;tr bgcolor="#E3E3F3"&gt;
&lt;th&gt;NM_MUN&lt;/th&gt;
&lt;td&gt;Alto Paraíso&lt;/td&gt;
&lt;/tr&gt;&lt;tr bgcolor=""&gt;
&lt;th&gt;CD_RGINT&lt;/th&gt;
&lt;td&gt;4104&lt;/td&gt;
&lt;/tr&gt;&lt;tr bgcolor="#E3E3F3"&gt;
&lt;th&gt;NM_RGINT&lt;/th&gt;
&lt;td&gt;Maringá&lt;/td&gt;
&lt;/tr&gt;&lt;tr bgcolor=""&gt;
&lt;th&gt;CD_RGI&lt;/th&gt;
&lt;td&gt;410016&lt;/td&gt;
&lt;/tr&gt;&lt;tr bgcolor="#E3E3F3"&gt;
&lt;th&gt;NM_RGI&lt;/th&gt;
&lt;td&gt;Umuarama&lt;/td&gt;
&lt;/tr&gt;&lt;tr bgcolor=""&gt;
&lt;th&gt;CT_LOCALIDADE&lt;/th&gt;
&lt;td&gt;Cidade&lt;/td&gt;
&lt;/tr&gt;&lt;tr bgcolor="#E3E3F3"&gt;
&lt;th&gt;SCT_LOCALIDADE&lt;/th&gt;
&lt;td&gt;Sede Municipal&lt;/td&gt;
&lt;/tr&gt;&lt;tr bgcolor=""&gt;
&lt;th&gt;CD_LOCALIDADE&lt;/th&gt;
&lt;td&gt;4128625&lt;/td&gt;
&lt;/tr&gt;&lt;tr bgcolor="#E3E3F3"&gt;
&lt;th&gt;NM_LOCALIDADE&lt;/th&gt;
&lt;td&gt;Alto Paraíso&lt;/td&gt;
&lt;/tr&gt;&lt;tr bgcolor=""&gt;
&lt;th&gt;LAT_LOCALIDADE&lt;/th&gt;
&lt;td&gt;-23.5059&lt;/td&gt;
&lt;/tr&gt;&lt;tr bgcolor="#E3E3F3"&gt;
&lt;th&gt;LONG_LOCALIDADE&lt;/th&gt;
&lt;td&gt;-53.727&lt;/td&gt;
&lt;/tr&gt;&lt;/table&gt;&lt;/center&gt;</description>
<Style>
<IconStyle>
<color>ff00aaff</color>
<scale>1.0</scale>
<Icon>
<href>http://maps.google.com/mapfiles/kml/shapes/placemark_circle.png</href>
</Icon>
</IconStyle>
<LabelStyle>
<scale>1.0</scale>
</LabelStyle>
<LineStyle>
<color>ffffffff</color>
<width>3</width>
<gx:labelVisibility>1</gx:labelVisibility>
</LineStyle>
<PolyStyle>
<color>00ffffff</color>
</PolyStyle>
</Style>
<ExtendedData>
<SchemaData schemaUrl="#kml_schema_ft_01._Cidade">
<SimpleData name="CD_UF">41</SimpleData>
<SimpleData name="NM_UF">Paraná</SimpleData>
<SimpleData name="SIGLA_UF">PR</SimpleData>
<SimpleData name="CD_MUN">4128625</SimpleData>
<SimpleData name="NM_MUN">Alto Paraíso</SimpleData>
<SimpleData name="CD_RGINT">4104</SimpleData>
<SimpleData name="NM_RGINT">Maringá</SimpleData>
<SimpleData name="CD_RGI">410016</SimpleData>
<SimpleData name="NM_RGI">Umuarama</SimpleData>
<SimpleData name="CT_LOCALIDADE">Cidade</SimpleData>
<SimpleData name="SCT_LOCALIDADE">Sede Municipal</SimpleData>
<SimpleData name="CD_LOCALIDADE">4128625</SimpleData>
<SimpleData name="NM_LOCALIDADE">Alto Paraíso</SimpleData>
<SimpleData name="LAT_LOCALIDADE">-23.5059</SimpleData>
<SimpleData name="LONG_LOCALIDADE">-53.727</SimpleData>
</SchemaData>
</ExtendedData>
<Point>
<extrude>0</extrude>
<coordinates>-53.727039,-23.5058739993084,0.0</coordinates>
</Point>
</Placemark>
</Folder>
</Folder>
<Folder id="06. Povoados">
<name>06. Povoados</name>
<Placemark id="06. Povoados">
<name>Porto Figueira [412862500001]</name>
<visibility>1</visibility>
<snippet> </snippet>
<description>&lt;center&gt;&lt;table&gt;&lt;tr&gt;&lt;th colspan='2' align='center'&gt;&lt;em&gt;Atributos&lt;/em&gt;&lt;/th&gt;&lt;/tr&gt;&lt;tr bgcolor="#E3E3F3"&gt;
&lt;th&gt;CD_UF&lt;/th&gt;
&lt;td&gt;41&lt;/td&gt;
&lt;/tr&gt;&lt;tr bgcolor=""&gt;
&lt;th&gt;NM_UF&lt;/th&gt;
&lt;td&gt;Paraná&lt;/td&gt;
&lt;/tr&gt;&lt;tr bgcolor="#E3E3F3"&gt;
&lt;th&gt;SIGLA_UF&lt;/th&gt;
&lt;td&gt;PR&lt;/td&gt;
&lt;/tr&gt;&lt;tr bgcolor=""&gt;
&lt;th&gt;CD_MUN&lt;/th&gt;
&lt;td&gt;4128625&lt;/td&gt;
&lt;/tr&gt;&lt;tr bgcolor="#E3E3F3"&gt;
&lt;th&gt;NM_MUN&lt;/th&gt;
&lt;td&gt;Alto Paraíso&lt;/td&gt;
&lt;/tr&gt;&lt;tr bgcolor=""&gt;
&lt;th&gt;CD_RGINT&lt;/th&gt;
&lt;td&gt;4104&lt;/td&gt;
&lt;/tr&gt;&lt;tr bgcolor="#E3E3F3"&gt;
&lt;th&gt;NM_RGINT&lt;/th&gt;
&lt;td&gt;Maringá&lt;/td&gt;
&lt;/tr&gt;&lt;tr bgcolor=""&gt;
&lt;th&gt;CD_RGI&lt;/th&gt;
&lt;td&gt;410016&lt;/td&gt;
&lt;/tr&gt;&lt;tr bgcolor="#E3E3F3"&gt;
&lt;th&gt;NM_RGI&lt;/th&gt;
&lt;td&gt;Umuarama&lt;/td&gt;
&lt;/tr&gt;&lt;tr bgcolor=""&gt;
&lt;th&gt;CT_LOCALIDADE&lt;/th&gt;
&lt;td&gt;Povoado&lt;/td&gt;
&lt;/tr&gt;&lt;tr bgcolor="#E3E3F3"&gt;
&lt;th&gt;CD_LOCALIDADE&lt;/th&gt;
&lt;td&gt;412862500001&lt;/td&gt;
&lt;/tr&gt;&lt;tr bgcolor=""&gt;
&lt;th&gt;NM_LOCALIDADE&lt;/th&gt;
&lt;td&gt;Porto Figueira&lt;/td&gt;
&lt;/tr&gt;&lt;tr bgcolor="#E3E3F3"&gt;
&lt;th&gt;LAT_LOCALIDADE&lt;/th&gt;
&lt;td&gt;-23.4034&lt;/td&gt;
&lt;/tr&gt;&lt;tr bgcolor=""&gt;
&lt;th&gt;LONG_LOCALIDADE&lt;/th&gt;
&lt;td&gt;-53.8094&lt;/td&gt;
&lt;/tr&gt;&lt;/table&gt;&lt;/center&gt;</description>
<Style>
<IconStyle>
<color>ff00ff54</color>
<scale>0.8</scale>
<Icon>
<href>http://maps.google.com/mapfiles/kml/shapes/placemark_circle.png</href>
</Icon>
</IconStyle>
<LabelStyle>
<scale>0.8</scale>
</LabelStyle>
<LineStyle>
<color>72ff54ff</color>
<width>1.0</width>
<gx:labelVisibility>1</gx:labelVisibility>
</LineStyle>
<PolyStyle>
<color>66ff54ff</color>
</PolyStyle>
</Style>
<ExtendedData>
<SchemaData schemaUrl="#kml_schema_ft_Povoados">
<SimpleData name="CD_UF">41</SimpleData>
<SimpleData name="NM_UF">Paraná</SimpleData>
<SimpleData name="SIGLA_UF">PR</SimpleData>
<SimpleData name="CD_MUN">4128625</SimpleData>
<SimpleData name="NM_MUN">Alto Paraíso</SimpleData>
<SimpleData name="CD_RGINT">4104</SimpleData>
<SimpleData name="NM_RGINT">Maringá</SimpleData>
<SimpleData name="CD_RGI">410016</SimpleData>
<SimpleData name="NM_RGI">Umuarama</SimpleData>
<SimpleData name="CT_LOCALIDADE">Povoado</SimpleData>
<SimpleData name="CD_LOCALIDADE">412862500001</SimpleData>
<SimpleData name="NM_LOCALIDADE">Porto Figueira</SimpleData>
<SimpleData name="LAT_LOCALIDADE">-23.4034</SimpleData>
<SimpleData name="LONG_LOCALIDADE">-53.8094</SimpleData>
</SchemaData>
</ExtendedData>
<Point>
<extrude>0</extrude>
<coordinates>-53.8093700937499,-23.4033521899357,0.0</coordinates>
</Point>
</Placemark>
</Folder>
<Folder id="13. Referência">
<name>13. Referência</name>
<Placemark id="13. Referência">
<name>Alto Paraíso [4128625]</name>
<visibility>1</visibility>
<snippet> </snippet>
<description>&lt;center&gt;&lt;table&gt;&lt;tr&gt;&lt;th colspan='2' align='center'&gt;&lt;em&gt;Attributes&lt;/em&gt;&lt;/th&gt;&lt;/tr&gt;&lt;tr bgcolor="#E3E3F3"&gt;
&lt;th&gt;CD_UF&lt;/th&gt;
&lt;td&gt;41&lt;/td&gt;
&lt;/tr&gt;&lt;tr bgcolor=""&gt;
&lt;th&gt;NM_UF&lt;/th&gt;
&lt;td&gt;Paraná&lt;/td&gt;
&lt;/tr&gt;&lt;tr bgcolor="#E3E3F3"&gt;
&lt;th&gt;CD_MUN&lt;/th&gt;
&lt;td&gt;4128625&lt;/td&gt;
&lt;/tr&gt;&lt;tr bgcolor=""&gt;
&lt;th&gt;NM_MUN&lt;/th&gt;
&lt;td&gt;Alto Paraíso&lt;/td&gt;
&lt;/tr&gt;&lt;tr bgcolor="#E3E3F3"&gt;
&lt;th&gt;CD_RGINT&lt;/th&gt;
&lt;td&gt;4104&lt;/td&gt;
&lt;/tr&gt;&lt;tr bgcolor=""&gt;
&lt;th&gt;NM_RGINT&lt;/th&gt;
&lt;td&gt;Maringá&lt;/td&gt;
&lt;/tr&gt;&lt;tr bgcolor="#E3E3F3"&gt;
&lt;th&gt;CD_RGI&lt;/th&gt;
&lt;td&gt;410016&lt;/td&gt;
&lt;/tr&gt;&lt;tr bgcolor=""&gt;
&lt;th&gt;NM_RGI&lt;/th&gt;
&lt;td&gt;Umuarama&lt;/td&gt;
&lt;/tr&gt;&lt;/table&gt;&lt;/center&gt;</description>
<Style>
<IconStyle>
<scale>0.7</scale>
</IconStyle>
<LabelStyle>
<scale>0.7</scale>
</LabelStyle>
<LineStyle>
<color>ffffffff</color>
<width>3</width>
<gx:labelVisibility>1</gx:labelVisibility>
</LineStyle>
<PolyStyle>
<color>00ffffff</color>
</PolyStyle>
</Style>
<ExtendedData>
<SchemaData schemaUrl="#kml_schema_ft_Município">
<SimpleData name="CD_UF">41</SimpleData>
<SimpleData name="NM_UF">Paraná</SimpleData>
<SimpleData name="CD_MUN">4128625</SimpleData>
<SimpleData name="NM_MUN">Alto Paraíso</SimpleData>
<SimpleData name="CD_RGINT">4104</SimpleData>
<SimpleData name="NM_RGINT">Maringá</SimpleData>
<SimpleData name="CD_RGI">410016</SimpleData>
<SimpleData name="NM_RGI">Umuarama</SimpleData>
</SchemaData>
</ExtendedData>
<MultiGeometry>
<Polygon>
<extrude>0</extrude>
<tessellate>1</tessellate>
<outerBoundaryIs>
<LinearRing>
<coordinates>-53.9455567,-23.6496266993052,0.0 -53.9557585,-23.6469352993052,0.0 -53.9558695,-23.6469059993052,0.0 -54.0036076,-23.6343119993055,0.0 -54.0220147,-23.6301827993056,0.0 -54.0221772,-23.6301462993056,0.0 -54.0306351,-23.6282489993057,0.0 -54.0306365,-23.6282486993057,0.0 -54.029302,-23.6151559993059,0.0 -54.0292554,-23.614698599306,0.0 -54.029124,-23.613409599306,0.0 -54.0281191,-23.610676699306,0.0 -54.0275849,-23.6100446993061,0.0 -54.0262061,-23.6043881993062,0.0 -54.023432,-23.5972650993064,0.0 -54.0231542,-23.5946281993064,0.0 -54.0240178,-23.5860783993066,0.0 -54.0232182,-23.5837088993067,0.0 -54.0231667,-23.5835562993067,0.0 -54.0209304,-23.5769295993068,0.0 -54.0207207,-23.5766356993068,0.0 -54.0178244,-23.5725778993069,0.0 -54.0177913,-23.5724962993069,0.0 -54.0139031,-23.5629188993071,0.0 -54.012709,-23.5615627993071,0.0 -54.0084866,-23.5490386993074,0.0 -54.0073483,-23.5447461993075,0.0 -54.0052146,-23.5282517993079,0.0 -54.0050957,-23.5176152993081,0.0 -54.0043425,-23.5110799993083,0.0 -54.0002409,-23.4997009993085,0.0 -53.9967919,-23.4944995993086,0.0 -53.9946647,-23.4904056993087,0.0 -53.9905861,-23.478963599309,0.0 -53.9873785,-23.4666148993093,0.0 -53.9865967,-23.4647935993093,0.0 -53.9815345,-23.4568544993095,0.0 -53.9727164,-23.4485011993097,0.0 -53.9720213,-23.4478426993097,0.0 -53.9636852,-23.4439989993098,0.0 -53.9619414,-23.4437069993098,0.0 -53.9601976,-23.4434148993098,0.0 -53.9601885,-23.4434159993098,0.0 -53.9599716,-23.4434416993098,0.0 -53.9509257,-23.4445146993098,0.0 -53.9412378,-23.4462321993097,0.0 -53.940754,-23.4463179993097,0.0 -53.932055,-23.4459487993097,0.0 -53.9251151,-23.4431500993098,0.0 -53.9145458,-23.4374669993099,0.0 -53.9126366,-23.43604879931,0.0 -53.9075291,-23.43225489931,0.0 -53.8942893,-23.4262410993102,0.0 -53.8844801,-23.4230400993102,0.0 -53.8831475,-23.4226051993103,0.0 -53.880463,-23.4212259993103,0.0 -53.8803719,-23.4211791993103,0.0 -53.8765944,-23.4197883993103,0.0 -53.8735175,-23.4177439993104,0.0 -53.8644341,-23.4117087993105,0.0 -53.8558497,-23.4067538993106,0.0 -53.8527848,-23.4052914993107,0.0 -53.8375608,-23.3980272993108,0.0 -53.8365953,-23.3975665993108,0.0 -53.8292337,-23.3930277993109,0.0 -53.8263601,-23.391888699311,0.0 -53.8245499,-23.391479499311,0.0 -53.8221084,-23.389098399311,0.0 -53.8160218,-23.3856448993111,0.0 -53.8131422,-23.3846349993111,0.0 -53.8116143,-23.3840991993111,0.0 -53.8091883,-23.3834912993111,0.0 -53.8079966,-23.3831925993111,0.0 -53.8079753,-23.3831872993111,0.0 -53.8067623,-23.3828832993112,0.0 -53.8059865,-23.3827454993112,0.0 -53.7901883,-23.3799381993112,0.0 -53.7841036,-23.3775624993113,0.0 -53.7759614,-23.3753379993113,0.0 -53.7754879,-23.3751313993113,0.0 -53.7711066,-23.3721299993114,0.0 -53.766824,-23.3685213993115,0.0 -53.766363,-23.3681328993115,0.0 -53.7622435,-23.3593419993117,0.0 -53.760769,-23.3611232993116,0.0 -53.7592011,-23.3630174993116,0.0 -53.7557027,-23.3672437993115,0.0 -53.7556521,-23.3673049993115,0.0 -53.7551812,-23.3678738993115,0.0 -53.7528629,-23.3706746993114,0.0 -53.7537809,-23.3724612993114,0.0 -53.7519857,-23.3732448993114,0.0 -53.7510312,-23.3742049993114,0.0 -53.7488797,-23.3740227993113,0.0 -53.7447468,-23.3752512993113,0.0 -53.7444974,-23.3754861993113,0.0 -53.741855,-23.3779760993113,0.0 -53.7408217,-23.3796881993112,0.0 -53.7383542,-23.3805138993112,0.0 -53.7374206,-23.3836851993111,0.0 -53.7348518,-23.3862271993111,0.0 -53.7361504,-23.3874094993111,0.0 -53.7366949,-23.389094399311,0.0 -53.7364994,-23.390973099311,0.0 -53.7346381,-23.391823199311,0.0 -53.7323654,-23.391449099311,0.0 -53.7320054,-23.390475099311,0.0 -53.7293202,-23.389524199311,0.0 -53.7283192,-23.390614099311,0.0 -53.7261871,-23.3965724993109,0.0 -53.7251808,-23.3973408993108,0.0 -53.7257391,-23.3984244993108,0.0 -53.7251864,-23.3998726993108,0.0 -53.7254702,-23.4012375993107,0.0 -53.7251704,-23.4019087993107,0.0 -53.7229456,-23.4033847993107,0.0 -53.7186215,-23.4042582993107,0.0 -53.7166729,-23.4055053993106,0.0 -53.7168573,-23.4066704993106,0.0 -53.7159575,-23.4070119993106,0.0 -53.7159326,-23.4085567993106,0.0 -53.7144515,-23.4094308993106,0.0 -53.7141892,-23.4103991993105,0.0 -53.7132337,-23.4106773993105,0.0 -53.7133508,-23.4121646993105,0.0 -53.7119832,-23.4120745993105,0.0 -53.7109054,-23.4127723993105,0.0 -53.7102769,-23.4156479993104,0.0 -53.7096564,-23.4153153993104,0.0 -53.7078077,-23.4159376993104,0.0 -53.7066745,-23.4155924993104,0.0 -53.7062245,-23.4164322993104,0.0 -53.7067236,-23.4186028993104,0.0 -53.7061796,-23.4199652993103,0.0 -53.7048528,-23.4204061993103,0.0 -53.7049804,-23.4197860993103,0.0 -53.7045373,-23.4197165993103,0.0 -53.7026888,-23.4211261993103,0.0 -53.7025851,-23.4215313993103,0.0 -53.7028646,-23.4221188993103,0.0 -53.7019887,-23.4230977993102,0.0 -53.7005124,-23.4225504993103,0.0 -53.7000366,-23.4248574993102,0.0 -53.6989675,-23.4259822993102,0.0 -53.6987593,-23.4271817993102,0.0 -53.6978407,-23.4283682993101,0.0 -53.6990486,-23.4299055993101,0.0 -53.6988616,-23.4317038993101,0.0 -53.6980216,-23.43272709931,0.0 -53.6950003,-23.43383269931,0.0 -53.6942154,-23.43512149931,0.0 -53.6923566,-23.43619859931,0.0 -53.6896646,-23.4365923993099,0.0 -53.686672,-23.4387217993099,0.0 -53.6856055,-23.4394807993099,0.0 -53.6855145,-23.4402914993099,0.0 -53.6834283,-23.4406357993099,0.0 -53.6823728,-23.4413017993098,0.0 -53.6812848,-23.4428489993098,0.0 -53.6796873,-23.4438072993098,0.0 -53.6789696,-23.4439575993098,0.0 -53.677826,-23.4433845993098,0.0 -53.6762517,-23.4448737993098,0.0 -53.6749598,-23.4449081993098,0.0 -53.6746389,-23.4456794993097,0.0 -53.6737924,-23.4452858993097,0.0 -53.6730361,-23.4463722993097,0.0 -53.6728467,-23.4485885993097,0.0 -53.6717405,-23.4490954993097,0.0 -53.6714366,-23.4505015993096,0.0 -53.6656123,-23.4548484993095,0.0 -53.6639564,-23.4555853993095,0.0 -53.6657504,-23.4579069993095,0.0 -53.6658952,-23.4587370993094,0.0 -53.664945,-23.4606131993094,0.0 -53.6638352,-23.4648318993093,0.0 -53.6618213,-23.4661855993093,0.0 -53.656951,-23.4676240993092,0.0 -53.6541867,-23.4725831993091,0.0 -53.6543385,-23.4751612993091,0.0 -53.6552871,-23.478166499309,0.0 -53.6546076,-23.4834669993089,0.0 -53.6570359,-23.4981001993086,0.0 -53.6608045,-23.5208115993081,0.0 -53.6611712,-23.5281029993079,0.0 -53.6615465,-23.5355634993077,0.0 -53.6626712,-23.5579279993072,0.0 -53.6618678,-23.567440899307,0.0 -53.66185,-23.567651399307,0.0 -53.6610923,-23.5766246993068,0.0 -53.6616752,-23.5777734993068,0.0 -53.6623825,-23.5827644993067,0.0 -53.6632428,-23.5842091993066,0.0 -53.6637228,-23.5850156993066,0.0 -53.6592588,-23.5871277993066,0.0 -53.6571127,-23.5914984993065,0.0 -53.6553358,-23.5925265993065,0.0 -53.6556225,-23.5960548993064,0.0 -53.6564349,-23.5970895993064,0.0 -53.6559652,-23.5991155993063,0.0 -53.6573352,-23.6001650993063,0.0 -53.6573942,-23.6008071993063,0.0 -53.6558855,-23.6045029993062,0.0 -53.6561508,-23.6060863993061,0.0 -53.6555215,-23.611826599306,0.0 -53.6548951,-23.613038699306,0.0 -53.6527401,-23.614642799306,0.0 -53.6513487,-23.6172003993059,0.0 -53.6511501,-23.6189189993059,0.0 -53.6524631,-23.6241560993057,0.0 -53.6517927,-23.6253048993057,0.0 -53.6522292,-23.6262818993057,0.0 -53.6519828,-23.6279182993057,0.0 -53.6533491,-23.6356817993055,0.0 -53.6533429,-23.6376581993054,0.0 -53.6525946,-23.6397078993054,0.0 -53.6545101,-23.6425084993053,0.0 -53.6547476,-23.6450172993053,0.0 -53.6558511,-23.6465428993052,0.0 -53.6561832,-23.6492405993052,0.0 -53.6573769,-23.6507862993051,0.0 -53.6570216,-23.6540124993051,0.0 -53.6580271,-23.6541669993051,0.0 -53.658357,-23.6542176993051,0.0 -53.6592202,-23.6547236993051,0.0 -53.6602273,-23.655314299305,0.0 -53.6603643,-23.655607599305,0.0 -53.661223,-23.657446199305,0.0 -53.6615063,-23.658052799305,0.0 -53.6625715,-23.657767099305,0.0 -53.6627941,-23.657327899305,0.0 -53.6631094,-23.656705599305,0.0 -53.6636864,-23.656481099305,0.0 -53.6638936,-23.656636999305,0.0 -53.6650815,-23.657530599305,0.0 -53.6654792,-23.658768399305,0.0 -53.6657902,-23.658647799305,0.0 -53.66638,-23.658419199305,0.0 -53.6678587,-23.659482899305,0.0 -53.6705619,-23.6614274993049,0.0 -53.6707362,-23.6614806993049,0.0 -53.6734906,-23.6623212993049,0.0 -53.6764471,-23.6646614993048,0.0 -53.6776998,-23.6651873993048,0.0 -53.6778347,-23.6652439993048,0.0 -53.6779354,-23.6655257993048,0.0 -53.67823,-23.6663499993048,0.0 -53.6800151,-23.6671490993048,0.0 -53.6826489,-23.6672510993048,0.0 -53.6834779,-23.6668945993048,0.0 -53.6844777,-23.6664645993048,0.0 -53.6858145,-23.6658896993048,0.0 -53.6877347,-23.6674534993048,0.0 -53.6878951,-23.6675840993048,0.0 -53.6882742,-23.6678927993048,0.0 -53.6889861,-23.6680185993048,0.0 -53.6890443,-23.6680288993048,0.0 -53.6891297,-23.6681410993048,0.0 -53.6894546,-23.6685680993047,0.0 -53.6897649,-23.6689759993047,0.0 -53.6906011,-23.6700751993047,0.0 -53.6920268,-23.6707582993047,0.0 -53.6920866,-23.6707869993047,0.0 -53.6924082,-23.6708474993047,0.0 -53.6928586,-23.6709323993047,0.0 -53.6930557,-23.6709694993047,0.0 -53.6938112,-23.6711117993047,0.0 -53.6973512,-23.6704448993047,0.0 -53.697383,-23.6704389993047,0.0 -53.6974036,-23.6704508993047,0.0 -53.6984922,-23.6710857993047,0.0 -53.6987721,-23.6710974993047,0.0 -53.7010663,-23.6711936993047,0.0 -53.701116,-23.6712072993047,0.0 -53.7018571,-23.6714100993047,0.0 -53.702102,-23.6714771993047,0.0 -53.7026768,-23.6716344993047,0.0 -53.7035473,-23.6718727993047,0.0 -53.7049913,-23.6722679993047,0.0 -53.7050287,-23.6722781993047,0.0 -53.707212,-23.6728757993047,0.0 -53.7103152,-23.6731100993047,0.0 -53.712083,-23.6728014993047,0.0 -53.7128139,-23.6726738993047,0.0 -53.7135858,-23.6725391993047,0.0 -53.7146216,-23.6732605993047,0.0 -53.7151546,-23.6736317993046,0.0 -53.7151716,-23.6736436993046,0.0 -53.7154239,-23.6743699993046,0.0 -53.7164302,-23.6737100993046,0.0 -53.7166665,-23.6736442993046,0.0 -53.7172355,-23.6734857993047,0.0 -53.7170655,-23.6738212993046,0.0 -53.7170573,-23.6738375993046,0.0 -53.717143,-23.6738880993046,0.0 -53.717642,-23.6741820993046,0.0 -53.7179306,-23.6743520993046,0.0 -53.7181213,-23.6740459993046,0.0 -53.7185319,-23.6733868993047,0.0 -53.7186055,-23.6732688993046,0.0 -53.7199574,-23.6732424993047,0.0 -53.7218275,-23.6724801993047,0.0 -53.7220457,-23.6721791993047,0.0 -53.7225651,-23.6714627993047,0.0 -53.7226467,-23.6713500993047,0.0 -53.7226878,-23.6712934993047,0.0 -53.7228046,-23.6713348993047,0.0 -53.723156,-23.6714595993047,0.0 -53.7232501,-23.6713233993047,0.0 -53.7234727,-23.6710014993047,0.0 -53.7236513,-23.6713651993047,0.0 -53.7236923,-23.6714487993047,0.0 -53.7241536,-23.6714174993047,0.0 -53.7249257,-23.6713651993047,0.0 -53.7253293,-23.6718001993047,0.0 -53.7256877,-23.6721863993047,0.0 -53.7258435,-23.6721075993047,0.0 -53.7264277,-23.6718120993047,0.0 -53.726856,-23.6715954993047,0.0 -53.7268672,-23.6715898993047,0.0 -53.729292,-23.6724434993047,0.0 -53.7295582,-23.6725371993047,0.0 -53.7306606,-23.6724160993047,0.0 -53.7312085,-23.6723558993047,0.0 -53.7316025,-23.6727090993047,0.0 -53.7324669,-23.6734839993047,0.0 -53.7326126,-23.6735247993046,0.0 -53.7338248,-23.6738645993046,0.0 -53.7343316,-23.6736454993046,0.0 -53.7348793,-23.6734085993047,0.0 -53.7366634,-23.6726369993047,0.0 -53.7370578,-23.6727982993047,0.0 -53.7374222,-23.6729471993047,0.0 -53.7377213,-23.6730694993047,0.0 -53.7406723,-23.6719223993047,0.0 -53.7406923,-23.6719333993047,0.0 -53.7407247,-23.6719512993047,0.0 -53.7410948,-23.6721558993047,0.0 -53.7418553,-23.6725761993047,0.0 -53.7445571,-23.6715305993047,0.0 -53.7446763,-23.6715880993047,0.0 -53.7452711,-23.6718748993047,0.0 -53.7457443,-23.6717733993047,0.0 -53.7466657,-23.6715755993047,0.0 -53.7468204,-23.6716445993047,0.0 -53.7478184,-23.6720892993047,0.0 -53.7480546,-23.6721945993047,0.0 -53.7486692,-23.6722406993047,0.0 -53.7486836,-23.6718894993047,0.0 -53.748098,-23.6717876993047,0.0 -53.7480544,-23.6717800993047,0.0 -53.7481029,-23.6717606993047,0.0 -53.7494946,-23.6712027993047,0.0 -53.750021,-23.6711909993047,0.0 -53.7502557,-23.6709836993047,0.0 -53.7508401,-23.6709196993047,0.0 -53.753176,-23.6715662993047,0.0 -53.7548114,-23.6714063993047,0.0 -53.7572339,-23.6734705993046,0.0 -53.7589829,-23.6733965993046,0.0 -53.7607796,-23.6730137993047,0.0 -53.7612252,-23.6721576993047,0.0 -53.7617465,-23.6706496993047,0.0 -53.7636326,-23.6706624993047,0.0 -53.7655932,-23.6695964993047,0.0 -53.7688019,-23.6700301993047,0.0 -53.7702914,-23.6692612993047,0.0 -53.7727697,-23.6697253993047,0.0 -53.7737979,-23.6698235993047,0.0 -53.779079,-23.6685426993048,0.0 -53.7800664,-23.6689512993047,0.0 -53.7805383,-23.6687560993047,0.0 -53.7806567,-23.6694713993047,0.0 -53.7817991,-23.6692137993047,0.0 -53.7838131,-23.6671489993048,0.0 -53.7847412,-23.6672865993048,0.0 -53.7854707,-23.6666149993048,0.0 -53.7877531,-23.6664022993048,0.0 -53.7893445,-23.6655232993048,0.0 -53.790098,-23.6657237993048,0.0 -53.7906222,-23.6646780993048,0.0 -53.7948352,-23.6672424993048,0.0 -53.7966441,-23.6677035993048,0.0 -53.7971813,-23.6677033993048,0.0 -53.7981318,-23.6673289993048,0.0 -53.7985155,-23.6677159993048,0.0 -53.7992433,-23.6668031993048,0.0 -53.7989953,-23.6661527993048,0.0 -53.8001372,-23.6655673993048,0.0 -53.8014477,-23.6656394993048,0.0 -53.8016054,-23.6663782993048,0.0 -53.8028398,-23.6661955993048,0.0 -53.8031914,-23.6651279993048,0.0 -53.803742,-23.6653281993048,0.0 -53.8036183,-23.6648033993048,0.0 -53.8055499,-23.6657620993048,0.0 -53.8059628,-23.6663295993048,0.0 -53.8059254,-23.6657823993048,0.0 -53.8078633,-23.6665115993048,0.0 -53.8081848,-23.6658600993048,0.0 -53.8088769,-23.6658465993048,0.0 -53.8114877,-23.6669665993048,0.0 -53.815743,-23.6662945993048,0.0 -53.8158212,-23.6657366993048,0.0 -53.8168603,-23.6657956993048,0.0 -53.817019,-23.6665624993048,0.0 -53.8175007,-23.6662325993048,0.0 -53.8173661,-23.6657709993048,0.0 -53.8219504,-23.6646377993048,0.0 -53.8228701,-23.6630334993049,0.0 -53.8236473,-23.6630993993049,0.0 -53.8248562,-23.6644026993048,0.0 -53.8269393,-23.6635960993049,0.0 -53.8287133,-23.6638146993049,0.0 -53.8288998,-23.6644225993048,0.0 -53.8293246,-23.6640952993049,0.0 -53.8303654,-23.6643122993048,0.0 -53.8306653,-23.6636218993049,0.0 -53.830938,-23.6641737993049,0.0 -53.8319016,-23.6641946993049,0.0 -53.8320743,-23.6632657993049,0.0 -53.8332016,-23.6632525993049,0.0 -53.8360532,-23.6632176993049,0.0 -53.8363938,-23.6637010993049,0.0 -53.8368727,-23.6632420993049,0.0 -53.8371673,-23.6635818993049,0.0 -53.8375959,-23.6633890993049,0.0 -53.8376904,-23.6638640993049,0.0 -53.8393626,-23.6639660993049,0.0 -53.8398635,-23.6631611993049,0.0 -53.8403179,-23.6635372993049,0.0 -53.8410356,-23.6633853993049,0.0 -53.841562,-23.6625615993049,0.0 -53.8438511,-23.6632067993049,0.0 -53.844384,-23.6627206993049,0.0 -53.8465791,-23.6624004993049,0.0 -53.8465699,-23.6619517993049,0.0 -53.8491872,-23.6618757993049,0.0 -53.8496288,-23.6623177993049,0.0 -53.8509943,-23.6623081993049,0.0 -53.8522201,-23.6618064993049,0.0 -53.8522355,-23.6611951993049,0.0 -53.8516546,-23.6609156993049,0.0 -53.854224,-23.6606697993049,0.0 -53.8543216,-23.6610400993049,0.0 -53.8565227,-23.6605996993049,0.0 -53.8565378,-23.6611829993049,0.0 -53.8569844,-23.6606443993049,0.0 -53.8586107,-23.6605754993049,0.0 -53.8585592,-23.6601401993049,0.0 -53.8595026,-23.6606105993049,0.0 -53.8597814,-23.6602090993049,0.0 -53.8599652,-23.6607355993049,0.0 -53.8603284,-23.6602519993049,0.0 -53.8611197,-23.6608729993049,0.0 -53.8612231,-23.6604270993049,0.0 -53.8623478,-23.6610492993049,0.0 -53.8640342,-23.6606470993049,0.0 -53.8650312,-23.6615310993049,0.0 -53.8657726,-23.6611452993049,0.0 -53.8662867,-23.6617054993049,0.0 -53.8670575,-23.6613729993049,0.0 -53.8686185,-23.6618997993049,0.0 -53.8693075,-23.6629757993049,0.0 -53.8694716,-23.6626020993049,0.0 -53.8709701,-23.6629084993049,0.0 -53.8715659,-23.6630299993049,0.0 -53.871673,-23.6638462993049,0.0 -53.8721536,-23.6635460993049,0.0 -53.872399,-23.6642044993049,0.0 -53.8748529,-23.6638552993049,0.0 -53.8755182,-23.6641320993049,0.0 -53.8770029,-23.6635490993049,0.0 -53.8772159,-23.6642227993048,0.0 -53.8779649,-23.6641411993049,0.0 -53.8784154,-23.6635492993049,0.0 -53.8799692,-23.6644867993048,0.0 -53.8804185,-23.6641629993048,0.0 -53.8808043,-23.6635185993049,0.0 -53.8816619,-23.6636637993049,0.0 -53.8821566,-23.6629038993049,0.0 -53.8826309,-23.6631552993049,0.0 -53.8832252,-23.6628631993049,0.0 -53.8838229,-23.6620049993049,0.0 -53.8862251,-23.6624157993049,0.0 -53.8889506,-23.6619590993049,0.0 -53.8892578,-23.6626174993049,0.0 -53.8901748,-23.6620971993049,0.0 -53.8907774,-23.6624126993049,0.0 -53.8914493,-23.6617928993049,0.0 -53.8920844,-23.6619422993049,0.0 -53.89198,-23.6613236993049,0.0 -53.8925632,-23.6613936993049,0.0 -53.8931344,-23.6605886993049,0.0 -53.8951591,-23.659886699305,0.0 -53.8960772,-23.6602971993049,0.0 -53.8966327,-23.659519299305,0.0 -53.8977981,-23.659559799305,0.0 -53.8992121,-23.6601990993049,0.0 -53.9006253,-23.659228499305,0.0 -53.9012161,-23.659614399305,0.0 -53.9021725,-23.658783399305,0.0 -53.9029496,-23.659027699305,0.0 -53.9031518,-23.658584499305,0.0 -53.9035045,-23.658892599305,0.0 -53.9040935,-23.659081699305,0.0 -53.9050786,-23.659121099305,0.0 -53.9053319,-23.658491899305,0.0 -53.9049022,-23.657586999305,0.0 -53.9059556,-23.656736199305,0.0 -53.9081103,-23.656424099305,0.0 -53.9080784,-23.655769499305,0.0 -53.9124056,-23.6547995993051,0.0 -53.9125298,-23.6553404993051,0.0 -53.9133797,-23.6552154993051,0.0 -53.9130913,-23.655576499305,0.0 -53.9136117,-23.655625499305,0.0 -53.9140107,-23.6540835993051,0.0 -53.9144371,-23.6539429993051,0.0 -53.9163149,-23.6544333993051,0.0 -53.9173571,-23.655540899305,0.0 -53.9179667,-23.655625199305,0.0 -53.9179396,-23.656689699305,0.0 -53.9188491,-23.656841899305,0.0 -53.9193015,-23.657514799305,0.0 -53.9191746,-23.658337199305,0.0 -53.919641,-23.658611999305,0.0 -53.9200375,-23.659443799305,0.0 -53.9213438,-23.6599951993049,0.0 -53.9237257,-23.6600875993049,0.0 -53.9242016,-23.659280599305,0.0 -53.9270127,-23.657681999305,0.0 -53.9276057,-23.656079599305,0.0 -53.9292258,-23.656405399305,0.0 -53.929523,-23.656021799305,0.0 -53.9312635,-23.656683499305,0.0 -53.9340495,-23.655956099305,0.0 -53.9345012,-23.656312899305,0.0 -53.9362725,-23.656328099305,0.0 -53.9361001,-23.656063499305,0.0 -53.9361245,-23.656031899305,0.0 -53.9376635,-23.6540352993051,0.0 -53.9376934,-23.6532368993051,0.0 -53.9377042,-23.6529499993051,0.0 -53.9378695,-23.6529861993051,0.0 -53.9381962,-23.6530576993051,0.0 -53.9385583,-23.6520293993051,0.0 -53.9384515,-23.6518894993051,0.0 -53.9382057,-23.6515678993051,0.0 -53.9384939,-23.6515101993051,0.0 -53.9386887,-23.6509059993051,0.0 -53.9387609,-23.6506822993052,0.0 -53.9395972,-23.6500153993052,0.0 -53.9418952,-23.6511403993051,0.0 -53.9426039,-23.6510963993052,0.0 -53.9438226,-23.6502751993052,0.0 -53.9442085,-23.6509028993051,0.0 -53.9455567,-23.6496266993052,0.0</coordinates>
</LinearRing>
</outerBoundaryIs>
</Polygon>
</MultiGeometry>
</Placemark>
</Folder>
</Document></kml>
