<?xml version='1.0' encoding='UTF-8'?>
<kml xmlns:xsd="http://www.w3.org/2001/XMLSchema" xmlns:gx="http://www.google.com/kml/ext/2.2" xmlns:atom="http://www.w3.org/2005/Atom" xmlns="http://www.opengis.net/kml/2.2">
<Document>
<name>campo_mourao_4104303_localidades_2022</name>
<visibility>1</visibility>
<Schema name="Vilas" id="kml_schema_ft_Vilas">
<SimpleField type="xsd:string" name="CD_UF">
<displayName>CD_UF</displayName>
</SimpleField>
<SimpleField type="xsd:string" name="NM_UF">
<displayName>NM_UF</displayName>
</SimpleField>
<SimpleField type="xsd:string" name="SIGLA_UF">
<displayName>SIGLA_UF</displayName>
</SimpleField>
<SimpleField type="xsd:string" name="CD_MUN">
<displayName>CD_MUN</displayName>
</SimpleField>
<SimpleField type="xsd:string" name="NM_MUN">
<displayName>NM_MUN</displayName>
</SimpleField>
<SimpleField type="xsd:string" name="CD_RGINT">
<displayName>CD_RGINT</displayName>
</SimpleField>
<SimpleField type="xsd:string" name="NM_RGINT">
<displayName>NM_RGINT</displayName>
</SimpleField>
<SimpleField type="xsd:string" name="CD_RGI">
<displayName>CD_RGI</displayName>
</SimpleField>
<SimpleField type="xsd:string" name="NM_RGI">
<displayName>NM_RGI</displayName>
</SimpleField>
<SimpleField type="xsd:string" name="CT_LOCALIDADE">
<displayName>CT_LOCALIDADE</displayName>
</SimpleField>
<SimpleField type="xsd:string" name="CD_LOCALIDADE">
<displayName>CD_LOCALIDADE</displayName>
</SimpleField>
<SimpleField type="xsd:string" name="NM_LOCALIDADE">
<displayName>NM_LOCALIDADE</displayName>
</SimpleField>
<SimpleField type="xsd:string" name="LAT_LOCALIDADE">
<displayName>LAT_LOCALIDADE</displayName>
</SimpleField>
<SimpleField type="xsd:string" name="LONG_LOCALIDADE">
<displayName>LONG_LOCALIDADE</displayName>
</SimpleField>
</Schema>
<Schema name="Localidades" id="kml_schema_ft_Localidades">
<SimpleField type="xsd:string" name="CD_UF">
<displayName>CD_UF</displayName>
</SimpleField>
<SimpleField type="xsd:string" name="NM_UF">
<displayName>NM_UF</displayName>
</SimpleField>
<SimpleField type="xsd:string" name="SIGLA_UF">
<displayName>SIGLA_UF</displayName>
</SimpleField>
<SimpleField type="xsd:string" name="CD_MUN">
<displayName>CD_MUN</displayName>
</SimpleField>
<SimpleField type="xsd:string" name="NM_MUN">
<displayName>NM_MUN</displayName>
</SimpleField>
<SimpleField type="xsd:string" name="CD_RGINT">
<displayName>CD_RGINT</displayName>
</SimpleField>
<SimpleField type="xsd:string" name="NM_RGINT">
<displayName>NM_RGINT</displayName>
</SimpleField>
<SimpleField type="xsd:string" name="CD_RGI">
<displayName>CD_RGI</displayName>
</SimpleField>
<SimpleField type="xsd:string" name="NM_RGI">
<displayName>NM_RGI</displayName>
</SimpleField>
<SimpleField type="xsd:string" name="CT_LOCALIDADE">
<displayName>CT_LOCALIDADE</displayName>
</SimpleField>
<SimpleField type="xsd:string" name="SCT_LOCALIDADE">
<displayName>SCT_LOCALIDADE</displayName>
</SimpleField>
<SimpleField type="xsd:string" name="CD_LOCALIDADE">
<displayName>CD_LOCALIDADE</displayName>
</SimpleField>
<SimpleField type="xsd:string" name="NM_LOCALIDADE">
<displayName>NM_LOCALIDADE</displayName>
</SimpleField>
</Schema>
<Schema name="Núcleos Urbanos" id="kml_schema_ft_Núcleos_Urbanos">
<SimpleField type="xsd:string" name="CD_UF">
<displayName>CD_UF</displayName>
</SimpleField>
<SimpleField type="xsd:string" name="NM_UF">
<displayName>NM_UF</displayName>
</SimpleField>
<SimpleField type="xsd:string" name="SIGLA_UF">
<displayName>SIGLA_UF</displayName>
</SimpleField>
<SimpleField type="xsd:string" name="CD_MUN">
<displayName>CD_MUN</displayName>
</SimpleField>
<SimpleField type="xsd:string" name="NM_MUN">
<displayName>NM_MUN</displayName>
</SimpleField>
<SimpleField type="xsd:string" name="CD_RGINT">
<displayName>CD_RGINT</displayName>
</SimpleField>
<SimpleField type="xsd:string" name="NM_RGINT">
<displayName>NM_RGINT</displayName>
</SimpleField>
<SimpleField type="xsd:string" name="CD_RGI">
<displayName>CD_RGI</displayName>
</SimpleField>
<SimpleField type="xsd:string" name="NM_RGI">
<displayName>NM_RGI</displayName>
</SimpleField>
<SimpleField type="xsd:string" name="CT_LOCALIDADE">
<displayName>CT_LOCALIDADE</displayName>
</SimpleField>
<SimpleField type="xsd:string" name="CD_LOCALIDADE">
<displayName>CD_LOCALIDADE</displayName>
</SimpleField>
<SimpleField type="xsd:string" name="NM_LOCALIDADE">
<displayName>NM_LOCALIDADE</displayName>
</SimpleField>
<SimpleField type="xsd:string" name="LAT_LOCALIDADE">
<displayName>LAT_LOCALIDADE</displayName>
</SimpleField>
<SimpleField type="xsd:string" name="LONG_LOCALIDADE">
<displayName>LONG_LOCALIDADE</displayName>
</SimpleField>
</Schema>
<Schema name="01. Cidade" id="kml_schema_ft_01._Cidade">
<SimpleField type="xsd:string" name="CD_UF">
<displayName>CD_UF</displayName>
</SimpleField>
<SimpleField type="xsd:string" name="NM_UF">
<displayName>NM_UF</displayName>
</SimpleField>
<SimpleField type="xsd:string" name="SIGLA_UF">
<displayName>SIGLA_UF</displayName>
</SimpleField>
<SimpleField type="xsd:string" name="CD_MUN">
<displayName>CD_MUN</displayName>
</SimpleField>
<SimpleField type="xsd:string" name="NM_MUN">
<displayName>NM_MUN</displayName>
</SimpleField>
<SimpleField type="xsd:string" name="CD_RGINT">
<displayName>CD_RGINT</displayName>
</SimpleField>
<SimpleField type="xsd:string" name="NM_RGINT">
<displayName>NM_RGINT</displayName>
</SimpleField>
<SimpleField type="xsd:string" name="CD_RGI">
<displayName>CD_RGI</displayName>
</SimpleField>
<SimpleField type="xsd:string" name="NM_RGI">
<displayName>NM_RGI</displayName>
</SimpleField>
<SimpleField type="xsd:string" name="CT_LOCALIDADE">
<displayName>CT_LOCALIDADE</displayName>
</SimpleField>
<SimpleField type="xsd:string" name="SCT_LOCALIDADE">
<displayName>SCT_LOCALIDADE</displayName>
</SimpleField>
<SimpleField type="xsd:string" name="CD_LOCALIDADE">
<displayName>CD_LOCALIDADE</displayName>
</SimpleField>
<SimpleField type="xsd:string" name="NM_LOCALIDADE">
<displayName>NM_LOCALIDADE</displayName>
</SimpleField>
<SimpleField type="xsd:string" name="LAT_LOCALIDADE">
<displayName>LAT_LOCALIDADE</displayName>
</SimpleField>
<SimpleField type="xsd:string" name="LONG_LOCALIDADE">
<displayName>LONG_LOCALIDADE</displayName>
</SimpleField>
</Schema>
<Schema name="Município" id="kml_schema_ft_Município">
<SimpleField type="xsd:string" name="CD_UF">
<displayName>CD_UF</displayName>
</SimpleField>
<SimpleField type="xsd:string" name="NM_UF">
<displayName>NM_UF</displayName>
</SimpleField>
<SimpleField type="xsd:string" name="CD_MUN">
<displayName>CD_MUN</displayName>
</SimpleField>
<SimpleField type="xsd:string" name="NM_MUN">
<displayName>NM_MUN</displayName>
</SimpleField>
<SimpleField type="xsd:string" name="CD_RGINT">
<displayName>CD_RGINT</displayName>
</SimpleField>
<SimpleField type="xsd:string" name="NM_RGINT">
<displayName>NM_RGINT</displayName>
</SimpleField>
<SimpleField type="xsd:string" name="CD_RGI">
<displayName>CD_RGI</displayName>
</SimpleField>
<SimpleField type="xsd:string" name="NM_RGI">
<displayName>NM_RGI</displayName>
</SimpleField>
</Schema>
<Folder id="01. Cidade">
<name>01. Cidade</name>
<Folder id="01.03. Sede Municipal">
<name>01.03. Sede Municipal</name>
<Placemark id="01.03. Sede Municipal">
<name>Campo Mourão [4104303]</name>
<visibility>1</visibility>
<snippet> </snippet>
<description>&lt;center&gt;&lt;table&gt;&lt;tr&gt;&lt;th colspan='2' align='center'&gt;&lt;em&gt;Atributos&lt;/em&gt;&lt;/th&gt;&lt;/tr&gt;&lt;tr bgcolor="#E3E3F3"&gt;
&lt;th&gt;CD_UF&lt;/th&gt;
&lt;td&gt;41&lt;/td&gt;
&lt;/tr&gt;&lt;tr bgcolor=""&gt;
&lt;th&gt;NM_UF&lt;/th&gt;
&lt;td&gt;Paraná&lt;/td&gt;
&lt;/tr&gt;&lt;tr bgcolor="#E3E3F3"&gt;
&lt;th&gt;SIGLA_UF&lt;/th&gt;
&lt;td&gt;PR&lt;/td&gt;
&lt;/tr&gt;&lt;tr bgcolor=""&gt;
&lt;th&gt;CD_MUN&lt;/th&gt;
&lt;td&gt;4104303&lt;/td&gt;
&lt;/tr&gt;&lt;tr bgcolor="#E3E3F3"&gt;
&lt;th&gt;NM_MUN&lt;/th&gt;
&lt;td&gt;Campo Mourão&lt;/td&gt;
&lt;/tr&gt;&lt;tr bgcolor=""&gt;
&lt;th&gt;CD_RGINT&lt;/th&gt;
&lt;td&gt;4104&lt;/td&gt;
&lt;/tr&gt;&lt;tr bgcolor="#E3E3F3"&gt;
&lt;th&gt;NM_RGINT&lt;/th&gt;
&lt;td&gt;Maringá&lt;/td&gt;
&lt;/tr&gt;&lt;tr bgcolor=""&gt;
&lt;th&gt;CD_RGI&lt;/th&gt;
&lt;td&gt;410015&lt;/td&gt;
&lt;/tr&gt;&lt;tr bgcolor="#E3E3F3"&gt;
&lt;th&gt;NM_RGI&lt;/th&gt;
&lt;td&gt;Campo Mourão&lt;/td&gt;
&lt;/tr&gt;&lt;tr bgcolor=""&gt;
&lt;th&gt;CT_LOCALIDADE&lt;/th&gt;
&lt;td&gt;Cidade&lt;/td&gt;
&lt;/tr&gt;&lt;tr bgcolor="#E3E3F3"&gt;
&lt;th&gt;SCT_LOCALIDADE&lt;/th&gt;
&lt;td&gt;Sede Municipal&lt;/td&gt;
&lt;/tr&gt;&lt;tr bgcolor=""&gt;
&lt;th&gt;CD_LOCALIDADE&lt;/th&gt;
&lt;td&gt;4104303&lt;/td&gt;
&lt;/tr&gt;&lt;tr bgcolor="#E3E3F3"&gt;
&lt;th&gt;NM_LOCALIDADE&lt;/th&gt;
&lt;td&gt;Campo Mourão&lt;/td&gt;
&lt;/tr&gt;&lt;tr bgcolor=""&gt;
&lt;th&gt;LAT_LOCALIDADE&lt;/th&gt;
&lt;td&gt;-24.0429&lt;/td&gt;
&lt;/tr&gt;&lt;tr bgcolor="#E3E3F3"&gt;
&lt;th&gt;LONG_LOCALIDADE&lt;/th&gt;
&lt;td&gt;-52.3792&lt;/td&gt;
&lt;/tr&gt;&lt;/table&gt;&lt;/center&gt;</description>
<Style>
<IconStyle>
<color>ff00aaff</color>
<scale>1.0</scale>
<Icon>
<href>http://maps.google.com/mapfiles/kml/shapes/placemark_circle.png</href>
</Icon>
</IconStyle>
<LabelStyle>
<scale>1.0</scale>
</LabelStyle>
<LineStyle>
<color>ffffffff</color>
<width>3</width>
<gx:labelVisibility>1</gx:labelVisibility>
</LineStyle>
<PolyStyle>
<color>00ffffff</color>
</PolyStyle>
</Style>
<ExtendedData>
<SchemaData schemaUrl="#kml_schema_ft_01._Cidade">
<SimpleData name="CD_UF">41</SimpleData>
<SimpleData name="NM_UF">Paraná</SimpleData>
<SimpleData name="SIGLA_UF">PR</SimpleData>
<SimpleData name="CD_MUN">4104303</SimpleData>
<SimpleData name="NM_MUN">Campo Mourão</SimpleData>
<SimpleData name="CD_RGINT">4104</SimpleData>
<SimpleData name="NM_RGINT">Maringá</SimpleData>
<SimpleData name="CD_RGI">410015</SimpleData>
<SimpleData name="NM_RGI">Campo Mourão</SimpleData>
<SimpleData name="CT_LOCALIDADE">Cidade</SimpleData>
<SimpleData name="SCT_LOCALIDADE">Sede Municipal</SimpleData>
<SimpleData name="CD_LOCALIDADE">4104303</SimpleData>
<SimpleData name="NM_LOCALIDADE">Campo Mourão</SimpleData>
<SimpleData name="LAT_LOCALIDADE">-24.0429</SimpleData>
<SimpleData name="LONG_LOCALIDADE">-52.3792</SimpleData>
</SchemaData>
</ExtendedData>
<Point>
<extrude>0</extrude>
<coordinates>-52.379214,-24.0428679992965,0.0</coordinates>
</Point>
</Placemark>
</Folder>
</Folder>
<Folder id="04. Vilas">
<name>04. Vilas</name>
<Placemark id="04. Vilas">
<name>Piquirivaí [410430320]</name>
<visibility>1</visibility>
<snippet> </snippet>
<description>&lt;center&gt;&lt;table&gt;&lt;tr&gt;&lt;th colspan='2' align='center'&gt;&lt;em&gt;Atributos&lt;/em&gt;&lt;/th&gt;&lt;/tr&gt;&lt;tr bgcolor="#E3E3F3"&gt;
&lt;th&gt;CD_UF&lt;/th&gt;
&lt;td&gt;41&lt;/td&gt;
&lt;/tr&gt;&lt;tr bgcolor=""&gt;
&lt;th&gt;NM_UF&lt;/th&gt;
&lt;td&gt;Paraná&lt;/td&gt;
&lt;/tr&gt;&lt;tr bgcolor="#E3E3F3"&gt;
&lt;th&gt;SIGLA_UF&lt;/th&gt;
&lt;td&gt;PR&lt;/td&gt;
&lt;/tr&gt;&lt;tr bgcolor=""&gt;
&lt;th&gt;CD_MUN&lt;/th&gt;
&lt;td&gt;4104303&lt;/td&gt;
&lt;/tr&gt;&lt;tr bgcolor="#E3E3F3"&gt;
&lt;th&gt;NM_MUN&lt;/th&gt;
&lt;td&gt;Campo Mourão&lt;/td&gt;
&lt;/tr&gt;&lt;tr bgcolor=""&gt;
&lt;th&gt;CD_RGINT&lt;/th&gt;
&lt;td&gt;4104&lt;/td&gt;
&lt;/tr&gt;&lt;tr bgcolor="#E3E3F3"&gt;
&lt;th&gt;NM_RGINT&lt;/th&gt;
&lt;td&gt;Maringá&lt;/td&gt;
&lt;/tr&gt;&lt;tr bgcolor=""&gt;
&lt;th&gt;CD_RGI&lt;/th&gt;
&lt;td&gt;410015&lt;/td&gt;
&lt;/tr&gt;&lt;tr bgcolor="#E3E3F3"&gt;
&lt;th&gt;NM_RGI&lt;/th&gt;
&lt;td&gt;Campo Mourão&lt;/td&gt;
&lt;/tr&gt;&lt;tr bgcolor=""&gt;
&lt;th&gt;CT_LOCALIDADE&lt;/th&gt;
&lt;td&gt;Vila&lt;/td&gt;
&lt;/tr&gt;&lt;tr bgcolor="#E3E3F3"&gt;
&lt;th&gt;CD_LOCALIDADE&lt;/th&gt;
&lt;td&gt;410430320&lt;/td&gt;
&lt;/tr&gt;&lt;tr bgcolor=""&gt;
&lt;th&gt;NM_LOCALIDADE&lt;/th&gt;
&lt;td&gt;Piquirivaí&lt;/td&gt;
&lt;/tr&gt;&lt;tr bgcolor="#E3E3F3"&gt;
&lt;th&gt;LAT_LOCALIDADE&lt;/th&gt;
&lt;td&gt;-24.1596&lt;/td&gt;
&lt;/tr&gt;&lt;tr bgcolor=""&gt;
&lt;th&gt;LONG_LOCALIDADE&lt;/th&gt;
&lt;td&gt;-52.4802&lt;/td&gt;
&lt;/tr&gt;&lt;/table&gt;&lt;/center&gt;</description>
<Style>
<IconStyle>
<color>ffff5400</color>
<scale>1.0</scale>
<Icon>
<href>http://maps.google.com/mapfiles/kml/shapes/placemark_circle.png</href>
</Icon>
</IconStyle>
<LabelStyle>
<scale>0.9</scale>
</LabelStyle>
<LineStyle>
<color>72ffffff</color>
<width>1.0</width>
<gx:labelVisibility>1</gx:labelVisibility>
</LineStyle>
<PolyStyle>
<color>660054ff</color>
</PolyStyle>
</Style>
<ExtendedData>
<SchemaData schemaUrl="#kml_schema_ft_Vilas">
<SimpleData name="CD_UF">41</SimpleData>
<SimpleData name="NM_UF">Paraná</SimpleData>
<SimpleData name="SIGLA_UF">PR</SimpleData>
<SimpleData name="CD_MUN">4104303</SimpleData>
<SimpleData name="NM_MUN">Campo Mourão</SimpleData>
<SimpleData name="CD_RGINT">4104</SimpleData>
<SimpleData name="NM_RGINT">Maringá</SimpleData>
<SimpleData name="CD_RGI">410015</SimpleData>
<SimpleData name="NM_RGI">Campo Mourão</SimpleData>
<SimpleData name="CT_LOCALIDADE">Vila</SimpleData>
<SimpleData name="CD_LOCALIDADE">410430320</SimpleData>
<SimpleData name="NM_LOCALIDADE">Piquirivaí</SimpleData>
<SimpleData name="LAT_LOCALIDADE">-24.1596</SimpleData>
<SimpleData name="LONG_LOCALIDADE">-52.4802</SimpleData>
</SchemaData>
</ExtendedData>
<Point>
<extrude>0</extrude>
<coordinates>-52.480208,-24.1596059992939,0.0</coordinates>
</Point>
</Placemark>
</Folder>
<Folder id="05. Núcleos Urbanos">
<name>05. Núcleos Urbanos</name>
<Placemark id="localidades">
<name>Vila Guarujá [4104303001]</name>
<visibility>1</visibility>
<snippet> </snippet>
<description>&lt;center&gt;&lt;table&gt;&lt;tr&gt;&lt;th colspan='2' align='center'&gt;&lt;em&gt;Attributes&lt;/em&gt;&lt;/th&gt;&lt;/tr&gt;&lt;tr bgcolor="#E3E3F3"&gt;
&lt;th&gt;CD_UF&lt;/th&gt;
&lt;td&gt;41&lt;/td&gt;
&lt;/tr&gt;&lt;tr bgcolor=""&gt;
&lt;th&gt;NM_UF&lt;/th&gt;
&lt;td&gt;Paraná&lt;/td&gt;
&lt;/tr&gt;&lt;tr bgcolor="#E3E3F3"&gt;
&lt;th&gt;SIGLA_UF&lt;/th&gt;
&lt;td&gt;PR&lt;/td&gt;
&lt;/tr&gt;&lt;tr bgcolor=""&gt;
&lt;th&gt;CD_MUN&lt;/th&gt;
&lt;td&gt;4104303&lt;/td&gt;
&lt;/tr&gt;&lt;tr bgcolor="#E3E3F3"&gt;
&lt;th&gt;NM_MUN&lt;/th&gt;
&lt;td&gt;Campo Mourão&lt;/td&gt;
&lt;/tr&gt;&lt;tr bgcolor=""&gt;
&lt;th&gt;CD_RGINT&lt;/th&gt;
&lt;td&gt;4104&lt;/td&gt;
&lt;/tr&gt;&lt;tr bgcolor="#E3E3F3"&gt;
&lt;th&gt;NM_RGINT&lt;/th&gt;
&lt;td&gt;Maringá&lt;/td&gt;
&lt;/tr&gt;&lt;tr bgcolor=""&gt;
&lt;th&gt;CD_RGI&lt;/th&gt;
&lt;td&gt;410015&lt;/td&gt;
&lt;/tr&gt;&lt;tr bgcolor="#E3E3F3"&gt;
&lt;th&gt;NM_RGI&lt;/th&gt;
&lt;td&gt;Campo Mourão&lt;/td&gt;
&lt;/tr&gt;&lt;tr bgcolor=""&gt;
&lt;th&gt;CT_LOCALIDADE&lt;/th&gt;
&lt;td&gt;Núcleo Urbano&lt;/td&gt;
&lt;/tr&gt;&lt;tr bgcolor="#E3E3F3"&gt;
&lt;th&gt;CD_LOCALIDADE&lt;/th&gt;
&lt;td&gt;4104303001&lt;/td&gt;
&lt;/tr&gt;&lt;tr bgcolor=""&gt;
&lt;th&gt;NM_LOCALIDADE&lt;/th&gt;
&lt;td&gt;Vila Guarujá&lt;/td&gt;
&lt;/tr&gt;&lt;tr bgcolor="#E3E3F3"&gt;
&lt;th&gt;LAT_LOCALIDADE&lt;/th&gt;
&lt;td&gt;-24.0784&lt;/td&gt;
&lt;/tr&gt;&lt;tr bgcolor=""&gt;
&lt;th&gt;LONG_LOCALIDADE&lt;/th&gt;
&lt;td&gt;-52.3788&lt;/td&gt;
&lt;/tr&gt;&lt;/table&gt;&lt;/center&gt;</description>
<Style>
<IconStyle>
<color>ff0000ff</color>
<scale>0.9</scale>
<Icon>
<href>http://maps.google.com/mapfiles/kml/shapes/placemark_circle.png</href>
</Icon>
</IconStyle>
<LabelStyle>
<scale>0.9</scale>
</LabelStyle>
<LineStyle>
<color>72ffffff</color>
<width>1.0</width>
<gx:labelVisibility>1</gx:labelVisibility>
</LineStyle>
<PolyStyle>
<color>66ff54ff</color>
</PolyStyle>
</Style>
<ExtendedData>
<SchemaData schemaUrl="#kml_schema_ft_Núcleos_Urbanos">
<SimpleData name="CD_UF">41</SimpleData>
<SimpleData name="NM_UF">Paraná</SimpleData>
<SimpleData name="SIGLA_UF">PR</SimpleData>
<SimpleData name="CD_MUN">4104303</SimpleData>
<SimpleData name="NM_MUN">Campo Mourão</SimpleData>
<SimpleData name="CD_RGINT">4104</SimpleData>
<SimpleData name="NM_RGINT">Maringá</SimpleData>
<SimpleData name="CD_RGI">410015</SimpleData>
<SimpleData name="NM_RGI">Campo Mourão</SimpleData>
<SimpleData name="CT_LOCALIDADE">Núcleo Urbano</SimpleData>
<SimpleData name="CD_LOCALIDADE">4104303001</SimpleData>
<SimpleData name="NM_LOCALIDADE">Vila Guarujá</SimpleData>
<SimpleData name="LAT_LOCALIDADE">-24.0784</SimpleData>
<SimpleData name="LONG_LOCALIDADE">-52.3788</SimpleData>
</SchemaData>
</ExtendedData>
<Point>
<extrude>0</extrude>
<coordinates>-52.3787790855018,-24.0783709621209,0.0</coordinates>
</Point>
</Placemark>
<Placemark id="localidades">
<name>Vila Rural Pedro Kloster Júnior [4104303002]</name>
<visibility>1</visibility>
<snippet> </snippet>
<description>&lt;center&gt;&lt;table&gt;&lt;tr&gt;&lt;th colspan='2' align='center'&gt;&lt;em&gt;Attributes&lt;/em&gt;&lt;/th&gt;&lt;/tr&gt;&lt;tr bgcolor="#E3E3F3"&gt;
&lt;th&gt;CD_UF&lt;/th&gt;
&lt;td&gt;41&lt;/td&gt;
&lt;/tr&gt;&lt;tr bgcolor=""&gt;
&lt;th&gt;NM_UF&lt;/th&gt;
&lt;td&gt;Paraná&lt;/td&gt;
&lt;/tr&gt;&lt;tr bgcolor="#E3E3F3"&gt;
&lt;th&gt;SIGLA_UF&lt;/th&gt;
&lt;td&gt;PR&lt;/td&gt;
&lt;/tr&gt;&lt;tr bgcolor=""&gt;
&lt;th&gt;CD_MUN&lt;/th&gt;
&lt;td&gt;4104303&lt;/td&gt;
&lt;/tr&gt;&lt;tr bgcolor="#E3E3F3"&gt;
&lt;th&gt;NM_MUN&lt;/th&gt;
&lt;td&gt;Campo Mourão&lt;/td&gt;
&lt;/tr&gt;&lt;tr bgcolor=""&gt;
&lt;th&gt;CD_RGINT&lt;/th&gt;
&lt;td&gt;4104&lt;/td&gt;
&lt;/tr&gt;&lt;tr bgcolor="#E3E3F3"&gt;
&lt;th&gt;NM_RGINT&lt;/th&gt;
&lt;td&gt;Maringá&lt;/td&gt;
&lt;/tr&gt;&lt;tr bgcolor=""&gt;
&lt;th&gt;CD_RGI&lt;/th&gt;
&lt;td&gt;410015&lt;/td&gt;
&lt;/tr&gt;&lt;tr bgcolor="#E3E3F3"&gt;
&lt;th&gt;NM_RGI&lt;/th&gt;
&lt;td&gt;Campo Mourão&lt;/td&gt;
&lt;/tr&gt;&lt;tr bgcolor=""&gt;
&lt;th&gt;CT_LOCALIDADE&lt;/th&gt;
&lt;td&gt;Núcleo Urbano&lt;/td&gt;
&lt;/tr&gt;&lt;tr bgcolor="#E3E3F3"&gt;
&lt;th&gt;CD_LOCALIDADE&lt;/th&gt;
&lt;td&gt;4104303002&lt;/td&gt;
&lt;/tr&gt;&lt;tr bgcolor=""&gt;
&lt;th&gt;NM_LOCALIDADE&lt;/th&gt;
&lt;td&gt;Vila Rural Pedro Kloster Júnior&lt;/td&gt;
&lt;/tr&gt;&lt;tr bgcolor="#E3E3F3"&gt;
&lt;th&gt;LAT_LOCALIDADE&lt;/th&gt;
&lt;td&gt;-24.0127&lt;/td&gt;
&lt;/tr&gt;&lt;tr bgcolor=""&gt;
&lt;th&gt;LONG_LOCALIDADE&lt;/th&gt;
&lt;td&gt;-52.4113&lt;/td&gt;
&lt;/tr&gt;&lt;/table&gt;&lt;/center&gt;</description>
<Style>
<IconStyle>
<color>ff0000ff</color>
<scale>0.9</scale>
<Icon>
<href>http://maps.google.com/mapfiles/kml/shapes/placemark_circle.png</href>
</Icon>
</IconStyle>
<LabelStyle>
<scale>0.9</scale>
</LabelStyle>
<LineStyle>
<color>72ffffff</color>
<width>1.0</width>
<gx:labelVisibility>1</gx:labelVisibility>
</LineStyle>
<PolyStyle>
<color>66ff54ff</color>
</PolyStyle>
</Style>
<ExtendedData>
<SchemaData schemaUrl="#kml_schema_ft_Núcleos_Urbanos">
<SimpleData name="CD_UF">41</SimpleData>
<SimpleData name="NM_UF">Paraná</SimpleData>
<SimpleData name="SIGLA_UF">PR</SimpleData>
<SimpleData name="CD_MUN">4104303</SimpleData>
<SimpleData name="NM_MUN">Campo Mourão</SimpleData>
<SimpleData name="CD_RGINT">4104</SimpleData>
<SimpleData name="NM_RGINT">Maringá</SimpleData>
<SimpleData name="CD_RGI">410015</SimpleData>
<SimpleData name="NM_RGI">Campo Mourão</SimpleData>
<SimpleData name="CT_LOCALIDADE">Núcleo Urbano</SimpleData>
<SimpleData name="CD_LOCALIDADE">4104303002</SimpleData>
<SimpleData name="NM_LOCALIDADE">Vila Rural Pedro Kloster Júnior</SimpleData>
<SimpleData name="LAT_LOCALIDADE">-24.0127</SimpleData>
<SimpleData name="LONG_LOCALIDADE">-52.4113</SimpleData>
</SchemaData>
</ExtendedData>
<Point>
<extrude>0</extrude>
<coordinates>-52.411320504065,-24.0127433488905,0.0</coordinates>
</Point>
</Placemark>
<Placemark id="localidades">
<name>Usina Mourão [4104303003]</name>
<visibility>1</visibility>
<snippet> </snippet>
<description>&lt;center&gt;&lt;table&gt;&lt;tr&gt;&lt;th colspan='2' align='center'&gt;&lt;em&gt;Attributes&lt;/em&gt;&lt;/th&gt;&lt;/tr&gt;&lt;tr bgcolor="#E3E3F3"&gt;
&lt;th&gt;CD_UF&lt;/th&gt;
&lt;td&gt;41&lt;/td&gt;
&lt;/tr&gt;&lt;tr bgcolor=""&gt;
&lt;th&gt;NM_UF&lt;/th&gt;
&lt;td&gt;Paraná&lt;/td&gt;
&lt;/tr&gt;&lt;tr bgcolor="#E3E3F3"&gt;
&lt;th&gt;SIGLA_UF&lt;/th&gt;
&lt;td&gt;PR&lt;/td&gt;
&lt;/tr&gt;&lt;tr bgcolor=""&gt;
&lt;th&gt;CD_MUN&lt;/th&gt;
&lt;td&gt;4104303&lt;/td&gt;
&lt;/tr&gt;&lt;tr bgcolor="#E3E3F3"&gt;
&lt;th&gt;NM_MUN&lt;/th&gt;
&lt;td&gt;Campo Mourão&lt;/td&gt;
&lt;/tr&gt;&lt;tr bgcolor=""&gt;
&lt;th&gt;CD_RGINT&lt;/th&gt;
&lt;td&gt;4104&lt;/td&gt;
&lt;/tr&gt;&lt;tr bgcolor="#E3E3F3"&gt;
&lt;th&gt;NM_RGINT&lt;/th&gt;
&lt;td&gt;Maringá&lt;/td&gt;
&lt;/tr&gt;&lt;tr bgcolor=""&gt;
&lt;th&gt;CD_RGI&lt;/th&gt;
&lt;td&gt;410015&lt;/td&gt;
&lt;/tr&gt;&lt;tr bgcolor="#E3E3F3"&gt;
&lt;th&gt;NM_RGI&lt;/th&gt;
&lt;td&gt;Campo Mourão&lt;/td&gt;
&lt;/tr&gt;&lt;tr bgcolor=""&gt;
&lt;th&gt;CT_LOCALIDADE&lt;/th&gt;
&lt;td&gt;Núcleo Urbano&lt;/td&gt;
&lt;/tr&gt;&lt;tr bgcolor="#E3E3F3"&gt;
&lt;th&gt;CD_LOCALIDADE&lt;/th&gt;
&lt;td&gt;4104303003&lt;/td&gt;
&lt;/tr&gt;&lt;tr bgcolor=""&gt;
&lt;th&gt;NM_LOCALIDADE&lt;/th&gt;
&lt;td&gt;Usina Mourão&lt;/td&gt;
&lt;/tr&gt;&lt;tr bgcolor="#E3E3F3"&gt;
&lt;th&gt;LAT_LOCALIDADE&lt;/th&gt;
&lt;td&gt;-24.1112&lt;/td&gt;
&lt;/tr&gt;&lt;tr bgcolor=""&gt;
&lt;th&gt;LONG_LOCALIDADE&lt;/th&gt;
&lt;td&gt;-52.3398&lt;/td&gt;
&lt;/tr&gt;&lt;/table&gt;&lt;/center&gt;</description>
<Style>
<IconStyle>
<color>ff0000ff</color>
<scale>0.9</scale>
<Icon>
<href>http://maps.google.com/mapfiles/kml/shapes/placemark_circle.png</href>
</Icon>
</IconStyle>
<LabelStyle>
<scale>0.9</scale>
</LabelStyle>
<LineStyle>
<color>72ffffff</color>
<width>1.0</width>
<gx:labelVisibility>1</gx:labelVisibility>
</LineStyle>
<PolyStyle>
<color>66ff54ff</color>
</PolyStyle>
</Style>
<ExtendedData>
<SchemaData schemaUrl="#kml_schema_ft_Núcleos_Urbanos">
<SimpleData name="CD_UF">41</SimpleData>
<SimpleData name="NM_UF">Paraná</SimpleData>
<SimpleData name="SIGLA_UF">PR</SimpleData>
<SimpleData name="CD_MUN">4104303</SimpleData>
<SimpleData name="NM_MUN">Campo Mourão</SimpleData>
<SimpleData name="CD_RGINT">4104</SimpleData>
<SimpleData name="NM_RGINT">Maringá</SimpleData>
<SimpleData name="CD_RGI">410015</SimpleData>
<SimpleData name="NM_RGI">Campo Mourão</SimpleData>
<SimpleData name="CT_LOCALIDADE">Núcleo Urbano</SimpleData>
<SimpleData name="CD_LOCALIDADE">4104303003</SimpleData>
<SimpleData name="NM_LOCALIDADE">Usina Mourão</SimpleData>
<SimpleData name="LAT_LOCALIDADE">-24.1112</SimpleData>
<SimpleData name="LONG_LOCALIDADE">-52.3398</SimpleData>
</SchemaData>
</ExtendedData>
<Point>
<extrude>0</extrude>
<coordinates>-52.3398070388529,-24.1112209190761,0.0</coordinates>
</Point>
</Placemark>
</Folder>
<Folder id="12. Outras Localidades">
<name>12. Outras Localidades</name>
<Placemark id="12. Outras Localidades">
<name>Coamo [410430300003]</name>
<visibility>1</visibility>
<snippet> </snippet>
<description>&lt;center&gt;&lt;table&gt;&lt;tr&gt;&lt;th colspan='2' align='center'&gt;&lt;em&gt;Attributes&lt;/em&gt;&lt;/th&gt;&lt;/tr&gt;&lt;tr bgcolor="#E3E3F3"&gt;
&lt;th&gt;CD_UF&lt;/th&gt;
&lt;td&gt;41&lt;/td&gt;
&lt;/tr&gt;&lt;tr bgcolor=""&gt;
&lt;th&gt;NM_UF&lt;/th&gt;
&lt;td&gt;Paraná&lt;/td&gt;
&lt;/tr&gt;&lt;tr bgcolor="#E3E3F3"&gt;
&lt;th&gt;SIGLA_UF&lt;/th&gt;
&lt;td&gt;PR&lt;/td&gt;
&lt;/tr&gt;&lt;tr bgcolor=""&gt;
&lt;th&gt;CD_MUN&lt;/th&gt;
&lt;td&gt;4104303&lt;/td&gt;
&lt;/tr&gt;&lt;tr bgcolor="#E3E3F3"&gt;
&lt;th&gt;NM_MUN&lt;/th&gt;
&lt;td&gt;Campo Mourão&lt;/td&gt;
&lt;/tr&gt;&lt;tr bgcolor=""&gt;
&lt;th&gt;CD_RGINT&lt;/th&gt;
&lt;td&gt;4104&lt;/td&gt;
&lt;/tr&gt;&lt;tr bgcolor="#E3E3F3"&gt;
&lt;th&gt;NM_RGINT&lt;/th&gt;
&lt;td&gt;Maringá&lt;/td&gt;
&lt;/tr&gt;&lt;tr bgcolor=""&gt;
&lt;th&gt;CD_RGI&lt;/th&gt;
&lt;td&gt;410015&lt;/td&gt;
&lt;/tr&gt;&lt;tr bgcolor="#E3E3F3"&gt;
&lt;th&gt;NM_RGI&lt;/th&gt;
&lt;td&gt;Campo Mourão&lt;/td&gt;
&lt;/tr&gt;&lt;tr bgcolor=""&gt;
&lt;th&gt;CT_LOCALIDADE&lt;/th&gt;
&lt;td&gt;Outras Localidades&lt;/td&gt;
&lt;/tr&gt;&lt;tr bgcolor="#E3E3F3"&gt;
&lt;th&gt;SCT_LOCALIDADE&lt;/th&gt;
&lt;td&gt;&lt;/td&gt;
&lt;/tr&gt;&lt;tr bgcolor=""&gt;
&lt;th&gt;CD_LOCALIDADE&lt;/th&gt;
&lt;td&gt;410430300003&lt;/td&gt;
&lt;/tr&gt;&lt;tr bgcolor="#E3E3F3"&gt;
&lt;th&gt;NM_LOCALIDADE&lt;/th&gt;
&lt;td&gt;Coamo&lt;/td&gt;
&lt;/tr&gt;&lt;/table&gt;&lt;/center&gt;</description>
<Style>
<IconStyle>
<color>ff0069d3</color>
<scale>0.6</scale>
<Icon>
<href>http://maps.google.com/mapfiles/kml/shapes/placemark_circle.png</href>
</Icon>
</IconStyle>
<LabelStyle>
<scale>0.6</scale>
</LabelStyle>
<LineStyle>
<width>1.0</width>
<gx:labelVisibility>1</gx:labelVisibility>
</LineStyle>
</Style>
<ExtendedData>
<SchemaData schemaUrl="#kml_schema_ft_Localidades">
<SimpleData name="CD_UF">41</SimpleData>
<SimpleData name="NM_UF">Paraná</SimpleData>
<SimpleData name="SIGLA_UF">PR</SimpleData>
<SimpleData name="CD_MUN">4104303</SimpleData>
<SimpleData name="NM_MUN">Campo Mourão</SimpleData>
<SimpleData name="CD_RGINT">4104</SimpleData>
<SimpleData name="NM_RGINT">Maringá</SimpleData>
<SimpleData name="CD_RGI">410015</SimpleData>
<SimpleData name="NM_RGI">Campo Mourão</SimpleData>
<SimpleData name="CT_LOCALIDADE">Outras Localidades</SimpleData>
<SimpleData name="CD_LOCALIDADE">410430300003</SimpleData>
<SimpleData name="NM_LOCALIDADE">Coamo</SimpleData>
</SchemaData>
</ExtendedData>
<Point>
<extrude>0</extrude>
<coordinates>-52.407923,-24.1498239992941,0.0</coordinates>
</Point>
</Placemark>
</Folder>
<Folder id="13. Referência">
<name>13. Referência</name>
<Placemark id="13. Referência">
<name>Campo Mourão [4104303]</name>
<visibility>1</visibility>
<snippet> </snippet>
<description>&lt;center&gt;&lt;table&gt;&lt;tr&gt;&lt;th colspan='2' align='center'&gt;&lt;em&gt;Attributes&lt;/em&gt;&lt;/th&gt;&lt;/tr&gt;&lt;tr bgcolor="#E3E3F3"&gt;
&lt;th&gt;CD_UF&lt;/th&gt;
&lt;td&gt;41&lt;/td&gt;
&lt;/tr&gt;&lt;tr bgcolor=""&gt;
&lt;th&gt;NM_UF&lt;/th&gt;
&lt;td&gt;Paraná&lt;/td&gt;
&lt;/tr&gt;&lt;tr bgcolor="#E3E3F3"&gt;
&lt;th&gt;CD_MUN&lt;/th&gt;
&lt;td&gt;4104303&lt;/td&gt;
&lt;/tr&gt;&lt;tr bgcolor=""&gt;
&lt;th&gt;NM_MUN&lt;/th&gt;
&lt;td&gt;Campo Mourão&lt;/td&gt;
&lt;/tr&gt;&lt;tr bgcolor="#E3E3F3"&gt;
&lt;th&gt;CD_RGINT&lt;/th&gt;
&lt;td&gt;4104&lt;/td&gt;
&lt;/tr&gt;&lt;tr bgcolor=""&gt;
&lt;th&gt;NM_RGINT&lt;/th&gt;
&lt;td&gt;Maringá&lt;/td&gt;
&lt;/tr&gt;&lt;tr bgcolor="#E3E3F3"&gt;
&lt;th&gt;CD_RGI&lt;/th&gt;
&lt;td&gt;410015&lt;/td&gt;
&lt;/tr&gt;&lt;tr bgcolor=""&gt;
&lt;th&gt;NM_RGI&lt;/th&gt;
&lt;td&gt;Campo Mourão&lt;/td&gt;
&lt;/tr&gt;&lt;/table&gt;&lt;/center&gt;</description>
<Style>
<IconStyle>
<scale>0.7</scale>
</IconStyle>
<LabelStyle>
<scale>0.7</scale>
</LabelStyle>
<LineStyle>
<color>ffffffff</color>
<width>3</width>
<gx:labelVisibility>1</gx:labelVisibility>
</LineStyle>
<PolyStyle>
<color>00ffffff</color>
</PolyStyle>
</Style>
<ExtendedData>
<SchemaData schemaUrl="#kml_schema_ft_Município">
<SimpleData name="CD_UF">41</SimpleData>
<SimpleData name="NM_UF">Paraná</SimpleData>
<SimpleData name="CD_MUN">4104303</SimpleData>
<SimpleData name="NM_MUN">Campo Mourão</SimpleData>
<SimpleData name="CD_RGINT">4104</SimpleData>
<SimpleData name="NM_RGINT">Maringá</SimpleData>
<SimpleData name="CD_RGI">410015</SimpleData>
<SimpleData name="NM_RGI">Campo Mourão</SimpleData>
</SchemaData>
</ExtendedData>
<MultiGeometry>
<Polygon>
<extrude>0</extrude>
<tessellate>1</tessellate>
<outerBoundaryIs>
<LinearRing>
<coordinates>-52.3574653,-23.9904047992976,0.0 -52.3489063,-23.9907876992976,0.0 -52.3434002,-23.9910339992976,0.0 -52.2788658,-23.9939208992975,0.0 -52.2504966,-23.9951794992975,0.0 -52.2334108,-23.9963609992975,0.0 -52.2327694,-23.9964050992975,0.0 -52.2333547,-23.9974497992975,0.0 -52.2338725,-24.0012763992974,0.0 -52.2354803,-24.0024366992974,0.0 -52.2361436,-24.0024487992974,0.0 -52.2374487,-24.0013057992974,0.0 -52.2389764,-24.0011382992974,0.0 -52.2407557,-24.0006153992974,0.0 -52.2425366,-24.0003270992974,0.0 -52.244341,-24.0003332992974,0.0 -52.2447708,-24.0006802992974,0.0 -52.2449023,-24.0013433992974,0.0 -52.2446521,-24.0018919992974,0.0 -52.2439801,-24.0025224992974,0.0 -52.243827,-24.0042418992973,0.0 -52.2435365,-24.0047909992973,0.0 -52.2405662,-24.0076063992973,0.0 -52.2398309,-24.0089824992972,0.0 -52.2399043,-24.0093687992972,0.0 -52.2412586,-24.0108996992972,0.0 -52.2415217,-24.0117953992972,0.0 -52.2418949,-24.0161518992971,0.0 -52.2415739,-24.0165507992971,0.0 -52.2391894,-24.018776199297,0.0 -52.2370361,-24.020471799297,0.0 -52.2363674,-24.021494899297,0.0 -52.2363165,-24.0229184992969,0.0 -52.2360704,-24.0236639992969,0.0 -52.235183,-24.0242954992969,0.0 -52.2341339,-24.0256714992969,0.0 -52.2342269,-24.0264912992968,0.0 -52.2334799,-24.0282146992968,0.0 -52.2330503,-24.0301502992968,0.0 -52.2312803,-24.0316885992967,0.0 -52.1882491,-24.0531848992963,0.0 -52.1899981,-24.0533390992963,0.0 -52.1902437,-24.0553916992962,0.0 -52.1897142,-24.0564775992962,0.0 -52.1905554,-24.0577032992962,0.0 -52.1909375,-24.0592068992961,0.0 -52.1934688,-24.063117799296,0.0 -52.1984902,-24.066815199296,0.0 -52.2003807,-24.0722807992958,0.0 -52.1998834,-24.0754988992958,0.0 -52.2005517,-24.0775004992957,0.0 -52.2018833,-24.0781379992957,0.0 -52.202636,-24.0790313992957,0.0 -52.2035466,-24.0822090992956,0.0 -52.2029931,-24.0831863992956,0.0 -52.2016632,-24.0867909992955,0.0 -52.2023348,-24.0889866992955,0.0 -52.2025004,-24.0895273992954,0.0 -52.2035256,-24.0914781992954,0.0 -52.2072222,-24.0958998992953,0.0 -52.2074914,-24.1012199992952,0.0 -52.2079716,-24.1041778992951,0.0 -52.2073616,-24.1077177992951,0.0 -52.2062715,-24.108436099295,0.0 -52.2050527,-24.109568899295,0.0 -52.2034094,-24.1131950992949,0.0 -52.2034656,-24.1155874992949,0.0 -52.2041897,-24.1186105992948,0.0 -52.2043256,-24.1216997992947,0.0 -52.2024168,-24.1243930992947,0.0 -52.2008594,-24.1288252992946,0.0 -52.1985123,-24.1316090992945,0.0 -52.1976206,-24.1317338992945,0.0 -52.1938899,-24.1322557992945,0.0 -52.1917643,-24.1323506992945,0.0 -52.1871826,-24.1332449992945,0.0 -52.1920866,-24.1350413992945,0.0 -52.2035852,-24.1406844992943,0.0 -52.2063648,-24.1423795992943,0.0 -52.2073692,-24.1438751992943,0.0 -52.208158,-24.1465794992942,0.0 -52.2087612,-24.1496191992941,0.0 -52.2092954,-24.1516010992941,0.0 -52.2100663,-24.1534811992941,0.0 -52.2111364,-24.155000099294,0.0 -52.2128775,-24.156461799294,0.0 -52.2144706,-24.157390299294,0.0 -52.2195444,-24.1596625992939,0.0 -52.2223245,-24.1612951992939,0.0 -52.2245249,-24.1627197992938,0.0 -52.2261794,-24.1641280992938,0.0 -52.230673,-24.1685431992937,0.0 -52.231482,-24.1696843992937,0.0 -52.231693,-24.1702238992937,0.0 -52.2317929,-24.1704786992937,0.0 -52.2319197,-24.1719900992936,0.0 -52.2315208,-24.1737210992936,0.0 -52.2305931,-24.1754829992936,0.0 -52.2297053,-24.1766270992936,0.0 -52.2283465,-24.1779497992935,0.0 -52.2275804,-24.1784038992935,0.0 -52.2264514,-24.1798816992935,0.0 -52.2259244,-24.1815271992934,0.0 -52.2257929,-24.1819243992934,0.0 -52.2246143,-24.1854844992934,0.0 -52.2245414,-24.1857007992934,0.0 -52.2220954,-24.1929586992932,0.0 -52.2280871,-24.1914598992932,0.0 -52.2312578,-24.1906656992932,0.0 -52.2350539,-24.1873280992933,0.0 -52.2443604,-24.1837678992934,0.0 -52.2464619,-24.1833114992934,0.0 -52.262273,-24.1776514992935,0.0 -52.3101096,-24.1602239992939,0.0 -52.3252015,-24.154725799294,0.0 -52.3272436,-24.153981799294,0.0 -52.3272436,-24.154346999294,0.0 -52.3275438,-24.155625399294,0.0 -52.3282443,-24.157086299294,0.0 -52.3288448,-24.157542799294,0.0 -52.3299455,-24.1584558992939,0.0 -52.3307461,-24.1589123992939,0.0 -52.3317468,-24.1595514992939,0.0 -52.3321471,-24.1600080992939,0.0 -52.3322472,-24.1604645992939,0.0 -52.3322472,-24.1617427992939,0.0 -52.3322472,-24.1622906992939,0.0 -52.3327475,-24.1632949992938,0.0 -52.332973,-24.1645789992938,0.0 -52.3329671,-24.1651803992938,0.0 -52.3332204,-24.1651167992938,0.0 -52.3334738,-24.1650531992938,0.0 -52.3351094,-24.1639888992938,0.0 -52.3372162,-24.1632436992938,0.0 -52.3401229,-24.1615919992939,0.0 -52.3436112,-24.1602389992939,0.0 -52.3457972,-24.1600623992939,0.0 -52.3466927,-24.1609024992939,0.0 -52.3475196,-24.1624096992939,0.0 -52.3479166,-24.1636767992938,0.0 -52.3489987,-24.1644718992938,0.0 -52.3503335,-24.1646785992938,0.0 -52.3521629,-24.1656009992938,0.0 -52.3549192,-24.1679232992937,0.0 -52.3564963,-24.1706480992937,0.0 -52.3555519,-24.1722345992937,0.0 -52.3541123,-24.1740522992936,0.0 -52.3543819,-24.1752095992936,0.0 -52.3561111,-24.1762120992936,0.0 -52.3575233,-24.1751450992936,0.0 -52.3582494,-24.1760094992936,0.0 -52.3573846,-24.1775254992935,0.0 -52.3587485,-24.1784617992935,0.0 -52.3601372,-24.1784676992935,0.0 -52.3617149,-24.1789259992935,0.0 -52.3632476,-24.1785191992935,0.0 -52.3655593,-24.1773019992935,0.0 -52.3711618,-24.1768049992936,0.0 -52.3733053,-24.1746371992936,0.0 -52.3741668,-24.1757755992936,0.0 -52.3759446,-24.1769118992935,0.0 -52.3766045,-24.1782746992935,0.0 -52.3762485,-24.1793440992935,0.0 -52.3772027,-24.1804670992935,0.0 -52.3773239,-24.1806100992935,0.0 -52.3788557,-24.1813620992934,0.0 -52.3809725,-24.1823999992934,0.0 -52.3812704,-24.1837560992934,0.0 -52.377576,-24.1847295992934,0.0 -52.3789441,-24.1894827992933,0.0 -52.3789093,-24.1920728992932,0.0 -52.374945,-24.1946752992932,0.0 -52.3742251,-24.1961027992931,0.0 -52.3748283,-24.199687199293,0.0 -52.3761897,-24.200150299293,0.0 -52.376686,-24.202240599293,0.0 -52.377391,-24.203467499293,0.0 -52.3793838,-24.2053831992929,0.0 -52.3809928,-24.2065195992929,0.0 -52.382605,-24.2082524992929,0.0 -52.3827432,-24.2097062992928,0.0 -52.382381,-24.2111826992928,0.0 -52.3816965,-24.2124570992928,0.0 -52.3833832,-24.2135211992927,0.0 -52.3849633,-24.2140703992927,0.0 -52.3892424,-24.2173939992927,0.0 -52.3905754,-24.2179405992926,0.0 -52.3910811,-24.2191445992926,0.0 -52.3924635,-24.2189001992926,0.0 -52.3944651,-24.2194429992926,0.0 -52.3939395,-24.2204501992926,0.0 -52.3915856,-24.2207583992926,0.0 -52.391913,-24.2235327992925,0.0 -52.3914656,-24.2246662992925,0.0 -52.3919707,-24.2259162992925,0.0 -52.3940804,-24.2257850992925,0.0 -52.3957199,-24.2269486992924,0.0 -52.3966129,-24.2288355992924,0.0 -52.3949691,-24.2288723992924,0.0 -52.3938856,-24.2279682992924,0.0 -52.3930767,-24.2288704992924,0.0 -52.3922494,-24.2304584992924,0.0 -52.3933858,-24.2317791992923,0.0 -52.3942503,-24.2357796992923,0.0 -52.3942253,-24.2369888992922,0.0 -52.3967178,-24.2375124992922,0.0 -52.3978336,-24.2374230992922,0.0 -52.3991093,-24.2362008992922,0.0 -52.4001344,-24.2345408992923,0.0 -52.4012511,-24.2357900992923,0.0 -52.4012808,-24.2359763992923,0.0 -52.4013296,-24.2362819992922,0.0 -52.4014694,-24.2371553992922,0.0 -52.4019112,-24.2381979992922,0.0 -52.4039968,-24.2390682992922,0.0 -52.4055214,-24.2392738992922,0.0 -52.408771,-24.2392626992922,0.0 -52.4087529,-24.2407165992922,0.0 -52.4102216,-24.2419405992921,0.0 -52.4110257,-24.2431665992921,0.0 -52.4112805,-24.2442162992921,0.0 -52.4102232,-24.245937299292,0.0 -52.4087753,-24.246755299292,0.0 -52.4075577,-24.247978199292,0.0 -52.4089445,-24.2520733992919,0.0 -52.4084092,-24.2547295992918,0.0 -52.4071146,-24.2579310992918,0.0 -52.4088918,-24.2603406992917,0.0 -52.4097487,-24.2612071992917,0.0 -52.4118033,-24.2622927992917,0.0 -52.4123024,-24.2633467992917,0.0 -52.4115001,-24.2645018992916,0.0 -52.4106635,-24.2652522992916,0.0 -52.410521,-24.2663338992916,0.0 -52.411773,-24.2671132992916,0.0 -52.4134867,-24.2669560992916,0.0 -52.4126927,-24.2684767992915,0.0 -52.4124401,-24.2697034992915,0.0 -52.4144119,-24.2702565992915,0.0 -52.4151404,-24.2710756992915,0.0 -52.4156354,-24.2722983992915,0.0 -52.4149471,-24.2739529992914,0.0 -52.4161877,-24.2755011992914,0.0 -52.4163896,-24.2767732992914,0.0 -52.4175568,-24.2787548992913,0.0 -52.4183034,-24.2805046992913,0.0 -52.4181607,-24.2816873992913,0.0 -52.4184712,-24.2828631992912,0.0 -52.41939,-24.2842355992912,0.0 -52.4218835,-24.2849213992912,0.0 -52.4250868,-24.2872363992911,0.0 -52.428832,-24.2885134992911,0.0 -52.4304177,-24.2893331992911,0.0 -52.4336402,-24.292595099291,0.0 -52.4364443,-24.2960023992909,0.0 -52.4397436,-24.2960723992909,0.0 -52.4420507,-24.2967188992909,0.0 -52.4429889,-24.2980606992909,0.0 -52.4732092,-24.2347107992923,0.0 -52.4762279,-24.2343131992923,0.0 -52.4789581,-24.2335046992923,0.0 -52.4887018,-24.2320211992923,0.0 -52.4929963,-24.2287023992924,0.0 -52.4944184,-24.2271656992924,0.0 -52.4957717,-24.2263702992925,0.0 -52.4966023,-24.2246472992925,0.0 -52.498618,-24.2225188992926,0.0 -52.5000118,-24.2214494992926,0.0 -52.5000475,-24.2201671992926,0.0 -52.500053,-24.2199732992926,0.0 -52.500071,-24.2193414992926,0.0 -52.4994614,-24.2180979992926,0.0 -52.4989194,-24.2153702992927,0.0 -52.4994938,-24.2136473992927,0.0 -52.4982393,-24.2118261992928,0.0 -52.4984011,-24.2111209992928,0.0 -52.4967643,-24.2094981992928,0.0 -52.4963284,-24.2085640992929,0.0 -52.496233,-24.2076280992929,0.0 -52.494968,-24.2049464992929,0.0 -52.4941025,-24.203628199293,0.0 -52.4923916,-24.202708699293,0.0 -52.4922816,-24.200678499293,0.0 -52.4917097,-24.1990841992931,0.0 -52.491278,-24.1984615992931,0.0 -52.491441,-24.1979152992931,0.0 -52.4910114,-24.1974506992931,0.0 -52.4905628,-24.1955028992931,0.0 -52.4893023,-24.1932139992932,0.0 -52.4892918,-24.1924312992932,0.0 -52.4891193,-24.1921208992932,0.0 -52.4914558,-24.1880351992933,0.0 -52.4958588,-24.1827494992934,0.0 -52.4961869,-24.1823555992934,0.0 -52.5064516,-24.2122516992928,0.0 -52.5074092,-24.2138812992927,0.0 -52.5176713,-24.2247770992925,0.0 -52.5228963,-24.2240090992925,0.0 -52.5231255,-24.2227439992925,0.0 -52.5225972,-24.2213442992926,0.0 -52.520217,-24.2177367992927,0.0 -52.5190931,-24.2164197992927,0.0 -52.5181491,-24.2156487992927,0.0 -52.5176496,-24.2129585992928,0.0 -52.5173013,-24.2123395992928,0.0 -52.5162738,-24.2117238992928,0.0 -52.5159181,-24.2104774992928,0.0 -52.5153096,-24.2094696992928,0.0 -52.5147383,-24.2077977992929,0.0 -52.5141351,-24.2071780992929,0.0 -52.513926,-24.203900399293,0.0 -52.5133816,-24.201017499293,0.0 -52.513542,-24.1965256992931,0.0 -52.5131896,-24.1955943992931,0.0 -52.5131691,-24.1937969992932,0.0 -52.5121706,-24.1920496992932,0.0 -52.5121534,-24.1906449992932,0.0 -52.5118481,-24.1889612992933,0.0 -52.5110992,-24.1877651992933,0.0 -52.5108207,-24.1858163992933,0.0 -52.5099872,-24.1836761992934,0.0 -52.5094344,-24.1800908992935,0.0 -52.5078363,-24.1779585992935,0.0 -52.5075652,-24.1766353992936,0.0 -52.5061727,-24.1738379992936,0.0 -52.5061609,-24.1728214992936,0.0 -52.5067832,-24.1715286992937,0.0 -52.5067682,-24.1702792992937,0.0 -52.5079355,-24.1682380992937,0.0 -52.5087848,-24.1681497992937,0.0 -52.5089421,-24.1669797992938,0.0 -52.5099874,-24.1655240992938,0.0 -52.5109181,-24.1651242992938,0.0 -52.5116025,-24.1655072992938,0.0 -52.5117781,-24.1658953992938,0.0 -52.5127633,-24.1652080992938,0.0 -52.5135831,-24.1598462992939,0.0 -52.5136759,-24.157691699294,0.0 -52.5143145,-24.154127899294,0.0 -52.5139472,-24.1521050992941,0.0 -52.513692,-24.1517153992941,0.0 -52.5140041,-24.1511840992941,0.0 -52.514346,-24.1494434992941,0.0 -52.5141853,-24.1467520992942,0.0 -52.5138404,-24.1462864992942,0.0 -52.5145138,-24.1456548992942,0.0 -52.5141583,-24.1444879992943,0.0 -52.5149943,-24.1430743992943,0.0 -52.5163349,-24.1415772992943,0.0 -52.5167736,-24.1390360992944,0.0 -52.5175207,-24.1373878992944,0.0 -52.5175111,-24.1367631992944,0.0 -52.5184447,-24.1365194992944,0.0 -52.5186856,-24.1354241992945,0.0 -52.5194005,-24.1345970992945,0.0 -52.5191351,-24.1338958992945,0.0 -52.5198085,-24.1333436992945,0.0 -52.5197142,-24.1325628992945,0.0 -52.5211488,-24.1316126992945,0.0 -52.5213071,-24.1306736992946,0.0 -52.5230848,-24.1264005992947,0.0 -52.524361,-24.1264661992947,0.0 -52.5250332,-24.1257577992947,0.0 -52.5241647,-24.1242807992947,0.0 -52.5244579,-24.1238484992947,0.0 -52.5257319,-24.1236802992947,0.0 -52.5258912,-24.1227412992947,0.0 -52.5263118,-24.1223490992947,0.0 -52.5263034,-24.1218010992947,0.0 -52.5274841,-24.1210090992948,0.0 -52.5285011,-24.1206848992948,0.0 -52.5290009,-24.1198222992948,0.0 -52.5297169,-24.1192288992948,0.0 -52.5299521,-24.1175873992948,0.0 -52.5308836,-24.1174221992948,0.0 -52.5309614,-24.1166393992949,0.0 -52.5319817,-24.1166284992949,0.0 -52.5319742,-24.1161616992949,0.0 -52.5332723,-24.1144690992949,0.0 -52.533269,-24.1141575992949,0.0 -52.5340247,-24.1134472992949,0.0 -52.5347704,-24.111800699295,0.0 -52.5355281,-24.111088599295,0.0 -52.5364584,-24.110766199295,0.0 -52.5366572,-24.109633499295,0.0 -52.537761,-24.109622399295,0.0 -52.5380122,-24.109151799295,0.0 -52.538692,-24.109144799295,0.0 -52.5391908,-24.108358799295,0.0 -52.5398671,-24.1079635992951,0.0 -52.5396057,-24.1073390992951,0.0 -52.5406995,-24.1064685992951,0.0 -52.5409904,-24.1058033992951,0.0 -52.542091,-24.1056360992951,0.0 -52.5429455,-24.1047018992951,0.0 -52.542466,-24.1036997992952,0.0 -52.5400302,-24.1013088992952,0.0 -52.5389978,-24.0997076992952,0.0 -52.535694,-24.0968443992953,0.0 -52.5310828,-24.0906530992954,0.0 -52.5297432,-24.0891047992955,0.0 -52.527977,-24.0878800992955,0.0 -52.5262513,-24.0875095992955,0.0 -52.5243893,-24.0867514992955,0.0 -52.5234778,-24.0858824992955,0.0 -52.5233192,-24.0842732992956,0.0 -52.5210458,-24.0612597992961,0.0 -52.520845,-24.0592195992961,0.0 -52.5201902,-24.0579215992962,0.0 -52.5184758,-24.0566872992962,0.0 -52.5164117,-24.0547373992962,0.0 -52.5145788,-24.0506468992963,0.0 -52.5157471,-24.0481505992964,0.0 -52.5155543,-24.0452493992964,0.0 -52.515694,-24.0438705992965,0.0 -52.515776,-24.0430679992965,0.0 -52.5205001,-24.0374892992966,0.0 -52.5216639,-24.0363107992966,0.0 -52.523808,-24.0361391992966,0.0 -52.5275001,-24.0348865992967,0.0 -52.5292196,-24.0339345992967,0.0 -52.5295571,-24.0320972992967,0.0 -52.5289934,-24.0305753992967,0.0 -52.5287135,-24.0283972992968,0.0 -52.5292474,-24.0273498992968,0.0 -52.5295554,-24.0243875992969,0.0 -52.5314379,-24.0229162992969,0.0 -52.5316814,-24.0218949992969,0.0 -52.5327497,-24.020191099297,0.0 -52.5333169,-24.019581799297,0.0 -52.5335518,-24.017940299297,0.0 -52.5322863,-24.018574499297,0.0 -52.5326936,-24.017245099297,0.0 -52.5320054,-24.0163935992971,0.0 -52.5319484,-24.0151834992971,0.0 -52.5312625,-24.0146434992971,0.0 -52.5317606,-24.0136236992971,0.0 -52.5310706,-24.0128497992971,0.0 -52.5309738,-24.0116799992972,0.0 -52.5299446,-24.0109081992972,0.0 -52.5291556,-24.0088091992972,0.0 -52.5288287,-24.0063525992973,0.0 -52.527884,-24.0055031992973,0.0 -52.5274428,-24.0040239992973,0.0 -52.5258178,-24.0031029992974,0.0 -52.5263192,-24.0023955992974,0.0 -52.5257619,-24.0019713992974,0.0 -52.5258388,-24.0013447992974,0.0 -52.5250673,-24.0006495992974,0.0 -52.5248917,-24.0001062992974,0.0 -52.5243783,-23.9998747992974,0.0 -52.5239569,-24.0001143992974,0.0 -52.5238823,-24.0010524992974,0.0 -52.5231187,-24.0011389992974,0.0 -52.5228499,-23.9999701992974,0.0 -52.522298,-23.9999359992974,0.0 -52.5207976,-23.9983472992975,0.0 -52.5188304,-23.9953079992975,0.0 -52.5181954,-23.9933420992976,0.0 -52.5144166,-23.9902635992976,0.0 -52.5141492,-23.9897536992976,0.0 -52.5138472,-23.9891766992977,0.0 -52.5132529,-23.9880416992977,0.0 -52.5119439,-23.9872698992977,0.0 -52.5107503,-23.9869784992977,0.0 -52.5096358,-23.9862996992977,0.0 -52.5082798,-23.9838962992978,0.0 -52.5050814,-23.9841241992978,0.0 -52.5026974,-23.9831810992978,0.0 -52.5021116,-23.9818304992978,0.0 -52.5013069,-23.9809740992978,0.0 -52.4992248,-23.9817191992978,0.0 -52.4977766,-23.9810929992978,0.0 -52.4967178,-23.9808840992978,0.0 -52.495858,-23.9796931992979,0.0 -52.4955203,-23.9782193992979,0.0 -52.494502,-23.9770630992979,0.0 -52.4914746,-23.9771307992979,0.0 -52.4906985,-23.9763558992979,0.0 -52.4899449,-23.975248199298,0.0 -52.4903335,-23.973860999298,0.0 -52.4888887,-23.971613599298,0.0 -52.4875548,-23.9710624992981,0.0 -52.4867427,-23.9700073992981,0.0 -52.4873842,-23.9689304992981,0.0 -52.4864445,-23.9677757992981,0.0 -52.4855275,-23.9672061992981,0.0 -52.4847884,-23.9670644992981,0.0 -52.4844403,-23.9669977992981,0.0 -52.4822974,-23.9660639992982,0.0 -52.4810505,-23.9661500992982,0.0 -52.4800003,-23.9651286992982,0.0 -52.478501,-23.9649522992982,0.0 -52.4774724,-23.9653563992982,0.0 -52.4760304,-23.9651525992982,0.0 -52.4758437,-23.9646506992982,0.0 -52.4755075,-23.9637455992982,0.0 -52.4754456,-23.9623223992983,0.0 -52.4749203,-23.9610443992983,0.0 -52.4736918,-23.9601466992983,0.0 -52.4721425,-23.9598893992983,0.0 -52.4712695,-23.9605955992983,0.0 -52.4699978,-23.9601180992983,0.0 -52.4696016,-23.9586445992983,0.0 -52.4681934,-23.9564984992984,0.0 -52.4677171,-23.9552326992984,0.0 -52.4667435,-23.9544818992984,0.0 -52.4653326,-23.9550698992984,0.0 -52.4641608,-23.9552043992984,0.0 -52.4629931,-23.9542521992984,0.0 -52.4620602,-23.9550389992984,0.0 -52.4621685,-23.9551844992984,0.0 -52.4619736,-23.9556329992984,0.0 -52.4604251,-23.9575400992983,0.0 -52.4590544,-23.9599444992983,0.0 -52.4582313,-23.9629745992982,0.0 -52.4579154,-23.9647505992982,0.0 -52.4572763,-23.9663616992982,0.0 -52.457218,-23.9687819992981,0.0 -52.4573817,-23.9706295992981,0.0 -52.4577392,-23.971967299298,0.0 -52.4581952,-23.974435199298,0.0 -52.4585715,-23.974852399298,0.0 -52.4585538,-23.9783246992979,0.0 -52.4590719,-23.9787143992979,0.0 -52.458471,-23.9811527992978,0.0 -52.4559541,-23.9833073992978,0.0 -52.4539787,-23.9853770992977,0.0 -52.4517471,-23.9875028992977,0.0 -52.4496202,-23.9913763992976,0.0 -52.4466034,-23.9952759992975,0.0 -52.4457385,-23.9958538992975,0.0 -52.4446289,-23.9969989992975,0.0 -52.442233,-23.9997610992974,0.0 -52.4392255,-24.0029339992974,0.0 -52.4377887,-24.0034934992973,0.0 -52.4351604,-24.0039089992973,0.0 -52.4288395,-24.0044761992973,0.0 -52.4261389,-24.0061399992973,0.0 -52.4251215,-24.0062288992973,0.0 -52.423742,-24.0073212992973,0.0 -52.4221163,-24.0070753992973,0.0 -52.4197211,-24.0055360992973,0.0 -52.41921,-24.0055397992973,0.0 -52.4190022,-24.0058932992973,0.0 -52.418657,-24.0054284992973,0.0 -52.4180633,-24.0055135992973,0.0 -52.4179697,-24.0048111992973,0.0 -52.4172843,-24.0042697992973,0.0 -52.416765,-24.0033391992973,0.0 -52.4162568,-24.0033429992973,0.0 -52.4162497,-24.0027977992974,0.0 -52.4147996,-24.0022628992974,0.0 -52.4138709,-24.0028976992974,0.0 -52.4131448,-24.0022402992974,0.0 -52.412207,-24.0020915992974,0.0 -52.4115338,-24.0026451992974,0.0 -52.4105165,-24.0028873992974,0.0 -52.4100969,-24.0033604992973,0.0 -52.4091641,-24.0034482992973,0.0 -52.4085794,-24.0042320992973,0.0 -52.4078197,-24.0046312992973,0.0 -52.4052532,-24.0069586992973,0.0 -52.4040517,-24.0057979992973,0.0 -52.4031812,-24.0039340992973,0.0 -52.4022354,-24.0028473992974,0.0 -52.3984473,-24.0019837992974,0.0 -52.3979301,-24.0013645992974,0.0 -52.3967447,-24.0016093992974,0.0 -52.3953812,-24.0012313992974,0.0 -52.3943071,-24.0001098992974,0.0 -52.3934548,-23.9998825992974,0.0 -52.3922585,-23.9991903992974,0.0 -52.3909886,-23.9991950992974,0.0 -52.3897781,-23.9987734992974,0.0 -52.3881652,-23.9970415992975,0.0 -52.3874438,-23.9956971992975,0.0 -52.3863872,-23.9945225992975,0.0 -52.3848029,-23.9938921992976,0.0 -52.3828539,-23.9926430992976,0.0 -52.3818045,-23.9923892992976,0.0 -52.3793197,-23.9932791992976,0.0 -52.3781571,-23.9932713992976,0.0 -52.3759152,-23.9926609992976,0.0 -52.374497,-23.9920312992976,0.0 -52.3722778,-23.9904001992976,0.0 -52.3708898,-23.9898005992976,0.0 -52.3574653,-23.9904047992976,0.0</coordinates>
</LinearRing>
</outerBoundaryIs>
</Polygon>
</MultiGeometry>
</Placemark>
</Folder>
</Document></kml>
