<?xml version='1.0' encoding='UTF-8'?>
<kml xmlns:xsd="http://www.w3.org/2001/XMLSchema" xmlns:gx="http://www.google.com/kml/ext/2.2" xmlns:atom="http://www.w3.org/2005/Atom" xmlns="http://www.opengis.net/kml/2.2">
<Document>
<name>jaguapita_4111902_localidades_2022</name>
<visibility>1</visibility>
<Schema name="Localidades" id="kml_schema_ft_Localidades">
<SimpleField type="xsd:string" name="CD_UF">
<displayName>CD_UF</displayName>
</SimpleField>
<SimpleField type="xsd:string" name="NM_UF">
<displayName>NM_UF</displayName>
</SimpleField>
<SimpleField type="xsd:string" name="SIGLA_UF">
<displayName>SIGLA_UF</displayName>
</SimpleField>
<SimpleField type="xsd:string" name="CD_MUN">
<displayName>CD_MUN</displayName>
</SimpleField>
<SimpleField type="xsd:string" name="NM_MUN">
<displayName>NM_MUN</displayName>
</SimpleField>
<SimpleField type="xsd:string" name="CD_RGINT">
<displayName>CD_RGINT</displayName>
</SimpleField>
<SimpleField type="xsd:string" name="NM_RGINT">
<displayName>NM_RGINT</displayName>
</SimpleField>
<SimpleField type="xsd:string" name="CD_RGI">
<displayName>CD_RGI</displayName>
</SimpleField>
<SimpleField type="xsd:string" name="NM_RGI">
<displayName>NM_RGI</displayName>
</SimpleField>
<SimpleField type="xsd:string" name="CT_LOCALIDADE">
<displayName>CT_LOCALIDADE</displayName>
</SimpleField>
<SimpleField type="xsd:string" name="SCT_LOCALIDADE">
<displayName>SCT_LOCALIDADE</displayName>
</SimpleField>
<SimpleField type="xsd:string" name="CD_LOCALIDADE">
<displayName>CD_LOCALIDADE</displayName>
</SimpleField>
<SimpleField type="xsd:string" name="NM_LOCALIDADE">
<displayName>NM_LOCALIDADE</displayName>
</SimpleField>
</Schema>
<Schema name="01. Cidade" id="kml_schema_ft_01._Cidade">
<SimpleField type="xsd:string" name="CD_UF">
<displayName>CD_UF</displayName>
</SimpleField>
<SimpleField type="xsd:string" name="NM_UF">
<displayName>NM_UF</displayName>
</SimpleField>
<SimpleField type="xsd:string" name="SIGLA_UF">
<displayName>SIGLA_UF</displayName>
</SimpleField>
<SimpleField type="xsd:string" name="CD_MUN">
<displayName>CD_MUN</displayName>
</SimpleField>
<SimpleField type="xsd:string" name="NM_MUN">
<displayName>NM_MUN</displayName>
</SimpleField>
<SimpleField type="xsd:string" name="CD_RGINT">
<displayName>CD_RGINT</displayName>
</SimpleField>
<SimpleField type="xsd:string" name="NM_RGINT">
<displayName>NM_RGINT</displayName>
</SimpleField>
<SimpleField type="xsd:string" name="CD_RGI">
<displayName>CD_RGI</displayName>
</SimpleField>
<SimpleField type="xsd:string" name="NM_RGI">
<displayName>NM_RGI</displayName>
</SimpleField>
<SimpleField type="xsd:string" name="CT_LOCALIDADE">
<displayName>CT_LOCALIDADE</displayName>
</SimpleField>
<SimpleField type="xsd:string" name="SCT_LOCALIDADE">
<displayName>SCT_LOCALIDADE</displayName>
</SimpleField>
<SimpleField type="xsd:string" name="CD_LOCALIDADE">
<displayName>CD_LOCALIDADE</displayName>
</SimpleField>
<SimpleField type="xsd:string" name="NM_LOCALIDADE">
<displayName>NM_LOCALIDADE</displayName>
</SimpleField>
<SimpleField type="xsd:string" name="LAT_LOCALIDADE">
<displayName>LAT_LOCALIDADE</displayName>
</SimpleField>
<SimpleField type="xsd:string" name="LONG_LOCALIDADE">
<displayName>LONG_LOCALIDADE</displayName>
</SimpleField>
</Schema>
<Schema name="Município" id="kml_schema_ft_Município">
<SimpleField type="xsd:string" name="CD_UF">
<displayName>CD_UF</displayName>
</SimpleField>
<SimpleField type="xsd:string" name="NM_UF">
<displayName>NM_UF</displayName>
</SimpleField>
<SimpleField type="xsd:string" name="CD_MUN">
<displayName>CD_MUN</displayName>
</SimpleField>
<SimpleField type="xsd:string" name="NM_MUN">
<displayName>NM_MUN</displayName>
</SimpleField>
<SimpleField type="xsd:string" name="CD_RGINT">
<displayName>CD_RGINT</displayName>
</SimpleField>
<SimpleField type="xsd:string" name="NM_RGINT">
<displayName>NM_RGINT</displayName>
</SimpleField>
<SimpleField type="xsd:string" name="CD_RGI">
<displayName>CD_RGI</displayName>
</SimpleField>
<SimpleField type="xsd:string" name="NM_RGI">
<displayName>NM_RGI</displayName>
</SimpleField>
</Schema>
<Folder id="01. Cidade">
<name>01. Cidade</name>
<Folder id="01.03. Sede Municipal">
<name>01.03. Sede Municipal</name>
<Placemark id="01.03. Sede Municipal">
<name>Jaguapitã [4111902]</name>
<visibility>1</visibility>
<snippet> </snippet>
<description>&lt;center&gt;&lt;table&gt;&lt;tr&gt;&lt;th colspan='2' align='center'&gt;&lt;em&gt;Atributos&lt;/em&gt;&lt;/th&gt;&lt;/tr&gt;&lt;tr bgcolor="#E3E3F3"&gt;
&lt;th&gt;CD_UF&lt;/th&gt;
&lt;td&gt;41&lt;/td&gt;
&lt;/tr&gt;&lt;tr bgcolor=""&gt;
&lt;th&gt;NM_UF&lt;/th&gt;
&lt;td&gt;Paraná&lt;/td&gt;
&lt;/tr&gt;&lt;tr bgcolor="#E3E3F3"&gt;
&lt;th&gt;SIGLA_UF&lt;/th&gt;
&lt;td&gt;PR&lt;/td&gt;
&lt;/tr&gt;&lt;tr bgcolor=""&gt;
&lt;th&gt;CD_MUN&lt;/th&gt;
&lt;td&gt;4111902&lt;/td&gt;
&lt;/tr&gt;&lt;tr bgcolor="#E3E3F3"&gt;
&lt;th&gt;NM_MUN&lt;/th&gt;
&lt;td&gt;Jaguapitã&lt;/td&gt;
&lt;/tr&gt;&lt;tr bgcolor=""&gt;
&lt;th&gt;CD_RGINT&lt;/th&gt;
&lt;td&gt;4105&lt;/td&gt;
&lt;/tr&gt;&lt;tr bgcolor="#E3E3F3"&gt;
&lt;th&gt;NM_RGINT&lt;/th&gt;
&lt;td&gt;Londrina&lt;/td&gt;
&lt;/tr&gt;&lt;tr bgcolor=""&gt;
&lt;th&gt;CD_RGI&lt;/th&gt;
&lt;td&gt;410021&lt;/td&gt;
&lt;/tr&gt;&lt;tr bgcolor="#E3E3F3"&gt;
&lt;th&gt;NM_RGI&lt;/th&gt;
&lt;td&gt;Londrina&lt;/td&gt;
&lt;/tr&gt;&lt;tr bgcolor=""&gt;
&lt;th&gt;CT_LOCALIDADE&lt;/th&gt;
&lt;td&gt;Cidade&lt;/td&gt;
&lt;/tr&gt;&lt;tr bgcolor="#E3E3F3"&gt;
&lt;th&gt;SCT_LOCALIDADE&lt;/th&gt;
&lt;td&gt;Sede Municipal&lt;/td&gt;
&lt;/tr&gt;&lt;tr bgcolor=""&gt;
&lt;th&gt;CD_LOCALIDADE&lt;/th&gt;
&lt;td&gt;4111902&lt;/td&gt;
&lt;/tr&gt;&lt;tr bgcolor="#E3E3F3"&gt;
&lt;th&gt;NM_LOCALIDADE&lt;/th&gt;
&lt;td&gt;Jaguapitã&lt;/td&gt;
&lt;/tr&gt;&lt;tr bgcolor=""&gt;
&lt;th&gt;LAT_LOCALIDADE&lt;/th&gt;
&lt;td&gt;-23.1081&lt;/td&gt;
&lt;/tr&gt;&lt;tr bgcolor="#E3E3F3"&gt;
&lt;th&gt;LONG_LOCALIDADE&lt;/th&gt;
&lt;td&gt;-51.5325&lt;/td&gt;
&lt;/tr&gt;&lt;/table&gt;&lt;/center&gt;</description>
<Style>
<IconStyle>
<color>ff00aaff</color>
<scale>1.0</scale>
<Icon>
<href>http://maps.google.com/mapfiles/kml/shapes/placemark_circle.png</href>
</Icon>
</IconStyle>
<LabelStyle>
<scale>1.0</scale>
</LabelStyle>
<LineStyle>
<color>ffffffff</color>
<width>3</width>
<gx:labelVisibility>1</gx:labelVisibility>
</LineStyle>
<PolyStyle>
<color>00ffffff</color>
</PolyStyle>
</Style>
<ExtendedData>
<SchemaData schemaUrl="#kml_schema_ft_01._Cidade">
<SimpleData name="CD_UF">41</SimpleData>
<SimpleData name="NM_UF">Paraná</SimpleData>
<SimpleData name="SIGLA_UF">PR</SimpleData>
<SimpleData name="CD_MUN">4111902</SimpleData>
<SimpleData name="NM_MUN">Jaguapitã</SimpleData>
<SimpleData name="CD_RGINT">4105</SimpleData>
<SimpleData name="NM_RGINT">Londrina</SimpleData>
<SimpleData name="CD_RGI">410021</SimpleData>
<SimpleData name="NM_RGI">Londrina</SimpleData>
<SimpleData name="CT_LOCALIDADE">Cidade</SimpleData>
<SimpleData name="SCT_LOCALIDADE">Sede Municipal</SimpleData>
<SimpleData name="CD_LOCALIDADE">4111902</SimpleData>
<SimpleData name="NM_LOCALIDADE">Jaguapitã</SimpleData>
<SimpleData name="LAT_LOCALIDADE">-23.1081</SimpleData>
<SimpleData name="LONG_LOCALIDADE">-51.5325</SimpleData>
</SchemaData>
</ExtendedData>
<Point>
<extrude>0</extrude>
<coordinates>-51.532546,-23.1080969993174,0.0</coordinates>
</Point>
</Placemark>
</Folder>
</Folder>
<Folder id="12. Outras Localidades">
<name>12. Outras Localidades</name>
<Placemark id="12. Outras Localidades">
<name>Patrimônio São Benedito [411190200001]</name>
<visibility>1</visibility>
<snippet> </snippet>
<description>&lt;center&gt;&lt;table&gt;&lt;tr&gt;&lt;th colspan='2' align='center'&gt;&lt;em&gt;Attributes&lt;/em&gt;&lt;/th&gt;&lt;/tr&gt;&lt;tr bgcolor="#E3E3F3"&gt;
&lt;th&gt;CD_UF&lt;/th&gt;
&lt;td&gt;41&lt;/td&gt;
&lt;/tr&gt;&lt;tr bgcolor=""&gt;
&lt;th&gt;NM_UF&lt;/th&gt;
&lt;td&gt;Paraná&lt;/td&gt;
&lt;/tr&gt;&lt;tr bgcolor="#E3E3F3"&gt;
&lt;th&gt;SIGLA_UF&lt;/th&gt;
&lt;td&gt;PR&lt;/td&gt;
&lt;/tr&gt;&lt;tr bgcolor=""&gt;
&lt;th&gt;CD_MUN&lt;/th&gt;
&lt;td&gt;4111902&lt;/td&gt;
&lt;/tr&gt;&lt;tr bgcolor="#E3E3F3"&gt;
&lt;th&gt;NM_MUN&lt;/th&gt;
&lt;td&gt;Jaguapitã&lt;/td&gt;
&lt;/tr&gt;&lt;tr bgcolor=""&gt;
&lt;th&gt;CD_RGINT&lt;/th&gt;
&lt;td&gt;4105&lt;/td&gt;
&lt;/tr&gt;&lt;tr bgcolor="#E3E3F3"&gt;
&lt;th&gt;NM_RGINT&lt;/th&gt;
&lt;td&gt;Londrina&lt;/td&gt;
&lt;/tr&gt;&lt;tr bgcolor=""&gt;
&lt;th&gt;CD_RGI&lt;/th&gt;
&lt;td&gt;410021&lt;/td&gt;
&lt;/tr&gt;&lt;tr bgcolor="#E3E3F3"&gt;
&lt;th&gt;NM_RGI&lt;/th&gt;
&lt;td&gt;Londrina&lt;/td&gt;
&lt;/tr&gt;&lt;tr bgcolor=""&gt;
&lt;th&gt;CT_LOCALIDADE&lt;/th&gt;
&lt;td&gt;Outras Localidades&lt;/td&gt;
&lt;/tr&gt;&lt;tr bgcolor="#E3E3F3"&gt;
&lt;th&gt;SCT_LOCALIDADE&lt;/th&gt;
&lt;td&gt;&lt;/td&gt;
&lt;/tr&gt;&lt;tr bgcolor=""&gt;
&lt;th&gt;CD_LOCALIDADE&lt;/th&gt;
&lt;td&gt;411190200001&lt;/td&gt;
&lt;/tr&gt;&lt;tr bgcolor="#E3E3F3"&gt;
&lt;th&gt;NM_LOCALIDADE&lt;/th&gt;
&lt;td&gt;Patrimônio São Benedito&lt;/td&gt;
&lt;/tr&gt;&lt;/table&gt;&lt;/center&gt;</description>
<Style>
<IconStyle>
<color>ff0069d3</color>
<scale>0.6</scale>
<Icon>
<href>http://maps.google.com/mapfiles/kml/shapes/placemark_circle.png</href>
</Icon>
</IconStyle>
<LabelStyle>
<scale>0.6</scale>
</LabelStyle>
<LineStyle>
<width>1.0</width>
<gx:labelVisibility>1</gx:labelVisibility>
</LineStyle>
</Style>
<ExtendedData>
<SchemaData schemaUrl="#kml_schema_ft_Localidades">
<SimpleData name="CD_UF">41</SimpleData>
<SimpleData name="NM_UF">Paraná</SimpleData>
<SimpleData name="SIGLA_UF">PR</SimpleData>
<SimpleData name="CD_MUN">4111902</SimpleData>
<SimpleData name="NM_MUN">Jaguapitã</SimpleData>
<SimpleData name="CD_RGINT">4105</SimpleData>
<SimpleData name="NM_RGINT">Londrina</SimpleData>
<SimpleData name="CD_RGI">410021</SimpleData>
<SimpleData name="NM_RGI">Londrina</SimpleData>
<SimpleData name="CT_LOCALIDADE">Outras Localidades</SimpleData>
<SimpleData name="CD_LOCALIDADE">411190200001</SimpleData>
<SimpleData name="NM_LOCALIDADE">Patrimônio São Benedito</SimpleData>
</SchemaData>
</ExtendedData>
<Point>
<extrude>0</extrude>
<coordinates>-51.5718074,-22.9229701993216,0.0</coordinates>
</Point>
</Placemark>
<Placemark id="12. Outras Localidades">
<name>Estrada da Água da Onça Km-3 [411190200002]</name>
<visibility>1</visibility>
<snippet> </snippet>
<description>&lt;center&gt;&lt;table&gt;&lt;tr&gt;&lt;th colspan='2' align='center'&gt;&lt;em&gt;Attributes&lt;/em&gt;&lt;/th&gt;&lt;/tr&gt;&lt;tr bgcolor="#E3E3F3"&gt;
&lt;th&gt;CD_UF&lt;/th&gt;
&lt;td&gt;41&lt;/td&gt;
&lt;/tr&gt;&lt;tr bgcolor=""&gt;
&lt;th&gt;NM_UF&lt;/th&gt;
&lt;td&gt;Paraná&lt;/td&gt;
&lt;/tr&gt;&lt;tr bgcolor="#E3E3F3"&gt;
&lt;th&gt;SIGLA_UF&lt;/th&gt;
&lt;td&gt;PR&lt;/td&gt;
&lt;/tr&gt;&lt;tr bgcolor=""&gt;
&lt;th&gt;CD_MUN&lt;/th&gt;
&lt;td&gt;4111902&lt;/td&gt;
&lt;/tr&gt;&lt;tr bgcolor="#E3E3F3"&gt;
&lt;th&gt;NM_MUN&lt;/th&gt;
&lt;td&gt;Jaguapitã&lt;/td&gt;
&lt;/tr&gt;&lt;tr bgcolor=""&gt;
&lt;th&gt;CD_RGINT&lt;/th&gt;
&lt;td&gt;4105&lt;/td&gt;
&lt;/tr&gt;&lt;tr bgcolor="#E3E3F3"&gt;
&lt;th&gt;NM_RGINT&lt;/th&gt;
&lt;td&gt;Londrina&lt;/td&gt;
&lt;/tr&gt;&lt;tr bgcolor=""&gt;
&lt;th&gt;CD_RGI&lt;/th&gt;
&lt;td&gt;410021&lt;/td&gt;
&lt;/tr&gt;&lt;tr bgcolor="#E3E3F3"&gt;
&lt;th&gt;NM_RGI&lt;/th&gt;
&lt;td&gt;Londrina&lt;/td&gt;
&lt;/tr&gt;&lt;tr bgcolor=""&gt;
&lt;th&gt;CT_LOCALIDADE&lt;/th&gt;
&lt;td&gt;Outras Localidades&lt;/td&gt;
&lt;/tr&gt;&lt;tr bgcolor="#E3E3F3"&gt;
&lt;th&gt;SCT_LOCALIDADE&lt;/th&gt;
&lt;td&gt;&lt;/td&gt;
&lt;/tr&gt;&lt;tr bgcolor=""&gt;
&lt;th&gt;CD_LOCALIDADE&lt;/th&gt;
&lt;td&gt;411190200002&lt;/td&gt;
&lt;/tr&gt;&lt;tr bgcolor="#E3E3F3"&gt;
&lt;th&gt;NM_LOCALIDADE&lt;/th&gt;
&lt;td&gt;Estrada da Água da Onça Km-3&lt;/td&gt;
&lt;/tr&gt;&lt;/table&gt;&lt;/center&gt;</description>
<Style>
<IconStyle>
<color>ff0069d3</color>
<scale>0.6</scale>
<Icon>
<href>http://maps.google.com/mapfiles/kml/shapes/placemark_circle.png</href>
</Icon>
</IconStyle>
<LabelStyle>
<scale>0.6</scale>
</LabelStyle>
<LineStyle>
<width>1.0</width>
<gx:labelVisibility>1</gx:labelVisibility>
</LineStyle>
</Style>
<ExtendedData>
<SchemaData schemaUrl="#kml_schema_ft_Localidades">
<SimpleData name="CD_UF">41</SimpleData>
<SimpleData name="NM_UF">Paraná</SimpleData>
<SimpleData name="SIGLA_UF">PR</SimpleData>
<SimpleData name="CD_MUN">4111902</SimpleData>
<SimpleData name="NM_MUN">Jaguapitã</SimpleData>
<SimpleData name="CD_RGINT">4105</SimpleData>
<SimpleData name="NM_RGINT">Londrina</SimpleData>
<SimpleData name="CD_RGI">410021</SimpleData>
<SimpleData name="NM_RGI">Londrina</SimpleData>
<SimpleData name="CT_LOCALIDADE">Outras Localidades</SimpleData>
<SimpleData name="CD_LOCALIDADE">411190200002</SimpleData>
<SimpleData name="NM_LOCALIDADE">Estrada da Água da Onça Km-3</SimpleData>
</SchemaData>
</ExtendedData>
<Point>
<extrude>0</extrude>
<coordinates>-51.687611,-23.0424219993189,0.0</coordinates>
</Point>
</Placemark>
<Placemark id="12. Outras Localidades">
<name>Fazenda Nova Maragogipe [411190200003]</name>
<visibility>1</visibility>
<snippet> </snippet>
<description>&lt;center&gt;&lt;table&gt;&lt;tr&gt;&lt;th colspan='2' align='center'&gt;&lt;em&gt;Attributes&lt;/em&gt;&lt;/th&gt;&lt;/tr&gt;&lt;tr bgcolor="#E3E3F3"&gt;
&lt;th&gt;CD_UF&lt;/th&gt;
&lt;td&gt;41&lt;/td&gt;
&lt;/tr&gt;&lt;tr bgcolor=""&gt;
&lt;th&gt;NM_UF&lt;/th&gt;
&lt;td&gt;Paraná&lt;/td&gt;
&lt;/tr&gt;&lt;tr bgcolor="#E3E3F3"&gt;
&lt;th&gt;SIGLA_UF&lt;/th&gt;
&lt;td&gt;PR&lt;/td&gt;
&lt;/tr&gt;&lt;tr bgcolor=""&gt;
&lt;th&gt;CD_MUN&lt;/th&gt;
&lt;td&gt;4111902&lt;/td&gt;
&lt;/tr&gt;&lt;tr bgcolor="#E3E3F3"&gt;
&lt;th&gt;NM_MUN&lt;/th&gt;
&lt;td&gt;Jaguapitã&lt;/td&gt;
&lt;/tr&gt;&lt;tr bgcolor=""&gt;
&lt;th&gt;CD_RGINT&lt;/th&gt;
&lt;td&gt;4105&lt;/td&gt;
&lt;/tr&gt;&lt;tr bgcolor="#E3E3F3"&gt;
&lt;th&gt;NM_RGINT&lt;/th&gt;
&lt;td&gt;Londrina&lt;/td&gt;
&lt;/tr&gt;&lt;tr bgcolor=""&gt;
&lt;th&gt;CD_RGI&lt;/th&gt;
&lt;td&gt;410021&lt;/td&gt;
&lt;/tr&gt;&lt;tr bgcolor="#E3E3F3"&gt;
&lt;th&gt;NM_RGI&lt;/th&gt;
&lt;td&gt;Londrina&lt;/td&gt;
&lt;/tr&gt;&lt;tr bgcolor=""&gt;
&lt;th&gt;CT_LOCALIDADE&lt;/th&gt;
&lt;td&gt;Outras Localidades&lt;/td&gt;
&lt;/tr&gt;&lt;tr bgcolor="#E3E3F3"&gt;
&lt;th&gt;SCT_LOCALIDADE&lt;/th&gt;
&lt;td&gt;&lt;/td&gt;
&lt;/tr&gt;&lt;tr bgcolor=""&gt;
&lt;th&gt;CD_LOCALIDADE&lt;/th&gt;
&lt;td&gt;411190200003&lt;/td&gt;
&lt;/tr&gt;&lt;tr bgcolor="#E3E3F3"&gt;
&lt;th&gt;NM_LOCALIDADE&lt;/th&gt;
&lt;td&gt;Fazenda Nova Maragogipe&lt;/td&gt;
&lt;/tr&gt;&lt;/table&gt;&lt;/center&gt;</description>
<Style>
<IconStyle>
<color>ff0069d3</color>
<scale>0.6</scale>
<Icon>
<href>http://maps.google.com/mapfiles/kml/shapes/placemark_circle.png</href>
</Icon>
</IconStyle>
<LabelStyle>
<scale>0.6</scale>
</LabelStyle>
<LineStyle>
<width>1.0</width>
<gx:labelVisibility>1</gx:labelVisibility>
</LineStyle>
</Style>
<ExtendedData>
<SchemaData schemaUrl="#kml_schema_ft_Localidades">
<SimpleData name="CD_UF">41</SimpleData>
<SimpleData name="NM_UF">Paraná</SimpleData>
<SimpleData name="SIGLA_UF">PR</SimpleData>
<SimpleData name="CD_MUN">4111902</SimpleData>
<SimpleData name="NM_MUN">Jaguapitã</SimpleData>
<SimpleData name="CD_RGINT">4105</SimpleData>
<SimpleData name="NM_RGINT">Londrina</SimpleData>
<SimpleData name="CD_RGI">410021</SimpleData>
<SimpleData name="NM_RGI">Londrina</SimpleData>
<SimpleData name="CT_LOCALIDADE">Outras Localidades</SimpleData>
<SimpleData name="CD_LOCALIDADE">411190200003</SimpleData>
<SimpleData name="NM_LOCALIDADE">Fazenda Nova Maragogipe</SimpleData>
</SchemaData>
</ExtendedData>
<Point>
<extrude>0</extrude>
<coordinates>-51.46659,-23.0901739993178,0.0</coordinates>
</Point>
</Placemark>
<Placemark id="12. Outras Localidades">
<name>Fazenda São Manoel [411190200004]</name>
<visibility>1</visibility>
<snippet> </snippet>
<description>&lt;center&gt;&lt;table&gt;&lt;tr&gt;&lt;th colspan='2' align='center'&gt;&lt;em&gt;Attributes&lt;/em&gt;&lt;/th&gt;&lt;/tr&gt;&lt;tr bgcolor="#E3E3F3"&gt;
&lt;th&gt;CD_UF&lt;/th&gt;
&lt;td&gt;41&lt;/td&gt;
&lt;/tr&gt;&lt;tr bgcolor=""&gt;
&lt;th&gt;NM_UF&lt;/th&gt;
&lt;td&gt;Paraná&lt;/td&gt;
&lt;/tr&gt;&lt;tr bgcolor="#E3E3F3"&gt;
&lt;th&gt;SIGLA_UF&lt;/th&gt;
&lt;td&gt;PR&lt;/td&gt;
&lt;/tr&gt;&lt;tr bgcolor=""&gt;
&lt;th&gt;CD_MUN&lt;/th&gt;
&lt;td&gt;4111902&lt;/td&gt;
&lt;/tr&gt;&lt;tr bgcolor="#E3E3F3"&gt;
&lt;th&gt;NM_MUN&lt;/th&gt;
&lt;td&gt;Jaguapitã&lt;/td&gt;
&lt;/tr&gt;&lt;tr bgcolor=""&gt;
&lt;th&gt;CD_RGINT&lt;/th&gt;
&lt;td&gt;4105&lt;/td&gt;
&lt;/tr&gt;&lt;tr bgcolor="#E3E3F3"&gt;
&lt;th&gt;NM_RGINT&lt;/th&gt;
&lt;td&gt;Londrina&lt;/td&gt;
&lt;/tr&gt;&lt;tr bgcolor=""&gt;
&lt;th&gt;CD_RGI&lt;/th&gt;
&lt;td&gt;410021&lt;/td&gt;
&lt;/tr&gt;&lt;tr bgcolor="#E3E3F3"&gt;
&lt;th&gt;NM_RGI&lt;/th&gt;
&lt;td&gt;Londrina&lt;/td&gt;
&lt;/tr&gt;&lt;tr bgcolor=""&gt;
&lt;th&gt;CT_LOCALIDADE&lt;/th&gt;
&lt;td&gt;Outras Localidades&lt;/td&gt;
&lt;/tr&gt;&lt;tr bgcolor="#E3E3F3"&gt;
&lt;th&gt;SCT_LOCALIDADE&lt;/th&gt;
&lt;td&gt;&lt;/td&gt;
&lt;/tr&gt;&lt;tr bgcolor=""&gt;
&lt;th&gt;CD_LOCALIDADE&lt;/th&gt;
&lt;td&gt;411190200004&lt;/td&gt;
&lt;/tr&gt;&lt;tr bgcolor="#E3E3F3"&gt;
&lt;th&gt;NM_LOCALIDADE&lt;/th&gt;
&lt;td&gt;Fazenda São Manoel&lt;/td&gt;
&lt;/tr&gt;&lt;/table&gt;&lt;/center&gt;</description>
<Style>
<IconStyle>
<color>ff0069d3</color>
<scale>0.6</scale>
<Icon>
<href>http://maps.google.com/mapfiles/kml/shapes/placemark_circle.png</href>
</Icon>
</IconStyle>
<LabelStyle>
<scale>0.6</scale>
</LabelStyle>
<LineStyle>
<width>1.0</width>
<gx:labelVisibility>1</gx:labelVisibility>
</LineStyle>
</Style>
<ExtendedData>
<SchemaData schemaUrl="#kml_schema_ft_Localidades">
<SimpleData name="CD_UF">41</SimpleData>
<SimpleData name="NM_UF">Paraná</SimpleData>
<SimpleData name="SIGLA_UF">PR</SimpleData>
<SimpleData name="CD_MUN">4111902</SimpleData>
<SimpleData name="NM_MUN">Jaguapitã</SimpleData>
<SimpleData name="CD_RGINT">4105</SimpleData>
<SimpleData name="NM_RGINT">Londrina</SimpleData>
<SimpleData name="CD_RGI">410021</SimpleData>
<SimpleData name="NM_RGI">Londrina</SimpleData>
<SimpleData name="CT_LOCALIDADE">Outras Localidades</SimpleData>
<SimpleData name="CD_LOCALIDADE">411190200004</SimpleData>
<SimpleData name="NM_LOCALIDADE">Fazenda São Manoel</SimpleData>
</SchemaData>
</ExtendedData>
<Point>
<extrude>0</extrude>
<coordinates>-51.461435,-23.1465699993165,0.0</coordinates>
</Point>
</Placemark>
</Folder>
<Folder id="13. Referência">
<name>13. Referência</name>
<Placemark id="13. Referência">
<name>Jaguapitã [4111902]</name>
<visibility>1</visibility>
<snippet> </snippet>
<description>&lt;center&gt;&lt;table&gt;&lt;tr&gt;&lt;th colspan='2' align='center'&gt;&lt;em&gt;Attributes&lt;/em&gt;&lt;/th&gt;&lt;/tr&gt;&lt;tr bgcolor="#E3E3F3"&gt;
&lt;th&gt;CD_UF&lt;/th&gt;
&lt;td&gt;41&lt;/td&gt;
&lt;/tr&gt;&lt;tr bgcolor=""&gt;
&lt;th&gt;NM_UF&lt;/th&gt;
&lt;td&gt;Paraná&lt;/td&gt;
&lt;/tr&gt;&lt;tr bgcolor="#E3E3F3"&gt;
&lt;th&gt;CD_MUN&lt;/th&gt;
&lt;td&gt;4111902&lt;/td&gt;
&lt;/tr&gt;&lt;tr bgcolor=""&gt;
&lt;th&gt;NM_MUN&lt;/th&gt;
&lt;td&gt;Jaguapitã&lt;/td&gt;
&lt;/tr&gt;&lt;tr bgcolor="#E3E3F3"&gt;
&lt;th&gt;CD_RGINT&lt;/th&gt;
&lt;td&gt;4105&lt;/td&gt;
&lt;/tr&gt;&lt;tr bgcolor=""&gt;
&lt;th&gt;NM_RGINT&lt;/th&gt;
&lt;td&gt;Londrina&lt;/td&gt;
&lt;/tr&gt;&lt;tr bgcolor="#E3E3F3"&gt;
&lt;th&gt;CD_RGI&lt;/th&gt;
&lt;td&gt;410021&lt;/td&gt;
&lt;/tr&gt;&lt;tr bgcolor=""&gt;
&lt;th&gt;NM_RGI&lt;/th&gt;
&lt;td&gt;Londrina&lt;/td&gt;
&lt;/tr&gt;&lt;/table&gt;&lt;/center&gt;</description>
<Style>
<IconStyle>
<scale>0.7</scale>
</IconStyle>
<LabelStyle>
<scale>0.7</scale>
</LabelStyle>
<LineStyle>
<color>ffffffff</color>
<width>3</width>
<gx:labelVisibility>1</gx:labelVisibility>
</LineStyle>
<PolyStyle>
<color>00ffffff</color>
</PolyStyle>
</Style>
<ExtendedData>
<SchemaData schemaUrl="#kml_schema_ft_Município">
<SimpleData name="CD_UF">41</SimpleData>
<SimpleData name="NM_UF">Paraná</SimpleData>
<SimpleData name="CD_MUN">4111902</SimpleData>
<SimpleData name="NM_MUN">Jaguapitã</SimpleData>
<SimpleData name="CD_RGINT">4105</SimpleData>
<SimpleData name="NM_RGINT">Londrina</SimpleData>
<SimpleData name="CD_RGI">410021</SimpleData>
<SimpleData name="NM_RGI">Londrina</SimpleData>
</SchemaData>
</ExtendedData>
<MultiGeometry>
<Polygon>
<extrude>0</extrude>
<tessellate>1</tessellate>
<outerBoundaryIs>
<LinearRing>
<coordinates>-51.5052861,-23.0214578993193,0.0 -51.5052517,-23.0215757993193,0.0 -51.4920788,-23.0667256993183,0.0 -51.4589631,-23.0733319993182,0.0 -51.458761,-23.0733722993182,0.0 -51.4527711,-23.0745660993181,0.0 -51.4514548,-23.0764063993181,0.0 -51.446602,-23.078714799318,0.0 -51.4452825,-23.080250099318,0.0 -51.4438318,-23.081295899318,0.0 -51.4421794,-23.081851199318,0.0 -51.441586,-23.082464199318,0.0 -51.440595,-23.082835299318,0.0 -51.4389789,-23.0841544993179,0.0 -51.437128,-23.0841614993179,0.0 -51.4364008,-23.0847767993179,0.0 -51.4352106,-23.0848404993179,0.0 -51.4344186,-23.0852697993179,0.0 -51.4336259,-23.0852722993179,0.0 -51.4329321,-23.0856724993179,0.0 -51.4317395,-23.0852470993179,0.0 -51.4302214,-23.0862311993179,0.0 -51.4280411,-23.0863599993179,0.0 -51.426917,-23.0868523993179,0.0 -51.4258574,-23.0866708993179,0.0 -51.4250971,-23.0870717993179,0.0 -51.4244362,-23.0870727993179,0.0 -51.4235773,-23.0876263993178,0.0 -51.4223198,-23.0876915993178,0.0 -51.4211967,-23.0881216993178,0.0 -51.4200749,-23.0891058993178,0.0 -51.4190449,-23.0895313993178,0.0 -51.4171269,-23.0903236993178,0.0 -51.4152885,-23.0914585993178,0.0 -51.4132391,-23.0919844993177,0.0 -51.4122634,-23.0929781993177,0.0 -51.4111743,-23.0932120993177,0.0 -51.409236,-23.0924774993177,0.0 -51.4078424,-23.0928597993177,0.0 -51.4067586,-23.0928708993177,0.0 -51.4053401,-23.0935847993177,0.0 -51.4035095,-23.0936466993177,0.0 -51.399929,-23.0927658993177,0.0 -51.3985617,-23.0916334993178,0.0 -51.3983146,-23.0903200993178,0.0 -51.3971259,-23.0914690993178,0.0 -51.3958916,-23.0920442993177,0.0 -51.3955018,-23.0927723993177,0.0 -51.3957734,-23.0940770993177,0.0 -51.3968286,-23.0953973993177,0.0 -51.3972438,-23.0963426993176,0.0 -51.3983654,-23.0972092993176,0.0 -51.3987905,-23.0978497993176,0.0 -51.3989817,-23.0988165993176,0.0 -51.3989101,-23.1006615993175,0.0 -51.3986681,-23.1012620993175,0.0 -51.3968293,-23.1031600993175,0.0 -51.3963652,-23.1044409993175,0.0 -51.3961635,-23.1045251993175,0.0 -51.3956019,-23.1040295993175,0.0 -51.3953575,-23.1042998993175,0.0 -51.3956044,-23.1050636993174,0.0 -51.3954177,-23.1058861993174,0.0 -51.3967662,-23.1086550993174,0.0 -51.3968353,-23.1093789993173,0.0 -51.3964141,-23.1106632993173,0.0 -51.3957141,-23.1117723993173,0.0 -51.3956932,-23.1121465993173,0.0 -51.3960298,-23.1128694993173,0.0 -51.3981585,-23.1150339993172,0.0 -51.3983844,-23.1155718993172,0.0 -51.3983635,-23.1160470993172,0.0 -51.3980511,-23.1164001993172,0.0 -51.3966536,-23.1174788993172,0.0 -51.3963294,-23.1187439993171,0.0 -51.3960385,-23.1192489993171,0.0 -51.3961537,-23.1208181993171,0.0 -51.3971618,-23.1221603993171,0.0 -51.3966856,-23.122548599317,0.0 -51.3961739,-23.123563399317,0.0 -51.3964649,-23.124369499317,0.0 -51.3959114,-23.124867499317,0.0 -51.3958882,-23.125258699317,0.0 -51.3962468,-23.125857399317,0.0 -51.3961155,-23.126436399317,0.0 -51.3965198,-23.1272424993169,0.0 -51.3963359,-23.1294825993169,0.0 -51.3982156,-23.1313579993168,0.0 -51.3991139,-23.1320205993168,0.0 -51.399334,-23.1334155993168,0.0 -51.4003362,-23.1341575993168,0.0 -51.4012781,-23.1341333993168,0.0 -51.4014791,-23.1344443993168,0.0 -51.4015245,-23.1352301993168,0.0 -51.4019334,-23.1359037993167,0.0 -51.4021544,-23.1366950993167,0.0 -51.4019677,-23.1376177993167,0.0 -51.4020363,-23.1382153993167,0.0 -51.4022832,-23.1387301993167,0.0 -51.4030216,-23.1394316993167,0.0 -51.4027346,-23.1401370993166,0.0 -51.4028704,-23.1404875993166,0.0 -51.4032508,-23.1407131993166,0.0 -51.4034324,-23.1414767993166,0.0 -51.4039893,-23.1412089993166,0.0 -51.4042578,-23.1415174993166,0.0 -51.4042949,-23.1424789993166,0.0 -51.4045409,-23.1427880993166,0.0 -51.4048089,-23.1428700993166,0.0 -51.4052318,-23.1421046993166,0.0 -51.4056347,-23.1423295993166,0.0 -51.4058144,-23.1428883993166,0.0 -51.4061954,-23.1430326993166,0.0 -51.4059085,-23.1437344993166,0.0 -51.4060869,-23.1440045993166,0.0 -51.406042,-23.1443547993165,0.0 -51.4057092,-23.1447481993165,0.0 -51.4058549,-23.1449454993165,0.0 -51.4067266,-23.1451700993165,0.0 -51.4071312,-23.1459138993165,0.0 -51.4078013,-23.1460575993165,0.0 -51.4076027,-23.1468861993165,0.0 -51.4080725,-23.1468848993165,0.0 -51.4084992,-23.1473990993165,0.0 -51.4089906,-23.1476443993165,0.0 -51.4089928,-23.1478321993165,0.0 -51.4085,-23.1481650993165,0.0 -51.4088697,-23.1485447993165,0.0 -51.4105503,-23.1498229993164,0.0 -51.4109324,-23.1499654993164,0.0 -51.4121366,-23.1499644993164,0.0 -51.4123825,-23.1501282993164,0.0 -51.4127882,-23.1509731993164,0.0 -51.4133023,-23.1513046993164,0.0 -51.4133485,-23.1514921993164,0.0 -51.4126934,-23.1526020993164,0.0 -51.4127863,-23.1532063993163,0.0 -51.4138409,-23.1553477993163,0.0 -51.413748,-23.1575948993162,0.0 -51.4143079,-23.1588537993162,0.0 -51.4140198,-23.1632234993161,0.0 -51.4151658,-23.1653934993161,0.0 -51.4153944,-23.166611699316,0.0 -51.4159075,-23.167309499316,0.0 -51.4180394,-23.168750299316,0.0 -51.4190449,-23.168721899316,0.0 -51.4561702,-23.167673899316,0.0 -51.4736117,-23.167178399316,0.0 -51.4769319,-23.169142699316,0.0 -51.4781671,-23.170104599316,0.0 -51.4791675,-23.1712421993159,0.0 -51.4815279,-23.1753341993158,0.0 -51.4814789,-23.1769088993158,0.0 -51.4810387,-23.1790323993158,0.0 -51.4809544,-23.1805045993157,0.0 -51.4812583,-23.1829538993157,0.0 -51.4822506,-23.1861442993156,0.0 -51.4837948,-23.1904920993155,0.0 -51.4855048,-23.1929985993154,0.0 -51.4855301,-23.1930355993154,0.0 -51.4874252,-23.1958117993154,0.0 -51.4906229,-23.1988413993153,0.0 -51.4915423,-23.1999343993153,0.0 -51.4928735,-23.2033069993152,0.0 -51.4940715,-23.2046091993152,0.0 -51.4961794,-23.2057877993152,0.0 -51.4967694,-23.2063205993151,0.0 -51.4975928,-23.2070636993151,0.0 -51.4987557,-23.2075251993151,0.0 -51.5000105,-23.2083482993151,0.0 -51.5021298,-23.2089765993151,0.0 -51.5034812,-23.2098109993151,0.0 -51.504347,-23.210538499315,0.0 -51.5038764,-23.211731199315,0.0 -51.5054606,-23.213235299315,0.0 -51.5094567,-23.212767099315,0.0 -51.5098147,-23.210695499315,0.0 -51.5098354,-23.2076800993151,0.0 -51.511615,-23.2067102993151,0.0 -51.5126041,-23.2066356993151,0.0 -51.5127054,-23.2063899993151,0.0 -51.5123234,-23.2059670993151,0.0 -51.5120309,-23.2059849993152,0.0 -51.5115708,-23.2064559993151,0.0 -51.5110947,-23.2062616993151,0.0 -51.5106947,-23.2055983993152,0.0 -51.5104663,-23.2054801993152,0.0 -51.5094776,-23.2058480993152,0.0 -51.5091335,-23.2058028993152,0.0 -51.5078239,-23.2049844993152,0.0 -51.5101452,-23.2041431993152,0.0 -51.5103341,-23.2038619993152,0.0 -51.5101404,-23.2032975993152,0.0 -51.5098488,-23.2032171993152,0.0 -51.5094563,-23.2037830993152,0.0 -51.5090991,-23.2039208993152,0.0 -51.5083705,-23.2038001993152,0.0 -51.5081977,-23.2035267993152,0.0 -51.5086514,-23.2026649993152,0.0 -51.508521,-23.2022712993152,0.0 -51.5110996,-23.2020449993152,0.0 -51.5120643,-23.1994884993153,0.0 -51.5104062,-23.1984434993153,0.0 -51.5093703,-23.1973523993153,0.0 -51.5095354,-23.1962441993154,0.0 -51.5090978,-23.1950830993154,0.0 -51.5108987,-23.1949572993154,0.0 -51.5132082,-23.1931628993154,0.0 -51.513208,-23.1947582993154,0.0 -51.5149243,-23.1933424993154,0.0 -51.5163174,-23.1945555993154,0.0 -51.516174,-23.1959708993154,0.0 -51.5182895,-23.1952101993154,0.0 -51.5202879,-23.1961864993154,0.0 -51.5209469,-23.1950977993154,0.0 -51.522982,-23.1945612993154,0.0 -51.5243752,-23.1936536993154,0.0 -51.5253753,-23.1923970993155,0.0 -51.5240374,-23.1907788993155,0.0 -51.5215925,-23.1915073993155,0.0 -51.5209236,-23.1906405993155,0.0 -51.5213201,-23.1892733993155,0.0 -51.5213131,-23.1870533993156,0.0 -51.5226458,-23.1846559993156,0.0 -51.52198,-23.1830934993157,0.0 -51.5227872,-23.1818057993157,0.0 -51.5224801,-23.1803950993157,0.0 -51.5241539,-23.1791490993158,0.0 -51.5242565,-23.1767584993158,0.0 -51.5271527,-23.1754313993159,0.0 -51.5273759,-23.1739197993159,0.0 -51.5322028,-23.1743645993159,0.0 -51.5355398,-23.1734972993159,0.0 -51.537404,-23.1735804993159,0.0 -51.5388181,-23.1731694993159,0.0 -51.5390966,-23.1717750993159,0.0 -51.5387012,-23.170478599316,0.0 -51.5373113,-23.169039199316,0.0 -51.5368508,-23.167515999316,0.0 -51.536124,-23.166666299316,0.0 -51.5377364,-23.1650211993161,0.0 -51.5380943,-23.1636109993161,0.0 -51.5398033,-23.1632495993161,0.0 -51.5439304,-23.1601194993162,0.0 -51.545046,-23.1605329993162,0.0 -51.5441561,-23.1616651993162,0.0 -51.5458742,-23.1616106993162,0.0 -51.548207,-23.1591193993162,0.0 -51.5493187,-23.1592639993162,0.0 -51.5521798,-23.1581722993162,0.0 -51.5531515,-23.1595210993162,0.0 -51.5551277,-23.1598765993162,0.0 -51.5562613,-23.1593536993162,0.0 -51.5577913,-23.1579786993162,0.0 -51.5568505,-23.1569181993163,0.0 -51.5573195,-23.1558867993163,0.0 -51.5545406,-23.1550938993163,0.0 -51.5535929,-23.1534466993163,0.0 -51.5543185,-23.1506514993164,0.0 -51.5552112,-23.1498973993164,0.0 -51.5545672,-23.1487873993164,0.0 -51.5550146,-23.1467919993165,0.0 -51.5561265,-23.1468172993165,0.0 -51.5560689,-23.1452001993165,0.0 -51.5565395,-23.1428892993166,0.0 -51.5582657,-23.1424268993166,0.0 -51.5585124,-23.1412052993166,0.0 -51.5573982,-23.1407728993166,0.0 -51.5557341,-23.1383015993167,0.0 -51.5547101,-23.1372019993167,0.0 -51.5550904,-23.1355663993167,0.0 -51.5562322,-23.1367373993167,0.0 -51.5572099,-23.1350559993168,0.0 -51.5590136,-23.1351560993168,0.0 -51.5597686,-23.1366567993167,0.0 -51.5606529,-23.1374383993167,0.0 -51.5624806,-23.1378356993167,0.0 -51.5633458,-23.1364322993167,0.0 -51.5645405,-23.1379225993167,0.0 -51.5661215,-23.1379730993167,0.0 -51.5680949,-23.1372815993167,0.0 -51.5701222,-23.1397132993167,0.0 -51.5716579,-23.1396827993166,0.0 -51.5732888,-23.1401138993166,0.0 -51.5742084,-23.1395333993167,0.0 -51.5753213,-23.1400377993167,0.0 -51.5753462,-23.1386556993167,0.0 -51.5776258,-23.1378712993167,0.0 -51.5777049,-23.1367896993167,0.0 -51.579174,-23.1354043993168,0.0 -51.5806517,-23.1356616993167,0.0 -51.5815173,-23.1348808993168,0.0 -51.5842313,-23.1343168993168,0.0 -51.5852027,-23.1335114993168,0.0 -51.5879848,-23.1356900993168,0.0 -51.5887405,-23.1347684993168,0.0 -51.5889392,-23.1345260993168,0.0 -51.5889656,-23.1344645993168,0.0 -51.5900711,-23.1318947993168,0.0 -51.5918753,-23.1315830993168,0.0 -51.5929848,-23.1305865993169,0.0 -51.5904299,-23.1273358993169,0.0 -51.5913941,-23.123592099317,0.0 -51.5900066,-23.122610699317,0.0 -51.5906816,-23.1215019993171,0.0 -51.5919313,-23.1219451993171,0.0 -51.5930365,-23.1207428993171,0.0 -51.5942383,-23.1185601993171,0.0 -51.5949545,-23.1161797993172,0.0 -51.5985423,-23.1148256993172,0.0 -51.5999588,-23.1153877993172,0.0 -51.6022942,-23.1152264993172,0.0 -51.6045728,-23.1156220993172,0.0 -51.6069895,-23.1130768993173,0.0 -51.6060933,-23.1112584993173,0.0 -51.6058385,-23.1096581993173,0.0 -51.6094028,-23.1080769993174,0.0 -51.6105992,-23.1071664993174,0.0 -51.6122646,-23.1078964993174,0.0 -51.6136269,-23.1071039993174,0.0 -51.6157027,-23.1073699993174,0.0 -51.6167076,-23.1084039993174,0.0 -51.6186205,-23.1073327993174,0.0 -51.6193514,-23.1063592993174,0.0 -51.6210111,-23.1069085993174,0.0 -51.6223176,-23.1070094993174,0.0 -51.6227883,-23.1079992993174,0.0 -51.6246817,-23.1069258993174,0.0 -51.6260652,-23.1064792993174,0.0 -51.6289024,-23.1073051993174,0.0 -51.6284618,-23.1057662993174,0.0 -51.629511,-23.1054480993174,0.0 -51.6289884,-23.1041317993175,0.0 -51.6300709,-23.1036425993175,0.0 -51.6317956,-23.1032163993175,0.0 -51.6335305,-23.1022135993175,0.0 -51.6342914,-23.1007386993175,0.0 -51.6354016,-23.0991110993176,0.0 -51.6346821,-23.0967178993176,0.0 -51.636014,-23.0964751993176,0.0 -51.6365133,-23.0975664993176,0.0 -51.6385662,-23.0972903993176,0.0 -51.6383423,-23.0961932993176,0.0 -51.6384609,-23.0949947993177,0.0 -51.6363989,-23.0940073993177,0.0 -51.6380654,-23.0924917993177,0.0 -51.6395127,-23.0923473993177,0.0 -51.6402691,-23.0932448993177,0.0 -51.6423482,-23.0915251993178,0.0 -51.6453738,-23.0921198993177,0.0 -51.6470695,-23.0927867993177,0.0 -51.6474578,-23.0912854993178,0.0 -51.6494845,-23.0898726993178,0.0 -51.6491759,-23.0885333993178,0.0 -51.6494611,-23.0866758993179,0.0 -51.6510844,-23.0851071993179,0.0 -51.6538776,-23.0847407993179,0.0 -51.6550167,-23.0849092993179,0.0 -51.6549542,-23.0867673993179,0.0 -51.6563181,-23.0875456993178,0.0 -51.6567584,-23.0886071993178,0.0 -51.6586243,-23.0896554993178,0.0 -51.6600413,-23.0896222993178,0.0 -51.6611782,-23.0887375993178,0.0 -51.6624058,-23.0900002993178,0.0 -51.663933,-23.0903106993178,0.0 -51.6652628,-23.0884369993178,0.0 -51.6669004,-23.0891921993178,0.0 -51.668456,-23.0890445993178,0.0 -51.6723024,-23.0868758993178,0.0 -51.6740155,-23.0859128993179,0.0 -51.6743434,-23.0843825993179,0.0 -51.6761815,-23.082568699318,0.0 -51.6779263,-23.078730899318,0.0 -51.6789007,-23.0736552993182,0.0 -51.6799348,-23.0731741993182,0.0 -51.6809846,-23.0722311993182,0.0 -51.6850989,-23.0724998993182,0.0 -51.6868505,-23.0728070993182,0.0 -51.6882667,-23.0727537993182,0.0 -51.6897118,-23.0738596993182,0.0 -51.6911199,-23.0751969993181,0.0 -51.6916222,-23.0756735993181,0.0 -51.6930091,-23.0761359993181,0.0 -51.6924509,-23.0745313993181,0.0 -51.6948493,-23.0730854993182,0.0 -51.6939803,-23.0713309993182,0.0 -51.694849,-23.0702977993182,0.0 -51.6952935,-23.0688421993183,0.0 -51.6965182,-23.0696533993182,0.0 -51.6970374,-23.0706878993182,0.0 -51.6986254,-23.0702895993182,0.0 -51.6997342,-23.0671307993183,0.0 -51.7015444,-23.0668015993183,0.0 -51.7017939,-23.0652718993184,0.0 -51.7030643,-23.0646576993184,0.0 -51.7052583,-23.0640866993184,0.0 -51.7062584,-23.0645046993184,0.0 -51.7081197,-23.0640361993184,0.0 -51.7090165,-23.0624318993184,0.0 -51.7102927,-23.0625072993184,0.0 -51.7131234,-23.0613307993184,0.0 -51.7119037,-23.0590659993185,0.0 -51.7144856,-23.0586312993185,0.0 -51.716153,-23.0570417993185,0.0 -51.7165153,-23.0558087993186,0.0 -51.7174015,-23.0547665993186,0.0 -51.7210676,-23.0543230993186,0.0 -51.7227667,-23.0537428993186,0.0 -51.724154,-23.0541147993186,0.0 -51.7236259,-23.0526180993186,0.0 -51.7252372,-23.0524959993186,0.0 -51.7261232,-23.0531954993186,0.0 -51.7266494,-23.0544042993186,0.0 -51.7267329,-23.0564631993185,0.0 -51.7283977,-23.0566485993185,0.0 -51.7294841,-23.0564024993186,0.0 -51.7293495,-23.0552913993186,0.0 -51.7304322,-23.0551525993186,0.0 -51.7315181,-23.0545273993186,0.0 -51.7337941,-23.0543975993186,0.0 -51.7340744,-23.0533375993186,0.0 -51.7333221,-23.0522798993186,0.0 -51.7299924,-23.0501275993187,0.0 -51.7321562,-23.0501676993187,0.0 -51.7352107,-23.0507519993187,0.0 -51.7375088,-23.0516900993187,0.0 -51.7386527,-23.0498102993187,0.0 -51.7384557,-23.0487506993187,0.0 -51.7394036,-23.0462191993188,0.0 -51.7413468,-23.0456142993188,0.0 -51.7437622,-23.0458400993188,0.0 -51.743403,-23.0470171993188,0.0 -51.744676,-23.0472230993188,0.0 -51.7455117,-23.0440311993188,0.0 -51.7452132,-23.0426198993189,0.0 -51.7461221,-23.0401338993189,0.0 -51.7475678,-23.0394585993189,0.0 -51.749377,-23.0391585993189,0.0 -51.7503983,-23.038180299319,0.0 -51.7505378,-23.036891799319,0.0 -51.7514013,-23.036129699319,0.0 -51.7528013,-23.036204599319,0.0 -51.7530652,-23.035060399319,0.0 -51.7527641,-23.0320940993191,0.0 -51.7522614,-23.0293984993192,0.0 -51.75038,-23.0281181993192,0.0 -51.7502882,-23.0286520993192,0.0 -51.7487874,-23.0301270993192,0.0 -51.7483446,-23.0317045993191,0.0 -51.7481302,-23.0318044993191,0.0 -51.7478922,-23.0315645993191,0.0 -51.7476356,-23.0315663993191,0.0 -51.7472526,-23.0328261993191,0.0 -51.7462623,-23.0328211993191,0.0 -51.7457395,-23.0321061993191,0.0 -51.7447937,-23.0319500993191,0.0 -51.7442271,-23.0309330993191,0.0 -51.7434483,-23.0303009993191,0.0 -51.742605,-23.0299640993191,0.0 -51.7394799,-23.0294312993192,0.0 -51.7388735,-23.0288161993192,0.0 -51.737838,-23.0284222993192,0.0 -51.7375144,-23.0284023993192,0.0 -51.7364401,-23.0289266993192,0.0 -51.7363356,-23.0293457993192,0.0 -51.7355569,-23.0289401993192,0.0 -51.7345048,-23.0292455993192,0.0 -51.7341441,-23.0289984993192,0.0 -51.734002,-23.0283304993192,0.0 -51.7334402,-23.0278521993192,0.0 -51.731977,-23.0275415993192,0.0 -51.7312605,-23.0269753993192,0.0 -51.7303559,-23.0270400993192,0.0 -51.7298797,-23.0264050993192,0.0 -51.7290592,-23.0261080993192,0.0 -51.7289483,-23.0253908993193,0.0 -51.7272164,-23.0239409993193,0.0 -51.7271704,-23.0234258993193,0.0 -51.7267579,-23.0226564993193,0.0 -51.7264125,-23.0225991993193,0.0 -51.7261921,-23.0214841993194,0.0 -51.7253702,-23.0208099993194,0.0 -51.7256653,-23.0200894993194,0.0 -51.7249938,-23.0191159993194,0.0 -51.7245644,-23.0192361993194,0.0 -51.7241106,-23.0190094993194,0.0 -51.7240221,-23.0184729993194,0.0 -51.7235679,-23.0182733993194,0.0 -51.7235219,-23.0177555993194,0.0 -51.7227923,-23.0179183993194,0.0 -51.7218429,-23.0168216993195,0.0 -51.7210401,-23.0163498993195,0.0 -51.7208627,-23.0157020993195,0.0 -51.7204885,-23.0154430993195,0.0 -51.7200846,-23.0153280993195,0.0 -51.7190743,-23.0155309993195,0.0 -51.7187287,-23.0153112993195,0.0 -51.7184675,-23.0148309993195,0.0 -51.7184332,-23.0125805993195,0.0 -51.7182374,-23.0120434993196,0.0 -51.7172609,-23.0107614993196,0.0 -51.7160953,-23.0102284993196,0.0 -51.7148417,-23.0093547993196,0.0 -51.7141955,-23.0093202993196,0.0 -51.7135684,-23.0088436993196,0.0 -51.7123193,-23.0086379993196,0.0 -51.7120596,-23.0083011993196,0.0 -51.7110463,-23.0082242993197,0.0 -51.710744,-23.0079879993197,0.0 -51.7106751,-23.0073299993197,0.0 -51.7096614,-23.0067557993197,0.0 -51.7090113,-23.0061408993197,0.0 -51.7073338,-23.0063484993197,0.0 -51.7058417,-23.0056256993197,0.0 -51.7044056,-23.0056310993197,0.0 -51.7037955,-23.0054750993197,0.0 -51.7021931,-23.0037254993198,0.0 -51.7013542,-23.0036609993198,0.0 -51.7002525,-23.0030465993198,0.0 -51.6989604,-23.0031929993198,0.0 -51.6983124,-23.0030355993198,0.0 -51.6977978,-23.0031174993198,0.0 -51.6973008,-23.0027420993198,0.0 -51.6967825,-23.0027028993198,0.0 -51.6965219,-23.0024256993198,0.0 -51.6955739,-23.0021835993198,0.0 -51.694693,-23.0025272993198,0.0 -51.693187,-23.0026839993198,0.0 -51.6927582,-23.0030035993198,0.0 -51.6921121,-23.0029661993198,0.0 -51.6906518,-23.0035314993198,0.0 -51.690134,-23.0035753993198,0.0 -51.6896993,-23.0030383993198,0.0 -51.6885804,-23.0029228993198,0.0 -51.6881058,-23.0026063993198,0.0 -51.6878039,-23.0028058993198,0.0 -51.6859547,-23.0030108993198,0.0 -51.685003,-23.0021811993198,0.0 -51.6847423,-23.0016231993198,0.0 -51.684224,-23.0012446993198,0.0 -51.6837899,-23.0006111993198,0.0 -51.6824089,-23.0001370993198,0.0 -51.6818023,-22.9995000993198,0.0 -51.6811993,-22.9995038993198,0.0 -51.6805478,-22.9984691993199,0.0 -51.6796855,-22.9979547993199,0.0 -51.6787296,-22.9961836993199,0.0 -51.6783667,-22.9961855993199,0.0 -51.6781257,-22.9961874993199,0.0 -51.6776521,-22.9958709993199,0.0 -51.6767893,-22.9956732993199,0.0 -51.6749388,-22.9958410993199,0.0 -51.6740751,-22.9955242993199,0.0 -51.673514,-22.9949104993199,0.0 -51.6727799,-22.99471389932,0.0 -51.6698963,-22.99500449932,0.0 -51.6692073,-22.99484909932,0.0 -51.6674939,-22.9967505993199,0.0 -51.6661635,-22.9974737993199,0.0 -51.6644841,-22.9976800993199,0.0 -51.6637966,-22.9980028993199,0.0 -51.663068,-22.9985643993199,0.0 -51.661865,-22.9990880993199,0.0 -51.6616099,-22.9996266993199,0.0 -51.66118,-22.9999470993198,0.0 -51.6590741,-23.0008364993198,0.0 -51.6584736,-23.0014349993198,0.0 -51.6570129,-23.0019593993198,0.0 -51.6522339,-23.0018389993198,0.0 -51.649306,-23.0022503993198,0.0 -51.6471991,-23.0027984993198,0.0 -51.6436691,-23.0030510993198,0.0 -51.6427619,-23.0033335993198,0.0 -51.6402292,-23.0032850993198,0.0 -51.6386794,-23.0037700993198,0.0 -51.6342457,-23.0045459993197,0.0 -51.6323989,-23.0055516993197,0.0 -51.6305041,-23.0054583993197,0.0 -51.6289952,-23.0051063993197,0.0 -51.6259405,-23.0059549993197,0.0 -51.623444,-23.0056188993197,0.0 -51.6230658,-23.0054362993197,0.0 -51.6178758,-23.0029353993198,0.0 -51.6161793,-23.0016030993198,0.0 -51.6142006,-23.0011238993198,0.0 -51.6133429,-23.0005776993198,0.0 -51.6125689,-23.0006607993198,0.0 -51.6115807,-23.0011024993198,0.0 -51.6108919,-23.0011065993198,0.0 -51.6103359,-23.0008815993198,0.0 -51.6096237,-22.9988358993199,0.0 -51.6080451,-22.9970784993199,0.0 -51.6070856,-22.9963916993199,0.0 -51.6017291,-22.99352409932,0.0 -51.5975968,-22.99215659932,0.0 -51.5951261,-22.99181229932,0.0 -51.5914063,-22.9904580993201,0.0 -51.5902284,-22.9896072993201,0.0 -51.5893695,-22.9885383993201,0.0 -51.5879048,-22.9858810993202,0.0 -51.5874803,-22.9845209993202,0.0 -51.5844825,-22.9796599993203,0.0 -51.5837938,-22.9769223993204,0.0 -51.5824851,-22.9747167993204,0.0 -51.5820385,-22.9724087993205,0.0 -51.5814846,-22.9707028993205,0.0 -51.5815071,-22.9693856993205,0.0 -51.5835163,-22.9682873993206,0.0 -51.5845951,-22.9673471993206,0.0 -51.5851471,-22.9659216993206,0.0 -51.584733,-22.9623868993207,0.0 -51.5853733,-22.9586785993208,0.0 -51.5853708,-22.9571714993208,0.0 -51.5861184,-22.9557651993208,0.0 -51.5873273,-22.9513318993209,0.0 -51.5893441,-22.950389699321,0.0 -51.5901748,-22.949680399321,0.0 -51.5906484,-22.948271599321,0.0 -51.5902663,-22.9467776993211,0.0 -51.5905379,-22.9451484993211,0.0 -51.5899833,-22.9440372993211,0.0 -51.590258,-22.9428420993211,0.0 -51.5901817,-22.9416415993212,0.0 -51.5906443,-22.9402408993212,0.0 -51.590222,-22.9392029993212,0.0 -51.5891201,-22.9382133993212,0.0 -51.5887903,-22.9371263993213,0.0 -51.5888157,-22.9355817993213,0.0 -51.5880408,-22.9331424993214,0.0 -51.5875116,-22.9321417993214,0.0 -51.5877609,-22.9307828993214,0.0 -51.5874239,-22.9294421993215,0.0 -51.5855623,-22.9283589993215,0.0 -51.5847355,-22.9276406993215,0.0 -51.584621,-22.9263484993215,0.0 -51.5827304,-22.9241556993216,0.0 -51.5819844,-22.9228439993216,0.0 -51.5817376,-22.9213674993216,0.0 -51.5810696,-22.9205017993217,0.0 -51.5800905,-22.9196376993217,0.0 -51.5790359,-22.9191794993217,0.0 -51.5783979,-22.9182672993217,0.0 -51.5780667,-22.9171594993217,0.0 -51.577311,-22.9157961993218,0.0 -51.5764818,-22.9148350993218,0.0 -51.5777619,-22.9129693993218,0.0 -51.5764284,-22.9113156993219,0.0 -51.5773471,-22.9089382993219,0.0 -51.5774063,-22.907197499322,0.0 -51.5771553,-22.906128799322,0.0 -51.5761775,-22.905085099322,0.0 -51.5772628,-22.904414899322,0.0 -51.5775117,-22.9029124993221,0.0 -51.5760425,-22.9023197993221,0.0 -51.574989,-22.9012036993221,0.0 -51.5742634,-22.8970585993222,0.0 -51.574874,-22.8956691993222,0.0 -51.5748185,-22.8944066993223,0.0 -51.5736241,-22.8946952993222,0.0 -51.5723998,-22.8938716993223,0.0 -51.5709273,-22.8900779993224,0.0 -51.5697913,-22.8898259993224,0.0 -51.5696714,-22.8869291993224,0.0 -51.569666,-22.8867954993224,0.0 -51.5676794,-22.8874004993224,0.0 -51.5659584,-22.8888035993224,0.0 -51.565564,-22.8902025993224,0.0 -51.5634204,-22.8922255993223,0.0 -51.562599,-22.8930004993223,0.0 -51.5599819,-22.8954693993222,0.0 -51.5579311,-22.8967725993222,0.0 -51.5573417,-22.8977832993222,0.0 -51.5541947,-22.8992716993221,0.0 -51.5533221,-22.9004747993221,0.0 -51.5508705,-22.9012320993221,0.0 -51.5497858,-22.9008886993221,0.0 -51.546878,-22.905435399322,0.0 -51.5466466,-22.9078908993219,0.0 -51.544652,-22.9115725993219,0.0 -51.5446811,-22.9126604993218,0.0 -51.5421192,-22.9156781993218,0.0 -51.5412373,-22.9181940993217,0.0 -51.5410072,-22.9205186993217,0.0 -51.5387876,-22.9215753993216,0.0 -51.5395947,-22.9226634993216,0.0 -51.5318153,-22.9292287993215,0.0 -51.5318669,-22.9310100993214,0.0 -51.5321395,-22.9314609993214,0.0 -51.5319015,-22.9319526993214,0.0 -51.5319462,-22.9329288993214,0.0 -51.5325552,-22.9338641993213,0.0 -51.5325586,-22.9344291993213,0.0 -51.5328437,-22.9348387993213,0.0 -51.5329915,-22.9365826993213,0.0 -51.5333176,-22.9368828993213,0.0 -51.5328387,-22.9386080993212,0.0 -51.5330898,-22.9408940993212,0.0 -51.532555,-22.9432338993211,0.0 -51.5317524,-22.9453826993211,0.0 -51.5308659,-22.9467350993211,0.0 -51.5304896,-22.948178499321,0.0 -51.5288753,-22.950024999321,0.0 -51.5283117,-22.951039599321,0.0 -51.5281551,-22.9520901993209,0.0 -51.5274696,-22.9527301993209,0.0 -51.5254765,-22.9554568993209,0.0 -51.5241897,-22.9577856993208,0.0 -51.5239315,-22.9588934993208,0.0 -51.5229641,-22.9599088993207,0.0 -51.5225689,-22.9623860993207,0.0 -51.5219661,-22.9635127993207,0.0 -51.5220038,-22.9655334993206,0.0 -51.5220421,-22.9675819993206,0.0 -51.5223395,-22.9698841993205,0.0 -51.5220407,-22.9726290993205,0.0 -51.5215224,-22.9745791993204,0.0 -51.5209587,-22.9758562993204,0.0 -51.5200335,-22.9766864993204,0.0 -51.5199142,-22.9774001993204,0.0 -51.518767,-22.9795967993203,0.0 -51.5183713,-22.9813980993203,0.0 -51.5180081,-22.9820005993202,0.0 -51.5178103,-22.9835387993202,0.0 -51.5171885,-22.9846840993202,0.0 -51.5161484,-22.9879515993201,0.0 -51.5163555,-22.9892651993201,0.0 -51.5167125,-22.9898572993201,0.0 -51.5144051,-22.99413819932,0.0 -51.5132364,-22.9956863993199,0.0 -51.5120935,-22.9981147993199,0.0 -51.5052861,-23.0214578993193,0.0</coordinates>
</LinearRing>
</outerBoundaryIs>
</Polygon>
</MultiGeometry>
</Placemark>
</Folder>
</Document></kml>
