<?xml version='1.0' encoding='UTF-8'?>
<kml xmlns:xsd="http://www.w3.org/2001/XMLSchema" xmlns:gx="http://www.google.com/kml/ext/2.2" xmlns:atom="http://www.w3.org/2005/Atom" xmlns="http://www.opengis.net/kml/2.2">
<Document>
<name>marmeleiro_4115408_localidades_2022</name>
<visibility>1</visibility>
<Schema name="Núcleos Urbanos" id="kml_schema_ft_Núcleos_Urbanos">
<SimpleField type="xsd:string" name="CD_UF">
<displayName>CD_UF</displayName>
</SimpleField>
<SimpleField type="xsd:string" name="NM_UF">
<displayName>NM_UF</displayName>
</SimpleField>
<SimpleField type="xsd:string" name="SIGLA_UF">
<displayName>SIGLA_UF</displayName>
</SimpleField>
<SimpleField type="xsd:string" name="CD_MUN">
<displayName>CD_MUN</displayName>
</SimpleField>
<SimpleField type="xsd:string" name="NM_MUN">
<displayName>NM_MUN</displayName>
</SimpleField>
<SimpleField type="xsd:string" name="CD_RGINT">
<displayName>CD_RGINT</displayName>
</SimpleField>
<SimpleField type="xsd:string" name="NM_RGINT">
<displayName>NM_RGINT</displayName>
</SimpleField>
<SimpleField type="xsd:string" name="CD_RGI">
<displayName>CD_RGI</displayName>
</SimpleField>
<SimpleField type="xsd:string" name="NM_RGI">
<displayName>NM_RGI</displayName>
</SimpleField>
<SimpleField type="xsd:string" name="CT_LOCALIDADE">
<displayName>CT_LOCALIDADE</displayName>
</SimpleField>
<SimpleField type="xsd:string" name="CD_LOCALIDADE">
<displayName>CD_LOCALIDADE</displayName>
</SimpleField>
<SimpleField type="xsd:string" name="NM_LOCALIDADE">
<displayName>NM_LOCALIDADE</displayName>
</SimpleField>
<SimpleField type="xsd:string" name="LAT_LOCALIDADE">
<displayName>LAT_LOCALIDADE</displayName>
</SimpleField>
<SimpleField type="xsd:string" name="LONG_LOCALIDADE">
<displayName>LONG_LOCALIDADE</displayName>
</SimpleField>
</Schema>
<Schema name="01. Cidade" id="kml_schema_ft_01._Cidade">
<SimpleField type="xsd:string" name="CD_UF">
<displayName>CD_UF</displayName>
</SimpleField>
<SimpleField type="xsd:string" name="NM_UF">
<displayName>NM_UF</displayName>
</SimpleField>
<SimpleField type="xsd:string" name="SIGLA_UF">
<displayName>SIGLA_UF</displayName>
</SimpleField>
<SimpleField type="xsd:string" name="CD_MUN">
<displayName>CD_MUN</displayName>
</SimpleField>
<SimpleField type="xsd:string" name="NM_MUN">
<displayName>NM_MUN</displayName>
</SimpleField>
<SimpleField type="xsd:string" name="CD_RGINT">
<displayName>CD_RGINT</displayName>
</SimpleField>
<SimpleField type="xsd:string" name="NM_RGINT">
<displayName>NM_RGINT</displayName>
</SimpleField>
<SimpleField type="xsd:string" name="CD_RGI">
<displayName>CD_RGI</displayName>
</SimpleField>
<SimpleField type="xsd:string" name="NM_RGI">
<displayName>NM_RGI</displayName>
</SimpleField>
<SimpleField type="xsd:string" name="CT_LOCALIDADE">
<displayName>CT_LOCALIDADE</displayName>
</SimpleField>
<SimpleField type="xsd:string" name="SCT_LOCALIDADE">
<displayName>SCT_LOCALIDADE</displayName>
</SimpleField>
<SimpleField type="xsd:string" name="CD_LOCALIDADE">
<displayName>CD_LOCALIDADE</displayName>
</SimpleField>
<SimpleField type="xsd:string" name="NM_LOCALIDADE">
<displayName>NM_LOCALIDADE</displayName>
</SimpleField>
<SimpleField type="xsd:string" name="LAT_LOCALIDADE">
<displayName>LAT_LOCALIDADE</displayName>
</SimpleField>
<SimpleField type="xsd:string" name="LONG_LOCALIDADE">
<displayName>LONG_LOCALIDADE</displayName>
</SimpleField>
</Schema>
<Schema name="Município" id="kml_schema_ft_Município">
<SimpleField type="xsd:string" name="CD_UF">
<displayName>CD_UF</displayName>
</SimpleField>
<SimpleField type="xsd:string" name="NM_UF">
<displayName>NM_UF</displayName>
</SimpleField>
<SimpleField type="xsd:string" name="CD_MUN">
<displayName>CD_MUN</displayName>
</SimpleField>
<SimpleField type="xsd:string" name="NM_MUN">
<displayName>NM_MUN</displayName>
</SimpleField>
<SimpleField type="xsd:string" name="CD_RGINT">
<displayName>CD_RGINT</displayName>
</SimpleField>
<SimpleField type="xsd:string" name="NM_RGINT">
<displayName>NM_RGINT</displayName>
</SimpleField>
<SimpleField type="xsd:string" name="CD_RGI">
<displayName>CD_RGI</displayName>
</SimpleField>
<SimpleField type="xsd:string" name="NM_RGI">
<displayName>NM_RGI</displayName>
</SimpleField>
</Schema>
<Folder id="01. Cidade">
<name>01. Cidade</name>
<Folder id="01.03. Sede Municipal">
<name>01.03. Sede Municipal</name>
<Placemark id="01.03. Sede Municipal">
<name>Marmeleiro [4115408]</name>
<visibility>1</visibility>
<snippet> </snippet>
<description>&lt;center&gt;&lt;table&gt;&lt;tr&gt;&lt;th colspan='2' align='center'&gt;&lt;em&gt;Atributos&lt;/em&gt;&lt;/th&gt;&lt;/tr&gt;&lt;tr bgcolor="#E3E3F3"&gt;
&lt;th&gt;CD_UF&lt;/th&gt;
&lt;td&gt;41&lt;/td&gt;
&lt;/tr&gt;&lt;tr bgcolor=""&gt;
&lt;th&gt;NM_UF&lt;/th&gt;
&lt;td&gt;Paraná&lt;/td&gt;
&lt;/tr&gt;&lt;tr bgcolor="#E3E3F3"&gt;
&lt;th&gt;SIGLA_UF&lt;/th&gt;
&lt;td&gt;PR&lt;/td&gt;
&lt;/tr&gt;&lt;tr bgcolor=""&gt;
&lt;th&gt;CD_MUN&lt;/th&gt;
&lt;td&gt;4115408&lt;/td&gt;
&lt;/tr&gt;&lt;tr bgcolor="#E3E3F3"&gt;
&lt;th&gt;NM_MUN&lt;/th&gt;
&lt;td&gt;Marmeleiro&lt;/td&gt;
&lt;/tr&gt;&lt;tr bgcolor=""&gt;
&lt;th&gt;CD_RGINT&lt;/th&gt;
&lt;td&gt;4103&lt;/td&gt;
&lt;/tr&gt;&lt;tr bgcolor="#E3E3F3"&gt;
&lt;th&gt;NM_RGINT&lt;/th&gt;
&lt;td&gt;Cascavel&lt;/td&gt;
&lt;/tr&gt;&lt;tr bgcolor=""&gt;
&lt;th&gt;CD_RGI&lt;/th&gt;
&lt;td&gt;410009&lt;/td&gt;
&lt;/tr&gt;&lt;tr bgcolor="#E3E3F3"&gt;
&lt;th&gt;NM_RGI&lt;/th&gt;
&lt;td&gt;Francisco Beltrão&lt;/td&gt;
&lt;/tr&gt;&lt;tr bgcolor=""&gt;
&lt;th&gt;CT_LOCALIDADE&lt;/th&gt;
&lt;td&gt;Cidade&lt;/td&gt;
&lt;/tr&gt;&lt;tr bgcolor="#E3E3F3"&gt;
&lt;th&gt;SCT_LOCALIDADE&lt;/th&gt;
&lt;td&gt;Sede Municipal&lt;/td&gt;
&lt;/tr&gt;&lt;tr bgcolor=""&gt;
&lt;th&gt;CD_LOCALIDADE&lt;/th&gt;
&lt;td&gt;4115408&lt;/td&gt;
&lt;/tr&gt;&lt;tr bgcolor="#E3E3F3"&gt;
&lt;th&gt;NM_LOCALIDADE&lt;/th&gt;
&lt;td&gt;Marmeleiro&lt;/td&gt;
&lt;/tr&gt;&lt;tr bgcolor=""&gt;
&lt;th&gt;LAT_LOCALIDADE&lt;/th&gt;
&lt;td&gt;-26.1489&lt;/td&gt;
&lt;/tr&gt;&lt;tr bgcolor="#E3E3F3"&gt;
&lt;th&gt;LONG_LOCALIDADE&lt;/th&gt;
&lt;td&gt;-53.0254&lt;/td&gt;
&lt;/tr&gt;&lt;/table&gt;&lt;/center&gt;</description>
<Style>
<IconStyle>
<color>ff00aaff</color>
<scale>1.0</scale>
<Icon>
<href>http://maps.google.com/mapfiles/kml/shapes/placemark_circle.png</href>
</Icon>
</IconStyle>
<LabelStyle>
<scale>1.0</scale>
</LabelStyle>
<LineStyle>
<color>ffffffff</color>
<width>3</width>
<gx:labelVisibility>1</gx:labelVisibility>
</LineStyle>
<PolyStyle>
<color>00ffffff</color>
</PolyStyle>
</Style>
<ExtendedData>
<SchemaData schemaUrl="#kml_schema_ft_01._Cidade">
<SimpleData name="CD_UF">41</SimpleData>
<SimpleData name="NM_UF">Paraná</SimpleData>
<SimpleData name="SIGLA_UF">PR</SimpleData>
<SimpleData name="CD_MUN">4115408</SimpleData>
<SimpleData name="NM_MUN">Marmeleiro</SimpleData>
<SimpleData name="CD_RGINT">4103</SimpleData>
<SimpleData name="NM_RGINT">Cascavel</SimpleData>
<SimpleData name="CD_RGI">410009</SimpleData>
<SimpleData name="NM_RGI">Francisco Beltrão</SimpleData>
<SimpleData name="CT_LOCALIDADE">Cidade</SimpleData>
<SimpleData name="SCT_LOCALIDADE">Sede Municipal</SimpleData>
<SimpleData name="CD_LOCALIDADE">4115408</SimpleData>
<SimpleData name="NM_LOCALIDADE">Marmeleiro</SimpleData>
<SimpleData name="LAT_LOCALIDADE">-26.1489</SimpleData>
<SimpleData name="LONG_LOCALIDADE">-53.0254</SimpleData>
</SchemaData>
</ExtendedData>
<Point>
<extrude>0</extrude>
<coordinates>-53.02545,-26.1488769992522,0.0</coordinates>
</Point>
</Placemark>
</Folder>
</Folder>
<Folder id="05. Núcleos Urbanos">
<name>05. Núcleos Urbanos</name>
<Placemark id="localidades">
<name>Alto São Mateus [4115408001]</name>
<visibility>1</visibility>
<snippet> </snippet>
<description>&lt;center&gt;&lt;table&gt;&lt;tr&gt;&lt;th colspan='2' align='center'&gt;&lt;em&gt;Attributes&lt;/em&gt;&lt;/th&gt;&lt;/tr&gt;&lt;tr bgcolor="#E3E3F3"&gt;
&lt;th&gt;CD_UF&lt;/th&gt;
&lt;td&gt;41&lt;/td&gt;
&lt;/tr&gt;&lt;tr bgcolor=""&gt;
&lt;th&gt;NM_UF&lt;/th&gt;
&lt;td&gt;Paraná&lt;/td&gt;
&lt;/tr&gt;&lt;tr bgcolor="#E3E3F3"&gt;
&lt;th&gt;SIGLA_UF&lt;/th&gt;
&lt;td&gt;PR&lt;/td&gt;
&lt;/tr&gt;&lt;tr bgcolor=""&gt;
&lt;th&gt;CD_MUN&lt;/th&gt;
&lt;td&gt;4115408&lt;/td&gt;
&lt;/tr&gt;&lt;tr bgcolor="#E3E3F3"&gt;
&lt;th&gt;NM_MUN&lt;/th&gt;
&lt;td&gt;Marmeleiro&lt;/td&gt;
&lt;/tr&gt;&lt;tr bgcolor=""&gt;
&lt;th&gt;CD_RGINT&lt;/th&gt;
&lt;td&gt;4103&lt;/td&gt;
&lt;/tr&gt;&lt;tr bgcolor="#E3E3F3"&gt;
&lt;th&gt;NM_RGINT&lt;/th&gt;
&lt;td&gt;Cascavel&lt;/td&gt;
&lt;/tr&gt;&lt;tr bgcolor=""&gt;
&lt;th&gt;CD_RGI&lt;/th&gt;
&lt;td&gt;410009&lt;/td&gt;
&lt;/tr&gt;&lt;tr bgcolor="#E3E3F3"&gt;
&lt;th&gt;NM_RGI&lt;/th&gt;
&lt;td&gt;Francisco Beltrão&lt;/td&gt;
&lt;/tr&gt;&lt;tr bgcolor=""&gt;
&lt;th&gt;CT_LOCALIDADE&lt;/th&gt;
&lt;td&gt;Núcleo Urbano&lt;/td&gt;
&lt;/tr&gt;&lt;tr bgcolor="#E3E3F3"&gt;
&lt;th&gt;CD_LOCALIDADE&lt;/th&gt;
&lt;td&gt;4115408001&lt;/td&gt;
&lt;/tr&gt;&lt;tr bgcolor=""&gt;
&lt;th&gt;NM_LOCALIDADE&lt;/th&gt;
&lt;td&gt;Alto São Mateus&lt;/td&gt;
&lt;/tr&gt;&lt;tr bgcolor="#E3E3F3"&gt;
&lt;th&gt;LAT_LOCALIDADE&lt;/th&gt;
&lt;td&gt;-26.3816&lt;/td&gt;
&lt;/tr&gt;&lt;tr bgcolor=""&gt;
&lt;th&gt;LONG_LOCALIDADE&lt;/th&gt;
&lt;td&gt;-53.0803&lt;/td&gt;
&lt;/tr&gt;&lt;/table&gt;&lt;/center&gt;</description>
<Style>
<IconStyle>
<color>ff0000ff</color>
<scale>0.9</scale>
<Icon>
<href>http://maps.google.com/mapfiles/kml/shapes/placemark_circle.png</href>
</Icon>
</IconStyle>
<LabelStyle>
<scale>0.9</scale>
</LabelStyle>
<LineStyle>
<color>72ffffff</color>
<width>1.0</width>
<gx:labelVisibility>1</gx:labelVisibility>
</LineStyle>
<PolyStyle>
<color>66ff54ff</color>
</PolyStyle>
</Style>
<ExtendedData>
<SchemaData schemaUrl="#kml_schema_ft_Núcleos_Urbanos">
<SimpleData name="CD_UF">41</SimpleData>
<SimpleData name="NM_UF">Paraná</SimpleData>
<SimpleData name="SIGLA_UF">PR</SimpleData>
<SimpleData name="CD_MUN">4115408</SimpleData>
<SimpleData name="NM_MUN">Marmeleiro</SimpleData>
<SimpleData name="CD_RGINT">4103</SimpleData>
<SimpleData name="NM_RGINT">Cascavel</SimpleData>
<SimpleData name="CD_RGI">410009</SimpleData>
<SimpleData name="NM_RGI">Francisco Beltrão</SimpleData>
<SimpleData name="CT_LOCALIDADE">Núcleo Urbano</SimpleData>
<SimpleData name="CD_LOCALIDADE">4115408001</SimpleData>
<SimpleData name="NM_LOCALIDADE">Alto São Mateus</SimpleData>
<SimpleData name="LAT_LOCALIDADE">-26.3816</SimpleData>
<SimpleData name="LONG_LOCALIDADE">-53.0803</SimpleData>
</SchemaData>
</ExtendedData>
<Point>
<extrude>0</extrude>
<coordinates>-53.0802825458515,-26.3815956761034,0.0</coordinates>
</Point>
</Placemark>
</Folder>
<Folder id="13. Referência">
<name>13. Referência</name>
<Placemark id="13. Referência">
<name>Marmeleiro [4115408]</name>
<visibility>1</visibility>
<snippet> </snippet>
<description>&lt;center&gt;&lt;table&gt;&lt;tr&gt;&lt;th colspan='2' align='center'&gt;&lt;em&gt;Attributes&lt;/em&gt;&lt;/th&gt;&lt;/tr&gt;&lt;tr bgcolor="#E3E3F3"&gt;
&lt;th&gt;CD_UF&lt;/th&gt;
&lt;td&gt;41&lt;/td&gt;
&lt;/tr&gt;&lt;tr bgcolor=""&gt;
&lt;th&gt;NM_UF&lt;/th&gt;
&lt;td&gt;Paraná&lt;/td&gt;
&lt;/tr&gt;&lt;tr bgcolor="#E3E3F3"&gt;
&lt;th&gt;CD_MUN&lt;/th&gt;
&lt;td&gt;4115408&lt;/td&gt;
&lt;/tr&gt;&lt;tr bgcolor=""&gt;
&lt;th&gt;NM_MUN&lt;/th&gt;
&lt;td&gt;Marmeleiro&lt;/td&gt;
&lt;/tr&gt;&lt;tr bgcolor="#E3E3F3"&gt;
&lt;th&gt;CD_RGINT&lt;/th&gt;
&lt;td&gt;4103&lt;/td&gt;
&lt;/tr&gt;&lt;tr bgcolor=""&gt;
&lt;th&gt;NM_RGINT&lt;/th&gt;
&lt;td&gt;Cascavel&lt;/td&gt;
&lt;/tr&gt;&lt;tr bgcolor="#E3E3F3"&gt;
&lt;th&gt;CD_RGI&lt;/th&gt;
&lt;td&gt;410009&lt;/td&gt;
&lt;/tr&gt;&lt;tr bgcolor=""&gt;
&lt;th&gt;NM_RGI&lt;/th&gt;
&lt;td&gt;Francisco Beltrão&lt;/td&gt;
&lt;/tr&gt;&lt;/table&gt;&lt;/center&gt;</description>
<Style>
<IconStyle>
<scale>0.7</scale>
</IconStyle>
<LabelStyle>
<scale>0.7</scale>
</LabelStyle>
<LineStyle>
<color>ffffffff</color>
<width>3</width>
<gx:labelVisibility>1</gx:labelVisibility>
</LineStyle>
<PolyStyle>
<color>00ffffff</color>
</PolyStyle>
</Style>
<ExtendedData>
<SchemaData schemaUrl="#kml_schema_ft_Município">
<SimpleData name="CD_UF">41</SimpleData>
<SimpleData name="NM_UF">Paraná</SimpleData>
<SimpleData name="CD_MUN">4115408</SimpleData>
<SimpleData name="NM_MUN">Marmeleiro</SimpleData>
<SimpleData name="CD_RGINT">4103</SimpleData>
<SimpleData name="NM_RGINT">Cascavel</SimpleData>
<SimpleData name="CD_RGI">410009</SimpleData>
<SimpleData name="NM_RGI">Francisco Beltrão</SimpleData>
</SchemaData>
</ExtendedData>
<MultiGeometry>
<Polygon>
<extrude>0</extrude>
<tessellate>1</tessellate>
<outerBoundaryIs>
<LinearRing>
<coordinates>-53.0567714,-26.1180573992528,0.0 -53.043214,-26.1175266992528,0.0 -53.0367198,-26.1172724992528,0.0 -53.0352824,-26.1172161992528,0.0 -53.0341519,-26.1171719992528,0.0 -53.0341216,-26.1171707992528,0.0 -53.0340905,-26.1171695992528,0.0 -53.034078,-26.1171690992528,0.0 -53.0340714,-26.1171687992528,0.0 -53.0340549,-26.1171681992528,0.0 -53.0340259,-26.1171669992528,0.0 -53.0340186,-26.1171667992528,0.0 -53.0339698,-26.1171647992528,0.0 -53.0339653,-26.1171646992528,0.0 -53.0339616,-26.1171644992528,0.0 -53.0339597,-26.1171643992528,0.0 -53.0339579,-26.1171643992528,0.0 -53.0339564,-26.1171642992528,0.0 -53.0339549,-26.1171642992528,0.0 -53.0339531,-26.1171641992528,0.0 -53.0339516,-26.1171640992528,0.0 -53.0339502,-26.1171640992528,0.0 -53.0339485,-26.1171639992528,0.0 -53.0339468,-26.1171638992528,0.0 -53.0339437,-26.1171637992528,0.0 -53.0339411,-26.1171636992528,0.0 -53.0339385,-26.1171635992528,0.0 -53.033937,-26.1171635992528,0.0 -53.0339356,-26.1171634992528,0.0 -53.0339335,-26.1171633992528,0.0 -53.0339317,-26.1171632992528,0.0 -53.0339296,-26.1171632992528,0.0 -53.0339279,-26.1171631992528,0.0 -53.0339265,-26.1171630992528,0.0 -53.0339234,-26.1171629992528,0.0 -53.033921,-26.1171628992528,0.0 -53.0339192,-26.1171628992528,0.0 -53.0339144,-26.1171626992528,0.0 -53.0334653,-26.1171449992528,0.0 -53.0325573,-26.1171093992528,0.0 -53.032551,-26.1171090992528,0.0 -53.0286999,-26.1169577992528,0.0 -53.0286057,-26.1169540992528,0.0 -53.0232744,-26.1167446992528,0.0 -53.0232638,-26.1167442992528,0.0 -53.023256,-26.1167439992528,0.0 -53.0232508,-26.1167437992528,0.0 -53.0232368,-26.1167431992528,0.0 -53.0202795,-26.1166270992528,0.0 -53.0145781,-26.1164030992528,0.0 -53.0094435,-26.1162013992529,0.0 -53.0060397,-26.1160676992528,0.0 -53.0085974,-26.1148668992529,0.0 -53.0093831,-26.1154769992529,0.0 -53.0100697,-26.1153895992529,0.0 -53.0103159,-26.1147640992529,0.0 -53.0095322,-26.1141548992529,0.0 -53.0107213,-26.1132839992529,0.0 -53.0081822,-26.1121681992529,0.0 -53.0072927,-26.109173799253,0.0 -53.005649,-26.108466599253,0.0 -53.0049557,-26.1051025992531,0.0 -53.0033763,-26.1040185992531,0.0 -52.9988498,-26.1037426992531,0.0 -52.9974731,-26.1025778992531,0.0 -52.9932022,-26.0989659992532,0.0 -52.9927616,-26.1013897992531,0.0 -52.9908747,-26.1035345992531,0.0 -52.9909879,-26.106657199253,0.0 -52.9897093,-26.106524599253,0.0 -52.9882359,-26.1126586992529,0.0 -52.9846749,-26.1222192992527,0.0 -52.9852643,-26.1269165992526,0.0 -52.9845431,-26.1293672992526,0.0 -52.9852113,-26.1342085992525,0.0 -52.9850398,-26.1390042992524,0.0 -52.9855825,-26.1448764992523,0.0 -52.985733,-26.1465054992522,0.0 -52.9864342,-26.1477462992522,0.0 -52.9866235,-26.1480812992522,0.0 -52.9866939,-26.1487242992522,0.0 -52.9869522,-26.1510757992522,0.0 -52.987177,-26.1531220992521,0.0 -52.9879003,-26.1540287992521,0.0 -52.9852657,-26.159479499252,0.0 -53.0047688,-26.1840973992515,0.0 -53.02246,-26.206417899251,0.0 -53.0234023,-26.2035731992511,0.0 -53.0233447,-26.2008832992511,0.0 -53.0241807,-26.1966119992512,0.0 -53.0229838,-26.1889684992514,0.0 -53.0224333,-26.1880432992514,0.0 -53.0231232,-26.1830470992515,0.0 -53.0249602,-26.1835017992515,0.0 -53.0265983,-26.1827285992515,0.0 -53.0279373,-26.1831509992515,0.0 -53.031852,-26.1814544992515,0.0 -53.0309379,-26.1838426992515,0.0 -53.034068,-26.1854404992515,0.0 -53.0353779,-26.1855132992515,0.0 -53.036013,-26.1826213992515,0.0 -53.0371241,-26.1822939992515,0.0 -53.0384539,-26.1825095992515,0.0 -53.0405353,-26.1859791992514,0.0 -53.0384891,-26.1880972992514,0.0 -53.0374809,-26.1876943992514,0.0 -53.0359302,-26.1878193992514,0.0 -53.0342584,-26.1886781992514,0.0 -53.0308515,-26.1921001992513,0.0 -53.0332624,-26.1944439992513,0.0 -53.0337644,-26.1955655992513,0.0 -53.0421263,-26.1994048992512,0.0 -53.0414296,-26.2015103992511,0.0 -53.0384268,-26.2016455992511,0.0 -53.0358166,-26.2027092992511,0.0 -53.0382624,-26.2046046992511,0.0 -53.0413755,-26.2056823992511,0.0 -53.0432327,-26.208609899251,0.0 -53.0412945,-26.2133712992509,0.0 -53.0414082,-26.2171932992508,0.0 -53.0434082,-26.2189620992508,0.0 -53.0442644,-26.2206012992508,0.0 -53.04571,-26.2213879992507,0.0 -53.048131,-26.2213678992507,0.0 -53.04896,-26.2216802992507,0.0 -53.0488207,-26.2229428992507,0.0 -53.0514901,-26.2268403992506,0.0 -53.0567923,-26.2244682992507,0.0 -53.0584023,-26.2247477992507,0.0 -53.0596014,-26.2261003992506,0.0 -53.0596245,-26.2273261992506,0.0 -53.0614562,-26.2296684992506,0.0 -53.0608755,-26.2320653992505,0.0 -53.0624315,-26.2337171992505,0.0 -53.064935,-26.2325421992505,0.0 -53.0681801,-26.2358854992505,0.0 -53.0631215,-26.2427847992503,0.0 -53.060803,-26.2424483992503,0.0 -53.0564281,-26.2400875992504,0.0 -53.0547349,-26.2401766992504,0.0 -53.0536248,-26.2411792992503,0.0 -53.0574627,-26.2445889992503,0.0 -53.0564067,-26.2474511992502,0.0 -53.0579825,-26.2495200992502,0.0 -53.0591241,-26.2494544992502,0.0 -53.0602141,-26.2483442992502,0.0 -53.0617647,-26.2484627992502,0.0 -53.0631506,-26.2493914992502,0.0 -53.0625706,-26.2503163992502,0.0 -53.0612121,-26.2500917992502,0.0 -53.0601244,-26.2520250992501,0.0 -53.061234,-26.2533418992501,0.0 -53.0612063,-26.2555339992501,0.0 -53.0602133,-26.25852469925,0.0 -53.0674069,-26.25901389925,0.0 -53.0668431,-26.26054359925,0.0 -53.0645697,-26.2621722992499,0.0 -53.0641483,-26.2635403992499,0.0 -53.064429,-26.2682362992498,0.0 -53.0630411,-26.2691405992498,0.0 -53.0614844,-26.2710066992497,0.0 -53.0613717,-26.2721882992497,0.0 -53.063496,-26.2727201992497,0.0 -53.0639306,-26.2728285992497,0.0 -53.064704,-26.2751431992497,0.0 -53.0646238,-26.2764061992496,0.0 -53.0637362,-26.2772207992496,0.0 -53.060822,-26.2763082992496,0.0 -53.0595469,-26.2733983992497,0.0 -53.0582081,-26.2735492992497,0.0 -53.0578334,-26.2754487992497,0.0 -53.0575734,-26.2767670992496,0.0 -53.0585097,-26.2786026992496,0.0 -53.0607616,-26.2797013992496,0.0 -53.0577622,-26.2804135992496,0.0 -53.0584349,-26.2815452992495,0.0 -53.0574914,-26.2838133992495,0.0 -53.0572402,-26.2844182992495,0.0 -53.0530719,-26.2847879992495,0.0 -53.0512343,-26.2855609992495,0.0 -53.0503527,-26.2867283992494,0.0 -53.0455075,-26.2876989992494,0.0 -53.0473424,-26.2910576992493,0.0 -53.047042,-26.2924103992493,0.0 -53.045957,-26.2940655992493,0.0 -53.0426842,-26.2966763992492,0.0 -53.0423488,-26.2980107992492,0.0 -53.0426013,-26.2993310992492,0.0 -53.0441475,-26.3012771992491,0.0 -53.0445646,-26.3025660992491,0.0 -53.040094,-26.3056309992491,0.0 -53.0369616,-26.306577499249,0.0 -53.0334004,-26.308501099249,0.0 -53.0300729,-26.3112231992489,0.0 -53.0295387,-26.3140344992489,0.0 -53.0285101,-26.3159597992489,0.0 -53.0274373,-26.3166889992488,0.0 -53.0242945,-26.3160836992488,0.0 -53.0221855,-26.3193995992488,0.0 -53.023237,-26.3202559992488,0.0 -53.0237689,-26.3225167992487,0.0 -53.024482,-26.3234701992487,0.0 -53.0236582,-26.3246125992487,0.0 -53.0236803,-26.3257922992487,0.0 -53.0247012,-26.3271971992486,0.0 -53.0249041,-26.3316776992485,0.0 -53.0261764,-26.3327323992485,0.0 -53.0278134,-26.3359482992485,0.0 -53.0283518,-26.3386404992484,0.0 -53.0274601,-26.3493217992482,0.0 -53.0251817,-26.3608213992479,0.0 -53.0278832,-26.3698944992478,0.0 -53.0279598,-26.3701684992478,0.0 -53.0283048,-26.3702237992478,0.0 -53.0287731,-26.3702914992478,0.0 -53.0292744,-26.3703518992478,0.0 -53.0297102,-26.3703090992478,0.0 -53.0302857,-26.3702960992478,0.0 -53.0306205,-26.3703095992478,0.0 -53.0306802,-26.3703119992478,0.0 -53.0312304,-26.3704462992478,0.0 -53.0315833,-26.3706019992478,0.0 -53.0319691,-26.3707504992478,0.0 -53.0324201,-26.3710390992478,0.0 -53.032797,-26.3713642992477,0.0 -53.0330674,-26.3716651992477,0.0 -53.0332714,-26.3720634992477,0.0 -53.0335163,-26.3725060992477,0.0 -53.0337771,-26.3731181992477,0.0 -53.0339033,-26.3734210992477,0.0 -53.0339645,-26.3735679992477,0.0 -53.0342005,-26.3742020992477,0.0 -53.0344612,-26.3748214992477,0.0 -53.0347145,-26.3752346992477,0.0 -53.0350419,-26.3756112992477,0.0 -53.0353861,-26.3759068992477,0.0 -53.0357304,-26.3761436992477,0.0 -53.0361405,-26.3764173992476,0.0 -53.0364931,-26.3766319992476,0.0 -53.0368703,-26.3768982992476,0.0 -53.0372483,-26.3769509992476,0.0 -53.0378155,-26.3769600992476,0.0 -53.0381115,-26.3769240992476,0.0 -53.0385722,-26.3768370992476,0.0 -53.0389917,-26.3767867992476,0.0 -53.039403,-26.3767070992476,0.0 -53.0397854,-26.3766491992476,0.0 -53.0398177,-26.3766442992476,0.0 -53.0401732,-26.3766345992476,0.0 -53.0405948,-26.3767059992476,0.0 -53.0409196,-26.3768580992476,0.0 -53.0412503,-26.3770479992476,0.0 -53.0415613,-26.3773014992476,0.0 -53.0415627,-26.3773026992476,0.0 -53.0418928,-26.3776544992476,0.0 -53.042145,-26.3778819992476,0.0 -53.042451,-26.3782337992476,0.0 -53.042727,-26.3785746992476,0.0 -53.0429491,-26.3787858992476,0.0 -53.0432492,-26.3791106992476,0.0 -53.0435915,-26.3794247992476,0.0 -53.0439461,-26.3796795992476,0.0 -53.0441805,-26.3798485992476,0.0 -53.0444692,-26.3799951992476,0.0 -53.0448059,-26.3801904992476,0.0 -53.0451363,-26.3804883992476,0.0 -53.045605,-26.3808432992476,0.0 -53.0460737,-26.3811982992475,0.0 -53.0464406,-26.3813774992475,0.0 -53.0465282,-26.3814045992476,0.0 -53.0466783,-26.3814510992475,0.0 -53.0469161,-26.3815246992475,0.0 -53.047235,-26.3816389992475,0.0 -53.0475781,-26.3817586992475,0.0 -53.048138,-26.3818952992475,0.0 -53.0485473,-26.3820098992475,0.0 -53.0489469,-26.3821104992475,0.0 -53.0494646,-26.3822631992475,0.0 -53.0498679,-26.3823668992475,0.0 -53.0502051,-26.3824542992475,0.0 -53.0506024,-26.3825525992475,0.0 -53.0509274,-26.3826722992475,0.0 -53.0513546,-26.3828300992475,0.0 -53.0516801,-26.3829767992475,0.0 -53.0520231,-26.3831126992475,0.0 -53.0524628,-26.3831625992475,0.0 -53.0529028,-26.3831368992475,0.0 -53.053391,-26.3831166992475,0.0 -53.053783,-26.3830313992475,0.0 -53.0541325,-26.3830324992475,0.0 -53.0546446,-26.3830608992475,0.0 -53.0548431,-26.3830737992475,0.0 -53.0552531,-26.3831004992475,0.0 -53.0556262,-26.3831338992475,0.0 -53.0561804,-26.3831894992475,0.0 -53.0567468,-26.3832072992475,0.0 -53.0574937,-26.3832957992475,0.0 -53.0580418,-26.3833728992475,0.0 -53.0587163,-26.3834665992475,0.0 -53.0592765,-26.3835383992475,0.0 -53.0597463,-26.3836044992475,0.0 -53.0602248,-26.3837320992475,0.0 -53.0603603,-26.3837681992475,0.0 -53.0610347,-26.3839320992475,0.0 -53.0615284,-26.3840521992475,0.0 -53.0621669,-26.3841241992475,0.0 -53.0626233,-26.3841677992475,0.0 -53.0630328,-26.3842552992475,0.0 -53.0635681,-26.3845321992475,0.0 -53.0639954,-26.3846898992475,0.0 -53.0643202,-26.3848635992475,0.0 -53.0646331,-26.3850047992475,0.0 -53.0650603,-26.3851841992475,0.0 -53.0655175,-26.3853905992475,0.0 -53.0658362,-26.3855965992475,0.0 -53.0660827,-26.3857483992475,0.0 -53.0663351,-26.3859488992475,0.0 -53.0665333,-26.3861491992475,0.0 -53.0667374,-26.3863656992474,0.0 -53.0669113,-26.3866036992474,0.0 -53.0671153,-26.3868686992474,0.0 -53.0673314,-26.3871068992474,0.0 -53.0675454,-26.3873779992474,0.0 -53.0675834,-26.3874260992474,0.0 -53.0676541,-26.3875180992474,0.0 -53.0676737,-26.3875436992474,0.0 -53.0676953,-26.3875717992474,0.0 -53.0677291,-26.3876158992474,0.0 -53.0677994,-26.3877073992474,0.0 -53.0678446,-26.3877639992474,0.0 -53.0679081,-26.3878433992474,0.0 -53.0679942,-26.3879510992474,0.0 -53.068434,-26.3879792992474,0.0 -53.0688258,-26.3879533992474,0.0 -53.069061,-26.3878945992474,0.0 -53.0693266,-26.3877711992474,0.0 -53.0695077,-26.3876906992474,0.0 -53.069761,-26.3876212992474,0.0 -53.069802,-26.3876097992474,0.0 -53.0699902,-26.3875570992474,0.0 -53.0703726,-26.3874257992474,0.0 -53.0709937,-26.3872817992474,0.0 -53.0720611,-26.3870525992474,0.0 -53.0722845,-26.3869451992474,0.0 -53.0726603,-26.3867950992474,0.0 -53.0730587,-26.3866180992474,0.0 -53.0735354,-26.3864195992474,0.0 -53.0758615,-26.3869362992474,0.0 -53.0758979,-26.3869443992474,0.0 -53.0759342,-26.3869524992474,0.0 -53.0761088,-26.3870069992474,0.0 -53.076313,-26.3871964992474,0.0 -53.0764615,-26.3873332992474,0.0 -53.0765774,-26.3874400992474,0.0 -53.0770104,-26.3876841992474,0.0 -53.0772991,-26.3878414992474,0.0 -53.0775818,-26.3880095992474,0.0 -53.0778524,-26.3881830992474,0.0 -53.0779478,-26.3884856992474,0.0 -53.0782057,-26.3895428992474,0.0 -53.0785292,-26.3894300992474,0.0 -53.0791183,-26.3892145992474,0.0 -53.0796266,-26.3890505992474,0.0 -53.0799561,-26.3889997992474,0.0 -53.0799733,-26.3890026992474,0.0 -53.0799904,-26.3890055992474,0.0 -53.0801151,-26.3890264992474,0.0 -53.0803167,-26.3890602992474,0.0 -53.0803944,-26.3890732992474,0.0 -53.0809253,-26.3890230992474,0.0 -53.0813296,-26.3888897992474,0.0 -53.0815279,-26.3888425992474,0.0 -53.0816299,-26.3888182992474,0.0 -53.0816634,-26.3888117992474,0.0 -53.0819994,-26.3887468992474,0.0 -53.0820912,-26.3887470992474,0.0 -53.0823264,-26.3887477992474,0.0 -53.0823686,-26.3887478992474,0.0 -53.0829113,-26.3886252992474,0.0 -53.0834422,-26.3885956992474,0.0 -53.0839037,-26.3885969992474,0.0 -53.0844688,-26.3887017992474,0.0 -53.0848954,-26.3887959992474,0.0 -53.0853227,-26.3888694992474,0.0 -53.0856916,-26.3889737992474,0.0 -53.0861526,-26.3891507992474,0.0 -53.0865328,-26.3893377992474,0.0 -53.0865838,-26.3893837992474,0.0 -53.0866221,-26.3894182992474,0.0 -53.0866699,-26.3894613992474,0.0 -53.0867974,-26.3895762992474,0.0 -53.0868958,-26.3896743992474,0.0 -53.0869022,-26.3896808992474,0.0 -53.0869224,-26.3897009992474,0.0 -53.0870293,-26.3898075992474,0.0 -53.0871194,-26.3898974992474,0.0 -53.0871789,-26.3899550992474,0.0 -53.0872445,-26.3900185992474,0.0 -53.0873015,-26.3900736992474,0.0 -53.0873379,-26.3901089992474,0.0 -53.0873737,-26.3901436992474,0.0 -53.087392,-26.3901613992474,0.0 -53.0873985,-26.3901675992474,0.0 -53.0874228,-26.3901911992474,0.0 -53.08743,-26.3901980992474,0.0 -53.0877525,-26.3903746992474,0.0 -53.0878217,-26.3903984992474,0.0 -53.0878382,-26.3904071992474,0.0 -53.0878547,-26.3904158992474,0.0 -53.0882366,-26.3905412992474,0.0 -53.0886976,-26.3907078992474,0.0 -53.089539,-26.3909788992474,0.0 -53.0901847,-26.3911252992474,0.0 -53.0906112,-26.3912503992474,0.0 -53.0912916,-26.3913658992474,0.0 -53.0917758,-26.3914808992474,0.0 -53.0925366,-26.3917101992473,0.0 -53.0931542,-26.3919887992473,0.0 -53.093228,-26.3920220992473,0.0 -53.0932286,-26.3918158992473,0.0 -53.0932232,-26.3910587992474,0.0 -53.0931879,-26.3901408992474,0.0 -53.0932135,-26.3896876992474,0.0 -53.0931908,-26.3865029992474,0.0 -53.0931886,-26.3863908992474,0.0 -53.0931962,-26.3863198992475,0.0 -53.0932451,-26.3846712992475,0.0 -53.0932412,-26.3843961992475,0.0 -53.0932515,-26.3837224992475,0.0 -53.0932705,-26.3824840992475,0.0 -53.0937978,-26.3825457992475,0.0 -53.094237,-26.3823195992475,0.0 -53.0945149,-26.3820101992475,0.0 -53.0948969,-26.3816183992476,0.0 -53.095348,-26.3812887992475,0.0 -53.0958329,-26.3811970992476,0.0 -53.0963869,-26.3811260992476,0.0 -53.0971485,-26.3811073992476,0.0 -53.0977371,-26.3810572992476,0.0 -53.0984985,-26.3810592992476,0.0 -53.0992021,-26.3811437992476,0.0 -53.0996513,-26.3813619992475,0.0 -53.1001462,-26.3817456992475,0.0 -53.1006068,-26.3820465992475,0.0 -53.1009057,-26.3823677992475,0.0 -53.1010893,-26.3826886992475,0.0 -53.1012844,-26.3830301992475,0.0 -53.101549,-26.3832479992475,0.0 -53.101987,-26.3833937992475,0.0 -53.102292,-26.3834614992475,0.0 -53.102552,-26.3835192992475,0.0 -53.1029904,-26.3835203992475,0.0 -53.1033713,-26.3834696992475,0.0 -53.1036719,-26.3832946992475,0.0 -53.1039729,-26.3829750992475,0.0 -53.1044349,-26.3826570992475,0.0 -53.1044816,-26.3826248992475,0.0 -53.1048973,-26.3824825992475,0.0 -53.1048997,-26.3824825992475,0.0 -53.105334,-26.3824836992475,0.0 -53.1056412,-26.3825278992475,0.0 -53.1060372,-26.3825940992475,0.0 -53.1063286,-26.3825078992475,0.0 -53.1066122,-26.3823202992475,0.0 -53.1067828,-26.3820526992475,0.0 -53.106832,-26.3818571992475,0.0 -53.106905,-26.3817297992475,0.0 -53.1070434,-26.3814882992476,0.0 -53.1072543,-26.3812859992476,0.0 -53.1074891,-26.3811850992475,0.0 -53.1076633,-26.3811302992476,0.0 -53.1078776,-26.3810629992476,0.0 -53.1081044,-26.3809403992476,0.0 -53.1082828,-26.3807741992476,0.0 -53.1085259,-26.3806298992476,0.0 -53.1086078,-26.3802895992476,0.0 -53.1085925,-26.3799997992476,0.0 -53.1085693,-26.3796592992476,0.0 -53.1085055,-26.3793982992476,0.0 -53.1084153,-26.3790944992476,0.0 -53.1082791,-26.3786884992476,0.0 -53.1081985,-26.3782972992476,0.0 -53.1081835,-26.3782245992476,0.0 -53.1082491,-26.3779349992476,0.0 -53.108279,-26.3778711992476,0.0 -53.1083335,-26.3777549992476,0.0 -53.1084527,-26.3775007992476,0.0 -53.108688,-26.3772477992476,0.0 -53.1089797,-26.3770456992476,0.0 -53.1092393,-26.3767782992476,0.0 -53.1093855,-26.3765540992476,0.0 -53.1095398,-26.3763516992476,0.0 -53.1097584,-26.3762652992477,0.0 -53.1101464,-26.3762951992477,0.0 -53.1106154,-26.3763035992476,0.0 -53.1109875,-26.3762682992477,0.0 -53.1113917,-26.3762837992477,0.0 -53.1119978,-26.3764229992476,0.0 -53.1124097,-26.3765543992476,0.0 -53.1125357,-26.3765795992476,0.0 -53.1128124,-26.3766350992476,0.0 -53.1130379,-26.3767620992476,0.0 -53.1131999,-26.3768533992476,0.0 -53.1135394,-26.3768903992476,0.0 -53.1137985,-26.3767895992476,0.0 -53.1139805,-26.3767130992476,0.0 -53.1143977,-26.3765374992476,0.0 -53.1149967,-26.3763361992476,0.0 -53.1154011,-26.3762864992477,0.0 -53.1160074,-26.3763386992477,0.0 -53.1163062,-26.3764552992476,0.0 -53.1166372,-26.3766588992476,0.0 -53.1170487,-26.3769496992476,0.0 -53.1174042,-26.3770229992476,0.0 -53.117663,-26.3769608992476,0.0 -53.1177927,-26.3769297992476,0.0 -53.1178676,-26.3768481992476,0.0 -53.1180117,-26.3766912992476,0.0 -53.1182387,-26.3764961992476,0.0 -53.1185337,-26.3761694992477,0.0 -53.1188822,-26.3759167992477,0.0 -53.1192709,-26.3757221992477,0.0 -53.1196835,-26.3756724992477,0.0 -53.1201442,-26.3757242992477,0.0 -53.1204999,-26.3757613992477,0.0 -53.1210338,-26.3756829992477,0.0 -53.1214144,-26.3755099992477,0.0 -53.121668,-26.3752426992477,0.0 -53.1219118,-26.3748302992477,0.0 -53.1223654,-26.3745850992477,0.0 -53.1229316,-26.3745212992477,0.0 -53.1233119,-26.3744424992477,0.0 -53.1238219,-26.3742553992477,0.0 -53.124259,-26.3740969992477,0.0 -53.1242818,-26.3740844992477,0.0 -53.1246153,-26.3739022992477,0.0 -53.125012,-26.3737510992477,0.0 -53.1254656,-26.3734913992477,0.0 -53.1257249,-26.3733180992477,0.0 -53.1261867,-26.3729931992477,0.0 -53.1265114,-26.3727911992477,0.0 -53.1266971,-26.3726756992477,0.0 -53.1269968,-26.3724880992477,0.0 -53.1272239,-26.3722567992477,0.0 -53.1272239,-26.3722454992477,0.0 -53.1272237,-26.3719607992477,0.0 -53.1272795,-26.3713798992478,0.0 -53.1273622,-26.3708353992478,0.0 -53.1276062,-26.3705454992478,0.0 -53.127918,-26.3701952992478,0.0 -53.1282435,-26.3697844992478,0.0 -53.1285419,-26.3693736992478,0.0 -53.1286921,-26.3688414992478,0.0 -53.128869,-26.3684061992478,0.0 -53.129073,-26.3679225992478,0.0 -53.1292499,-26.3674872992478,0.0 -53.1293185,-26.3671363992478,0.0 -53.1292118,-26.3666299992478,0.0 -53.1291047,-26.3663029992478,0.0 -53.129335,-26.3660977992479,0.0 -53.1297946,-26.3660140992479,0.0 -53.1303621,-26.3659548992478,0.0 -53.1308621,-26.3658955992479,0.0 -53.1314838,-26.3658001992479,0.0 -53.1321322,-26.3658016992479,0.0 -53.1324979,-26.3654514992479,0.0 -53.1326748,-26.3650040992479,0.0 -53.1327037,-26.3643747992479,0.0 -53.1327051,-26.3638785992479,0.0 -53.1328819,-26.3634916992479,0.0 -53.1333163,-26.3627544992479,0.0 -53.1337233,-26.3621502992479,0.0 -53.1340355,-26.3615942992479,0.0 -53.1343204,-26.361183399248,0.0 -53.1343246,-26.361177899248,0.0 -53.1347136,-26.360675999248,0.0 -53.135203,-26.359978899248,0.0 -53.1358343,-26.358974399248,0.0 -53.1362208,-26.358359399248,0.0 -53.1364508,-26.358226799248,0.0 -53.1367755,-26.358045999248,0.0 -53.1373573,-26.357708499248,0.0 -53.1378576,-26.357528099248,0.0 -53.1383439,-26.357492899248,0.0 -53.1388707,-26.357481999248,0.0 -53.1393443,-26.357204699248,0.0 -53.1399528,-26.356951899248,0.0 -53.1403047,-26.356698599248,0.0 -53.1405627,-26.3562270992481,0.0 -53.1407122,-26.3558764992481,0.0 -53.1411328,-26.3552359992481,0.0 -53.141445,-26.3546799992481,0.0 -53.1416897,-26.3541358992481,0.0 -53.1419148,-26.3536001992481,0.0 -53.1421986,-26.3533277992481,0.0 -53.1424986,-26.3530276992481,0.0 -53.1426486,-26.3526713992481,0.0 -53.1427612,-26.3524650992481,0.0 -53.1430987,-26.3522963992481,0.0 -53.1434175,-26.3523338992481,0.0 -53.1439239,-26.3521837992481,0.0 -53.1443364,-26.3520337992481,0.0 -53.144599,-26.3518837992481,0.0 -53.1448615,-26.3518462992481,0.0 -53.146193,-26.3519587992481,0.0 -53.1463618,-26.3518649992481,0.0 -53.146493,-26.3517899992481,0.0 -53.1471119,-26.3502897992482,0.0 -53.1471306,-26.3501584992482,0.0 -53.1470556,-26.3498771992482,0.0 -53.1469056,-26.3494458992482,0.0 -53.1466618,-26.3492020992482,0.0 -53.1458742,-26.3484519992482,0.0 -53.1451991,-26.3477205992482,0.0 -53.1440926,-26.3467453992482,0.0 -53.1439614,-26.3465953992482,0.0 -53.1439426,-26.3459390992483,0.0 -53.1441676,-26.3450200992483,0.0 -53.1442051,-26.3449075992483,0.0 -53.1444015,-26.3447827992483,0.0 -53.1449008,-26.3449291992483,0.0 -53.1455081,-26.3450757992483,0.0 -53.146102,-26.3451980992483,0.0 -53.1467774,-26.3451753992483,0.0 -53.1472234,-26.3450674992483,0.0 -53.147629,-26.3448868992483,0.0 -53.1482241,-26.3445976992483,0.0 -53.1486294,-26.3445380992483,0.0 -53.1493185,-26.3444427992483,0.0 -53.1497238,-26.3443952992483,0.0 -53.1503451,-26.3443844992483,0.0 -53.150939,-26.3445189992483,0.0 -53.151384,-26.3447619992483,0.0 -53.1514356,-26.3447834992483,0.0 -53.1517339,-26.3449079992483,0.0 -53.1519627,-26.3452231992483,0.0 -53.1521375,-26.3455019992483,0.0 -53.1524478,-26.3455994992483,0.0 -53.1529609,-26.3456731992483,0.0 -53.1537035,-26.3457474992483,0.0 -53.1540001,-26.3459175992483,0.0 -53.1542419,-26.3464263992482,0.0 -53.154524,-26.3469716992482,0.0 -53.1551441,-26.3474086992482,0.0 -53.1557645,-26.3477125992482,0.0 -53.1560881,-26.3479674992482,0.0 -53.1564258,-26.3480836992482,0.0 -53.1566548,-26.3481623992482,0.0 -53.157316,-26.3483937992482,0.0 -53.1577478,-26.3485399992482,0.0 -53.1582336,-26.3487224992482,0.0 -53.1585976,-26.3489653992482,0.0 -53.1589205,-26.3494380992482,0.0 -53.1591624,-26.3498863992482,0.0 -53.15958,-26.3502987992482,0.0 -53.1601542,-26.3506116992482,0.0 -53.1601599,-26.3506147992482,0.0 -53.1604784,-26.3507411992482,0.0 -53.160896,-26.3509068992482,0.0 -53.1614764,-26.3510896992481,0.0 -53.1626243,-26.3511646992482,0.0 -53.1635021,-26.3512391992482,0.0 -53.1644475,-26.3512653992481,0.0 -53.165447,-26.3512795992482,0.0 -53.167038,-26.3505491992482,0.0 -53.1692948,-26.3480687992482,0.0 -53.169596,-26.3421411992483,0.0 -53.170451,-26.3408058992483,0.0 -53.1704943,-26.3368394992484,0.0 -53.1715283,-26.3358183992485,0.0 -53.1764757,-26.3273324992486,0.0 -53.1781404,-26.3253501992487,0.0 -53.1787482,-26.3233833992487,0.0 -53.1780126,-26.3215957992487,0.0 -53.1798688,-26.3205639992488,0.0 -53.1810597,-26.3184290992488,0.0 -53.1815987,-26.3112796992489,0.0 -53.1798257,-26.307201799249,0.0 -53.1794277,-26.3022807992491,0.0 -53.1798237,-26.2988091992492,0.0 -53.1789252,-26.2954267992493,0.0 -53.1790726,-26.2915647992493,0.0 -53.1810479,-26.2870453992494,0.0 -53.1841252,-26.2822713992495,0.0 -53.1834853,-26.2805691992496,0.0 -53.1840729,-26.2784415992496,0.0 -53.1849614,-26.2772399992496,0.0 -53.1849851,-26.2751362992497,0.0 -53.1898886,-26.2676837992498,0.0 -53.1899649,-26.2667780992498,0.0 -53.189693,-26.2655716992499,0.0 -53.1867648,-26.26010919925,0.0 -53.1871777,-26.25931739925,0.0 -53.1886555,-26.25856669925,0.0 -53.188647,-26.25792219925,0.0 -53.1865717,-26.2543408992501,0.0 -53.1855371,-26.2535597992501,0.0 -53.1814363,-26.2548081992501,0.0 -53.1800124,-26.2534371992501,0.0 -53.1801006,-26.2524277992501,0.0 -53.1813713,-26.2525071992501,0.0 -53.1813725,-26.2507625992502,0.0 -53.1823191,-26.2483780992502,0.0 -53.1846852,-26.2481198992502,0.0 -53.1893271,-26.2456000992503,0.0 -53.1895184,-26.2451489992503,0.0 -53.1889041,-26.2430877992503,0.0 -53.1893498,-26.2421786992503,0.0 -53.1891042,-26.2415111992503,0.0 -53.187898,-26.2408103992504,0.0 -53.186378,-26.2407575992503,0.0 -53.1854575,-26.2392793992504,0.0 -53.1865012,-26.2372978992504,0.0 -53.1866396,-26.2370348992504,0.0 -53.1873197,-26.2357420992505,0.0 -53.1856283,-26.2361647992504,0.0 -53.1833283,-26.2350271992505,0.0 -53.1829059,-26.2333153992505,0.0 -53.1819073,-26.2329937992505,0.0 -53.1812336,-26.2320160992505,0.0 -53.1814087,-26.2304502992506,0.0 -53.1834309,-26.2283732992506,0.0 -53.1866053,-26.2272252992506,0.0 -53.187937,-26.2238157992507,0.0 -53.189234,-26.2226569992507,0.0 -53.1892888,-26.2219695992507,0.0 -53.1874369,-26.2209031992507,0.0 -53.1867648,-26.2195463992508,0.0 -53.1859588,-26.2190273992508,0.0 -53.1825208,-26.2214104992507,0.0 -53.1809532,-26.2233293992507,0.0 -53.1790345,-26.2236532992507,0.0 -53.1782918,-26.2262329992506,0.0 -53.1773445,-26.2270299992506,0.0 -53.1766254,-26.2269635992506,0.0 -53.1763186,-26.2263290992506,0.0 -53.176678,-26.2237580992507,0.0 -53.1758532,-26.2230772992507,0.0 -53.1717058,-26.2244000992507,0.0 -53.1688628,-26.2243800992507,0.0 -53.1719297,-26.2203299992508,0.0 -53.1708705,-26.2198355992508,0.0 -53.1686556,-26.2202903992508,0.0 -53.1675984,-26.2200784992508,0.0 -53.167346,-26.2174316992508,0.0 -53.1678187,-26.2157005992509,0.0 -53.1702389,-26.2159031992508,0.0 -53.1710927,-26.2154514992509,0.0 -53.1700922,-26.2138725992509,0.0 -53.1699002,-26.2115979992509,0.0 -53.1708713,-26.2112425992509,0.0 -53.1727909,-26.2117589992509,0.0 -53.1747121,-26.2131779992509,0.0 -53.1767616,-26.2120254992509,0.0 -53.1774814,-26.210548599251,0.0 -53.1751833,-26.208803399251,0.0 -53.1737048,-26.206899599251,0.0 -53.1724357,-26.207940199251,0.0 -53.1707957,-26.208217699251,0.0 -53.1677563,-26.206598199251,0.0 -53.1648746,-26.207723199251,0.0 -53.1648434,-26.206342999251,0.0 -53.1658223,-26.2051753992511,0.0 -53.1689066,-26.2049684992511,0.0 -53.1709025,-26.2041559992511,0.0 -53.1733766,-26.2052008992511,0.0 -53.1744715,-26.2050158992511,0.0 -53.1751203,-26.2025483992511,0.0 -53.1745284,-26.2010603992512,0.0 -53.1745175,-26.1969374992512,0.0 -53.1742062,-26.1965304992512,0.0 -53.1719914,-26.1970474992512,0.0 -53.1693156,-26.1955564992513,0.0 -53.1662622,-26.1955378992513,0.0 -53.1630939,-26.1949327992513,0.0 -53.1624783,-26.1959517992512,0.0 -53.1624032,-26.1988972992512,0.0 -53.161261,-26.2007967992512,0.0 -53.1598583,-26.2012028992511,0.0 -53.1596763,-26.2011819992512,0.0 -53.157274,-26.2008998992511,0.0 -53.1540093,-26.2020016992511,0.0 -53.15271,-26.2018044992511,0.0 -53.1533029,-26.1993755992512,0.0 -53.1548694,-26.1977511992512,0.0 -53.1559538,-26.1962494992512,0.0 -53.1565104,-26.1937111992513,0.0 -53.1551546,-26.1806885992516,0.0 -53.1542349,-26.1790675992516,0.0 -53.1545823,-26.1786237992516,0.0 -53.155899,-26.1791396992516,0.0 -53.1580154,-26.1812811992515,0.0 -53.1606914,-26.1826875992515,0.0 -53.1628899,-26.1823212992515,0.0 -53.1650808,-26.1803538992516,0.0 -53.1637904,-26.1772551992516,0.0 -53.1624337,-26.1768591992516,0.0 -53.1601574,-26.1731635992517,0.0 -53.1609289,-26.1703322992518,0.0 -53.1551019,-26.1739814992517,0.0 -53.1498156,-26.1743347992517,0.0 -53.1435683,-26.1710892992517,0.0 -53.1437321,-26.1663329992518,0.0 -53.1452332,-26.1649979992519,0.0 -53.1487905,-26.1639711992519,0.0 -53.1475398,-26.1627895992519,0.0 -53.1475946,-26.160759199252,0.0 -53.1486778,-26.160215099252,0.0 -53.1486521,-26.158383599252,0.0 -53.1470699,-26.157407699252,0.0 -53.1444576,-26.157652999252,0.0 -53.1414036,-26.1642657992519,0.0 -53.1399493,-26.1660332992518,0.0 -53.133471,-26.1680188992518,0.0 -53.1314392,-26.1661860992518,0.0 -53.1295144,-26.1644497992519,0.0 -53.1293512,-26.1621861992519,0.0 -53.1335731,-26.1608325992519,0.0 -53.1340925,-26.1548328992521,0.0 -53.1360911,-26.1541146992521,0.0 -53.1359023,-26.1471621992522,0.0 -53.1342763,-26.1457850992523,0.0 -53.1325379,-26.1450110992523,0.0 -53.1304531,-26.1456284992523,0.0 -53.1287095,-26.1485159992522,0.0 -53.1277601,-26.1512539992521,0.0 -53.1242656,-26.1507174992522,0.0 -53.120184,-26.1482024992522,0.0 -53.1186856,-26.1481021992522,0.0 -53.1173983,-26.1487900992522,0.0 -53.1162387,-26.1501728992522,0.0 -53.1144069,-26.1489260992522,0.0 -53.1146194,-26.1472748992522,0.0 -53.116262,-26.1444238992523,0.0 -53.1187696,-26.1447731992523,0.0 -53.1193193,-26.1434768992523,0.0 -53.119343,-26.1416538992523,0.0 -53.1173495,-26.1393212992524,0.0 -53.1164334,-26.1376008992524,0.0 -53.1160968,-26.1356844992525,0.0 -53.1142937,-26.1349062992525,0.0 -53.1128538,-26.1348892992525,0.0 -53.112177,-26.1357957992525,0.0 -53.1106505,-26.1366536992524,0.0 -53.1089018,-26.1364713992524,0.0 -53.105317,-26.1318552992525,0.0 -53.1042089,-26.1278067992526,0.0 -53.1010977,-26.1281195992526,0.0 -53.0973987,-26.1278969992526,0.0 -53.0969585,-26.1264970992526,0.0 -53.1001777,-26.1239612992527,0.0 -53.1104925,-26.1201442992528,0.0 -53.0874085,-26.1192500992528,0.0 -53.0641441,-26.1183443992528,0.0 -53.0567714,-26.1180573992528,0.0</coordinates>
</LinearRing>
</outerBoundaryIs>
</Polygon>
</MultiGeometry>
</Placemark>
</Folder>
</Document></kml>
