<?xml version='1.0' encoding='UTF-8'?>
<kml xmlns:xsd="http://www.w3.org/2001/XMLSchema" xmlns:gx="http://www.google.com/kml/ext/2.2" xmlns:atom="http://www.w3.org/2005/Atom" xmlns="http://www.opengis.net/kml/2.2">
<Document>
<name>ubirata_4128005_localidades_2022</name>
<visibility>1</visibility>
<Schema name="Vilas" id="kml_schema_ft_Vilas">
<SimpleField type="xsd:string" name="CD_UF">
<displayName>CD_UF</displayName>
</SimpleField>
<SimpleField type="xsd:string" name="NM_UF">
<displayName>NM_UF</displayName>
</SimpleField>
<SimpleField type="xsd:string" name="SIGLA_UF">
<displayName>SIGLA_UF</displayName>
</SimpleField>
<SimpleField type="xsd:string" name="CD_MUN">
<displayName>CD_MUN</displayName>
</SimpleField>
<SimpleField type="xsd:string" name="NM_MUN">
<displayName>NM_MUN</displayName>
</SimpleField>
<SimpleField type="xsd:string" name="CD_RGINT">
<displayName>CD_RGINT</displayName>
</SimpleField>
<SimpleField type="xsd:string" name="NM_RGINT">
<displayName>NM_RGINT</displayName>
</SimpleField>
<SimpleField type="xsd:string" name="CD_RGI">
<displayName>CD_RGI</displayName>
</SimpleField>
<SimpleField type="xsd:string" name="NM_RGI">
<displayName>NM_RGI</displayName>
</SimpleField>
<SimpleField type="xsd:string" name="CT_LOCALIDADE">
<displayName>CT_LOCALIDADE</displayName>
</SimpleField>
<SimpleField type="xsd:string" name="CD_LOCALIDADE">
<displayName>CD_LOCALIDADE</displayName>
</SimpleField>
<SimpleField type="xsd:string" name="NM_LOCALIDADE">
<displayName>NM_LOCALIDADE</displayName>
</SimpleField>
<SimpleField type="xsd:string" name="LAT_LOCALIDADE">
<displayName>LAT_LOCALIDADE</displayName>
</SimpleField>
<SimpleField type="xsd:string" name="LONG_LOCALIDADE">
<displayName>LONG_LOCALIDADE</displayName>
</SimpleField>
</Schema>
<Schema name="Localidades" id="kml_schema_ft_Localidades">
<SimpleField type="xsd:string" name="CD_UF">
<displayName>CD_UF</displayName>
</SimpleField>
<SimpleField type="xsd:string" name="NM_UF">
<displayName>NM_UF</displayName>
</SimpleField>
<SimpleField type="xsd:string" name="SIGLA_UF">
<displayName>SIGLA_UF</displayName>
</SimpleField>
<SimpleField type="xsd:string" name="CD_MUN">
<displayName>CD_MUN</displayName>
</SimpleField>
<SimpleField type="xsd:string" name="NM_MUN">
<displayName>NM_MUN</displayName>
</SimpleField>
<SimpleField type="xsd:string" name="CD_RGINT">
<displayName>CD_RGINT</displayName>
</SimpleField>
<SimpleField type="xsd:string" name="NM_RGINT">
<displayName>NM_RGINT</displayName>
</SimpleField>
<SimpleField type="xsd:string" name="CD_RGI">
<displayName>CD_RGI</displayName>
</SimpleField>
<SimpleField type="xsd:string" name="NM_RGI">
<displayName>NM_RGI</displayName>
</SimpleField>
<SimpleField type="xsd:string" name="CT_LOCALIDADE">
<displayName>CT_LOCALIDADE</displayName>
</SimpleField>
<SimpleField type="xsd:string" name="SCT_LOCALIDADE">
<displayName>SCT_LOCALIDADE</displayName>
</SimpleField>
<SimpleField type="xsd:string" name="CD_LOCALIDADE">
<displayName>CD_LOCALIDADE</displayName>
</SimpleField>
<SimpleField type="xsd:string" name="NM_LOCALIDADE">
<displayName>NM_LOCALIDADE</displayName>
</SimpleField>
</Schema>
<Schema name="01. Cidade" id="kml_schema_ft_01._Cidade">
<SimpleField type="xsd:string" name="CD_UF">
<displayName>CD_UF</displayName>
</SimpleField>
<SimpleField type="xsd:string" name="NM_UF">
<displayName>NM_UF</displayName>
</SimpleField>
<SimpleField type="xsd:string" name="SIGLA_UF">
<displayName>SIGLA_UF</displayName>
</SimpleField>
<SimpleField type="xsd:string" name="CD_MUN">
<displayName>CD_MUN</displayName>
</SimpleField>
<SimpleField type="xsd:string" name="NM_MUN">
<displayName>NM_MUN</displayName>
</SimpleField>
<SimpleField type="xsd:string" name="CD_RGINT">
<displayName>CD_RGINT</displayName>
</SimpleField>
<SimpleField type="xsd:string" name="NM_RGINT">
<displayName>NM_RGINT</displayName>
</SimpleField>
<SimpleField type="xsd:string" name="CD_RGI">
<displayName>CD_RGI</displayName>
</SimpleField>
<SimpleField type="xsd:string" name="NM_RGI">
<displayName>NM_RGI</displayName>
</SimpleField>
<SimpleField type="xsd:string" name="CT_LOCALIDADE">
<displayName>CT_LOCALIDADE</displayName>
</SimpleField>
<SimpleField type="xsd:string" name="SCT_LOCALIDADE">
<displayName>SCT_LOCALIDADE</displayName>
</SimpleField>
<SimpleField type="xsd:string" name="CD_LOCALIDADE">
<displayName>CD_LOCALIDADE</displayName>
</SimpleField>
<SimpleField type="xsd:string" name="NM_LOCALIDADE">
<displayName>NM_LOCALIDADE</displayName>
</SimpleField>
<SimpleField type="xsd:string" name="LAT_LOCALIDADE">
<displayName>LAT_LOCALIDADE</displayName>
</SimpleField>
<SimpleField type="xsd:string" name="LONG_LOCALIDADE">
<displayName>LONG_LOCALIDADE</displayName>
</SimpleField>
</Schema>
<Schema name="Município" id="kml_schema_ft_Município">
<SimpleField type="xsd:string" name="CD_UF">
<displayName>CD_UF</displayName>
</SimpleField>
<SimpleField type="xsd:string" name="NM_UF">
<displayName>NM_UF</displayName>
</SimpleField>
<SimpleField type="xsd:string" name="CD_MUN">
<displayName>CD_MUN</displayName>
</SimpleField>
<SimpleField type="xsd:string" name="NM_MUN">
<displayName>NM_MUN</displayName>
</SimpleField>
<SimpleField type="xsd:string" name="CD_RGINT">
<displayName>CD_RGINT</displayName>
</SimpleField>
<SimpleField type="xsd:string" name="NM_RGINT">
<displayName>NM_RGINT</displayName>
</SimpleField>
<SimpleField type="xsd:string" name="CD_RGI">
<displayName>CD_RGI</displayName>
</SimpleField>
<SimpleField type="xsd:string" name="NM_RGI">
<displayName>NM_RGI</displayName>
</SimpleField>
</Schema>
<Folder id="01. Cidade">
<name>01. Cidade</name>
<Folder id="01.03. Sede Municipal">
<name>01.03. Sede Municipal</name>
<Placemark id="01.03. Sede Municipal">
<name>Ubiratã [4128005]</name>
<visibility>1</visibility>
<snippet> </snippet>
<description>&lt;center&gt;&lt;table&gt;&lt;tr&gt;&lt;th colspan='2' align='center'&gt;&lt;em&gt;Atributos&lt;/em&gt;&lt;/th&gt;&lt;/tr&gt;&lt;tr bgcolor="#E3E3F3"&gt;
&lt;th&gt;CD_UF&lt;/th&gt;
&lt;td&gt;41&lt;/td&gt;
&lt;/tr&gt;&lt;tr bgcolor=""&gt;
&lt;th&gt;NM_UF&lt;/th&gt;
&lt;td&gt;Paraná&lt;/td&gt;
&lt;/tr&gt;&lt;tr bgcolor="#E3E3F3"&gt;
&lt;th&gt;SIGLA_UF&lt;/th&gt;
&lt;td&gt;PR&lt;/td&gt;
&lt;/tr&gt;&lt;tr bgcolor=""&gt;
&lt;th&gt;CD_MUN&lt;/th&gt;
&lt;td&gt;4128005&lt;/td&gt;
&lt;/tr&gt;&lt;tr bgcolor="#E3E3F3"&gt;
&lt;th&gt;NM_MUN&lt;/th&gt;
&lt;td&gt;Ubiratã&lt;/td&gt;
&lt;/tr&gt;&lt;tr bgcolor=""&gt;
&lt;th&gt;CD_RGINT&lt;/th&gt;
&lt;td&gt;4104&lt;/td&gt;
&lt;/tr&gt;&lt;tr bgcolor="#E3E3F3"&gt;
&lt;th&gt;NM_RGINT&lt;/th&gt;
&lt;td&gt;Maringá&lt;/td&gt;
&lt;/tr&gt;&lt;tr bgcolor=""&gt;
&lt;th&gt;CD_RGI&lt;/th&gt;
&lt;td&gt;410015&lt;/td&gt;
&lt;/tr&gt;&lt;tr bgcolor="#E3E3F3"&gt;
&lt;th&gt;NM_RGI&lt;/th&gt;
&lt;td&gt;Campo Mourão&lt;/td&gt;
&lt;/tr&gt;&lt;tr bgcolor=""&gt;
&lt;th&gt;CT_LOCALIDADE&lt;/th&gt;
&lt;td&gt;Cidade&lt;/td&gt;
&lt;/tr&gt;&lt;tr bgcolor="#E3E3F3"&gt;
&lt;th&gt;SCT_LOCALIDADE&lt;/th&gt;
&lt;td&gt;Sede Municipal&lt;/td&gt;
&lt;/tr&gt;&lt;tr bgcolor=""&gt;
&lt;th&gt;CD_LOCALIDADE&lt;/th&gt;
&lt;td&gt;4128005&lt;/td&gt;
&lt;/tr&gt;&lt;tr bgcolor="#E3E3F3"&gt;
&lt;th&gt;NM_LOCALIDADE&lt;/th&gt;
&lt;td&gt;Ubiratã&lt;/td&gt;
&lt;/tr&gt;&lt;tr bgcolor=""&gt;
&lt;th&gt;LAT_LOCALIDADE&lt;/th&gt;
&lt;td&gt;-24.5393&lt;/td&gt;
&lt;/tr&gt;&lt;tr bgcolor="#E3E3F3"&gt;
&lt;th&gt;LONG_LOCALIDADE&lt;/th&gt;
&lt;td&gt;-52.9905&lt;/td&gt;
&lt;/tr&gt;&lt;/table&gt;&lt;/center&gt;</description>
<Style>
<IconStyle>
<color>ff00aaff</color>
<scale>1.0</scale>
<Icon>
<href>http://maps.google.com/mapfiles/kml/shapes/placemark_circle.png</href>
</Icon>
</IconStyle>
<LabelStyle>
<scale>1.0</scale>
</LabelStyle>
<LineStyle>
<color>ffffffff</color>
<width>3</width>
<gx:labelVisibility>1</gx:labelVisibility>
</LineStyle>
<PolyStyle>
<color>00ffffff</color>
</PolyStyle>
</Style>
<ExtendedData>
<SchemaData schemaUrl="#kml_schema_ft_01._Cidade">
<SimpleData name="CD_UF">41</SimpleData>
<SimpleData name="NM_UF">Paraná</SimpleData>
<SimpleData name="SIGLA_UF">PR</SimpleData>
<SimpleData name="CD_MUN">4128005</SimpleData>
<SimpleData name="NM_MUN">Ubiratã</SimpleData>
<SimpleData name="CD_RGINT">4104</SimpleData>
<SimpleData name="NM_RGINT">Maringá</SimpleData>
<SimpleData name="CD_RGI">410015</SimpleData>
<SimpleData name="NM_RGI">Campo Mourão</SimpleData>
<SimpleData name="CT_LOCALIDADE">Cidade</SimpleData>
<SimpleData name="SCT_LOCALIDADE">Sede Municipal</SimpleData>
<SimpleData name="CD_LOCALIDADE">4128005</SimpleData>
<SimpleData name="NM_LOCALIDADE">Ubiratã</SimpleData>
<SimpleData name="LAT_LOCALIDADE">-24.5393</SimpleData>
<SimpleData name="LONG_LOCALIDADE">-52.9905</SimpleData>
</SchemaData>
</ExtendedData>
<Point>
<extrude>0</extrude>
<coordinates>-52.99055,-24.5392769992857,0.0</coordinates>
</Point>
</Placemark>
</Folder>
</Folder>
<Folder id="04. Vilas">
<name>04. Vilas</name>
<Placemark id="04. Vilas">
<name>Yolanda [412800510]</name>
<visibility>1</visibility>
<snippet> </snippet>
<description>&lt;center&gt;&lt;table&gt;&lt;tr&gt;&lt;th colspan='2' align='center'&gt;&lt;em&gt;Atributos&lt;/em&gt;&lt;/th&gt;&lt;/tr&gt;&lt;tr bgcolor="#E3E3F3"&gt;
&lt;th&gt;CD_UF&lt;/th&gt;
&lt;td&gt;41&lt;/td&gt;
&lt;/tr&gt;&lt;tr bgcolor=""&gt;
&lt;th&gt;NM_UF&lt;/th&gt;
&lt;td&gt;Paraná&lt;/td&gt;
&lt;/tr&gt;&lt;tr bgcolor="#E3E3F3"&gt;
&lt;th&gt;SIGLA_UF&lt;/th&gt;
&lt;td&gt;PR&lt;/td&gt;
&lt;/tr&gt;&lt;tr bgcolor=""&gt;
&lt;th&gt;CD_MUN&lt;/th&gt;
&lt;td&gt;4128005&lt;/td&gt;
&lt;/tr&gt;&lt;tr bgcolor="#E3E3F3"&gt;
&lt;th&gt;NM_MUN&lt;/th&gt;
&lt;td&gt;Ubiratã&lt;/td&gt;
&lt;/tr&gt;&lt;tr bgcolor=""&gt;
&lt;th&gt;CD_RGINT&lt;/th&gt;
&lt;td&gt;4104&lt;/td&gt;
&lt;/tr&gt;&lt;tr bgcolor="#E3E3F3"&gt;
&lt;th&gt;NM_RGINT&lt;/th&gt;
&lt;td&gt;Maringá&lt;/td&gt;
&lt;/tr&gt;&lt;tr bgcolor=""&gt;
&lt;th&gt;CD_RGI&lt;/th&gt;
&lt;td&gt;410015&lt;/td&gt;
&lt;/tr&gt;&lt;tr bgcolor="#E3E3F3"&gt;
&lt;th&gt;NM_RGI&lt;/th&gt;
&lt;td&gt;Campo Mourão&lt;/td&gt;
&lt;/tr&gt;&lt;tr bgcolor=""&gt;
&lt;th&gt;CT_LOCALIDADE&lt;/th&gt;
&lt;td&gt;Vila&lt;/td&gt;
&lt;/tr&gt;&lt;tr bgcolor="#E3E3F3"&gt;
&lt;th&gt;CD_LOCALIDADE&lt;/th&gt;
&lt;td&gt;412800510&lt;/td&gt;
&lt;/tr&gt;&lt;tr bgcolor=""&gt;
&lt;th&gt;NM_LOCALIDADE&lt;/th&gt;
&lt;td&gt;Yolanda&lt;/td&gt;
&lt;/tr&gt;&lt;tr bgcolor="#E3E3F3"&gt;
&lt;th&gt;LAT_LOCALIDADE&lt;/th&gt;
&lt;td&gt;-24.4538&lt;/td&gt;
&lt;/tr&gt;&lt;tr bgcolor=""&gt;
&lt;th&gt;LONG_LOCALIDADE&lt;/th&gt;
&lt;td&gt;-53.0779&lt;/td&gt;
&lt;/tr&gt;&lt;/table&gt;&lt;/center&gt;</description>
<Style>
<IconStyle>
<color>ffff5400</color>
<scale>1.0</scale>
<Icon>
<href>http://maps.google.com/mapfiles/kml/shapes/placemark_circle.png</href>
</Icon>
</IconStyle>
<LabelStyle>
<scale>0.9</scale>
</LabelStyle>
<LineStyle>
<color>72ffffff</color>
<width>1.0</width>
<gx:labelVisibility>1</gx:labelVisibility>
</LineStyle>
<PolyStyle>
<color>660054ff</color>
</PolyStyle>
</Style>
<ExtendedData>
<SchemaData schemaUrl="#kml_schema_ft_Vilas">
<SimpleData name="CD_UF">41</SimpleData>
<SimpleData name="NM_UF">Paraná</SimpleData>
<SimpleData name="SIGLA_UF">PR</SimpleData>
<SimpleData name="CD_MUN">4128005</SimpleData>
<SimpleData name="NM_MUN">Ubiratã</SimpleData>
<SimpleData name="CD_RGINT">4104</SimpleData>
<SimpleData name="NM_RGINT">Maringá</SimpleData>
<SimpleData name="CD_RGI">410015</SimpleData>
<SimpleData name="NM_RGI">Campo Mourão</SimpleData>
<SimpleData name="CT_LOCALIDADE">Vila</SimpleData>
<SimpleData name="CD_LOCALIDADE">412800510</SimpleData>
<SimpleData name="NM_LOCALIDADE">Yolanda</SimpleData>
<SimpleData name="LAT_LOCALIDADE">-24.4538</SimpleData>
<SimpleData name="LONG_LOCALIDADE">-53.0779</SimpleData>
</SchemaData>
</ExtendedData>
<Point>
<extrude>0</extrude>
<coordinates>-53.077866,-24.4537509992875,0.0</coordinates>
</Point>
</Placemark>
</Folder>
<Folder id="12. Outras Localidades">
<name>12. Outras Localidades</name>
<Placemark id="12. Outras Localidades">
<name>Vila Rural São Francisco [412800500001]</name>
<visibility>1</visibility>
<snippet> </snippet>
<description>&lt;center&gt;&lt;table&gt;&lt;tr&gt;&lt;th colspan='2' align='center'&gt;&lt;em&gt;Attributes&lt;/em&gt;&lt;/th&gt;&lt;/tr&gt;&lt;tr bgcolor="#E3E3F3"&gt;
&lt;th&gt;CD_UF&lt;/th&gt;
&lt;td&gt;41&lt;/td&gt;
&lt;/tr&gt;&lt;tr bgcolor=""&gt;
&lt;th&gt;NM_UF&lt;/th&gt;
&lt;td&gt;Paraná&lt;/td&gt;
&lt;/tr&gt;&lt;tr bgcolor="#E3E3F3"&gt;
&lt;th&gt;SIGLA_UF&lt;/th&gt;
&lt;td&gt;PR&lt;/td&gt;
&lt;/tr&gt;&lt;tr bgcolor=""&gt;
&lt;th&gt;CD_MUN&lt;/th&gt;
&lt;td&gt;4128005&lt;/td&gt;
&lt;/tr&gt;&lt;tr bgcolor="#E3E3F3"&gt;
&lt;th&gt;NM_MUN&lt;/th&gt;
&lt;td&gt;Ubiratã&lt;/td&gt;
&lt;/tr&gt;&lt;tr bgcolor=""&gt;
&lt;th&gt;CD_RGINT&lt;/th&gt;
&lt;td&gt;4104&lt;/td&gt;
&lt;/tr&gt;&lt;tr bgcolor="#E3E3F3"&gt;
&lt;th&gt;NM_RGINT&lt;/th&gt;
&lt;td&gt;Maringá&lt;/td&gt;
&lt;/tr&gt;&lt;tr bgcolor=""&gt;
&lt;th&gt;CD_RGI&lt;/th&gt;
&lt;td&gt;410015&lt;/td&gt;
&lt;/tr&gt;&lt;tr bgcolor="#E3E3F3"&gt;
&lt;th&gt;NM_RGI&lt;/th&gt;
&lt;td&gt;Campo Mourão&lt;/td&gt;
&lt;/tr&gt;&lt;tr bgcolor=""&gt;
&lt;th&gt;CT_LOCALIDADE&lt;/th&gt;
&lt;td&gt;Outras Localidades&lt;/td&gt;
&lt;/tr&gt;&lt;tr bgcolor="#E3E3F3"&gt;
&lt;th&gt;SCT_LOCALIDADE&lt;/th&gt;
&lt;td&gt;&lt;/td&gt;
&lt;/tr&gt;&lt;tr bgcolor=""&gt;
&lt;th&gt;CD_LOCALIDADE&lt;/th&gt;
&lt;td&gt;412800500001&lt;/td&gt;
&lt;/tr&gt;&lt;tr bgcolor="#E3E3F3"&gt;
&lt;th&gt;NM_LOCALIDADE&lt;/th&gt;
&lt;td&gt;Vila Rural São Francisco&lt;/td&gt;
&lt;/tr&gt;&lt;/table&gt;&lt;/center&gt;</description>
<Style>
<IconStyle>
<color>ff0069d3</color>
<scale>0.6</scale>
<Icon>
<href>http://maps.google.com/mapfiles/kml/shapes/placemark_circle.png</href>
</Icon>
</IconStyle>
<LabelStyle>
<scale>0.6</scale>
</LabelStyle>
<LineStyle>
<width>1.0</width>
<gx:labelVisibility>1</gx:labelVisibility>
</LineStyle>
</Style>
<ExtendedData>
<SchemaData schemaUrl="#kml_schema_ft_Localidades">
<SimpleData name="CD_UF">41</SimpleData>
<SimpleData name="NM_UF">Paraná</SimpleData>
<SimpleData name="SIGLA_UF">PR</SimpleData>
<SimpleData name="CD_MUN">4128005</SimpleData>
<SimpleData name="NM_MUN">Ubiratã</SimpleData>
<SimpleData name="CD_RGINT">4104</SimpleData>
<SimpleData name="NM_RGINT">Maringá</SimpleData>
<SimpleData name="CD_RGI">410015</SimpleData>
<SimpleData name="NM_RGI">Campo Mourão</SimpleData>
<SimpleData name="CT_LOCALIDADE">Outras Localidades</SimpleData>
<SimpleData name="CD_LOCALIDADE">412800500001</SimpleData>
<SimpleData name="NM_LOCALIDADE">Vila Rural São Francisco</SimpleData>
</SchemaData>
</ExtendedData>
<Point>
<extrude>0</extrude>
<coordinates>-52.9619416,-24.5018900992865,0.0</coordinates>
</Point>
</Placemark>
<Placemark id="12. Outras Localidades">
<name>Comunidade São João [412800500002]</name>
<visibility>1</visibility>
<snippet> </snippet>
<description>&lt;center&gt;&lt;table&gt;&lt;tr&gt;&lt;th colspan='2' align='center'&gt;&lt;em&gt;Attributes&lt;/em&gt;&lt;/th&gt;&lt;/tr&gt;&lt;tr bgcolor="#E3E3F3"&gt;
&lt;th&gt;CD_UF&lt;/th&gt;
&lt;td&gt;41&lt;/td&gt;
&lt;/tr&gt;&lt;tr bgcolor=""&gt;
&lt;th&gt;NM_UF&lt;/th&gt;
&lt;td&gt;Paraná&lt;/td&gt;
&lt;/tr&gt;&lt;tr bgcolor="#E3E3F3"&gt;
&lt;th&gt;SIGLA_UF&lt;/th&gt;
&lt;td&gt;PR&lt;/td&gt;
&lt;/tr&gt;&lt;tr bgcolor=""&gt;
&lt;th&gt;CD_MUN&lt;/th&gt;
&lt;td&gt;4128005&lt;/td&gt;
&lt;/tr&gt;&lt;tr bgcolor="#E3E3F3"&gt;
&lt;th&gt;NM_MUN&lt;/th&gt;
&lt;td&gt;Ubiratã&lt;/td&gt;
&lt;/tr&gt;&lt;tr bgcolor=""&gt;
&lt;th&gt;CD_RGINT&lt;/th&gt;
&lt;td&gt;4104&lt;/td&gt;
&lt;/tr&gt;&lt;tr bgcolor="#E3E3F3"&gt;
&lt;th&gt;NM_RGINT&lt;/th&gt;
&lt;td&gt;Maringá&lt;/td&gt;
&lt;/tr&gt;&lt;tr bgcolor=""&gt;
&lt;th&gt;CD_RGI&lt;/th&gt;
&lt;td&gt;410015&lt;/td&gt;
&lt;/tr&gt;&lt;tr bgcolor="#E3E3F3"&gt;
&lt;th&gt;NM_RGI&lt;/th&gt;
&lt;td&gt;Campo Mourão&lt;/td&gt;
&lt;/tr&gt;&lt;tr bgcolor=""&gt;
&lt;th&gt;CT_LOCALIDADE&lt;/th&gt;
&lt;td&gt;Outras Localidades&lt;/td&gt;
&lt;/tr&gt;&lt;tr bgcolor="#E3E3F3"&gt;
&lt;th&gt;SCT_LOCALIDADE&lt;/th&gt;
&lt;td&gt;&lt;/td&gt;
&lt;/tr&gt;&lt;tr bgcolor=""&gt;
&lt;th&gt;CD_LOCALIDADE&lt;/th&gt;
&lt;td&gt;412800500002&lt;/td&gt;
&lt;/tr&gt;&lt;tr bgcolor="#E3E3F3"&gt;
&lt;th&gt;NM_LOCALIDADE&lt;/th&gt;
&lt;td&gt;Comunidade São João&lt;/td&gt;
&lt;/tr&gt;&lt;/table&gt;&lt;/center&gt;</description>
<Style>
<IconStyle>
<color>ff0069d3</color>
<scale>0.6</scale>
<Icon>
<href>http://maps.google.com/mapfiles/kml/shapes/placemark_circle.png</href>
</Icon>
</IconStyle>
<LabelStyle>
<scale>0.6</scale>
</LabelStyle>
<LineStyle>
<width>1.0</width>
<gx:labelVisibility>1</gx:labelVisibility>
</LineStyle>
</Style>
<ExtendedData>
<SchemaData schemaUrl="#kml_schema_ft_Localidades">
<SimpleData name="CD_UF">41</SimpleData>
<SimpleData name="NM_UF">Paraná</SimpleData>
<SimpleData name="SIGLA_UF">PR</SimpleData>
<SimpleData name="CD_MUN">4128005</SimpleData>
<SimpleData name="NM_MUN">Ubiratã</SimpleData>
<SimpleData name="CD_RGINT">4104</SimpleData>
<SimpleData name="NM_RGINT">Maringá</SimpleData>
<SimpleData name="CD_RGI">410015</SimpleData>
<SimpleData name="NM_RGI">Campo Mourão</SimpleData>
<SimpleData name="CT_LOCALIDADE">Outras Localidades</SimpleData>
<SimpleData name="CD_LOCALIDADE">412800500002</SimpleData>
<SimpleData name="NM_LOCALIDADE">Comunidade São João</SimpleData>
</SchemaData>
</ExtendedData>
<Point>
<extrude>0</extrude>
<coordinates>-52.9811617,-24.6116244992841,0.0</coordinates>
</Point>
</Placemark>
<Placemark id="12. Outras Localidades">
<name>São Zacarias [412800500003]</name>
<visibility>1</visibility>
<snippet> </snippet>
<description>&lt;center&gt;&lt;table&gt;&lt;tr&gt;&lt;th colspan='2' align='center'&gt;&lt;em&gt;Attributes&lt;/em&gt;&lt;/th&gt;&lt;/tr&gt;&lt;tr bgcolor="#E3E3F3"&gt;
&lt;th&gt;CD_UF&lt;/th&gt;
&lt;td&gt;41&lt;/td&gt;
&lt;/tr&gt;&lt;tr bgcolor=""&gt;
&lt;th&gt;NM_UF&lt;/th&gt;
&lt;td&gt;Paraná&lt;/td&gt;
&lt;/tr&gt;&lt;tr bgcolor="#E3E3F3"&gt;
&lt;th&gt;SIGLA_UF&lt;/th&gt;
&lt;td&gt;PR&lt;/td&gt;
&lt;/tr&gt;&lt;tr bgcolor=""&gt;
&lt;th&gt;CD_MUN&lt;/th&gt;
&lt;td&gt;4128005&lt;/td&gt;
&lt;/tr&gt;&lt;tr bgcolor="#E3E3F3"&gt;
&lt;th&gt;NM_MUN&lt;/th&gt;
&lt;td&gt;Ubiratã&lt;/td&gt;
&lt;/tr&gt;&lt;tr bgcolor=""&gt;
&lt;th&gt;CD_RGINT&lt;/th&gt;
&lt;td&gt;4104&lt;/td&gt;
&lt;/tr&gt;&lt;tr bgcolor="#E3E3F3"&gt;
&lt;th&gt;NM_RGINT&lt;/th&gt;
&lt;td&gt;Maringá&lt;/td&gt;
&lt;/tr&gt;&lt;tr bgcolor=""&gt;
&lt;th&gt;CD_RGI&lt;/th&gt;
&lt;td&gt;410015&lt;/td&gt;
&lt;/tr&gt;&lt;tr bgcolor="#E3E3F3"&gt;
&lt;th&gt;NM_RGI&lt;/th&gt;
&lt;td&gt;Campo Mourão&lt;/td&gt;
&lt;/tr&gt;&lt;tr bgcolor=""&gt;
&lt;th&gt;CT_LOCALIDADE&lt;/th&gt;
&lt;td&gt;Outras Localidades&lt;/td&gt;
&lt;/tr&gt;&lt;tr bgcolor="#E3E3F3"&gt;
&lt;th&gt;SCT_LOCALIDADE&lt;/th&gt;
&lt;td&gt;&lt;/td&gt;
&lt;/tr&gt;&lt;tr bgcolor=""&gt;
&lt;th&gt;CD_LOCALIDADE&lt;/th&gt;
&lt;td&gt;412800500003&lt;/td&gt;
&lt;/tr&gt;&lt;tr bgcolor="#E3E3F3"&gt;
&lt;th&gt;NM_LOCALIDADE&lt;/th&gt;
&lt;td&gt;São Zacarias&lt;/td&gt;
&lt;/tr&gt;&lt;/table&gt;&lt;/center&gt;</description>
<Style>
<IconStyle>
<color>ff0069d3</color>
<scale>0.6</scale>
<Icon>
<href>http://maps.google.com/mapfiles/kml/shapes/placemark_circle.png</href>
</Icon>
</IconStyle>
<LabelStyle>
<scale>0.6</scale>
</LabelStyle>
<LineStyle>
<width>1.0</width>
<gx:labelVisibility>1</gx:labelVisibility>
</LineStyle>
</Style>
<ExtendedData>
<SchemaData schemaUrl="#kml_schema_ft_Localidades">
<SimpleData name="CD_UF">41</SimpleData>
<SimpleData name="NM_UF">Paraná</SimpleData>
<SimpleData name="SIGLA_UF">PR</SimpleData>
<SimpleData name="CD_MUN">4128005</SimpleData>
<SimpleData name="NM_MUN">Ubiratã</SimpleData>
<SimpleData name="CD_RGINT">4104</SimpleData>
<SimpleData name="NM_RGINT">Maringá</SimpleData>
<SimpleData name="CD_RGI">410015</SimpleData>
<SimpleData name="NM_RGI">Campo Mourão</SimpleData>
<SimpleData name="CT_LOCALIDADE">Outras Localidades</SimpleData>
<SimpleData name="CD_LOCALIDADE">412800500003</SimpleData>
<SimpleData name="NM_LOCALIDADE">São Zacarias</SimpleData>
</SchemaData>
</ExtendedData>
<Point>
<extrude>0</extrude>
<coordinates>-53.092698,-24.5931569992845,0.0</coordinates>
</Point>
</Placemark>
</Folder>
<Folder id="13. Referência">
<name>13. Referência</name>
<Placemark id="13. Referência">
<name>Ubiratã [4128005]</name>
<visibility>1</visibility>
<snippet> </snippet>
<description>&lt;center&gt;&lt;table&gt;&lt;tr&gt;&lt;th colspan='2' align='center'&gt;&lt;em&gt;Attributes&lt;/em&gt;&lt;/th&gt;&lt;/tr&gt;&lt;tr bgcolor="#E3E3F3"&gt;
&lt;th&gt;CD_UF&lt;/th&gt;
&lt;td&gt;41&lt;/td&gt;
&lt;/tr&gt;&lt;tr bgcolor=""&gt;
&lt;th&gt;NM_UF&lt;/th&gt;
&lt;td&gt;Paraná&lt;/td&gt;
&lt;/tr&gt;&lt;tr bgcolor="#E3E3F3"&gt;
&lt;th&gt;CD_MUN&lt;/th&gt;
&lt;td&gt;4128005&lt;/td&gt;
&lt;/tr&gt;&lt;tr bgcolor=""&gt;
&lt;th&gt;NM_MUN&lt;/th&gt;
&lt;td&gt;Ubiratã&lt;/td&gt;
&lt;/tr&gt;&lt;tr bgcolor="#E3E3F3"&gt;
&lt;th&gt;CD_RGINT&lt;/th&gt;
&lt;td&gt;4104&lt;/td&gt;
&lt;/tr&gt;&lt;tr bgcolor=""&gt;
&lt;th&gt;NM_RGINT&lt;/th&gt;
&lt;td&gt;Maringá&lt;/td&gt;
&lt;/tr&gt;&lt;tr bgcolor="#E3E3F3"&gt;
&lt;th&gt;CD_RGI&lt;/th&gt;
&lt;td&gt;410015&lt;/td&gt;
&lt;/tr&gt;&lt;tr bgcolor=""&gt;
&lt;th&gt;NM_RGI&lt;/th&gt;
&lt;td&gt;Campo Mourão&lt;/td&gt;
&lt;/tr&gt;&lt;/table&gt;&lt;/center&gt;</description>
<Style>
<IconStyle>
<scale>0.7</scale>
</IconStyle>
<LabelStyle>
<scale>0.7</scale>
</LabelStyle>
<LineStyle>
<color>ffffffff</color>
<width>3</width>
<gx:labelVisibility>1</gx:labelVisibility>
</LineStyle>
<PolyStyle>
<color>00ffffff</color>
</PolyStyle>
</Style>
<ExtendedData>
<SchemaData schemaUrl="#kml_schema_ft_Município">
<SimpleData name="CD_UF">41</SimpleData>
<SimpleData name="NM_UF">Paraná</SimpleData>
<SimpleData name="CD_MUN">4128005</SimpleData>
<SimpleData name="NM_MUN">Ubiratã</SimpleData>
<SimpleData name="CD_RGINT">4104</SimpleData>
<SimpleData name="NM_RGINT">Maringá</SimpleData>
<SimpleData name="CD_RGI">410015</SimpleData>
<SimpleData name="NM_RGI">Campo Mourão</SimpleData>
</SchemaData>
</ExtendedData>
<MultiGeometry>
<Polygon>
<extrude>0</extrude>
<tessellate>1</tessellate>
<outerBoundaryIs>
<LinearRing>
<coordinates>-52.9751624,-24.4126382992884,0.0 -52.9711913,-24.4128225992884,0.0 -52.9677517,-24.4134942992884,0.0 -52.9654385,-24.4145924992884,0.0 -52.9641011,-24.4166884992883,0.0 -52.9638544,-24.4168329992883,0.0 -52.9627359,-24.4168776992883,0.0 -52.9619688,-24.4176000992883,0.0 -52.9601908,-24.4172673992883,0.0 -52.9571115,-24.4191879992883,0.0 -52.951703,-24.4193139992883,0.0 -52.9501195,-24.4195521992883,0.0 -52.9412345,-24.4199948992883,0.0 -52.9376848,-24.4196422992883,0.0 -52.9353914,-24.4202111992883,0.0 -52.926128,-24.4202739992883,0.0 -52.8943301,-24.4227684992882,0.0 -52.891086,-24.4220830992882,0.0 -52.8891515,-24.4220661992882,0.0 -52.888412,-24.4220589992882,0.0 -52.8852577,-24.4231722992882,0.0 -52.8818547,-24.4476663992877,0.0 -52.8769128,-24.4832109992869,0.0 -52.8730222,-24.5111929992863,0.0 -52.8750749,-24.5080704992864,0.0 -52.8766332,-24.5078121992864,0.0 -52.8804297,-24.5064141992864,0.0 -52.8813862,-24.5066008992864,0.0 -52.8817478,-24.5075504992864,0.0 -52.8817659,-24.5087403992863,0.0 -52.8804218,-24.5115377992863,0.0 -52.8782862,-24.5139068992862,0.0 -52.8783007,-24.5149396992862,0.0 -52.8789267,-24.5161222992862,0.0 -52.8805842,-24.5168179992862,0.0 -52.8823275,-24.5173119992862,0.0 -52.8835521,-24.5180901992861,0.0 -52.8873832,-24.5188369992861,0.0 -52.8880022,-24.5197035992861,0.0 -52.8875855,-24.5208604992861,0.0 -52.8847563,-24.523198399286,0.0 -52.8819975,-24.524264799286,0.0 -52.8812294,-24.525187999286,0.0 -52.880477,-24.527025699286,0.0 -52.8816222,-24.5282022992859,0.0 -52.8827547,-24.5285861992859,0.0 -52.8845041,-24.5295162992859,0.0 -52.8869335,-24.5294457992859,0.0 -52.890456,-24.5328973992858,0.0 -52.8914178,-24.5332826992858,0.0 -52.8957104,-24.5360475992858,0.0 -52.8970944,-24.5357922992858,0.0 -52.89847,-24.5349013992858,0.0 -52.8991429,-24.5334629992858,0.0 -52.8993839,-24.5321900992858,0.0 -52.8999785,-24.5313476992859,0.0 -52.9010935,-24.5304603992859,0.0 -52.903718,-24.5292842992859,0.0 -52.9041946,-24.5290710992859,0.0 -52.9050683,-24.5293770992859,0.0 -52.9064208,-24.5327341992858,0.0 -52.9082589,-24.5338243992858,0.0 -52.9088856,-24.5350863992858,0.0 -52.912337,-24.5395335992857,0.0 -52.9128032,-24.5416699992856,0.0 -52.911887,-24.5442234992856,0.0 -52.9096478,-24.5453247992856,0.0 -52.9066249,-24.5463148992855,0.0 -52.9045459,-24.5465804992855,0.0 -52.9014133,-24.5459826992855,0.0 -52.900545,-24.5459555992856,0.0 -52.8998395,-24.5452499992856,0.0 -52.9011644,-24.5410232992856,0.0 -52.9008003,-24.5397568992857,0.0 -52.8998426,-24.5395711992857,0.0 -52.8988134,-24.5404563992857,0.0 -52.897711,-24.5421381992856,0.0 -52.8965141,-24.5433453992856,0.0 -52.8966997,-24.5441374992856,0.0 -52.8964611,-24.5455700992855,0.0 -52.8970804,-24.5463148992855,0.0 -52.9002314,-24.5481829992855,0.0 -52.9015633,-24.5500720992855,0.0 -52.9022806,-24.5516921992854,0.0 -52.9022251,-24.5531902992854,0.0 -52.9021578,-24.5550294992853,0.0 -52.9027841,-24.5562120992853,0.0 -52.9044347,-24.5564298992853,0.0 -52.9055698,-24.5568930992853,0.0 -52.9056698,-24.5577639992853,0.0 -52.9061163,-24.5586328992853,0.0 -52.9068207,-24.5591399992853,0.0 -52.9076823,-24.5588130992853,0.0 -52.9088777,-24.5574460992853,0.0 -52.9111718,-24.5542399992854,0.0 -52.9124571,-24.5533077992854,0.0 -52.9136769,-24.5534537992854,0.0 -52.9147329,-24.5543920992854,0.0 -52.9172924,-24.5573784992853,0.0 -52.9200896,-24.5585738992853,0.0 -52.9197592,-24.5596899992852,0.0 -52.9198658,-24.5609598992852,0.0 -52.9204927,-24.5622218992852,0.0 -52.9205049,-24.5630948992852,0.0 -52.919651,-24.5640193992852,0.0 -52.9178388,-24.5646789992851,0.0 -52.914291,-24.5653592992851,0.0 -52.9136916,-24.5658433992851,0.0 -52.9136986,-24.5663985992851,0.0 -52.9133659,-24.5673177992851,0.0 -52.9094766,-24.5683196992851,0.0 -52.9079243,-24.569053199285,0.0 -52.902134,-24.570676599285,0.0 -52.9021423,-24.571311199285,0.0 -52.9029261,-24.571541699285,0.0 -52.9052711,-24.571509999285,0.0 -52.9074607,-24.572872699285,0.0 -52.9096637,-24.5749892992849,0.0 -52.9153801,-24.5741593992849,0.0 -52.9186782,-24.5741993992849,0.0 -52.920236,-24.5738602992849,0.0 -52.9231541,-24.571680399285,0.0 -52.9238499,-24.571709799285,0.0 -52.9242924,-24.572260899285,0.0 -52.9238829,-24.5738547992849,0.0 -52.9228684,-24.5757738992849,0.0 -52.9226362,-24.5776425992849,0.0 -52.9225281,-24.5818528992848,0.0 -52.9234559,-24.5858132992847,0.0 -52.9245022,-24.5860789992847,0.0 -52.9280389,-24.5846805992847,0.0 -52.9300273,-24.5841016992847,0.0 -52.9322693,-24.5830794992847,0.0 -52.9331119,-24.5814010992848,0.0 -52.9353186,-24.5781163992848,0.0 -52.9360127,-24.5781077992849,0.0 -52.9367274,-24.5794081992848,0.0 -52.9377896,-24.5808238992848,0.0 -52.9389528,-24.5830328992847,0.0 -52.9404567,-24.5847621992847,0.0 -52.9405508,-24.5853161992847,0.0 -52.9386659,-24.5869683992847,0.0 -52.9370279,-24.5877836992846,0.0 -52.9315008,-24.5895237992846,0.0 -52.9299526,-24.5904570992846,0.0 -52.9277666,-24.5950903992845,0.0 -52.9275288,-24.5966836992845,0.0 -52.9271051,-24.5972836992844,0.0 -52.9264095,-24.5972137992844,0.0 -52.9241401,-24.5964464992845,0.0 -52.9227357,-24.5954335992845,0.0 -52.9202886,-24.5944320992845,0.0 -52.9193344,-24.5944848992845,0.0 -52.9179576,-24.5952151992845,0.0 -52.9161543,-24.5965110992845,0.0 -52.9153023,-24.5976332992844,0.0 -52.9152022,-24.5979006992844,0.0 -52.9148859,-24.5987505992844,0.0 -52.9147311,-24.5999815992844,0.0 -52.9160591,-24.6017134992844,0.0 -52.9179816,-24.6024043992843,0.0 -52.9199701,-24.6019808992843,0.0 -52.9233228,-24.5997544992844,0.0 -52.9245307,-24.5992620992844,0.0 -52.9267889,-24.5993937992844,0.0 -52.9286051,-24.5988921992844,0.0 -52.9302614,-24.5993082992844,0.0 -52.9322683,-24.6000771992844,0.0 -52.9345219,-24.5998097992844,0.0 -52.9354691,-24.5993199992844,0.0 -52.935459,-24.5985281992844,0.0 -52.9349096,-24.5967053992845,0.0 -52.9351433,-24.5949955992845,0.0 -52.9366801,-24.5933093992845,0.0 -52.9390846,-24.5915299992846,0.0 -52.9405468,-24.5907169992846,0.0 -52.9410682,-24.5907088992846,0.0 -52.9415249,-24.5921735992846,0.0 -52.9416295,-24.5933640992845,0.0 -52.9427017,-24.5952564992845,0.0 -52.9427118,-24.5960508992845,0.0 -52.9419676,-24.5983628992844,0.0 -52.940777,-24.6000867992844,0.0 -52.9387168,-24.6015427992843,0.0 -52.9386393,-24.6021794992843,0.0 -52.9391755,-24.6031247992843,0.0 -52.9400514,-24.6035913992843,0.0 -52.9410982,-24.6038153992843,0.0 -52.9424785,-24.6033592992843,0.0 -52.9436116,-24.6036641992843,0.0 -52.9440855,-24.6043824992843,0.0 -52.9443833,-24.6048340992843,0.0 -52.9448577,-24.6055532992843,0.0 -52.944612,-24.6065887992842,0.0 -52.939868,-24.6085972992842,0.0 -52.9390991,-24.6094800992842,0.0 -52.9386074,-24.6112341992841,0.0 -52.9376719,-24.6126754992841,0.0 -52.9378012,-24.6152544992841,0.0 -52.9384151,-24.615646099284,0.0 -52.93936,-24.6150768992841,0.0 -52.9404112,-24.6156195992841,0.0 -52.9410372,-24.616801999284,0.0 -52.9407081,-24.617999399284,0.0 -52.9408921,-24.618668699284,0.0 -52.9416727,-24.618738199284,0.0 -52.9449468,-24.616949499284,0.0 -52.9454604,-24.616467499284,0.0 -52.9450872,-24.6148038992841,0.0 -52.94551,-24.6140837992841,0.0 -52.9473277,-24.6137832992841,0.0 -52.9489813,-24.6140782992841,0.0 -52.9511693,-24.6150819992841,0.0 -52.9516173,-24.615950799284,0.0 -52.9481071,-24.6248512992839,0.0 -52.9466651,-24.6269750992838,0.0 -52.9445663,-24.6316877992837,0.0 -52.945444,-24.6323131992837,0.0 -52.9463136,-24.6323815992837,0.0 -52.9508243,-24.6320429992837,0.0 -52.952137,-24.6327408992837,0.0 -52.9535338,-24.6331992992837,0.0 -52.9543325,-24.6343015992836,0.0 -52.9539275,-24.6360942992836,0.0 -52.9528991,-24.6370601992836,0.0 -52.9514758,-24.6404940992835,0.0 -52.951152,-24.6420064992835,0.0 -52.9517749,-24.6428728992835,0.0 -52.9528231,-24.6432169992835,0.0 -52.9599293,-24.6422497992835,0.0 -52.9626048,-24.6412229992835,0.0 -52.9634705,-24.6410519992835,0.0 -52.9651364,-24.6420627992835,0.0 -52.9660947,-24.6422886992835,0.0 -52.9683533,-24.6423394992835,0.0 -52.9703598,-24.6429074992835,0.0 -52.9711495,-24.6434535992835,0.0 -52.9714235,-24.6442434992834,0.0 -52.9710091,-24.6455206992834,0.0 -52.9697285,-24.6468875992834,0.0 -52.9681739,-24.6475828992834,0.0 -52.9663578,-24.6480036992834,0.0 -52.9628852,-24.6480483992834,0.0 -52.9613306,-24.6486261992833,0.0 -52.9597864,-24.6498368992833,0.0 -52.9587679,-24.6513986992833,0.0 -52.9583601,-24.6531533992832,0.0 -52.9576116,-24.6551467992832,0.0 -52.9570165,-24.6560299992832,0.0 -52.9551995,-24.6565291992832,0.0 -52.9542507,-24.6570578992832,0.0 -52.9541779,-24.6578526992831,0.0 -52.9545391,-24.6587208992831,0.0 -52.9559388,-24.6593389992831,0.0 -52.9574323,-24.6604316992831,0.0 -52.9581217,-24.6601042992831,0.0 -52.958893,-24.6594199992831,0.0 -52.9618264,-24.6581891992831,0.0 -52.9645769,-24.6562474992832,0.0 -52.9654279,-24.6552440992832,0.0 -52.9667813,-24.6528432992832,0.0 -52.9685796,-24.6512316992833,0.0 -52.9696189,-24.6509814992833,0.0 -52.9729249,-24.6513714992833,0.0 -52.9756144,-24.6511786992833,0.0 -52.9763143,-24.6514866992833,0.0 -52.9765891,-24.6524363992833,0.0 -52.9762639,-24.6537891992832,0.0 -52.9754164,-24.6551121992832,0.0 -52.9737094,-24.6570412992832,0.0 -52.9692604,-24.6613085992831,0.0 -52.9686663,-24.662310099283,0.0 -52.9682594,-24.663982699283,0.0 -52.9676636,-24.664704399283,0.0 -52.9660248,-24.665519999283,0.0 -52.9660387,-24.666473299283,0.0 -52.9679758,-24.6680762992829,0.0 -52.9684978,-24.6681484992829,0.0 -52.9695253,-24.6671832992829,0.0 -52.970374,-24.665979499283,0.0 -52.9714051,-24.665172399283,0.0 -52.9725017,-24.663133499283,0.0 -52.9728461,-24.662809899283,0.0 -52.9769178,-24.662279799283,0.0 -52.9778666,-24.6618710992831,0.0 -52.980017,-24.6604530992831,0.0 -52.9814927,-24.6603538992831,0.0 -52.9821034,-24.6605854992831,0.0 -52.9824595,-24.6611367992831,0.0 -52.9817869,-24.662575599283,0.0 -52.9779163,-24.664981199283,0.0 -52.9767283,-24.6667432992829,0.0 -52.9767479,-24.6680910992829,0.0 -52.9772029,-24.6693552992829,0.0 -52.9781448,-24.6700468992829,0.0 -52.9790433,-24.6698687992829,0.0 -52.979704,-24.6694173992829,0.0 -52.9833114,-24.6669513992829,0.0 -52.987225,-24.666669999283,0.0 -52.989337,-24.6674424992829,0.0 -52.992757,-24.6730277992828,0.0 -52.9948371,-24.6737277992828,0.0 -52.9961995,-24.6739797992828,0.0 -53.0052029,-24.6697978992829,0.0 -53.0077246,-24.6695156992829,0.0 -53.0113611,-24.6694150992829,0.0 -53.0181152,-24.6686361992829,0.0 -53.0218653,-24.6679113992829,0.0 -53.0248157,-24.6669745992829,0.0 -53.0277239,-24.665241299283,0.0 -53.0305023,-24.662524099283,0.0 -53.0315863,-24.6601921992831,0.0 -53.0311718,-24.6575724992831,0.0 -53.0294004,-24.6555399992832,0.0 -53.026645,-24.6530206992832,0.0 -53.0241455,-24.6503857992833,0.0 -53.0217001,-24.6472753992834,0.0 -53.0202064,-24.6448897992834,0.0 -53.020155,-24.6447752992834,0.0 -53.0193122,-24.6428988992835,0.0 -53.0190918,-24.6424072992835,0.0 -53.0196987,-24.6391894992835,0.0 -53.0211421,-24.6377644992836,0.0 -53.023338,-24.6360906992836,0.0 -53.0262858,-24.6356485992836,0.0 -53.0325325,-24.6361131992836,0.0 -53.0358448,-24.6370921992836,0.0 -53.0388701,-24.6392951992835,0.0 -53.0403397,-24.6410007992835,0.0 -53.0407555,-24.6420424992835,0.0 -53.0412232,-24.6454756992834,0.0 -53.0443733,-24.6504019992833,0.0 -53.0459524,-24.6511052992833,0.0 -53.0488308,-24.6515252992833,0.0 -53.0529676,-24.6515666992833,0.0 -53.0611211,-24.6513190992833,0.0 -53.0632028,-24.6507470992833,0.0 -53.0660263,-24.6491225992833,0.0 -53.068365,-24.6473172992834,0.0 -53.069696,-24.6452636992834,0.0 -53.0696726,-24.6438850992834,0.0 -53.0688644,-24.6428455992835,0.0 -53.0668834,-24.6423792992835,0.0 -53.0635044,-24.6420973992835,0.0 -53.0597604,-24.6414917992835,0.0 -53.0567305,-24.6406151992835,0.0 -53.0548148,-24.6397536992835,0.0 -53.0529928,-24.6381372992836,0.0 -53.0516024,-24.6365153992836,0.0 -53.0451045,-24.6276393992838,0.0 -53.043838,-24.6249556992838,0.0 -53.0419053,-24.618586599284,0.0 -53.0420072,-24.6116922992841,0.0 -53.0424982,-24.6108964992841,0.0 -53.0438155,-24.6102548992842,0.0 -53.0451422,-24.6099256992842,0.0 -53.0451805,-24.6099161992842,0.0 -53.0474871,-24.6093438992842,0.0 -53.0527569,-24.6083597992842,0.0 -53.0544082,-24.6083367992842,0.0 -53.0556671,-24.6084845992842,0.0 -53.0574024,-24.6092483992842,0.0 -53.0596493,-24.6105315992842,0.0 -53.0631572,-24.6122225992841,0.0 -53.0650278,-24.6124607992841,0.0 -53.0666045,-24.6122421992841,0.0 -53.0705496,-24.6099881992842,0.0 -53.0745989,-24.6073699992842,0.0 -53.0762422,-24.6068239992842,0.0 -53.0787909,-24.6069524992842,0.0 -53.0804517,-24.6075204992842,0.0 -53.0818271,-24.6082239992842,0.0 -53.0832085,-24.6091901992842,0.0 -53.0854352,-24.6111093992841,0.0 -53.0871909,-24.6126221992841,0.0 -53.0884435,-24.6133744992841,0.0 -53.0896189,-24.6138898992841,0.0 -53.0905547,-24.6140904992841,0.0 -53.0914463,-24.6139730992841,0.0 -53.0923331,-24.6135685992841,0.0 -53.0934807,-24.6125951992841,0.0 -53.0937041,-24.6118788992841,0.0 -53.0937265,-24.6016457992844,0.0 -53.0939472,-24.5985507992844,0.0 -53.0954972,-24.5925415992845,0.0 -53.0955976,-24.5898394992846,0.0 -53.0956587,-24.5882085992846,0.0 -53.0955744,-24.5855071992847,0.0 -53.0947,-24.5783206992848,0.0 -53.0947978,-24.5750164992849,0.0 -53.0950719,-24.5739627992849,0.0 -53.0957097,-24.572711899285,0.0 -53.0963586,-24.571990899285,0.0 -53.0985618,-24.570785399285,0.0 -53.099634,-24.570490299285,0.0 -53.1057802,-24.569958199285,0.0 -53.1071311,-24.569621299285,0.0 -53.1086236,-24.568936899285,0.0 -53.1154245,-24.5668130992851,0.0 -53.1225366,-24.5636210992852,0.0 -53.1273141,-24.5593887992853,0.0 -53.128615,-24.5578119992853,0.0 -53.1287854,-24.5576053992853,0.0 -53.1293458,-24.5569270992853,0.0 -53.1304469,-24.5544310992854,0.0 -53.130524,-24.5539792992854,0.0 -53.1313625,-24.5490478992855,0.0 -53.131703,-24.5456023992855,0.0 -53.1325077,-24.5432679992856,0.0 -53.133779,-24.5405300992857,0.0 -53.1348162,-24.5390997992857,0.0 -53.1363972,-24.5373845992857,0.0 -53.1396468,-24.5357069992858,0.0 -53.1423745,-24.5350083992858,0.0 -53.1448732,-24.5347526992858,0.0 -53.1527046,-24.5354549992858,0.0 -53.1549569,-24.5352969992858,0.0 -53.1596503,-24.5341685992858,0.0 -53.1619014,-24.5328360992858,0.0 -53.1628473,-24.5315855992859,0.0 -53.1632328,-24.5298535992859,0.0 -53.1632259,-24.5279216992859,0.0 -53.1635623,-24.526299499286,0.0 -53.1645122,-24.524282599286,0.0 -53.1657551,-24.523016599286,0.0 -53.1684268,-24.5217575992861,0.0 -53.1732567,-24.5210971992861,0.0 -53.1754811,-24.5206217992861,0.0 -53.1777029,-24.5204001992861,0.0 -53.1791721,-24.5205696992861,0.0 -53.1809283,-24.5192612992861,0.0 -53.1822279,-24.5178879992861,0.0 -53.1825115,-24.5167511992862,0.0 -53.1823091,-24.5144841992862,0.0 -53.1798433,-24.5114285992863,0.0 -53.1785867,-24.5104395992863,0.0 -53.1753993,-24.5089750992863,0.0 -53.1734236,-24.5078105992864,0.0 -53.172178,-24.5066563992864,0.0 -53.1715045,-24.5055422992864,0.0 -53.1705689,-24.5046659992864,0.0 -53.1695344,-24.5033801992865,0.0 -53.1685231,-24.5018733992865,0.0 -53.1676702,-24.5006011992865,0.0 -53.1643965,-24.4940273992867,0.0 -53.1634543,-24.4904382992867,0.0 -53.1626712,-24.4832109992869,0.0 -53.1620606,-24.477576399287,0.0 -53.1616731,-24.4689159992872,0.0 -53.1612126,-24.4641297992873,0.0 -53.1608702,-24.4605700992874,0.0 -53.1611986,-24.4525374992876,0.0 -53.1616165,-24.4490000992876,0.0 -53.16403,-24.4447975992877,0.0 -53.1664177,-24.4416348992878,0.0 -53.1678823,-24.4399710992878,0.0 -53.1688952,-24.4371049992879,0.0 -53.1680637,-24.4345735992879,0.0 -53.1662552,-24.432162399288,0.0 -53.1642884,-24.430139299288,0.0 -53.1614264,-24.4276408992881,0.0 -53.1586215,-24.4248871992882,0.0 -53.1561477,-24.4233748992882,0.0 -53.1533639,-24.4207413992882,0.0 -53.1523108,-24.4189750992883,0.0 -53.1519572,-24.4172939992883,0.0 -53.1522928,-24.4159137992883,0.0 -53.1532929,-24.4132550992884,0.0 -53.1540885,-24.4111400992885,0.0 -53.1555873,-24.4083129992885,0.0 -53.1577326,-24.4028180992886,0.0 -53.1578067,-24.4020565992886,0.0 -53.158124,-24.3988020992887,0.0 -53.1588385,-24.3952771992888,0.0 -53.1593175,-24.3946894992888,0.0 -53.1573159,-24.3954880992888,0.0 -53.1560522,-24.3956236992888,0.0 -53.155668,-24.3954211992888,0.0 -53.1544616,-24.3937605992888,0.0 -53.154417,-24.3935002992888,0.0 -53.1547512,-24.3929018992888,0.0 -53.1546373,-24.3925355992888,0.0 -53.1524729,-24.3918725992889,0.0 -53.1499832,-24.3921059992889,0.0 -53.1494882,-24.3918351992889,0.0 -53.1491669,-24.3913737992889,0.0 -53.1485531,-24.3897083992889,0.0 -53.1460336,-24.388504399289,0.0 -53.1450776,-24.3886244992889,0.0 -53.1445567,-24.3894060992889,0.0 -53.1445428,-24.3898726992889,0.0 -53.1453703,-24.3921540992889,0.0 -53.1471506,-24.3943587992888,0.0 -53.1473138,-24.3951693992888,0.0 -53.1468392,-24.3955178992888,0.0 -53.1434568,-24.3947865992888,0.0 -53.1419801,-24.3946337992888,0.0 -53.1413569,-24.3949479992888,0.0 -53.1396484,-24.3964121992888,0.0 -53.1392567,-24.3967478992888,0.0 -53.1389339,-24.3968083992888,0.0 -53.1385274,-24.3965704992888,0.0 -53.1364196,-24.3942563992888,0.0 -53.136153,-24.3941709992888,0.0 -53.1356135,-24.3947889992888,0.0 -53.1352307,-24.3948300992888,0.0 -53.1344477,-24.3935599992888,0.0 -53.1334977,-24.3926472992889,0.0 -53.1318968,-24.3923555992889,0.0 -53.1313514,-24.3932524992888,0.0 -53.1311929,-24.3961069992888,0.0 -53.1307765,-24.3975967992887,0.0 -53.1302906,-24.3984471992887,0.0 -53.1284513,-24.3999757992887,0.0 -53.1275198,-24.4005282992887,0.0 -53.127249,-24.4001998992887,0.0 -53.1275834,-24.3990273992887,0.0 -53.1271406,-24.3990419992887,0.0 -53.1260731,-24.3997309992887,0.0 -53.1259317,-24.4000740992887,0.0 -53.126197,-24.4006370992887,0.0 -53.1261182,-24.4012035992887,0.0 -53.1254767,-24.4015862992887,0.0 -53.1243143,-24.4018810992887,0.0 -53.1237623,-24.4022931992886,0.0 -53.1235452,-24.4034554992886,0.0 -53.1236407,-24.4056208992886,0.0 -53.1234531,-24.4060909992886,0.0 -53.1226717,-24.4068844992885,0.0 -53.121476,-24.4074246992885,0.0 -53.120836,-24.4074407992885,0.0 -53.1200882,-24.4067900992885,0.0 -53.1199932,-24.4055680992886,0.0 -53.1196203,-24.4051642992886,0.0 -53.1182547,-24.4047545992886,0.0 -53.1166957,-24.4033850992886,0.0 -53.1147636,-24.4030622992886,0.0 -53.1146753,-24.4028613992886,0.0 -53.1149591,-24.4018952992886,0.0 -53.1160231,-24.4004372992887,0.0 -53.1164205,-24.3994356992887,0.0 -53.1164616,-24.3987714992887,0.0 -53.1158266,-24.3980780992887,0.0 -53.1171291,-24.3976325992888,0.0 -53.1164629,-24.3970301992888,0.0 -53.1165114,-24.3967117992888,0.0 -53.1180445,-24.3962774992888,0.0 -53.1181822,-24.3960326992888,0.0 -53.1180158,-24.3957247992888,0.0 -53.1169658,-24.3957276992888,0.0 -53.1155009,-24.3970019992888,0.0 -53.1148214,-24.3973103992888,0.0 -53.1145236,-24.3977554992887,0.0 -53.1143666,-24.3991998992887,0.0 -53.1127986,-24.3995553992887,0.0 -53.112356,-24.3992539992887,0.0 -53.1116644,-24.3980627992887,0.0 -53.1097819,-24.3964466992888,0.0 -53.1094252,-24.3955715992888,0.0 -53.1094604,-24.3942050992888,0.0 -53.109292,-24.3934863992888,0.0 -53.1086927,-24.3931939992888,0.0 -53.1081351,-24.3932818992888,0.0 -53.1074528,-24.3935757992888,0.0 -53.1068397,-24.3942573992888,0.0 -53.1067624,-24.3945971992888,0.0 -53.1070706,-24.3953491992888,0.0 -53.1070627,-24.3960505992888,0.0 -53.1065665,-24.3976373992887,0.0 -53.1059201,-24.3984442992887,0.0 -53.1058562,-24.3992500992887,0.0 -53.1052701,-24.3994659992887,0.0 -53.1043055,-24.3990982992887,0.0 -53.1036639,-24.3993580992887,0.0 -53.102698,-24.4001503992887,0.0 -53.1019698,-24.4002480992887,0.0 -53.1017914,-24.4001025992887,0.0 -53.1016558,-24.3990635992887,0.0 -53.1006031,-24.3983360992887,0.0 -53.1008711,-24.3966855992888,0.0 -53.1004477,-24.3955004992888,0.0 -53.098985,-24.3939318992888,0.0 -53.0986225,-24.3937446992888,0.0 -53.0978538,-24.3937165992888,0.0 -53.0948011,-24.3943429992888,0.0 -53.0925297,-24.3954514992888,0.0 -53.0924795,-24.3958600992888,0.0 -53.0931357,-24.3964706992888,0.0 -53.0931169,-24.3968903992888,0.0 -53.0927762,-24.3973802992887,0.0 -53.0917772,-24.3981262992887,0.0 -53.0917448,-24.3985115992887,0.0 -53.0920199,-24.3991983992887,0.0 -53.0918435,-24.3994663992887,0.0 -53.0913491,-24.3996629992887,0.0 -53.0910401,-24.3991834992887,0.0 -53.0908921,-24.3983629992887,0.0 -53.0900425,-24.3979253992887,0.0 -53.0897319,-24.3969702992888,0.0 -53.0894474,-24.3967771992888,0.0 -53.0888024,-24.3972183992888,0.0 -53.0884477,-24.3969128992888,0.0 -53.0881734,-24.3969509992888,0.0 -53.087822,-24.3974236992888,0.0 -53.0875788,-24.3973869992887,0.0 -53.0873769,-24.3968053992888,0.0 -53.0871283,-24.3966936992888,0.0 -53.0865481,-24.3971785992888,0.0 -53.0863245,-24.3971501992888,0.0 -53.0863952,-24.3966377992888,0.0 -53.0869721,-24.3956509992888,0.0 -53.0878046,-24.3927003992889,0.0 -53.0874924,-24.3923915992889,0.0 -53.0872329,-24.3924261992889,0.0 -53.0868753,-24.3928049992889,0.0 -53.0864543,-24.3926742992889,0.0 -53.0866966,-24.3914659992889,0.0 -53.0864861,-24.3907127992889,0.0 -53.0866401,-24.3899977992889,0.0 -53.0860381,-24.3894100992889,0.0 -53.0856982,-24.3893764992889,0.0 -53.0855648,-24.3895561992889,0.0 -53.0856568,-24.3899214992889,0.0 -53.0862526,-24.3904260992889,0.0 -53.0860204,-24.3907667992889,0.0 -53.0850265,-24.3902570992889,0.0 -53.0842948,-24.3906967992889,0.0 -53.0836459,-24.3903173992889,0.0 -53.0823182,-24.3904365992889,0.0 -53.0813203,-24.3903366992889,0.0 -53.0802417,-24.3907598992889,0.0 -53.0800086,-24.3915049992889,0.0 -53.0792384,-24.3918153992889,0.0 -53.0790461,-24.3925011992889,0.0 -53.0788271,-24.3926514992888,0.0 -53.0788246,-24.3932770992888,0.0 -53.0791607,-24.3934253992888,0.0 -53.0795364,-24.3927244992889,0.0 -53.0799613,-24.3927287992889,0.0 -53.0808399,-24.3969210992888,0.0 -53.0807192,-24.3971162992888,0.0 -53.0801203,-24.3970376992888,0.0 -53.078338,-24.3989270992887,0.0 -53.0775209,-24.3991721992887,0.0 -53.077294,-24.4002802992887,0.0 -53.0762189,-24.4025080992886,0.0 -53.0761675,-24.4029401992886,0.0 -53.0746908,-24.4023795992886,0.0 -53.0746461,-24.4032278992886,0.0 -53.07324,-24.4029935992886,0.0 -53.0731281,-24.4026452992886,0.0 -53.0725301,-24.4028600992886,0.0 -53.0722022,-24.4023985992886,0.0 -53.0723042,-24.4016707992887,0.0 -53.0712872,-24.3994473992887,0.0 -53.0717601,-24.3984057992887,0.0 -53.071326,-24.3983254992887,0.0 -53.0709571,-24.3988847992887,0.0 -53.070325,-24.3993060992887,0.0 -53.069944,-24.4003120992887,0.0 -53.0684327,-24.4023285992886,0.0 -53.0688455,-24.4034450992886,0.0 -53.0680534,-24.4036243992886,0.0 -53.066377,-24.4032736992886,0.0 -53.065682,-24.4035420992886,0.0 -53.0648348,-24.4035783992886,0.0 -53.0647234,-24.4037175992886,0.0 -53.0649268,-24.4046134992886,0.0 -53.0648004,-24.4049087992886,0.0 -53.0638839,-24.4053869992886,0.0 -53.0632526,-24.4059652992886,0.0 -53.063008,-24.4059682992886,0.0 -53.06262,-24.4053700992886,0.0 -53.0614626,-24.4048330992886,0.0 -53.0612085,-24.4042581992886,0.0 -53.0616648,-24.4033546992886,0.0 -53.0609081,-24.4031567992886,0.0 -53.0607143,-24.4028315992886,0.0 -53.0617782,-24.4021439992887,0.0 -53.0617315,-24.4016597992887,0.0 -53.0608615,-24.4014647992887,0.0 -53.0607555,-24.4007247992887,0.0 -53.0593679,-24.3999921992887,0.0 -53.0582019,-24.4002133992887,0.0 -53.0568653,-24.4001806992887,0.0 -53.0566635,-24.3998823992887,0.0 -53.0566095,-24.3991787992887,0.0 -53.0571846,-24.3978111992887,0.0 -53.0574801,-24.3974527992888,0.0 -53.0583047,-24.3971292992887,0.0 -53.0586141,-24.3964857992888,0.0 -53.0584925,-24.3959875992888,0.0 -53.0591088,-24.3955806992888,0.0 -53.0593237,-24.3949067992888,0.0 -53.0588526,-24.3937022992888,0.0 -53.0591526,-24.3924601992889,0.0 -53.058924,-24.3923070992889,0.0 -53.0583979,-24.3924013992889,0.0 -53.0580531,-24.3920931992889,0.0 -53.0582155,-24.3916084992889,0.0 -53.0589336,-24.3918070992889,0.0 -53.059062,-24.3915117992889,0.0 -53.0585138,-24.3903266992889,0.0 -53.0578186,-24.3904938992889,0.0 -53.0570433,-24.3912112992889,0.0 -53.0565125,-24.3928653992889,0.0 -53.0560753,-24.3933230992888,0.0 -53.0553611,-24.3933835992888,0.0 -53.054866,-24.3931502992888,0.0 -53.0538458,-24.3930075992888,0.0 -53.0532298,-24.3933774992888,0.0 -53.0535158,-24.3946963992888,0.0 -53.0528308,-24.3954666992888,0.0 -53.051473,-24.3955014992888,0.0 -53.0508086,-24.3962871992888,0.0 -53.0496605,-24.3964930992888,0.0 -53.0478578,-24.3965692992888,0.0 -53.0457208,-24.3963987992888,0.0 -53.0436483,-24.3974798992888,0.0 -53.0434176,-24.3973465992887,0.0 -53.042809,-24.3958170992888,0.0 -53.0428693,-24.3953976992888,0.0 -53.0438228,-24.3943294992888,0.0 -53.0441721,-24.3941556992888,0.0 -53.0464527,-24.3938405992888,0.0 -53.0465386,-24.3933039992888,0.0 -53.0459588,-24.3923966992889,0.0 -53.0461691,-24.3914347992889,0.0 -53.045443,-24.3908578992889,0.0 -53.0456086,-24.3905961992889,0.0 -53.0464102,-24.3900496992889,0.0 -53.0467112,-24.3888183992889,0.0 -53.0462798,-24.3883760992889,0.0 -53.0460746,-24.386828399289,0.0 -53.0455768,-24.386299899289,0.0 -53.0455744,-24.386093099289,0.0 -53.0459657,-24.385830199289,0.0 -53.0460142,-24.385412499289,0.0 -53.044672,-24.385104399289,0.0 -53.0447745,-24.384445099289,0.0 -53.0441644,-24.384038599289,0.0 -53.0444318,-24.383609699289,0.0 -53.04401,-24.3832098992891,0.0 -53.042786,-24.3828996992891,0.0 -53.0411876,-24.3828426992891,0.0 -53.0407651,-24.3824012992891,0.0 -53.0406974,-24.3817101992891,0.0 -53.0402784,-24.3814547992891,0.0 -53.0382085,-24.3816989992891,0.0 -53.0375097,-24.3812954992891,0.0 -53.0373979,-24.3810844992891,0.0 -53.037698,-24.3803758992891,0.0 -53.0373763,-24.3802953992891,0.0 -53.0370048,-24.3806621992891,0.0 -53.0368117,-24.3803892992891,0.0 -53.0371202,-24.3796229992891,0.0 -53.0377278,-24.3791700992891,0.0 -53.0372555,-24.3785423992892,0.0 -53.0371533,-24.3781110992892,0.0 -53.0357806,-24.3771454992892,0.0 -53.0351158,-24.3769471992892,0.0 -53.0331598,-24.3771287992892,0.0 -53.0328931,-24.3769410992892,0.0 -53.0325175,-24.3757732992892,0.0 -53.0319065,-24.3753748992892,0.0 -53.0310584,-24.3752999992892,0.0 -53.0298595,-24.3746928992892,0.0 -53.0288245,-24.3746907992893,0.0 -53.0276127,-24.3756542992892,0.0 -53.026881,-24.3758220992892,0.0 -53.0263059,-24.3763915992892,0.0 -53.0257443,-24.3766217992892,0.0 -53.025271,-24.3765085992892,0.0 -53.0251535,-24.3761485992892,0.0 -53.0254978,-24.3753482992892,0.0 -53.0247513,-24.3746158992892,0.0 -53.0256195,-24.3734812992893,0.0 -53.0253532,-24.3733721992893,0.0 -53.0248682,-24.3736380992893,0.0 -53.0242273,-24.3736609992893,0.0 -53.0242199,-24.3732140992893,0.0 -53.0248467,-24.3723243992893,0.0 -53.0246152,-24.3720511992893,0.0 -53.0234391,-24.3727224992893,0.0 -53.0222871,-24.3725669992893,0.0 -53.0208394,-24.3727842992893,0.0 -53.0194573,-24.3724232992893,0.0 -53.0188623,-24.3717396992893,0.0 -53.0180234,-24.3699711992893,0.0 -53.017698,-24.3696124992893,0.0 -53.0172424,-24.3693756992894,0.0 -53.0158281,-24.3693683992894,0.0 -53.0149475,-24.3685329992894,0.0 -53.0147226,-24.3685550992894,0.0 -53.0135341,-24.3696766992893,0.0 -53.0135625,-24.3703321992893,0.0 -53.0128306,-24.3705323992893,0.0 -53.0122556,-24.3699436992893,0.0 -53.012719,-24.3682792992894,0.0 -53.0127302,-24.3678442992894,0.0 -53.0123496,-24.3674887992894,0.0 -53.0097705,-24.3676994992894,0.0 -53.0092637,-24.3678595992894,0.0 -53.0082236,-24.3688990992894,0.0 -53.0074719,-24.3689789992894,0.0 -53.0071661,-24.3687575992894,0.0 -53.0069459,-24.3679319992894,0.0 -53.0065803,-24.3674185992894,0.0 -53.006521,-24.3671771992894,0.0 -53.0068276,-24.3664136992894,0.0 -53.0061216,-24.3658186992894,0.0 -53.0058803,-24.3647933992895,0.0 -53.0053794,-24.3641861992895,0.0 -53.0049033,-24.3638210992895,0.0 -53.0044327,-24.3638802992895,0.0 -53.0038819,-24.3649896992894,0.0 -53.0036234,-24.3651522992894,0.0 -53.0031321,-24.3650885992894,0.0 -53.002655,-24.3647144992895,0.0 -53.0023218,-24.3638474992895,0.0 -53.0016239,-24.3637353992895,0.0 -53.0012788,-24.3634947992895,0.0 -53.001512,-24.3626640992895,0.0 -53.0013012,-24.3625317992895,0.0 -52.9996748,-24.3623052992895,0.0 -52.999172,-24.3625718992895,0.0 -52.9989756,-24.3621065992895,0.0 -52.9985809,-24.3622853992895,0.0 -52.9985102,-24.3625097992895,0.0 -52.9987985,-24.3629386992895,0.0 -52.998268,-24.3628412992895,0.0 -52.99806,-24.3626042992895,0.0 -52.9978912,-24.3616308992895,0.0 -52.997926,-24.3602183992896,0.0 -52.9971809,-24.3595959992896,0.0 -52.9960969,-24.3590751992896,0.0 -52.9942255,-24.3588054992896,0.0 -52.9934019,-24.3591438992896,0.0 -52.992474,-24.3589499992896,0.0 -52.9918946,-24.3593036992896,0.0 -52.9914806,-24.3593161992896,0.0 -52.9900576,-24.3588002992896,0.0 -52.9899326,-24.3581621992896,0.0 -52.9887169,-24.3587146992896,0.0 -52.9883137,-24.3582316992896,0.0 -52.9879446,-24.3587925992896,0.0 -52.9874086,-24.3582770992896,0.0 -52.9880531,-24.3572992992896,0.0 -52.9878335,-24.3565250992896,0.0 -52.9880328,-24.3560027992896,0.0 -52.9886333,-24.3558397992897,0.0 -52.9887412,-24.3555434992897,0.0 -52.987895,-24.3543805992897,0.0 -52.9879971,-24.3536861992897,0.0 -52.9872643,-24.3531296992897,0.0 -52.9873521,-24.3522527992897,0.0 -52.9865957,-24.3520717992897,0.0 -52.9864202,-24.3517103992897,0.0 -52.9861162,-24.3516433992897,0.0 -52.9860906,-24.3511439992898,0.0 -52.9855592,-24.3509264992898,0.0 -52.9850494,-24.3510801992898,0.0 -52.9847861,-24.3509880992898,0.0 -52.9845359,-24.3505937992898,0.0 -52.9830499,-24.3497234992898,0.0 -52.9821473,-24.3485934992898,0.0 -52.9816752,-24.3484792992898,0.0 -52.9805259,-24.3486322992898,0.0 -52.9799172,-24.3483465992898,0.0 -52.9791482,-24.3485119992898,0.0 -52.9787694,-24.3484317992898,0.0 -52.978211,-24.3477717992898,0.0 -52.9778226,-24.3469313992898,0.0 -52.977597,-24.3469163992898,0.0 -52.9770554,-24.3473550992898,0.0 -52.9765989,-24.3472571992898,0.0 -52.9758879,-24.3474392992898,0.0 -52.9755468,-24.3473412992898,0.0 -52.9750088,-24.3468365992898,0.0 -52.9746988,-24.3626918992895,0.0 -52.9751048,-24.3952261992888,0.0 -52.9752066,-24.4033693992886,0.0 -52.9751624,-24.4126382992884,0.0</coordinates>
</LinearRing>
</outerBoundaryIs>
</Polygon>
</MultiGeometry>
</Placemark>
</Folder>
</Document></kml>
