<?xml version='1.0' encoding='UTF-8'?>
<kml xmlns:xsd="http://www.w3.org/2001/XMLSchema" xmlns:gx="http://www.google.com/kml/ext/2.2" xmlns:atom="http://www.w3.org/2005/Atom" xmlns="http://www.opengis.net/kml/2.2">
<Document>
<name>virmond_4128658_localidades_2022</name>
<visibility>1</visibility>
<Schema name="01. Cidade" id="kml_schema_ft_01._Cidade">
<SimpleField type="xsd:string" name="CD_UF">
<displayName>CD_UF</displayName>
</SimpleField>
<SimpleField type="xsd:string" name="NM_UF">
<displayName>NM_UF</displayName>
</SimpleField>
<SimpleField type="xsd:string" name="SIGLA_UF">
<displayName>SIGLA_UF</displayName>
</SimpleField>
<SimpleField type="xsd:string" name="CD_MUN">
<displayName>CD_MUN</displayName>
</SimpleField>
<SimpleField type="xsd:string" name="NM_MUN">
<displayName>NM_MUN</displayName>
</SimpleField>
<SimpleField type="xsd:string" name="CD_RGINT">
<displayName>CD_RGINT</displayName>
</SimpleField>
<SimpleField type="xsd:string" name="NM_RGINT">
<displayName>NM_RGINT</displayName>
</SimpleField>
<SimpleField type="xsd:string" name="CD_RGI">
<displayName>CD_RGI</displayName>
</SimpleField>
<SimpleField type="xsd:string" name="NM_RGI">
<displayName>NM_RGI</displayName>
</SimpleField>
<SimpleField type="xsd:string" name="CT_LOCALIDADE">
<displayName>CT_LOCALIDADE</displayName>
</SimpleField>
<SimpleField type="xsd:string" name="SCT_LOCALIDADE">
<displayName>SCT_LOCALIDADE</displayName>
</SimpleField>
<SimpleField type="xsd:string" name="CD_LOCALIDADE">
<displayName>CD_LOCALIDADE</displayName>
</SimpleField>
<SimpleField type="xsd:string" name="NM_LOCALIDADE">
<displayName>NM_LOCALIDADE</displayName>
</SimpleField>
<SimpleField type="xsd:string" name="LAT_LOCALIDADE">
<displayName>LAT_LOCALIDADE</displayName>
</SimpleField>
<SimpleField type="xsd:string" name="LONG_LOCALIDADE">
<displayName>LONG_LOCALIDADE</displayName>
</SimpleField>
</Schema>
<Schema name="Município" id="kml_schema_ft_Município">
<SimpleField type="xsd:string" name="CD_UF">
<displayName>CD_UF</displayName>
</SimpleField>
<SimpleField type="xsd:string" name="NM_UF">
<displayName>NM_UF</displayName>
</SimpleField>
<SimpleField type="xsd:string" name="CD_MUN">
<displayName>CD_MUN</displayName>
</SimpleField>
<SimpleField type="xsd:string" name="NM_MUN">
<displayName>NM_MUN</displayName>
</SimpleField>
<SimpleField type="xsd:string" name="CD_RGINT">
<displayName>CD_RGINT</displayName>
</SimpleField>
<SimpleField type="xsd:string" name="NM_RGINT">
<displayName>NM_RGINT</displayName>
</SimpleField>
<SimpleField type="xsd:string" name="CD_RGI">
<displayName>CD_RGI</displayName>
</SimpleField>
<SimpleField type="xsd:string" name="NM_RGI">
<displayName>NM_RGI</displayName>
</SimpleField>
</Schema>
<Folder id="01. Cidade">
<name>01. Cidade</name>
<Folder id="01.03. Sede Municipal">
<name>01.03. Sede Municipal</name>
<Placemark id="01.03. Sede Municipal">
<name>Virmond [4128658]</name>
<visibility>1</visibility>
<snippet> </snippet>
<description>&lt;center&gt;&lt;table&gt;&lt;tr&gt;&lt;th colspan='2' align='center'&gt;&lt;em&gt;Atributos&lt;/em&gt;&lt;/th&gt;&lt;/tr&gt;&lt;tr bgcolor="#E3E3F3"&gt;
&lt;th&gt;CD_UF&lt;/th&gt;
&lt;td&gt;41&lt;/td&gt;
&lt;/tr&gt;&lt;tr bgcolor=""&gt;
&lt;th&gt;NM_UF&lt;/th&gt;
&lt;td&gt;Paraná&lt;/td&gt;
&lt;/tr&gt;&lt;tr bgcolor="#E3E3F3"&gt;
&lt;th&gt;SIGLA_UF&lt;/th&gt;
&lt;td&gt;PR&lt;/td&gt;
&lt;/tr&gt;&lt;tr bgcolor=""&gt;
&lt;th&gt;CD_MUN&lt;/th&gt;
&lt;td&gt;4128658&lt;/td&gt;
&lt;/tr&gt;&lt;tr bgcolor="#E3E3F3"&gt;
&lt;th&gt;NM_MUN&lt;/th&gt;
&lt;td&gt;Virmond&lt;/td&gt;
&lt;/tr&gt;&lt;tr bgcolor=""&gt;
&lt;th&gt;CD_RGINT&lt;/th&gt;
&lt;td&gt;4103&lt;/td&gt;
&lt;/tr&gt;&lt;tr bgcolor="#E3E3F3"&gt;
&lt;th&gt;NM_RGINT&lt;/th&gt;
&lt;td&gt;Cascavel&lt;/td&gt;
&lt;/tr&gt;&lt;tr bgcolor=""&gt;
&lt;th&gt;CD_RGI&lt;/th&gt;
&lt;td&gt;410011&lt;/td&gt;
&lt;/tr&gt;&lt;tr bgcolor="#E3E3F3"&gt;
&lt;th&gt;NM_RGI&lt;/th&gt;
&lt;td&gt;Laranjeiras do Sul - Quedas do Iguaçu&lt;/td&gt;
&lt;/tr&gt;&lt;tr bgcolor=""&gt;
&lt;th&gt;CT_LOCALIDADE&lt;/th&gt;
&lt;td&gt;Cidade&lt;/td&gt;
&lt;/tr&gt;&lt;tr bgcolor="#E3E3F3"&gt;
&lt;th&gt;SCT_LOCALIDADE&lt;/th&gt;
&lt;td&gt;Sede Municipal&lt;/td&gt;
&lt;/tr&gt;&lt;tr bgcolor=""&gt;
&lt;th&gt;CD_LOCALIDADE&lt;/th&gt;
&lt;td&gt;4128658&lt;/td&gt;
&lt;/tr&gt;&lt;tr bgcolor="#E3E3F3"&gt;
&lt;th&gt;NM_LOCALIDADE&lt;/th&gt;
&lt;td&gt;Virmond&lt;/td&gt;
&lt;/tr&gt;&lt;tr bgcolor=""&gt;
&lt;th&gt;LAT_LOCALIDADE&lt;/th&gt;
&lt;td&gt;-25.3825&lt;/td&gt;
&lt;/tr&gt;&lt;tr bgcolor="#E3E3F3"&gt;
&lt;th&gt;LONG_LOCALIDADE&lt;/th&gt;
&lt;td&gt;-52.2047&lt;/td&gt;
&lt;/tr&gt;&lt;/table&gt;&lt;/center&gt;</description>
<Style>
<IconStyle>
<color>ff00aaff</color>
<scale>1.0</scale>
<Icon>
<href>http://maps.google.com/mapfiles/kml/shapes/placemark_circle.png</href>
</Icon>
</IconStyle>
<LabelStyle>
<scale>1.0</scale>
</LabelStyle>
<LineStyle>
<color>ffffffff</color>
<width>3</width>
<gx:labelVisibility>1</gx:labelVisibility>
</LineStyle>
<PolyStyle>
<color>00ffffff</color>
</PolyStyle>
</Style>
<ExtendedData>
<SchemaData schemaUrl="#kml_schema_ft_01._Cidade">
<SimpleData name="CD_UF">41</SimpleData>
<SimpleData name="NM_UF">Paraná</SimpleData>
<SimpleData name="SIGLA_UF">PR</SimpleData>
<SimpleData name="CD_MUN">4128658</SimpleData>
<SimpleData name="NM_MUN">Virmond</SimpleData>
<SimpleData name="CD_RGINT">4103</SimpleData>
<SimpleData name="NM_RGINT">Cascavel</SimpleData>
<SimpleData name="CD_RGI">410011</SimpleData>
<SimpleData name="NM_RGI">Laranjeiras do Sul - Quedas do Iguaçu</SimpleData>
<SimpleData name="CT_LOCALIDADE">Cidade</SimpleData>
<SimpleData name="SCT_LOCALIDADE">Sede Municipal</SimpleData>
<SimpleData name="CD_LOCALIDADE">4128658</SimpleData>
<SimpleData name="NM_LOCALIDADE">Virmond</SimpleData>
<SimpleData name="LAT_LOCALIDADE">-25.3825</SimpleData>
<SimpleData name="LONG_LOCALIDADE">-52.2047</SimpleData>
</SchemaData>
</ExtendedData>
<Point>
<extrude>0</extrude>
<coordinates>-52.204679,-25.3824569992679,0.0</coordinates>
</Point>
</Placemark>
</Folder>
</Folder>
<Folder id="13. Referência">
<name>13. Referência</name>
<Placemark id="13. Referência">
<name>Virmond [4128658]</name>
<visibility>1</visibility>
<snippet> </snippet>
<description>&lt;center&gt;&lt;table&gt;&lt;tr&gt;&lt;th colspan='2' align='center'&gt;&lt;em&gt;Attributes&lt;/em&gt;&lt;/th&gt;&lt;/tr&gt;&lt;tr bgcolor="#E3E3F3"&gt;
&lt;th&gt;CD_UF&lt;/th&gt;
&lt;td&gt;41&lt;/td&gt;
&lt;/tr&gt;&lt;tr bgcolor=""&gt;
&lt;th&gt;NM_UF&lt;/th&gt;
&lt;td&gt;Paraná&lt;/td&gt;
&lt;/tr&gt;&lt;tr bgcolor="#E3E3F3"&gt;
&lt;th&gt;CD_MUN&lt;/th&gt;
&lt;td&gt;4128658&lt;/td&gt;
&lt;/tr&gt;&lt;tr bgcolor=""&gt;
&lt;th&gt;NM_MUN&lt;/th&gt;
&lt;td&gt;Virmond&lt;/td&gt;
&lt;/tr&gt;&lt;tr bgcolor="#E3E3F3"&gt;
&lt;th&gt;CD_RGINT&lt;/th&gt;
&lt;td&gt;4103&lt;/td&gt;
&lt;/tr&gt;&lt;tr bgcolor=""&gt;
&lt;th&gt;NM_RGINT&lt;/th&gt;
&lt;td&gt;Cascavel&lt;/td&gt;
&lt;/tr&gt;&lt;tr bgcolor="#E3E3F3"&gt;
&lt;th&gt;CD_RGI&lt;/th&gt;
&lt;td&gt;410011&lt;/td&gt;
&lt;/tr&gt;&lt;tr bgcolor=""&gt;
&lt;th&gt;NM_RGI&lt;/th&gt;
&lt;td&gt;Laranjeiras do Sul - Quedas do Iguaçu&lt;/td&gt;
&lt;/tr&gt;&lt;/table&gt;&lt;/center&gt;</description>
<Style>
<IconStyle>
<scale>0.7</scale>
</IconStyle>
<LabelStyle>
<scale>0.7</scale>
</LabelStyle>
<LineStyle>
<color>ffffffff</color>
<width>3</width>
<gx:labelVisibility>1</gx:labelVisibility>
</LineStyle>
<PolyStyle>
<color>00ffffff</color>
</PolyStyle>
</Style>
<ExtendedData>
<SchemaData schemaUrl="#kml_schema_ft_Município">
<SimpleData name="CD_UF">41</SimpleData>
<SimpleData name="NM_UF">Paraná</SimpleData>
<SimpleData name="CD_MUN">4128658</SimpleData>
<SimpleData name="NM_MUN">Virmond</SimpleData>
<SimpleData name="CD_RGINT">4103</SimpleData>
<SimpleData name="NM_RGINT">Cascavel</SimpleData>
<SimpleData name="CD_RGI">410011</SimpleData>
<SimpleData name="NM_RGI">Laranjeiras do Sul - Quedas do Iguaçu</SimpleData>
</SchemaData>
</ExtendedData>
<MultiGeometry>
<Polygon>
<extrude>0</extrude>
<tessellate>1</tessellate>
<outerBoundaryIs>
<LinearRing>
<coordinates>-52.1691127,-25.3870237992678,0.0 -52.1695322,-25.3876777992677,0.0 -52.1694457,-25.3885357992677,0.0 -52.1691562,-25.3887559992677,0.0 -52.1673644,-25.3886172992677,0.0 -52.1668418,-25.3891973992677,0.0 -52.1656999,-25.3889331992677,0.0 -52.1648304,-25.3891884992677,0.0 -52.1643875,-25.3901548992677,0.0 -52.1643987,-25.3911178992677,0.0 -52.1653569,-25.3931457992676,0.0 -52.1653607,-25.3935537992676,0.0 -52.1651033,-25.3942769992676,0.0 -52.1641896,-25.3949558992676,0.0 -52.1638679,-25.3953254992676,0.0 -52.1637932,-25.3957324992676,0.0 -52.1646093,-25.3965809992676,0.0 -52.1645932,-25.3976401992675,0.0 -52.1650216,-25.3981670992675,0.0 -52.1650786,-25.3986722992675,0.0 -52.1647441,-25.3994928992675,0.0 -52.1635571,-25.4001043992675,0.0 -52.1635359,-25.4005859992675,0.0 -52.1649345,-25.4016249992675,0.0 -52.1652537,-25.4015476992675,0.0 -52.1654587,-25.4008725992675,0.0 -52.1657226,-25.4007738992675,0.0 -52.1670784,-25.4016281992675,0.0 -52.1677127,-25.4012877992675,0.0 -52.1690108,-25.3997725992675,0.0 -52.1698316,-25.3997177992675,0.0 -52.1704723,-25.4002672992675,0.0 -52.1708306,-25.4014908992675,0.0 -52.1708051,-25.4019958992674,0.0 -52.1706013,-25.4024562992674,0.0 -52.1693913,-25.4034058992674,0.0 -52.1693461,-25.4038294992674,0.0 -52.1694021,-25.4040674992674,0.0 -52.1705296,-25.4051661992674,0.0 -52.1706504,-25.4063200992674,0.0 -52.171185,-25.4067255992673,0.0 -52.1720018,-25.4064776992674,0.0 -52.1726941,-25.4052571992674,0.0 -52.1734097,-25.4053237992674,0.0 -52.1748059,-25.4042284992674,0.0 -52.1749323,-25.4038185992674,0.0 -52.1758794,-25.4032328992674,0.0 -52.1761643,-25.4027256992674,0.0 -52.1761575,-25.4018592992675,0.0 -52.1756367,-25.4013943992675,0.0 -52.1748372,-25.4010875992675,0.0 -52.1747025,-25.4007258992675,0.0 -52.1748295,-25.4001480992675,0.0 -52.1751183,-25.3997834992675,0.0 -52.1756753,-25.3995575992675,0.0 -52.1762851,-25.3999188992675,0.0 -52.1767565,-25.3994337992675,0.0 -52.1774994,-25.3994736992675,0.0 -52.1779709,-25.3989191992675,0.0 -52.1786486,-25.3991901992675,0.0 -52.1787951,-25.4004922992675,0.0 -52.1795133,-25.4009153992675,0.0 -52.1803613,-25.4008374992675,0.0 -52.1807081,-25.4011720992675,0.0 -52.1814373,-25.4025869992674,0.0 -52.1814825,-25.4031515992674,0.0 -52.1811045,-25.4052251992674,0.0 -52.1805367,-25.4066989992673,0.0 -52.1807788,-25.4071296992673,0.0 -52.1811777,-25.4073683992673,0.0 -52.1820792,-25.4075031992673,0.0 -52.1825774,-25.4080904992673,0.0 -52.1823683,-25.4083811992673,0.0 -52.1816802,-25.4084592992673,0.0 -52.1800442,-25.4093152992673,0.0 -52.1796523,-25.4097273992673,0.0 -52.1794458,-25.4103059992673,0.0 -52.1796078,-25.4106409992673,0.0 -52.1801931,-25.4108548992673,0.0 -52.1806958,-25.4108005992673,0.0 -52.1808633,-25.4111681992672,0.0 -52.1795047,-25.4123415992672,0.0 -52.1783968,-25.4127113992672,0.0 -52.1779251,-25.4133408992672,0.0 -52.1780095,-25.4136766992672,0.0 -52.1795166,-25.4149298992672,0.0 -52.1797891,-25.4155775992672,0.0 -52.1793227,-25.4167854992671,0.0 -52.1784504,-25.4170796992671,0.0 -52.1777601,-25.4168446992671,0.0 -52.1757853,-25.4153681992672,0.0 -52.1743082,-25.4145728992672,0.0 -52.1738565,-25.4145284992672,0.0 -52.1735733,-25.4154454992672,0.0 -52.1733115,-25.4157363992672,0.0 -52.1733683,-25.4161214992671,0.0 -52.1739326,-25.4169361992671,0.0 -52.1755501,-25.4183783992671,0.0 -52.1757659,-25.4188340992671,0.0 -52.1756129,-25.4194873992671,0.0 -52.1757231,-25.4198956992671,0.0 -52.1765822,-25.421066899267,0.0 -52.179142,-25.422657999267,0.0 -52.1795387,-25.422657499267,0.0 -52.1797873,-25.422186799267,0.0 -52.1793544,-25.421419799267,0.0 -52.1794048,-25.4211776992671,0.0 -52.1796414,-25.4209820992671,0.0 -52.1799339,-25.4210289992671,0.0 -52.1809484,-25.421791499267,0.0 -52.1815672,-25.422821499267,0.0 -52.181549,-25.423568499267,0.0 -52.1812865,-25.423834199267,0.0 -52.1796844,-25.424004799267,0.0 -52.1793695,-25.424318499267,0.0 -52.1795625,-25.425040099267,0.0 -52.1794359,-25.425593499267,0.0 -52.1791194,-25.425813399267,0.0 -52.1782384,-25.425099499267,0.0 -52.17791,-25.424065799267,0.0 -52.1778612,-25.423211499267,0.0 -52.1772785,-25.423289099267,0.0 -52.177187,-25.424611799267,0.0 -52.1767209,-25.425724999267,0.0 -52.1763804,-25.4260889992669,0.0 -52.1764095,-25.4264024992669,0.0 -52.178097,-25.4268321992669,0.0 -52.1782842,-25.4271448992669,0.0 -52.1761304,-25.4290899992669,0.0 -52.1762434,-25.4295127992669,0.0 -52.1765128,-25.4297732992669,0.0 -52.1774622,-25.4297751992669,0.0 -52.1780694,-25.4295308992669,0.0 -52.1814217,-25.4296644992669,0.0 -52.1828771,-25.4294054992669,0.0 -52.1845116,-25.4283327992669,0.0 -52.1849933,-25.4286293992669,0.0 -52.1848347,-25.4291281992669,0.0 -52.18214,-25.4301597992669,0.0 -52.1811927,-25.4307444992668,0.0 -52.1808815,-25.4312784992668,0.0 -52.180886,-25.4319030992668,0.0 -52.1814999,-25.4324042992668,0.0 -52.1829392,-25.4330185992668,0.0 -52.1840575,-25.4340204992668,0.0 -52.184072,-25.4351775992668,0.0 -52.1836545,-25.4359024992667,0.0 -52.1836579,-25.4363365992667,0.0 -52.1842987,-25.4367649992667,0.0 -52.1854902,-25.4365369992667,0.0 -52.188544,-25.4344431992668,0.0 -52.1894422,-25.4341464992668,0.0 -52.1914387,-25.4350707992668,0.0 -52.1918712,-25.4359342992667,0.0 -52.1915711,-25.4375242992667,0.0 -52.190105,-25.4395582992667,0.0 -52.1894722,-25.4398545992667,0.0 -52.1887824,-25.4399074992667,0.0 -52.1879577,-25.4394063992667,0.0 -52.1873728,-25.4395570992667,0.0 -52.1869117,-25.4410060992666,0.0 -52.1871363,-25.4422081992666,0.0 -52.1875136,-25.4429725992666,0.0 -52.1879945,-25.4432600992666,0.0 -52.1885787,-25.4433521992666,0.0 -52.1901884,-25.4426888992666,0.0 -52.1906073,-25.4422030992666,0.0 -52.1907093,-25.4417684992666,0.0 -52.1917205,-25.4420967992666,0.0 -52.192249,-25.4419967992666,0.0 -52.1931393,-25.4408345992666,0.0 -52.1939864,-25.4406347992667,0.0 -52.1939776,-25.4424899992666,0.0 -52.1946699,-25.4428684992666,0.0 -52.1950576,-25.4444055992666,0.0 -52.195538,-25.4449330992666,0.0 -52.195067,-25.4455138992666,0.0 -52.1941697,-25.4458105992665,0.0 -52.1938029,-25.4461985992665,0.0 -52.1938859,-25.4467031992665,0.0 -52.1955561,-25.4493866992665,0.0 -52.1958899,-25.4510710992664,0.0 -52.1961602,-25.4515499992664,0.0 -52.1966415,-25.4518815992664,0.0 -52.1973014,-25.4517074992664,0.0 -52.198928,-25.4499144992665,0.0 -52.2001472,-25.4499040992665,0.0 -52.2012729,-25.4510991992664,0.0 -52.202056,-25.4524659992664,0.0 -52.2031271,-25.4536612992664,0.0 -52.2038219,-25.4542806992664,0.0 -52.2054188,-25.4550861992663,0.0 -52.2053596,-25.4558312992663,0.0 -52.2053271,-25.4562401992663,0.0 -52.2023403,-25.4571574992663,0.0 -52.2016031,-25.4576474992663,0.0 -52.2004136,-25.4607371992662,0.0 -52.1995459,-25.4614430992662,0.0 -52.1973739,-25.4616546992662,0.0 -52.1964646,-25.4607473992662,0.0 -52.1960823,-25.4596417992663,0.0 -52.1962789,-25.4581948992663,0.0 -52.1973492,-25.4565728992663,0.0 -52.1980865,-25.4559394992663,0.0 -52.1982909,-25.4551685992663,0.0 -52.1981273,-25.4547378992664,0.0 -52.1970624,-25.4542627992664,0.0 -52.1960002,-25.4540801992664,0.0 -52.1948864,-25.4540880992664,0.0 -52.1938042,-25.4545079992664,0.0 -52.1921912,-25.4576483992663,0.0 -52.1917145,-25.4576063992663,0.0 -52.1913399,-25.4573201992663,0.0 -52.1906163,-25.4560361992663,0.0 -52.1903141,-25.4558371992663,0.0 -52.1901318,-25.4557170992663,0.0 -52.1898724,-25.4561055992663,0.0 -52.189985,-25.4571527992663,0.0 -52.1906927,-25.4590349992663,0.0 -52.1907086,-25.4604320992662,0.0 -52.1903972,-25.4611077992662,0.0 -52.1894747,-25.4616215992662,0.0 -52.1892663,-25.4620584992662,0.0 -52.1896968,-25.4627261992662,0.0 -52.1915443,-25.4619412992662,0.0 -52.1919172,-25.4619376992662,0.0 -52.1921829,-25.4621286992662,0.0 -52.1921873,-25.4625627992662,0.0 -52.1918713,-25.4629505992662,0.0 -52.19031,-25.4630829992662,0.0 -52.1903174,-25.4638536992662,0.0 -52.1914466,-25.4651480992661,0.0 -52.1926164,-25.4658582992661,0.0 -52.1932077,-25.4668148992661,0.0 -52.1928193,-25.4675175992661,0.0 -52.1921383,-25.4681020992661,0.0 -52.1916155,-25.4692127992661,0.0 -52.191675,-25.469692699266,0.0 -52.1919424,-25.470028999266,0.0 -52.1933606,-25.4687650992661,0.0 -52.1942619,-25.4686127992661,0.0 -52.1952483,-25.469350499266,0.0 -52.1952029,-25.469929299266,0.0 -52.1946822,-25.470897499266,0.0 -52.192743,-25.473224399266,0.0 -52.1926971,-25.473899699266,0.0 -52.1935325,-25.4753601992659,0.0 -52.1931391,-25.4774623992659,0.0 -52.1927822,-25.4781176992659,0.0 -52.1919824,-25.4795904992658,0.0 -52.1886681,-25.4817415992658,0.0 -52.1891908,-25.4840960992657,0.0 -52.1888851,-25.4858420992657,0.0 -52.1888356,-25.4898110992656,0.0 -52.1897213,-25.4912387992656,0.0 -52.19225,-25.4924177992656,0.0 -52.1945545,-25.4920310992656,0.0 -52.1992698,-25.4902598992656,0.0 -52.2029688,-25.4879273992657,0.0 -52.2013323,-25.4856142992657,0.0 -52.1993582,-25.4845983992657,0.0 -52.2004977,-25.4821496992658,0.0 -52.2036074,-25.4824385992658,0.0 -52.2065874,-25.4834333992658,0.0 -52.210912,-25.4841711992657,0.0 -52.2137165,-25.4842594992657,0.0 -52.2173647,-25.4849345992657,0.0 -52.2189608,-25.4858247992657,0.0 -52.2150291,-25.4902673992656,0.0 -52.2122733,-25.4949453992655,0.0 -52.2121626,-25.4964401992655,0.0 -52.2136158,-25.4977952992655,0.0 -52.215245,-25.4984729992654,0.0 -52.218945,-25.4972193992655,0.0 -52.2222996,-25.4969892992655,0.0 -52.2234726,-25.4962996992655,0.0 -52.2251602,-25.4965275992655,0.0 -52.226059,-25.4950034992655,0.0 -52.2275243,-25.4947251992655,0.0 -52.2288106,-25.4959309992655,0.0 -52.2292221,-25.4971090992655,0.0 -52.2304702,-25.4980085992655,0.0 -52.2316671,-25.4992141992654,0.0 -52.2327192,-25.5006607992654,0.0 -52.2315511,-25.5023811992654,0.0 -52.2293568,-25.5047451992653,0.0 -52.2286919,-25.5061259992653,0.0 -52.2287529,-25.5073277992653,0.0 -52.2284438,-25.5094095992652,0.0 -52.2292012,-25.5111440992652,0.0 -52.2302502,-25.5129471992651,0.0 -52.2307253,-25.5159614992651,0.0 -52.2314986,-25.5168281992651,0.0 -52.2328045,-25.5172589992651,0.0 -52.234082,-25.5162988992651,0.0 -52.2351045,-25.5144801992651,0.0 -52.2371623,-25.5132234992651,0.0 -52.2390328,-25.5145743992651,0.0 -52.2401985,-25.5165086992651,0.0 -52.2408933,-25.518664799265,0.0 -52.2410261,-25.519793499265,0.0 -52.2406432,-25.522307499265,0.0 -52.2395255,-25.5247206992649,0.0 -52.2369738,-25.5281660992648,0.0 -52.2366118,-25.5304665992648,0.0 -52.2361073,-25.5316299992648,0.0 -52.2351359,-25.5326650992647,0.0 -52.2325797,-25.5320567992648,0.0 -52.2315325,-25.5314755992648,0.0 -52.2304137,-25.5311011992648,0.0 -52.2281617,-25.5306497992648,0.0 -52.2269106,-25.5304703992648,0.0 -52.2252209,-25.5310292992648,0.0 -52.2257991,-25.5322355992647,0.0 -52.2266637,-25.5331222992647,0.0 -52.2277724,-25.5347239992647,0.0 -52.2280029,-25.5361065992647,0.0 -52.2276051,-25.5373091992646,0.0 -52.2258903,-25.5403051992646,0.0 -52.2271624,-25.5410875992646,0.0 -52.2278187,-25.5416640992645,0.0 -52.2281949,-25.5419943992645,0.0 -52.2289704,-25.5446838992645,0.0 -52.2303001,-25.5442568992645,0.0 -52.2331093,-25.5427675992645,0.0 -52.2343106,-25.5435661992645,0.0 -52.2356148,-25.5448813992645,0.0 -52.2356377,-25.5460367992645,0.0 -52.234392,-25.5494869992644,0.0 -52.2339468,-25.5514118992644,0.0 -52.2351984,-25.5515722992644,0.0 -52.2361936,-25.5508893992644,0.0 -52.2388993,-25.5481713992644,0.0 -52.2418848,-25.5461912992645,0.0 -52.2434222,-25.5445591992645,0.0 -52.2433584,-25.5434051992645,0.0 -52.242448,-25.5416877992646,0.0 -52.242365,-25.5405587992646,0.0 -52.2432999,-25.5399102992646,0.0 -52.2458635,-25.5408451992646,0.0 -52.2469721,-25.5419314992646,0.0 -52.2491963,-25.5449991992645,0.0 -52.2504452,-25.5460960992645,0.0 -52.2524415,-25.5484210992644,0.0 -52.2526615,-25.5496509992644,0.0 -52.2521909,-25.5525971992643,0.0 -52.2517733,-25.5539367992643,0.0 -52.2508152,-25.5557605992643,0.0 -52.2499208,-25.5574629992642,0.0 -52.2484956,-25.5576706992642,0.0 -52.2469759,-25.5567139992642,0.0 -52.2447233,-25.5561996992643,0.0 -52.2405523,-25.5569617992642,0.0 -52.2393324,-25.5574163992642,0.0 -52.2384185,-25.5579829992642,0.0 -52.2377796,-25.5595454992642,0.0 -52.2383556,-25.5609231992642,0.0 -52.2423016,-25.5653652992641,0.0 -52.2437213,-25.566357799264,0.0 -52.246332,-25.567374599264,0.0 -52.247525,-25.567539599264,0.0 -52.2493361,-25.567561199264,0.0 -52.2503903,-25.567005299264,0.0 -52.2517264,-25.5660123992641,0.0 -52.2524741,-25.5646928992641,0.0 -52.2559731,-25.5628675992641,0.0 -52.2571619,-25.5624855992641,0.0 -52.2593043,-25.5630686992641,0.0 -52.259967,-25.5641062992641,0.0 -52.2598065,-25.566882899264,0.0 -52.2586385,-25.5733140992639,0.0 -52.2589705,-25.5744459992639,0.0 -52.2597468,-25.5758268992638,0.0 -52.2610185,-25.5764941992638,0.0 -52.2619992,-25.5770087992638,0.0 -52.263224,-25.5770404992638,0.0 -52.2647227,-25.5765817992638,0.0 -52.2701661,-25.5739009992639,0.0 -52.273163,-25.5738379992639,0.0 -52.2745903,-25.5743249992639,0.0 -52.2747541,-25.5767174992638,0.0 -52.2763583,-25.5772958992638,0.0 -52.2772246,-25.5773430992638,0.0 -52.2788937,-25.5755442992639,0.0 -52.2800284,-25.5733141992639,0.0 -52.2805517,-25.5728411992639,0.0 -52.2818364,-25.5721676992639,0.0 -52.282584,-25.5713940992639,0.0 -52.2824694,-25.571049899264,0.0 -52.2811155,-25.570302099264,0.0 -52.2806166,-25.569764699264,0.0 -52.279831,-25.567697099264,0.0 -52.2800293,-25.566985599264,0.0 -52.281109,-25.5658810992641,0.0 -52.2816096,-25.5650476992641,0.0 -52.2820024,-25.5639494992641,0.0 -52.282466,-25.5615210992642,0.0 -52.2824209,-25.5605721992642,0.0 -52.2821135,-25.5597202992642,0.0 -52.2794118,-25.5572609992642,0.0 -52.2779881,-25.5563237992643,0.0 -52.2776762,-25.5558985992643,0.0 -52.2773077,-25.5553962992643,0.0 -52.2760845,-25.5546400992643,0.0 -52.2750861,-25.5543124992643,0.0 -52.273912,-25.5542264992643,0.0 -52.2718626,-25.5548691992643,0.0 -52.2708864,-25.5542439992643,0.0 -52.2707563,-25.5536017992643,0.0 -52.2712796,-25.5524997992643,0.0 -52.2731154,-25.5507165992644,0.0 -52.2736162,-25.5498642992644,0.0 -52.2750842,-25.5488798992644,0.0 -52.2758043,-25.5485625992644,0.0 -52.2765311,-25.5485358992644,0.0 -52.2779166,-25.5490746992644,0.0 -52.2793059,-25.5493445992644,0.0 -52.2800849,-25.5491552992644,0.0 -52.2807182,-25.5480075992644,0.0 -52.2810332,-25.5460890992645,0.0 -52.2809761,-25.5452762992645,0.0 -52.2803605,-25.5437890992645,0.0 -52.2796128,-25.5431196992645,0.0 -52.2787809,-25.5429041992645,0.0 -52.2782524,-25.5429168992645,0.0 -52.2753344,-25.5438472992645,0.0 -52.2737192,-25.5440637992645,0.0 -52.2730863,-25.5438559992645,0.0 -52.2728308,-25.5435650992645,0.0 -52.2730006,-25.5407425992646,0.0 -52.2723012,-25.5381614992646,0.0 -52.2710547,-25.5362697992647,0.0 -52.2707461,-25.5355170992647,0.0 -52.2696912,-25.5341410992647,0.0 -52.2695263,-25.5333630992647,0.0 -52.2696073,-25.5331934992647,0.0 -52.2703299,-25.5332497992647,0.0 -52.2745541,-25.5343355992647,0.0 -52.2752182,-25.5338894992647,0.0 -52.275168,-25.5332246992647,0.0 -52.2748596,-25.5325243992647,0.0 -52.273831,-25.5314654992648,0.0 -52.2727185,-25.5291782992648,0.0 -52.2731167,-25.5284709992648,0.0 -52.2744431,-25.5275561992649,0.0 -52.2748312,-25.5268559992649,0.0 -52.2745052,-25.5259965992649,0.0 -52.2739669,-25.5253035992649,0.0 -52.2733368,-25.5249784992649,0.0 -52.2727178,-25.5249206992649,0.0 -52.2683091,-25.5254804992649,0.0 -52.2667207,-25.5241982992649,0.0 -52.265059,-25.522138299265,0.0 -52.2645846,-25.521158099265,0.0 -52.2632198,-25.519968699265,0.0 -52.2623306,-25.519532299265,0.0 -52.2614755,-25.519569099265,0.0 -52.2599734,-25.520246099265,0.0 -52.2593649,-25.520283999265,0.0 -52.25611,-25.519016199265,0.0 -52.255694,-25.518199999265,0.0 -52.2556618,-25.517675299265,0.0 -52.2559771,-25.5171998992651,0.0 -52.2574252,-25.5163362992651,0.0 -52.2618262,-25.5113818992652,0.0 -52.2605851,-25.5096940992652,0.0 -52.2599473,-25.5082525992652,0.0 -52.2598829,-25.5077536992653,0.0 -52.2601998,-25.5073684992653,0.0 -52.262978,-25.5063545992653,0.0 -52.2644457,-25.5052899992653,0.0 -52.2649144,-25.5052052992653,0.0 -52.265724,-25.5056308992653,0.0 -52.2666978,-25.5070952992653,0.0 -52.2679228,-25.5082449992652,0.0 -52.2692201,-25.5087232992652,0.0 -52.2699401,-25.5083969992652,0.0 -52.2698831,-25.5068883992653,0.0 -52.2694472,-25.5060709992653,0.0 -52.2690536,-25.5057667992653,0.0 -52.2688374,-25.5045450992653,0.0 -52.2689955,-25.5014957992654,0.0 -52.2695522,-25.5001983992654,0.0 -52.2690582,-25.4991998992654,0.0 -52.2671644,-25.4981487992655,0.0 -52.266499,-25.4974550992655,0.0 -52.2660016,-25.4966270992655,0.0 -52.2660852,-25.4957183992655,0.0 -52.2664672,-25.4947482992655,0.0 -52.267972,-25.4931669992656,0.0 -52.2698107,-25.4920154992656,0.0 -52.2705067,-25.4913441992656,0.0 -52.2717256,-25.4887351992657,0.0 -52.2724737,-25.4878938992657,0.0 -52.2734714,-25.4876818992657,0.0 -52.2752999,-25.4884893992657,0.0 -52.277282,-25.4896921992656,0.0 -52.2787117,-25.4909894992656,0.0 -52.2801436,-25.4926964992656,0.0 -52.281052,-25.4931682992656,0.0 -52.2820301,-25.4928638992656,0.0 -52.2837184,-25.4917185992656,0.0 -52.2854139,-25.4899958992656,0.0 -52.2870016,-25.4888592992657,0.0 -52.2889166,-25.4880648992657,0.0 -52.2921666,-25.4880269992657,0.0 -52.2932574,-25.4878392992657,0.0 -52.2953809,-25.4869913992657,0.0 -52.2964781,-25.4869842992657,0.0 -52.2985056,-25.4863850992657,0.0 -52.299132,-25.4855530992657,0.0 -52.2988583,-25.4845761992657,0.0 -52.2985121,-25.4840171992657,0.0 -52.2970302,-25.4823890992658,0.0 -52.2952513,-25.4809516992658,0.0 -52.2941976,-25.4808410992658,0.0 -52.2934994,-25.4816884992658,0.0 -52.2927238,-25.4837197992657,0.0 -52.2918028,-25.4840691992657,0.0 -52.2908089,-25.4840936992658,0.0 -52.2889827,-25.4833991992658,0.0 -52.2823644,-25.4813870992658,0.0 -52.2810588,-25.4815721992658,0.0 -52.280303,-25.4821949992658,0.0 -52.2794736,-25.4839404992657,0.0 -52.278835,-25.4847117992657,0.0 -52.2768863,-25.4853576992657,0.0 -52.2747775,-25.4853689992657,0.0 -52.2717738,-25.4846739992657,0.0 -52.269804,-25.4840099992658,0.0 -52.2694488,-25.4830492992658,0.0 -52.2700587,-25.4822009992658,0.0 -52.273415,-25.4812567992658,0.0 -52.278404,-25.4788003992659,0.0 -52.2819692,-25.4762304992659,0.0 -52.2825625,-25.4751427992659,0.0 -52.2826959,-25.474152599266,0.0 -52.2822796,-25.473281399266,0.0 -52.2814133,-25.472730699266,0.0 -52.2802788,-25.472436699266,0.0 -52.2780333,-25.472779499266,0.0 -52.2761712,-25.473499399266,0.0 -52.2751662,-25.4741644992659,0.0 -52.2731941,-25.4757656992659,0.0 -52.2725056,-25.4766157992659,0.0 -52.271555,-25.4770918992659,0.0 -52.2704952,-25.4772769992659,0.0 -52.2693864,-25.4770563992659,0.0 -52.2684178,-25.4766316992659,0.0 -52.2656673,-25.4749459992659,0.0 -52.2650044,-25.4740807992659,0.0 -52.26486,-25.472987199266,0.0 -52.2663043,-25.470052399266,0.0 -52.2676924,-25.4682647992661,0.0 -52.2684378,-25.4675967992661,0.0 -52.2714138,-25.4666562992661,0.0 -52.2779214,-25.4670143992661,0.0 -52.2790891,-25.4669350992661,0.0 -52.2806935,-25.4666307992661,0.0 -52.2812237,-25.4657796992661,0.0 -52.2812555,-25.4648685992662,0.0 -52.2803078,-25.4643800992661,0.0 -52.2755599,-25.4639968992662,0.0 -52.2745316,-25.4635786992662,0.0 -52.2726947,-25.4624750992662,0.0 -52.2701793,-25.4603554992662,0.0 -52.2683575,-25.4579271992663,0.0 -52.268222,-25.4569725992663,0.0 -52.2685833,-25.4561195992663,0.0 -52.2694483,-25.4553617992663,0.0 -52.2734954,-25.4538924992664,0.0 -52.2744435,-25.4529569992664,0.0 -52.2769107,-25.4515419992664,0.0 -52.2789982,-25.4515844992664,0.0 -52.284332,-25.4503121992664,0.0 -52.2854406,-25.4502430992665,0.0 -52.2861164,-25.4509728992664,0.0 -52.2858046,-25.4519248992664,0.0 -52.2840043,-25.4542041992664,0.0 -52.2838592,-25.4552520992663,0.0 -52.2833367,-25.4561925992663,0.0 -52.2823078,-25.4566660992663,0.0 -52.2816379,-25.4574812992663,0.0 -52.2813577,-25.4583785992663,0.0 -52.2816934,-25.4592506992663,0.0 -52.28275,-25.4597674992663,0.0 -52.2837521,-25.4599271992663,0.0 -52.2900592,-25.4582644992663,0.0 -52.2908639,-25.4576881992663,0.0 -52.2915886,-25.4556570992663,0.0 -52.2915842,-25.4545650992664,0.0 -52.2911114,-25.4534676992664,0.0 -52.2883338,-25.4501946992665,0.0 -52.2885935,-25.4491968992665,0.0 -52.2925281,-25.4482761992665,0.0 -52.2934229,-25.4479255992665,0.0 -52.2966354,-25.4439036992666,0.0 -52.2973609,-25.4432234992666,0.0 -52.299167,-25.4420531992666,0.0 -52.3001959,-25.4417781992666,0.0 -52.3018872,-25.4402174992667,0.0 -52.303254,-25.4385366992667,0.0 -52.3036383,-25.4375024992667,0.0 -52.3035002,-25.4365000992667,0.0 -52.3025043,-25.4359840992667,0.0 -52.3015264,-25.4362416992667,0.0 -52.3005675,-25.4366971992667,0.0 -52.2978403,-25.4388982992667,0.0 -52.2968376,-25.4395002992667,0.0 -52.2948096,-25.4415974992666,0.0 -52.2939471,-25.4420558992666,0.0 -52.2928897,-25.4418098992666,0.0 -52.2922538,-25.4410082992666,0.0 -52.2910759,-25.4369697992667,0.0 -52.2904141,-25.4360316992667,0.0 -52.2892999,-25.4359392992667,0.0 -52.2888317,-25.4368443992667,0.0 -52.2883554,-25.4388241992667,0.0 -52.2878859,-25.4397481992667,0.0 -52.2859441,-25.4416522992666,0.0 -52.284444,-25.4426860992666,0.0 -52.282109,-25.4432814992666,0.0 -52.2798049,-25.4431011992666,0.0 -52.2779464,-25.4423474992666,0.0 -52.2775609,-25.4414865992666,0.0 -52.2779732,-25.4405338992666,0.0 -52.2791096,-25.4388497992667,0.0 -52.2806927,-25.4372899992667,0.0 -52.2836404,-25.4355483992667,0.0 -52.284779,-25.4352530992668,0.0 -52.285503,-25.4346026992668,0.0 -52.2859718,-25.4337977992668,0.0 -52.2855262,-25.4329695992668,0.0 -52.284467,-25.4325700992668,0.0 -52.278948,-25.4320362992668,0.0 -52.2782214,-25.4313951992668,0.0 -52.2775783,-25.4304779992669,0.0 -52.2779388,-25.4295959992669,0.0 -52.2796659,-25.4284610992669,0.0 -52.2800254,-25.4275727992669,0.0 -52.2799817,-25.4271049992669,0.0 -52.2796638,-25.423705299267,0.0 -52.2804176,-25.4196250992671,0.0 -52.2802454,-25.4184517992671,0.0 -52.2796411,-25.4175322992671,0.0 -52.2788544,-25.4169283992671,0.0 -52.2778642,-25.4165891992671,0.0 -52.2767775,-25.4168850992671,0.0 -52.2761711,-25.4176540992671,0.0 -52.2759752,-25.4187798992671,0.0 -52.2761084,-25.4205952992671,0.0 -52.2759732,-25.421641499267,0.0 -52.2748068,-25.421942699267,0.0 -52.2731942,-25.4207045992671,0.0 -52.2722468,-25.4202151992671,0.0 -52.270112,-25.4180900992671,0.0 -52.269968,-25.4162708992671,0.0 -52.270283,-25.4143271992672,0.0 -52.2713304,-25.4112883992673,0.0 -52.2725836,-25.4092815992673,0.0 -52.273476,-25.4085962992673,0.0 -52.274472,-25.4084554992673,0.0 -52.2753579,-25.4090623992673,0.0 -52.2763583,-25.4108509992673,0.0 -52.2771136,-25.4114906992673,0.0 -52.278901,-25.4111289992673,0.0 -52.2803277,-25.4106835992673,0.0 -52.2821379,-25.4096272992673,0.0 -52.2827492,-25.4086407992673,0.0 -52.2830234,-25.4075998992673,0.0 -52.283193,-25.4047492992674,0.0 -52.2836728,-25.4038532992674,0.0 -52.284728,-25.4038782992674,0.0 -52.286552,-25.4047170992674,0.0 -52.2876425,-25.4049174992674,0.0 -52.2886686,-25.4047516992674,0.0 -52.2904136,-25.4036511992674,0.0 -52.2904402,-25.4024683992674,0.0 -52.2899453,-25.4016151992675,0.0 -52.2858301,-25.3994636992675,0.0 -52.2848862,-25.3988751992675,0.0 -52.2841112,-25.3980899992675,0.0 -52.2822457,-25.3971026992675,0.0 -52.2814101,-25.3964530992676,0.0 -52.2816326,-25.3955522992676,0.0 -52.283949,-25.3955711992676,0.0 -52.2882217,-25.3950785992676,0.0 -52.2893059,-25.3955072992676,0.0 -52.2889941,-25.3964051992676,0.0 -52.2881421,-25.3969827992676,0.0 -52.288136,-25.3981206992675,0.0 -52.2890532,-25.3986276992675,0.0 -52.2901822,-25.3984873992675,0.0 -52.2917264,-25.3973131992675,0.0 -52.2923609,-25.3965796992676,0.0 -52.2932838,-25.3961120992676,0.0 -52.2943286,-25.3945448992676,0.0 -52.2953642,-25.3944034992676,0.0 -52.2969746,-25.3957929992676,0.0 -52.2979789,-25.3958316992676,0.0 -52.2989196,-25.3953019992676,0.0 -52.2991848,-25.3948736992676,0.0 -52.2994473,-25.3944498992676,0.0 -52.2997504,-25.3934624992676,0.0 -52.2998278,-25.3914860992677,0.0 -52.3005247,-25.3894076992677,0.0 -52.2998082,-25.3886232992677,0.0 -52.2988108,-25.3888842992677,0.0 -52.2968289,-25.3898901992677,0.0 -52.2946626,-25.3905779992677,0.0 -52.293559,-25.3906112992677,0.0 -52.2925844,-25.3900196992677,0.0 -52.2913032,-25.3884805992677,0.0 -52.2908564,-25.3876730992677,0.0 -52.2851712,-25.3829331992678,0.0 -52.2839674,-25.3829543992678,0.0 -52.2829405,-25.3831869992678,0.0 -52.2817805,-25.3830001992678,0.0 -52.2816641,-25.3820972992679,0.0 -52.2828035,-25.3802966992679,0.0 -52.2843014,-25.3789423992679,0.0 -52.2887219,-25.377720499268,0.0 -52.2896627,-25.377244099268,0.0 -52.2902518,-25.376339499268,0.0 -52.2903042,-25.375437699268,0.0 -52.289051,-25.3726985992681,0.0 -52.2888032,-25.3704657992681,0.0 -52.2884998,-25.3695047992681,0.0 -52.2876954,-25.3688374992681,0.0 -52.2857251,-25.3681918992681,0.0 -52.284836,-25.3679008992682,0.0 -52.284919,-25.3669461992682,0.0 -52.2858876,-25.3651976992682,0.0 -52.2860601,-25.3642421992682,0.0 -52.2859734,-25.3633396992682,0.0 -52.2867795,-25.3627614992683,0.0 -52.2887485,-25.3618684992683,0.0 -52.2907162,-25.3605664992683,0.0 -52.2917256,-25.3605718992683,0.0 -52.2925226,-25.3611315992683,0.0 -52.2931158,-25.3620499992683,0.0 -52.2936712,-25.3642403992682,0.0 -52.2938602,-25.3664183992682,0.0 -52.2942223,-25.3673790992682,0.0 -52.2947288,-25.3682513992681,0.0 -52.29556,-25.3690641992681,0.0 -52.2966414,-25.3692571992681,0.0 -52.29828,-25.3679043992682,0.0 -52.2996141,-25.3662953992682,0.0 -52.3000533,-25.3654430992682,0.0 -52.3001375,-25.3643972992682,0.0 -52.299394,-25.3635664992682,0.0 -52.299556,-25.3626397992683,0.0 -52.3017186,-25.3621033992683,0.0 -52.3027205,-25.3615833992683,0.0 -52.3033332,-25.3596862992683,0.0 -52.303609,-25.3576508992684,0.0 -52.3044532,-25.3565324992684,0.0 -52.3061427,-25.3542939992684,0.0 -52.3077812,-25.3512814992685,0.0 -52.3073089,-25.3503104992685,0.0 -52.3027804,-25.3494650992685,0.0 -52.301697,-25.3494976992685,0.0 -52.2995304,-25.3516827992685,0.0 -52.2989115,-25.3525320992685,0.0 -52.2972527,-25.3539938992684,0.0 -52.2962806,-25.3545962992684,0.0 -52.2942472,-25.3543570992684,0.0 -52.2908282,-25.3526045992685,0.0 -52.2901111,-25.3523769992685,0.0 -52.2890499,-25.3523113992685,0.0 -52.288079,-25.3528217992685,0.0 -52.2870884,-25.3526847992685,0.0 -52.2866925,-25.3517316992685,0.0 -52.2866971,-25.3507760992685,0.0 -52.2871619,-25.3487410992686,0.0 -52.2871696,-25.3476274992686,0.0 -52.2865823,-25.3469384992686,0.0 -52.2855561,-25.3465113992686,0.0 -52.2844727,-25.3464716992686,0.0 -52.2834141,-25.3461615992686,0.0 -52.2825788,-25.3455110992686,0.0 -52.2831224,-25.3446546992686,0.0 -52.2846374,-25.3431805992687,0.0 -52.2863899,-25.3422614992687,0.0 -52.2863549,-25.3412160992687,0.0 -52.2871938,-25.3394190992687,0.0 -52.2871696,-25.3383900992688,0.0 -52.286836,-25.3374566992688,0.0 -52.2862192,-25.3366733992688,0.0 -52.2836425,-25.3349025992688,0.0 -52.283027,-25.3341724992689,0.0 -52.282082,-25.3334936992689,0.0 -52.2809995,-25.3335424992689,0.0 -52.2804219,-25.3343487992689,0.0 -52.2800625,-25.3352488992688,0.0 -52.2787238,-25.3370444992688,0.0 -52.2763315,-25.3390929992688,0.0 -52.2752823,-25.3395238992688,0.0 -52.2741916,-25.3393756992688,0.0 -52.2731429,-25.3376758992688,0.0 -52.2732168,-25.3345000992689,0.0 -52.273503,-25.3334385992689,0.0 -52.2744689,-25.3331340992689,0.0 -52.2758595,-25.3331412992689,0.0 -52.2768014,-25.3325656992689,0.0 -52.2768291,-25.3313828992689,0.0 -52.2752782,-25.3299298992689,0.0 -52.2732555,-25.328899999269,0.0 -52.2708626,-25.328966699269,0.0 -52.2676693,-25.3299949992689,0.0 -52.2655534,-25.3300052992689,0.0 -52.2646052,-25.3296205992689,0.0 -52.2638111,-25.328883799269,0.0 -52.2635267,-25.327931999269,0.0 -52.263689,-25.326932199269,0.0 -52.2643579,-25.326065599269,0.0 -52.2666383,-25.325668299269,0.0 -52.268078,-25.3242403992691,0.0 -52.2689991,-25.3238008992691,0.0 -52.2699144,-25.3229994992691,0.0 -52.270245,-25.3221008992691,0.0 -52.2686147,-25.3208011992691,0.0 -52.2674679,-25.3204167992691,0.0 -52.2664659,-25.3204049992691,0.0 -52.2654704,-25.3197985992692,0.0 -52.2647167,-25.3188764992692,0.0 -52.2626627,-25.3181113992692,0.0 -52.2622525,-25.3170614992692,0.0 -52.262386,-25.3160604992692,0.0 -52.2626673,-25.3150710992693,0.0 -52.263714,-25.3132721992693,0.0 -52.2641071,-25.3122389992693,0.0 -52.2639748,-25.3111436992693,0.0 -52.2631398,-25.3104930992693,0.0 -52.257528,-25.3112111992693,0.0 -52.2564664,-25.3110632992693,0.0 -52.2561908,-25.3101936992694,0.0 -52.2562527,-25.3060151992694,0.0 -52.256057,-25.3049758992695,0.0 -52.2563603,-25.3039768992695,0.0 -52.2574673,-25.3022671992695,0.0 -52.2605831,-25.2990371992696,0.0 -52.2610312,-25.2981859992696,0.0 -52.2615276,-25.2961053992696,0.0 -52.2617133,-25.2958279992697,0.0 -52.2626123,-25.2944847992697,0.0 -52.2629439,-25.2935861992697,0.0 -52.2630582,-25.2925370992697,0.0 -52.2625252,-25.2895924992698,0.0 -52.2608564,-25.2881658992698,0.0 -52.2577508,-25.2873684992698,0.0 -52.2574482,-25.2855437992699,0.0 -52.2569767,-25.2846276992699,0.0 -52.2560255,-25.2843447992699,0.0 -52.2550021,-25.2836919992699,0.0 -52.2535772,-25.2819586992699,0.0 -52.2513555,-25.2817157992699,0.0 -52.2491198,-25.27912719927,0.0 -52.248234,-25.27905539927,0.0 -52.2481042,-25.27843869927,0.0 -52.2476129,-25.27834039927,0.0 -52.2472854,-25.27817669927,0.0 -52.2472854,-25.27784919927,0.0 -52.2473837,-25.27703039927,0.0 -52.2473509,-25.2761788992701,0.0 -52.2467614,-25.2747051992701,0.0 -52.2467942,-25.2741484992701,0.0 -52.2465322,-25.2738864992701,0.0 -52.2463357,-25.2733624992701,0.0 -52.2463029,-25.2719542992702,0.0 -52.2459754,-25.2713319992702,0.0 -52.2459427,-25.2705787992702,0.0 -52.2464667,-25.2700219992702,0.0 -52.2468924,-25.2688430992702,0.0 -52.2469252,-25.2680734992702,0.0 -52.2472854,-25.2674839992702,0.0 -52.2474492,-25.2670254992703,0.0 -52.2476129,-25.2666324992703,0.0 -52.2473509,-25.2656172992703,0.0 -52.2480059,-25.2646674992703,0.0 -52.2490866,-25.2638159992703,0.0 -52.2492504,-25.2631282992703,0.0 -52.2496761,-25.2616217992704,0.0 -52.2498071,-25.2612287992704,0.0 -52.2506914,-25.2606720992704,0.0 -52.2513464,-25.2612615992704,0.0 -52.2581582,-25.2578555992704,0.0 -52.2586495,-25.2561853992705,0.0 -52.2544248,-25.2568076992705,0.0 -52.2539008,-25.2566766992705,0.0 -52.2516738,-25.2553666992705,0.0 -52.250867,-25.2550413992705,0.0 -52.2502574,-25.2548671992705,0.0 -52.2497498,-25.2548917992705,0.0 -52.2492258,-25.2549818992705,0.0 -52.2489786,-25.2550656992705,0.0 -52.2472936,-25.2558742992705,0.0 -52.2463766,-25.2561198992705,0.0 -52.2455743,-25.2561362992705,0.0 -52.2448374,-25.2558824992705,0.0 -52.2420864,-25.2548835992705,0.0 -52.2385249,-25.2542858992705,0.0 -52.2365354,-25.2540648992705,0.0 -52.2354629,-25.2541794992705,0.0 -52.234726,-25.2544823992705,0.0 -52.2331622,-25.2557268992705,0.0 -52.2314756,-25.2564801992705,0.0 -52.2256135,-25.2565456992705,0.0 -52.2188887,-25.2555539992705,0.0 -52.2188589,-25.2579047992704,0.0 -52.2189899,-25.2676640992702,0.0 -52.2189244,-25.2685482992702,0.0 -52.2190227,-25.2706114992702,0.0 -52.2194576,-25.2717144992702,0.0 -52.2194187,-25.2722355992702,0.0 -52.2201997,-25.2749143992701,0.0 -52.2202716,-25.27685829927,0.0 -52.2199304,-25.27846859927,0.0 -52.2192861,-25.27974949927,0.0 -52.218949,-25.2833849992699,0.0 -52.2190423,-25.2861068992699,0.0 -52.219561,-25.2877844992698,0.0 -52.2196215,-25.2886027992698,0.0 -52.2208486,-25.2908682992698,0.0 -52.2208116,-25.2923847992697,0.0 -52.2201291,-25.2930154992697,0.0 -52.215373,-25.2954189992697,0.0 -52.2146917,-25.2959630992697,0.0 -52.2141195,-25.2974595992696,0.0 -52.2140731,-25.2975808992696,0.0 -52.213551,-25.2983072992696,0.0 -52.2133651,-25.3023163992695,0.0 -52.2137734,-25.3033969992695,0.0 -52.2124811,-25.3038180992695,0.0 -52.2123776,-25.3040352992695,0.0 -52.2125697,-25.3046836992695,0.0 -52.2142002,-25.3049714992695,0.0 -52.2146515,-25.3052088992695,0.0 -52.2146336,-25.3060271992694,0.0 -52.2139763,-25.3064902992694,0.0 -52.2139794,-25.3067528992694,0.0 -52.2145124,-25.3071834992694,0.0 -52.2144932,-25.3078817992694,0.0 -52.2134858,-25.3084434992694,0.0 -52.2119726,-25.3084197992694,0.0 -52.2096736,-25.3089459992694,0.0 -52.2089557,-25.3087350992694,0.0 -52.208342,-25.3081852992694,0.0 -52.2072312,-25.3084831992694,0.0 -52.206839,-25.3087517992694,0.0 -52.2058985,-25.3087475992694,0.0 -52.2047264,-25.3080826992694,0.0 -52.2030599,-25.3082148992694,0.0 -52.202793,-25.3079291992694,0.0 -52.2019996,-25.3079844992694,0.0 -52.2016312,-25.3085223992694,0.0 -52.2015084,-25.3091687992694,0.0 -52.2010374,-25.3096521992694,0.0 -52.2002056,-25.3098883992694,0.0 -52.1992495,-25.3097990992694,0.0 -52.1989351,-25.3099721992694,0.0 -52.1987547,-25.3102821992694,0.0 -52.1990276,-25.3114387992693,0.0 -52.1987187,-25.3121154992693,0.0 -52.1980637,-25.3128194992693,0.0 -52.1979609,-25.3132522992693,0.0 -52.1962058,-25.3135926992693,0.0 -52.1955709,-25.3138159992693,0.0 -52.1952825,-25.3141047992693,0.0 -52.1953688,-25.3147799992693,0.0 -52.1948499,-25.3158195992692,0.0 -52.1948773,-25.3161771992692,0.0 -52.195474,-25.3174027992692,0.0 -52.1962286,-25.3175536992692,0.0 -52.1967087,-25.3178627992692,0.0 -52.1968457,-25.3182687992692,0.0 -52.196025,-25.3209009992691,0.0 -52.1962995,-25.3218843992691,0.0 -52.1966485,-25.3224616992691,0.0 -52.1978587,-25.3230414992691,0.0 -52.199333,-25.324907599269,0.0 -52.2005065,-25.325884799269,0.0 -52.2009856,-25.326000799269,0.0 -52.2021366,-25.325883999269,0.0 -52.2030692,-25.326429599269,0.0 -52.2040622,-25.327795299269,0.0 -52.2043405,-25.328997999269,0.0 -52.2051448,-25.3300961992689,0.0 -52.2051742,-25.3304574992689,0.0 -52.2038192,-25.3315418992689,0.0 -52.203277,-25.3328690992689,0.0 -52.2021771,-25.3340342992689,0.0 -52.2021567,-25.3345384992689,0.0 -52.2023992,-25.3350656992688,0.0 -52.201947,-25.3352866992688,0.0 -52.2006675,-25.3352854992688,0.0 -52.2002447,-25.3355285992688,0.0 -52.1997477,-25.3360864992688,0.0 -52.1997573,-25.3370485992688,0.0 -52.1987777,-25.3369833992688,0.0 -52.198239,-25.3363991992688,0.0 -52.1976923,-25.3362896992688,0.0 -52.1961367,-25.3364177992688,0.0 -52.1941502,-25.3377379992688,0.0 -52.192075,-25.3400055992687,0.0 -52.190698,-25.3420823992687,0.0 -52.1898577,-25.3427406992687,0.0 -52.1895718,-25.3433923992687,0.0 -52.1896846,-25.3440894992686,0.0 -52.1895051,-25.3446684992686,0.0 -52.1889773,-25.3448911992686,0.0 -52.1885011,-25.3448446992686,0.0 -52.187502,-25.3442882992686,0.0 -52.1859419,-25.3444450992687,0.0 -52.1847126,-25.3460686992686,0.0 -52.1827048,-25.3466620992686,0.0 -52.182064,-25.3473273992686,0.0 -52.1824673,-25.3480001992686,0.0 -52.1825492,-25.3484324992686,0.0 -52.1823632,-25.3488498992686,0.0 -52.1812726,-25.3497604992685,0.0 -52.1802009,-25.3498058992685,0.0 -52.1796345,-25.3500750992685,0.0 -52.1794636,-25.3503409992685,0.0 -52.1793904,-25.3517793992685,0.0 -52.1779958,-25.3526221992685,0.0 -52.1779642,-25.3534059992685,0.0 -52.1809462,-25.3537793992685,0.0 -52.1811772,-25.3541449992684,0.0 -52.1811834,-25.3547244992684,0.0 -52.180762,-25.3550666992684,0.0 -52.1806861,-25.3553553992684,0.0 -52.1810089,-25.3557618992684,0.0 -52.18196,-25.3556102992684,0.0 -52.1838281,-25.3545350992684,0.0 -52.1848069,-25.3541915992684,0.0 -52.1854066,-25.3547494992684,0.0 -52.1853072,-25.3553555992684,0.0 -52.1859536,-25.3565754992684,0.0 -52.1855649,-25.3570597992684,0.0 -52.184111,-25.3576753992684,0.0 -52.1839578,-25.3581580992684,0.0 -52.1840926,-25.3584457992683,0.0 -52.1848329,-25.3587707992683,0.0 -52.1847753,-25.3593674992683,0.0 -52.1837701,-25.3592792992683,0.0 -52.1829975,-25.3588527992683,0.0 -52.1818347,-25.3590053992683,0.0 -52.181573,-25.3592954992683,0.0 -52.1817887,-25.3598251992683,0.0 -52.1838559,-25.3613134992683,0.0 -52.1837812,-25.3617962992683,0.0 -52.1827487,-25.3618701992683,0.0 -52.1810731,-25.3610959992683,0.0 -52.1805458,-25.3613402992683,0.0 -52.1801795,-25.3618492992683,0.0 -52.1795982,-25.3618537992683,0.0 -52.1793848,-25.3616381992683,0.0 -52.1793353,-25.3608325992683,0.0 -52.179068,-25.3605684992683,0.0 -52.1784623,-25.3607423992683,0.0 -52.1777303,-25.3617837992683,0.0 -52.1772005,-25.3618602992683,0.0 -52.1767219,-25.3615745992683,0.0 -52.176415,-25.3600429992683,0.0 -52.1760229,-25.3594253992683,0.0 -52.1755699,-25.3590199992683,0.0 -52.1748327,-25.3591534992683,0.0 -52.1745662,-25.3593648992683,0.0 -52.174312,-25.3600800992683,0.0 -52.1742627,-25.3609800992683,0.0 -52.172846,-25.3634838992682,0.0 -52.1735748,-25.3649701992682,0.0 -52.1731307,-25.3653607992682,0.0 -52.1727037,-25.3651452992682,0.0 -52.1723061,-25.3652250992682,0.0 -52.1724055,-25.3672684992682,0.0 -52.1727911,-25.3673960992682,0.0 -52.1736363,-25.3672214992682,0.0 -52.1741091,-25.3669051992682,0.0 -52.1746424,-25.3669244992682,0.0 -52.1749865,-25.3672346992682,0.0 -52.1752068,-25.3680513992682,0.0 -52.175194,-25.3692315992681,0.0 -52.1759366,-25.3695394992681,0.0 -52.1768507,-25.3695426992681,0.0 -52.1771982,-25.3698275992681,0.0 -52.1777887,-25.3706714992681,0.0 -52.1779372,-25.3720367992681,0.0 -52.1775957,-25.3724747992681,0.0 -52.176252,-25.373019499268,0.0 -52.1763345,-25.373615199268,0.0 -52.176704,-25.373492499268,0.0 -52.1771987,-25.373764899268,0.0 -52.1768816,-25.374103799268,0.0 -52.1754568,-25.374031099268,0.0 -52.1746394,-25.373670899268,0.0 -52.1731033,-25.374053399268,0.0 -52.1717852,-25.374743599268,0.0 -52.1714515,-25.375459599268,0.0 -52.1714594,-25.376254699268,0.0 -52.1720007,-25.377262199268,0.0 -52.1726944,-25.3779791992679,0.0 -52.1733675,-25.3790812992679,0.0 -52.1733969,-25.3794416992679,0.0 -52.1729785,-25.3812882992679,0.0 -52.1730636,-25.3819119992679,0.0 -52.1727791,-25.3825897992679,0.0 -52.1710877,-25.3829161992678,0.0 -52.1707449,-25.3831113992678,0.0 -52.1705654,-25.3838111992678,0.0 -52.1708209,-25.3841319992678,0.0 -52.1717523,-25.3845803992678,0.0 -52.1733179,-25.3849553992678,0.0 -52.1731326,-25.3853798992678,0.0 -52.1728648,-25.3856734992678,0.0 -52.1711142,-25.3863672992678,0.0 -52.1707882,-25.3863722992678,0.0 -52.1702899,-25.3854735992678,0.0 -52.169742,-25.3856246992678,0.0 -52.1691365,-25.3866359992678,0.0 -52.1691127,-25.3870237992678,0.0</coordinates>
</LinearRing>
</outerBoundaryIs>
</Polygon>
</MultiGeometry>
</Placemark>
</Folder>
</Document></kml>
