<?xml version='1.0' encoding='UTF-8'?>
<kml xmlns:xsd="http://www.w3.org/2001/XMLSchema" xmlns:gx="http://www.google.com/kml/ext/2.2" xmlns:atom="http://www.w3.org/2005/Atom" xmlns="http://www.opengis.net/kml/2.2">
<Document>
<name>pe_de_serra_2924058_localidades_2022</name>
<visibility>1</visibility>
<Schema name="Povoados" id="kml_schema_ft_Povoados">
<SimpleField type="xsd:string" name="CD_UF">
<displayName>CD_UF</displayName>
</SimpleField>
<SimpleField type="xsd:string" name="NM_UF">
<displayName>NM_UF</displayName>
</SimpleField>
<SimpleField type="xsd:string" name="SIGLA_UF">
<displayName>SIGLA_UF</displayName>
</SimpleField>
<SimpleField type="xsd:string" name="CD_MUN">
<displayName>CD_MUN</displayName>
</SimpleField>
<SimpleField type="xsd:string" name="NM_MUN">
<displayName>NM_MUN</displayName>
</SimpleField>
<SimpleField type="xsd:string" name="CD_RGINT">
<displayName>CD_RGINT</displayName>
</SimpleField>
<SimpleField type="xsd:string" name="NM_RGINT">
<displayName>NM_RGINT</displayName>
</SimpleField>
<SimpleField type="xsd:string" name="CD_RGI">
<displayName>CD_RGI</displayName>
</SimpleField>
<SimpleField type="xsd:string" name="NM_RGI">
<displayName>NM_RGI</displayName>
</SimpleField>
<SimpleField type="xsd:string" name="CT_LOCALIDADE">
<displayName>CT_LOCALIDADE</displayName>
</SimpleField>
<SimpleField type="xsd:string" name="CD_LOCALIDADE">
<displayName>CD_LOCALIDADE</displayName>
</SimpleField>
<SimpleField type="xsd:string" name="NM_LOCALIDADE">
<displayName>NM_LOCALIDADE</displayName>
</SimpleField>
<SimpleField type="xsd:string" name="LAT_LOCALIDADE">
<displayName>LAT_LOCALIDADE</displayName>
</SimpleField>
<SimpleField type="xsd:string" name="LONG_LOCALIDADE">
<displayName>LONG_LOCALIDADE</displayName>
</SimpleField>
</Schema>
<Schema name="Localidades" id="kml_schema_ft_Localidades">
<SimpleField type="xsd:string" name="CD_UF">
<displayName>CD_UF</displayName>
</SimpleField>
<SimpleField type="xsd:string" name="NM_UF">
<displayName>NM_UF</displayName>
</SimpleField>
<SimpleField type="xsd:string" name="SIGLA_UF">
<displayName>SIGLA_UF</displayName>
</SimpleField>
<SimpleField type="xsd:string" name="CD_MUN">
<displayName>CD_MUN</displayName>
</SimpleField>
<SimpleField type="xsd:string" name="NM_MUN">
<displayName>NM_MUN</displayName>
</SimpleField>
<SimpleField type="xsd:string" name="CD_RGINT">
<displayName>CD_RGINT</displayName>
</SimpleField>
<SimpleField type="xsd:string" name="NM_RGINT">
<displayName>NM_RGINT</displayName>
</SimpleField>
<SimpleField type="xsd:string" name="CD_RGI">
<displayName>CD_RGI</displayName>
</SimpleField>
<SimpleField type="xsd:string" name="NM_RGI">
<displayName>NM_RGI</displayName>
</SimpleField>
<SimpleField type="xsd:string" name="CT_LOCALIDADE">
<displayName>CT_LOCALIDADE</displayName>
</SimpleField>
<SimpleField type="xsd:string" name="SCT_LOCALIDADE">
<displayName>SCT_LOCALIDADE</displayName>
</SimpleField>
<SimpleField type="xsd:string" name="CD_LOCALIDADE">
<displayName>CD_LOCALIDADE</displayName>
</SimpleField>
<SimpleField type="xsd:string" name="NM_LOCALIDADE">
<displayName>NM_LOCALIDADE</displayName>
</SimpleField>
</Schema>
<Schema name="Núcleos Urbanos" id="kml_schema_ft_Núcleos_Urbanos">
<SimpleField type="xsd:string" name="CD_UF">
<displayName>CD_UF</displayName>
</SimpleField>
<SimpleField type="xsd:string" name="NM_UF">
<displayName>NM_UF</displayName>
</SimpleField>
<SimpleField type="xsd:string" name="SIGLA_UF">
<displayName>SIGLA_UF</displayName>
</SimpleField>
<SimpleField type="xsd:string" name="CD_MUN">
<displayName>CD_MUN</displayName>
</SimpleField>
<SimpleField type="xsd:string" name="NM_MUN">
<displayName>NM_MUN</displayName>
</SimpleField>
<SimpleField type="xsd:string" name="CD_RGINT">
<displayName>CD_RGINT</displayName>
</SimpleField>
<SimpleField type="xsd:string" name="NM_RGINT">
<displayName>NM_RGINT</displayName>
</SimpleField>
<SimpleField type="xsd:string" name="CD_RGI">
<displayName>CD_RGI</displayName>
</SimpleField>
<SimpleField type="xsd:string" name="NM_RGI">
<displayName>NM_RGI</displayName>
</SimpleField>
<SimpleField type="xsd:string" name="CT_LOCALIDADE">
<displayName>CT_LOCALIDADE</displayName>
</SimpleField>
<SimpleField type="xsd:string" name="CD_LOCALIDADE">
<displayName>CD_LOCALIDADE</displayName>
</SimpleField>
<SimpleField type="xsd:string" name="NM_LOCALIDADE">
<displayName>NM_LOCALIDADE</displayName>
</SimpleField>
<SimpleField type="xsd:string" name="LAT_LOCALIDADE">
<displayName>LAT_LOCALIDADE</displayName>
</SimpleField>
<SimpleField type="xsd:string" name="LONG_LOCALIDADE">
<displayName>LONG_LOCALIDADE</displayName>
</SimpleField>
</Schema>
<Schema name="01. Cidade" id="kml_schema_ft_01._Cidade">
<SimpleField type="xsd:string" name="CD_UF">
<displayName>CD_UF</displayName>
</SimpleField>
<SimpleField type="xsd:string" name="NM_UF">
<displayName>NM_UF</displayName>
</SimpleField>
<SimpleField type="xsd:string" name="SIGLA_UF">
<displayName>SIGLA_UF</displayName>
</SimpleField>
<SimpleField type="xsd:string" name="CD_MUN">
<displayName>CD_MUN</displayName>
</SimpleField>
<SimpleField type="xsd:string" name="NM_MUN">
<displayName>NM_MUN</displayName>
</SimpleField>
<SimpleField type="xsd:string" name="CD_RGINT">
<displayName>CD_RGINT</displayName>
</SimpleField>
<SimpleField type="xsd:string" name="NM_RGINT">
<displayName>NM_RGINT</displayName>
</SimpleField>
<SimpleField type="xsd:string" name="CD_RGI">
<displayName>CD_RGI</displayName>
</SimpleField>
<SimpleField type="xsd:string" name="NM_RGI">
<displayName>NM_RGI</displayName>
</SimpleField>
<SimpleField type="xsd:string" name="CT_LOCALIDADE">
<displayName>CT_LOCALIDADE</displayName>
</SimpleField>
<SimpleField type="xsd:string" name="SCT_LOCALIDADE">
<displayName>SCT_LOCALIDADE</displayName>
</SimpleField>
<SimpleField type="xsd:string" name="CD_LOCALIDADE">
<displayName>CD_LOCALIDADE</displayName>
</SimpleField>
<SimpleField type="xsd:string" name="NM_LOCALIDADE">
<displayName>NM_LOCALIDADE</displayName>
</SimpleField>
<SimpleField type="xsd:string" name="LAT_LOCALIDADE">
<displayName>LAT_LOCALIDADE</displayName>
</SimpleField>
<SimpleField type="xsd:string" name="LONG_LOCALIDADE">
<displayName>LONG_LOCALIDADE</displayName>
</SimpleField>
</Schema>
<Schema name="Município" id="kml_schema_ft_Município">
<SimpleField type="xsd:string" name="CD_UF">
<displayName>CD_UF</displayName>
</SimpleField>
<SimpleField type="xsd:string" name="NM_UF">
<displayName>NM_UF</displayName>
</SimpleField>
<SimpleField type="xsd:string" name="CD_MUN">
<displayName>CD_MUN</displayName>
</SimpleField>
<SimpleField type="xsd:string" name="NM_MUN">
<displayName>NM_MUN</displayName>
</SimpleField>
<SimpleField type="xsd:string" name="CD_RGINT">
<displayName>CD_RGINT</displayName>
</SimpleField>
<SimpleField type="xsd:string" name="NM_RGINT">
<displayName>NM_RGINT</displayName>
</SimpleField>
<SimpleField type="xsd:string" name="CD_RGI">
<displayName>CD_RGI</displayName>
</SimpleField>
<SimpleField type="xsd:string" name="NM_RGI">
<displayName>NM_RGI</displayName>
</SimpleField>
</Schema>
<Folder id="01. Cidade">
<name>01. Cidade</name>
<Folder id="01.03. Sede Municipal">
<name>01.03. Sede Municipal</name>
<Placemark id="01.03. Sede Municipal">
<name>Pé de Serra [2924058]</name>
<visibility>1</visibility>
<snippet> </snippet>
<description>&lt;center&gt;&lt;table&gt;&lt;tr&gt;&lt;th colspan='2' align='center'&gt;&lt;em&gt;Atributos&lt;/em&gt;&lt;/th&gt;&lt;/tr&gt;&lt;tr bgcolor="#E3E3F3"&gt;
&lt;th&gt;CD_UF&lt;/th&gt;
&lt;td&gt;29&lt;/td&gt;
&lt;/tr&gt;&lt;tr bgcolor=""&gt;
&lt;th&gt;NM_UF&lt;/th&gt;
&lt;td&gt;Bahia&lt;/td&gt;
&lt;/tr&gt;&lt;tr bgcolor="#E3E3F3"&gt;
&lt;th&gt;SIGLA_UF&lt;/th&gt;
&lt;td&gt;BA&lt;/td&gt;
&lt;/tr&gt;&lt;tr bgcolor=""&gt;
&lt;th&gt;CD_MUN&lt;/th&gt;
&lt;td&gt;2924058&lt;/td&gt;
&lt;/tr&gt;&lt;tr bgcolor="#E3E3F3"&gt;
&lt;th&gt;NM_MUN&lt;/th&gt;
&lt;td&gt;Pé de Serra&lt;/td&gt;
&lt;/tr&gt;&lt;tr bgcolor=""&gt;
&lt;th&gt;CD_RGINT&lt;/th&gt;
&lt;td&gt;2910&lt;/td&gt;
&lt;/tr&gt;&lt;tr bgcolor="#E3E3F3"&gt;
&lt;th&gt;NM_RGINT&lt;/th&gt;
&lt;td&gt;Feira de Santana&lt;/td&gt;
&lt;/tr&gt;&lt;tr bgcolor=""&gt;
&lt;th&gt;CD_RGI&lt;/th&gt;
&lt;td&gt;290029&lt;/td&gt;
&lt;/tr&gt;&lt;tr bgcolor="#E3E3F3"&gt;
&lt;th&gt;NM_RGI&lt;/th&gt;
&lt;td&gt;Feira de Santana&lt;/td&gt;
&lt;/tr&gt;&lt;tr bgcolor=""&gt;
&lt;th&gt;CT_LOCALIDADE&lt;/th&gt;
&lt;td&gt;Cidade&lt;/td&gt;
&lt;/tr&gt;&lt;tr bgcolor="#E3E3F3"&gt;
&lt;th&gt;SCT_LOCALIDADE&lt;/th&gt;
&lt;td&gt;Sede Municipal&lt;/td&gt;
&lt;/tr&gt;&lt;tr bgcolor=""&gt;
&lt;th&gt;CD_LOCALIDADE&lt;/th&gt;
&lt;td&gt;2924058&lt;/td&gt;
&lt;/tr&gt;&lt;tr bgcolor="#E3E3F3"&gt;
&lt;th&gt;NM_LOCALIDADE&lt;/th&gt;
&lt;td&gt;Pé de Serra&lt;/td&gt;
&lt;/tr&gt;&lt;tr bgcolor=""&gt;
&lt;th&gt;LAT_LOCALIDADE&lt;/th&gt;
&lt;td&gt;-11.836&lt;/td&gt;
&lt;/tr&gt;&lt;tr bgcolor="#E3E3F3"&gt;
&lt;th&gt;LONG_LOCALIDADE&lt;/th&gt;
&lt;td&gt;-39.6156&lt;/td&gt;
&lt;/tr&gt;&lt;/table&gt;&lt;/center&gt;</description>
<Style>
<IconStyle>
<color>ff00aaff</color>
<scale>1.0</scale>
<Icon>
<href>http://maps.google.com/mapfiles/kml/shapes/placemark_circle.png</href>
</Icon>
</IconStyle>
<LabelStyle>
<scale>1.0</scale>
</LabelStyle>
<LineStyle>
<color>ffffffff</color>
<width>3</width>
<gx:labelVisibility>1</gx:labelVisibility>
</LineStyle>
<PolyStyle>
<color>00ffffff</color>
</PolyStyle>
</Style>
<ExtendedData>
<SchemaData schemaUrl="#kml_schema_ft_01._Cidade">
<SimpleData name="CD_UF">29</SimpleData>
<SimpleData name="NM_UF">Bahia</SimpleData>
<SimpleData name="SIGLA_UF">BA</SimpleData>
<SimpleData name="CD_MUN">2924058</SimpleData>
<SimpleData name="NM_MUN">Pé de Serra</SimpleData>
<SimpleData name="CD_RGINT">2910</SimpleData>
<SimpleData name="NM_RGINT">Feira de Santana</SimpleData>
<SimpleData name="CD_RGI">290029</SimpleData>
<SimpleData name="NM_RGI">Feira de Santana</SimpleData>
<SimpleData name="CT_LOCALIDADE">Cidade</SimpleData>
<SimpleData name="SCT_LOCALIDADE">Sede Municipal</SimpleData>
<SimpleData name="CD_LOCALIDADE">2924058</SimpleData>
<SimpleData name="NM_LOCALIDADE">Pé de Serra</SimpleData>
<SimpleData name="LAT_LOCALIDADE">-11.836</SimpleData>
<SimpleData name="LONG_LOCALIDADE">-39.6156</SimpleData>
</SchemaData>
</ExtendedData>
<Point>
<extrude>0</extrude>
<coordinates>-39.6156,-11.8359999996198,0.0</coordinates>
</Point>
</Placemark>
</Folder>
</Folder>
<Folder id="05. Núcleos Urbanos">
<name>05. Núcleos Urbanos</name>
<Placemark id="localidades">
<name>Santo Agostinho [2924058001]</name>
<visibility>1</visibility>
<snippet> </snippet>
<description>&lt;center&gt;&lt;table&gt;&lt;tr&gt;&lt;th colspan='2' align='center'&gt;&lt;em&gt;Attributes&lt;/em&gt;&lt;/th&gt;&lt;/tr&gt;&lt;tr bgcolor="#E3E3F3"&gt;
&lt;th&gt;CD_UF&lt;/th&gt;
&lt;td&gt;29&lt;/td&gt;
&lt;/tr&gt;&lt;tr bgcolor=""&gt;
&lt;th&gt;NM_UF&lt;/th&gt;
&lt;td&gt;Bahia&lt;/td&gt;
&lt;/tr&gt;&lt;tr bgcolor="#E3E3F3"&gt;
&lt;th&gt;SIGLA_UF&lt;/th&gt;
&lt;td&gt;BA&lt;/td&gt;
&lt;/tr&gt;&lt;tr bgcolor=""&gt;
&lt;th&gt;CD_MUN&lt;/th&gt;
&lt;td&gt;2924058&lt;/td&gt;
&lt;/tr&gt;&lt;tr bgcolor="#E3E3F3"&gt;
&lt;th&gt;NM_MUN&lt;/th&gt;
&lt;td&gt;Pé de Serra&lt;/td&gt;
&lt;/tr&gt;&lt;tr bgcolor=""&gt;
&lt;th&gt;CD_RGINT&lt;/th&gt;
&lt;td&gt;2910&lt;/td&gt;
&lt;/tr&gt;&lt;tr bgcolor="#E3E3F3"&gt;
&lt;th&gt;NM_RGINT&lt;/th&gt;
&lt;td&gt;Feira de Santana&lt;/td&gt;
&lt;/tr&gt;&lt;tr bgcolor=""&gt;
&lt;th&gt;CD_RGI&lt;/th&gt;
&lt;td&gt;290029&lt;/td&gt;
&lt;/tr&gt;&lt;tr bgcolor="#E3E3F3"&gt;
&lt;th&gt;NM_RGI&lt;/th&gt;
&lt;td&gt;Feira de Santana&lt;/td&gt;
&lt;/tr&gt;&lt;tr bgcolor=""&gt;
&lt;th&gt;CT_LOCALIDADE&lt;/th&gt;
&lt;td&gt;Núcleo Urbano&lt;/td&gt;
&lt;/tr&gt;&lt;tr bgcolor="#E3E3F3"&gt;
&lt;th&gt;CD_LOCALIDADE&lt;/th&gt;
&lt;td&gt;2924058001&lt;/td&gt;
&lt;/tr&gt;&lt;tr bgcolor=""&gt;
&lt;th&gt;NM_LOCALIDADE&lt;/th&gt;
&lt;td&gt;Santo Agostinho&lt;/td&gt;
&lt;/tr&gt;&lt;tr bgcolor="#E3E3F3"&gt;
&lt;th&gt;LAT_LOCALIDADE&lt;/th&gt;
&lt;td&gt;-11.8987&lt;/td&gt;
&lt;/tr&gt;&lt;tr bgcolor=""&gt;
&lt;th&gt;LONG_LOCALIDADE&lt;/th&gt;
&lt;td&gt;-39.6617&lt;/td&gt;
&lt;/tr&gt;&lt;/table&gt;&lt;/center&gt;</description>
<Style>
<IconStyle>
<color>ff0000ff</color>
<scale>0.9</scale>
<Icon>
<href>http://maps.google.com/mapfiles/kml/shapes/placemark_circle.png</href>
</Icon>
</IconStyle>
<LabelStyle>
<scale>0.9</scale>
</LabelStyle>
<LineStyle>
<color>72ffffff</color>
<width>1.0</width>
<gx:labelVisibility>1</gx:labelVisibility>
</LineStyle>
<PolyStyle>
<color>66ff54ff</color>
</PolyStyle>
</Style>
<ExtendedData>
<SchemaData schemaUrl="#kml_schema_ft_Núcleos_Urbanos">
<SimpleData name="CD_UF">29</SimpleData>
<SimpleData name="NM_UF">Bahia</SimpleData>
<SimpleData name="SIGLA_UF">BA</SimpleData>
<SimpleData name="CD_MUN">2924058</SimpleData>
<SimpleData name="NM_MUN">Pé de Serra</SimpleData>
<SimpleData name="CD_RGINT">2910</SimpleData>
<SimpleData name="NM_RGINT">Feira de Santana</SimpleData>
<SimpleData name="CD_RGI">290029</SimpleData>
<SimpleData name="NM_RGI">Feira de Santana</SimpleData>
<SimpleData name="CT_LOCALIDADE">Núcleo Urbano</SimpleData>
<SimpleData name="CD_LOCALIDADE">2924058001</SimpleData>
<SimpleData name="NM_LOCALIDADE">Santo Agostinho</SimpleData>
<SimpleData name="LAT_LOCALIDADE">-11.8987</SimpleData>
<SimpleData name="LONG_LOCALIDADE">-39.6617</SimpleData>
</SchemaData>
</ExtendedData>
<Point>
<extrude>0</extrude>
<coordinates>-39.66175,-11.898705999618,0.0</coordinates>
</Point>
</Placemark>
</Folder>
<Folder id="06. Povoados">
<name>06. Povoados</name>
<Placemark id="06. Povoados">
<name>Aroeira [292405800002]</name>
<visibility>1</visibility>
<snippet> </snippet>
<description>&lt;center&gt;&lt;table&gt;&lt;tr&gt;&lt;th colspan='2' align='center'&gt;&lt;em&gt;Atributos&lt;/em&gt;&lt;/th&gt;&lt;/tr&gt;&lt;tr bgcolor="#E3E3F3"&gt;
&lt;th&gt;CD_UF&lt;/th&gt;
&lt;td&gt;29&lt;/td&gt;
&lt;/tr&gt;&lt;tr bgcolor=""&gt;
&lt;th&gt;NM_UF&lt;/th&gt;
&lt;td&gt;Bahia&lt;/td&gt;
&lt;/tr&gt;&lt;tr bgcolor="#E3E3F3"&gt;
&lt;th&gt;SIGLA_UF&lt;/th&gt;
&lt;td&gt;BA&lt;/td&gt;
&lt;/tr&gt;&lt;tr bgcolor=""&gt;
&lt;th&gt;CD_MUN&lt;/th&gt;
&lt;td&gt;2924058&lt;/td&gt;
&lt;/tr&gt;&lt;tr bgcolor="#E3E3F3"&gt;
&lt;th&gt;NM_MUN&lt;/th&gt;
&lt;td&gt;Pé de Serra&lt;/td&gt;
&lt;/tr&gt;&lt;tr bgcolor=""&gt;
&lt;th&gt;CD_RGINT&lt;/th&gt;
&lt;td&gt;2910&lt;/td&gt;
&lt;/tr&gt;&lt;tr bgcolor="#E3E3F3"&gt;
&lt;th&gt;NM_RGINT&lt;/th&gt;
&lt;td&gt;Feira de Santana&lt;/td&gt;
&lt;/tr&gt;&lt;tr bgcolor=""&gt;
&lt;th&gt;CD_RGI&lt;/th&gt;
&lt;td&gt;290029&lt;/td&gt;
&lt;/tr&gt;&lt;tr bgcolor="#E3E3F3"&gt;
&lt;th&gt;NM_RGI&lt;/th&gt;
&lt;td&gt;Feira de Santana&lt;/td&gt;
&lt;/tr&gt;&lt;tr bgcolor=""&gt;
&lt;th&gt;CT_LOCALIDADE&lt;/th&gt;
&lt;td&gt;Povoado&lt;/td&gt;
&lt;/tr&gt;&lt;tr bgcolor="#E3E3F3"&gt;
&lt;th&gt;CD_LOCALIDADE&lt;/th&gt;
&lt;td&gt;292405800002&lt;/td&gt;
&lt;/tr&gt;&lt;tr bgcolor=""&gt;
&lt;th&gt;NM_LOCALIDADE&lt;/th&gt;
&lt;td&gt;Aroeira&lt;/td&gt;
&lt;/tr&gt;&lt;tr bgcolor="#E3E3F3"&gt;
&lt;th&gt;LAT_LOCALIDADE&lt;/th&gt;
&lt;td&gt;-11.9609&lt;/td&gt;
&lt;/tr&gt;&lt;tr bgcolor=""&gt;
&lt;th&gt;LONG_LOCALIDADE&lt;/th&gt;
&lt;td&gt;-39.5641&lt;/td&gt;
&lt;/tr&gt;&lt;/table&gt;&lt;/center&gt;</description>
<Style>
<IconStyle>
<color>ff00ff54</color>
<scale>0.8</scale>
<Icon>
<href>http://maps.google.com/mapfiles/kml/shapes/placemark_circle.png</href>
</Icon>
</IconStyle>
<LabelStyle>
<scale>0.8</scale>
</LabelStyle>
<LineStyle>
<color>72ff54ff</color>
<width>1.0</width>
<gx:labelVisibility>1</gx:labelVisibility>
</LineStyle>
<PolyStyle>
<color>66ff54ff</color>
</PolyStyle>
</Style>
<ExtendedData>
<SchemaData schemaUrl="#kml_schema_ft_Povoados">
<SimpleData name="CD_UF">29</SimpleData>
<SimpleData name="NM_UF">Bahia</SimpleData>
<SimpleData name="SIGLA_UF">BA</SimpleData>
<SimpleData name="CD_MUN">2924058</SimpleData>
<SimpleData name="NM_MUN">Pé de Serra</SimpleData>
<SimpleData name="CD_RGINT">2910</SimpleData>
<SimpleData name="NM_RGINT">Feira de Santana</SimpleData>
<SimpleData name="CD_RGI">290029</SimpleData>
<SimpleData name="NM_RGI">Feira de Santana</SimpleData>
<SimpleData name="CT_LOCALIDADE">Povoado</SimpleData>
<SimpleData name="CD_LOCALIDADE">292405800002</SimpleData>
<SimpleData name="NM_LOCALIDADE">Aroeira</SimpleData>
<SimpleData name="LAT_LOCALIDADE">-11.9609</SimpleData>
<SimpleData name="LONG_LOCALIDADE">-39.5641</SimpleData>
</SchemaData>
</ExtendedData>
<Point>
<extrude>0</extrude>
<coordinates>-39.5640614972677,-11.9608681635505,0.0</coordinates>
</Point>
</Placemark>
<Placemark id="06. Povoados">
<name>Caldeirão Negro [292405800003]</name>
<visibility>1</visibility>
<snippet> </snippet>
<description>&lt;center&gt;&lt;table&gt;&lt;tr&gt;&lt;th colspan='2' align='center'&gt;&lt;em&gt;Atributos&lt;/em&gt;&lt;/th&gt;&lt;/tr&gt;&lt;tr bgcolor="#E3E3F3"&gt;
&lt;th&gt;CD_UF&lt;/th&gt;
&lt;td&gt;29&lt;/td&gt;
&lt;/tr&gt;&lt;tr bgcolor=""&gt;
&lt;th&gt;NM_UF&lt;/th&gt;
&lt;td&gt;Bahia&lt;/td&gt;
&lt;/tr&gt;&lt;tr bgcolor="#E3E3F3"&gt;
&lt;th&gt;SIGLA_UF&lt;/th&gt;
&lt;td&gt;BA&lt;/td&gt;
&lt;/tr&gt;&lt;tr bgcolor=""&gt;
&lt;th&gt;CD_MUN&lt;/th&gt;
&lt;td&gt;2924058&lt;/td&gt;
&lt;/tr&gt;&lt;tr bgcolor="#E3E3F3"&gt;
&lt;th&gt;NM_MUN&lt;/th&gt;
&lt;td&gt;Pé de Serra&lt;/td&gt;
&lt;/tr&gt;&lt;tr bgcolor=""&gt;
&lt;th&gt;CD_RGINT&lt;/th&gt;
&lt;td&gt;2910&lt;/td&gt;
&lt;/tr&gt;&lt;tr bgcolor="#E3E3F3"&gt;
&lt;th&gt;NM_RGINT&lt;/th&gt;
&lt;td&gt;Feira de Santana&lt;/td&gt;
&lt;/tr&gt;&lt;tr bgcolor=""&gt;
&lt;th&gt;CD_RGI&lt;/th&gt;
&lt;td&gt;290029&lt;/td&gt;
&lt;/tr&gt;&lt;tr bgcolor="#E3E3F3"&gt;
&lt;th&gt;NM_RGI&lt;/th&gt;
&lt;td&gt;Feira de Santana&lt;/td&gt;
&lt;/tr&gt;&lt;tr bgcolor=""&gt;
&lt;th&gt;CT_LOCALIDADE&lt;/th&gt;
&lt;td&gt;Povoado&lt;/td&gt;
&lt;/tr&gt;&lt;tr bgcolor="#E3E3F3"&gt;
&lt;th&gt;CD_LOCALIDADE&lt;/th&gt;
&lt;td&gt;292405800003&lt;/td&gt;
&lt;/tr&gt;&lt;tr bgcolor=""&gt;
&lt;th&gt;NM_LOCALIDADE&lt;/th&gt;
&lt;td&gt;Caldeirão Negro&lt;/td&gt;
&lt;/tr&gt;&lt;tr bgcolor="#E3E3F3"&gt;
&lt;th&gt;LAT_LOCALIDADE&lt;/th&gt;
&lt;td&gt;-11.9614&lt;/td&gt;
&lt;/tr&gt;&lt;tr bgcolor=""&gt;
&lt;th&gt;LONG_LOCALIDADE&lt;/th&gt;
&lt;td&gt;-39.6119&lt;/td&gt;
&lt;/tr&gt;&lt;/table&gt;&lt;/center&gt;</description>
<Style>
<IconStyle>
<color>ff00ff54</color>
<scale>0.8</scale>
<Icon>
<href>http://maps.google.com/mapfiles/kml/shapes/placemark_circle.png</href>
</Icon>
</IconStyle>
<LabelStyle>
<scale>0.8</scale>
</LabelStyle>
<LineStyle>
<color>72ff54ff</color>
<width>1.0</width>
<gx:labelVisibility>1</gx:labelVisibility>
</LineStyle>
<PolyStyle>
<color>66ff54ff</color>
</PolyStyle>
</Style>
<ExtendedData>
<SchemaData schemaUrl="#kml_schema_ft_Povoados">
<SimpleData name="CD_UF">29</SimpleData>
<SimpleData name="NM_UF">Bahia</SimpleData>
<SimpleData name="SIGLA_UF">BA</SimpleData>
<SimpleData name="CD_MUN">2924058</SimpleData>
<SimpleData name="NM_MUN">Pé de Serra</SimpleData>
<SimpleData name="CD_RGINT">2910</SimpleData>
<SimpleData name="NM_RGINT">Feira de Santana</SimpleData>
<SimpleData name="CD_RGI">290029</SimpleData>
<SimpleData name="NM_RGI">Feira de Santana</SimpleData>
<SimpleData name="CT_LOCALIDADE">Povoado</SimpleData>
<SimpleData name="CD_LOCALIDADE">292405800003</SimpleData>
<SimpleData name="NM_LOCALIDADE">Caldeirão Negro</SimpleData>
<SimpleData name="LAT_LOCALIDADE">-11.9614</SimpleData>
<SimpleData name="LONG_LOCALIDADE">-39.6119</SimpleData>
</SchemaData>
</ExtendedData>
<Point>
<extrude>0</extrude>
<coordinates>-39.6119037692307,-11.9614093073084,0.0</coordinates>
</Point>
</Placemark>
<Placemark id="06. Povoados">
<name>Santo Antônio [292405800004]</name>
<visibility>1</visibility>
<snippet> </snippet>
<description>&lt;center&gt;&lt;table&gt;&lt;tr&gt;&lt;th colspan='2' align='center'&gt;&lt;em&gt;Atributos&lt;/em&gt;&lt;/th&gt;&lt;/tr&gt;&lt;tr bgcolor="#E3E3F3"&gt;
&lt;th&gt;CD_UF&lt;/th&gt;
&lt;td&gt;29&lt;/td&gt;
&lt;/tr&gt;&lt;tr bgcolor=""&gt;
&lt;th&gt;NM_UF&lt;/th&gt;
&lt;td&gt;Bahia&lt;/td&gt;
&lt;/tr&gt;&lt;tr bgcolor="#E3E3F3"&gt;
&lt;th&gt;SIGLA_UF&lt;/th&gt;
&lt;td&gt;BA&lt;/td&gt;
&lt;/tr&gt;&lt;tr bgcolor=""&gt;
&lt;th&gt;CD_MUN&lt;/th&gt;
&lt;td&gt;2924058&lt;/td&gt;
&lt;/tr&gt;&lt;tr bgcolor="#E3E3F3"&gt;
&lt;th&gt;NM_MUN&lt;/th&gt;
&lt;td&gt;Pé de Serra&lt;/td&gt;
&lt;/tr&gt;&lt;tr bgcolor=""&gt;
&lt;th&gt;CD_RGINT&lt;/th&gt;
&lt;td&gt;2910&lt;/td&gt;
&lt;/tr&gt;&lt;tr bgcolor="#E3E3F3"&gt;
&lt;th&gt;NM_RGINT&lt;/th&gt;
&lt;td&gt;Feira de Santana&lt;/td&gt;
&lt;/tr&gt;&lt;tr bgcolor=""&gt;
&lt;th&gt;CD_RGI&lt;/th&gt;
&lt;td&gt;290029&lt;/td&gt;
&lt;/tr&gt;&lt;tr bgcolor="#E3E3F3"&gt;
&lt;th&gt;NM_RGI&lt;/th&gt;
&lt;td&gt;Feira de Santana&lt;/td&gt;
&lt;/tr&gt;&lt;tr bgcolor=""&gt;
&lt;th&gt;CT_LOCALIDADE&lt;/th&gt;
&lt;td&gt;Povoado&lt;/td&gt;
&lt;/tr&gt;&lt;tr bgcolor="#E3E3F3"&gt;
&lt;th&gt;CD_LOCALIDADE&lt;/th&gt;
&lt;td&gt;292405800004&lt;/td&gt;
&lt;/tr&gt;&lt;tr bgcolor=""&gt;
&lt;th&gt;NM_LOCALIDADE&lt;/th&gt;
&lt;td&gt;Santo Antônio&lt;/td&gt;
&lt;/tr&gt;&lt;tr bgcolor="#E3E3F3"&gt;
&lt;th&gt;LAT_LOCALIDADE&lt;/th&gt;
&lt;td&gt;-11.8202&lt;/td&gt;
&lt;/tr&gt;&lt;tr bgcolor=""&gt;
&lt;th&gt;LONG_LOCALIDADE&lt;/th&gt;
&lt;td&gt;-39.6685&lt;/td&gt;
&lt;/tr&gt;&lt;/table&gt;&lt;/center&gt;</description>
<Style>
<IconStyle>
<color>ff00ff54</color>
<scale>0.8</scale>
<Icon>
<href>http://maps.google.com/mapfiles/kml/shapes/placemark_circle.png</href>
</Icon>
</IconStyle>
<LabelStyle>
<scale>0.8</scale>
</LabelStyle>
<LineStyle>
<color>72ff54ff</color>
<width>1.0</width>
<gx:labelVisibility>1</gx:labelVisibility>
</LineStyle>
<PolyStyle>
<color>66ff54ff</color>
</PolyStyle>
</Style>
<ExtendedData>
<SchemaData schemaUrl="#kml_schema_ft_Povoados">
<SimpleData name="CD_UF">29</SimpleData>
<SimpleData name="NM_UF">Bahia</SimpleData>
<SimpleData name="SIGLA_UF">BA</SimpleData>
<SimpleData name="CD_MUN">2924058</SimpleData>
<SimpleData name="NM_MUN">Pé de Serra</SimpleData>
<SimpleData name="CD_RGINT">2910</SimpleData>
<SimpleData name="NM_RGINT">Feira de Santana</SimpleData>
<SimpleData name="CD_RGI">290029</SimpleData>
<SimpleData name="NM_RGI">Feira de Santana</SimpleData>
<SimpleData name="CT_LOCALIDADE">Povoado</SimpleData>
<SimpleData name="CD_LOCALIDADE">292405800004</SimpleData>
<SimpleData name="NM_LOCALIDADE">Santo Antônio</SimpleData>
<SimpleData name="LAT_LOCALIDADE">-11.8202</SimpleData>
<SimpleData name="LONG_LOCALIDADE">-39.6685</SimpleData>
</SchemaData>
</ExtendedData>
<Point>
<extrude>0</extrude>
<coordinates>-39.6684888011695,-11.8201969586846,0.0</coordinates>
</Point>
</Placemark>
<Placemark id="06. Povoados">
<name>Lagoa Pé do Morro [292405800005]</name>
<visibility>1</visibility>
<snippet> </snippet>
<description>&lt;center&gt;&lt;table&gt;&lt;tr&gt;&lt;th colspan='2' align='center'&gt;&lt;em&gt;Atributos&lt;/em&gt;&lt;/th&gt;&lt;/tr&gt;&lt;tr bgcolor="#E3E3F3"&gt;
&lt;th&gt;CD_UF&lt;/th&gt;
&lt;td&gt;29&lt;/td&gt;
&lt;/tr&gt;&lt;tr bgcolor=""&gt;
&lt;th&gt;NM_UF&lt;/th&gt;
&lt;td&gt;Bahia&lt;/td&gt;
&lt;/tr&gt;&lt;tr bgcolor="#E3E3F3"&gt;
&lt;th&gt;SIGLA_UF&lt;/th&gt;
&lt;td&gt;BA&lt;/td&gt;
&lt;/tr&gt;&lt;tr bgcolor=""&gt;
&lt;th&gt;CD_MUN&lt;/th&gt;
&lt;td&gt;2924058&lt;/td&gt;
&lt;/tr&gt;&lt;tr bgcolor="#E3E3F3"&gt;
&lt;th&gt;NM_MUN&lt;/th&gt;
&lt;td&gt;Pé de Serra&lt;/td&gt;
&lt;/tr&gt;&lt;tr bgcolor=""&gt;
&lt;th&gt;CD_RGINT&lt;/th&gt;
&lt;td&gt;2910&lt;/td&gt;
&lt;/tr&gt;&lt;tr bgcolor="#E3E3F3"&gt;
&lt;th&gt;NM_RGINT&lt;/th&gt;
&lt;td&gt;Feira de Santana&lt;/td&gt;
&lt;/tr&gt;&lt;tr bgcolor=""&gt;
&lt;th&gt;CD_RGI&lt;/th&gt;
&lt;td&gt;290029&lt;/td&gt;
&lt;/tr&gt;&lt;tr bgcolor="#E3E3F3"&gt;
&lt;th&gt;NM_RGI&lt;/th&gt;
&lt;td&gt;Feira de Santana&lt;/td&gt;
&lt;/tr&gt;&lt;tr bgcolor=""&gt;
&lt;th&gt;CT_LOCALIDADE&lt;/th&gt;
&lt;td&gt;Povoado&lt;/td&gt;
&lt;/tr&gt;&lt;tr bgcolor="#E3E3F3"&gt;
&lt;th&gt;CD_LOCALIDADE&lt;/th&gt;
&lt;td&gt;292405800005&lt;/td&gt;
&lt;/tr&gt;&lt;tr bgcolor=""&gt;
&lt;th&gt;NM_LOCALIDADE&lt;/th&gt;
&lt;td&gt;Lagoa Pé do Morro&lt;/td&gt;
&lt;/tr&gt;&lt;tr bgcolor="#E3E3F3"&gt;
&lt;th&gt;LAT_LOCALIDADE&lt;/th&gt;
&lt;td&gt;-11.9172&lt;/td&gt;
&lt;/tr&gt;&lt;tr bgcolor=""&gt;
&lt;th&gt;LONG_LOCALIDADE&lt;/th&gt;
&lt;td&gt;-39.6082&lt;/td&gt;
&lt;/tr&gt;&lt;/table&gt;&lt;/center&gt;</description>
<Style>
<IconStyle>
<color>ff00ff54</color>
<scale>0.8</scale>
<Icon>
<href>http://maps.google.com/mapfiles/kml/shapes/placemark_circle.png</href>
</Icon>
</IconStyle>
<LabelStyle>
<scale>0.8</scale>
</LabelStyle>
<LineStyle>
<color>72ff54ff</color>
<width>1.0</width>
<gx:labelVisibility>1</gx:labelVisibility>
</LineStyle>
<PolyStyle>
<color>66ff54ff</color>
</PolyStyle>
</Style>
<ExtendedData>
<SchemaData schemaUrl="#kml_schema_ft_Povoados">
<SimpleData name="CD_UF">29</SimpleData>
<SimpleData name="NM_UF">Bahia</SimpleData>
<SimpleData name="SIGLA_UF">BA</SimpleData>
<SimpleData name="CD_MUN">2924058</SimpleData>
<SimpleData name="NM_MUN">Pé de Serra</SimpleData>
<SimpleData name="CD_RGINT">2910</SimpleData>
<SimpleData name="NM_RGINT">Feira de Santana</SimpleData>
<SimpleData name="CD_RGI">290029</SimpleData>
<SimpleData name="NM_RGI">Feira de Santana</SimpleData>
<SimpleData name="CT_LOCALIDADE">Povoado</SimpleData>
<SimpleData name="CD_LOCALIDADE">292405800005</SimpleData>
<SimpleData name="NM_LOCALIDADE">Lagoa Pé do Morro</SimpleData>
<SimpleData name="LAT_LOCALIDADE">-11.9172</SimpleData>
<SimpleData name="LONG_LOCALIDADE">-39.6082</SimpleData>
</SchemaData>
</ExtendedData>
<Point>
<extrude>0</extrude>
<coordinates>-39.6082034916201,-11.9172142957067,0.0</coordinates>
</Point>
</Placemark>
<Placemark id="06. Povoados">
<name>Ouricuri [292405800006]</name>
<visibility>1</visibility>
<snippet> </snippet>
<description>&lt;center&gt;&lt;table&gt;&lt;tr&gt;&lt;th colspan='2' align='center'&gt;&lt;em&gt;Atributos&lt;/em&gt;&lt;/th&gt;&lt;/tr&gt;&lt;tr bgcolor="#E3E3F3"&gt;
&lt;th&gt;CD_UF&lt;/th&gt;
&lt;td&gt;29&lt;/td&gt;
&lt;/tr&gt;&lt;tr bgcolor=""&gt;
&lt;th&gt;NM_UF&lt;/th&gt;
&lt;td&gt;Bahia&lt;/td&gt;
&lt;/tr&gt;&lt;tr bgcolor="#E3E3F3"&gt;
&lt;th&gt;SIGLA_UF&lt;/th&gt;
&lt;td&gt;BA&lt;/td&gt;
&lt;/tr&gt;&lt;tr bgcolor=""&gt;
&lt;th&gt;CD_MUN&lt;/th&gt;
&lt;td&gt;2924058&lt;/td&gt;
&lt;/tr&gt;&lt;tr bgcolor="#E3E3F3"&gt;
&lt;th&gt;NM_MUN&lt;/th&gt;
&lt;td&gt;Pé de Serra&lt;/td&gt;
&lt;/tr&gt;&lt;tr bgcolor=""&gt;
&lt;th&gt;CD_RGINT&lt;/th&gt;
&lt;td&gt;2910&lt;/td&gt;
&lt;/tr&gt;&lt;tr bgcolor="#E3E3F3"&gt;
&lt;th&gt;NM_RGINT&lt;/th&gt;
&lt;td&gt;Feira de Santana&lt;/td&gt;
&lt;/tr&gt;&lt;tr bgcolor=""&gt;
&lt;th&gt;CD_RGI&lt;/th&gt;
&lt;td&gt;290029&lt;/td&gt;
&lt;/tr&gt;&lt;tr bgcolor="#E3E3F3"&gt;
&lt;th&gt;NM_RGI&lt;/th&gt;
&lt;td&gt;Feira de Santana&lt;/td&gt;
&lt;/tr&gt;&lt;tr bgcolor=""&gt;
&lt;th&gt;CT_LOCALIDADE&lt;/th&gt;
&lt;td&gt;Povoado&lt;/td&gt;
&lt;/tr&gt;&lt;tr bgcolor="#E3E3F3"&gt;
&lt;th&gt;CD_LOCALIDADE&lt;/th&gt;
&lt;td&gt;292405800006&lt;/td&gt;
&lt;/tr&gt;&lt;tr bgcolor=""&gt;
&lt;th&gt;NM_LOCALIDADE&lt;/th&gt;
&lt;td&gt;Ouricuri&lt;/td&gt;
&lt;/tr&gt;&lt;tr bgcolor="#E3E3F3"&gt;
&lt;th&gt;LAT_LOCALIDADE&lt;/th&gt;
&lt;td&gt;-11.7651&lt;/td&gt;
&lt;/tr&gt;&lt;tr bgcolor=""&gt;
&lt;th&gt;LONG_LOCALIDADE&lt;/th&gt;
&lt;td&gt;-39.6397&lt;/td&gt;
&lt;/tr&gt;&lt;/table&gt;&lt;/center&gt;</description>
<Style>
<IconStyle>
<color>ff00ff54</color>
<scale>0.8</scale>
<Icon>
<href>http://maps.google.com/mapfiles/kml/shapes/placemark_circle.png</href>
</Icon>
</IconStyle>
<LabelStyle>
<scale>0.8</scale>
</LabelStyle>
<LineStyle>
<color>72ff54ff</color>
<width>1.0</width>
<gx:labelVisibility>1</gx:labelVisibility>
</LineStyle>
<PolyStyle>
<color>66ff54ff</color>
</PolyStyle>
</Style>
<ExtendedData>
<SchemaData schemaUrl="#kml_schema_ft_Povoados">
<SimpleData name="CD_UF">29</SimpleData>
<SimpleData name="NM_UF">Bahia</SimpleData>
<SimpleData name="SIGLA_UF">BA</SimpleData>
<SimpleData name="CD_MUN">2924058</SimpleData>
<SimpleData name="NM_MUN">Pé de Serra</SimpleData>
<SimpleData name="CD_RGINT">2910</SimpleData>
<SimpleData name="NM_RGINT">Feira de Santana</SimpleData>
<SimpleData name="CD_RGI">290029</SimpleData>
<SimpleData name="NM_RGI">Feira de Santana</SimpleData>
<SimpleData name="CT_LOCALIDADE">Povoado</SimpleData>
<SimpleData name="CD_LOCALIDADE">292405800006</SimpleData>
<SimpleData name="NM_LOCALIDADE">Ouricuri</SimpleData>
<SimpleData name="LAT_LOCALIDADE">-11.7651</SimpleData>
<SimpleData name="LONG_LOCALIDADE">-39.6397</SimpleData>
</SchemaData>
</ExtendedData>
<Point>
<extrude>0</extrude>
<coordinates>-39.6397164255319,-11.765081393239,0.0</coordinates>
</Point>
</Placemark>
<Placemark id="06. Povoados">
<name>Lagoa do Curral [292405800007]</name>
<visibility>1</visibility>
<snippet> </snippet>
<description>&lt;center&gt;&lt;table&gt;&lt;tr&gt;&lt;th colspan='2' align='center'&gt;&lt;em&gt;Atributos&lt;/em&gt;&lt;/th&gt;&lt;/tr&gt;&lt;tr bgcolor="#E3E3F3"&gt;
&lt;th&gt;CD_UF&lt;/th&gt;
&lt;td&gt;29&lt;/td&gt;
&lt;/tr&gt;&lt;tr bgcolor=""&gt;
&lt;th&gt;NM_UF&lt;/th&gt;
&lt;td&gt;Bahia&lt;/td&gt;
&lt;/tr&gt;&lt;tr bgcolor="#E3E3F3"&gt;
&lt;th&gt;SIGLA_UF&lt;/th&gt;
&lt;td&gt;BA&lt;/td&gt;
&lt;/tr&gt;&lt;tr bgcolor=""&gt;
&lt;th&gt;CD_MUN&lt;/th&gt;
&lt;td&gt;2924058&lt;/td&gt;
&lt;/tr&gt;&lt;tr bgcolor="#E3E3F3"&gt;
&lt;th&gt;NM_MUN&lt;/th&gt;
&lt;td&gt;Pé de Serra&lt;/td&gt;
&lt;/tr&gt;&lt;tr bgcolor=""&gt;
&lt;th&gt;CD_RGINT&lt;/th&gt;
&lt;td&gt;2910&lt;/td&gt;
&lt;/tr&gt;&lt;tr bgcolor="#E3E3F3"&gt;
&lt;th&gt;NM_RGINT&lt;/th&gt;
&lt;td&gt;Feira de Santana&lt;/td&gt;
&lt;/tr&gt;&lt;tr bgcolor=""&gt;
&lt;th&gt;CD_RGI&lt;/th&gt;
&lt;td&gt;290029&lt;/td&gt;
&lt;/tr&gt;&lt;tr bgcolor="#E3E3F3"&gt;
&lt;th&gt;NM_RGI&lt;/th&gt;
&lt;td&gt;Feira de Santana&lt;/td&gt;
&lt;/tr&gt;&lt;tr bgcolor=""&gt;
&lt;th&gt;CT_LOCALIDADE&lt;/th&gt;
&lt;td&gt;Povoado&lt;/td&gt;
&lt;/tr&gt;&lt;tr bgcolor="#E3E3F3"&gt;
&lt;th&gt;CD_LOCALIDADE&lt;/th&gt;
&lt;td&gt;292405800007&lt;/td&gt;
&lt;/tr&gt;&lt;tr bgcolor=""&gt;
&lt;th&gt;NM_LOCALIDADE&lt;/th&gt;
&lt;td&gt;Lagoa do Curral&lt;/td&gt;
&lt;/tr&gt;&lt;tr bgcolor="#E3E3F3"&gt;
&lt;th&gt;LAT_LOCALIDADE&lt;/th&gt;
&lt;td&gt;-11.8391&lt;/td&gt;
&lt;/tr&gt;&lt;tr bgcolor=""&gt;
&lt;th&gt;LONG_LOCALIDADE&lt;/th&gt;
&lt;td&gt;-39.666&lt;/td&gt;
&lt;/tr&gt;&lt;/table&gt;&lt;/center&gt;</description>
<Style>
<IconStyle>
<color>ff00ff54</color>
<scale>0.8</scale>
<Icon>
<href>http://maps.google.com/mapfiles/kml/shapes/placemark_circle.png</href>
</Icon>
</IconStyle>
<LabelStyle>
<scale>0.8</scale>
</LabelStyle>
<LineStyle>
<color>72ff54ff</color>
<width>1.0</width>
<gx:labelVisibility>1</gx:labelVisibility>
</LineStyle>
<PolyStyle>
<color>66ff54ff</color>
</PolyStyle>
</Style>
<ExtendedData>
<SchemaData schemaUrl="#kml_schema_ft_Povoados">
<SimpleData name="CD_UF">29</SimpleData>
<SimpleData name="NM_UF">Bahia</SimpleData>
<SimpleData name="SIGLA_UF">BA</SimpleData>
<SimpleData name="CD_MUN">2924058</SimpleData>
<SimpleData name="NM_MUN">Pé de Serra</SimpleData>
<SimpleData name="CD_RGINT">2910</SimpleData>
<SimpleData name="NM_RGINT">Feira de Santana</SimpleData>
<SimpleData name="CD_RGI">290029</SimpleData>
<SimpleData name="NM_RGI">Feira de Santana</SimpleData>
<SimpleData name="CT_LOCALIDADE">Povoado</SimpleData>
<SimpleData name="CD_LOCALIDADE">292405800007</SimpleData>
<SimpleData name="NM_LOCALIDADE">Lagoa do Curral</SimpleData>
<SimpleData name="LAT_LOCALIDADE">-11.8391</SimpleData>
<SimpleData name="LONG_LOCALIDADE">-39.666</SimpleData>
</SchemaData>
</ExtendedData>
<Point>
<extrude>0</extrude>
<coordinates>-39.6660429772727,-11.8390735905288,0.0</coordinates>
</Point>
</Placemark>
<Placemark id="06. Povoados">
<name>São José [292405800008]</name>
<visibility>1</visibility>
<snippet> </snippet>
<description>&lt;center&gt;&lt;table&gt;&lt;tr&gt;&lt;th colspan='2' align='center'&gt;&lt;em&gt;Atributos&lt;/em&gt;&lt;/th&gt;&lt;/tr&gt;&lt;tr bgcolor="#E3E3F3"&gt;
&lt;th&gt;CD_UF&lt;/th&gt;
&lt;td&gt;29&lt;/td&gt;
&lt;/tr&gt;&lt;tr bgcolor=""&gt;
&lt;th&gt;NM_UF&lt;/th&gt;
&lt;td&gt;Bahia&lt;/td&gt;
&lt;/tr&gt;&lt;tr bgcolor="#E3E3F3"&gt;
&lt;th&gt;SIGLA_UF&lt;/th&gt;
&lt;td&gt;BA&lt;/td&gt;
&lt;/tr&gt;&lt;tr bgcolor=""&gt;
&lt;th&gt;CD_MUN&lt;/th&gt;
&lt;td&gt;2924058&lt;/td&gt;
&lt;/tr&gt;&lt;tr bgcolor="#E3E3F3"&gt;
&lt;th&gt;NM_MUN&lt;/th&gt;
&lt;td&gt;Pé de Serra&lt;/td&gt;
&lt;/tr&gt;&lt;tr bgcolor=""&gt;
&lt;th&gt;CD_RGINT&lt;/th&gt;
&lt;td&gt;2910&lt;/td&gt;
&lt;/tr&gt;&lt;tr bgcolor="#E3E3F3"&gt;
&lt;th&gt;NM_RGINT&lt;/th&gt;
&lt;td&gt;Feira de Santana&lt;/td&gt;
&lt;/tr&gt;&lt;tr bgcolor=""&gt;
&lt;th&gt;CD_RGI&lt;/th&gt;
&lt;td&gt;290029&lt;/td&gt;
&lt;/tr&gt;&lt;tr bgcolor="#E3E3F3"&gt;
&lt;th&gt;NM_RGI&lt;/th&gt;
&lt;td&gt;Feira de Santana&lt;/td&gt;
&lt;/tr&gt;&lt;tr bgcolor=""&gt;
&lt;th&gt;CT_LOCALIDADE&lt;/th&gt;
&lt;td&gt;Povoado&lt;/td&gt;
&lt;/tr&gt;&lt;tr bgcolor="#E3E3F3"&gt;
&lt;th&gt;CD_LOCALIDADE&lt;/th&gt;
&lt;td&gt;292405800008&lt;/td&gt;
&lt;/tr&gt;&lt;tr bgcolor=""&gt;
&lt;th&gt;NM_LOCALIDADE&lt;/th&gt;
&lt;td&gt;São José&lt;/td&gt;
&lt;/tr&gt;&lt;tr bgcolor="#E3E3F3"&gt;
&lt;th&gt;LAT_LOCALIDADE&lt;/th&gt;
&lt;td&gt;-12.0368&lt;/td&gt;
&lt;/tr&gt;&lt;tr bgcolor=""&gt;
&lt;th&gt;LONG_LOCALIDADE&lt;/th&gt;
&lt;td&gt;-39.5739&lt;/td&gt;
&lt;/tr&gt;&lt;/table&gt;&lt;/center&gt;</description>
<Style>
<IconStyle>
<color>ff00ff54</color>
<scale>0.8</scale>
<Icon>
<href>http://maps.google.com/mapfiles/kml/shapes/placemark_circle.png</href>
</Icon>
</IconStyle>
<LabelStyle>
<scale>0.8</scale>
</LabelStyle>
<LineStyle>
<color>72ff54ff</color>
<width>1.0</width>
<gx:labelVisibility>1</gx:labelVisibility>
</LineStyle>
<PolyStyle>
<color>66ff54ff</color>
</PolyStyle>
</Style>
<ExtendedData>
<SchemaData schemaUrl="#kml_schema_ft_Povoados">
<SimpleData name="CD_UF">29</SimpleData>
<SimpleData name="NM_UF">Bahia</SimpleData>
<SimpleData name="SIGLA_UF">BA</SimpleData>
<SimpleData name="CD_MUN">2924058</SimpleData>
<SimpleData name="NM_MUN">Pé de Serra</SimpleData>
<SimpleData name="CD_RGINT">2910</SimpleData>
<SimpleData name="NM_RGINT">Feira de Santana</SimpleData>
<SimpleData name="CD_RGI">290029</SimpleData>
<SimpleData name="NM_RGI">Feira de Santana</SimpleData>
<SimpleData name="CT_LOCALIDADE">Povoado</SimpleData>
<SimpleData name="CD_LOCALIDADE">292405800008</SimpleData>
<SimpleData name="NM_LOCALIDADE">São José</SimpleData>
<SimpleData name="LAT_LOCALIDADE">-12.0368</SimpleData>
<SimpleData name="LONG_LOCALIDADE">-39.5739</SimpleData>
</SchemaData>
</ExtendedData>
<Point>
<extrude>0</extrude>
<coordinates>-39.5739162337662,-12.036807285328,0.0</coordinates>
</Point>
</Placemark>
</Folder>
<Folder id="12. Outras Localidades">
<name>12. Outras Localidades</name>
<Placemark id="12. Outras Localidades">
<name>Caldeirão da Prima [292405800009]</name>
<visibility>1</visibility>
<snippet> </snippet>
<description>&lt;center&gt;&lt;table&gt;&lt;tr&gt;&lt;th colspan='2' align='center'&gt;&lt;em&gt;Attributes&lt;/em&gt;&lt;/th&gt;&lt;/tr&gt;&lt;tr bgcolor="#E3E3F3"&gt;
&lt;th&gt;CD_UF&lt;/th&gt;
&lt;td&gt;29&lt;/td&gt;
&lt;/tr&gt;&lt;tr bgcolor=""&gt;
&lt;th&gt;NM_UF&lt;/th&gt;
&lt;td&gt;Bahia&lt;/td&gt;
&lt;/tr&gt;&lt;tr bgcolor="#E3E3F3"&gt;
&lt;th&gt;SIGLA_UF&lt;/th&gt;
&lt;td&gt;BA&lt;/td&gt;
&lt;/tr&gt;&lt;tr bgcolor=""&gt;
&lt;th&gt;CD_MUN&lt;/th&gt;
&lt;td&gt;2924058&lt;/td&gt;
&lt;/tr&gt;&lt;tr bgcolor="#E3E3F3"&gt;
&lt;th&gt;NM_MUN&lt;/th&gt;
&lt;td&gt;Pé de Serra&lt;/td&gt;
&lt;/tr&gt;&lt;tr bgcolor=""&gt;
&lt;th&gt;CD_RGINT&lt;/th&gt;
&lt;td&gt;2910&lt;/td&gt;
&lt;/tr&gt;&lt;tr bgcolor="#E3E3F3"&gt;
&lt;th&gt;NM_RGINT&lt;/th&gt;
&lt;td&gt;Feira de Santana&lt;/td&gt;
&lt;/tr&gt;&lt;tr bgcolor=""&gt;
&lt;th&gt;CD_RGI&lt;/th&gt;
&lt;td&gt;290029&lt;/td&gt;
&lt;/tr&gt;&lt;tr bgcolor="#E3E3F3"&gt;
&lt;th&gt;NM_RGI&lt;/th&gt;
&lt;td&gt;Feira de Santana&lt;/td&gt;
&lt;/tr&gt;&lt;tr bgcolor=""&gt;
&lt;th&gt;CT_LOCALIDADE&lt;/th&gt;
&lt;td&gt;Outras Localidades&lt;/td&gt;
&lt;/tr&gt;&lt;tr bgcolor="#E3E3F3"&gt;
&lt;th&gt;SCT_LOCALIDADE&lt;/th&gt;
&lt;td&gt;&lt;/td&gt;
&lt;/tr&gt;&lt;tr bgcolor=""&gt;
&lt;th&gt;CD_LOCALIDADE&lt;/th&gt;
&lt;td&gt;292405800009&lt;/td&gt;
&lt;/tr&gt;&lt;tr bgcolor="#E3E3F3"&gt;
&lt;th&gt;NM_LOCALIDADE&lt;/th&gt;
&lt;td&gt;Caldeirão da Prima&lt;/td&gt;
&lt;/tr&gt;&lt;/table&gt;&lt;/center&gt;</description>
<Style>
<IconStyle>
<color>ff0069d3</color>
<scale>0.6</scale>
<Icon>
<href>http://maps.google.com/mapfiles/kml/shapes/placemark_circle.png</href>
</Icon>
</IconStyle>
<LabelStyle>
<scale>0.6</scale>
</LabelStyle>
<LineStyle>
<width>1.0</width>
<gx:labelVisibility>1</gx:labelVisibility>
</LineStyle>
</Style>
<ExtendedData>
<SchemaData schemaUrl="#kml_schema_ft_Localidades">
<SimpleData name="CD_UF">29</SimpleData>
<SimpleData name="NM_UF">Bahia</SimpleData>
<SimpleData name="SIGLA_UF">BA</SimpleData>
<SimpleData name="CD_MUN">2924058</SimpleData>
<SimpleData name="NM_MUN">Pé de Serra</SimpleData>
<SimpleData name="CD_RGINT">2910</SimpleData>
<SimpleData name="NM_RGINT">Feira de Santana</SimpleData>
<SimpleData name="CD_RGI">290029</SimpleData>
<SimpleData name="NM_RGI">Feira de Santana</SimpleData>
<SimpleData name="CT_LOCALIDADE">Outras Localidades</SimpleData>
<SimpleData name="CD_LOCALIDADE">292405800009</SimpleData>
<SimpleData name="NM_LOCALIDADE">Caldeirão da Prima</SimpleData>
</SchemaData>
</ExtendedData>
<Point>
<extrude>0</extrude>
<coordinates>-39.605459,-11.8680199996189,0.0</coordinates>
</Point>
</Placemark>
<Placemark id="12. Outras Localidades">
<name>Fazenda Algodão [292405800010]</name>
<visibility>1</visibility>
<snippet> </snippet>
<description>&lt;center&gt;&lt;table&gt;&lt;tr&gt;&lt;th colspan='2' align='center'&gt;&lt;em&gt;Attributes&lt;/em&gt;&lt;/th&gt;&lt;/tr&gt;&lt;tr bgcolor="#E3E3F3"&gt;
&lt;th&gt;CD_UF&lt;/th&gt;
&lt;td&gt;29&lt;/td&gt;
&lt;/tr&gt;&lt;tr bgcolor=""&gt;
&lt;th&gt;NM_UF&lt;/th&gt;
&lt;td&gt;Bahia&lt;/td&gt;
&lt;/tr&gt;&lt;tr bgcolor="#E3E3F3"&gt;
&lt;th&gt;SIGLA_UF&lt;/th&gt;
&lt;td&gt;BA&lt;/td&gt;
&lt;/tr&gt;&lt;tr bgcolor=""&gt;
&lt;th&gt;CD_MUN&lt;/th&gt;
&lt;td&gt;2924058&lt;/td&gt;
&lt;/tr&gt;&lt;tr bgcolor="#E3E3F3"&gt;
&lt;th&gt;NM_MUN&lt;/th&gt;
&lt;td&gt;Pé de Serra&lt;/td&gt;
&lt;/tr&gt;&lt;tr bgcolor=""&gt;
&lt;th&gt;CD_RGINT&lt;/th&gt;
&lt;td&gt;2910&lt;/td&gt;
&lt;/tr&gt;&lt;tr bgcolor="#E3E3F3"&gt;
&lt;th&gt;NM_RGINT&lt;/th&gt;
&lt;td&gt;Feira de Santana&lt;/td&gt;
&lt;/tr&gt;&lt;tr bgcolor=""&gt;
&lt;th&gt;CD_RGI&lt;/th&gt;
&lt;td&gt;290029&lt;/td&gt;
&lt;/tr&gt;&lt;tr bgcolor="#E3E3F3"&gt;
&lt;th&gt;NM_RGI&lt;/th&gt;
&lt;td&gt;Feira de Santana&lt;/td&gt;
&lt;/tr&gt;&lt;tr bgcolor=""&gt;
&lt;th&gt;CT_LOCALIDADE&lt;/th&gt;
&lt;td&gt;Outras Localidades&lt;/td&gt;
&lt;/tr&gt;&lt;tr bgcolor="#E3E3F3"&gt;
&lt;th&gt;SCT_LOCALIDADE&lt;/th&gt;
&lt;td&gt;&lt;/td&gt;
&lt;/tr&gt;&lt;tr bgcolor=""&gt;
&lt;th&gt;CD_LOCALIDADE&lt;/th&gt;
&lt;td&gt;292405800010&lt;/td&gt;
&lt;/tr&gt;&lt;tr bgcolor="#E3E3F3"&gt;
&lt;th&gt;NM_LOCALIDADE&lt;/th&gt;
&lt;td&gt;Fazenda Algodão&lt;/td&gt;
&lt;/tr&gt;&lt;/table&gt;&lt;/center&gt;</description>
<Style>
<IconStyle>
<color>ff0069d3</color>
<scale>0.6</scale>
<Icon>
<href>http://maps.google.com/mapfiles/kml/shapes/placemark_circle.png</href>
</Icon>
</IconStyle>
<LabelStyle>
<scale>0.6</scale>
</LabelStyle>
<LineStyle>
<width>1.0</width>
<gx:labelVisibility>1</gx:labelVisibility>
</LineStyle>
</Style>
<ExtendedData>
<SchemaData schemaUrl="#kml_schema_ft_Localidades">
<SimpleData name="CD_UF">29</SimpleData>
<SimpleData name="NM_UF">Bahia</SimpleData>
<SimpleData name="SIGLA_UF">BA</SimpleData>
<SimpleData name="CD_MUN">2924058</SimpleData>
<SimpleData name="NM_MUN">Pé de Serra</SimpleData>
<SimpleData name="CD_RGINT">2910</SimpleData>
<SimpleData name="NM_RGINT">Feira de Santana</SimpleData>
<SimpleData name="CD_RGI">290029</SimpleData>
<SimpleData name="NM_RGI">Feira de Santana</SimpleData>
<SimpleData name="CT_LOCALIDADE">Outras Localidades</SimpleData>
<SimpleData name="CD_LOCALIDADE">292405800010</SimpleData>
<SimpleData name="NM_LOCALIDADE">Fazenda Algodão</SimpleData>
</SchemaData>
</ExtendedData>
<Point>
<extrude>0</extrude>
<coordinates>-39.617484,-11.8812399996185,0.0</coordinates>
</Point>
</Placemark>
<Placemark id="12. Outras Localidades">
<name>Fazenda Gameleira [292405800011]</name>
<visibility>1</visibility>
<snippet> </snippet>
<description>&lt;center&gt;&lt;table&gt;&lt;tr&gt;&lt;th colspan='2' align='center'&gt;&lt;em&gt;Attributes&lt;/em&gt;&lt;/th&gt;&lt;/tr&gt;&lt;tr bgcolor="#E3E3F3"&gt;
&lt;th&gt;CD_UF&lt;/th&gt;
&lt;td&gt;29&lt;/td&gt;
&lt;/tr&gt;&lt;tr bgcolor=""&gt;
&lt;th&gt;NM_UF&lt;/th&gt;
&lt;td&gt;Bahia&lt;/td&gt;
&lt;/tr&gt;&lt;tr bgcolor="#E3E3F3"&gt;
&lt;th&gt;SIGLA_UF&lt;/th&gt;
&lt;td&gt;BA&lt;/td&gt;
&lt;/tr&gt;&lt;tr bgcolor=""&gt;
&lt;th&gt;CD_MUN&lt;/th&gt;
&lt;td&gt;2924058&lt;/td&gt;
&lt;/tr&gt;&lt;tr bgcolor="#E3E3F3"&gt;
&lt;th&gt;NM_MUN&lt;/th&gt;
&lt;td&gt;Pé de Serra&lt;/td&gt;
&lt;/tr&gt;&lt;tr bgcolor=""&gt;
&lt;th&gt;CD_RGINT&lt;/th&gt;
&lt;td&gt;2910&lt;/td&gt;
&lt;/tr&gt;&lt;tr bgcolor="#E3E3F3"&gt;
&lt;th&gt;NM_RGINT&lt;/th&gt;
&lt;td&gt;Feira de Santana&lt;/td&gt;
&lt;/tr&gt;&lt;tr bgcolor=""&gt;
&lt;th&gt;CD_RGI&lt;/th&gt;
&lt;td&gt;290029&lt;/td&gt;
&lt;/tr&gt;&lt;tr bgcolor="#E3E3F3"&gt;
&lt;th&gt;NM_RGI&lt;/th&gt;
&lt;td&gt;Feira de Santana&lt;/td&gt;
&lt;/tr&gt;&lt;tr bgcolor=""&gt;
&lt;th&gt;CT_LOCALIDADE&lt;/th&gt;
&lt;td&gt;Outras Localidades&lt;/td&gt;
&lt;/tr&gt;&lt;tr bgcolor="#E3E3F3"&gt;
&lt;th&gt;SCT_LOCALIDADE&lt;/th&gt;
&lt;td&gt;&lt;/td&gt;
&lt;/tr&gt;&lt;tr bgcolor=""&gt;
&lt;th&gt;CD_LOCALIDADE&lt;/th&gt;
&lt;td&gt;292405800011&lt;/td&gt;
&lt;/tr&gt;&lt;tr bgcolor="#E3E3F3"&gt;
&lt;th&gt;NM_LOCALIDADE&lt;/th&gt;
&lt;td&gt;Fazenda Gameleira&lt;/td&gt;
&lt;/tr&gt;&lt;/table&gt;&lt;/center&gt;</description>
<Style>
<IconStyle>
<color>ff0069d3</color>
<scale>0.6</scale>
<Icon>
<href>http://maps.google.com/mapfiles/kml/shapes/placemark_circle.png</href>
</Icon>
</IconStyle>
<LabelStyle>
<scale>0.6</scale>
</LabelStyle>
<LineStyle>
<width>1.0</width>
<gx:labelVisibility>1</gx:labelVisibility>
</LineStyle>
</Style>
<ExtendedData>
<SchemaData schemaUrl="#kml_schema_ft_Localidades">
<SimpleData name="CD_UF">29</SimpleData>
<SimpleData name="NM_UF">Bahia</SimpleData>
<SimpleData name="SIGLA_UF">BA</SimpleData>
<SimpleData name="CD_MUN">2924058</SimpleData>
<SimpleData name="NM_MUN">Pé de Serra</SimpleData>
<SimpleData name="CD_RGINT">2910</SimpleData>
<SimpleData name="NM_RGINT">Feira de Santana</SimpleData>
<SimpleData name="CD_RGI">290029</SimpleData>
<SimpleData name="NM_RGI">Feira de Santana</SimpleData>
<SimpleData name="CT_LOCALIDADE">Outras Localidades</SimpleData>
<SimpleData name="CD_LOCALIDADE">292405800011</SimpleData>
<SimpleData name="NM_LOCALIDADE">Fazenda Gameleira</SimpleData>
</SchemaData>
</ExtendedData>
<Point>
<extrude>0</extrude>
<coordinates>-39.675206,-11.8191859996204,0.0</coordinates>
</Point>
</Placemark>
<Placemark id="12. Outras Localidades">
<name>Martezona [292405800012]</name>
<visibility>1</visibility>
<snippet> </snippet>
<description>&lt;center&gt;&lt;table&gt;&lt;tr&gt;&lt;th colspan='2' align='center'&gt;&lt;em&gt;Attributes&lt;/em&gt;&lt;/th&gt;&lt;/tr&gt;&lt;tr bgcolor="#E3E3F3"&gt;
&lt;th&gt;CD_UF&lt;/th&gt;
&lt;td&gt;29&lt;/td&gt;
&lt;/tr&gt;&lt;tr bgcolor=""&gt;
&lt;th&gt;NM_UF&lt;/th&gt;
&lt;td&gt;Bahia&lt;/td&gt;
&lt;/tr&gt;&lt;tr bgcolor="#E3E3F3"&gt;
&lt;th&gt;SIGLA_UF&lt;/th&gt;
&lt;td&gt;BA&lt;/td&gt;
&lt;/tr&gt;&lt;tr bgcolor=""&gt;
&lt;th&gt;CD_MUN&lt;/th&gt;
&lt;td&gt;2924058&lt;/td&gt;
&lt;/tr&gt;&lt;tr bgcolor="#E3E3F3"&gt;
&lt;th&gt;NM_MUN&lt;/th&gt;
&lt;td&gt;Pé de Serra&lt;/td&gt;
&lt;/tr&gt;&lt;tr bgcolor=""&gt;
&lt;th&gt;CD_RGINT&lt;/th&gt;
&lt;td&gt;2910&lt;/td&gt;
&lt;/tr&gt;&lt;tr bgcolor="#E3E3F3"&gt;
&lt;th&gt;NM_RGINT&lt;/th&gt;
&lt;td&gt;Feira de Santana&lt;/td&gt;
&lt;/tr&gt;&lt;tr bgcolor=""&gt;
&lt;th&gt;CD_RGI&lt;/th&gt;
&lt;td&gt;290029&lt;/td&gt;
&lt;/tr&gt;&lt;tr bgcolor="#E3E3F3"&gt;
&lt;th&gt;NM_RGI&lt;/th&gt;
&lt;td&gt;Feira de Santana&lt;/td&gt;
&lt;/tr&gt;&lt;tr bgcolor=""&gt;
&lt;th&gt;CT_LOCALIDADE&lt;/th&gt;
&lt;td&gt;Outras Localidades&lt;/td&gt;
&lt;/tr&gt;&lt;tr bgcolor="#E3E3F3"&gt;
&lt;th&gt;SCT_LOCALIDADE&lt;/th&gt;
&lt;td&gt;&lt;/td&gt;
&lt;/tr&gt;&lt;tr bgcolor=""&gt;
&lt;th&gt;CD_LOCALIDADE&lt;/th&gt;
&lt;td&gt;292405800012&lt;/td&gt;
&lt;/tr&gt;&lt;tr bgcolor="#E3E3F3"&gt;
&lt;th&gt;NM_LOCALIDADE&lt;/th&gt;
&lt;td&gt;Martezona&lt;/td&gt;
&lt;/tr&gt;&lt;/table&gt;&lt;/center&gt;</description>
<Style>
<IconStyle>
<color>ff0069d3</color>
<scale>0.6</scale>
<Icon>
<href>http://maps.google.com/mapfiles/kml/shapes/placemark_circle.png</href>
</Icon>
</IconStyle>
<LabelStyle>
<scale>0.6</scale>
</LabelStyle>
<LineStyle>
<width>1.0</width>
<gx:labelVisibility>1</gx:labelVisibility>
</LineStyle>
</Style>
<ExtendedData>
<SchemaData schemaUrl="#kml_schema_ft_Localidades">
<SimpleData name="CD_UF">29</SimpleData>
<SimpleData name="NM_UF">Bahia</SimpleData>
<SimpleData name="SIGLA_UF">BA</SimpleData>
<SimpleData name="CD_MUN">2924058</SimpleData>
<SimpleData name="NM_MUN">Pé de Serra</SimpleData>
<SimpleData name="CD_RGINT">2910</SimpleData>
<SimpleData name="NM_RGINT">Feira de Santana</SimpleData>
<SimpleData name="CD_RGI">290029</SimpleData>
<SimpleData name="NM_RGI">Feira de Santana</SimpleData>
<SimpleData name="CT_LOCALIDADE">Outras Localidades</SimpleData>
<SimpleData name="CD_LOCALIDADE">292405800012</SimpleData>
<SimpleData name="NM_LOCALIDADE">Martezona</SimpleData>
</SchemaData>
</ExtendedData>
<Point>
<extrude>0</extrude>
<coordinates>-39.564463,-12.0262889996141,0.0</coordinates>
</Point>
</Placemark>
<Placemark id="12. Outras Localidades">
<name>Tanquinho [292405800013]</name>
<visibility>1</visibility>
<snippet> </snippet>
<description>&lt;center&gt;&lt;table&gt;&lt;tr&gt;&lt;th colspan='2' align='center'&gt;&lt;em&gt;Attributes&lt;/em&gt;&lt;/th&gt;&lt;/tr&gt;&lt;tr bgcolor="#E3E3F3"&gt;
&lt;th&gt;CD_UF&lt;/th&gt;
&lt;td&gt;29&lt;/td&gt;
&lt;/tr&gt;&lt;tr bgcolor=""&gt;
&lt;th&gt;NM_UF&lt;/th&gt;
&lt;td&gt;Bahia&lt;/td&gt;
&lt;/tr&gt;&lt;tr bgcolor="#E3E3F3"&gt;
&lt;th&gt;SIGLA_UF&lt;/th&gt;
&lt;td&gt;BA&lt;/td&gt;
&lt;/tr&gt;&lt;tr bgcolor=""&gt;
&lt;th&gt;CD_MUN&lt;/th&gt;
&lt;td&gt;2924058&lt;/td&gt;
&lt;/tr&gt;&lt;tr bgcolor="#E3E3F3"&gt;
&lt;th&gt;NM_MUN&lt;/th&gt;
&lt;td&gt;Pé de Serra&lt;/td&gt;
&lt;/tr&gt;&lt;tr bgcolor=""&gt;
&lt;th&gt;CD_RGINT&lt;/th&gt;
&lt;td&gt;2910&lt;/td&gt;
&lt;/tr&gt;&lt;tr bgcolor="#E3E3F3"&gt;
&lt;th&gt;NM_RGINT&lt;/th&gt;
&lt;td&gt;Feira de Santana&lt;/td&gt;
&lt;/tr&gt;&lt;tr bgcolor=""&gt;
&lt;th&gt;CD_RGI&lt;/th&gt;
&lt;td&gt;290029&lt;/td&gt;
&lt;/tr&gt;&lt;tr bgcolor="#E3E3F3"&gt;
&lt;th&gt;NM_RGI&lt;/th&gt;
&lt;td&gt;Feira de Santana&lt;/td&gt;
&lt;/tr&gt;&lt;tr bgcolor=""&gt;
&lt;th&gt;CT_LOCALIDADE&lt;/th&gt;
&lt;td&gt;Outras Localidades&lt;/td&gt;
&lt;/tr&gt;&lt;tr bgcolor="#E3E3F3"&gt;
&lt;th&gt;SCT_LOCALIDADE&lt;/th&gt;
&lt;td&gt;&lt;/td&gt;
&lt;/tr&gt;&lt;tr bgcolor=""&gt;
&lt;th&gt;CD_LOCALIDADE&lt;/th&gt;
&lt;td&gt;292405800013&lt;/td&gt;
&lt;/tr&gt;&lt;tr bgcolor="#E3E3F3"&gt;
&lt;th&gt;NM_LOCALIDADE&lt;/th&gt;
&lt;td&gt;Tanquinho&lt;/td&gt;
&lt;/tr&gt;&lt;/table&gt;&lt;/center&gt;</description>
<Style>
<IconStyle>
<color>ff0069d3</color>
<scale>0.6</scale>
<Icon>
<href>http://maps.google.com/mapfiles/kml/shapes/placemark_circle.png</href>
</Icon>
</IconStyle>
<LabelStyle>
<scale>0.6</scale>
</LabelStyle>
<LineStyle>
<width>1.0</width>
<gx:labelVisibility>1</gx:labelVisibility>
</LineStyle>
</Style>
<ExtendedData>
<SchemaData schemaUrl="#kml_schema_ft_Localidades">
<SimpleData name="CD_UF">29</SimpleData>
<SimpleData name="NM_UF">Bahia</SimpleData>
<SimpleData name="SIGLA_UF">BA</SimpleData>
<SimpleData name="CD_MUN">2924058</SimpleData>
<SimpleData name="NM_MUN">Pé de Serra</SimpleData>
<SimpleData name="CD_RGINT">2910</SimpleData>
<SimpleData name="NM_RGINT">Feira de Santana</SimpleData>
<SimpleData name="CD_RGI">290029</SimpleData>
<SimpleData name="NM_RGI">Feira de Santana</SimpleData>
<SimpleData name="CT_LOCALIDADE">Outras Localidades</SimpleData>
<SimpleData name="CD_LOCALIDADE">292405800013</SimpleData>
<SimpleData name="NM_LOCALIDADE">Tanquinho</SimpleData>
</SchemaData>
</ExtendedData>
<Point>
<extrude>0</extrude>
<coordinates>-39.689155,-11.7541089996223,0.0</coordinates>
</Point>
</Placemark>
</Folder>
<Folder id="13. Referência">
<name>13. Referência</name>
<Placemark id="13. Referência">
<name>Pé de Serra [2924058]</name>
<visibility>1</visibility>
<snippet> </snippet>
<description>&lt;center&gt;&lt;table&gt;&lt;tr&gt;&lt;th colspan='2' align='center'&gt;&lt;em&gt;Attributes&lt;/em&gt;&lt;/th&gt;&lt;/tr&gt;&lt;tr bgcolor="#E3E3F3"&gt;
&lt;th&gt;CD_UF&lt;/th&gt;
&lt;td&gt;29&lt;/td&gt;
&lt;/tr&gt;&lt;tr bgcolor=""&gt;
&lt;th&gt;NM_UF&lt;/th&gt;
&lt;td&gt;Bahia&lt;/td&gt;
&lt;/tr&gt;&lt;tr bgcolor="#E3E3F3"&gt;
&lt;th&gt;CD_MUN&lt;/th&gt;
&lt;td&gt;2924058&lt;/td&gt;
&lt;/tr&gt;&lt;tr bgcolor=""&gt;
&lt;th&gt;NM_MUN&lt;/th&gt;
&lt;td&gt;Pé de Serra&lt;/td&gt;
&lt;/tr&gt;&lt;tr bgcolor="#E3E3F3"&gt;
&lt;th&gt;CD_RGINT&lt;/th&gt;
&lt;td&gt;2910&lt;/td&gt;
&lt;/tr&gt;&lt;tr bgcolor=""&gt;
&lt;th&gt;NM_RGINT&lt;/th&gt;
&lt;td&gt;Feira de Santana&lt;/td&gt;
&lt;/tr&gt;&lt;tr bgcolor="#E3E3F3"&gt;
&lt;th&gt;CD_RGI&lt;/th&gt;
&lt;td&gt;290029&lt;/td&gt;
&lt;/tr&gt;&lt;tr bgcolor=""&gt;
&lt;th&gt;NM_RGI&lt;/th&gt;
&lt;td&gt;Feira de Santana&lt;/td&gt;
&lt;/tr&gt;&lt;/table&gt;&lt;/center&gt;</description>
<Style>
<IconStyle>
<scale>0.7</scale>
</IconStyle>
<LabelStyle>
<scale>0.7</scale>
</LabelStyle>
<LineStyle>
<color>ffffffff</color>
<width>3</width>
<gx:labelVisibility>1</gx:labelVisibility>
</LineStyle>
<PolyStyle>
<color>00ffffff</color>
</PolyStyle>
</Style>
<ExtendedData>
<SchemaData schemaUrl="#kml_schema_ft_Município">
<SimpleData name="CD_UF">29</SimpleData>
<SimpleData name="NM_UF">Bahia</SimpleData>
<SimpleData name="CD_MUN">2924058</SimpleData>
<SimpleData name="NM_MUN">Pé de Serra</SimpleData>
<SimpleData name="CD_RGINT">2910</SimpleData>
<SimpleData name="NM_RGINT">Feira de Santana</SimpleData>
<SimpleData name="CD_RGI">290029</SimpleData>
<SimpleData name="NM_RGI">Feira de Santana</SimpleData>
</SchemaData>
</ExtendedData>
<MultiGeometry>
<Polygon>
<extrude>0</extrude>
<tessellate>1</tessellate>
<outerBoundaryIs>
<LinearRing>
<coordinates>-39.5986061,-12.0525849996133,0.0 -39.5986091,-12.0525794996133,0.0 -39.5987333,-12.0523485996133,0.0 -39.5992088,-12.0517606996133,0.0 -39.5992687,-12.0517050996133,0.0 -39.5998818,-12.0511352996134,0.0 -39.6000917,-12.0509068996134,0.0 -39.6007178,-12.0502888996134,0.0 -39.6009507,-12.0500848996134,0.0 -39.6014427,-12.0494381996134,0.0 -39.6016956,-12.0487331996134,0.0 -39.6018057,-12.0482635996134,0.0 -39.6018829,-12.0474712996135,0.0 -39.6017704,-12.0468403996135,0.0 -39.601419,-12.0462252996135,0.0 -39.6011159,-12.0458460996135,0.0 -39.6009796,-12.0457134996135,0.0 -39.6006619,-12.0453759996135,0.0 -39.6004229,-12.0449089996135,0.0 -39.6001036,-12.0442594996136,0.0 -39.5999967,-12.0437134996136,0.0 -39.599985,-12.0434349996136,0.0 -39.6000092,-12.0431527996136,0.0 -39.6000434,-12.0428099996136,0.0 -39.6002118,-12.0421033996136,0.0 -39.6002163,-12.0420906996136,0.0 -39.600533,-12.0415175996136,0.0 -39.600866,-12.0409299996137,0.0 -39.6013564,-12.0400038996137,0.0 -39.6017205,-12.0392841996137,0.0 -39.6021637,-12.0382124996137,0.0 -39.6025427,-12.0372287996138,0.0 -39.6027487,-12.0368900996138,0.0 -39.6031134,-12.0364787996138,0.0 -39.6035417,-12.0361405996138,0.0 -39.6039988,-12.0359009996138,0.0 -39.604161,-12.0358163996138,0.0 -39.6047754,-12.0355706996138,0.0 -39.6047816,-12.0355681996138,0.0 -39.604799,-12.0355599996138,0.0 -39.6054327,-12.0350648996138,0.0 -39.6060603,-12.0343074996139,0.0 -39.6066792,-12.0333530996139,0.0 -39.6071395,-12.0325245996139,0.0 -39.6072098,-12.0323679996139,0.0 -39.6074254,-12.0318041996139,0.0 -39.6075359,-12.0315244996139,0.0 -39.6075352,-12.0312170996139,0.0 -39.6073869,-12.030597999614,0.0 -39.6072953,-12.030336799614,0.0 -39.6069279,-12.029559899614,0.0 -39.6067837,-12.029173199614,0.0 -39.6067014,-12.028890299614,0.0 -39.6066199,-12.028225899614,0.0 -39.6066509,-12.0276786996141,0.0 -39.6067454,-12.0272353996141,0.0 -39.6070174,-12.0268504996141,0.0 -39.6074483,-12.0264805996141,0.0 -39.6078326,-12.0261966996141,0.0 -39.6078939,-12.0261597996141,0.0 -39.6079016,-12.0261574996141,0.0 -39.6079039,-12.0261561996141,0.0 -39.6079079,-12.0261548996141,0.0 -39.6081644,-12.0260086996141,0.0 -39.6085937,-12.0259054996141,0.0 -39.6085994,-12.0259030996141,0.0 -39.6089038,-12.0257692996141,0.0 -39.6094145,-12.0253395996141,0.0 -39.6097021,-12.0249844996141,0.0 -39.6099088,-12.0245408996142,0.0 -39.6100997,-12.0240964996142,0.0 -39.6103549,-12.0235795996142,0.0 -39.6107055,-12.0230461996142,0.0 -39.611217,-12.0225431996142,0.0 -39.6118698,-12.0219801996142,0.0 -39.6125008,-12.0215076996142,0.0 -39.6138458,-12.0207777996143,0.0 -39.6138836,-12.0207647996143,0.0 -39.6138855,-12.0207636996143,0.0 -39.6138899,-12.0207621996143,0.0 -39.613995,-12.0207061996143,0.0 -39.6144876,-12.0205436996143,0.0 -39.6149347,-12.0204395996143,0.0 -39.6158636,-12.0204764996143,0.0 -39.616062,-12.0204886996143,0.0 -39.6173844,-12.0206674996143,0.0 -39.6179658,-12.0206408996143,0.0 -39.618468,-12.0205095996143,0.0 -39.6193923,-12.0201692996143,0.0 -39.6202002,-12.0199622996143,0.0 -39.6213368,-12.0196477996143,0.0 -39.6224203,-12.0194373996143,0.0 -39.6237953,-12.0193564996143,0.0 -39.6237984,-12.0193541996143,0.0 -39.6238015,-12.0193539996143,0.0 -39.6239474,-12.0192442996143,0.0 -39.6240197,-12.0191608996143,0.0 -39.6242058,-12.0189651996143,0.0 -39.6245885,-12.0184180996143,0.0 -39.6247474,-12.0180035996144,0.0 -39.6247941,-12.0175449996144,0.0 -39.6247615,-12.0169545996144,0.0 -39.6246795,-12.0164519996144,0.0 -39.6245867,-12.0160370996144,0.0 -39.6244823,-12.0157660996144,0.0 -39.6242426,-12.0154247996144,0.0 -39.6241335,-12.0151265996144,0.0 -39.6241108,-12.0148064996144,0.0 -39.6241546,-12.0146996996145,0.0 -39.6243021,-12.0145040996145,0.0 -39.6252756,-12.0136473996145,0.0 -39.6256696,-12.0131879996145,0.0 -39.6262414,-12.0121630996145,0.0 -39.6264746,-12.0117139996145,0.0 -39.6266997,-12.0113345996145,0.0 -39.6269257,-12.0109750996146,0.0 -39.6275868,-12.0096433996146,0.0 -39.6281019,-12.0087306996146,0.0 -39.6283763,-12.0082516996146,0.0 -39.6285403,-12.0080641996146,0.0 -39.6286663,-12.0077265996147,0.0 -39.6292477,-12.0069159996147,0.0 -39.6300381,-12.0059004996147,0.0 -39.6302312,-12.0056015996147,0.0 -39.6304251,-12.0052276996147,0.0 -39.63051,-12.0049869996147,0.0 -39.630554,-12.0045708996148,0.0 -39.6305518,-12.0036068996148,0.0 -39.6306401,-12.0032567996148,0.0 -39.6308832,-12.0027307996148,0.0 -39.6312607,-12.0023130996148,0.0 -39.6318391,-12.0018089996148,0.0 -39.6323949,-12.0014134996149,0.0 -39.6331946,-12.0008636996149,0.0 -39.6339566,-12.0002835996149,0.0 -39.6340611,-12.0001970996149,0.0 -39.6343816,-11.9994041996149,0.0 -39.635011,-11.9987604996149,0.0 -39.6355922,-11.9981661996149,0.0 -39.6358964,-11.997880599615,0.0 -39.6363919,-11.997261899615,0.0 -39.6365031,-11.996860999615,0.0 -39.6365009,-11.996332899615,0.0 -39.6364122,-11.994928799615,0.0 -39.6362759,-11.9924105996151,0.0 -39.6363226,-11.9915930996151,0.0 -39.6363428,-11.9908053996152,0.0 -39.6365646,-11.9890305996152,0.0 -39.6366886,-11.9870589996153,0.0 -39.6372688,-11.9857536996153,0.0 -39.6380081,-11.9841351996154,0.0 -39.639012,-11.9825674996154,0.0 -39.6395935,-11.9814186996155,0.0 -39.6401728,-11.9797488996155,0.0 -39.6403286,-11.9784445996155,0.0 -39.6403328,-11.9782555996156,0.0 -39.6403806,-11.9779226996156,0.0 -39.6404236,-11.9774206996156,0.0 -39.6405409,-11.9769456996156,0.0 -39.6410155,-11.9760574996156,0.0 -39.6414094,-11.9754056996156,0.0 -39.641433,-11.9754133996156,0.0 -39.6414354,-11.9754095996156,0.0 -39.6414393,-11.9754108996156,0.0 -39.6428504,-11.9732391996157,0.0 -39.6435522,-11.9717228996157,0.0 -39.6438231,-11.9710552996158,0.0 -39.6440946,-11.9703859996158,0.0 -39.6443422,-11.9694259996158,0.0 -39.6444339,-11.9689997996158,0.0 -39.6447615,-11.9669218996159,0.0 -39.6449708,-11.9657214996159,0.0 -39.6451213,-11.963712699616,0.0 -39.6451218,-11.962395099616,0.0 -39.6451147,-11.962103999616,0.0 -39.6450471,-11.961844799616,0.0 -39.6449794,-11.9615851996161,0.0 -39.6449006,-11.9612769996161,0.0 -39.6440802,-11.9600282996161,0.0 -39.6433873,-11.9586742996161,0.0 -39.6429862,-11.9580322996162,0.0 -39.6425066,-11.9571462996162,0.0 -39.6421334,-11.9562608996162,0.0 -39.6417151,-11.9545138996163,0.0 -39.6416834,-11.9542960996163,0.0 -39.6416737,-11.9540862996163,0.0 -39.6418018,-11.9538770996163,0.0 -39.6418811,-11.9536408996163,0.0 -39.6421187,-11.9531438996163,0.0 -39.6423937,-11.9525156996163,0.0 -39.6430846,-11.9514478996164,0.0 -39.6433976,-11.9509832996164,0.0 -39.6450557,-11.9488218996164,0.0 -39.6455826,-11.9482445996165,0.0 -39.6468173,-11.9480371996165,0.0 -39.6472579,-11.9479348996165,0.0 -39.6482831,-11.9476892996165,0.0 -39.6482869,-11.9476873996165,0.0 -39.6482894,-11.9476867996165,0.0 -39.6490434,-11.9473024996165,0.0 -39.6503906,-11.9465216996165,0.0 -39.6515147,-11.9459934996165,0.0 -39.6524144,-11.9459317996165,0.0 -39.6533691,-11.9461320996165,0.0 -39.654686,-11.9464690996165,0.0 -39.6548421,-11.9464695996165,0.0 -39.6568251,-11.9469441996165,0.0 -39.6582763,-11.9473730996165,0.0 -39.6586684,-11.9473784996165,0.0 -39.659398,-11.9471597996165,0.0 -39.6593997,-11.9471585996165,0.0 -39.6594043,-11.9471572996165,0.0 -39.6599672,-11.9467733996165,0.0 -39.6605685,-11.9462556996165,0.0 -39.6608715,-11.9458832996165,0.0 -39.6610666,-11.9456404996165,0.0 -39.6614492,-11.9451114996165,0.0 -39.6616515,-11.9448468996166,0.0 -39.6622932,-11.9439781996166,0.0 -39.6628347,-11.9430925996166,0.0 -39.6628428,-11.9430300996166,0.0 -39.6630532,-11.9423323996166,0.0 -39.6631284,-11.9411150996167,0.0 -39.6631448,-11.9399403996167,0.0 -39.6630977,-11.9383498996168,0.0 -39.6632123,-11.9375013996168,0.0 -39.663908,-11.9365782996168,0.0 -39.664081,-11.9363390996168,0.0 -39.6644365,-11.9356111996168,0.0 -39.664689,-11.9348581996169,0.0 -39.6651365,-11.9338497996169,0.0 -39.6659752,-11.9331632996169,0.0 -39.6662485,-11.9330197996169,0.0 -39.6675072,-11.9321567996169,0.0 -39.6680989,-11.9318686996169,0.0 -39.668597,-11.931655899617,0.0 -39.6694299,-11.931277799617,0.0 -39.6706442,-11.929906699617,0.0 -39.670969,-11.929733699617,0.0 -39.672173,-11.929362999617,0.0 -39.6727726,-11.929130799617,0.0 -39.6728084,-11.929116899617,0.0 -39.6729483,-11.929062599617,0.0 -39.6729545,-11.929060199617,0.0 -39.673378,-11.928726399617,0.0 -39.6739435,-11.9279382996171,0.0 -39.6743138,-11.9272971996171,0.0 -39.6751304,-11.9258962996171,0.0 -39.6752063,-11.9257658996171,0.0 -39.6760076,-11.9248415996172,0.0 -39.6772138,-11.9239461996172,0.0 -39.6777616,-11.9236545996172,0.0 -39.6786168,-11.9234442996172,0.0 -39.6799075,-11.9232811996172,0.0 -39.6811694,-11.9233079996172,0.0 -39.6824502,-11.9232360996172,0.0 -39.6838911,-11.9229124996172,0.0 -39.6846099,-11.9228058996172,0.0 -39.6855279,-11.9226860996172,0.0 -39.6863711,-11.9228005996172,0.0 -39.6864309,-11.9228086996172,0.0 -39.6866459,-11.9228732996172,0.0 -39.686861,-11.9229378996172,0.0 -39.6879893,-11.9235391996172,0.0 -39.6892255,-11.9243571996172,0.0 -39.6899597,-11.9245290996172,0.0 -39.6909011,-11.9245818996172,0.0 -39.691442,-11.9245832996172,0.0 -39.6914482,-11.9245807996172,0.0 -39.6917904,-11.9244397996172,0.0 -39.6923048,-11.9241183996172,0.0 -39.6924387,-11.9240547996172,0.0 -39.6927512,-11.9238314996172,0.0 -39.6934584,-11.9231379996172,0.0 -39.6952299,-11.9217419996173,0.0 -39.6956448,-11.9213194996173,0.0 -39.6964309,-11.9206094996173,0.0 -39.6969045,-11.9201417996173,0.0 -39.6971041,-11.9199323996173,0.0 -39.6981959,-11.9192097996173,0.0 -39.6989898,-11.9187444996173,0.0 -39.7014395,-11.9185043996174,0.0 -39.701524,-11.9185068996174,0.0 -39.7021758,-11.9184247996174,0.0 -39.7031304,-11.9182831996174,0.0 -39.7038726,-11.9180018996174,0.0 -39.7038747,-11.9180008996174,0.0 -39.7038789,-11.9179993996174,0.0 -39.7045273,-11.9177074996174,0.0 -39.7049056,-11.9173429996174,0.0 -39.7056955,-11.9166980996174,0.0 -39.7061589,-11.9161940996174,0.0 -39.7070403,-11.9150940996175,0.0 -39.7076741,-11.9144549996175,0.0 -39.7082302,-11.9139290996175,0.0 -39.7090812,-11.9128020996175,0.0 -39.7096362,-11.9118863996176,0.0 -39.7102851,-11.9106956996176,0.0 -39.710607,-11.9102101996176,0.0 -39.7111482,-11.9096318996176,0.0 -39.7116776,-11.9092630996176,0.0 -39.7125334,-11.9090584996176,0.0 -39.7136391,-11.9087436996176,0.0 -39.7137813,-11.9086989996176,0.0 -39.7152142,-11.9081672996177,0.0 -39.7152154,-11.9081666996177,0.0 -39.7152205,-11.9081647996177,0.0 -39.7161374,-11.9076614996177,0.0 -39.7178088,-11.9066516996177,0.0 -39.7184124,-11.9061011996177,0.0 -39.7191058,-11.9055068996177,0.0 -39.7191153,-11.9055067996177,0.0 -39.7193596,-11.9055936996177,0.0 -39.7197118,-11.9057363996177,0.0 -39.7199402,-11.9058743996177,0.0 -39.7206921,-11.9059029996177,0.0 -39.7215963,-11.9060980996177,0.0 -39.7219247,-11.9064073996177,0.0 -39.7224148,-11.9066167996177,0.0 -39.7232096,-11.9067309996177,0.0 -39.7233414,-11.9066471996177,0.0 -39.7233444,-11.9066480996177,0.0 -39.723956,-11.9066370996177,0.0 -39.7244482,-11.9064604996177,0.0 -39.7245509,-11.9064494996177,0.0 -39.7245534,-11.9064492996177,0.0 -39.7282381,-11.9060575996177,0.0 -39.7282412,-11.9060572996177,0.0 -39.7295254,-11.9059207996177,0.0 -39.7303857,-11.9052099996178,0.0 -39.731246,-11.9044992996178,0.0 -39.7314071,-11.9043252996178,0.0 -39.7322832,-11.9036818996178,0.0 -39.7323245,-11.9036437996178,0.0 -39.7330729,-11.9029735996178,0.0 -39.7339012,-11.9023437996178,0.0 -39.7345283,-11.9019804996179,0.0 -39.7345281,-11.9019062996179,0.0 -39.7349108,-11.9014631996179,0.0 -39.7353655,-11.9012241996179,0.0 -39.735537,-11.9011250996179,0.0 -39.7361669,-11.9011333996179,0.0 -39.7376583,-11.9012217996179,0.0 -39.7386405,-11.9014452996179,0.0 -39.7387094,-11.9014658996179,0.0 -39.740012,-11.9020167996178,0.0 -39.7405821,-11.9023127996178,0.0 -39.7412406,-11.9026944996178,0.0 -39.7415749,-11.9027071996178,0.0 -39.7420606,-11.9027094996178,0.0 -39.7427963,-11.9027771996178,0.0 -39.7430079,-11.9029366996178,0.0 -39.7431332,-11.9030755996178,0.0 -39.7431289,-11.9028617996178,0.0 -39.7431247,-11.9026478996178,0.0 -39.7434669,-11.9018747996179,0.0 -39.743787,-11.9013937996179,0.0 -39.744377,-11.9005855996179,0.0 -39.7446481,-11.8999871996179,0.0 -39.7447612,-11.8997110996179,0.0 -39.7449365,-11.8993343996179,0.0 -39.7451499,-11.898456699618,0.0 -39.7451907,-11.898286599618,0.0 -39.7452635,-11.898026899618,0.0 -39.7454027,-11.897564399618,0.0 -39.7455489,-11.896980799618,0.0 -39.7455734,-11.896851399618,0.0 -39.7465159,-11.895648899618,0.0 -39.74659,-11.895551999618,0.0 -39.746972,-11.8948889996181,0.0 -39.7471191,-11.8943053996181,0.0 -39.7471482,-11.8941831996181,0.0 -39.7471842,-11.8922470996181,0.0 -39.7471837,-11.8907314996182,0.0 -39.7476941,-11.8876673996183,0.0 -39.7478061,-11.8866533996183,0.0 -39.7480585,-11.8852600996184,0.0 -39.7482714,-11.8845279996184,0.0 -39.748445,-11.8835998996184,0.0 -39.7484088,-11.8806860996185,0.0 -39.7480074,-11.8802284996185,0.0 -39.7479759,-11.8798549996185,0.0 -39.7479565,-11.8796245996185,0.0 -39.747874,-11.8786459996186,0.0 -39.7473601,-11.8768971996186,0.0 -39.7468362,-11.8750023996187,0.0 -39.7467404,-11.8736826996187,0.0 -39.7466845,-11.8729129996187,0.0 -39.7466826,-11.8728875996187,0.0 -39.7467931,-11.8713192996188,0.0 -39.7465972,-11.8701849996188,0.0 -39.746581,-11.8699715996188,0.0 -39.7466344,-11.8686692996189,0.0 -39.7475011,-11.865304899619,0.0 -39.7477716,-11.864498499619,0.0 -39.7481468,-11.863391599619,0.0 -39.7482125,-11.862893099619,0.0 -39.7483123,-11.8621097996191,0.0 -39.7483762,-11.8613056996191,0.0 -39.7484251,-11.8600413996191,0.0 -39.7484105,-11.8597529996191,0.0 -39.7483023,-11.8591346996191,0.0 -39.7482865,-11.8590605996191,0.0 -39.7482508,-11.8587495996192,0.0 -39.7478393,-11.8576573996192,0.0 -39.7476622,-11.8566839996192,0.0 -39.7475435,-11.8559138996192,0.0 -39.7475389,-11.8542364996193,0.0 -39.7475103,-11.8541831996193,0.0 -39.7473181,-11.8533860996193,0.0 -39.747167,-11.8528357996193,0.0 -39.7468874,-11.8519774996194,0.0 -39.7466816,-11.8516108996194,0.0 -39.7466327,-11.8514942996194,0.0 -39.7462423,-11.8507529996194,0.0 -39.7455014,-11.8496941996194,0.0 -39.7455035,-11.8491126996195,0.0 -39.7453266,-11.8482296996195,0.0 -39.7451937,-11.8479732996195,0.0 -39.7450188,-11.8477684996195,0.0 -39.7446305,-11.8474456996195,0.0 -39.7434709,-11.8467307996195,0.0 -39.7433327,-11.8465475996195,0.0 -39.7427248,-11.8458175996195,0.0 -39.7426429,-11.8457382996196,0.0 -39.7419051,-11.8448448996196,0.0 -39.7418079,-11.8445313996196,0.0 -39.741526,-11.8435048996196,0.0 -39.7413164,-11.8430252996196,0.0 -39.7408259,-11.8422732996197,0.0 -39.7404773,-11.8420001996197,0.0 -39.7398492,-11.8415903996197,0.0 -39.7384547,-11.8409094996197,0.0 -39.7379396,-11.8405355996197,0.0 -39.73775,-11.8403569996197,0.0 -39.7374078,-11.8400892996197,0.0 -39.7371143,-11.8398549996197,0.0 -39.7367684,-11.8395610996197,0.0 -39.736446,-11.8391675996197,0.0 -39.7360407,-11.8386287996198,0.0 -39.7354932,-11.8381482996198,0.0 -39.7349015,-11.8379752996198,0.0 -39.7347326,-11.8379675996198,0.0 -39.7332935,-11.8370886996198,0.0 -39.7328013,-11.8366766996198,0.0 -39.7324436,-11.8364361996198,0.0 -39.7321805,-11.8362469996198,0.0 -39.7316153,-11.8359943996198,0.0 -39.7312139,-11.8359293996198,0.0 -39.7311974,-11.8359266996198,0.0 -39.729846,-11.8355340996199,0.0 -39.7298037,-11.8355188996199,0.0 -39.7291501,-11.8351578996199,0.0 -39.7286292,-11.8346835996199,0.0 -39.7284718,-11.8345293996199,0.0 -39.7282336,-11.8343517996199,0.0 -39.7277794,-11.8340852996199,0.0 -39.7266619,-11.8329243996199,0.0 -39.7244995,-11.83166849962,0.0 -39.7244296,-11.83162789962,0.0 -39.7228952,-11.83074109962,0.0 -39.7228225,-11.83069069962,0.0 -39.7217088,-11.82992219962,0.0 -39.7208717,-11.8292387996201,0.0 -39.7203712,-11.8288249996201,0.0 -39.7195756,-11.8280939996201,0.0 -39.7190898,-11.8276555996201,0.0 -39.7190756,-11.8276427996201,0.0 -39.7185724,-11.8272533996201,0.0 -39.7185015,-11.8271558996201,0.0 -39.7175614,-11.8260631996201,0.0 -39.7174503,-11.8260290996201,0.0 -39.71568,-11.8251681996202,0.0 -39.7137944,-11.8240787996202,0.0 -39.7130981,-11.8238752996202,0.0 -39.7120841,-11.8236608996202,0.0 -39.7117029,-11.8235802996202,0.0 -39.7098004,-11.8233698996202,0.0 -39.7089159,-11.8231957996202,0.0 -39.7082404,-11.8228655996202,0.0 -39.7073819,-11.8224453996203,0.0 -39.7061957,-11.8216263996203,0.0 -39.7044274,-11.8208240996203,0.0 -39.703981,-11.8206877996203,0.0 -39.7022908,-11.8202352996203,0.0 -39.7022081,-11.8202164996203,0.0 -39.7020924,-11.8202004996203,0.0 -39.7012464,-11.8199945996203,0.0 -39.7001724,-11.8196011996203,0.0 -39.6998179,-11.8195206996203,0.0 -39.6988806,-11.8191341996204,0.0 -39.6978062,-11.8186538996204,0.0 -39.6963351,-11.8180606996204,0.0 -39.6958105,-11.8178774996204,0.0 -39.6954303,-11.8178141996204,0.0 -39.6951876,-11.8176809996204,0.0 -39.6950562,-11.8175072996204,0.0 -39.6950237,-11.8174642996204,0.0 -39.6945627,-11.8166344996204,0.0 -39.6940333,-11.8149202996205,0.0 -39.6934137,-11.8131113996205,0.0 -39.6930514,-11.8121130996206,0.0 -39.6928404,-11.8114579996206,0.0 -39.6926285,-11.8104013996206,0.0 -39.6926269,-11.8097855996206,0.0 -39.6932504,-11.8084130996207,0.0 -39.6937661,-11.8072244996207,0.0 -39.6940112,-11.8061504996207,0.0 -39.6941228,-11.8041698996208,0.0 -39.6936034,-11.8024050996209,0.0 -39.6933366,-11.8018088996209,0.0 -39.6930032,-11.8009921996209,0.0 -39.692477,-11.8001488996209,0.0 -39.691441,-11.799161199621,0.0 -39.6913671,-11.798242599621,0.0 -39.6917279,-11.7960650996211,0.0 -39.6917492,-11.7957855996211,0.0 -39.6917974,-11.7952492996211,0.0 -39.6917633,-11.7948306996211,0.0 -39.6916212,-11.7945307996211,0.0 -39.6915337,-11.7944016996211,0.0 -39.6914297,-11.7942996996211,0.0 -39.6912126,-11.7941121996211,0.0 -39.6910748,-11.7940555996211,0.0 -39.6906777,-11.7938303996211,0.0 -39.69066,-11.7937092996211,0.0 -39.6907489,-11.7933111996211,0.0 -39.6909361,-11.7930483996211,0.0 -39.6909438,-11.7930375996211,0.0 -39.691149,-11.7927778996212,0.0 -39.6911743,-11.7927458996212,0.0 -39.6912552,-11.7924291996212,0.0 -39.6913024,-11.7918511996212,0.0 -39.6911564,-11.7907184996212,0.0 -39.6911309,-11.7900773996212,0.0 -39.6911289,-11.7892707996213,0.0 -39.691141,-11.7885934996213,0.0 -39.6910749,-11.7882074996213,0.0 -39.6906996,-11.7878945996213,0.0 -39.6898301,-11.7874137996213,0.0 -39.689615,-11.7872822996213,0.0 -39.6889811,-11.7870351996213,0.0 -39.6884951,-11.7868726996213,0.0 -39.6880405,-11.7867308996213,0.0 -39.6872796,-11.7863736996213,0.0 -39.687207,-11.7863404996213,0.0 -39.6869727,-11.7862442996214,0.0 -39.6861551,-11.7859549996214,0.0 -39.6861372,-11.7859483996214,0.0 -39.685535,-11.7857267996214,0.0 -39.6836953,-11.7840835996214,0.0 -39.6836943,-11.7840745996214,0.0 -39.6836178,-11.7835728996214,0.0 -39.6836603,-11.7829505996215,0.0 -39.6836909,-11.7823129996215,0.0 -39.6836097,-11.7818430996215,0.0 -39.6835745,-11.7816395996215,0.0 -39.6834869,-11.7814851996215,0.0 -39.6833993,-11.7813307996215,0.0 -39.6833593,-11.7812860996215,0.0 -39.6833193,-11.7812413996215,0.0 -39.6830831,-11.7811144996215,0.0 -39.6826562,-11.7810838996215,0.0 -39.6820689,-11.7811096996215,0.0 -39.6815185,-11.7812821996215,0.0 -39.6815549,-11.7804673996215,0.0 -39.6815511,-11.7796855996216,0.0 -39.6816071,-11.7790246996216,0.0 -39.6816811,-11.7778448996216,0.0 -39.6817497,-11.7765254996216,0.0 -39.6818034,-11.7754613996217,0.0 -39.6818217,-11.7753799996217,0.0 -39.6818624,-11.7753126996217,0.0 -39.6819185,-11.7752631996217,0.0 -39.6820273,-11.7752140996217,0.0 -39.6824338,-11.7750934996217,0.0 -39.683409,-11.7748081996217,0.0 -39.6835634,-11.7747565996217,0.0 -39.6837671,-11.7746655996217,0.0 -39.6839665,-11.7745396996217,0.0 -39.6844,-11.7741692996217,0.0 -39.6848634,-11.7737473996217,0.0 -39.6854115,-11.7731733996217,0.0 -39.6861275,-11.7724042996218,0.0 -39.6866698,-11.7718097996218,0.0 -39.6867581,-11.7717068996218,0.0 -39.6869077,-11.7714965996218,0.0 -39.6870322,-11.7713266996218,0.0 -39.6871026,-11.7712693996218,0.0 -39.6873292,-11.7711537996218,0.0 -39.6878227,-11.7709259996218,0.0 -39.6882665,-11.7707395996218,0.0 -39.6883077,-11.7707222996218,0.0 -39.6893242,-11.7702713996218,0.0 -39.6901595,-11.7699006996218,0.0 -39.690764,-11.7696323996218,0.0 -39.6911631,-11.7694597996219,0.0 -39.6913657,-11.7693635996219,0.0 -39.6914108,-11.7693231996219,0.0 -39.6914394,-11.7692691996219,0.0 -39.6914734,-11.7688851996219,0.0 -39.6915524,-11.7678893996219,0.0 -39.6918384,-11.763898299622,0.0 -39.6920612,-11.7606687996221,0.0 -39.6922257,-11.7569596996222,0.0 -39.6923448,-11.7550177996223,0.0 -39.6924148,-11.7543067996223,0.0 -39.692413,-11.7542377996223,0.0 -39.69242,-11.7542343996223,0.0 -39.6924551,-11.7542320996223,0.0 -39.6924687,-11.7542302996223,0.0 -39.6925312,-11.7542129996223,0.0 -39.6926513,-11.7541719996223,0.0 -39.6928658,-11.7540872996223,0.0 -39.6930163,-11.7540277996223,0.0 -39.6931494,-11.7539804996223,0.0 -39.6931979,-11.7539632996223,0.0 -39.6934461,-11.7538548996223,0.0 -39.693582,-11.7537954996223,0.0 -39.6936362,-11.7537622996223,0.0 -39.6936487,-11.7537420996223,0.0 -39.6936487,-11.7537054996223,0.0 -39.6936507,-11.7535001996223,0.0 -39.6936527,-11.7532949996223,0.0 -39.6936994,-11.7524435996224,0.0 -39.6937121,-11.7520427996224,0.0 -39.6937423,-11.7511779996224,0.0 -39.6938507,-11.7482576996225,0.0 -39.6939337,-11.7460577996226,0.0 -39.6940723,-11.7433038996226,0.0 -39.6943739,-11.7372298996228,0.0 -39.6943877,-11.7369521996228,0.0 -39.6944015,-11.7366745996228,0.0 -39.6945323,-11.7340413996229,0.0 -39.6946359,-11.731733399623,0.0 -39.6946541,-11.731090399623,0.0 -39.6946492,-11.730924699623,0.0 -39.6946741,-11.730576599623,0.0 -39.6946796,-11.730320299623,0.0 -39.6946801,-11.730305299623,0.0 -39.6960086,-11.7282605996231,0.0 -39.6960389,-11.7281162996231,0.0 -39.6960205,-11.7281151996231,0.0 -39.6827624,-11.7273256996231,0.0 -39.6814546,-11.7272477996231,0.0 -39.6408105,-11.7248274996232,0.0 -39.6407127,-11.7248603996232,0.0 -39.6395627,-11.7252468996232,0.0 -39.5964547,-11.7397368996228,0.0 -39.5690573,-11.7489460996225,0.0 -39.5550883,-11.7536414996223,0.0 -39.5414581,-11.7582229996222,0.0 -39.5408741,-11.765034999622,0.0 -39.5400902,-11.7738635996217,0.0 -39.5391334,-11.7850942996214,0.0 -39.5382481,-11.7926034996212,0.0 -39.5377022,-11.797764199621,0.0 -39.5371546,-11.8040231996208,0.0 -39.5367847,-11.8081398996207,0.0 -39.53652,-11.8108479996206,0.0 -39.5364435,-11.8116451996206,0.0 -39.5363634,-11.8117908996206,0.0 -39.5361563,-11.8120406996206,0.0 -39.5360962,-11.8121304996206,0.0 -39.5360844,-11.8121575996206,0.0 -39.5360733,-11.8122773996206,0.0 -39.5341965,-11.83244969962,0.0 -39.5341903,-11.83245049962,0.0 -39.5341437,-11.83245629962,0.0 -39.5335662,-11.83243389962,0.0 -39.5328028,-11.8326070996199,0.0 -39.5328003,-11.8326087996199,0.0 -39.5324562,-11.8328365996199,0.0 -39.532452,-11.8328376996199,0.0 -39.532025,-11.8329548996199,0.0 -39.5318707,-11.8329597996199,0.0 -39.5317026,-11.8328813996199,0.0 -39.5315123,-11.8327279996199,0.0 -39.5314913,-11.8327143996199,0.0 -39.5313298,-11.8325464996199,0.0 -39.5310773,-11.83214209962,0.0 -39.5308639,-11.83169919962,0.0 -39.5306186,-11.83136819962,0.0 -39.5299254,-11.83077209962,0.0 -39.5295217,-11.83037489962,0.0 -39.5293684,-11.83017279962,0.0 -39.5291436,-11.82977529962,0.0 -39.5290441,-11.82960009962,0.0 -39.5287611,-11.8289838996201,0.0 -39.5285395,-11.8283041996201,0.0 -39.5282243,-11.8276880996201,0.0 -39.5279098,-11.8273793996201,0.0 -39.5272281,-11.8271246996201,0.0 -39.5271427,-11.8270904996201,0.0 -39.5261516,-11.8267658996201,0.0 -39.525528,-11.8266340996201,0.0 -39.5251606,-11.8265389996201,0.0 -39.5249741,-11.8264886996201,0.0 -39.5248703,-11.8264110996201,0.0 -39.524839,-11.8263667996201,0.0 -39.5245788,-11.8261881996201,0.0 -39.5244731,-11.8261133996201,0.0 -39.5242662,-11.8258985996201,0.0 -39.5238143,-11.8253205996202,0.0 -39.5229557,-11.8246692996202,0.0 -39.5225247,-11.8244547996202,0.0 -39.5220516,-11.8242720996202,0.0 -39.521207,-11.8242483996202,0.0 -39.5203525,-11.8243358996202,0.0 -39.5195154,-11.8243816996202,0.0 -39.5189272,-11.8245165996202,0.0 -39.5189263,-11.8245178996202,0.0 -39.5188467,-11.8246351996202,0.0 -39.5186784,-11.8249092996202,0.0 -39.5185524,-11.8253247996202,0.0 -39.5185341,-11.8253872996202,0.0 -39.5182127,-11.8262840996201,0.0 -39.5180927,-11.8269163996201,0.0 -39.5178979,-11.8287605996201,0.0 -39.5178107,-11.82928259962,0.0 -39.517645,-11.83000819962,0.0 -39.5173716,-11.83055939962,0.0 -39.5171362,-11.83085919962,0.0 -39.5163533,-11.83147009962,0.0 -39.5156182,-11.83205109962,0.0 -39.5150121,-11.8329021996199,0.0 -39.5147384,-11.8333575996199,0.0 -39.5143276,-11.8340772996199,0.0 -39.5138794,-11.8344804996199,0.0 -39.5136685,-11.8346038996199,0.0 -39.5136665,-11.8346038996199,0.0 -39.5130451,-11.8346013996199,0.0 -39.5128119,-11.8345791996199,0.0 -39.5126247,-11.8346138996199,0.0 -39.5121641,-11.8347702996199,0.0 -39.5118483,-11.8348939996199,0.0 -39.5117046,-11.8349691996199,0.0 -39.5116991,-11.8349712996199,0.0 -39.5113321,-11.8351126996199,0.0 -39.5110577,-11.8351674996199,0.0 -39.5104764,-11.8350798996199,0.0 -39.510198,-11.8349392996199,0.0 -39.5098196,-11.8348260996199,0.0 -39.5092933,-11.8346750996199,0.0 -39.5089847,-11.8346140996199,0.0 -39.508166,-11.8342312996199,0.0 -39.5077324,-11.8340683996199,0.0 -39.5071309,-11.8339735996199,0.0 -39.5060963,-11.8339591996199,0.0 -39.506093,-11.8339616996199,0.0 -39.5058497,-11.8341530996199,0.0 -39.505615,-11.8343425996199,0.0 -39.5054374,-11.8345833996199,0.0 -39.5053662,-11.8348131996199,0.0 -39.5053031,-11.8349661996199,0.0 -39.5052248,-11.8352791996199,0.0 -39.5050658,-11.8357108996199,0.0 -39.5048742,-11.8358585996198,0.0 -39.5048694,-11.8358599996199,0.0 -39.50461,-11.8359358996198,0.0 -39.5046079,-11.8359371996198,0.0 -39.5044376,-11.8360438996198,0.0 -39.5041013,-11.8364215996198,0.0 -39.5036291,-11.8372262996198,0.0 -39.5030301,-11.8379788996198,0.0 -39.5024838,-11.8384346996198,0.0 -39.50204,-11.8387709996198,0.0 -39.5016595,-11.8390456996198,0.0 -39.5012685,-11.8395934996197,0.0 -39.5010022,-11.8400496996197,0.0 -39.5008325,-11.8406224996197,0.0 -39.5006101,-11.8410126996197,0.0 -39.5000091,-11.8414697996197,0.0 -39.5000061,-11.8414698996197,0.0 -39.4996856,-11.8414799996197,0.0 -39.49922,-11.8415151996197,0.0 -39.4987171,-11.8415295996197,0.0 -39.4984831,-11.8415734996197,0.0 -39.4976846,-11.8416634996197,0.0 -39.4971036,-11.8417340996197,0.0 -39.4966264,-11.8418778996197,0.0 -39.4966223,-11.8418796996197,0.0 -39.4963127,-11.8420203996197,0.0 -39.4960981,-11.8421355996197,0.0 -39.4959276,-11.8422687996197,0.0 -39.4958012,-11.8424281996197,0.0 -39.4956495,-11.8428200996196,0.0 -39.4954667,-11.8432769996196,0.0 -39.4952515,-11.8435785996196,0.0 -39.4950014,-11.8438719996196,0.0 -39.4946605,-11.8442180996196,0.0 -39.4944993,-11.8444308996196,0.0 -39.4944196,-11.8445638996196,0.0 -39.4944015,-11.8446878996196,0.0 -39.49438,-11.8449717996196,0.0 -39.4943621,-11.8452105996196,0.0 -39.4943174,-11.8453616996196,0.0 -39.4942459,-11.8454504996196,0.0 -39.4941203,-11.8455654996196,0.0 -39.4941157,-11.8455664996196,0.0 -39.4938331,-11.8456283996196,0.0 -39.4936275,-11.8456730996196,0.0 -39.4935281,-11.8457087996196,0.0 -39.4934477,-11.8457701996196,0.0 -39.4933856,-11.8459031996195,0.0 -39.4933227,-11.8461610996195,0.0 -39.4931443,-11.8465158996195,0.0 -39.4929117,-11.8468788996195,0.0 -39.4927413,-11.8470654996195,0.0 -39.4926248,-11.8471280996195,0.0 -39.4926221,-11.8471286996195,0.0 -39.4924725,-11.8471635996195,0.0 -39.4922485,-11.8471820996195,0.0 -39.491728,-11.8472182996195,0.0 -39.4913333,-11.8472541996195,0.0 -39.491136,-11.8473078996195,0.0 -39.4911309,-11.8473100996195,0.0 -39.4909296,-11.8473968996195,0.0 -39.490751,-11.8475915996195,0.0 -39.4906705,-11.8477608996195,0.0 -39.4906259,-11.8480177996195,0.0 -39.4905145,-11.8483100996195,0.0 -39.4903266,-11.8484966996195,0.0 -39.4901294,-11.8486208996195,0.0 -39.4901242,-11.8486226996195,0.0 -39.489878,-11.8487099996195,0.0 -39.4894026,-11.8488165996195,0.0 -39.4888739,-11.8488708996195,0.0 -39.4884517,-11.8489249996195,0.0 -39.4880131,-11.8490495996195,0.0 -39.4874387,-11.8492187996194,0.0 -39.486976,-11.8492547996194,0.0 -39.4864555,-11.8492909996194,0.0 -39.486115,-11.8493277996194,0.0 -39.4859351,-11.8493895996194,0.0 -39.4859323,-11.8493908996194,0.0 -39.4857471,-11.8494784996194,0.0 -39.4855499,-11.8496027996194,0.0 -39.4853263,-11.8498074996194,0.0 -39.485111,-11.8500556996194,0.0 -39.4847802,-11.8504459996194,0.0 -39.484628,-11.8505438996194,0.0 -39.4846248,-11.8505444996194,0.0 -39.4844215,-11.8505795996194,0.0 -39.4841433,-11.8505980996194,0.0 -39.4840001,-11.8506073996194,0.0 -39.4839977,-11.8506096996194,0.0 -39.483815,-11.8507821996194,0.0 -39.4836299,-11.8509896996194,0.0 -39.4835322,-11.8512701996194,0.0 -39.4834463,-11.8515388996194,0.0 -39.4833978,-11.8521601996194,0.0 -39.4833244,-11.8526730996193,0.0 -39.4831889,-11.8529165996193,0.0 -39.4829186,-11.8532100996193,0.0 -39.4825243,-11.8535027996193,0.0 -39.482228,-11.8536497996193,0.0 -39.4822236,-11.8536513996193,0.0 -39.4817225,-11.8538333996193,0.0 -39.481415,-11.8539497996193,0.0 -39.4813308,-11.8540166996193,0.0 -39.481297,-11.8540836996193,0.0 -39.4812797,-11.8541677996193,0.0 -39.4812718,-11.8544028996193,0.0 -39.4813404,-11.8547636996193,0.0 -39.4813407,-11.8549390996193,0.0 -39.4813152,-11.8550819996193,0.0 -39.4812474,-11.8551661996193,0.0 -39.4811457,-11.8552495996193,0.0 -39.4808659,-11.8553847996193,0.0 -39.4805101,-11.8556367996193,0.0 -39.4801617,-11.8559312996192,0.0 -39.4798063,-11.8563677996192,0.0 -39.4795609,-11.8567452996192,0.0 -39.4793835,-11.8571398996192,0.0 -39.4793163,-11.8575930996192,0.0 -39.4793299,-11.8585326996192,0.0 -39.4792731,-11.8596902996191,0.0 -39.479166,-11.8598767996191,0.0 -39.4788114,-11.8602779996191,0.0 -39.4785382,-11.8604691996191,0.0 -39.4783657,-11.8605590996191,0.0 -39.4783626,-11.8605598996191,0.0 -39.4781831,-11.8606099996191,0.0 -39.4778884,-11.8606402996191,0.0 -39.4774321,-11.8606410996191,0.0 -39.4772898,-11.8606413996191,0.0 -39.4770971,-11.8606814996191,0.0 -39.4769453,-11.8607326996191,0.0 -39.476722,-11.8609126996191,0.0 -39.4764994,-11.8612042996191,0.0 -39.476257,-11.8617454996191,0.0 -39.4760677,-11.8620441996191,0.0 -39.4759329,-11.8622569996191,0.0 -39.4755592,-11.862769399619,0.0 -39.4752062,-11.863083799619,0.0 -39.475202,-11.863087299619,0.0 -39.4749862,-11.863261399619,0.0 -39.4745497,-11.863603099619,0.0 -39.4739897,-11.864148399619,0.0 -39.4736384,-11.864366099619,0.0 -39.4733495,-11.864508499619,0.0 -39.4726653,-11.864919299619,0.0 -39.4725204,-11.865039799619,0.0 -39.4720996,-11.865424899619,0.0 -39.4717715,-11.8657663996189,0.0 -39.4716991,-11.8658532996189,0.0 -39.4715902,-11.8660288996189,0.0 -39.4712871,-11.8665059996189,0.0 -39.4709721,-11.8669785996189,0.0 -39.4706233,-11.8675660996189,0.0 -39.4704118,-11.8679335996189,0.0 -39.4701921,-11.8683064996189,0.0 -39.4700914,-11.8684657996189,0.0 -39.4699732,-11.8686531996189,0.0 -39.4699247,-11.8687237996189,0.0 -39.4698872,-11.8687726996189,0.0 -39.4698478,-11.8688306996189,0.0 -39.469781,-11.8689555996189,0.0 -39.4696775,-11.8691085996188,0.0 -39.4692679,-11.8695930996188,0.0 -39.469223,-11.8696365996188,0.0 -39.4690707,-11.8697226996188,0.0 -39.4690671,-11.8697236996188,0.0 -39.4688174,-11.8697936996188,0.0 -39.4688139,-11.8697954996188,0.0 -39.4686147,-11.8698943996188,0.0 -39.4683515,-11.8701154996188,0.0 -39.4681692,-11.8703463996188,0.0 -39.4680476,-11.8706268996188,0.0 -39.4678448,-11.8712683996188,0.0 -39.4676436,-11.8716901996188,0.0 -39.4673405,-11.8721717996188,0.0 -39.467259,-11.8723418996187,0.0 -39.4672594,-11.8725227996187,0.0 -39.4672596,-11.8726828996187,0.0 -39.4673106,-11.8729332996187,0.0 -39.4674837,-11.8732639996187,0.0 -39.4676568,-11.8735240996187,0.0 -39.4678683,-11.8737344996187,0.0 -39.4680549,-11.8738552996187,0.0 -39.4682057,-11.8739364996187,0.0 -39.4687443,-11.8742629996187,0.0 -39.4689236,-11.8744479996187,0.0 -39.4690083,-11.8745627996187,0.0 -39.469047,-11.8746395996187,0.0 -39.4690563,-11.8747172996187,0.0 -39.4690472,-11.8748041996187,0.0 -39.4690328,-11.8749244996187,0.0 -39.4689662,-11.8752048996187,0.0 -39.4689262,-11.8753123996187,0.0 -39.469991,-11.8751844996187,0.0 -39.4703735,-11.8751738996187,0.0 -39.4705685,-11.8752112996187,0.0 -39.4717287,-11.8756300996186,0.0 -39.4738191,-11.8764137996186,0.0 -39.4747196,-11.8767484996186,0.0 -39.4749575,-11.8769679996186,0.0 -39.4760843,-11.8782003996186,0.0 -39.4777654,-11.8801262996185,0.0 -39.4814168,-11.8824218996184,0.0 -39.4842086,-11.8841536996184,0.0 -39.4843855,-11.8842072996184,0.0 -39.4844918,-11.8841942996184,0.0 -39.4845855,-11.8841609996184,0.0 -39.4848738,-11.8839708996184,0.0 -39.4852163,-11.8837497996184,0.0 -39.4852579,-11.8837253996184,0.0 -39.4852725,-11.8837213996184,0.0 -39.4853042,-11.8837130996184,0.0 -39.4853425,-11.8837131996184,0.0 -39.486023,-11.8841149996184,0.0 -39.4888411,-11.8857787996183,0.0 -39.4902833,-11.8875612996183,0.0 -39.4948906,-11.8932561996181,0.0 -39.4954341,-11.8942499996181,0.0 -39.4957507,-11.8943838996181,0.0 -39.4989361,-11.8951749996181,0.0 -39.4993141,-11.8952688996181,0.0 -39.5000935,-11.895500099618,0.0 -39.500158,-11.895787499618,0.0 -39.5001341,-11.896838799618,0.0 -39.5001298,-11.897024499618,0.0 -39.5002107,-11.897195799618,0.0 -39.5012538,-11.898045599618,0.0 -39.501573,-11.898315499618,0.0 -39.502877,-11.9003242996179,0.0 -39.5032308,-11.9008592996179,0.0 -39.5034875,-11.9010301996179,0.0 -39.5044936,-11.9013144996179,0.0 -39.5048074,-11.9014031996179,0.0 -39.504849,-11.9017517996179,0.0 -39.5095874,-11.9414159996167,0.0 -39.5493178,-11.9904117996152,0.0 -39.5565991,-12.0053218996147,0.0 -39.5566095,-12.0053431996147,0.0 -39.5586449,-12.0095110996146,0.0 -39.5584913,-12.0096225996146,0.0 -39.5366361,-12.0254946996141,0.0 -39.5366242,-12.0255032996141,0.0 -39.5690573,-12.0364840996138,0.0 -39.5703791,-12.0369315996138,0.0 -39.5733103,-12.0379239996138,0.0 -39.5762638,-12.0389239996137,0.0 -39.5769031,-12.0391403996137,0.0 -39.5774804,-12.0401673996137,0.0 -39.5782159,-12.0412979996136,0.0 -39.579003,-12.0424538996136,0.0 -39.5803146,-12.0440200996136,0.0 -39.5814501,-12.0457078996135,0.0 -39.5820537,-12.0465547996135,0.0 -39.5826311,-12.0471712996135,0.0 -39.5832864,-12.0477097996135,0.0 -39.5838366,-12.0480946996134,0.0 -39.584308,-12.0485566996134,0.0 -39.5848589,-12.0492238996134,0.0 -39.5853322,-12.0498626996134,0.0 -39.5853355,-12.0498670996134,0.0 -39.5854108,-12.0499687996134,0.0 -39.5857612,-12.0505232996134,0.0 -39.5860492,-12.0507540996134,0.0 -39.5864945,-12.0510352996134,0.0 -39.5871235,-12.0513170996133,0.0 -39.5879087,-12.0515730996133,0.0 -39.5886156,-12.0517253996133,0.0 -39.5890872,-12.0518789996133,0.0 -39.5895583,-12.0521863996133,0.0 -39.5900047,-12.0525462996133,0.0 -39.5906337,-12.0532393996133,0.0 -39.5910014,-12.0537531996133,0.0 -39.5912645,-12.0543177996133,0.0 -39.5915594,-12.0551282996132,0.0 -39.5919014,-12.0561041996132,0.0 -39.592243,-12.0568241996132,0.0 -39.5926111,-12.0575178996132,0.0 -39.5930572,-12.0581599996131,0.0 -39.5934252,-12.0588020996131,0.0 -39.5936884,-12.0594191996131,0.0 -39.5938201,-12.0599840996131,0.0 -39.5939198,-12.0606204996131,0.0 -39.5938198,-12.061124399613,0.0 -39.5942273,-12.0604751996131,0.0 -39.5945217,-12.0598270996131,0.0 -39.5948152,-12.0591780996131,0.0 -39.5950453,-12.0585164996131,0.0 -39.59509,-12.0583997996131,0.0 -39.5952491,-12.0580638996131,0.0 -39.5953762,-12.0577706996132,0.0 -39.5955812,-12.0574175996132,0.0 -39.5957717,-12.0571241996132,0.0 -39.5961491,-12.0566024996132,0.0 -39.5963102,-12.0563452996132,0.0 -39.5967711,-12.0558008996132,0.0 -39.5972976,-12.0549939996132,0.0 -39.5976929,-12.0542651996133,0.0 -39.59781,-12.0540343996133,0.0 -39.5983061,-12.0531859996133,0.0 -39.598575,-12.0526427996133,0.0 -39.5986061,-12.0525849996133,0.0</coordinates>
</LinearRing>
</outerBoundaryIs>
</Polygon>
</MultiGeometry>
</Placemark>
</Folder>
</Document></kml>
