<?xml version='1.0' encoding='UTF-8'?>
<kml xmlns:xsd="http://www.w3.org/2001/XMLSchema" xmlns:gx="http://www.google.com/kml/ext/2.2" xmlns:atom="http://www.w3.org/2005/Atom" xmlns="http://www.opengis.net/kml/2.2">
<Document>
<name>natuba_2509909_localidades_2022</name>
<visibility>1</visibility>
<Schema name="Povoados" id="kml_schema_ft_Povoados">
<SimpleField type="xsd:string" name="CD_UF">
<displayName>CD_UF</displayName>
</SimpleField>
<SimpleField type="xsd:string" name="NM_UF">
<displayName>NM_UF</displayName>
</SimpleField>
<SimpleField type="xsd:string" name="SIGLA_UF">
<displayName>SIGLA_UF</displayName>
</SimpleField>
<SimpleField type="xsd:string" name="CD_MUN">
<displayName>CD_MUN</displayName>
</SimpleField>
<SimpleField type="xsd:string" name="NM_MUN">
<displayName>NM_MUN</displayName>
</SimpleField>
<SimpleField type="xsd:string" name="CD_RGINT">
<displayName>CD_RGINT</displayName>
</SimpleField>
<SimpleField type="xsd:string" name="NM_RGINT">
<displayName>NM_RGINT</displayName>
</SimpleField>
<SimpleField type="xsd:string" name="CD_RGI">
<displayName>CD_RGI</displayName>
</SimpleField>
<SimpleField type="xsd:string" name="NM_RGI">
<displayName>NM_RGI</displayName>
</SimpleField>
<SimpleField type="xsd:string" name="CT_LOCALIDADE">
<displayName>CT_LOCALIDADE</displayName>
</SimpleField>
<SimpleField type="xsd:string" name="CD_LOCALIDADE">
<displayName>CD_LOCALIDADE</displayName>
</SimpleField>
<SimpleField type="xsd:string" name="NM_LOCALIDADE">
<displayName>NM_LOCALIDADE</displayName>
</SimpleField>
<SimpleField type="xsd:string" name="LAT_LOCALIDADE">
<displayName>LAT_LOCALIDADE</displayName>
</SimpleField>
<SimpleField type="xsd:string" name="LONG_LOCALIDADE">
<displayName>LONG_LOCALIDADE</displayName>
</SimpleField>
</Schema>
<Schema name="Vilas" id="kml_schema_ft_Vilas">
<SimpleField type="xsd:string" name="CD_UF">
<displayName>CD_UF</displayName>
</SimpleField>
<SimpleField type="xsd:string" name="NM_UF">
<displayName>NM_UF</displayName>
</SimpleField>
<SimpleField type="xsd:string" name="SIGLA_UF">
<displayName>SIGLA_UF</displayName>
</SimpleField>
<SimpleField type="xsd:string" name="CD_MUN">
<displayName>CD_MUN</displayName>
</SimpleField>
<SimpleField type="xsd:string" name="NM_MUN">
<displayName>NM_MUN</displayName>
</SimpleField>
<SimpleField type="xsd:string" name="CD_RGINT">
<displayName>CD_RGINT</displayName>
</SimpleField>
<SimpleField type="xsd:string" name="NM_RGINT">
<displayName>NM_RGINT</displayName>
</SimpleField>
<SimpleField type="xsd:string" name="CD_RGI">
<displayName>CD_RGI</displayName>
</SimpleField>
<SimpleField type="xsd:string" name="NM_RGI">
<displayName>NM_RGI</displayName>
</SimpleField>
<SimpleField type="xsd:string" name="CT_LOCALIDADE">
<displayName>CT_LOCALIDADE</displayName>
</SimpleField>
<SimpleField type="xsd:string" name="CD_LOCALIDADE">
<displayName>CD_LOCALIDADE</displayName>
</SimpleField>
<SimpleField type="xsd:string" name="NM_LOCALIDADE">
<displayName>NM_LOCALIDADE</displayName>
</SimpleField>
<SimpleField type="xsd:string" name="LAT_LOCALIDADE">
<displayName>LAT_LOCALIDADE</displayName>
</SimpleField>
<SimpleField type="xsd:string" name="LONG_LOCALIDADE">
<displayName>LONG_LOCALIDADE</displayName>
</SimpleField>
</Schema>
<Schema name="Localidades" id="kml_schema_ft_Localidades">
<SimpleField type="xsd:string" name="CD_UF">
<displayName>CD_UF</displayName>
</SimpleField>
<SimpleField type="xsd:string" name="NM_UF">
<displayName>NM_UF</displayName>
</SimpleField>
<SimpleField type="xsd:string" name="SIGLA_UF">
<displayName>SIGLA_UF</displayName>
</SimpleField>
<SimpleField type="xsd:string" name="CD_MUN">
<displayName>CD_MUN</displayName>
</SimpleField>
<SimpleField type="xsd:string" name="NM_MUN">
<displayName>NM_MUN</displayName>
</SimpleField>
<SimpleField type="xsd:string" name="CD_RGINT">
<displayName>CD_RGINT</displayName>
</SimpleField>
<SimpleField type="xsd:string" name="NM_RGINT">
<displayName>NM_RGINT</displayName>
</SimpleField>
<SimpleField type="xsd:string" name="CD_RGI">
<displayName>CD_RGI</displayName>
</SimpleField>
<SimpleField type="xsd:string" name="NM_RGI">
<displayName>NM_RGI</displayName>
</SimpleField>
<SimpleField type="xsd:string" name="CT_LOCALIDADE">
<displayName>CT_LOCALIDADE</displayName>
</SimpleField>
<SimpleField type="xsd:string" name="SCT_LOCALIDADE">
<displayName>SCT_LOCALIDADE</displayName>
</SimpleField>
<SimpleField type="xsd:string" name="CD_LOCALIDADE">
<displayName>CD_LOCALIDADE</displayName>
</SimpleField>
<SimpleField type="xsd:string" name="NM_LOCALIDADE">
<displayName>NM_LOCALIDADE</displayName>
</SimpleField>
</Schema>
<Schema name="01. Cidade" id="kml_schema_ft_01._Cidade">
<SimpleField type="xsd:string" name="CD_UF">
<displayName>CD_UF</displayName>
</SimpleField>
<SimpleField type="xsd:string" name="NM_UF">
<displayName>NM_UF</displayName>
</SimpleField>
<SimpleField type="xsd:string" name="SIGLA_UF">
<displayName>SIGLA_UF</displayName>
</SimpleField>
<SimpleField type="xsd:string" name="CD_MUN">
<displayName>CD_MUN</displayName>
</SimpleField>
<SimpleField type="xsd:string" name="NM_MUN">
<displayName>NM_MUN</displayName>
</SimpleField>
<SimpleField type="xsd:string" name="CD_RGINT">
<displayName>CD_RGINT</displayName>
</SimpleField>
<SimpleField type="xsd:string" name="NM_RGINT">
<displayName>NM_RGINT</displayName>
</SimpleField>
<SimpleField type="xsd:string" name="CD_RGI">
<displayName>CD_RGI</displayName>
</SimpleField>
<SimpleField type="xsd:string" name="NM_RGI">
<displayName>NM_RGI</displayName>
</SimpleField>
<SimpleField type="xsd:string" name="CT_LOCALIDADE">
<displayName>CT_LOCALIDADE</displayName>
</SimpleField>
<SimpleField type="xsd:string" name="SCT_LOCALIDADE">
<displayName>SCT_LOCALIDADE</displayName>
</SimpleField>
<SimpleField type="xsd:string" name="CD_LOCALIDADE">
<displayName>CD_LOCALIDADE</displayName>
</SimpleField>
<SimpleField type="xsd:string" name="NM_LOCALIDADE">
<displayName>NM_LOCALIDADE</displayName>
</SimpleField>
<SimpleField type="xsd:string" name="LAT_LOCALIDADE">
<displayName>LAT_LOCALIDADE</displayName>
</SimpleField>
<SimpleField type="xsd:string" name="LONG_LOCALIDADE">
<displayName>LONG_LOCALIDADE</displayName>
</SimpleField>
</Schema>
<Schema name="Município" id="kml_schema_ft_Município">
<SimpleField type="xsd:string" name="CD_UF">
<displayName>CD_UF</displayName>
</SimpleField>
<SimpleField type="xsd:string" name="NM_UF">
<displayName>NM_UF</displayName>
</SimpleField>
<SimpleField type="xsd:string" name="CD_MUN">
<displayName>CD_MUN</displayName>
</SimpleField>
<SimpleField type="xsd:string" name="NM_MUN">
<displayName>NM_MUN</displayName>
</SimpleField>
<SimpleField type="xsd:string" name="CD_RGINT">
<displayName>CD_RGINT</displayName>
</SimpleField>
<SimpleField type="xsd:string" name="NM_RGINT">
<displayName>NM_RGINT</displayName>
</SimpleField>
<SimpleField type="xsd:string" name="CD_RGI">
<displayName>CD_RGI</displayName>
</SimpleField>
<SimpleField type="xsd:string" name="NM_RGI">
<displayName>NM_RGI</displayName>
</SimpleField>
</Schema>
<Folder id="01. Cidade">
<name>01. Cidade</name>
<Folder id="01.03. Sede Municipal">
<name>01.03. Sede Municipal</name>
<Placemark id="01.03. Sede Municipal">
<name>Natuba [2509909]</name>
<visibility>1</visibility>
<snippet> </snippet>
<description>&lt;center&gt;&lt;table&gt;&lt;tr&gt;&lt;th colspan='2' align='center'&gt;&lt;em&gt;Atributos&lt;/em&gt;&lt;/th&gt;&lt;/tr&gt;&lt;tr bgcolor="#E3E3F3"&gt;
&lt;th&gt;CD_UF&lt;/th&gt;
&lt;td&gt;25&lt;/td&gt;
&lt;/tr&gt;&lt;tr bgcolor=""&gt;
&lt;th&gt;NM_UF&lt;/th&gt;
&lt;td&gt;Paraíba&lt;/td&gt;
&lt;/tr&gt;&lt;tr bgcolor="#E3E3F3"&gt;
&lt;th&gt;SIGLA_UF&lt;/th&gt;
&lt;td&gt;PB&lt;/td&gt;
&lt;/tr&gt;&lt;tr bgcolor=""&gt;
&lt;th&gt;CD_MUN&lt;/th&gt;
&lt;td&gt;2509909&lt;/td&gt;
&lt;/tr&gt;&lt;tr bgcolor="#E3E3F3"&gt;
&lt;th&gt;NM_MUN&lt;/th&gt;
&lt;td&gt;Natuba&lt;/td&gt;
&lt;/tr&gt;&lt;tr bgcolor=""&gt;
&lt;th&gt;CD_RGINT&lt;/th&gt;
&lt;td&gt;2501&lt;/td&gt;
&lt;/tr&gt;&lt;tr bgcolor="#E3E3F3"&gt;
&lt;th&gt;NM_RGINT&lt;/th&gt;
&lt;td&gt;João Pessoa&lt;/td&gt;
&lt;/tr&gt;&lt;tr bgcolor=""&gt;
&lt;th&gt;CD_RGI&lt;/th&gt;
&lt;td&gt;250004&lt;/td&gt;
&lt;/tr&gt;&lt;tr bgcolor="#E3E3F3"&gt;
&lt;th&gt;NM_RGI&lt;/th&gt;
&lt;td&gt;Itabaiana&lt;/td&gt;
&lt;/tr&gt;&lt;tr bgcolor=""&gt;
&lt;th&gt;CT_LOCALIDADE&lt;/th&gt;
&lt;td&gt;Cidade&lt;/td&gt;
&lt;/tr&gt;&lt;tr bgcolor="#E3E3F3"&gt;
&lt;th&gt;SCT_LOCALIDADE&lt;/th&gt;
&lt;td&gt;Sede Municipal&lt;/td&gt;
&lt;/tr&gt;&lt;tr bgcolor=""&gt;
&lt;th&gt;CD_LOCALIDADE&lt;/th&gt;
&lt;td&gt;2509909&lt;/td&gt;
&lt;/tr&gt;&lt;tr bgcolor="#E3E3F3"&gt;
&lt;th&gt;NM_LOCALIDADE&lt;/th&gt;
&lt;td&gt;Natuba&lt;/td&gt;
&lt;/tr&gt;&lt;tr bgcolor=""&gt;
&lt;th&gt;LAT_LOCALIDADE&lt;/th&gt;
&lt;td&gt;-7.642&lt;/td&gt;
&lt;/tr&gt;&lt;tr bgcolor="#E3E3F3"&gt;
&lt;th&gt;LONG_LOCALIDADE&lt;/th&gt;
&lt;td&gt;-35.5542&lt;/td&gt;
&lt;/tr&gt;&lt;/table&gt;&lt;/center&gt;</description>
<Style>
<IconStyle>
<color>ff00aaff</color>
<scale>1.0</scale>
<Icon>
<href>http://maps.google.com/mapfiles/kml/shapes/placemark_circle.png</href>
</Icon>
</IconStyle>
<LabelStyle>
<scale>1.0</scale>
</LabelStyle>
<LineStyle>
<color>ffffffff</color>
<width>3</width>
<gx:labelVisibility>1</gx:labelVisibility>
</LineStyle>
<PolyStyle>
<color>00ffffff</color>
</PolyStyle>
</Style>
<ExtendedData>
<SchemaData schemaUrl="#kml_schema_ft_01._Cidade">
<SimpleData name="CD_UF">25</SimpleData>
<SimpleData name="NM_UF">Paraíba</SimpleData>
<SimpleData name="SIGLA_UF">PB</SimpleData>
<SimpleData name="CD_MUN">2509909</SimpleData>
<SimpleData name="NM_MUN">Natuba</SimpleData>
<SimpleData name="CD_RGINT">2501</SimpleData>
<SimpleData name="NM_RGINT">João Pessoa</SimpleData>
<SimpleData name="CD_RGI">250004</SimpleData>
<SimpleData name="NM_RGI">Itabaiana</SimpleData>
<SimpleData name="CT_LOCALIDADE">Cidade</SimpleData>
<SimpleData name="SCT_LOCALIDADE">Sede Municipal</SimpleData>
<SimpleData name="CD_LOCALIDADE">2509909</SimpleData>
<SimpleData name="NM_LOCALIDADE">Natuba</SimpleData>
<SimpleData name="LAT_LOCALIDADE">-7.642</SimpleData>
<SimpleData name="LONG_LOCALIDADE">-35.5542</SimpleData>
</SchemaData>
</ExtendedData>
<Point>
<extrude>0</extrude>
<coordinates>-35.5542,-7.64199999975032,0.0</coordinates>
</Point>
</Placemark>
</Folder>
</Folder>
<Folder id="04. Vilas">
<name>04. Vilas</name>
<Placemark id="04. Vilas">
<name>Pirauá [250990910]</name>
<visibility>1</visibility>
<snippet> </snippet>
<description>&lt;center&gt;&lt;table&gt;&lt;tr&gt;&lt;th colspan='2' align='center'&gt;&lt;em&gt;Atributos&lt;/em&gt;&lt;/th&gt;&lt;/tr&gt;&lt;tr bgcolor="#E3E3F3"&gt;
&lt;th&gt;CD_UF&lt;/th&gt;
&lt;td&gt;25&lt;/td&gt;
&lt;/tr&gt;&lt;tr bgcolor=""&gt;
&lt;th&gt;NM_UF&lt;/th&gt;
&lt;td&gt;Paraíba&lt;/td&gt;
&lt;/tr&gt;&lt;tr bgcolor="#E3E3F3"&gt;
&lt;th&gt;SIGLA_UF&lt;/th&gt;
&lt;td&gt;PB&lt;/td&gt;
&lt;/tr&gt;&lt;tr bgcolor=""&gt;
&lt;th&gt;CD_MUN&lt;/th&gt;
&lt;td&gt;2509909&lt;/td&gt;
&lt;/tr&gt;&lt;tr bgcolor="#E3E3F3"&gt;
&lt;th&gt;NM_MUN&lt;/th&gt;
&lt;td&gt;Natuba&lt;/td&gt;
&lt;/tr&gt;&lt;tr bgcolor=""&gt;
&lt;th&gt;CD_RGINT&lt;/th&gt;
&lt;td&gt;2501&lt;/td&gt;
&lt;/tr&gt;&lt;tr bgcolor="#E3E3F3"&gt;
&lt;th&gt;NM_RGINT&lt;/th&gt;
&lt;td&gt;João Pessoa&lt;/td&gt;
&lt;/tr&gt;&lt;tr bgcolor=""&gt;
&lt;th&gt;CD_RGI&lt;/th&gt;
&lt;td&gt;250004&lt;/td&gt;
&lt;/tr&gt;&lt;tr bgcolor="#E3E3F3"&gt;
&lt;th&gt;NM_RGI&lt;/th&gt;
&lt;td&gt;Itabaiana&lt;/td&gt;
&lt;/tr&gt;&lt;tr bgcolor=""&gt;
&lt;th&gt;CT_LOCALIDADE&lt;/th&gt;
&lt;td&gt;Vila&lt;/td&gt;
&lt;/tr&gt;&lt;tr bgcolor="#E3E3F3"&gt;
&lt;th&gt;CD_LOCALIDADE&lt;/th&gt;
&lt;td&gt;250990910&lt;/td&gt;
&lt;/tr&gt;&lt;tr bgcolor=""&gt;
&lt;th&gt;NM_LOCALIDADE&lt;/th&gt;
&lt;td&gt;Pirauá&lt;/td&gt;
&lt;/tr&gt;&lt;tr bgcolor="#E3E3F3"&gt;
&lt;th&gt;LAT_LOCALIDADE&lt;/th&gt;
&lt;td&gt;-7.4971&lt;/td&gt;
&lt;/tr&gt;&lt;tr bgcolor=""&gt;
&lt;th&gt;LONG_LOCALIDADE&lt;/th&gt;
&lt;td&gt;-35.4996&lt;/td&gt;
&lt;/tr&gt;&lt;/table&gt;&lt;/center&gt;</description>
<Style>
<IconStyle>
<color>ffff5400</color>
<scale>1.0</scale>
<Icon>
<href>http://maps.google.com/mapfiles/kml/shapes/placemark_circle.png</href>
</Icon>
</IconStyle>
<LabelStyle>
<scale>0.9</scale>
</LabelStyle>
<LineStyle>
<color>72ffffff</color>
<width>1.0</width>
<gx:labelVisibility>1</gx:labelVisibility>
</LineStyle>
<PolyStyle>
<color>660054ff</color>
</PolyStyle>
</Style>
<ExtendedData>
<SchemaData schemaUrl="#kml_schema_ft_Vilas">
<SimpleData name="CD_UF">25</SimpleData>
<SimpleData name="NM_UF">Paraíba</SimpleData>
<SimpleData name="SIGLA_UF">PB</SimpleData>
<SimpleData name="CD_MUN">2509909</SimpleData>
<SimpleData name="NM_MUN">Natuba</SimpleData>
<SimpleData name="CD_RGINT">2501</SimpleData>
<SimpleData name="NM_RGINT">João Pessoa</SimpleData>
<SimpleData name="CD_RGI">250004</SimpleData>
<SimpleData name="NM_RGI">Itabaiana</SimpleData>
<SimpleData name="CT_LOCALIDADE">Vila</SimpleData>
<SimpleData name="CD_LOCALIDADE">250990910</SimpleData>
<SimpleData name="NM_LOCALIDADE">Pirauá</SimpleData>
<SimpleData name="LAT_LOCALIDADE">-7.4971</SimpleData>
<SimpleData name="LONG_LOCALIDADE">-35.4996</SimpleData>
</SchemaData>
</ExtendedData>
<Point>
<extrude>0</extrude>
<coordinates>-35.499565,-7.49712599975494,0.0</coordinates>
</Point>
</Placemark>
</Folder>
<Folder id="06. Povoados">
<name>06. Povoados</name>
<Placemark id="06. Povoados">
<name>Fervedouro [250990900002]</name>
<visibility>1</visibility>
<snippet> </snippet>
<description>&lt;center&gt;&lt;table&gt;&lt;tr&gt;&lt;th colspan='2' align='center'&gt;&lt;em&gt;Atributos&lt;/em&gt;&lt;/th&gt;&lt;/tr&gt;&lt;tr bgcolor="#E3E3F3"&gt;
&lt;th&gt;CD_UF&lt;/th&gt;
&lt;td&gt;25&lt;/td&gt;
&lt;/tr&gt;&lt;tr bgcolor=""&gt;
&lt;th&gt;NM_UF&lt;/th&gt;
&lt;td&gt;Paraíba&lt;/td&gt;
&lt;/tr&gt;&lt;tr bgcolor="#E3E3F3"&gt;
&lt;th&gt;SIGLA_UF&lt;/th&gt;
&lt;td&gt;PB&lt;/td&gt;
&lt;/tr&gt;&lt;tr bgcolor=""&gt;
&lt;th&gt;CD_MUN&lt;/th&gt;
&lt;td&gt;2509909&lt;/td&gt;
&lt;/tr&gt;&lt;tr bgcolor="#E3E3F3"&gt;
&lt;th&gt;NM_MUN&lt;/th&gt;
&lt;td&gt;Natuba&lt;/td&gt;
&lt;/tr&gt;&lt;tr bgcolor=""&gt;
&lt;th&gt;CD_RGINT&lt;/th&gt;
&lt;td&gt;2501&lt;/td&gt;
&lt;/tr&gt;&lt;tr bgcolor="#E3E3F3"&gt;
&lt;th&gt;NM_RGINT&lt;/th&gt;
&lt;td&gt;João Pessoa&lt;/td&gt;
&lt;/tr&gt;&lt;tr bgcolor=""&gt;
&lt;th&gt;CD_RGI&lt;/th&gt;
&lt;td&gt;250004&lt;/td&gt;
&lt;/tr&gt;&lt;tr bgcolor="#E3E3F3"&gt;
&lt;th&gt;NM_RGI&lt;/th&gt;
&lt;td&gt;Itabaiana&lt;/td&gt;
&lt;/tr&gt;&lt;tr bgcolor=""&gt;
&lt;th&gt;CT_LOCALIDADE&lt;/th&gt;
&lt;td&gt;Povoado&lt;/td&gt;
&lt;/tr&gt;&lt;tr bgcolor="#E3E3F3"&gt;
&lt;th&gt;CD_LOCALIDADE&lt;/th&gt;
&lt;td&gt;250990900002&lt;/td&gt;
&lt;/tr&gt;&lt;tr bgcolor=""&gt;
&lt;th&gt;NM_LOCALIDADE&lt;/th&gt;
&lt;td&gt;Fervedouro&lt;/td&gt;
&lt;/tr&gt;&lt;tr bgcolor="#E3E3F3"&gt;
&lt;th&gt;LAT_LOCALIDADE&lt;/th&gt;
&lt;td&gt;-7.6021&lt;/td&gt;
&lt;/tr&gt;&lt;tr bgcolor=""&gt;
&lt;th&gt;LONG_LOCALIDADE&lt;/th&gt;
&lt;td&gt;-35.5505&lt;/td&gt;
&lt;/tr&gt;&lt;/table&gt;&lt;/center&gt;</description>
<Style>
<IconStyle>
<color>ff00ff54</color>
<scale>0.8</scale>
<Icon>
<href>http://maps.google.com/mapfiles/kml/shapes/placemark_circle.png</href>
</Icon>
</IconStyle>
<LabelStyle>
<scale>0.8</scale>
</LabelStyle>
<LineStyle>
<color>72ff54ff</color>
<width>1.0</width>
<gx:labelVisibility>1</gx:labelVisibility>
</LineStyle>
<PolyStyle>
<color>66ff54ff</color>
</PolyStyle>
</Style>
<ExtendedData>
<SchemaData schemaUrl="#kml_schema_ft_Povoados">
<SimpleData name="CD_UF">25</SimpleData>
<SimpleData name="NM_UF">Paraíba</SimpleData>
<SimpleData name="SIGLA_UF">PB</SimpleData>
<SimpleData name="CD_MUN">2509909</SimpleData>
<SimpleData name="NM_MUN">Natuba</SimpleData>
<SimpleData name="CD_RGINT">2501</SimpleData>
<SimpleData name="NM_RGINT">João Pessoa</SimpleData>
<SimpleData name="CD_RGI">250004</SimpleData>
<SimpleData name="NM_RGI">Itabaiana</SimpleData>
<SimpleData name="CT_LOCALIDADE">Povoado</SimpleData>
<SimpleData name="CD_LOCALIDADE">250990900002</SimpleData>
<SimpleData name="NM_LOCALIDADE">Fervedouro</SimpleData>
<SimpleData name="LAT_LOCALIDADE">-7.6021</SimpleData>
<SimpleData name="LONG_LOCALIDADE">-35.5505</SimpleData>
</SchemaData>
</ExtendedData>
<Point>
<extrude>0</extrude>
<coordinates>-35.5505138759689,-7.60213889897639,0.0</coordinates>
</Point>
</Placemark>
<Placemark id="06. Povoados">
<name>Chã do Rocha [250990900003]</name>
<visibility>1</visibility>
<snippet> </snippet>
<description>&lt;center&gt;&lt;table&gt;&lt;tr&gt;&lt;th colspan='2' align='center'&gt;&lt;em&gt;Atributos&lt;/em&gt;&lt;/th&gt;&lt;/tr&gt;&lt;tr bgcolor="#E3E3F3"&gt;
&lt;th&gt;CD_UF&lt;/th&gt;
&lt;td&gt;25&lt;/td&gt;
&lt;/tr&gt;&lt;tr bgcolor=""&gt;
&lt;th&gt;NM_UF&lt;/th&gt;
&lt;td&gt;Paraíba&lt;/td&gt;
&lt;/tr&gt;&lt;tr bgcolor="#E3E3F3"&gt;
&lt;th&gt;SIGLA_UF&lt;/th&gt;
&lt;td&gt;PB&lt;/td&gt;
&lt;/tr&gt;&lt;tr bgcolor=""&gt;
&lt;th&gt;CD_MUN&lt;/th&gt;
&lt;td&gt;2509909&lt;/td&gt;
&lt;/tr&gt;&lt;tr bgcolor="#E3E3F3"&gt;
&lt;th&gt;NM_MUN&lt;/th&gt;
&lt;td&gt;Natuba&lt;/td&gt;
&lt;/tr&gt;&lt;tr bgcolor=""&gt;
&lt;th&gt;CD_RGINT&lt;/th&gt;
&lt;td&gt;2501&lt;/td&gt;
&lt;/tr&gt;&lt;tr bgcolor="#E3E3F3"&gt;
&lt;th&gt;NM_RGINT&lt;/th&gt;
&lt;td&gt;João Pessoa&lt;/td&gt;
&lt;/tr&gt;&lt;tr bgcolor=""&gt;
&lt;th&gt;CD_RGI&lt;/th&gt;
&lt;td&gt;250004&lt;/td&gt;
&lt;/tr&gt;&lt;tr bgcolor="#E3E3F3"&gt;
&lt;th&gt;NM_RGI&lt;/th&gt;
&lt;td&gt;Itabaiana&lt;/td&gt;
&lt;/tr&gt;&lt;tr bgcolor=""&gt;
&lt;th&gt;CT_LOCALIDADE&lt;/th&gt;
&lt;td&gt;Povoado&lt;/td&gt;
&lt;/tr&gt;&lt;tr bgcolor="#E3E3F3"&gt;
&lt;th&gt;CD_LOCALIDADE&lt;/th&gt;
&lt;td&gt;250990900003&lt;/td&gt;
&lt;/tr&gt;&lt;tr bgcolor=""&gt;
&lt;th&gt;NM_LOCALIDADE&lt;/th&gt;
&lt;td&gt;Chã do Rocha&lt;/td&gt;
&lt;/tr&gt;&lt;tr bgcolor="#E3E3F3"&gt;
&lt;th&gt;LAT_LOCALIDADE&lt;/th&gt;
&lt;td&gt;-7.657&lt;/td&gt;
&lt;/tr&gt;&lt;tr bgcolor=""&gt;
&lt;th&gt;LONG_LOCALIDADE&lt;/th&gt;
&lt;td&gt;-35.5662&lt;/td&gt;
&lt;/tr&gt;&lt;/table&gt;&lt;/center&gt;</description>
<Style>
<IconStyle>
<color>ff00ff54</color>
<scale>0.8</scale>
<Icon>
<href>http://maps.google.com/mapfiles/kml/shapes/placemark_circle.png</href>
</Icon>
</IconStyle>
<LabelStyle>
<scale>0.8</scale>
</LabelStyle>
<LineStyle>
<color>72ff54ff</color>
<width>1.0</width>
<gx:labelVisibility>1</gx:labelVisibility>
</LineStyle>
<PolyStyle>
<color>66ff54ff</color>
</PolyStyle>
</Style>
<ExtendedData>
<SchemaData schemaUrl="#kml_schema_ft_Povoados">
<SimpleData name="CD_UF">25</SimpleData>
<SimpleData name="NM_UF">Paraíba</SimpleData>
<SimpleData name="SIGLA_UF">PB</SimpleData>
<SimpleData name="CD_MUN">2509909</SimpleData>
<SimpleData name="NM_MUN">Natuba</SimpleData>
<SimpleData name="CD_RGINT">2501</SimpleData>
<SimpleData name="NM_RGINT">João Pessoa</SimpleData>
<SimpleData name="CD_RGI">250004</SimpleData>
<SimpleData name="NM_RGI">Itabaiana</SimpleData>
<SimpleData name="CT_LOCALIDADE">Povoado</SimpleData>
<SimpleData name="CD_LOCALIDADE">250990900003</SimpleData>
<SimpleData name="NM_LOCALIDADE">Chã do Rocha</SimpleData>
<SimpleData name="LAT_LOCALIDADE">-7.657</SimpleData>
<SimpleData name="LONG_LOCALIDADE">-35.5662</SimpleData>
</SchemaData>
</ExtendedData>
<Point>
<extrude>0</extrude>
<coordinates>-35.5661669217258,-7.65700819421154,0.0</coordinates>
</Point>
</Placemark>
<Placemark id="06. Povoados">
<name>Costa [250990900004]</name>
<visibility>1</visibility>
<snippet> </snippet>
<description>&lt;center&gt;&lt;table&gt;&lt;tr&gt;&lt;th colspan='2' align='center'&gt;&lt;em&gt;Atributos&lt;/em&gt;&lt;/th&gt;&lt;/tr&gt;&lt;tr bgcolor="#E3E3F3"&gt;
&lt;th&gt;CD_UF&lt;/th&gt;
&lt;td&gt;25&lt;/td&gt;
&lt;/tr&gt;&lt;tr bgcolor=""&gt;
&lt;th&gt;NM_UF&lt;/th&gt;
&lt;td&gt;Paraíba&lt;/td&gt;
&lt;/tr&gt;&lt;tr bgcolor="#E3E3F3"&gt;
&lt;th&gt;SIGLA_UF&lt;/th&gt;
&lt;td&gt;PB&lt;/td&gt;
&lt;/tr&gt;&lt;tr bgcolor=""&gt;
&lt;th&gt;CD_MUN&lt;/th&gt;
&lt;td&gt;2509909&lt;/td&gt;
&lt;/tr&gt;&lt;tr bgcolor="#E3E3F3"&gt;
&lt;th&gt;NM_MUN&lt;/th&gt;
&lt;td&gt;Natuba&lt;/td&gt;
&lt;/tr&gt;&lt;tr bgcolor=""&gt;
&lt;th&gt;CD_RGINT&lt;/th&gt;
&lt;td&gt;2501&lt;/td&gt;
&lt;/tr&gt;&lt;tr bgcolor="#E3E3F3"&gt;
&lt;th&gt;NM_RGINT&lt;/th&gt;
&lt;td&gt;João Pessoa&lt;/td&gt;
&lt;/tr&gt;&lt;tr bgcolor=""&gt;
&lt;th&gt;CD_RGI&lt;/th&gt;
&lt;td&gt;250004&lt;/td&gt;
&lt;/tr&gt;&lt;tr bgcolor="#E3E3F3"&gt;
&lt;th&gt;NM_RGI&lt;/th&gt;
&lt;td&gt;Itabaiana&lt;/td&gt;
&lt;/tr&gt;&lt;tr bgcolor=""&gt;
&lt;th&gt;CT_LOCALIDADE&lt;/th&gt;
&lt;td&gt;Povoado&lt;/td&gt;
&lt;/tr&gt;&lt;tr bgcolor="#E3E3F3"&gt;
&lt;th&gt;CD_LOCALIDADE&lt;/th&gt;
&lt;td&gt;250990900004&lt;/td&gt;
&lt;/tr&gt;&lt;tr bgcolor=""&gt;
&lt;th&gt;NM_LOCALIDADE&lt;/th&gt;
&lt;td&gt;Costa&lt;/td&gt;
&lt;/tr&gt;&lt;tr bgcolor="#E3E3F3"&gt;
&lt;th&gt;LAT_LOCALIDADE&lt;/th&gt;
&lt;td&gt;-7.4957&lt;/td&gt;
&lt;/tr&gt;&lt;tr bgcolor=""&gt;
&lt;th&gt;LONG_LOCALIDADE&lt;/th&gt;
&lt;td&gt;-35.5618&lt;/td&gt;
&lt;/tr&gt;&lt;/table&gt;&lt;/center&gt;</description>
<Style>
<IconStyle>
<color>ff00ff54</color>
<scale>0.8</scale>
<Icon>
<href>http://maps.google.com/mapfiles/kml/shapes/placemark_circle.png</href>
</Icon>
</IconStyle>
<LabelStyle>
<scale>0.8</scale>
</LabelStyle>
<LineStyle>
<color>72ff54ff</color>
<width>1.0</width>
<gx:labelVisibility>1</gx:labelVisibility>
</LineStyle>
<PolyStyle>
<color>66ff54ff</color>
</PolyStyle>
</Style>
<ExtendedData>
<SchemaData schemaUrl="#kml_schema_ft_Povoados">
<SimpleData name="CD_UF">25</SimpleData>
<SimpleData name="NM_UF">Paraíba</SimpleData>
<SimpleData name="SIGLA_UF">PB</SimpleData>
<SimpleData name="CD_MUN">2509909</SimpleData>
<SimpleData name="NM_MUN">Natuba</SimpleData>
<SimpleData name="CD_RGINT">2501</SimpleData>
<SimpleData name="NM_RGINT">João Pessoa</SimpleData>
<SimpleData name="CD_RGI">250004</SimpleData>
<SimpleData name="NM_RGI">Itabaiana</SimpleData>
<SimpleData name="CT_LOCALIDADE">Povoado</SimpleData>
<SimpleData name="CD_LOCALIDADE">250990900004</SimpleData>
<SimpleData name="NM_LOCALIDADE">Costa</SimpleData>
<SimpleData name="LAT_LOCALIDADE">-7.4957</SimpleData>
<SimpleData name="LONG_LOCALIDADE">-35.5618</SimpleData>
</SchemaData>
</ExtendedData>
<Point>
<extrude>0</extrude>
<coordinates>-35.5617973529411,-7.4957463968138,0.0</coordinates>
</Point>
</Placemark>
<Placemark id="06. Povoados">
<name>Chã do Vento [250990900005]</name>
<visibility>1</visibility>
<snippet> </snippet>
<description>&lt;center&gt;&lt;table&gt;&lt;tr&gt;&lt;th colspan='2' align='center'&gt;&lt;em&gt;Atributos&lt;/em&gt;&lt;/th&gt;&lt;/tr&gt;&lt;tr bgcolor="#E3E3F3"&gt;
&lt;th&gt;CD_UF&lt;/th&gt;
&lt;td&gt;25&lt;/td&gt;
&lt;/tr&gt;&lt;tr bgcolor=""&gt;
&lt;th&gt;NM_UF&lt;/th&gt;
&lt;td&gt;Paraíba&lt;/td&gt;
&lt;/tr&gt;&lt;tr bgcolor="#E3E3F3"&gt;
&lt;th&gt;SIGLA_UF&lt;/th&gt;
&lt;td&gt;PB&lt;/td&gt;
&lt;/tr&gt;&lt;tr bgcolor=""&gt;
&lt;th&gt;CD_MUN&lt;/th&gt;
&lt;td&gt;2509909&lt;/td&gt;
&lt;/tr&gt;&lt;tr bgcolor="#E3E3F3"&gt;
&lt;th&gt;NM_MUN&lt;/th&gt;
&lt;td&gt;Natuba&lt;/td&gt;
&lt;/tr&gt;&lt;tr bgcolor=""&gt;
&lt;th&gt;CD_RGINT&lt;/th&gt;
&lt;td&gt;2501&lt;/td&gt;
&lt;/tr&gt;&lt;tr bgcolor="#E3E3F3"&gt;
&lt;th&gt;NM_RGINT&lt;/th&gt;
&lt;td&gt;João Pessoa&lt;/td&gt;
&lt;/tr&gt;&lt;tr bgcolor=""&gt;
&lt;th&gt;CD_RGI&lt;/th&gt;
&lt;td&gt;250004&lt;/td&gt;
&lt;/tr&gt;&lt;tr bgcolor="#E3E3F3"&gt;
&lt;th&gt;NM_RGI&lt;/th&gt;
&lt;td&gt;Itabaiana&lt;/td&gt;
&lt;/tr&gt;&lt;tr bgcolor=""&gt;
&lt;th&gt;CT_LOCALIDADE&lt;/th&gt;
&lt;td&gt;Povoado&lt;/td&gt;
&lt;/tr&gt;&lt;tr bgcolor="#E3E3F3"&gt;
&lt;th&gt;CD_LOCALIDADE&lt;/th&gt;
&lt;td&gt;250990900005&lt;/td&gt;
&lt;/tr&gt;&lt;tr bgcolor=""&gt;
&lt;th&gt;NM_LOCALIDADE&lt;/th&gt;
&lt;td&gt;Chã do Vento&lt;/td&gt;
&lt;/tr&gt;&lt;tr bgcolor="#E3E3F3"&gt;
&lt;th&gt;LAT_LOCALIDADE&lt;/th&gt;
&lt;td&gt;-7.5649&lt;/td&gt;
&lt;/tr&gt;&lt;tr bgcolor=""&gt;
&lt;th&gt;LONG_LOCALIDADE&lt;/th&gt;
&lt;td&gt;-35.5311&lt;/td&gt;
&lt;/tr&gt;&lt;/table&gt;&lt;/center&gt;</description>
<Style>
<IconStyle>
<color>ff00ff54</color>
<scale>0.8</scale>
<Icon>
<href>http://maps.google.com/mapfiles/kml/shapes/placemark_circle.png</href>
</Icon>
</IconStyle>
<LabelStyle>
<scale>0.8</scale>
</LabelStyle>
<LineStyle>
<color>72ff54ff</color>
<width>1.0</width>
<gx:labelVisibility>1</gx:labelVisibility>
</LineStyle>
<PolyStyle>
<color>66ff54ff</color>
</PolyStyle>
</Style>
<ExtendedData>
<SchemaData schemaUrl="#kml_schema_ft_Povoados">
<SimpleData name="CD_UF">25</SimpleData>
<SimpleData name="NM_UF">Paraíba</SimpleData>
<SimpleData name="SIGLA_UF">PB</SimpleData>
<SimpleData name="CD_MUN">2509909</SimpleData>
<SimpleData name="NM_MUN">Natuba</SimpleData>
<SimpleData name="CD_RGINT">2501</SimpleData>
<SimpleData name="NM_RGINT">João Pessoa</SimpleData>
<SimpleData name="CD_RGI">250004</SimpleData>
<SimpleData name="NM_RGI">Itabaiana</SimpleData>
<SimpleData name="CT_LOCALIDADE">Povoado</SimpleData>
<SimpleData name="CD_LOCALIDADE">250990900005</SimpleData>
<SimpleData name="NM_LOCALIDADE">Chã do Vento</SimpleData>
<SimpleData name="LAT_LOCALIDADE">-7.5649</SimpleData>
<SimpleData name="LONG_LOCALIDADE">-35.5311</SimpleData>
</SchemaData>
</ExtendedData>
<Point>
<extrude>0</extrude>
<coordinates>-35.5310899444444,-7.56490549049352,0.0</coordinates>
</Point>
</Placemark>
</Folder>
<Folder id="12. Outras Localidades">
<name>12. Outras Localidades</name>
<Placemark id="12. Outras Localidades">
<name>Sítio Jussaral [250990900007]</name>
<visibility>1</visibility>
<snippet> </snippet>
<description>&lt;center&gt;&lt;table&gt;&lt;tr&gt;&lt;th colspan='2' align='center'&gt;&lt;em&gt;Attributes&lt;/em&gt;&lt;/th&gt;&lt;/tr&gt;&lt;tr bgcolor="#E3E3F3"&gt;
&lt;th&gt;CD_UF&lt;/th&gt;
&lt;td&gt;25&lt;/td&gt;
&lt;/tr&gt;&lt;tr bgcolor=""&gt;
&lt;th&gt;NM_UF&lt;/th&gt;
&lt;td&gt;Paraíba&lt;/td&gt;
&lt;/tr&gt;&lt;tr bgcolor="#E3E3F3"&gt;
&lt;th&gt;SIGLA_UF&lt;/th&gt;
&lt;td&gt;PB&lt;/td&gt;
&lt;/tr&gt;&lt;tr bgcolor=""&gt;
&lt;th&gt;CD_MUN&lt;/th&gt;
&lt;td&gt;2509909&lt;/td&gt;
&lt;/tr&gt;&lt;tr bgcolor="#E3E3F3"&gt;
&lt;th&gt;NM_MUN&lt;/th&gt;
&lt;td&gt;Natuba&lt;/td&gt;
&lt;/tr&gt;&lt;tr bgcolor=""&gt;
&lt;th&gt;CD_RGINT&lt;/th&gt;
&lt;td&gt;2501&lt;/td&gt;
&lt;/tr&gt;&lt;tr bgcolor="#E3E3F3"&gt;
&lt;th&gt;NM_RGINT&lt;/th&gt;
&lt;td&gt;João Pessoa&lt;/td&gt;
&lt;/tr&gt;&lt;tr bgcolor=""&gt;
&lt;th&gt;CD_RGI&lt;/th&gt;
&lt;td&gt;250004&lt;/td&gt;
&lt;/tr&gt;&lt;tr bgcolor="#E3E3F3"&gt;
&lt;th&gt;NM_RGI&lt;/th&gt;
&lt;td&gt;Itabaiana&lt;/td&gt;
&lt;/tr&gt;&lt;tr bgcolor=""&gt;
&lt;th&gt;CT_LOCALIDADE&lt;/th&gt;
&lt;td&gt;Outras Localidades&lt;/td&gt;
&lt;/tr&gt;&lt;tr bgcolor="#E3E3F3"&gt;
&lt;th&gt;SCT_LOCALIDADE&lt;/th&gt;
&lt;td&gt;&lt;/td&gt;
&lt;/tr&gt;&lt;tr bgcolor=""&gt;
&lt;th&gt;CD_LOCALIDADE&lt;/th&gt;
&lt;td&gt;250990900007&lt;/td&gt;
&lt;/tr&gt;&lt;tr bgcolor="#E3E3F3"&gt;
&lt;th&gt;NM_LOCALIDADE&lt;/th&gt;
&lt;td&gt;Sítio Jussaral&lt;/td&gt;
&lt;/tr&gt;&lt;/table&gt;&lt;/center&gt;</description>
<Style>
<IconStyle>
<color>ff0069d3</color>
<scale>0.6</scale>
<Icon>
<href>http://maps.google.com/mapfiles/kml/shapes/placemark_circle.png</href>
</Icon>
</IconStyle>
<LabelStyle>
<scale>0.6</scale>
</LabelStyle>
<LineStyle>
<width>1.0</width>
<gx:labelVisibility>1</gx:labelVisibility>
</LineStyle>
</Style>
<ExtendedData>
<SchemaData schemaUrl="#kml_schema_ft_Localidades">
<SimpleData name="CD_UF">25</SimpleData>
<SimpleData name="NM_UF">Paraíba</SimpleData>
<SimpleData name="SIGLA_UF">PB</SimpleData>
<SimpleData name="CD_MUN">2509909</SimpleData>
<SimpleData name="NM_MUN">Natuba</SimpleData>
<SimpleData name="CD_RGINT">2501</SimpleData>
<SimpleData name="NM_RGINT">João Pessoa</SimpleData>
<SimpleData name="CD_RGI">250004</SimpleData>
<SimpleData name="NM_RGI">Itabaiana</SimpleData>
<SimpleData name="CT_LOCALIDADE">Outras Localidades</SimpleData>
<SimpleData name="CD_LOCALIDADE">250990900007</SimpleData>
<SimpleData name="NM_LOCALIDADE">Sítio Jussaral</SimpleData>
</SchemaData>
</ExtendedData>
<Point>
<extrude>0</extrude>
<coordinates>-35.5479822,-7.6235499997509,0.0</coordinates>
</Point>
</Placemark>
<Placemark id="12. Outras Localidades">
<name>Cacimba Cercada [250990900008]</name>
<visibility>1</visibility>
<snippet> </snippet>
<description>&lt;center&gt;&lt;table&gt;&lt;tr&gt;&lt;th colspan='2' align='center'&gt;&lt;em&gt;Attributes&lt;/em&gt;&lt;/th&gt;&lt;/tr&gt;&lt;tr bgcolor="#E3E3F3"&gt;
&lt;th&gt;CD_UF&lt;/th&gt;
&lt;td&gt;25&lt;/td&gt;
&lt;/tr&gt;&lt;tr bgcolor=""&gt;
&lt;th&gt;NM_UF&lt;/th&gt;
&lt;td&gt;Paraíba&lt;/td&gt;
&lt;/tr&gt;&lt;tr bgcolor="#E3E3F3"&gt;
&lt;th&gt;SIGLA_UF&lt;/th&gt;
&lt;td&gt;PB&lt;/td&gt;
&lt;/tr&gt;&lt;tr bgcolor=""&gt;
&lt;th&gt;CD_MUN&lt;/th&gt;
&lt;td&gt;2509909&lt;/td&gt;
&lt;/tr&gt;&lt;tr bgcolor="#E3E3F3"&gt;
&lt;th&gt;NM_MUN&lt;/th&gt;
&lt;td&gt;Natuba&lt;/td&gt;
&lt;/tr&gt;&lt;tr bgcolor=""&gt;
&lt;th&gt;CD_RGINT&lt;/th&gt;
&lt;td&gt;2501&lt;/td&gt;
&lt;/tr&gt;&lt;tr bgcolor="#E3E3F3"&gt;
&lt;th&gt;NM_RGINT&lt;/th&gt;
&lt;td&gt;João Pessoa&lt;/td&gt;
&lt;/tr&gt;&lt;tr bgcolor=""&gt;
&lt;th&gt;CD_RGI&lt;/th&gt;
&lt;td&gt;250004&lt;/td&gt;
&lt;/tr&gt;&lt;tr bgcolor="#E3E3F3"&gt;
&lt;th&gt;NM_RGI&lt;/th&gt;
&lt;td&gt;Itabaiana&lt;/td&gt;
&lt;/tr&gt;&lt;tr bgcolor=""&gt;
&lt;th&gt;CT_LOCALIDADE&lt;/th&gt;
&lt;td&gt;Outras Localidades&lt;/td&gt;
&lt;/tr&gt;&lt;tr bgcolor="#E3E3F3"&gt;
&lt;th&gt;SCT_LOCALIDADE&lt;/th&gt;
&lt;td&gt;&lt;/td&gt;
&lt;/tr&gt;&lt;tr bgcolor=""&gt;
&lt;th&gt;CD_LOCALIDADE&lt;/th&gt;
&lt;td&gt;250990900008&lt;/td&gt;
&lt;/tr&gt;&lt;tr bgcolor="#E3E3F3"&gt;
&lt;th&gt;NM_LOCALIDADE&lt;/th&gt;
&lt;td&gt;Cacimba Cercada&lt;/td&gt;
&lt;/tr&gt;&lt;/table&gt;&lt;/center&gt;</description>
<Style>
<IconStyle>
<color>ff0069d3</color>
<scale>0.6</scale>
<Icon>
<href>http://maps.google.com/mapfiles/kml/shapes/placemark_circle.png</href>
</Icon>
</IconStyle>
<LabelStyle>
<scale>0.6</scale>
</LabelStyle>
<LineStyle>
<width>1.0</width>
<gx:labelVisibility>1</gx:labelVisibility>
</LineStyle>
</Style>
<ExtendedData>
<SchemaData schemaUrl="#kml_schema_ft_Localidades">
<SimpleData name="CD_UF">25</SimpleData>
<SimpleData name="NM_UF">Paraíba</SimpleData>
<SimpleData name="SIGLA_UF">PB</SimpleData>
<SimpleData name="CD_MUN">2509909</SimpleData>
<SimpleData name="NM_MUN">Natuba</SimpleData>
<SimpleData name="CD_RGINT">2501</SimpleData>
<SimpleData name="NM_RGINT">João Pessoa</SimpleData>
<SimpleData name="CD_RGI">250004</SimpleData>
<SimpleData name="NM_RGI">Itabaiana</SimpleData>
<SimpleData name="CT_LOCALIDADE">Outras Localidades</SimpleData>
<SimpleData name="CD_LOCALIDADE">250990900008</SimpleData>
<SimpleData name="NM_LOCALIDADE">Cacimba Cercada</SimpleData>
</SchemaData>
</ExtendedData>
<Point>
<extrude>0</extrude>
<coordinates>-35.5305063,-7.56865319975266,0.0</coordinates>
</Point>
</Placemark>
<Placemark id="12. Outras Localidades">
<name>Sítio Quatí [250990900009]</name>
<visibility>1</visibility>
<snippet> </snippet>
<description>&lt;center&gt;&lt;table&gt;&lt;tr&gt;&lt;th colspan='2' align='center'&gt;&lt;em&gt;Attributes&lt;/em&gt;&lt;/th&gt;&lt;/tr&gt;&lt;tr bgcolor="#E3E3F3"&gt;
&lt;th&gt;CD_UF&lt;/th&gt;
&lt;td&gt;25&lt;/td&gt;
&lt;/tr&gt;&lt;tr bgcolor=""&gt;
&lt;th&gt;NM_UF&lt;/th&gt;
&lt;td&gt;Paraíba&lt;/td&gt;
&lt;/tr&gt;&lt;tr bgcolor="#E3E3F3"&gt;
&lt;th&gt;SIGLA_UF&lt;/th&gt;
&lt;td&gt;PB&lt;/td&gt;
&lt;/tr&gt;&lt;tr bgcolor=""&gt;
&lt;th&gt;CD_MUN&lt;/th&gt;
&lt;td&gt;2509909&lt;/td&gt;
&lt;/tr&gt;&lt;tr bgcolor="#E3E3F3"&gt;
&lt;th&gt;NM_MUN&lt;/th&gt;
&lt;td&gt;Natuba&lt;/td&gt;
&lt;/tr&gt;&lt;tr bgcolor=""&gt;
&lt;th&gt;CD_RGINT&lt;/th&gt;
&lt;td&gt;2501&lt;/td&gt;
&lt;/tr&gt;&lt;tr bgcolor="#E3E3F3"&gt;
&lt;th&gt;NM_RGINT&lt;/th&gt;
&lt;td&gt;João Pessoa&lt;/td&gt;
&lt;/tr&gt;&lt;tr bgcolor=""&gt;
&lt;th&gt;CD_RGI&lt;/th&gt;
&lt;td&gt;250004&lt;/td&gt;
&lt;/tr&gt;&lt;tr bgcolor="#E3E3F3"&gt;
&lt;th&gt;NM_RGI&lt;/th&gt;
&lt;td&gt;Itabaiana&lt;/td&gt;
&lt;/tr&gt;&lt;tr bgcolor=""&gt;
&lt;th&gt;CT_LOCALIDADE&lt;/th&gt;
&lt;td&gt;Outras Localidades&lt;/td&gt;
&lt;/tr&gt;&lt;tr bgcolor="#E3E3F3"&gt;
&lt;th&gt;SCT_LOCALIDADE&lt;/th&gt;
&lt;td&gt;&lt;/td&gt;
&lt;/tr&gt;&lt;tr bgcolor=""&gt;
&lt;th&gt;CD_LOCALIDADE&lt;/th&gt;
&lt;td&gt;250990900009&lt;/td&gt;
&lt;/tr&gt;&lt;tr bgcolor="#E3E3F3"&gt;
&lt;th&gt;NM_LOCALIDADE&lt;/th&gt;
&lt;td&gt;Sítio Quatí&lt;/td&gt;
&lt;/tr&gt;&lt;/table&gt;&lt;/center&gt;</description>
<Style>
<IconStyle>
<color>ff0069d3</color>
<scale>0.6</scale>
<Icon>
<href>http://maps.google.com/mapfiles/kml/shapes/placemark_circle.png</href>
</Icon>
</IconStyle>
<LabelStyle>
<scale>0.6</scale>
</LabelStyle>
<LineStyle>
<width>1.0</width>
<gx:labelVisibility>1</gx:labelVisibility>
</LineStyle>
</Style>
<ExtendedData>
<SchemaData schemaUrl="#kml_schema_ft_Localidades">
<SimpleData name="CD_UF">25</SimpleData>
<SimpleData name="NM_UF">Paraíba</SimpleData>
<SimpleData name="SIGLA_UF">PB</SimpleData>
<SimpleData name="CD_MUN">2509909</SimpleData>
<SimpleData name="NM_MUN">Natuba</SimpleData>
<SimpleData name="CD_RGINT">2501</SimpleData>
<SimpleData name="NM_RGINT">João Pessoa</SimpleData>
<SimpleData name="CD_RGI">250004</SimpleData>
<SimpleData name="NM_RGI">Itabaiana</SimpleData>
<SimpleData name="CT_LOCALIDADE">Outras Localidades</SimpleData>
<SimpleData name="CD_LOCALIDADE">250990900009</SimpleData>
<SimpleData name="NM_LOCALIDADE">Sítio Quatí</SimpleData>
</SchemaData>
</ExtendedData>
<Point>
<extrude>0</extrude>
<coordinates>-35.519945,-7.59000359975198,0.0</coordinates>
</Point>
</Placemark>
<Placemark id="12. Outras Localidades">
<name>Aguapaba [250990900010]</name>
<visibility>1</visibility>
<snippet> </snippet>
<description>&lt;center&gt;&lt;table&gt;&lt;tr&gt;&lt;th colspan='2' align='center'&gt;&lt;em&gt;Attributes&lt;/em&gt;&lt;/th&gt;&lt;/tr&gt;&lt;tr bgcolor="#E3E3F3"&gt;
&lt;th&gt;CD_UF&lt;/th&gt;
&lt;td&gt;25&lt;/td&gt;
&lt;/tr&gt;&lt;tr bgcolor=""&gt;
&lt;th&gt;NM_UF&lt;/th&gt;
&lt;td&gt;Paraíba&lt;/td&gt;
&lt;/tr&gt;&lt;tr bgcolor="#E3E3F3"&gt;
&lt;th&gt;SIGLA_UF&lt;/th&gt;
&lt;td&gt;PB&lt;/td&gt;
&lt;/tr&gt;&lt;tr bgcolor=""&gt;
&lt;th&gt;CD_MUN&lt;/th&gt;
&lt;td&gt;2509909&lt;/td&gt;
&lt;/tr&gt;&lt;tr bgcolor="#E3E3F3"&gt;
&lt;th&gt;NM_MUN&lt;/th&gt;
&lt;td&gt;Natuba&lt;/td&gt;
&lt;/tr&gt;&lt;tr bgcolor=""&gt;
&lt;th&gt;CD_RGINT&lt;/th&gt;
&lt;td&gt;2501&lt;/td&gt;
&lt;/tr&gt;&lt;tr bgcolor="#E3E3F3"&gt;
&lt;th&gt;NM_RGINT&lt;/th&gt;
&lt;td&gt;João Pessoa&lt;/td&gt;
&lt;/tr&gt;&lt;tr bgcolor=""&gt;
&lt;th&gt;CD_RGI&lt;/th&gt;
&lt;td&gt;250004&lt;/td&gt;
&lt;/tr&gt;&lt;tr bgcolor="#E3E3F3"&gt;
&lt;th&gt;NM_RGI&lt;/th&gt;
&lt;td&gt;Itabaiana&lt;/td&gt;
&lt;/tr&gt;&lt;tr bgcolor=""&gt;
&lt;th&gt;CT_LOCALIDADE&lt;/th&gt;
&lt;td&gt;Outras Localidades&lt;/td&gt;
&lt;/tr&gt;&lt;tr bgcolor="#E3E3F3"&gt;
&lt;th&gt;SCT_LOCALIDADE&lt;/th&gt;
&lt;td&gt;&lt;/td&gt;
&lt;/tr&gt;&lt;tr bgcolor=""&gt;
&lt;th&gt;CD_LOCALIDADE&lt;/th&gt;
&lt;td&gt;250990900010&lt;/td&gt;
&lt;/tr&gt;&lt;tr bgcolor="#E3E3F3"&gt;
&lt;th&gt;NM_LOCALIDADE&lt;/th&gt;
&lt;td&gt;Aguapaba&lt;/td&gt;
&lt;/tr&gt;&lt;/table&gt;&lt;/center&gt;</description>
<Style>
<IconStyle>
<color>ff0069d3</color>
<scale>0.6</scale>
<Icon>
<href>http://maps.google.com/mapfiles/kml/shapes/placemark_circle.png</href>
</Icon>
</IconStyle>
<LabelStyle>
<scale>0.6</scale>
</LabelStyle>
<LineStyle>
<width>1.0</width>
<gx:labelVisibility>1</gx:labelVisibility>
</LineStyle>
</Style>
<ExtendedData>
<SchemaData schemaUrl="#kml_schema_ft_Localidades">
<SimpleData name="CD_UF">25</SimpleData>
<SimpleData name="NM_UF">Paraíba</SimpleData>
<SimpleData name="SIGLA_UF">PB</SimpleData>
<SimpleData name="CD_MUN">2509909</SimpleData>
<SimpleData name="NM_MUN">Natuba</SimpleData>
<SimpleData name="CD_RGINT">2501</SimpleData>
<SimpleData name="NM_RGINT">João Pessoa</SimpleData>
<SimpleData name="CD_RGI">250004</SimpleData>
<SimpleData name="NM_RGI">Itabaiana</SimpleData>
<SimpleData name="CT_LOCALIDADE">Outras Localidades</SimpleData>
<SimpleData name="CD_LOCALIDADE">250990900010</SimpleData>
<SimpleData name="NM_LOCALIDADE">Aguapaba</SimpleData>
</SchemaData>
</ExtendedData>
<Point>
<extrude>0</extrude>
<coordinates>-35.5829688,-7.60139909975161,0.0</coordinates>
</Point>
</Placemark>
<Placemark id="12. Outras Localidades">
<name>Sítio Malheiros [250990900011]</name>
<visibility>1</visibility>
<snippet> </snippet>
<description>&lt;center&gt;&lt;table&gt;&lt;tr&gt;&lt;th colspan='2' align='center'&gt;&lt;em&gt;Attributes&lt;/em&gt;&lt;/th&gt;&lt;/tr&gt;&lt;tr bgcolor="#E3E3F3"&gt;
&lt;th&gt;CD_UF&lt;/th&gt;
&lt;td&gt;25&lt;/td&gt;
&lt;/tr&gt;&lt;tr bgcolor=""&gt;
&lt;th&gt;NM_UF&lt;/th&gt;
&lt;td&gt;Paraíba&lt;/td&gt;
&lt;/tr&gt;&lt;tr bgcolor="#E3E3F3"&gt;
&lt;th&gt;SIGLA_UF&lt;/th&gt;
&lt;td&gt;PB&lt;/td&gt;
&lt;/tr&gt;&lt;tr bgcolor=""&gt;
&lt;th&gt;CD_MUN&lt;/th&gt;
&lt;td&gt;2509909&lt;/td&gt;
&lt;/tr&gt;&lt;tr bgcolor="#E3E3F3"&gt;
&lt;th&gt;NM_MUN&lt;/th&gt;
&lt;td&gt;Natuba&lt;/td&gt;
&lt;/tr&gt;&lt;tr bgcolor=""&gt;
&lt;th&gt;CD_RGINT&lt;/th&gt;
&lt;td&gt;2501&lt;/td&gt;
&lt;/tr&gt;&lt;tr bgcolor="#E3E3F3"&gt;
&lt;th&gt;NM_RGINT&lt;/th&gt;
&lt;td&gt;João Pessoa&lt;/td&gt;
&lt;/tr&gt;&lt;tr bgcolor=""&gt;
&lt;th&gt;CD_RGI&lt;/th&gt;
&lt;td&gt;250004&lt;/td&gt;
&lt;/tr&gt;&lt;tr bgcolor="#E3E3F3"&gt;
&lt;th&gt;NM_RGI&lt;/th&gt;
&lt;td&gt;Itabaiana&lt;/td&gt;
&lt;/tr&gt;&lt;tr bgcolor=""&gt;
&lt;th&gt;CT_LOCALIDADE&lt;/th&gt;
&lt;td&gt;Outras Localidades&lt;/td&gt;
&lt;/tr&gt;&lt;tr bgcolor="#E3E3F3"&gt;
&lt;th&gt;SCT_LOCALIDADE&lt;/th&gt;
&lt;td&gt;&lt;/td&gt;
&lt;/tr&gt;&lt;tr bgcolor=""&gt;
&lt;th&gt;CD_LOCALIDADE&lt;/th&gt;
&lt;td&gt;250990900011&lt;/td&gt;
&lt;/tr&gt;&lt;tr bgcolor="#E3E3F3"&gt;
&lt;th&gt;NM_LOCALIDADE&lt;/th&gt;
&lt;td&gt;Sítio Malheiros&lt;/td&gt;
&lt;/tr&gt;&lt;/table&gt;&lt;/center&gt;</description>
<Style>
<IconStyle>
<color>ff0069d3</color>
<scale>0.6</scale>
<Icon>
<href>http://maps.google.com/mapfiles/kml/shapes/placemark_circle.png</href>
</Icon>
</IconStyle>
<LabelStyle>
<scale>0.6</scale>
</LabelStyle>
<LineStyle>
<width>1.0</width>
<gx:labelVisibility>1</gx:labelVisibility>
</LineStyle>
</Style>
<ExtendedData>
<SchemaData schemaUrl="#kml_schema_ft_Localidades">
<SimpleData name="CD_UF">25</SimpleData>
<SimpleData name="NM_UF">Paraíba</SimpleData>
<SimpleData name="SIGLA_UF">PB</SimpleData>
<SimpleData name="CD_MUN">2509909</SimpleData>
<SimpleData name="NM_MUN">Natuba</SimpleData>
<SimpleData name="CD_RGINT">2501</SimpleData>
<SimpleData name="NM_RGINT">João Pessoa</SimpleData>
<SimpleData name="CD_RGI">250004</SimpleData>
<SimpleData name="NM_RGI">Itabaiana</SimpleData>
<SimpleData name="CT_LOCALIDADE">Outras Localidades</SimpleData>
<SimpleData name="CD_LOCALIDADE">250990900011</SimpleData>
<SimpleData name="NM_LOCALIDADE">Sítio Malheiros</SimpleData>
</SchemaData>
</ExtendedData>
<Point>
<extrude>0</extrude>
<coordinates>-35.5183591,-7.49983699975485,0.0</coordinates>
</Point>
</Placemark>
<Placemark id="12. Outras Localidades">
<name>Alto Miro [250990900012]</name>
<visibility>1</visibility>
<snippet> </snippet>
<description>&lt;center&gt;&lt;table&gt;&lt;tr&gt;&lt;th colspan='2' align='center'&gt;&lt;em&gt;Attributes&lt;/em&gt;&lt;/th&gt;&lt;/tr&gt;&lt;tr bgcolor="#E3E3F3"&gt;
&lt;th&gt;CD_UF&lt;/th&gt;
&lt;td&gt;25&lt;/td&gt;
&lt;/tr&gt;&lt;tr bgcolor=""&gt;
&lt;th&gt;NM_UF&lt;/th&gt;
&lt;td&gt;Paraíba&lt;/td&gt;
&lt;/tr&gt;&lt;tr bgcolor="#E3E3F3"&gt;
&lt;th&gt;SIGLA_UF&lt;/th&gt;
&lt;td&gt;PB&lt;/td&gt;
&lt;/tr&gt;&lt;tr bgcolor=""&gt;
&lt;th&gt;CD_MUN&lt;/th&gt;
&lt;td&gt;2509909&lt;/td&gt;
&lt;/tr&gt;&lt;tr bgcolor="#E3E3F3"&gt;
&lt;th&gt;NM_MUN&lt;/th&gt;
&lt;td&gt;Natuba&lt;/td&gt;
&lt;/tr&gt;&lt;tr bgcolor=""&gt;
&lt;th&gt;CD_RGINT&lt;/th&gt;
&lt;td&gt;2501&lt;/td&gt;
&lt;/tr&gt;&lt;tr bgcolor="#E3E3F3"&gt;
&lt;th&gt;NM_RGINT&lt;/th&gt;
&lt;td&gt;João Pessoa&lt;/td&gt;
&lt;/tr&gt;&lt;tr bgcolor=""&gt;
&lt;th&gt;CD_RGI&lt;/th&gt;
&lt;td&gt;250004&lt;/td&gt;
&lt;/tr&gt;&lt;tr bgcolor="#E3E3F3"&gt;
&lt;th&gt;NM_RGI&lt;/th&gt;
&lt;td&gt;Itabaiana&lt;/td&gt;
&lt;/tr&gt;&lt;tr bgcolor=""&gt;
&lt;th&gt;CT_LOCALIDADE&lt;/th&gt;
&lt;td&gt;Outras Localidades&lt;/td&gt;
&lt;/tr&gt;&lt;tr bgcolor="#E3E3F3"&gt;
&lt;th&gt;SCT_LOCALIDADE&lt;/th&gt;
&lt;td&gt;&lt;/td&gt;
&lt;/tr&gt;&lt;tr bgcolor=""&gt;
&lt;th&gt;CD_LOCALIDADE&lt;/th&gt;
&lt;td&gt;250990900012&lt;/td&gt;
&lt;/tr&gt;&lt;tr bgcolor="#E3E3F3"&gt;
&lt;th&gt;NM_LOCALIDADE&lt;/th&gt;
&lt;td&gt;Alto Miro&lt;/td&gt;
&lt;/tr&gt;&lt;/table&gt;&lt;/center&gt;</description>
<Style>
<IconStyle>
<color>ff0069d3</color>
<scale>0.6</scale>
<Icon>
<href>http://maps.google.com/mapfiles/kml/shapes/placemark_circle.png</href>
</Icon>
</IconStyle>
<LabelStyle>
<scale>0.6</scale>
</LabelStyle>
<LineStyle>
<width>1.0</width>
<gx:labelVisibility>1</gx:labelVisibility>
</LineStyle>
</Style>
<ExtendedData>
<SchemaData schemaUrl="#kml_schema_ft_Localidades">
<SimpleData name="CD_UF">25</SimpleData>
<SimpleData name="NM_UF">Paraíba</SimpleData>
<SimpleData name="SIGLA_UF">PB</SimpleData>
<SimpleData name="CD_MUN">2509909</SimpleData>
<SimpleData name="NM_MUN">Natuba</SimpleData>
<SimpleData name="CD_RGINT">2501</SimpleData>
<SimpleData name="NM_RGINT">João Pessoa</SimpleData>
<SimpleData name="CD_RGI">250004</SimpleData>
<SimpleData name="NM_RGI">Itabaiana</SimpleData>
<SimpleData name="CT_LOCALIDADE">Outras Localidades</SimpleData>
<SimpleData name="CD_LOCALIDADE">250990900012</SimpleData>
<SimpleData name="NM_LOCALIDADE">Alto Miro</SimpleData>
</SchemaData>
</ExtendedData>
<Point>
<extrude>0</extrude>
<coordinates>-35.5114567,-7.526516299754,0.0</coordinates>
</Point>
</Placemark>
<Placemark id="12. Outras Localidades">
<name>Sítio Jararaca [250990900013]</name>
<visibility>1</visibility>
<snippet> </snippet>
<description>&lt;center&gt;&lt;table&gt;&lt;tr&gt;&lt;th colspan='2' align='center'&gt;&lt;em&gt;Attributes&lt;/em&gt;&lt;/th&gt;&lt;/tr&gt;&lt;tr bgcolor="#E3E3F3"&gt;
&lt;th&gt;CD_UF&lt;/th&gt;
&lt;td&gt;25&lt;/td&gt;
&lt;/tr&gt;&lt;tr bgcolor=""&gt;
&lt;th&gt;NM_UF&lt;/th&gt;
&lt;td&gt;Paraíba&lt;/td&gt;
&lt;/tr&gt;&lt;tr bgcolor="#E3E3F3"&gt;
&lt;th&gt;SIGLA_UF&lt;/th&gt;
&lt;td&gt;PB&lt;/td&gt;
&lt;/tr&gt;&lt;tr bgcolor=""&gt;
&lt;th&gt;CD_MUN&lt;/th&gt;
&lt;td&gt;2509909&lt;/td&gt;
&lt;/tr&gt;&lt;tr bgcolor="#E3E3F3"&gt;
&lt;th&gt;NM_MUN&lt;/th&gt;
&lt;td&gt;Natuba&lt;/td&gt;
&lt;/tr&gt;&lt;tr bgcolor=""&gt;
&lt;th&gt;CD_RGINT&lt;/th&gt;
&lt;td&gt;2501&lt;/td&gt;
&lt;/tr&gt;&lt;tr bgcolor="#E3E3F3"&gt;
&lt;th&gt;NM_RGINT&lt;/th&gt;
&lt;td&gt;João Pessoa&lt;/td&gt;
&lt;/tr&gt;&lt;tr bgcolor=""&gt;
&lt;th&gt;CD_RGI&lt;/th&gt;
&lt;td&gt;250004&lt;/td&gt;
&lt;/tr&gt;&lt;tr bgcolor="#E3E3F3"&gt;
&lt;th&gt;NM_RGI&lt;/th&gt;
&lt;td&gt;Itabaiana&lt;/td&gt;
&lt;/tr&gt;&lt;tr bgcolor=""&gt;
&lt;th&gt;CT_LOCALIDADE&lt;/th&gt;
&lt;td&gt;Outras Localidades&lt;/td&gt;
&lt;/tr&gt;&lt;tr bgcolor="#E3E3F3"&gt;
&lt;th&gt;SCT_LOCALIDADE&lt;/th&gt;
&lt;td&gt;&lt;/td&gt;
&lt;/tr&gt;&lt;tr bgcolor=""&gt;
&lt;th&gt;CD_LOCALIDADE&lt;/th&gt;
&lt;td&gt;250990900013&lt;/td&gt;
&lt;/tr&gt;&lt;tr bgcolor="#E3E3F3"&gt;
&lt;th&gt;NM_LOCALIDADE&lt;/th&gt;
&lt;td&gt;Sítio Jararaca&lt;/td&gt;
&lt;/tr&gt;&lt;/table&gt;&lt;/center&gt;</description>
<Style>
<IconStyle>
<color>ff0069d3</color>
<scale>0.6</scale>
<Icon>
<href>http://maps.google.com/mapfiles/kml/shapes/placemark_circle.png</href>
</Icon>
</IconStyle>
<LabelStyle>
<scale>0.6</scale>
</LabelStyle>
<LineStyle>
<width>1.0</width>
<gx:labelVisibility>1</gx:labelVisibility>
</LineStyle>
</Style>
<ExtendedData>
<SchemaData schemaUrl="#kml_schema_ft_Localidades">
<SimpleData name="CD_UF">25</SimpleData>
<SimpleData name="NM_UF">Paraíba</SimpleData>
<SimpleData name="SIGLA_UF">PB</SimpleData>
<SimpleData name="CD_MUN">2509909</SimpleData>
<SimpleData name="NM_MUN">Natuba</SimpleData>
<SimpleData name="CD_RGINT">2501</SimpleData>
<SimpleData name="NM_RGINT">João Pessoa</SimpleData>
<SimpleData name="CD_RGI">250004</SimpleData>
<SimpleData name="NM_RGI">Itabaiana</SimpleData>
<SimpleData name="CT_LOCALIDADE">Outras Localidades</SimpleData>
<SimpleData name="CD_LOCALIDADE">250990900013</SimpleData>
<SimpleData name="NM_LOCALIDADE">Sítio Jararaca</SimpleData>
</SchemaData>
</ExtendedData>
<Point>
<extrude>0</extrude>
<coordinates>-35.523916,-7.55626679975305,0.0</coordinates>
</Point>
</Placemark>
<Placemark id="12. Outras Localidades">
<name>Brejinho [250990900014]</name>
<visibility>1</visibility>
<snippet> </snippet>
<description>&lt;center&gt;&lt;table&gt;&lt;tr&gt;&lt;th colspan='2' align='center'&gt;&lt;em&gt;Attributes&lt;/em&gt;&lt;/th&gt;&lt;/tr&gt;&lt;tr bgcolor="#E3E3F3"&gt;
&lt;th&gt;CD_UF&lt;/th&gt;
&lt;td&gt;25&lt;/td&gt;
&lt;/tr&gt;&lt;tr bgcolor=""&gt;
&lt;th&gt;NM_UF&lt;/th&gt;
&lt;td&gt;Paraíba&lt;/td&gt;
&lt;/tr&gt;&lt;tr bgcolor="#E3E3F3"&gt;
&lt;th&gt;SIGLA_UF&lt;/th&gt;
&lt;td&gt;PB&lt;/td&gt;
&lt;/tr&gt;&lt;tr bgcolor=""&gt;
&lt;th&gt;CD_MUN&lt;/th&gt;
&lt;td&gt;2509909&lt;/td&gt;
&lt;/tr&gt;&lt;tr bgcolor="#E3E3F3"&gt;
&lt;th&gt;NM_MUN&lt;/th&gt;
&lt;td&gt;Natuba&lt;/td&gt;
&lt;/tr&gt;&lt;tr bgcolor=""&gt;
&lt;th&gt;CD_RGINT&lt;/th&gt;
&lt;td&gt;2501&lt;/td&gt;
&lt;/tr&gt;&lt;tr bgcolor="#E3E3F3"&gt;
&lt;th&gt;NM_RGINT&lt;/th&gt;
&lt;td&gt;João Pessoa&lt;/td&gt;
&lt;/tr&gt;&lt;tr bgcolor=""&gt;
&lt;th&gt;CD_RGI&lt;/th&gt;
&lt;td&gt;250004&lt;/td&gt;
&lt;/tr&gt;&lt;tr bgcolor="#E3E3F3"&gt;
&lt;th&gt;NM_RGI&lt;/th&gt;
&lt;td&gt;Itabaiana&lt;/td&gt;
&lt;/tr&gt;&lt;tr bgcolor=""&gt;
&lt;th&gt;CT_LOCALIDADE&lt;/th&gt;
&lt;td&gt;Outras Localidades&lt;/td&gt;
&lt;/tr&gt;&lt;tr bgcolor="#E3E3F3"&gt;
&lt;th&gt;SCT_LOCALIDADE&lt;/th&gt;
&lt;td&gt;&lt;/td&gt;
&lt;/tr&gt;&lt;tr bgcolor=""&gt;
&lt;th&gt;CD_LOCALIDADE&lt;/th&gt;
&lt;td&gt;250990900014&lt;/td&gt;
&lt;/tr&gt;&lt;tr bgcolor="#E3E3F3"&gt;
&lt;th&gt;NM_LOCALIDADE&lt;/th&gt;
&lt;td&gt;Brejinho&lt;/td&gt;
&lt;/tr&gt;&lt;/table&gt;&lt;/center&gt;</description>
<Style>
<IconStyle>
<color>ff0069d3</color>
<scale>0.6</scale>
<Icon>
<href>http://maps.google.com/mapfiles/kml/shapes/placemark_circle.png</href>
</Icon>
</IconStyle>
<LabelStyle>
<scale>0.6</scale>
</LabelStyle>
<LineStyle>
<width>1.0</width>
<gx:labelVisibility>1</gx:labelVisibility>
</LineStyle>
</Style>
<ExtendedData>
<SchemaData schemaUrl="#kml_schema_ft_Localidades">
<SimpleData name="CD_UF">25</SimpleData>
<SimpleData name="NM_UF">Paraíba</SimpleData>
<SimpleData name="SIGLA_UF">PB</SimpleData>
<SimpleData name="CD_MUN">2509909</SimpleData>
<SimpleData name="NM_MUN">Natuba</SimpleData>
<SimpleData name="CD_RGINT">2501</SimpleData>
<SimpleData name="NM_RGINT">João Pessoa</SimpleData>
<SimpleData name="CD_RGI">250004</SimpleData>
<SimpleData name="NM_RGI">Itabaiana</SimpleData>
<SimpleData name="CT_LOCALIDADE">Outras Localidades</SimpleData>
<SimpleData name="CD_LOCALIDADE">250990900014</SimpleData>
<SimpleData name="NM_LOCALIDADE">Brejinho</SimpleData>
</SchemaData>
</ExtendedData>
<Point>
<extrude>0</extrude>
<coordinates>-35.5445021,-7.59670189975176,0.0</coordinates>
</Point>
</Placemark>
<Placemark id="12. Outras Localidades">
<name>Riacho de Natuba 1 [250990900015]</name>
<visibility>1</visibility>
<snippet> </snippet>
<description>&lt;center&gt;&lt;table&gt;&lt;tr&gt;&lt;th colspan='2' align='center'&gt;&lt;em&gt;Attributes&lt;/em&gt;&lt;/th&gt;&lt;/tr&gt;&lt;tr bgcolor="#E3E3F3"&gt;
&lt;th&gt;CD_UF&lt;/th&gt;
&lt;td&gt;25&lt;/td&gt;
&lt;/tr&gt;&lt;tr bgcolor=""&gt;
&lt;th&gt;NM_UF&lt;/th&gt;
&lt;td&gt;Paraíba&lt;/td&gt;
&lt;/tr&gt;&lt;tr bgcolor="#E3E3F3"&gt;
&lt;th&gt;SIGLA_UF&lt;/th&gt;
&lt;td&gt;PB&lt;/td&gt;
&lt;/tr&gt;&lt;tr bgcolor=""&gt;
&lt;th&gt;CD_MUN&lt;/th&gt;
&lt;td&gt;2509909&lt;/td&gt;
&lt;/tr&gt;&lt;tr bgcolor="#E3E3F3"&gt;
&lt;th&gt;NM_MUN&lt;/th&gt;
&lt;td&gt;Natuba&lt;/td&gt;
&lt;/tr&gt;&lt;tr bgcolor=""&gt;
&lt;th&gt;CD_RGINT&lt;/th&gt;
&lt;td&gt;2501&lt;/td&gt;
&lt;/tr&gt;&lt;tr bgcolor="#E3E3F3"&gt;
&lt;th&gt;NM_RGINT&lt;/th&gt;
&lt;td&gt;João Pessoa&lt;/td&gt;
&lt;/tr&gt;&lt;tr bgcolor=""&gt;
&lt;th&gt;CD_RGI&lt;/th&gt;
&lt;td&gt;250004&lt;/td&gt;
&lt;/tr&gt;&lt;tr bgcolor="#E3E3F3"&gt;
&lt;th&gt;NM_RGI&lt;/th&gt;
&lt;td&gt;Itabaiana&lt;/td&gt;
&lt;/tr&gt;&lt;tr bgcolor=""&gt;
&lt;th&gt;CT_LOCALIDADE&lt;/th&gt;
&lt;td&gt;Outras Localidades&lt;/td&gt;
&lt;/tr&gt;&lt;tr bgcolor="#E3E3F3"&gt;
&lt;th&gt;SCT_LOCALIDADE&lt;/th&gt;
&lt;td&gt;&lt;/td&gt;
&lt;/tr&gt;&lt;tr bgcolor=""&gt;
&lt;th&gt;CD_LOCALIDADE&lt;/th&gt;
&lt;td&gt;250990900015&lt;/td&gt;
&lt;/tr&gt;&lt;tr bgcolor="#E3E3F3"&gt;
&lt;th&gt;NM_LOCALIDADE&lt;/th&gt;
&lt;td&gt;Riacho de Natuba 1&lt;/td&gt;
&lt;/tr&gt;&lt;/table&gt;&lt;/center&gt;</description>
<Style>
<IconStyle>
<color>ff0069d3</color>
<scale>0.6</scale>
<Icon>
<href>http://maps.google.com/mapfiles/kml/shapes/placemark_circle.png</href>
</Icon>
</IconStyle>
<LabelStyle>
<scale>0.6</scale>
</LabelStyle>
<LineStyle>
<width>1.0</width>
<gx:labelVisibility>1</gx:labelVisibility>
</LineStyle>
</Style>
<ExtendedData>
<SchemaData schemaUrl="#kml_schema_ft_Localidades">
<SimpleData name="CD_UF">25</SimpleData>
<SimpleData name="NM_UF">Paraíba</SimpleData>
<SimpleData name="SIGLA_UF">PB</SimpleData>
<SimpleData name="CD_MUN">2509909</SimpleData>
<SimpleData name="NM_MUN">Natuba</SimpleData>
<SimpleData name="CD_RGINT">2501</SimpleData>
<SimpleData name="NM_RGINT">João Pessoa</SimpleData>
<SimpleData name="CD_RGI">250004</SimpleData>
<SimpleData name="NM_RGI">Itabaiana</SimpleData>
<SimpleData name="CT_LOCALIDADE">Outras Localidades</SimpleData>
<SimpleData name="CD_LOCALIDADE">250990900015</SimpleData>
<SimpleData name="NM_LOCALIDADE">Riacho de Natuba 1</SimpleData>
</SchemaData>
</ExtendedData>
<Point>
<extrude>0</extrude>
<coordinates>-35.5893801995,-7.63282252135061,0.0</coordinates>
</Point>
</Placemark>
<Placemark id="12. Outras Localidades">
<name>Cacimba Cercada 1 [250990900016]</name>
<visibility>1</visibility>
<snippet> </snippet>
<description>&lt;center&gt;&lt;table&gt;&lt;tr&gt;&lt;th colspan='2' align='center'&gt;&lt;em&gt;Attributes&lt;/em&gt;&lt;/th&gt;&lt;/tr&gt;&lt;tr bgcolor="#E3E3F3"&gt;
&lt;th&gt;CD_UF&lt;/th&gt;
&lt;td&gt;25&lt;/td&gt;
&lt;/tr&gt;&lt;tr bgcolor=""&gt;
&lt;th&gt;NM_UF&lt;/th&gt;
&lt;td&gt;Paraíba&lt;/td&gt;
&lt;/tr&gt;&lt;tr bgcolor="#E3E3F3"&gt;
&lt;th&gt;SIGLA_UF&lt;/th&gt;
&lt;td&gt;PB&lt;/td&gt;
&lt;/tr&gt;&lt;tr bgcolor=""&gt;
&lt;th&gt;CD_MUN&lt;/th&gt;
&lt;td&gt;2509909&lt;/td&gt;
&lt;/tr&gt;&lt;tr bgcolor="#E3E3F3"&gt;
&lt;th&gt;NM_MUN&lt;/th&gt;
&lt;td&gt;Natuba&lt;/td&gt;
&lt;/tr&gt;&lt;tr bgcolor=""&gt;
&lt;th&gt;CD_RGINT&lt;/th&gt;
&lt;td&gt;2501&lt;/td&gt;
&lt;/tr&gt;&lt;tr bgcolor="#E3E3F3"&gt;
&lt;th&gt;NM_RGINT&lt;/th&gt;
&lt;td&gt;João Pessoa&lt;/td&gt;
&lt;/tr&gt;&lt;tr bgcolor=""&gt;
&lt;th&gt;CD_RGI&lt;/th&gt;
&lt;td&gt;250004&lt;/td&gt;
&lt;/tr&gt;&lt;tr bgcolor="#E3E3F3"&gt;
&lt;th&gt;NM_RGI&lt;/th&gt;
&lt;td&gt;Itabaiana&lt;/td&gt;
&lt;/tr&gt;&lt;tr bgcolor=""&gt;
&lt;th&gt;CT_LOCALIDADE&lt;/th&gt;
&lt;td&gt;Outras Localidades&lt;/td&gt;
&lt;/tr&gt;&lt;tr bgcolor="#E3E3F3"&gt;
&lt;th&gt;SCT_LOCALIDADE&lt;/th&gt;
&lt;td&gt;&lt;/td&gt;
&lt;/tr&gt;&lt;tr bgcolor=""&gt;
&lt;th&gt;CD_LOCALIDADE&lt;/th&gt;
&lt;td&gt;250990900016&lt;/td&gt;
&lt;/tr&gt;&lt;tr bgcolor="#E3E3F3"&gt;
&lt;th&gt;NM_LOCALIDADE&lt;/th&gt;
&lt;td&gt;Cacimba Cercada 1&lt;/td&gt;
&lt;/tr&gt;&lt;/table&gt;&lt;/center&gt;</description>
<Style>
<IconStyle>
<color>ff0069d3</color>
<scale>0.6</scale>
<Icon>
<href>http://maps.google.com/mapfiles/kml/shapes/placemark_circle.png</href>
</Icon>
</IconStyle>
<LabelStyle>
<scale>0.6</scale>
</LabelStyle>
<LineStyle>
<width>1.0</width>
<gx:labelVisibility>1</gx:labelVisibility>
</LineStyle>
</Style>
<ExtendedData>
<SchemaData schemaUrl="#kml_schema_ft_Localidades">
<SimpleData name="CD_UF">25</SimpleData>
<SimpleData name="NM_UF">Paraíba</SimpleData>
<SimpleData name="SIGLA_UF">PB</SimpleData>
<SimpleData name="CD_MUN">2509909</SimpleData>
<SimpleData name="NM_MUN">Natuba</SimpleData>
<SimpleData name="CD_RGINT">2501</SimpleData>
<SimpleData name="NM_RGINT">João Pessoa</SimpleData>
<SimpleData name="CD_RGI">250004</SimpleData>
<SimpleData name="NM_RGI">Itabaiana</SimpleData>
<SimpleData name="CT_LOCALIDADE">Outras Localidades</SimpleData>
<SimpleData name="CD_LOCALIDADE">250990900016</SimpleData>
<SimpleData name="NM_LOCALIDADE">Cacimba Cercada 1</SimpleData>
</SchemaData>
</ExtendedData>
<Point>
<extrude>0</extrude>
<coordinates>-35.5354260527,-7.55851888425298,0.0</coordinates>
</Point>
</Placemark>
<Placemark id="12. Outras Localidades">
<name>Sítio Jucá 1 [250990900017]</name>
<visibility>1</visibility>
<snippet> </snippet>
<description>&lt;center&gt;&lt;table&gt;&lt;tr&gt;&lt;th colspan='2' align='center'&gt;&lt;em&gt;Attributes&lt;/em&gt;&lt;/th&gt;&lt;/tr&gt;&lt;tr bgcolor="#E3E3F3"&gt;
&lt;th&gt;CD_UF&lt;/th&gt;
&lt;td&gt;25&lt;/td&gt;
&lt;/tr&gt;&lt;tr bgcolor=""&gt;
&lt;th&gt;NM_UF&lt;/th&gt;
&lt;td&gt;Paraíba&lt;/td&gt;
&lt;/tr&gt;&lt;tr bgcolor="#E3E3F3"&gt;
&lt;th&gt;SIGLA_UF&lt;/th&gt;
&lt;td&gt;PB&lt;/td&gt;
&lt;/tr&gt;&lt;tr bgcolor=""&gt;
&lt;th&gt;CD_MUN&lt;/th&gt;
&lt;td&gt;2509909&lt;/td&gt;
&lt;/tr&gt;&lt;tr bgcolor="#E3E3F3"&gt;
&lt;th&gt;NM_MUN&lt;/th&gt;
&lt;td&gt;Natuba&lt;/td&gt;
&lt;/tr&gt;&lt;tr bgcolor=""&gt;
&lt;th&gt;CD_RGINT&lt;/th&gt;
&lt;td&gt;2501&lt;/td&gt;
&lt;/tr&gt;&lt;tr bgcolor="#E3E3F3"&gt;
&lt;th&gt;NM_RGINT&lt;/th&gt;
&lt;td&gt;João Pessoa&lt;/td&gt;
&lt;/tr&gt;&lt;tr bgcolor=""&gt;
&lt;th&gt;CD_RGI&lt;/th&gt;
&lt;td&gt;250004&lt;/td&gt;
&lt;/tr&gt;&lt;tr bgcolor="#E3E3F3"&gt;
&lt;th&gt;NM_RGI&lt;/th&gt;
&lt;td&gt;Itabaiana&lt;/td&gt;
&lt;/tr&gt;&lt;tr bgcolor=""&gt;
&lt;th&gt;CT_LOCALIDADE&lt;/th&gt;
&lt;td&gt;Outras Localidades&lt;/td&gt;
&lt;/tr&gt;&lt;tr bgcolor="#E3E3F3"&gt;
&lt;th&gt;SCT_LOCALIDADE&lt;/th&gt;
&lt;td&gt;&lt;/td&gt;
&lt;/tr&gt;&lt;tr bgcolor=""&gt;
&lt;th&gt;CD_LOCALIDADE&lt;/th&gt;
&lt;td&gt;250990900017&lt;/td&gt;
&lt;/tr&gt;&lt;tr bgcolor="#E3E3F3"&gt;
&lt;th&gt;NM_LOCALIDADE&lt;/th&gt;
&lt;td&gt;Sítio Jucá 1&lt;/td&gt;
&lt;/tr&gt;&lt;/table&gt;&lt;/center&gt;</description>
<Style>
<IconStyle>
<color>ff0069d3</color>
<scale>0.6</scale>
<Icon>
<href>http://maps.google.com/mapfiles/kml/shapes/placemark_circle.png</href>
</Icon>
</IconStyle>
<LabelStyle>
<scale>0.6</scale>
</LabelStyle>
<LineStyle>
<width>1.0</width>
<gx:labelVisibility>1</gx:labelVisibility>
</LineStyle>
</Style>
<ExtendedData>
<SchemaData schemaUrl="#kml_schema_ft_Localidades">
<SimpleData name="CD_UF">25</SimpleData>
<SimpleData name="NM_UF">Paraíba</SimpleData>
<SimpleData name="SIGLA_UF">PB</SimpleData>
<SimpleData name="CD_MUN">2509909</SimpleData>
<SimpleData name="NM_MUN">Natuba</SimpleData>
<SimpleData name="CD_RGINT">2501</SimpleData>
<SimpleData name="NM_RGINT">João Pessoa</SimpleData>
<SimpleData name="CD_RGI">250004</SimpleData>
<SimpleData name="NM_RGI">Itabaiana</SimpleData>
<SimpleData name="CT_LOCALIDADE">Outras Localidades</SimpleData>
<SimpleData name="CD_LOCALIDADE">250990900017</SimpleData>
<SimpleData name="NM_LOCALIDADE">Sítio Jucá 1</SimpleData>
</SchemaData>
</ExtendedData>
<Point>
<extrude>0</extrude>
<coordinates>-35.6233937324,-7.64497933605022,0.0</coordinates>
</Point>
</Placemark>
<Placemark id="12. Outras Localidades">
<name>Sítio Jucá [250990900018]</name>
<visibility>1</visibility>
<snippet> </snippet>
<description>&lt;center&gt;&lt;table&gt;&lt;tr&gt;&lt;th colspan='2' align='center'&gt;&lt;em&gt;Attributes&lt;/em&gt;&lt;/th&gt;&lt;/tr&gt;&lt;tr bgcolor="#E3E3F3"&gt;
&lt;th&gt;CD_UF&lt;/th&gt;
&lt;td&gt;25&lt;/td&gt;
&lt;/tr&gt;&lt;tr bgcolor=""&gt;
&lt;th&gt;NM_UF&lt;/th&gt;
&lt;td&gt;Paraíba&lt;/td&gt;
&lt;/tr&gt;&lt;tr bgcolor="#E3E3F3"&gt;
&lt;th&gt;SIGLA_UF&lt;/th&gt;
&lt;td&gt;PB&lt;/td&gt;
&lt;/tr&gt;&lt;tr bgcolor=""&gt;
&lt;th&gt;CD_MUN&lt;/th&gt;
&lt;td&gt;2509909&lt;/td&gt;
&lt;/tr&gt;&lt;tr bgcolor="#E3E3F3"&gt;
&lt;th&gt;NM_MUN&lt;/th&gt;
&lt;td&gt;Natuba&lt;/td&gt;
&lt;/tr&gt;&lt;tr bgcolor=""&gt;
&lt;th&gt;CD_RGINT&lt;/th&gt;
&lt;td&gt;2501&lt;/td&gt;
&lt;/tr&gt;&lt;tr bgcolor="#E3E3F3"&gt;
&lt;th&gt;NM_RGINT&lt;/th&gt;
&lt;td&gt;João Pessoa&lt;/td&gt;
&lt;/tr&gt;&lt;tr bgcolor=""&gt;
&lt;th&gt;CD_RGI&lt;/th&gt;
&lt;td&gt;250004&lt;/td&gt;
&lt;/tr&gt;&lt;tr bgcolor="#E3E3F3"&gt;
&lt;th&gt;NM_RGI&lt;/th&gt;
&lt;td&gt;Itabaiana&lt;/td&gt;
&lt;/tr&gt;&lt;tr bgcolor=""&gt;
&lt;th&gt;CT_LOCALIDADE&lt;/th&gt;
&lt;td&gt;Outras Localidades&lt;/td&gt;
&lt;/tr&gt;&lt;tr bgcolor="#E3E3F3"&gt;
&lt;th&gt;SCT_LOCALIDADE&lt;/th&gt;
&lt;td&gt;&lt;/td&gt;
&lt;/tr&gt;&lt;tr bgcolor=""&gt;
&lt;th&gt;CD_LOCALIDADE&lt;/th&gt;
&lt;td&gt;250990900018&lt;/td&gt;
&lt;/tr&gt;&lt;tr bgcolor="#E3E3F3"&gt;
&lt;th&gt;NM_LOCALIDADE&lt;/th&gt;
&lt;td&gt;Sítio Jucá&lt;/td&gt;
&lt;/tr&gt;&lt;/table&gt;&lt;/center&gt;</description>
<Style>
<IconStyle>
<color>ff0069d3</color>
<scale>0.6</scale>
<Icon>
<href>http://maps.google.com/mapfiles/kml/shapes/placemark_circle.png</href>
</Icon>
</IconStyle>
<LabelStyle>
<scale>0.6</scale>
</LabelStyle>
<LineStyle>
<width>1.0</width>
<gx:labelVisibility>1</gx:labelVisibility>
</LineStyle>
</Style>
<ExtendedData>
<SchemaData schemaUrl="#kml_schema_ft_Localidades">
<SimpleData name="CD_UF">25</SimpleData>
<SimpleData name="NM_UF">Paraíba</SimpleData>
<SimpleData name="SIGLA_UF">PB</SimpleData>
<SimpleData name="CD_MUN">2509909</SimpleData>
<SimpleData name="NM_MUN">Natuba</SimpleData>
<SimpleData name="CD_RGINT">2501</SimpleData>
<SimpleData name="NM_RGINT">João Pessoa</SimpleData>
<SimpleData name="CD_RGI">250004</SimpleData>
<SimpleData name="NM_RGI">Itabaiana</SimpleData>
<SimpleData name="CT_LOCALIDADE">Outras Localidades</SimpleData>
<SimpleData name="CD_LOCALIDADE">250990900018</SimpleData>
<SimpleData name="NM_LOCALIDADE">Sítio Jucá</SimpleData>
</SchemaData>
</ExtendedData>
<Point>
<extrude>0</extrude>
<coordinates>-35.624086238,-7.63695159925048,0.0</coordinates>
</Point>
</Placemark>
<Placemark id="12. Outras Localidades">
<name>Pau do Grito [250990900019]</name>
<visibility>1</visibility>
<snippet> </snippet>
<description>&lt;center&gt;&lt;table&gt;&lt;tr&gt;&lt;th colspan='2' align='center'&gt;&lt;em&gt;Attributes&lt;/em&gt;&lt;/th&gt;&lt;/tr&gt;&lt;tr bgcolor="#E3E3F3"&gt;
&lt;th&gt;CD_UF&lt;/th&gt;
&lt;td&gt;25&lt;/td&gt;
&lt;/tr&gt;&lt;tr bgcolor=""&gt;
&lt;th&gt;NM_UF&lt;/th&gt;
&lt;td&gt;Paraíba&lt;/td&gt;
&lt;/tr&gt;&lt;tr bgcolor="#E3E3F3"&gt;
&lt;th&gt;SIGLA_UF&lt;/th&gt;
&lt;td&gt;PB&lt;/td&gt;
&lt;/tr&gt;&lt;tr bgcolor=""&gt;
&lt;th&gt;CD_MUN&lt;/th&gt;
&lt;td&gt;2509909&lt;/td&gt;
&lt;/tr&gt;&lt;tr bgcolor="#E3E3F3"&gt;
&lt;th&gt;NM_MUN&lt;/th&gt;
&lt;td&gt;Natuba&lt;/td&gt;
&lt;/tr&gt;&lt;tr bgcolor=""&gt;
&lt;th&gt;CD_RGINT&lt;/th&gt;
&lt;td&gt;2501&lt;/td&gt;
&lt;/tr&gt;&lt;tr bgcolor="#E3E3F3"&gt;
&lt;th&gt;NM_RGINT&lt;/th&gt;
&lt;td&gt;João Pessoa&lt;/td&gt;
&lt;/tr&gt;&lt;tr bgcolor=""&gt;
&lt;th&gt;CD_RGI&lt;/th&gt;
&lt;td&gt;250004&lt;/td&gt;
&lt;/tr&gt;&lt;tr bgcolor="#E3E3F3"&gt;
&lt;th&gt;NM_RGI&lt;/th&gt;
&lt;td&gt;Itabaiana&lt;/td&gt;
&lt;/tr&gt;&lt;tr bgcolor=""&gt;
&lt;th&gt;CT_LOCALIDADE&lt;/th&gt;
&lt;td&gt;Outras Localidades&lt;/td&gt;
&lt;/tr&gt;&lt;tr bgcolor="#E3E3F3"&gt;
&lt;th&gt;SCT_LOCALIDADE&lt;/th&gt;
&lt;td&gt;&lt;/td&gt;
&lt;/tr&gt;&lt;tr bgcolor=""&gt;
&lt;th&gt;CD_LOCALIDADE&lt;/th&gt;
&lt;td&gt;250990900019&lt;/td&gt;
&lt;/tr&gt;&lt;tr bgcolor="#E3E3F3"&gt;
&lt;th&gt;NM_LOCALIDADE&lt;/th&gt;
&lt;td&gt;Pau do Grito&lt;/td&gt;
&lt;/tr&gt;&lt;/table&gt;&lt;/center&gt;</description>
<Style>
<IconStyle>
<color>ff0069d3</color>
<scale>0.6</scale>
<Icon>
<href>http://maps.google.com/mapfiles/kml/shapes/placemark_circle.png</href>
</Icon>
</IconStyle>
<LabelStyle>
<scale>0.6</scale>
</LabelStyle>
<LineStyle>
<width>1.0</width>
<gx:labelVisibility>1</gx:labelVisibility>
</LineStyle>
</Style>
<ExtendedData>
<SchemaData schemaUrl="#kml_schema_ft_Localidades">
<SimpleData name="CD_UF">25</SimpleData>
<SimpleData name="NM_UF">Paraíba</SimpleData>
<SimpleData name="SIGLA_UF">PB</SimpleData>
<SimpleData name="CD_MUN">2509909</SimpleData>
<SimpleData name="NM_MUN">Natuba</SimpleData>
<SimpleData name="CD_RGINT">2501</SimpleData>
<SimpleData name="NM_RGINT">João Pessoa</SimpleData>
<SimpleData name="CD_RGI">250004</SimpleData>
<SimpleData name="NM_RGI">Itabaiana</SimpleData>
<SimpleData name="CT_LOCALIDADE">Outras Localidades</SimpleData>
<SimpleData name="CD_LOCALIDADE">250990900019</SimpleData>
<SimpleData name="NM_LOCALIDADE">Pau do Grito</SimpleData>
</SchemaData>
</ExtendedData>
<Point>
<extrude>0</extrude>
<coordinates>-35.5264968377,-7.54044478345356,0.0</coordinates>
</Point>
</Placemark>
<Placemark id="12. Outras Localidades">
<name>Riacho de Natuba [250990900020]</name>
<visibility>1</visibility>
<snippet> </snippet>
<description>&lt;center&gt;&lt;table&gt;&lt;tr&gt;&lt;th colspan='2' align='center'&gt;&lt;em&gt;Attributes&lt;/em&gt;&lt;/th&gt;&lt;/tr&gt;&lt;tr bgcolor="#E3E3F3"&gt;
&lt;th&gt;CD_UF&lt;/th&gt;
&lt;td&gt;25&lt;/td&gt;
&lt;/tr&gt;&lt;tr bgcolor=""&gt;
&lt;th&gt;NM_UF&lt;/th&gt;
&lt;td&gt;Paraíba&lt;/td&gt;
&lt;/tr&gt;&lt;tr bgcolor="#E3E3F3"&gt;
&lt;th&gt;SIGLA_UF&lt;/th&gt;
&lt;td&gt;PB&lt;/td&gt;
&lt;/tr&gt;&lt;tr bgcolor=""&gt;
&lt;th&gt;CD_MUN&lt;/th&gt;
&lt;td&gt;2509909&lt;/td&gt;
&lt;/tr&gt;&lt;tr bgcolor="#E3E3F3"&gt;
&lt;th&gt;NM_MUN&lt;/th&gt;
&lt;td&gt;Natuba&lt;/td&gt;
&lt;/tr&gt;&lt;tr bgcolor=""&gt;
&lt;th&gt;CD_RGINT&lt;/th&gt;
&lt;td&gt;2501&lt;/td&gt;
&lt;/tr&gt;&lt;tr bgcolor="#E3E3F3"&gt;
&lt;th&gt;NM_RGINT&lt;/th&gt;
&lt;td&gt;João Pessoa&lt;/td&gt;
&lt;/tr&gt;&lt;tr bgcolor=""&gt;
&lt;th&gt;CD_RGI&lt;/th&gt;
&lt;td&gt;250004&lt;/td&gt;
&lt;/tr&gt;&lt;tr bgcolor="#E3E3F3"&gt;
&lt;th&gt;NM_RGI&lt;/th&gt;
&lt;td&gt;Itabaiana&lt;/td&gt;
&lt;/tr&gt;&lt;tr bgcolor=""&gt;
&lt;th&gt;CT_LOCALIDADE&lt;/th&gt;
&lt;td&gt;Outras Localidades&lt;/td&gt;
&lt;/tr&gt;&lt;tr bgcolor="#E3E3F3"&gt;
&lt;th&gt;SCT_LOCALIDADE&lt;/th&gt;
&lt;td&gt;&lt;/td&gt;
&lt;/tr&gt;&lt;tr bgcolor=""&gt;
&lt;th&gt;CD_LOCALIDADE&lt;/th&gt;
&lt;td&gt;250990900020&lt;/td&gt;
&lt;/tr&gt;&lt;tr bgcolor="#E3E3F3"&gt;
&lt;th&gt;NM_LOCALIDADE&lt;/th&gt;
&lt;td&gt;Riacho de Natuba&lt;/td&gt;
&lt;/tr&gt;&lt;/table&gt;&lt;/center&gt;</description>
<Style>
<IconStyle>
<color>ff0069d3</color>
<scale>0.6</scale>
<Icon>
<href>http://maps.google.com/mapfiles/kml/shapes/placemark_circle.png</href>
</Icon>
</IconStyle>
<LabelStyle>
<scale>0.6</scale>
</LabelStyle>
<LineStyle>
<width>1.0</width>
<gx:labelVisibility>1</gx:labelVisibility>
</LineStyle>
</Style>
<ExtendedData>
<SchemaData schemaUrl="#kml_schema_ft_Localidades">
<SimpleData name="CD_UF">25</SimpleData>
<SimpleData name="NM_UF">Paraíba</SimpleData>
<SimpleData name="SIGLA_UF">PB</SimpleData>
<SimpleData name="CD_MUN">2509909</SimpleData>
<SimpleData name="NM_MUN">Natuba</SimpleData>
<SimpleData name="CD_RGINT">2501</SimpleData>
<SimpleData name="NM_RGINT">João Pessoa</SimpleData>
<SimpleData name="CD_RGI">250004</SimpleData>
<SimpleData name="NM_RGI">Itabaiana</SimpleData>
<SimpleData name="CT_LOCALIDADE">Outras Localidades</SimpleData>
<SimpleData name="CD_LOCALIDADE">250990900020</SimpleData>
<SimpleData name="NM_LOCALIDADE">Riacho de Natuba</SimpleData>
</SchemaData>
</ExtendedData>
<Point>
<extrude>0</extrude>
<coordinates>-35.5816851018,-7.63903578345041,0.0</coordinates>
</Point>
</Placemark>
</Folder>
<Folder id="13. Referência">
<name>13. Referência</name>
<Placemark id="13. Referência">
<name>Natuba [2509909]</name>
<visibility>1</visibility>
<snippet> </snippet>
<description>&lt;center&gt;&lt;table&gt;&lt;tr&gt;&lt;th colspan='2' align='center'&gt;&lt;em&gt;Attributes&lt;/em&gt;&lt;/th&gt;&lt;/tr&gt;&lt;tr bgcolor="#E3E3F3"&gt;
&lt;th&gt;CD_UF&lt;/th&gt;
&lt;td&gt;25&lt;/td&gt;
&lt;/tr&gt;&lt;tr bgcolor=""&gt;
&lt;th&gt;NM_UF&lt;/th&gt;
&lt;td&gt;Paraíba&lt;/td&gt;
&lt;/tr&gt;&lt;tr bgcolor="#E3E3F3"&gt;
&lt;th&gt;CD_MUN&lt;/th&gt;
&lt;td&gt;2509909&lt;/td&gt;
&lt;/tr&gt;&lt;tr bgcolor=""&gt;
&lt;th&gt;NM_MUN&lt;/th&gt;
&lt;td&gt;Natuba&lt;/td&gt;
&lt;/tr&gt;&lt;tr bgcolor="#E3E3F3"&gt;
&lt;th&gt;CD_RGINT&lt;/th&gt;
&lt;td&gt;2501&lt;/td&gt;
&lt;/tr&gt;&lt;tr bgcolor=""&gt;
&lt;th&gt;NM_RGINT&lt;/th&gt;
&lt;td&gt;João Pessoa&lt;/td&gt;
&lt;/tr&gt;&lt;tr bgcolor="#E3E3F3"&gt;
&lt;th&gt;CD_RGI&lt;/th&gt;
&lt;td&gt;250004&lt;/td&gt;
&lt;/tr&gt;&lt;tr bgcolor=""&gt;
&lt;th&gt;NM_RGI&lt;/th&gt;
&lt;td&gt;Itabaiana&lt;/td&gt;
&lt;/tr&gt;&lt;/table&gt;&lt;/center&gt;</description>
<Style>
<IconStyle>
<scale>0.7</scale>
</IconStyle>
<LabelStyle>
<scale>0.7</scale>
</LabelStyle>
<LineStyle>
<color>ffffffff</color>
<width>3</width>
<gx:labelVisibility>1</gx:labelVisibility>
</LineStyle>
<PolyStyle>
<color>00ffffff</color>
</PolyStyle>
</Style>
<ExtendedData>
<SchemaData schemaUrl="#kml_schema_ft_Município">
<SimpleData name="CD_UF">25</SimpleData>
<SimpleData name="NM_UF">Paraíba</SimpleData>
<SimpleData name="CD_MUN">2509909</SimpleData>
<SimpleData name="NM_MUN">Natuba</SimpleData>
<SimpleData name="CD_RGINT">2501</SimpleData>
<SimpleData name="NM_RGINT">João Pessoa</SimpleData>
<SimpleData name="CD_RGI">250004</SimpleData>
<SimpleData name="NM_RGI">Itabaiana</SimpleData>
</SchemaData>
</ExtendedData>
<MultiGeometry>
<Polygon>
<extrude>0</extrude>
<tessellate>1</tessellate>
<outerBoundaryIs>
<LinearRing>
<coordinates>-35.5896935,-7.60246699975158,0.0 -35.5915206,-7.60011779975165,0.0 -35.5921332,-7.59933019975168,0.0 -35.5922012,-7.59913609975168,0.0 -35.5933531,-7.59584479975179,0.0 -35.5950958,-7.59340499975186,0.0 -35.5963157,-7.59131379975193,0.0 -35.5999753,-7.58887409975201,0.0 -35.5997803,-7.58408999975216,0.0 -35.5994525,-7.58085779975227,0.0 -35.599801,-7.57632679975241,0.0 -35.5994525,-7.57231859975254,0.0 -35.5985812,-7.56778769975269,0.0 -35.5989297,-7.56482509975278,0.0 -35.5984069,-7.5608168997529,0.0 -35.5989297,-7.55715729975302,0.0 -35.6010209,-7.55506609975309,0.0 -35.6008466,-7.55332339975315,0.0 -35.599801,-7.55245209975317,0.0 -35.5982326,-7.5514064997532,0.0 -35.597187,-7.54966379975326,0.0 -35.5966642,-7.5482696997533,0.0 -35.5949215,-7.5454813997534,0.0 -35.5935274,-7.54182179975351,0.0 -35.592656,-7.53676799975367,0.0 -35.5924818,-7.53188849975383,0.0 -35.5940502,-7.52875169975393,0.0 -35.5940502,-7.52230369975414,0.0 -35.5933531,-7.51812129975427,0.0 -35.592656,-7.51306749975443,0.0 -35.5909134,-7.5078394997546,0.0 -35.5907391,-7.50069449975483,0.0 -35.5907391,-7.49459519975502,0.0 -35.5902163,-7.48640459975528,0.0 -35.5882994,-7.48152509975543,0.0 -35.5862081,-7.47786539975555,0.0 -35.5841169,-7.47228889975573,0.0 -35.5830713,-7.4670607997559,0.0 -35.5811544,-7.464098299756,0.0 -35.582493,-7.46091909975609,0.0 -35.5824929,-7.4609157997561,0.0 -35.5825485,-7.4607871997561,0.0 -35.5829979,-7.45876509975616,0.0 -35.5832456,-7.4576503997562,0.0 -35.5841169,-7.4543392997563,0.0 -35.5842889,-7.45415379975631,0.0 -35.5838305,-7.45306199975634,0.0 -35.5839726,-7.45059229975642,0.0 -35.5829311,-7.45043919975643,0.0 -35.581101,-7.44924999975646,0.0 -35.5755585,-7.44471759975661,0.0 -35.5713227,-7.44349089975665,0.0 -35.569406,-7.4420826997567,0.0 -35.5691212,-7.44135589975672,0.0 -35.5680633,-7.43962519975677,0.0 -35.5674255,-7.43934879975678,0.0 -35.5651796,-7.43923099975679,0.0 -35.5638194,-7.43946939975678,0.0 -35.5612755,-7.44118519975672,0.0 -35.5595839,-7.44325659975666,0.0 -35.5570364,-7.44450809975662,0.0 -35.5570161,-7.44450049975662,0.0 -35.5544674,-7.44401799975663,0.0 -35.5531376,-7.44305279975667,0.0 -35.5525779,-7.44259129975668,0.0 -35.5513849,-7.44160789975671,0.0 -35.5492851,-7.44089159975673,0.0 -35.5482612,-7.44016439975676,0.0 -35.5480336,-7.43964279975677,0.0 -35.5480301,-7.43902649975679,0.0 -35.5480838,-7.43861529975681,0.0 -35.5479681,-7.43800899975683,0.0 -35.5476945,-7.43761839975684,0.0 -35.5471502,-7.43733199975685,0.0 -35.5462818,-7.43598299975689,0.0 -35.5462797,-7.4356187997569,0.0 -35.5463259,-7.4355251997569,0.0 -35.5464846,-7.43545889975691,0.0 -35.5465759,-7.43535899975691,0.0 -35.5465961,-7.43533689975691,0.0 -35.5466326,-7.43517789975692,0.0 -35.5466039,-7.43505669975692,0.0 -35.5464312,-7.43496319975693,0.0 -35.5464162,-7.43495499975692,0.0 -35.5462568,-7.43489989975693,0.0 -35.5460311,-7.43468639975693,0.0 -35.5459355,-7.43434149975694,0.0 -35.546026,-7.43385459975696,0.0 -35.5456308,-7.43384369975696,0.0 -35.5449623,-7.43392769975696,0.0 -35.5445806,-7.43385639975696,0.0 -35.5443463,-7.43382439975696,0.0 -35.544025,-7.43379279975696,0.0 -35.5436028,-7.43366169975697,0.0 -35.5431537,-7.43351739975697,0.0 -35.5428987,-7.43337189975697,0.0 -35.5422482,-7.43308859975698,0.0 -35.5418533,-7.43306409975698,0.0 -35.5413188,-7.43317399975698,0.0 -35.5409782,-7.43326939975698,0.0 -35.540811,-7.43329039975698,0.0 -35.5402161,-7.43336729975697,0.0 -35.540056,-7.43344169975697,0.0 -35.5398363,-7.43363659975697,0.0 -35.5396346,-7.43461929975693,0.0 -35.539536,-7.43492029975693,0.0 -35.5394523,-7.43548169975691,0.0 -35.5393997,-7.4356422997569,0.0 -35.5393212,-7.43594989975689,0.0 -35.5392959,-7.43620379975688,0.0 -35.5393571,-7.43639039975688,0.0 -35.5394053,-7.43661719975687,0.0 -35.5395337,-7.43684349975686,0.0 -35.539675,-7.43698949975686,0.0 -35.5398362,-7.43709549975685,0.0 -35.539957,-7.43717489975685,0.0 -35.5402491,-7.43735349975685,0.0 -35.5403333,-7.43746319975684,0.0 -35.5403505,-7.43754989975684,0.0 -35.5403445,-7.43766679975684,0.0 -35.540275,-7.43778409975683,0.0 -35.5402117,-7.43784119975683,0.0 -35.5400916,-7.43789529975683,0.0 -35.5398345,-7.43796689975683,0.0 -35.5397075,-7.43799429975683,0.0 -35.5395774,-7.43805179975682,0.0 -35.5395009,-7.43812239975682,0.0 -35.5393911,-7.43822649975682,0.0 -35.5393549,-7.43832349975682,0.0 -35.5393657,-7.43846369975681,0.0 -35.5394167,-7.43859689975681,0.0 -35.539481,-7.4387400997568,0.0 -35.5395723,-7.4388998997568,0.0 -35.5396776,-7.43918639975679,0.0 -35.5397905,-7.43962649975677,0.0 -35.5402527,-7.44148009975671,0.0 -35.5403241,-7.44166669975671,0.0 -35.5405091,-7.4418592997567,0.0 -35.5407915,-7.4421080997567,0.0 -35.5411011,-7.44243009975669,0.0 -35.5411118,-7.44253359975668,0.0 -35.54101,-7.44287469975667,0.0 -35.5407041,-7.44318699975666,0.0 -35.5404547,-7.44344879975665,0.0 -35.5401115,-7.44362429975665,0.0 -35.539774,-7.44391579975664,0.0 -35.5396602,-7.44405879975663,0.0 -35.5396409,-7.44435539975662,0.0 -35.5397376,-7.44449489975662,0.0 -35.5399844,-7.44471759975661,0.0 -35.5403895,-7.44479939975661,0.0 -35.5411708,-7.44481359975661,0.0 -35.5415354,-7.44477409975661,0.0 -35.5420224,-7.44485539975661,0.0 -35.5421776,-7.4449944997566,0.0 -35.5422582,-7.4451947997566,0.0 -35.5423439,-7.44544649975659,0.0 -35.542443,-7.44559069975658,0.0 -35.5425557,-7.44567399975658,0.0 -35.5429679,-7.44576969975658,0.0 -35.5434749,-7.44585169975658,0.0 -35.5437683,-7.44585379975657,0.0 -35.5443388,-7.44583189975658,0.0 -35.5443491,-7.44583199975658,0.0 -35.5448768,-7.44583809975658,0.0 -35.5452419,-7.44587339975657,0.0 -35.545453,-7.44597019975657,0.0 -35.545511,-7.44630139975656,0.0 -35.5454795,-7.44652099975655,0.0 -35.5452803,-7.44684899975654,0.0 -35.5450531,-7.44720979975653,0.0 -35.5448353,-7.44756589975652,0.0 -35.5445055,-7.44795999975651,0.0 -35.5443666,-7.4482035997565,0.0 -35.5441902,-7.44843809975649,0.0 -35.5440088,-7.44862119975649,0.0 -35.5438618,-7.44885079975648,0.0 -35.5437028,-7.44909919975647,0.0 -35.5435073,-7.44926839975647,0.0 -35.5431388,-7.44944329975646,0.0 -35.5429797,-7.44944419975646,0.0 -35.5426192,-7.44937629975646,0.0 -35.5424266,-7.44923729975647,0.0 -35.5421498,-7.44911279975647,0.0 -35.541803,-7.44899339975647,0.0 -35.5416346,-7.44899439975647,0.0 -35.5414993,-7.44904649975647,0.0 -35.5412711,-7.44923929975647,0.0 -35.5411412,-7.44942209975646,0.0 -35.541058,-7.44959999975645,0.0 -35.5408677,-7.44984389975645,0.0 -35.5406081,-7.45026559975644,0.0 -35.5404647,-7.45054659975642,0.0 -35.5403162,-7.45074819975642,0.0 -35.5401441,-7.45091729975641,0.0 -35.5397058,-7.45116259975641,0.0 -35.5395101,-7.4512897997564,0.0 -35.5391,-7.45155829975639,0.0 -35.5389418,-7.45170859975639,0.0 -35.538621,-7.45204659975638,0.0 -35.5385329,-7.45219179975637,0.0 -35.5384219,-7.45241659975637,0.0 -35.5384088,-7.45257069975636,0.0 -35.5384287,-7.45277139975636,0.0 -35.5385243,-7.45313039975634,0.0 -35.5385816,-7.45334019975634,0.0 -35.5387523,-7.45372669975632,0.0 -35.5388467,-7.45388029975632,0.0 -35.5389975,-7.45406609975632,0.0 -35.5391998,-7.45427509975631,0.0 -35.539425,-7.4543904997563,0.0 -35.5395982,-7.4544034997563,0.0 -35.5400987,-7.4544006997563,0.0 -35.5405005,-7.45432369975631,0.0 -35.5406642,-7.45430399975631,0.0 -35.5410008,-7.45426939975631,0.0 -35.5412668,-7.45416049975631,0.0 -35.5416913,-7.45396199975632,0.0 -35.54192,-7.45386959975632,0.0 -35.5420731,-7.45365389975633,0.0 -35.5422476,-7.45348949975633,0.0 -35.5423856,-7.45349569975633,0.0 -35.5431608,-7.45365939975633,0.0 -35.5436102,-7.45371279975632,0.0 -35.5439701,-7.45367339975632,0.0 -35.5443196,-7.45343789975633,0.0 -35.5446558,-7.45333329975634,0.0 -35.5447583,-7.45332199975634,0.0 -35.5448802,-7.45330859975634,0.0 -35.5449974,-7.45334529975633,0.0 -35.5451102,-7.45344739975633,0.0 -35.5452139,-7.45358689975633,0.0 -35.5454497,-7.45390299975632,0.0 -35.5454878,-7.45402419975631,0.0 -35.5455709,-7.45425009975631,0.0 -35.5456787,-7.45467909975629,0.0 -35.5457974,-7.45498889975628,0.0 -35.5458689,-7.45522189975628,0.0 -35.5460095,-7.45606849975625,0.0 -35.5463011,-7.45633769975624,0.0 -35.5464425,-7.45653299975623,0.0 -35.5465009,-7.45664459975623,0.0 -35.546529,-7.45693399975622,0.0 -35.5466802,-7.45718529975621,0.0 -35.5468506,-7.4575390997562,0.0 -35.5469272,-7.45782819975619,0.0 -35.5469658,-7.45803339975619,0.0 -35.5470227,-7.45817309975618,0.0 -35.5472018,-7.45840549975617,0.0 -35.547306,-7.45862909975617,0.0 -35.547316,-7.45873169975617,0.0 -35.5473836,-7.45909549975615,0.0 -35.5474064,-7.45940589975614,0.0 -35.5473563,-7.45963959975613,0.0 -35.5473482,-7.45985909975613,0.0 -35.5473078,-7.46014879975612,0.0 -35.5471005,-7.4606962997561,0.0 -35.5469524,-7.46097729975609,0.0 -35.5469439,-7.46111739975609,0.0 -35.5468707,-7.46140729975608,0.0 -35.546806,-7.46154779975608,0.0 -35.5467792,-7.46176269975607,0.0 -35.54679,-7.46201479975606,0.0 -35.5468473,-7.46221989975605,0.0 -35.5469151,-7.46261169975604,0.0 -35.546965,-7.46275849975603,0.0 -35.5469445,-7.46284499975603,0.0 -35.5468564,-7.46297389975603,0.0 -35.5467963,-7.46310729975603,0.0 -35.5467828,-7.46319379975602,0.0 -35.5467972,-7.46325899975602,0.0 -35.5469102,-7.46339379975602,0.0 -35.547093,-7.46344179975601,0.0 -35.5472403,-7.46343859975601,0.0 -35.5474698,-7.46348159975601,0.0 -35.5477281,-7.46366219975601,0.0 -35.5479674,-7.463786899756,0.0 -35.5480523,-7.463907799756,0.0 -35.548231,-7.46406079975599,0.0 -35.5483675,-7.46420479975599,0.0 -35.5484633,-7.46460579975597,0.0 -35.5486278,-7.46472619975597,0.0 -35.5487498,-7.46479089975597,0.0 -35.5489192,-7.46497199975596,0.0 -35.5489996,-7.46511629975596,0.0 -35.5491552,-7.46533019975595,0.0 -35.5491652,-7.46544679975595,0.0 -35.5492045,-7.46576879975594,0.0 -35.5492954,-7.46610909975593,0.0 -35.549357,-7.46625349975592,0.0 -35.5494571,-7.46657969975591,0.0 -35.5494825,-7.4669250997559,0.0 -35.5494734,-7.4669624997559,0.0 -35.5494743,-7.4671165997559,0.0 -35.5494711,-7.46737339975589,0.0 -35.5494489,-7.46757889975588,0.0 -35.5493848,-7.46782209975587,0.0 -35.5490146,-7.46851529975585,0.0 -35.5488379,-7.46869839975585,0.0 -35.5487121,-7.46878779975584,0.0 -35.5485955,-7.46885389975584,0.0 -35.5483951,-7.46898109975584,0.0 -35.5482227,-7.46909409975583,0.0 -35.5477469,-7.46933499975583,0.0 -35.5475649,-7.46941079975582,0.0 -35.5474111,-7.46950499975582,0.0 -35.547122,-7.46966079975581,0.0 -35.5465814,-7.4700186997558,0.0 -35.5460869,-7.4702503997558,0.0 -35.5456905,-7.47047679975579,0.0 -35.5454009,-7.47054379975579,0.0 -35.5452982,-7.47057709975579,0.0 -35.5451953,-7.47058239975579,0.0 -35.5451295,-7.47052669975579,0.0 -35.5449465,-7.47042969975579,0.0 -35.5448199,-7.47039309975579,0.0 -35.5446886,-7.47032849975579,0.0 -35.544562,-7.4702871997558,0.0 -35.5444213,-7.4702225997558,0.0 -35.5443321,-7.4701729997558,0.0 -35.5442689,-7.4701615997558,0.0 -35.544206,-7.4701946997558,0.0 -35.5441615,-7.4701972997558,0.0 -35.5441178,-7.4701763997558,0.0 -35.5440841,-7.4701603997558,0.0 -35.5440394,-7.4701138997558,0.0 -35.5440066,-7.4701047997558,0.0 -35.5439346,-7.4701915997558,0.0 -35.5438039,-7.4702319997558,0.0 -35.5436986,-7.4702279997558,0.0 -35.5436098,-7.4702401997558,0.0 -35.5435188,-7.47028499975579,0.0 -35.5434747,-7.4703365997558,0.0 -35.5434213,-7.47040229975579,0.0 -35.5432719,-7.47045689975579,0.0 -35.5432138,-7.47051789975579,0.0 -35.5431023,-7.47065399975578,0.0 -35.5430068,-7.47073149975578,0.0 -35.5427921,-7.47080979975578,0.0 -35.5425275,-7.47077169975578,0.0 -35.5423563,-7.47067929975578,0.0 -35.5422082,-7.47056339975579,0.0 -35.5420441,-7.47048499975579,0.0 -35.541908,-7.47041799975579,0.0 -35.5416739,-7.47038669975579,0.0 -35.5415243,-7.47039689975579,0.0 -35.5413913,-7.47046069975579,0.0 -35.5411955,-7.47057159975579,0.0 -35.5410903,-7.47057919975579,0.0 -35.54095,-7.47059169975579,0.0 -35.5408426,-7.47062029975578,0.0 -35.5406815,-7.47067719975578,0.0 -35.5405135,-7.47074819975578,0.0 -35.5404833,-7.47079039975578,0.0 -35.5403415,-7.47092669975577,0.0 -35.5402596,-7.47092709975577,0.0 -35.5400301,-7.47088639975578,0.0 -35.5400168,-7.47088319975578,0.0 -35.5398615,-7.47084539975578,0.0 -35.5395385,-7.47080519975578,0.0 -35.5392534,-7.47084889975578,0.0 -35.5390013,-7.47093899975578,0.0 -35.5389314,-7.47099549975577,0.0 -35.5388473,-7.47101929975577,0.0 -35.5386836,-7.47102019975577,0.0 -35.5384262,-7.47099839975577,0.0 -35.538042,-7.47089319975578,0.0 -35.537906,-7.47083329975578,0.0 -35.5376859,-7.47080189975578,0.0 -35.5375126,-7.47076549975578,0.0 -35.537354,-7.47084109975578,0.0 -35.5372847,-7.47099089975578,0.0 -35.5372158,-7.47120139975577,0.0 -35.5371984,-7.47144429975576,0.0 -35.5371957,-7.47177589975575,0.0 -35.5371963,-7.47188319975574,0.0 -35.5372675,-7.47205559975574,0.0 -35.5373756,-7.47215769975574,0.0 -35.5375818,-7.47221719975573,0.0 -35.5376425,-7.47219349975573,0.0 -35.537755,-7.47223489975574,0.0 -35.5379891,-7.47225689975573,0.0 -35.5380453,-7.47227989975573,0.0 -35.5381955,-7.47236779975573,0.0 -35.5382525,-7.47251219975572,0.0 -35.5382347,-7.47266629975572,0.0 -35.5381473,-7.47292829975571,0.0 -35.5381245,-7.47303119975571,0.0 -35.5381203,-7.47311059975571,0.0 -35.5380746,-7.4732928997557,0.0 -35.5380422,-7.4733630997557,0.0 -35.5380103,-7.47350809975569,0.0 -35.5379924,-7.47364359975569,0.0 -35.53797,-7.47381649975568,0.0 -35.5379051,-7.47392419975568,0.0 -35.5378962,-7.47399899975568,0.0 -35.5379156,-7.47412489975567,0.0 -35.5379356,-7.47434889975567,0.0 -35.5378894,-7.47443789975566,0.0 -35.5378759,-7.47453139975566,0.0 -35.537853,-7.47461559975566,0.0 -35.5376808,-7.47476599975565,0.0 -35.5374563,-7.47478129975565,0.0 -35.537222,-7.47471719975565,0.0 -35.5369591,-7.47454599975566,0.0 -35.536809,-7.47448149975566,0.0 -35.536612,-7.47439859975566,0.0 -35.5364714,-7.47435269975566,0.0 -35.5362369,-7.47425129975567,0.0 -35.5361574,-7.47425179975567,0.0 -35.5360504,-7.47435039975567,0.0 -35.535921,-7.47463129975565,0.0 -35.535842,-7.47472979975565,0.0 -35.5357588,-7.47489839975565,0.0 -35.5357452,-7.47497319975565,0.0 -35.5355641,-7.47520349975564,0.0 -35.5354944,-7.47529209975564,0.0 -35.5353684,-7.47533949975563,0.0 -35.53513,-7.47536889975563,0.0 -35.5348634,-7.47537979975563,0.0 -35.5347186,-7.47542729975563,0.0 -35.5345599,-7.47547489975563,0.0 -35.5343731,-7.47554139975563,0.0 -35.5341585,-7.47564529975562,0.0 -35.5340291,-7.47591689975561,0.0 -35.5338199,-7.47615149975561,0.0 -35.5336011,-7.4763348997556,0.0 -35.53334,-7.4764764997556,0.0 -35.5332001,-7.47656129975559,0.0 -35.5329994,-7.47663249975559,0.0 -35.5329012,-7.47665169975559,0.0 -35.5327936,-7.47665239975559,0.0 -35.532742,-7.47662459975559,0.0 -35.5325253,-7.4763596997556,0.0 -35.5324121,-7.47619229975561,0.0 -35.5322377,-7.47596449975561,0.0 -35.5320917,-7.47580189975562,0.0 -35.5318938,-7.47556499975563,0.0 -35.531814,-7.47550939975563,0.0 -35.5316826,-7.47544479975563,0.0 -35.5315796,-7.47541729975563,0.0 -35.5314954,-7.47541779975563,0.0 -35.5314301,-7.47545559975563,0.0 -35.531374,-7.47546519975563,0.0 -35.5313225,-7.47545149975563,0.0 -35.5309336,-7.47535569975563,0.0 -35.5307838,-7.47533789975563,0.0 -35.5306429,-7.47524059975563,0.0 -35.5304647,-7.47517159975564,0.0 -35.5302638,-7.47520079975564,0.0 -35.5300812,-7.47517849975564,0.0 -35.5299919,-7.47510429975564,0.0 -35.5299122,-7.47507669975564,0.0 -35.5297531,-7.47506829975564,0.0 -35.5295616,-7.47512079975564,0.0 -35.5293888,-7.47518249975564,0.0 -35.5292862,-7.47522969975564,0.0 -35.5292303,-7.47528139975563,0.0 -35.5291702,-7.47539849975563,0.0 -35.5292038,-7.47553839975563,0.0 -35.5292043,-7.47564109975563,0.0 -35.5291911,-7.47578119975562,0.0 -35.5291081,-7.47598719975561,0.0 -35.5290152,-7.47610909975561,0.0 -35.5289035,-7.4761983997556,0.0 -35.5288663,-7.4762452997556,0.0 -35.5287825,-7.4763064997556,0.0 -35.5285957,-7.4763635997556,0.0 -35.5285585,-7.4764151997556,0.0 -35.5283678,-7.47659839975559,0.0 -35.5282837,-7.47661289975559,0.0 -35.5281527,-7.47661829975559,0.0 -35.5279419,-7.4765680997556,0.0 -35.5278159,-7.4765259997556,0.0 -35.5277497,-7.4765038997556,0.0 -35.5274736,-7.4764913997556,0.0 -35.5272123,-7.47660029975559,0.0 -35.5270258,-7.47671809975559,0.0 -35.5265894,-7.47729959975557,0.0 -35.5262827,-7.47764219975556,0.0 -35.5260964,-7.47780199975555,0.0 -35.5260127,-7.47789119975555,0.0 -35.5258734,-7.47806479975554,0.0 -35.5258126,-7.47807449975555,0.0 -35.5250979,-7.47824659975554,0.0 -35.5250233,-7.47829379975554,0.0 -35.524865,-7.47849069975553,0.0 -35.5248474,-7.47862629975553,0.0 -35.5247943,-7.47873859975553,0.0 -35.5247641,-7.47877149975552,0.0 -35.5247388,-7.47885099975552,0.0 -35.524765,-7.47893019975552,0.0 -35.5247679,-7.47903529975551,0.0 -35.524755,-7.47923609975551,0.0 -35.5246937,-7.4795562997555,0.0 -35.524629,-7.47969679975549,0.0 -35.5245478,-7.47981399975549,0.0 -35.5244335,-7.47985659975549,0.0 -35.5243142,-7.47986429975549,0.0 -35.5242441,-7.47987639975549,0.0 -35.5241133,-7.47991219975549,0.0 -35.5240409,-7.47991959975549,0.0 -35.5238936,-7.47993209975549,0.0 -35.5237298,-7.47992839975549,0.0 -35.5236455,-7.47990549975549,0.0 -35.5234436,-7.4797782997555,0.0 -35.5234199,-7.47973399975549,0.0 -35.5232957,-7.47968569975549,0.0 -35.5232293,-7.47966759975549,0.0 -35.5231949,-7.47965829975549,0.0 -35.5230449,-7.4795913997555,0.0 -35.5229366,-7.4794752997555,0.0 -35.5229363,-7.4794332997555,0.0 -35.5230011,-7.47930689975551,0.0 -35.523024,-7.47921339975551,0.0 -35.5229721,-7.47913899975551,0.0 -35.5228643,-7.47910219975551,0.0 -35.5226351,-7.47910819975551,0.0 -35.5224533,-7.47922129975551,0.0 -35.5223788,-7.47929639975551,0.0 -35.5222107,-7.4793393997555,0.0 -35.5221358,-7.4793397997555,0.0 -35.5220564,-7.47934959975551,0.0 -35.5218839,-7.4794626997555,0.0 -35.5218185,-7.4794723997555,0.0 -35.5216925,-7.4795244997555,0.0 -35.5215994,-7.4796043997555,0.0 -35.5215106,-7.4796235997555,0.0 -35.5213146,-7.47970409975549,0.0 -35.5210855,-7.4797426997555,0.0 -35.5209266,-7.47975759975549,0.0 -35.520819,-7.47976289975549,0.0 -35.5206878,-7.47973099975549,0.0 -35.5205987,-7.4796894997555,0.0 -35.5204347,-7.4796390997555,0.0 -35.5203553,-7.4796721997555,0.0 -35.5200891,-7.47974839975549,0.0 -35.5198042,-7.47982479975549,0.0 -35.5196169,-7.47979319975549,0.0 -35.5194481,-7.47972869975549,0.0 -35.5193258,-7.4796173997555,0.0 -35.5191376,-7.4794687997555,0.0 -35.5189493,-7.47922729975551,0.0 -35.5188695,-7.47918579975551,0.0 -35.5187619,-7.47918169975551,0.0 -35.5186777,-7.47918219975551,0.0 -35.518575,-7.47921549975551,0.0 -35.5183697,-7.47930529975551,0.0 -35.5183045,-7.47935709975551,0.0 -35.5181177,-7.4794141997555,0.0 -35.5179867,-7.4794148997555,0.0 -35.5178508,-7.4793829997555,0.0 -35.5177898,-7.47934129975551,0.0 -35.5177426,-7.47926689975551,0.0 -35.5176813,-7.47919719975551,0.0 -35.5176113,-7.47921159975551,0.0 -35.517518,-7.47925889975551,0.0 -35.5174436,-7.4793526997555,0.0 -35.5173737,-7.4793856997555,0.0 -35.5172895,-7.47939089975551,0.0 -35.5171266,-7.4795318997555,0.0 -35.5169451,-7.4797056997555,0.0 -35.5168055,-7.47984189975549,0.0 -35.5166703,-7.47991269975549,0.0 -35.5165399,-7.48002549975548,0.0 -35.5165124,-7.48011909975548,0.0 -35.5164753,-7.48017999975548,0.0 -35.5164054,-7.48022709975548,0.0 -35.5163683,-7.48028329975548,0.0 -35.5163032,-7.48035369975548,0.0 -35.5162102,-7.48044299975547,0.0 -35.516131,-7.48049939975547,0.0 -35.5160701,-7.48049979975547,0.0 -35.516047,-7.48054189975547,0.0 -35.5158837,-7.48062219975547,0.0 -35.5157809,-7.48064619975546,0.0 -35.5157576,-7.48065559975547,0.0 -35.5157112,-7.48073059975546,0.0 -35.5156272,-7.48076849975546,0.0 -35.5155344,-7.48088569975546,0.0 -35.515488,-7.48096069975545,0.0 -35.5154134,-7.48101249975545,0.0 -35.5152921,-7.48105989975545,0.0 -35.5149183,-7.48114139975545,0.0 -35.5147546,-7.48114229975545,0.0 -35.5146889,-7.48111929975545,0.0 -35.514553,-7.48106869975545,0.0 -35.5143887,-7.48097629975545,0.0 -35.514295,-7.48094409975546,0.0 -35.5141596,-7.48100559975545,0.0 -35.5140406,-7.48105529975545,0.0 -35.5139004,-7.48107949975545,0.0 -35.513739,-7.48108509975545,0.0 -35.5134955,-7.48103979975545,0.0 -35.5133619,-7.48099149975545,0.0 -35.5131355,-7.48107219975545,0.0 -35.5129692,-7.48145129975544,0.0 -35.5128574,-7.48153829975544,0.0 -35.5127093,-7.48181469975543,0.0 -35.5125323,-7.48193709975542,0.0 -35.512196,-7.48204639975542,0.0 -35.5118827,-7.48206679975542,0.0 -35.5117656,-7.48203949975542,0.0 -35.5116114,-7.48207299975542,0.0 -35.5115604,-7.48215269975542,0.0 -35.5115055,-7.48237249975541,0.0 -35.5115955,-7.4825680997554,0.0 -35.5117088,-7.4827448997554,0.0 -35.5117375,-7.48284739975539,0.0 -35.5117005,-7.48293169975539,0.0 -35.511304,-7.48317899975538,0.0 -35.5112623,-7.48320499975538,0.0 -35.5110755,-7.48325269975538,0.0 -35.5109076,-7.48334709975538,0.0 -35.510824,-7.48345729975537,0.0 -35.5107685,-7.48356499975537,0.0 -35.5106731,-7.48365189975537,0.0 -35.5105827,-7.48380649975536,0.0 -35.5105551,-7.48388369975536,0.0 -35.5104715,-7.48399159975536,0.0 -35.5104184,-7.48410629975535,0.0 -35.5102559,-7.48432429975535,0.0 -35.5101583,-7.48443929975534,0.0 -35.5100563,-7.48459629975534,0.0 -35.5100146,-7.48467819975533,0.0 -35.5097914,-7.48491529975533,0.0 -35.5096398,-7.48498149975533,0.0 -35.5095372,-7.48503809975533,0.0 -35.5094296,-7.48504339975533,0.0 -35.5092235,-7.48499789975533,0.0 -35.5091623,-7.48492349975533,0.0 -35.5089979,-7.48481239975533,0.0 -35.5087961,-7.48470619975533,0.0 -35.5087118,-7.48468799975533,0.0 -35.508637,-7.48470709975533,0.0 -35.5085482,-7.48471219975533,0.0 -35.5083232,-7.48462949975534,0.0 -35.5080834,-7.48442539975534,0.0 -35.5077133,-7.48433409975535,0.0 -35.5073531,-7.48434549975535,0.0 -35.5071539,-7.48428599975535,0.0 -35.5070226,-7.48421669975535,0.0 -35.5067512,-7.48421349975535,0.0 -35.5062283,-7.48440789975535,0.0 -35.5061593,-7.48460439975534,0.0 -35.5060762,-7.48480569975533,0.0 -35.5059127,-7.48484869975533,0.0 -35.5056176,-7.48478029975533,0.0 -35.5053868,-7.48451079975534,0.0 -35.5052922,-7.48431989975535,0.0 -35.5052861,-7.48408179975535,0.0 -35.5053876,-7.48381969975536,0.0 -35.505401,-7.48370759975537,0.0 -35.5053728,-7.48359799975537,0.0 -35.5053722,-7.48359569975537,0.0 -35.505339,-7.48350719975537,0.0 -35.5052685,-7.48346089975537,0.0 -35.5050858,-7.48340589975538,0.0 -35.5049361,-7.48340679975538,0.0 -35.5045995,-7.48362119975537,0.0 -35.5045072,-7.48367999975537,0.0 -35.5042779,-7.48367199975537,0.0 -35.5041281,-7.48363529975537,0.0 -35.4949265,-7.48391149975536,0.0 -35.4947924,-7.48523979975532,0.0 -35.4932498,-7.48749549975525,0.0 -35.4931183,-7.48861289975521,0.0 -35.4929587,-7.48996939975517,0.0 -35.4936573,-7.49081349975514,0.0 -35.4956364,-7.49087169975514,0.0 -35.4968589,-7.49122099975513,0.0 -35.4973181,-7.49196179975511,0.0 -35.4973429,-7.4920016997551,0.0 -35.4974301,-7.4921422997551,0.0 -35.4977273,-7.49323929975506,0.0 -35.4978719,-7.49359969975505,0.0 -35.4983826,-7.49487169975501,0.0 -35.4988473,-7.49624199975497,0.0 -35.4990498,-7.49751689975493,0.0 -35.4990672,-7.49783559975492,0.0 -35.4990681,-7.49785079975492,0.0 -35.4990856,-7.4981721997549,0.0 -35.4992882,-7.49881559975488,0.0 -35.4993234,-7.49888249975488,0.0 -35.4997409,-7.49967349975486,0.0 -35.4997859,-7.49971529975486,0.0 -35.5005043,-7.50038189975484,0.0 -35.5014284,-7.50203979975478,0.0 -35.5024835,-7.50393279975472,0.0 -35.5040079,-7.50797369975459,0.0 -35.5030191,-7.51113309975449,0.0 -35.5019269,-7.51251109975445,0.0 -35.5048297,-7.5140422997544,0.0 -35.5069907,-7.51518229975436,0.0 -35.5091839,-7.51749159975429,0.0 -35.5087934,-7.52208049975414,0.0 -35.5089965,-7.5234483997541,0.0 -35.510546,-7.526352499754,0.0 -35.510606,-7.52689529975399,0.0 -35.5107557,-7.52825089975395,0.0 -35.5114065,-7.53012149975388,0.0 -35.5124353,-7.53147069975384,0.0 -35.5166526,-7.53115129975385,0.0 -35.5166576,-7.53115089975385,0.0 -35.5197068,-7.53544599975372,0.0 -35.5211622,-7.5390686997536,0.0 -35.521378,-7.54117669975354,0.0 -35.5207763,-7.54781709975332,0.0 -35.5206802,-7.54797689975332,0.0 -35.5206739,-7.54798749975331,0.0 -35.5199093,-7.54926009975328,0.0 -35.5199153,-7.55038179975324,0.0 -35.5238076,-7.557959699753,0.0 -35.5241398,-7.55874899975297,0.0 -35.5241631,-7.55880419975297,0.0 -35.5243906,-7.55934489975295,0.0 -35.5252657,-7.56375789975281,0.0 -35.527211,-7.56996139975261,0.0 -35.5287299,-7.57175969975256,0.0 -35.5329116,-7.5736430997525,0.0 -35.534371,-7.57537099975244,0.0 -35.5372723,-7.58064339975227,0.0 -35.5372762,-7.58066539975227,0.0 -35.5373796,-7.58125719975226,0.0 -35.5377753,-7.58352149975218,0.0 -35.5378967,-7.58421599975216,0.0 -35.5378368,-7.58664109975208,0.0 -35.5363671,-7.58807779975203,0.0 -35.5358538,-7.58857959975202,0.0 -35.5309644,-7.59000879975198,0.0 -35.5278535,-7.59021099975197,0.0 -35.5278518,-7.59021049975197,0.0 -35.5239071,-7.589120099752,0.0 -35.5181477,-7.58494589975214,0.0 -35.518144,-7.58494599975214,0.0 -35.5151939,-7.58502099975213,0.0 -35.5152002,-7.5860282997521,0.0 -35.5179138,-7.58970029975199,0.0 -35.5180399,-7.58987089975198,0.0 -35.5211542,-7.59640599975177,0.0 -35.5219362,-7.59894839975169,0.0 -35.521482,-7.60052149975164,0.0 -35.5183165,-7.60396189975153,0.0 -35.5182119,-7.60415029975152,0.0 -35.5176285,-7.60520099975149,0.0 -35.5180992,-7.60643109975145,0.0 -35.5213969,-7.60602049975146,0.0 -35.5214001,-7.60602009975147,0.0 -35.5251116,-7.60678249975144,0.0 -35.5258108,-7.60756489975141,0.0 -35.5283423,-7.61467419975119,0.0 -35.5298619,-7.61657189975113,0.0 -35.5312099,-7.61931309975104,0.0 -35.531602,-7.62124659975098,0.0 -35.5316871,-7.62166609975097,0.0 -35.5304237,-7.62617959975082,0.0 -35.5196319,-7.64001749975038,0.0 -35.5162164,-7.64122209975034,0.0 -35.5150636,-7.64223719975031,0.0 -35.5150704,-7.64324719975028,0.0 -35.5155769,-7.64407739975025,0.0 -35.5155777,-7.64407859975025,0.0 -35.519212,-7.64333409975028,0.0 -35.519771,-7.64337429975027,0.0 -35.5220721,-7.64353999975027,0.0 -35.5220742,-7.64354019975027,0.0 -35.5258789,-7.64459719975023,0.0 -35.5269503,-7.64512129975022,0.0 -35.5280887,-7.6456781997502,0.0 -35.5297197,-7.64647609975017,0.0 -35.5315337,-7.64946029975008,0.0 -35.5321091,-7.65385489974994,0.0 -35.532812,-7.65481759974991,0.0 -35.5346121,-7.65548399974989,0.0 -35.5478996,-7.65733749974983,0.0 -35.5477297,-7.65854699974979,0.0 -35.5503022,-7.6611896997497,0.0 -35.5523369,-7.66125989974971,0.0 -35.5536925,-7.66029819974973,0.0 -35.5550731,-7.65931879974977,0.0 -35.5574711,-7.65960419974976,0.0 -35.5595634,-7.6613299997497,0.0 -35.5617617,-7.66086229974972,0.0 -35.562744,-7.66044129974973,0.0 -35.5632478,-7.65996049974975,0.0 -35.5639601,-7.65928079974977,0.0 -35.5640922,-7.65900299974978,0.0 -35.5640927,-7.65900089974978,0.0 -35.5644629,-7.6582195997498,0.0 -35.564878,-7.65780449974982,0.0 -35.5650183,-7.65750049974982,0.0 -35.5652551,-7.65726069974983,0.0 -35.5664865,-7.65710749974984,0.0 -35.5671348,-7.65702689974984,0.0 -35.5676143,-7.65727239974983,0.0 -35.5678101,-7.65773139974981,0.0 -35.56837,-7.65799879974981,0.0 -35.5685558,-7.65808749974981,0.0 -35.568655,-7.6581347997498,0.0 -35.5693004,-7.6582250997498,0.0 -35.5696766,-7.6582776997498,0.0 -35.5703271,-7.6583686997498,0.0 -35.5719233,-7.65796529974981,0.0 -35.5724846,-7.65717009974984,0.0 -35.5734434,-7.65471449974991,0.0 -35.5772087,-7.65485479974991,0.0 -35.5826578,-7.65126499975002,0.0 -35.584213,-7.65120649975002,0.0 -35.5865984,-7.65027099975005,0.0 -35.5876859,-7.65022429975005,0.0 -35.5884694,-7.65072709975004,0.0 -35.589323,-7.65145209975002,0.0 -35.5907469,-7.65240899974999,0.0 -35.5919657,-7.65326449974996,0.0 -35.5934931,-7.65358679974995,0.0 -35.5974887,-7.65433559974992,0.0 -35.6024301,-7.65435459974992,0.0 -35.6062187,-7.65365429974994,0.0 -35.6078687,-7.65341359974996,0.0 -35.6096622,-7.65377949974994,0.0 -35.6118708,-7.65454429974992,0.0 -35.6146193,-7.65630939974986,0.0 -35.6158283,-7.65894319974978,0.0 -35.6160347,-7.65939299974976,0.0 -35.6180452,-7.66169999974969,0.0 -35.619497,-7.66251339974966,0.0 -35.6194906,-7.66211899974968,0.0 -35.6200568,-7.6612911997497,0.0 -35.6205121,-7.66100389974971,0.0 -35.6210679,-7.66011009974974,0.0 -35.6211273,-7.66001459974974,0.0 -35.6211927,-7.65923319974977,0.0 -35.6212252,-7.65880599974978,0.0 -35.6213391,-7.65787059974981,0.0 -35.6215047,-7.65643689974986,0.0 -35.6280557,-7.64444639975024,0.0 -35.6280566,-7.64444469975024,0.0 -35.6289902,-7.64273589975029,0.0 -35.6301727,-7.64057169975036,0.0 -35.6304817,-7.6394333997504,0.0 -35.6314383,-7.63861379975042,0.0 -35.6314855,-7.63855619975043,0.0 -35.6319143,-7.63803379975044,0.0 -35.6320051,-7.63745549975046,0.0 -35.6325051,-7.63683989975048,0.0 -35.6332224,-7.6362395997505,0.0 -35.6338046,-7.63598839975051,0.0 -35.6342589,-7.63555199975052,0.0 -35.6349447,-7.63513619975054,0.0 -35.6352733,-7.63473309975055,0.0 -35.6357541,-7.6332024997506,0.0 -35.6357946,-7.6330735997506,0.0 -35.6359399,-7.63207779975063,0.0 -35.6355795,-7.63167379975064,0.0 -35.635287,-7.63151909975065,0.0 -35.6349393,-7.63133519975066,0.0 -35.6342147,-7.63131229975066,0.0 -35.63404,-7.63112899975066,0.0 -35.6341154,-7.63079339975067,0.0 -35.6342818,-7.63050139975068,0.0 -35.6343113,-7.6299377997507,0.0 -35.6343962,-7.62941619975072,0.0 -35.6343551,-7.62877129975074,0.0 -35.6343478,-7.62865509975074,0.0 -35.6343874,-7.62842509975075,0.0 -35.6346199,-7.62814659975076,0.0 -35.6347988,-7.62802019975076,0.0 -35.6348189,-7.62800599975076,0.0 -35.6348883,-7.62795689975076,0.0 -35.6349777,-7.62789369975077,0.0 -35.6350446,-7.62774709975077,0.0 -35.6348686,-7.62756229975078,0.0 -35.6346772,-7.62744089975078,0.0 -35.6344858,-7.62731949975079,0.0 -35.6343092,-7.62701679975079,0.0 -35.6342513,-7.6268780997508,0.0 -35.6341307,-7.62658949975081,0.0 -35.6340789,-7.62646539975081,0.0 -35.63394,-7.62624569975082,0.0 -35.6338977,-7.62598489975083,0.0 -35.6338876,-7.62596069975083,0.0 -35.6338405,-7.62584749975083,0.0 -35.6337833,-7.62571019975084,0.0 -35.6335072,-7.62545129975084,0.0 -35.6332523,-7.62530529975085,0.0 -35.6330444,-7.62503359975086,0.0 -35.6446732,-7.62506409975086,0.0 -35.645622,-7.62457779975087,0.0 -35.6466319,-7.62435559975088,0.0 -35.6506271,-7.62228819975095,0.0 -35.6515922,-7.62162109975097,0.0 -35.653922,-7.62114459975099,0.0 -35.6548465,-7.620665599751,0.0 -35.6549926,-7.62023749975101,0.0 -35.6550388,-7.62020379975101,0.0 -35.6551962,-7.62007789975102,0.0 -35.6552543,-7.61987359975102,0.0 -35.6553498,-7.61933369975104,0.0 -35.6554018,-7.61922159975104,0.0 -35.6554933,-7.61908949975105,0.0 -35.6555717,-7.61897069975105,0.0 -35.6557744,-7.61869979975106,0.0 -35.6559386,-7.61861319975106,0.0 -35.6562873,-7.61850589975107,0.0 -35.6565043,-7.61841249975107,0.0 -35.6566411,-7.61815509975108,0.0 -35.6566397,-7.61791839975109,0.0 -35.6566039,-7.6174581997511,0.0 -35.6565488,-7.61707709975111,0.0 -35.6565766,-7.61686339975112,0.0 -35.6545895,-7.61347859975123,0.0 -35.6519464,-7.61252679975126,0.0 -35.6511518,-7.61285679975125,0.0 -35.6500304,-7.61332259975123,0.0 -35.6489985,-7.61375109975122,0.0 -35.6475335,-7.6143595997512,0.0 -35.6442119,-7.61312649975124,0.0 -35.6404762,-7.61204339975127,0.0 -35.6396803,-7.61181259975128,0.0 -35.6371427,-7.61232609975127,0.0 -35.6365559,-7.61244489975126,0.0 -35.6333737,-7.61308879975124,0.0 -35.6280115,-7.61214029975127,0.0 -35.6241941,-7.60950959975135,0.0 -35.6208624,-7.60730459975142,0.0 -35.6181329,-7.60631419975145,0.0 -35.6160156,-7.60695259975143,0.0 -35.6158973,-7.60698829975143,0.0 -35.6158731,-7.60707459975143,0.0 -35.6155094,-7.60837269975139,0.0 -35.6151252,-7.60974389975135,0.0 -35.6144507,-7.61292079975125,0.0 -35.6142024,-7.61409059975121,0.0 -35.612092,-7.61711539975111,0.0 -35.6116448,-7.6172186997511,0.0 -35.6080011,-7.61806039975108,0.0 -35.6066814,-7.61836529975107,0.0 -35.603065,-7.61920069975104,0.0 -35.599801,-7.61945809975104,0.0 -35.5973613,-7.61945809975104,0.0 -35.5955315,-7.61928379975104,0.0 -35.5942245,-7.61727969975111,0.0 -35.5924818,-7.61553709975116,0.0 -35.591349,-7.61379439975122,0.0 -35.5896935,-7.61039619975133,0.0 -35.5889964,-7.60682369975144,0.0 -35.5884736,-7.60420969975152,0.0 -35.5896935,-7.60246699975158,0.0</coordinates>
</LinearRing>
</outerBoundaryIs>
</Polygon>
</MultiGeometry>
</Placemark>
</Folder>
</Document></kml>
