<?xml version='1.0' encoding='UTF-8'?>
<kml xmlns:xsd="http://www.w3.org/2001/XMLSchema" xmlns:gx="http://www.google.com/kml/ext/2.2" xmlns:atom="http://www.w3.org/2005/Atom" xmlns="http://www.opengis.net/kml/2.2">
<Document>
<name>nova_iorque_2107308_localidades_2022</name>
<visibility>1</visibility>
<Schema name="Povoados" id="kml_schema_ft_Povoados">
<SimpleField type="xsd:string" name="CD_UF">
<displayName>CD_UF</displayName>
</SimpleField>
<SimpleField type="xsd:string" name="NM_UF">
<displayName>NM_UF</displayName>
</SimpleField>
<SimpleField type="xsd:string" name="SIGLA_UF">
<displayName>SIGLA_UF</displayName>
</SimpleField>
<SimpleField type="xsd:string" name="CD_MUN">
<displayName>CD_MUN</displayName>
</SimpleField>
<SimpleField type="xsd:string" name="NM_MUN">
<displayName>NM_MUN</displayName>
</SimpleField>
<SimpleField type="xsd:string" name="CD_RGINT">
<displayName>CD_RGINT</displayName>
</SimpleField>
<SimpleField type="xsd:string" name="NM_RGINT">
<displayName>NM_RGINT</displayName>
</SimpleField>
<SimpleField type="xsd:string" name="CD_RGI">
<displayName>CD_RGI</displayName>
</SimpleField>
<SimpleField type="xsd:string" name="NM_RGI">
<displayName>NM_RGI</displayName>
</SimpleField>
<SimpleField type="xsd:string" name="CT_LOCALIDADE">
<displayName>CT_LOCALIDADE</displayName>
</SimpleField>
<SimpleField type="xsd:string" name="CD_LOCALIDADE">
<displayName>CD_LOCALIDADE</displayName>
</SimpleField>
<SimpleField type="xsd:string" name="NM_LOCALIDADE">
<displayName>NM_LOCALIDADE</displayName>
</SimpleField>
<SimpleField type="xsd:string" name="LAT_LOCALIDADE">
<displayName>LAT_LOCALIDADE</displayName>
</SimpleField>
<SimpleField type="xsd:string" name="LONG_LOCALIDADE">
<displayName>LONG_LOCALIDADE</displayName>
</SimpleField>
</Schema>
<Schema name="Localidades" id="kml_schema_ft_Localidades">
<SimpleField type="xsd:string" name="CD_UF">
<displayName>CD_UF</displayName>
</SimpleField>
<SimpleField type="xsd:string" name="NM_UF">
<displayName>NM_UF</displayName>
</SimpleField>
<SimpleField type="xsd:string" name="SIGLA_UF">
<displayName>SIGLA_UF</displayName>
</SimpleField>
<SimpleField type="xsd:string" name="CD_MUN">
<displayName>CD_MUN</displayName>
</SimpleField>
<SimpleField type="xsd:string" name="NM_MUN">
<displayName>NM_MUN</displayName>
</SimpleField>
<SimpleField type="xsd:string" name="CD_RGINT">
<displayName>CD_RGINT</displayName>
</SimpleField>
<SimpleField type="xsd:string" name="NM_RGINT">
<displayName>NM_RGINT</displayName>
</SimpleField>
<SimpleField type="xsd:string" name="CD_RGI">
<displayName>CD_RGI</displayName>
</SimpleField>
<SimpleField type="xsd:string" name="NM_RGI">
<displayName>NM_RGI</displayName>
</SimpleField>
<SimpleField type="xsd:string" name="CT_LOCALIDADE">
<displayName>CT_LOCALIDADE</displayName>
</SimpleField>
<SimpleField type="xsd:string" name="SCT_LOCALIDADE">
<displayName>SCT_LOCALIDADE</displayName>
</SimpleField>
<SimpleField type="xsd:string" name="CD_LOCALIDADE">
<displayName>CD_LOCALIDADE</displayName>
</SimpleField>
<SimpleField type="xsd:string" name="NM_LOCALIDADE">
<displayName>NM_LOCALIDADE</displayName>
</SimpleField>
</Schema>
<Schema name="01. Cidade" id="kml_schema_ft_01._Cidade">
<SimpleField type="xsd:string" name="CD_UF">
<displayName>CD_UF</displayName>
</SimpleField>
<SimpleField type="xsd:string" name="NM_UF">
<displayName>NM_UF</displayName>
</SimpleField>
<SimpleField type="xsd:string" name="SIGLA_UF">
<displayName>SIGLA_UF</displayName>
</SimpleField>
<SimpleField type="xsd:string" name="CD_MUN">
<displayName>CD_MUN</displayName>
</SimpleField>
<SimpleField type="xsd:string" name="NM_MUN">
<displayName>NM_MUN</displayName>
</SimpleField>
<SimpleField type="xsd:string" name="CD_RGINT">
<displayName>CD_RGINT</displayName>
</SimpleField>
<SimpleField type="xsd:string" name="NM_RGINT">
<displayName>NM_RGINT</displayName>
</SimpleField>
<SimpleField type="xsd:string" name="CD_RGI">
<displayName>CD_RGI</displayName>
</SimpleField>
<SimpleField type="xsd:string" name="NM_RGI">
<displayName>NM_RGI</displayName>
</SimpleField>
<SimpleField type="xsd:string" name="CT_LOCALIDADE">
<displayName>CT_LOCALIDADE</displayName>
</SimpleField>
<SimpleField type="xsd:string" name="SCT_LOCALIDADE">
<displayName>SCT_LOCALIDADE</displayName>
</SimpleField>
<SimpleField type="xsd:string" name="CD_LOCALIDADE">
<displayName>CD_LOCALIDADE</displayName>
</SimpleField>
<SimpleField type="xsd:string" name="NM_LOCALIDADE">
<displayName>NM_LOCALIDADE</displayName>
</SimpleField>
<SimpleField type="xsd:string" name="LAT_LOCALIDADE">
<displayName>LAT_LOCALIDADE</displayName>
</SimpleField>
<SimpleField type="xsd:string" name="LONG_LOCALIDADE">
<displayName>LONG_LOCALIDADE</displayName>
</SimpleField>
</Schema>
<Schema name="Município" id="kml_schema_ft_Município">
<SimpleField type="xsd:string" name="CD_UF">
<displayName>CD_UF</displayName>
</SimpleField>
<SimpleField type="xsd:string" name="NM_UF">
<displayName>NM_UF</displayName>
</SimpleField>
<SimpleField type="xsd:string" name="CD_MUN">
<displayName>CD_MUN</displayName>
</SimpleField>
<SimpleField type="xsd:string" name="NM_MUN">
<displayName>NM_MUN</displayName>
</SimpleField>
<SimpleField type="xsd:string" name="CD_RGINT">
<displayName>CD_RGINT</displayName>
</SimpleField>
<SimpleField type="xsd:string" name="NM_RGINT">
<displayName>NM_RGINT</displayName>
</SimpleField>
<SimpleField type="xsd:string" name="CD_RGI">
<displayName>CD_RGI</displayName>
</SimpleField>
<SimpleField type="xsd:string" name="NM_RGI">
<displayName>NM_RGI</displayName>
</SimpleField>
</Schema>
<Folder id="01. Cidade">
<name>01. Cidade</name>
<Folder id="01.03. Sede Municipal">
<name>01.03. Sede Municipal</name>
<Placemark id="01.03. Sede Municipal">
<name>Nova Iorque [2107308]</name>
<visibility>1</visibility>
<snippet> </snippet>
<description>&lt;center&gt;&lt;table&gt;&lt;tr&gt;&lt;th colspan='2' align='center'&gt;&lt;em&gt;Atributos&lt;/em&gt;&lt;/th&gt;&lt;/tr&gt;&lt;tr bgcolor="#E3E3F3"&gt;
&lt;th&gt;CD_UF&lt;/th&gt;
&lt;td&gt;21&lt;/td&gt;
&lt;/tr&gt;&lt;tr bgcolor=""&gt;
&lt;th&gt;NM_UF&lt;/th&gt;
&lt;td&gt;Maranhão&lt;/td&gt;
&lt;/tr&gt;&lt;tr bgcolor="#E3E3F3"&gt;
&lt;th&gt;SIGLA_UF&lt;/th&gt;
&lt;td&gt;MA&lt;/td&gt;
&lt;/tr&gt;&lt;tr bgcolor=""&gt;
&lt;th&gt;CD_MUN&lt;/th&gt;
&lt;td&gt;2107308&lt;/td&gt;
&lt;/tr&gt;&lt;tr bgcolor="#E3E3F3"&gt;
&lt;th&gt;NM_MUN&lt;/th&gt;
&lt;td&gt;Nova Iorque&lt;/td&gt;
&lt;/tr&gt;&lt;tr bgcolor=""&gt;
&lt;th&gt;CD_RGINT&lt;/th&gt;
&lt;td&gt;2104&lt;/td&gt;
&lt;/tr&gt;&lt;tr bgcolor="#E3E3F3"&gt;
&lt;th&gt;NM_RGINT&lt;/th&gt;
&lt;td&gt;Presidente Dutra&lt;/td&gt;
&lt;/tr&gt;&lt;tr bgcolor=""&gt;
&lt;th&gt;CD_RGI&lt;/th&gt;
&lt;td&gt;210017&lt;/td&gt;
&lt;/tr&gt;&lt;tr bgcolor="#E3E3F3"&gt;
&lt;th&gt;NM_RGI&lt;/th&gt;
&lt;td&gt;São João dos Patos&lt;/td&gt;
&lt;/tr&gt;&lt;tr bgcolor=""&gt;
&lt;th&gt;CT_LOCALIDADE&lt;/th&gt;
&lt;td&gt;Cidade&lt;/td&gt;
&lt;/tr&gt;&lt;tr bgcolor="#E3E3F3"&gt;
&lt;th&gt;SCT_LOCALIDADE&lt;/th&gt;
&lt;td&gt;Sede Municipal&lt;/td&gt;
&lt;/tr&gt;&lt;tr bgcolor=""&gt;
&lt;th&gt;CD_LOCALIDADE&lt;/th&gt;
&lt;td&gt;2107308&lt;/td&gt;
&lt;/tr&gt;&lt;tr bgcolor="#E3E3F3"&gt;
&lt;th&gt;NM_LOCALIDADE&lt;/th&gt;
&lt;td&gt;Nova Iorque&lt;/td&gt;
&lt;/tr&gt;&lt;tr bgcolor=""&gt;
&lt;th&gt;LAT_LOCALIDADE&lt;/th&gt;
&lt;td&gt;-6.7361&lt;/td&gt;
&lt;/tr&gt;&lt;tr bgcolor="#E3E3F3"&gt;
&lt;th&gt;LONG_LOCALIDADE&lt;/th&gt;
&lt;td&gt;-44.0461&lt;/td&gt;
&lt;/tr&gt;&lt;/table&gt;&lt;/center&gt;</description>
<Style>
<IconStyle>
<color>ff00aaff</color>
<scale>1.0</scale>
<Icon>
<href>http://maps.google.com/mapfiles/kml/shapes/placemark_circle.png</href>
</Icon>
</IconStyle>
<LabelStyle>
<scale>1.0</scale>
</LabelStyle>
<LineStyle>
<color>ffffffff</color>
<width>3</width>
<gx:labelVisibility>1</gx:labelVisibility>
</LineStyle>
<PolyStyle>
<color>00ffffff</color>
</PolyStyle>
</Style>
<ExtendedData>
<SchemaData schemaUrl="#kml_schema_ft_01._Cidade">
<SimpleData name="CD_UF">21</SimpleData>
<SimpleData name="NM_UF">Maranhão</SimpleData>
<SimpleData name="SIGLA_UF">MA</SimpleData>
<SimpleData name="CD_MUN">2107308</SimpleData>
<SimpleData name="NM_MUN">Nova Iorque</SimpleData>
<SimpleData name="CD_RGINT">2104</SimpleData>
<SimpleData name="NM_RGINT">Presidente Dutra</SimpleData>
<SimpleData name="CD_RGI">210017</SimpleData>
<SimpleData name="NM_RGI">São João dos Patos</SimpleData>
<SimpleData name="CT_LOCALIDADE">Cidade</SimpleData>
<SimpleData name="SCT_LOCALIDADE">Sede Municipal</SimpleData>
<SimpleData name="CD_LOCALIDADE">2107308</SimpleData>
<SimpleData name="NM_LOCALIDADE">Nova Iorque</SimpleData>
<SimpleData name="LAT_LOCALIDADE">-6.7361</SimpleData>
<SimpleData name="LONG_LOCALIDADE">-44.0461</SimpleData>
</SchemaData>
</ExtendedData>
<Point>
<extrude>0</extrude>
<coordinates>-44.0461,-6.73609999977932,0.0</coordinates>
</Point>
</Placemark>
</Folder>
</Folder>
<Folder id="06. Povoados">
<name>06. Povoados</name>
<Placemark id="06. Povoados">
<name>Chapada dos Marcos [210730800001]</name>
<visibility>1</visibility>
<snippet> </snippet>
<description>&lt;center&gt;&lt;table&gt;&lt;tr&gt;&lt;th colspan='2' align='center'&gt;&lt;em&gt;Atributos&lt;/em&gt;&lt;/th&gt;&lt;/tr&gt;&lt;tr bgcolor="#E3E3F3"&gt;
&lt;th&gt;CD_UF&lt;/th&gt;
&lt;td&gt;21&lt;/td&gt;
&lt;/tr&gt;&lt;tr bgcolor=""&gt;
&lt;th&gt;NM_UF&lt;/th&gt;
&lt;td&gt;Maranhão&lt;/td&gt;
&lt;/tr&gt;&lt;tr bgcolor="#E3E3F3"&gt;
&lt;th&gt;SIGLA_UF&lt;/th&gt;
&lt;td&gt;MA&lt;/td&gt;
&lt;/tr&gt;&lt;tr bgcolor=""&gt;
&lt;th&gt;CD_MUN&lt;/th&gt;
&lt;td&gt;2107308&lt;/td&gt;
&lt;/tr&gt;&lt;tr bgcolor="#E3E3F3"&gt;
&lt;th&gt;NM_MUN&lt;/th&gt;
&lt;td&gt;Nova Iorque&lt;/td&gt;
&lt;/tr&gt;&lt;tr bgcolor=""&gt;
&lt;th&gt;CD_RGINT&lt;/th&gt;
&lt;td&gt;2104&lt;/td&gt;
&lt;/tr&gt;&lt;tr bgcolor="#E3E3F3"&gt;
&lt;th&gt;NM_RGINT&lt;/th&gt;
&lt;td&gt;Presidente Dutra&lt;/td&gt;
&lt;/tr&gt;&lt;tr bgcolor=""&gt;
&lt;th&gt;CD_RGI&lt;/th&gt;
&lt;td&gt;210017&lt;/td&gt;
&lt;/tr&gt;&lt;tr bgcolor="#E3E3F3"&gt;
&lt;th&gt;NM_RGI&lt;/th&gt;
&lt;td&gt;São João dos Patos&lt;/td&gt;
&lt;/tr&gt;&lt;tr bgcolor=""&gt;
&lt;th&gt;CT_LOCALIDADE&lt;/th&gt;
&lt;td&gt;Povoado&lt;/td&gt;
&lt;/tr&gt;&lt;tr bgcolor="#E3E3F3"&gt;
&lt;th&gt;CD_LOCALIDADE&lt;/th&gt;
&lt;td&gt;210730800001&lt;/td&gt;
&lt;/tr&gt;&lt;tr bgcolor=""&gt;
&lt;th&gt;NM_LOCALIDADE&lt;/th&gt;
&lt;td&gt;Chapada dos Marcos&lt;/td&gt;
&lt;/tr&gt;&lt;tr bgcolor="#E3E3F3"&gt;
&lt;th&gt;LAT_LOCALIDADE&lt;/th&gt;
&lt;td&gt;-6.5799&lt;/td&gt;
&lt;/tr&gt;&lt;tr bgcolor=""&gt;
&lt;th&gt;LONG_LOCALIDADE&lt;/th&gt;
&lt;td&gt;-43.853&lt;/td&gt;
&lt;/tr&gt;&lt;/table&gt;&lt;/center&gt;</description>
<Style>
<IconStyle>
<color>ff00ff54</color>
<scale>0.8</scale>
<Icon>
<href>http://maps.google.com/mapfiles/kml/shapes/placemark_circle.png</href>
</Icon>
</IconStyle>
<LabelStyle>
<scale>0.8</scale>
</LabelStyle>
<LineStyle>
<color>72ff54ff</color>
<width>1.0</width>
<gx:labelVisibility>1</gx:labelVisibility>
</LineStyle>
<PolyStyle>
<color>66ff54ff</color>
</PolyStyle>
</Style>
<ExtendedData>
<SchemaData schemaUrl="#kml_schema_ft_Povoados">
<SimpleData name="CD_UF">21</SimpleData>
<SimpleData name="NM_UF">Maranhão</SimpleData>
<SimpleData name="SIGLA_UF">MA</SimpleData>
<SimpleData name="CD_MUN">2107308</SimpleData>
<SimpleData name="NM_MUN">Nova Iorque</SimpleData>
<SimpleData name="CD_RGINT">2104</SimpleData>
<SimpleData name="NM_RGINT">Presidente Dutra</SimpleData>
<SimpleData name="CD_RGI">210017</SimpleData>
<SimpleData name="NM_RGI">São João dos Patos</SimpleData>
<SimpleData name="CT_LOCALIDADE">Povoado</SimpleData>
<SimpleData name="CD_LOCALIDADE">210730800001</SimpleData>
<SimpleData name="NM_LOCALIDADE">Chapada dos Marcos</SimpleData>
<SimpleData name="LAT_LOCALIDADE">-6.5799</SimpleData>
<SimpleData name="LONG_LOCALIDADE">-43.853</SimpleData>
</SchemaData>
</ExtendedData>
<Point>
<extrude>0</extrude>
<coordinates>-43.8529785980392,-6.57987142135296,0.0</coordinates>
</Point>
</Placemark>
</Folder>
<Folder id="12. Outras Localidades">
<name>12. Outras Localidades</name>
<Placemark id="12. Outras Localidades">
<name>Espora [210730800002]</name>
<visibility>1</visibility>
<snippet> </snippet>
<description>&lt;center&gt;&lt;table&gt;&lt;tr&gt;&lt;th colspan='2' align='center'&gt;&lt;em&gt;Attributes&lt;/em&gt;&lt;/th&gt;&lt;/tr&gt;&lt;tr bgcolor="#E3E3F3"&gt;
&lt;th&gt;CD_UF&lt;/th&gt;
&lt;td&gt;21&lt;/td&gt;
&lt;/tr&gt;&lt;tr bgcolor=""&gt;
&lt;th&gt;NM_UF&lt;/th&gt;
&lt;td&gt;Maranhão&lt;/td&gt;
&lt;/tr&gt;&lt;tr bgcolor="#E3E3F3"&gt;
&lt;th&gt;SIGLA_UF&lt;/th&gt;
&lt;td&gt;MA&lt;/td&gt;
&lt;/tr&gt;&lt;tr bgcolor=""&gt;
&lt;th&gt;CD_MUN&lt;/th&gt;
&lt;td&gt;2107308&lt;/td&gt;
&lt;/tr&gt;&lt;tr bgcolor="#E3E3F3"&gt;
&lt;th&gt;NM_MUN&lt;/th&gt;
&lt;td&gt;Nova Iorque&lt;/td&gt;
&lt;/tr&gt;&lt;tr bgcolor=""&gt;
&lt;th&gt;CD_RGINT&lt;/th&gt;
&lt;td&gt;2104&lt;/td&gt;
&lt;/tr&gt;&lt;tr bgcolor="#E3E3F3"&gt;
&lt;th&gt;NM_RGINT&lt;/th&gt;
&lt;td&gt;Presidente Dutra&lt;/td&gt;
&lt;/tr&gt;&lt;tr bgcolor=""&gt;
&lt;th&gt;CD_RGI&lt;/th&gt;
&lt;td&gt;210017&lt;/td&gt;
&lt;/tr&gt;&lt;tr bgcolor="#E3E3F3"&gt;
&lt;th&gt;NM_RGI&lt;/th&gt;
&lt;td&gt;São João dos Patos&lt;/td&gt;
&lt;/tr&gt;&lt;tr bgcolor=""&gt;
&lt;th&gt;CT_LOCALIDADE&lt;/th&gt;
&lt;td&gt;Outras Localidades&lt;/td&gt;
&lt;/tr&gt;&lt;tr bgcolor="#E3E3F3"&gt;
&lt;th&gt;SCT_LOCALIDADE&lt;/th&gt;
&lt;td&gt;&lt;/td&gt;
&lt;/tr&gt;&lt;tr bgcolor=""&gt;
&lt;th&gt;CD_LOCALIDADE&lt;/th&gt;
&lt;td&gt;210730800002&lt;/td&gt;
&lt;/tr&gt;&lt;tr bgcolor="#E3E3F3"&gt;
&lt;th&gt;NM_LOCALIDADE&lt;/th&gt;
&lt;td&gt;Espora&lt;/td&gt;
&lt;/tr&gt;&lt;/table&gt;&lt;/center&gt;</description>
<Style>
<IconStyle>
<color>ff0069d3</color>
<scale>0.6</scale>
<Icon>
<href>http://maps.google.com/mapfiles/kml/shapes/placemark_circle.png</href>
</Icon>
</IconStyle>
<LabelStyle>
<scale>0.6</scale>
</LabelStyle>
<LineStyle>
<width>1.0</width>
<gx:labelVisibility>1</gx:labelVisibility>
</LineStyle>
</Style>
<ExtendedData>
<SchemaData schemaUrl="#kml_schema_ft_Localidades">
<SimpleData name="CD_UF">21</SimpleData>
<SimpleData name="NM_UF">Maranhão</SimpleData>
<SimpleData name="SIGLA_UF">MA</SimpleData>
<SimpleData name="CD_MUN">2107308</SimpleData>
<SimpleData name="NM_MUN">Nova Iorque</SimpleData>
<SimpleData name="CD_RGINT">2104</SimpleData>
<SimpleData name="NM_RGINT">Presidente Dutra</SimpleData>
<SimpleData name="CD_RGI">210017</SimpleData>
<SimpleData name="NM_RGI">São João dos Patos</SimpleData>
<SimpleData name="CT_LOCALIDADE">Outras Localidades</SimpleData>
<SimpleData name="CD_LOCALIDADE">210730800002</SimpleData>
<SimpleData name="NM_LOCALIDADE">Espora</SimpleData>
</SchemaData>
</ExtendedData>
<Point>
<extrude>0</extrude>
<coordinates>-43.9983648,-6.75081369977884,0.0</coordinates>
</Point>
</Placemark>
<Placemark id="12. Outras Localidades">
<name>Unha de Gato [210730800003]</name>
<visibility>1</visibility>
<snippet> </snippet>
<description>&lt;center&gt;&lt;table&gt;&lt;tr&gt;&lt;th colspan='2' align='center'&gt;&lt;em&gt;Attributes&lt;/em&gt;&lt;/th&gt;&lt;/tr&gt;&lt;tr bgcolor="#E3E3F3"&gt;
&lt;th&gt;CD_UF&lt;/th&gt;
&lt;td&gt;21&lt;/td&gt;
&lt;/tr&gt;&lt;tr bgcolor=""&gt;
&lt;th&gt;NM_UF&lt;/th&gt;
&lt;td&gt;Maranhão&lt;/td&gt;
&lt;/tr&gt;&lt;tr bgcolor="#E3E3F3"&gt;
&lt;th&gt;SIGLA_UF&lt;/th&gt;
&lt;td&gt;MA&lt;/td&gt;
&lt;/tr&gt;&lt;tr bgcolor=""&gt;
&lt;th&gt;CD_MUN&lt;/th&gt;
&lt;td&gt;2107308&lt;/td&gt;
&lt;/tr&gt;&lt;tr bgcolor="#E3E3F3"&gt;
&lt;th&gt;NM_MUN&lt;/th&gt;
&lt;td&gt;Nova Iorque&lt;/td&gt;
&lt;/tr&gt;&lt;tr bgcolor=""&gt;
&lt;th&gt;CD_RGINT&lt;/th&gt;
&lt;td&gt;2104&lt;/td&gt;
&lt;/tr&gt;&lt;tr bgcolor="#E3E3F3"&gt;
&lt;th&gt;NM_RGINT&lt;/th&gt;
&lt;td&gt;Presidente Dutra&lt;/td&gt;
&lt;/tr&gt;&lt;tr bgcolor=""&gt;
&lt;th&gt;CD_RGI&lt;/th&gt;
&lt;td&gt;210017&lt;/td&gt;
&lt;/tr&gt;&lt;tr bgcolor="#E3E3F3"&gt;
&lt;th&gt;NM_RGI&lt;/th&gt;
&lt;td&gt;São João dos Patos&lt;/td&gt;
&lt;/tr&gt;&lt;tr bgcolor=""&gt;
&lt;th&gt;CT_LOCALIDADE&lt;/th&gt;
&lt;td&gt;Outras Localidades&lt;/td&gt;
&lt;/tr&gt;&lt;tr bgcolor="#E3E3F3"&gt;
&lt;th&gt;SCT_LOCALIDADE&lt;/th&gt;
&lt;td&gt;&lt;/td&gt;
&lt;/tr&gt;&lt;tr bgcolor=""&gt;
&lt;th&gt;CD_LOCALIDADE&lt;/th&gt;
&lt;td&gt;210730800003&lt;/td&gt;
&lt;/tr&gt;&lt;tr bgcolor="#E3E3F3"&gt;
&lt;th&gt;NM_LOCALIDADE&lt;/th&gt;
&lt;td&gt;Unha de Gato&lt;/td&gt;
&lt;/tr&gt;&lt;/table&gt;&lt;/center&gt;</description>
<Style>
<IconStyle>
<color>ff0069d3</color>
<scale>0.6</scale>
<Icon>
<href>http://maps.google.com/mapfiles/kml/shapes/placemark_circle.png</href>
</Icon>
</IconStyle>
<LabelStyle>
<scale>0.6</scale>
</LabelStyle>
<LineStyle>
<width>1.0</width>
<gx:labelVisibility>1</gx:labelVisibility>
</LineStyle>
</Style>
<ExtendedData>
<SchemaData schemaUrl="#kml_schema_ft_Localidades">
<SimpleData name="CD_UF">21</SimpleData>
<SimpleData name="NM_UF">Maranhão</SimpleData>
<SimpleData name="SIGLA_UF">MA</SimpleData>
<SimpleData name="CD_MUN">2107308</SimpleData>
<SimpleData name="NM_MUN">Nova Iorque</SimpleData>
<SimpleData name="CD_RGINT">2104</SimpleData>
<SimpleData name="NM_RGINT">Presidente Dutra</SimpleData>
<SimpleData name="CD_RGI">210017</SimpleData>
<SimpleData name="NM_RGI">São João dos Patos</SimpleData>
<SimpleData name="CT_LOCALIDADE">Outras Localidades</SimpleData>
<SimpleData name="CD_LOCALIDADE">210730800003</SimpleData>
<SimpleData name="NM_LOCALIDADE">Unha de Gato</SimpleData>
</SchemaData>
</ExtendedData>
<Point>
<extrude>0</extrude>
<coordinates>-43.9334782,-6.61668369978316,0.0</coordinates>
</Point>
</Placemark>
<Placemark id="12. Outras Localidades">
<name>Boa Vista [210730800004]</name>
<visibility>1</visibility>
<snippet> </snippet>
<description>&lt;center&gt;&lt;table&gt;&lt;tr&gt;&lt;th colspan='2' align='center'&gt;&lt;em&gt;Attributes&lt;/em&gt;&lt;/th&gt;&lt;/tr&gt;&lt;tr bgcolor="#E3E3F3"&gt;
&lt;th&gt;CD_UF&lt;/th&gt;
&lt;td&gt;21&lt;/td&gt;
&lt;/tr&gt;&lt;tr bgcolor=""&gt;
&lt;th&gt;NM_UF&lt;/th&gt;
&lt;td&gt;Maranhão&lt;/td&gt;
&lt;/tr&gt;&lt;tr bgcolor="#E3E3F3"&gt;
&lt;th&gt;SIGLA_UF&lt;/th&gt;
&lt;td&gt;MA&lt;/td&gt;
&lt;/tr&gt;&lt;tr bgcolor=""&gt;
&lt;th&gt;CD_MUN&lt;/th&gt;
&lt;td&gt;2107308&lt;/td&gt;
&lt;/tr&gt;&lt;tr bgcolor="#E3E3F3"&gt;
&lt;th&gt;NM_MUN&lt;/th&gt;
&lt;td&gt;Nova Iorque&lt;/td&gt;
&lt;/tr&gt;&lt;tr bgcolor=""&gt;
&lt;th&gt;CD_RGINT&lt;/th&gt;
&lt;td&gt;2104&lt;/td&gt;
&lt;/tr&gt;&lt;tr bgcolor="#E3E3F3"&gt;
&lt;th&gt;NM_RGINT&lt;/th&gt;
&lt;td&gt;Presidente Dutra&lt;/td&gt;
&lt;/tr&gt;&lt;tr bgcolor=""&gt;
&lt;th&gt;CD_RGI&lt;/th&gt;
&lt;td&gt;210017&lt;/td&gt;
&lt;/tr&gt;&lt;tr bgcolor="#E3E3F3"&gt;
&lt;th&gt;NM_RGI&lt;/th&gt;
&lt;td&gt;São João dos Patos&lt;/td&gt;
&lt;/tr&gt;&lt;tr bgcolor=""&gt;
&lt;th&gt;CT_LOCALIDADE&lt;/th&gt;
&lt;td&gt;Outras Localidades&lt;/td&gt;
&lt;/tr&gt;&lt;tr bgcolor="#E3E3F3"&gt;
&lt;th&gt;SCT_LOCALIDADE&lt;/th&gt;
&lt;td&gt;&lt;/td&gt;
&lt;/tr&gt;&lt;tr bgcolor=""&gt;
&lt;th&gt;CD_LOCALIDADE&lt;/th&gt;
&lt;td&gt;210730800004&lt;/td&gt;
&lt;/tr&gt;&lt;tr bgcolor="#E3E3F3"&gt;
&lt;th&gt;NM_LOCALIDADE&lt;/th&gt;
&lt;td&gt;Boa Vista&lt;/td&gt;
&lt;/tr&gt;&lt;/table&gt;&lt;/center&gt;</description>
<Style>
<IconStyle>
<color>ff0069d3</color>
<scale>0.6</scale>
<Icon>
<href>http://maps.google.com/mapfiles/kml/shapes/placemark_circle.png</href>
</Icon>
</IconStyle>
<LabelStyle>
<scale>0.6</scale>
</LabelStyle>
<LineStyle>
<width>1.0</width>
<gx:labelVisibility>1</gx:labelVisibility>
</LineStyle>
</Style>
<ExtendedData>
<SchemaData schemaUrl="#kml_schema_ft_Localidades">
<SimpleData name="CD_UF">21</SimpleData>
<SimpleData name="NM_UF">Maranhão</SimpleData>
<SimpleData name="SIGLA_UF">MA</SimpleData>
<SimpleData name="CD_MUN">2107308</SimpleData>
<SimpleData name="NM_MUN">Nova Iorque</SimpleData>
<SimpleData name="CD_RGINT">2104</SimpleData>
<SimpleData name="NM_RGINT">Presidente Dutra</SimpleData>
<SimpleData name="CD_RGI">210017</SimpleData>
<SimpleData name="NM_RGI">São João dos Patos</SimpleData>
<SimpleData name="CT_LOCALIDADE">Outras Localidades</SimpleData>
<SimpleData name="CD_LOCALIDADE">210730800004</SimpleData>
<SimpleData name="NM_LOCALIDADE">Boa Vista</SimpleData>
</SchemaData>
</ExtendedData>
<Point>
<extrude>0</extrude>
<coordinates>-43.9290196,-6.64038789978239,0.0</coordinates>
</Point>
</Placemark>
<Placemark id="12. Outras Localidades">
<name>Alto do Tingui [210730800005]</name>
<visibility>1</visibility>
<snippet> </snippet>
<description>&lt;center&gt;&lt;table&gt;&lt;tr&gt;&lt;th colspan='2' align='center'&gt;&lt;em&gt;Attributes&lt;/em&gt;&lt;/th&gt;&lt;/tr&gt;&lt;tr bgcolor="#E3E3F3"&gt;
&lt;th&gt;CD_UF&lt;/th&gt;
&lt;td&gt;21&lt;/td&gt;
&lt;/tr&gt;&lt;tr bgcolor=""&gt;
&lt;th&gt;NM_UF&lt;/th&gt;
&lt;td&gt;Maranhão&lt;/td&gt;
&lt;/tr&gt;&lt;tr bgcolor="#E3E3F3"&gt;
&lt;th&gt;SIGLA_UF&lt;/th&gt;
&lt;td&gt;MA&lt;/td&gt;
&lt;/tr&gt;&lt;tr bgcolor=""&gt;
&lt;th&gt;CD_MUN&lt;/th&gt;
&lt;td&gt;2107308&lt;/td&gt;
&lt;/tr&gt;&lt;tr bgcolor="#E3E3F3"&gt;
&lt;th&gt;NM_MUN&lt;/th&gt;
&lt;td&gt;Nova Iorque&lt;/td&gt;
&lt;/tr&gt;&lt;tr bgcolor=""&gt;
&lt;th&gt;CD_RGINT&lt;/th&gt;
&lt;td&gt;2104&lt;/td&gt;
&lt;/tr&gt;&lt;tr bgcolor="#E3E3F3"&gt;
&lt;th&gt;NM_RGINT&lt;/th&gt;
&lt;td&gt;Presidente Dutra&lt;/td&gt;
&lt;/tr&gt;&lt;tr bgcolor=""&gt;
&lt;th&gt;CD_RGI&lt;/th&gt;
&lt;td&gt;210017&lt;/td&gt;
&lt;/tr&gt;&lt;tr bgcolor="#E3E3F3"&gt;
&lt;th&gt;NM_RGI&lt;/th&gt;
&lt;td&gt;São João dos Patos&lt;/td&gt;
&lt;/tr&gt;&lt;tr bgcolor=""&gt;
&lt;th&gt;CT_LOCALIDADE&lt;/th&gt;
&lt;td&gt;Outras Localidades&lt;/td&gt;
&lt;/tr&gt;&lt;tr bgcolor="#E3E3F3"&gt;
&lt;th&gt;SCT_LOCALIDADE&lt;/th&gt;
&lt;td&gt;&lt;/td&gt;
&lt;/tr&gt;&lt;tr bgcolor=""&gt;
&lt;th&gt;CD_LOCALIDADE&lt;/th&gt;
&lt;td&gt;210730800005&lt;/td&gt;
&lt;/tr&gt;&lt;tr bgcolor="#E3E3F3"&gt;
&lt;th&gt;NM_LOCALIDADE&lt;/th&gt;
&lt;td&gt;Alto do Tingui&lt;/td&gt;
&lt;/tr&gt;&lt;/table&gt;&lt;/center&gt;</description>
<Style>
<IconStyle>
<color>ff0069d3</color>
<scale>0.6</scale>
<Icon>
<href>http://maps.google.com/mapfiles/kml/shapes/placemark_circle.png</href>
</Icon>
</IconStyle>
<LabelStyle>
<scale>0.6</scale>
</LabelStyle>
<LineStyle>
<width>1.0</width>
<gx:labelVisibility>1</gx:labelVisibility>
</LineStyle>
</Style>
<ExtendedData>
<SchemaData schemaUrl="#kml_schema_ft_Localidades">
<SimpleData name="CD_UF">21</SimpleData>
<SimpleData name="NM_UF">Maranhão</SimpleData>
<SimpleData name="SIGLA_UF">MA</SimpleData>
<SimpleData name="CD_MUN">2107308</SimpleData>
<SimpleData name="NM_MUN">Nova Iorque</SimpleData>
<SimpleData name="CD_RGINT">2104</SimpleData>
<SimpleData name="NM_RGINT">Presidente Dutra</SimpleData>
<SimpleData name="CD_RGI">210017</SimpleData>
<SimpleData name="NM_RGI">São João dos Patos</SimpleData>
<SimpleData name="CT_LOCALIDADE">Outras Localidades</SimpleData>
<SimpleData name="CD_LOCALIDADE">210730800005</SimpleData>
<SimpleData name="NM_LOCALIDADE">Alto do Tingui</SimpleData>
</SchemaData>
</ExtendedData>
<Point>
<extrude>0</extrude>
<coordinates>-43.9073633,-6.60065309978367,0.0</coordinates>
</Point>
</Placemark>
<Placemark id="12. Outras Localidades">
<name>Chapada da Barra [210730800006]</name>
<visibility>1</visibility>
<snippet> </snippet>
<description>&lt;center&gt;&lt;table&gt;&lt;tr&gt;&lt;th colspan='2' align='center'&gt;&lt;em&gt;Attributes&lt;/em&gt;&lt;/th&gt;&lt;/tr&gt;&lt;tr bgcolor="#E3E3F3"&gt;
&lt;th&gt;CD_UF&lt;/th&gt;
&lt;td&gt;21&lt;/td&gt;
&lt;/tr&gt;&lt;tr bgcolor=""&gt;
&lt;th&gt;NM_UF&lt;/th&gt;
&lt;td&gt;Maranhão&lt;/td&gt;
&lt;/tr&gt;&lt;tr bgcolor="#E3E3F3"&gt;
&lt;th&gt;SIGLA_UF&lt;/th&gt;
&lt;td&gt;MA&lt;/td&gt;
&lt;/tr&gt;&lt;tr bgcolor=""&gt;
&lt;th&gt;CD_MUN&lt;/th&gt;
&lt;td&gt;2107308&lt;/td&gt;
&lt;/tr&gt;&lt;tr bgcolor="#E3E3F3"&gt;
&lt;th&gt;NM_MUN&lt;/th&gt;
&lt;td&gt;Nova Iorque&lt;/td&gt;
&lt;/tr&gt;&lt;tr bgcolor=""&gt;
&lt;th&gt;CD_RGINT&lt;/th&gt;
&lt;td&gt;2104&lt;/td&gt;
&lt;/tr&gt;&lt;tr bgcolor="#E3E3F3"&gt;
&lt;th&gt;NM_RGINT&lt;/th&gt;
&lt;td&gt;Presidente Dutra&lt;/td&gt;
&lt;/tr&gt;&lt;tr bgcolor=""&gt;
&lt;th&gt;CD_RGI&lt;/th&gt;
&lt;td&gt;210017&lt;/td&gt;
&lt;/tr&gt;&lt;tr bgcolor="#E3E3F3"&gt;
&lt;th&gt;NM_RGI&lt;/th&gt;
&lt;td&gt;São João dos Patos&lt;/td&gt;
&lt;/tr&gt;&lt;tr bgcolor=""&gt;
&lt;th&gt;CT_LOCALIDADE&lt;/th&gt;
&lt;td&gt;Outras Localidades&lt;/td&gt;
&lt;/tr&gt;&lt;tr bgcolor="#E3E3F3"&gt;
&lt;th&gt;SCT_LOCALIDADE&lt;/th&gt;
&lt;td&gt;&lt;/td&gt;
&lt;/tr&gt;&lt;tr bgcolor=""&gt;
&lt;th&gt;CD_LOCALIDADE&lt;/th&gt;
&lt;td&gt;210730800006&lt;/td&gt;
&lt;/tr&gt;&lt;tr bgcolor="#E3E3F3"&gt;
&lt;th&gt;NM_LOCALIDADE&lt;/th&gt;
&lt;td&gt;Chapada da Barra&lt;/td&gt;
&lt;/tr&gt;&lt;/table&gt;&lt;/center&gt;</description>
<Style>
<IconStyle>
<color>ff0069d3</color>
<scale>0.6</scale>
<Icon>
<href>http://maps.google.com/mapfiles/kml/shapes/placemark_circle.png</href>
</Icon>
</IconStyle>
<LabelStyle>
<scale>0.6</scale>
</LabelStyle>
<LineStyle>
<width>1.0</width>
<gx:labelVisibility>1</gx:labelVisibility>
</LineStyle>
</Style>
<ExtendedData>
<SchemaData schemaUrl="#kml_schema_ft_Localidades">
<SimpleData name="CD_UF">21</SimpleData>
<SimpleData name="NM_UF">Maranhão</SimpleData>
<SimpleData name="SIGLA_UF">MA</SimpleData>
<SimpleData name="CD_MUN">2107308</SimpleData>
<SimpleData name="NM_MUN">Nova Iorque</SimpleData>
<SimpleData name="CD_RGINT">2104</SimpleData>
<SimpleData name="NM_RGINT">Presidente Dutra</SimpleData>
<SimpleData name="CD_RGI">210017</SimpleData>
<SimpleData name="NM_RGI">São João dos Patos</SimpleData>
<SimpleData name="CT_LOCALIDADE">Outras Localidades</SimpleData>
<SimpleData name="CD_LOCALIDADE">210730800006</SimpleData>
<SimpleData name="NM_LOCALIDADE">Chapada da Barra</SimpleData>
</SchemaData>
</ExtendedData>
<Point>
<extrude>0</extrude>
<coordinates>-43.8896385,-6.59628029978381,0.0</coordinates>
</Point>
</Placemark>
<Placemark id="12. Outras Localidades">
<name>Pequi [210730800007]</name>
<visibility>1</visibility>
<snippet> </snippet>
<description>&lt;center&gt;&lt;table&gt;&lt;tr&gt;&lt;th colspan='2' align='center'&gt;&lt;em&gt;Attributes&lt;/em&gt;&lt;/th&gt;&lt;/tr&gt;&lt;tr bgcolor="#E3E3F3"&gt;
&lt;th&gt;CD_UF&lt;/th&gt;
&lt;td&gt;21&lt;/td&gt;
&lt;/tr&gt;&lt;tr bgcolor=""&gt;
&lt;th&gt;NM_UF&lt;/th&gt;
&lt;td&gt;Maranhão&lt;/td&gt;
&lt;/tr&gt;&lt;tr bgcolor="#E3E3F3"&gt;
&lt;th&gt;SIGLA_UF&lt;/th&gt;
&lt;td&gt;MA&lt;/td&gt;
&lt;/tr&gt;&lt;tr bgcolor=""&gt;
&lt;th&gt;CD_MUN&lt;/th&gt;
&lt;td&gt;2107308&lt;/td&gt;
&lt;/tr&gt;&lt;tr bgcolor="#E3E3F3"&gt;
&lt;th&gt;NM_MUN&lt;/th&gt;
&lt;td&gt;Nova Iorque&lt;/td&gt;
&lt;/tr&gt;&lt;tr bgcolor=""&gt;
&lt;th&gt;CD_RGINT&lt;/th&gt;
&lt;td&gt;2104&lt;/td&gt;
&lt;/tr&gt;&lt;tr bgcolor="#E3E3F3"&gt;
&lt;th&gt;NM_RGINT&lt;/th&gt;
&lt;td&gt;Presidente Dutra&lt;/td&gt;
&lt;/tr&gt;&lt;tr bgcolor=""&gt;
&lt;th&gt;CD_RGI&lt;/th&gt;
&lt;td&gt;210017&lt;/td&gt;
&lt;/tr&gt;&lt;tr bgcolor="#E3E3F3"&gt;
&lt;th&gt;NM_RGI&lt;/th&gt;
&lt;td&gt;São João dos Patos&lt;/td&gt;
&lt;/tr&gt;&lt;tr bgcolor=""&gt;
&lt;th&gt;CT_LOCALIDADE&lt;/th&gt;
&lt;td&gt;Outras Localidades&lt;/td&gt;
&lt;/tr&gt;&lt;tr bgcolor="#E3E3F3"&gt;
&lt;th&gt;SCT_LOCALIDADE&lt;/th&gt;
&lt;td&gt;&lt;/td&gt;
&lt;/tr&gt;&lt;tr bgcolor=""&gt;
&lt;th&gt;CD_LOCALIDADE&lt;/th&gt;
&lt;td&gt;210730800007&lt;/td&gt;
&lt;/tr&gt;&lt;tr bgcolor="#E3E3F3"&gt;
&lt;th&gt;NM_LOCALIDADE&lt;/th&gt;
&lt;td&gt;Pequi&lt;/td&gt;
&lt;/tr&gt;&lt;/table&gt;&lt;/center&gt;</description>
<Style>
<IconStyle>
<color>ff0069d3</color>
<scale>0.6</scale>
<Icon>
<href>http://maps.google.com/mapfiles/kml/shapes/placemark_circle.png</href>
</Icon>
</IconStyle>
<LabelStyle>
<scale>0.6</scale>
</LabelStyle>
<LineStyle>
<width>1.0</width>
<gx:labelVisibility>1</gx:labelVisibility>
</LineStyle>
</Style>
<ExtendedData>
<SchemaData schemaUrl="#kml_schema_ft_Localidades">
<SimpleData name="CD_UF">21</SimpleData>
<SimpleData name="NM_UF">Maranhão</SimpleData>
<SimpleData name="SIGLA_UF">MA</SimpleData>
<SimpleData name="CD_MUN">2107308</SimpleData>
<SimpleData name="NM_MUN">Nova Iorque</SimpleData>
<SimpleData name="CD_RGINT">2104</SimpleData>
<SimpleData name="NM_RGINT">Presidente Dutra</SimpleData>
<SimpleData name="CD_RGI">210017</SimpleData>
<SimpleData name="NM_RGI">São João dos Patos</SimpleData>
<SimpleData name="CT_LOCALIDADE">Outras Localidades</SimpleData>
<SimpleData name="CD_LOCALIDADE">210730800007</SimpleData>
<SimpleData name="NM_LOCALIDADE">Pequi</SimpleData>
</SchemaData>
</ExtendedData>
<Point>
<extrude>0</extrude>
<coordinates>-43.7751576,-6.69653809978059,0.0</coordinates>
</Point>
</Placemark>
</Folder>
<Folder id="13. Referência">
<name>13. Referência</name>
<Placemark id="13. Referência">
<name>Nova Iorque [2107308]</name>
<visibility>1</visibility>
<snippet> </snippet>
<description>&lt;center&gt;&lt;table&gt;&lt;tr&gt;&lt;th colspan='2' align='center'&gt;&lt;em&gt;Attributes&lt;/em&gt;&lt;/th&gt;&lt;/tr&gt;&lt;tr bgcolor="#E3E3F3"&gt;
&lt;th&gt;CD_UF&lt;/th&gt;
&lt;td&gt;21&lt;/td&gt;
&lt;/tr&gt;&lt;tr bgcolor=""&gt;
&lt;th&gt;NM_UF&lt;/th&gt;
&lt;td&gt;Maranhão&lt;/td&gt;
&lt;/tr&gt;&lt;tr bgcolor="#E3E3F3"&gt;
&lt;th&gt;CD_MUN&lt;/th&gt;
&lt;td&gt;2107308&lt;/td&gt;
&lt;/tr&gt;&lt;tr bgcolor=""&gt;
&lt;th&gt;NM_MUN&lt;/th&gt;
&lt;td&gt;Nova Iorque&lt;/td&gt;
&lt;/tr&gt;&lt;tr bgcolor="#E3E3F3"&gt;
&lt;th&gt;CD_RGINT&lt;/th&gt;
&lt;td&gt;2104&lt;/td&gt;
&lt;/tr&gt;&lt;tr bgcolor=""&gt;
&lt;th&gt;NM_RGINT&lt;/th&gt;
&lt;td&gt;Presidente Dutra&lt;/td&gt;
&lt;/tr&gt;&lt;tr bgcolor="#E3E3F3"&gt;
&lt;th&gt;CD_RGI&lt;/th&gt;
&lt;td&gt;210017&lt;/td&gt;
&lt;/tr&gt;&lt;tr bgcolor=""&gt;
&lt;th&gt;NM_RGI&lt;/th&gt;
&lt;td&gt;São João dos Patos&lt;/td&gt;
&lt;/tr&gt;&lt;/table&gt;&lt;/center&gt;</description>
<Style>
<IconStyle>
<scale>0.7</scale>
</IconStyle>
<LabelStyle>
<scale>0.7</scale>
</LabelStyle>
<LineStyle>
<color>ffffffff</color>
<width>3</width>
<gx:labelVisibility>1</gx:labelVisibility>
</LineStyle>
<PolyStyle>
<color>00ffffff</color>
</PolyStyle>
</Style>
<ExtendedData>
<SchemaData schemaUrl="#kml_schema_ft_Município">
<SimpleData name="CD_UF">21</SimpleData>
<SimpleData name="NM_UF">Maranhão</SimpleData>
<SimpleData name="CD_MUN">2107308</SimpleData>
<SimpleData name="NM_MUN">Nova Iorque</SimpleData>
<SimpleData name="CD_RGINT">2104</SimpleData>
<SimpleData name="NM_RGINT">Presidente Dutra</SimpleData>
<SimpleData name="CD_RGI">210017</SimpleData>
<SimpleData name="NM_RGI">São João dos Patos</SimpleData>
</SchemaData>
</ExtendedData>
<MultiGeometry>
<Polygon>
<extrude>0</extrude>
<tessellate>1</tessellate>
<outerBoundaryIs>
<LinearRing>
<coordinates>-44.0181505,-6.75810769977861,0.0 -44.02332,-6.76017229977854,0.0 -44.0333933,-6.76040409977854,0.0 -44.035095,-6.76124029977851,0.0 -44.0379407,-6.76433269977841,0.0 -44.0389277,-6.76674419977833,0.0 -44.0404372,-6.7677673997783,0.0 -44.0428964,-6.76943419977824,0.0 -44.0523218,-6.76842149977828,0.0 -44.0533707,-6.76830879977828,0.0 -44.0574593,-6.77444189977808,0.0 -44.0602327,-6.78474749977775,0.0 -44.0608684,-6.79074779977756,0.0 -44.0598472,-6.80590469977707,0.0 -44.0590626,-6.80843749977699,0.0 -44.0617288,-6.81337489977683,0.0 -44.0637296,-6.8145818997768,0.0 -44.0696971,-6.82137749977658,0.0 -44.0769874,-6.82112599977658,0.0 -44.0827603,-6.80975469977695,0.0 -44.0861165,-6.8049922997771,0.0 -44.0888742,-6.80330119977716,0.0 -44.0945649,-6.80338039977716,0.0 -44.1071539,-6.80237039977719,0.0 -44.1130423,-6.80299619977717,0.0 -44.114009,-6.80346039977715,0.0 -44.1162756,-6.80578589977708,0.0 -44.1163134,-6.81494259977678,0.0 -44.1154574,-6.81783089977669,0.0 -44.1130397,-6.82315559977652,0.0 -44.104848,-6.83021889977629,0.0 -44.0987098,-6.83994369977598,0.0 -44.0984324,-6.84157789977593,0.0 -44.0988131,-6.84585279977579,0.0 -44.1006495,-6.85114209977562,0.0 -44.1018976,-6.85243299977558,0.0 -44.104401,-6.85654699977545,0.0 -44.1072079,-6.85777239977541,0.0 -44.1090112,-6.85761209977541,0.0 -44.1141775,-6.85287019977557,0.0 -44.1141513,-6.84760139977573,0.0 -44.1150444,-6.84216309977591,0.0 -44.1151769,-6.83835299977603,0.0 -44.1198982,-6.83278879977621,0.0 -44.1251239,-6.83558519977612,0.0 -44.1310706,-6.84498749977582,0.0 -44.1361196,-6.85516779977549,0.0 -44.1372283,-6.86017269977533,0.0 -44.1391727,-6.8641071997752,0.0 -44.1406256,-6.86521609977517,0.0 -44.1484343,-6.86766319977509,0.0 -44.1500421,-6.86807109977508,0.0 -44.1533147,-6.86775309977509,0.0 -44.1608958,-6.87280029977492,0.0 -44.1632842,-6.87439039977487,0.0 -44.1634808,-6.87452129977487,0.0 -44.171346,-6.88497719977453,0.0 -44.1724836,-6.88771909977444,0.0 -44.1737355,-6.8892767997744,0.0 -44.1758483,-6.89560599977419,0.0 -44.1764318,-6.90258329977397,0.0 -44.1764384,-6.90422549977391,0.0 -44.1757543,-6.91169579977368,0.0 -44.173702,-6.92008779977341,0.0 -44.1750389,-6.92516979977324,0.0 -44.1786515,-6.92715859977318,0.0 -44.1828884,-6.9264907997732,0.0 -44.1896316,-6.92566609977323,0.0 -44.1951044,-6.92741239977317,0.0 -44.1986023,-6.92976239977309,0.0 -44.2008214,-6.932942199773,0.0 -44.2021407,-6.93861739977281,0.0 -44.2015055,-6.94856099977249,0.0 -44.2024643,-6.95718719977222,0.0 -44.2046817,-6.96248169977205,0.0 -44.2081719,-6.96994519977181,0.0 -44.214601,-6.97543189977163,0.0 -44.2261329,-6.98818779977122,0.0 -44.2332648,-6.99638989977096,0.0 -44.2359545,-6.99871229977088,0.0 -44.2397017,-7.00005779977084,0.0 -44.2430013,-7.00075339977082,0.0 -44.2460774,-7.00116349977081,0.0 -44.2492751,-7.00054079977083,0.0 -44.2506815,-6.99457629977102,0.0 -44.252002,-6.99281459977107,0.0 -44.2541997,-6.98650119977128,0.0 -44.25501,-6.98181879977143,0.0 -44.2546623,-6.97999989977149,0.0 -44.253335,-6.97771969977156,0.0 -44.2532427,-6.97620289977161,0.0 -44.2558827,-6.97431019977167,0.0 -44.2625744,-6.9731881997717,0.0 -44.263739,-6.97246729977173,0.0 -44.2634138,-6.96939429977183,0.0 -44.2641182,-6.96856149977185,0.0 -44.2664229,-6.96894359977184,0.0 -44.2674011,-6.96826259977186,0.0 -44.2677545,-6.9672407997719,0.0 -44.2673835,-6.96497819977197,0.0 -44.2674749,-6.96471429977198,0.0 -44.2688721,-6.96451349977198,0.0 -44.2701246,-6.96295979977203,0.0 -44.2724507,-6.96266099977204,0.0 -44.2729205,-6.96209359977206,0.0 -44.2730803,-6.96050069977211,0.0 -44.2747239,-6.95872119977217,0.0 -44.2748027,-6.95815129977219,0.0 -44.2728324,-6.95640469977224,0.0 -44.2731445,-6.95610329977225,0.0 -44.2762315,-6.95716989977222,0.0 -44.2781263,-6.95641379977224,0.0 -44.2803158,-6.95645539977224,0.0 -44.2819165,-6.9577843997722,0.0 -44.2867025,-6.95684329977223,0.0 -44.289359,-6.9577173997722,0.0 -44.2902012,-6.95730369977221,0.0 -44.2925121,-6.95362929977233,0.0 -44.2941199,-6.95313649977235,0.0 -44.2960139,-6.95136189977241,0.0 -44.2984375,-6.9512894997724,0.0 -44.2999842,-6.94810509977251,0.0 -44.3026855,-6.94545579977259,0.0 -44.3031942,-6.9451922997726,0.0 -44.3052263,-6.94580129977258,0.0 -44.3057132,-6.9452332997726,0.0 -44.3058776,-6.94261929977268,0.0 -44.3073193,-6.94227819977269,0.0 -44.3103056,-6.94554249977259,0.0 -44.3110483,-6.94569569977258,0.0 -44.3125733,-6.94429519977263,0.0 -44.3155627,-6.94456579977262,0.0 -44.3175192,-6.94305079977267,0.0 -44.3188458,-6.94328079977266,0.0 -44.3200186,-6.94293969977267,0.0 -44.3227106,-6.94376079977265,0.0 -44.3241158,-6.94110649977273,0.0 -44.3227612,-6.93858939977281,0.0 -44.3227181,-6.93729979977286,0.0 -44.3242521,-6.93695079977286,0.0 -44.3274155,-6.93813439977283,0.0 -44.3281408,-6.93798579977283,0.0 -44.328933,-6.93713759977286,0.0 -44.328846,-6.9359549997729,0.0 -44.3286095,-6.93553109977291,0.0 -44.3285615,-6.93544459977291,0.0 -44.3275989,-6.93502749977293,0.0 -44.3135462,-6.91119289977369,0.0 -44.307293,-6.90058709977403,0.0 -44.3010398,-6.88998129977437,0.0 -44.2915351,-6.87386059977489,0.0 -44.2907916,-6.87259969977493,0.0 -44.2907901,-6.87259699977493,0.0 -44.290768,-6.87255959977493,0.0 -44.2907468,-6.87252359977493,0.0 -44.2901976,-6.87159209977496,0.0 -44.2848871,-6.86258819977525,0.0 -44.2202282,-6.75295909977877,0.0 -44.2174808,-6.74830099977892,0.0 -44.2161072,-6.745971899779,0.0 -44.2147335,-6.74364279977907,0.0 -44.2147076,-6.74363069977907,0.0 -44.2146302,-6.74359439977907,0.0 -44.077205,-6.67921829978115,0.0 -44.0661508,-6.67404009978131,0.0 -44.0661424,-6.67403609978131,0.0 -44.0658731,-6.67390999978131,0.0 -43.9814462,-6.63436259978259,0.0 -43.9810857,-6.63419369978259,0.0 -43.9809568,-6.63413329978259,0.0 -43.9808185,-6.6340684997826,0.0 -43.9801406,-6.63375109978261,0.0 -43.9218534,-6.60645359978349,0.0 -43.8621074,-6.57846749978439,0.0 -43.8549313,-6.5751060997845,0.0 -43.8511743,-6.57334629978455,0.0 -43.8501561,-6.57286929978457,0.0 -43.7989766,-6.54889589978534,0.0 -43.7908571,-6.54509259978546,0.0 -43.7538213,-6.70348799978037,0.0 -43.7577512,-6.7024581997804,0.0 -43.7607352,-6.7024375997804,0.0 -43.7676738,-6.70819619978021,0.0 -43.7718997,-6.71384509978003,0.0 -43.7723997,-6.71424889978002,0.0 -43.7738391,-6.71480019978,0.0 -43.7748432,-6.71493659978,0.0 -43.7789217,-6.71385209978003,0.0 -43.7810501,-6.71244979978008,0.0 -43.7825584,-6.71123689978011,0.0 -43.7908561,-6.7023319997804,0.0 -43.7921472,-6.70197919978041,0.0 -43.7950637,-6.70207179978041,0.0 -43.7974681,-6.70315739978038,0.0 -43.7993775,-6.70463719978033,0.0 -43.7998183,-6.70531399978031,0.0 -43.8005935,-6.70768339978023,0.0 -43.8019749,-6.71190559978009,0.0 -43.8025524,-6.71330819978005,0.0 -43.805093,-6.71725599977992,0.0 -43.8081859,-6.72027299977982,0.0 -43.8201262,-6.7272771997796,0.0 -43.8264072,-6.72926879977954,0.0 -43.8421137,-6.73375529977939,0.0 -43.8515923,-6.73500539977935,0.0 -43.8537609,-6.73561169977933,0.0 -43.8576848,-6.73848839977924,0.0 -43.8630156,-6.74373789977907,0.0 -43.8683046,-6.74723399977896,0.0 -43.8736532,-6.75198439977881,0.0 -43.8782151,-6.75680079977865,0.0 -43.879918,-6.75778239977862,0.0 -43.884182,-6.75873619977859,0.0 -43.8981321,-6.75448149977873,0.0 -43.9025617,-6.75370619977875,0.0 -43.9137943,-6.75266149977878,0.0 -43.916496,-6.75382469977875,0.0 -43.9189149,-6.75579079977868,0.0 -43.9277616,-6.77044699977821,0.0 -43.9282882,-6.76997139977823,0.0 -43.9304723,-6.77105369977819,0.0 -43.9323716,-6.77199569977816,0.0 -43.9348991,-6.77136849977818,0.0 -43.9423664,-6.7677703997783,0.0 -43.9451026,-6.76550999977837,0.0 -43.9463089,-6.76307589977845,0.0 -43.9493419,-6.75174389977881,0.0 -43.9530221,-6.74667309977898,0.0 -43.9567604,-6.74315439977909,0.0 -43.9612097,-6.74189839977913,0.0 -43.9707334,-6.74422139977906,0.0 -43.9813127,-6.75453039977873,0.0 -43.9877336,-6.75727789977864,0.0 -43.9938186,-6.75703759977864,0.0 -44.0054262,-6.75892779977858,0.0 -44.0181505,-6.75810769977861,0.0</coordinates>
</LinearRing>
</outerBoundaryIs>
</Polygon>
</MultiGeometry>
</Placemark>
</Folder>
</Document></kml>
