<?xml version='1.0' encoding='UTF-8'?>
<kml xmlns:xsd="http://www.w3.org/2001/XMLSchema" xmlns:gx="http://www.google.com/kml/ext/2.2" xmlns:atom="http://www.w3.org/2005/Atom" xmlns="http://www.opengis.net/kml/2.2">
<Document>
<name>hugo_napoleao_2204600_localidades_2022</name>
<visibility>1</visibility>
<Schema name="Povoados" id="kml_schema_ft_Povoados">
<SimpleField type="xsd:string" name="CD_UF">
<displayName>CD_UF</displayName>
</SimpleField>
<SimpleField type="xsd:string" name="NM_UF">
<displayName>NM_UF</displayName>
</SimpleField>
<SimpleField type="xsd:string" name="SIGLA_UF">
<displayName>SIGLA_UF</displayName>
</SimpleField>
<SimpleField type="xsd:string" name="CD_MUN">
<displayName>CD_MUN</displayName>
</SimpleField>
<SimpleField type="xsd:string" name="NM_MUN">
<displayName>NM_MUN</displayName>
</SimpleField>
<SimpleField type="xsd:string" name="CD_RGINT">
<displayName>CD_RGINT</displayName>
</SimpleField>
<SimpleField type="xsd:string" name="NM_RGINT">
<displayName>NM_RGINT</displayName>
</SimpleField>
<SimpleField type="xsd:string" name="CD_RGI">
<displayName>CD_RGI</displayName>
</SimpleField>
<SimpleField type="xsd:string" name="NM_RGI">
<displayName>NM_RGI</displayName>
</SimpleField>
<SimpleField type="xsd:string" name="CT_LOCALIDADE">
<displayName>CT_LOCALIDADE</displayName>
</SimpleField>
<SimpleField type="xsd:string" name="CD_LOCALIDADE">
<displayName>CD_LOCALIDADE</displayName>
</SimpleField>
<SimpleField type="xsd:string" name="NM_LOCALIDADE">
<displayName>NM_LOCALIDADE</displayName>
</SimpleField>
<SimpleField type="xsd:string" name="LAT_LOCALIDADE">
<displayName>LAT_LOCALIDADE</displayName>
</SimpleField>
<SimpleField type="xsd:string" name="LONG_LOCALIDADE">
<displayName>LONG_LOCALIDADE</displayName>
</SimpleField>
</Schema>
<Schema name="Localidades" id="kml_schema_ft_Localidades">
<SimpleField type="xsd:string" name="CD_UF">
<displayName>CD_UF</displayName>
</SimpleField>
<SimpleField type="xsd:string" name="NM_UF">
<displayName>NM_UF</displayName>
</SimpleField>
<SimpleField type="xsd:string" name="SIGLA_UF">
<displayName>SIGLA_UF</displayName>
</SimpleField>
<SimpleField type="xsd:string" name="CD_MUN">
<displayName>CD_MUN</displayName>
</SimpleField>
<SimpleField type="xsd:string" name="NM_MUN">
<displayName>NM_MUN</displayName>
</SimpleField>
<SimpleField type="xsd:string" name="CD_RGINT">
<displayName>CD_RGINT</displayName>
</SimpleField>
<SimpleField type="xsd:string" name="NM_RGINT">
<displayName>NM_RGINT</displayName>
</SimpleField>
<SimpleField type="xsd:string" name="CD_RGI">
<displayName>CD_RGI</displayName>
</SimpleField>
<SimpleField type="xsd:string" name="NM_RGI">
<displayName>NM_RGI</displayName>
</SimpleField>
<SimpleField type="xsd:string" name="CT_LOCALIDADE">
<displayName>CT_LOCALIDADE</displayName>
</SimpleField>
<SimpleField type="xsd:string" name="SCT_LOCALIDADE">
<displayName>SCT_LOCALIDADE</displayName>
</SimpleField>
<SimpleField type="xsd:string" name="CD_LOCALIDADE">
<displayName>CD_LOCALIDADE</displayName>
</SimpleField>
<SimpleField type="xsd:string" name="NM_LOCALIDADE">
<displayName>NM_LOCALIDADE</displayName>
</SimpleField>
</Schema>
<Schema name="01. Cidade" id="kml_schema_ft_01._Cidade">
<SimpleField type="xsd:string" name="CD_UF">
<displayName>CD_UF</displayName>
</SimpleField>
<SimpleField type="xsd:string" name="NM_UF">
<displayName>NM_UF</displayName>
</SimpleField>
<SimpleField type="xsd:string" name="SIGLA_UF">
<displayName>SIGLA_UF</displayName>
</SimpleField>
<SimpleField type="xsd:string" name="CD_MUN">
<displayName>CD_MUN</displayName>
</SimpleField>
<SimpleField type="xsd:string" name="NM_MUN">
<displayName>NM_MUN</displayName>
</SimpleField>
<SimpleField type="xsd:string" name="CD_RGINT">
<displayName>CD_RGINT</displayName>
</SimpleField>
<SimpleField type="xsd:string" name="NM_RGINT">
<displayName>NM_RGINT</displayName>
</SimpleField>
<SimpleField type="xsd:string" name="CD_RGI">
<displayName>CD_RGI</displayName>
</SimpleField>
<SimpleField type="xsd:string" name="NM_RGI">
<displayName>NM_RGI</displayName>
</SimpleField>
<SimpleField type="xsd:string" name="CT_LOCALIDADE">
<displayName>CT_LOCALIDADE</displayName>
</SimpleField>
<SimpleField type="xsd:string" name="SCT_LOCALIDADE">
<displayName>SCT_LOCALIDADE</displayName>
</SimpleField>
<SimpleField type="xsd:string" name="CD_LOCALIDADE">
<displayName>CD_LOCALIDADE</displayName>
</SimpleField>
<SimpleField type="xsd:string" name="NM_LOCALIDADE">
<displayName>NM_LOCALIDADE</displayName>
</SimpleField>
<SimpleField type="xsd:string" name="LAT_LOCALIDADE">
<displayName>LAT_LOCALIDADE</displayName>
</SimpleField>
<SimpleField type="xsd:string" name="LONG_LOCALIDADE">
<displayName>LONG_LOCALIDADE</displayName>
</SimpleField>
</Schema>
<Schema name="Município" id="kml_schema_ft_Município">
<SimpleField type="xsd:string" name="CD_UF">
<displayName>CD_UF</displayName>
</SimpleField>
<SimpleField type="xsd:string" name="NM_UF">
<displayName>NM_UF</displayName>
</SimpleField>
<SimpleField type="xsd:string" name="CD_MUN">
<displayName>CD_MUN</displayName>
</SimpleField>
<SimpleField type="xsd:string" name="NM_MUN">
<displayName>NM_MUN</displayName>
</SimpleField>
<SimpleField type="xsd:string" name="CD_RGINT">
<displayName>CD_RGINT</displayName>
</SimpleField>
<SimpleField type="xsd:string" name="NM_RGINT">
<displayName>NM_RGINT</displayName>
</SimpleField>
<SimpleField type="xsd:string" name="CD_RGI">
<displayName>CD_RGI</displayName>
</SimpleField>
<SimpleField type="xsd:string" name="NM_RGI">
<displayName>NM_RGI</displayName>
</SimpleField>
</Schema>
<Folder id="01. Cidade">
<name>01. Cidade</name>
<Folder id="01.03. Sede Municipal">
<name>01.03. Sede Municipal</name>
<Placemark id="01.03. Sede Municipal">
<name>Hugo Napoleão [2204600]</name>
<visibility>1</visibility>
<snippet> </snippet>
<description>&lt;center&gt;&lt;table&gt;&lt;tr&gt;&lt;th colspan='2' align='center'&gt;&lt;em&gt;Atributos&lt;/em&gt;&lt;/th&gt;&lt;/tr&gt;&lt;tr bgcolor="#E3E3F3"&gt;
&lt;th&gt;CD_UF&lt;/th&gt;
&lt;td&gt;22&lt;/td&gt;
&lt;/tr&gt;&lt;tr bgcolor=""&gt;
&lt;th&gt;NM_UF&lt;/th&gt;
&lt;td&gt;Piauí&lt;/td&gt;
&lt;/tr&gt;&lt;tr bgcolor="#E3E3F3"&gt;
&lt;th&gt;SIGLA_UF&lt;/th&gt;
&lt;td&gt;PI&lt;/td&gt;
&lt;/tr&gt;&lt;tr bgcolor=""&gt;
&lt;th&gt;CD_MUN&lt;/th&gt;
&lt;td&gt;2204600&lt;/td&gt;
&lt;/tr&gt;&lt;tr bgcolor="#E3E3F3"&gt;
&lt;th&gt;NM_MUN&lt;/th&gt;
&lt;td&gt;Hugo Napoleão&lt;/td&gt;
&lt;/tr&gt;&lt;tr bgcolor=""&gt;
&lt;th&gt;CD_RGINT&lt;/th&gt;
&lt;td&gt;2201&lt;/td&gt;
&lt;/tr&gt;&lt;tr bgcolor="#E3E3F3"&gt;
&lt;th&gt;NM_RGINT&lt;/th&gt;
&lt;td&gt;Teresina&lt;/td&gt;
&lt;/tr&gt;&lt;tr bgcolor=""&gt;
&lt;th&gt;CD_RGI&lt;/th&gt;
&lt;td&gt;220002&lt;/td&gt;
&lt;/tr&gt;&lt;tr bgcolor="#E3E3F3"&gt;
&lt;th&gt;NM_RGI&lt;/th&gt;
&lt;td&gt;Amarante - Água Branca - Regeneração&lt;/td&gt;
&lt;/tr&gt;&lt;tr bgcolor=""&gt;
&lt;th&gt;CT_LOCALIDADE&lt;/th&gt;
&lt;td&gt;Cidade&lt;/td&gt;
&lt;/tr&gt;&lt;tr bgcolor="#E3E3F3"&gt;
&lt;th&gt;SCT_LOCALIDADE&lt;/th&gt;
&lt;td&gt;Sede Municipal&lt;/td&gt;
&lt;/tr&gt;&lt;tr bgcolor=""&gt;
&lt;th&gt;CD_LOCALIDADE&lt;/th&gt;
&lt;td&gt;2204600&lt;/td&gt;
&lt;/tr&gt;&lt;tr bgcolor="#E3E3F3"&gt;
&lt;th&gt;NM_LOCALIDADE&lt;/th&gt;
&lt;td&gt;Hugo Napoleão&lt;/td&gt;
&lt;/tr&gt;&lt;tr bgcolor=""&gt;
&lt;th&gt;LAT_LOCALIDADE&lt;/th&gt;
&lt;td&gt;-5.9894&lt;/td&gt;
&lt;/tr&gt;&lt;tr bgcolor="#E3E3F3"&gt;
&lt;th&gt;LONG_LOCALIDADE&lt;/th&gt;
&lt;td&gt;-42.5581&lt;/td&gt;
&lt;/tr&gt;&lt;/table&gt;&lt;/center&gt;</description>
<Style>
<IconStyle>
<color>ff00aaff</color>
<scale>1.0</scale>
<Icon>
<href>http://maps.google.com/mapfiles/kml/shapes/placemark_circle.png</href>
</Icon>
</IconStyle>
<LabelStyle>
<scale>1.0</scale>
</LabelStyle>
<LineStyle>
<color>ffffffff</color>
<width>3</width>
<gx:labelVisibility>1</gx:labelVisibility>
</LineStyle>
<PolyStyle>
<color>00ffffff</color>
</PolyStyle>
</Style>
<ExtendedData>
<SchemaData schemaUrl="#kml_schema_ft_01._Cidade">
<SimpleData name="CD_UF">22</SimpleData>
<SimpleData name="NM_UF">Piauí</SimpleData>
<SimpleData name="SIGLA_UF">PI</SimpleData>
<SimpleData name="CD_MUN">2204600</SimpleData>
<SimpleData name="NM_MUN">Hugo Napoleão</SimpleData>
<SimpleData name="CD_RGINT">2201</SimpleData>
<SimpleData name="NM_RGINT">Teresina</SimpleData>
<SimpleData name="CD_RGI">220002</SimpleData>
<SimpleData name="NM_RGI">Amarante - Água Branca - Regeneração</SimpleData>
<SimpleData name="CT_LOCALIDADE">Cidade</SimpleData>
<SimpleData name="SCT_LOCALIDADE">Sede Municipal</SimpleData>
<SimpleData name="CD_LOCALIDADE">2204600</SimpleData>
<SimpleData name="NM_LOCALIDADE">Hugo Napoleão</SimpleData>
<SimpleData name="LAT_LOCALIDADE">-5.9894</SimpleData>
<SimpleData name="LONG_LOCALIDADE">-42.5581</SimpleData>
</SchemaData>
</ExtendedData>
<Point>
<extrude>0</extrude>
<coordinates>-42.5581,-5.98939999980339,0.0</coordinates>
</Point>
</Placemark>
</Folder>
</Folder>
<Folder id="06. Povoados">
<name>06. Povoados</name>
<Placemark id="06. Povoados">
<name>Bela Vista [220460000002]</name>
<visibility>1</visibility>
<snippet> </snippet>
<description>&lt;center&gt;&lt;table&gt;&lt;tr&gt;&lt;th colspan='2' align='center'&gt;&lt;em&gt;Atributos&lt;/em&gt;&lt;/th&gt;&lt;/tr&gt;&lt;tr bgcolor="#E3E3F3"&gt;
&lt;th&gt;CD_UF&lt;/th&gt;
&lt;td&gt;22&lt;/td&gt;
&lt;/tr&gt;&lt;tr bgcolor=""&gt;
&lt;th&gt;NM_UF&lt;/th&gt;
&lt;td&gt;Piauí&lt;/td&gt;
&lt;/tr&gt;&lt;tr bgcolor="#E3E3F3"&gt;
&lt;th&gt;SIGLA_UF&lt;/th&gt;
&lt;td&gt;PI&lt;/td&gt;
&lt;/tr&gt;&lt;tr bgcolor=""&gt;
&lt;th&gt;CD_MUN&lt;/th&gt;
&lt;td&gt;2204600&lt;/td&gt;
&lt;/tr&gt;&lt;tr bgcolor="#E3E3F3"&gt;
&lt;th&gt;NM_MUN&lt;/th&gt;
&lt;td&gt;Hugo Napoleão&lt;/td&gt;
&lt;/tr&gt;&lt;tr bgcolor=""&gt;
&lt;th&gt;CD_RGINT&lt;/th&gt;
&lt;td&gt;2201&lt;/td&gt;
&lt;/tr&gt;&lt;tr bgcolor="#E3E3F3"&gt;
&lt;th&gt;NM_RGINT&lt;/th&gt;
&lt;td&gt;Teresina&lt;/td&gt;
&lt;/tr&gt;&lt;tr bgcolor=""&gt;
&lt;th&gt;CD_RGI&lt;/th&gt;
&lt;td&gt;220002&lt;/td&gt;
&lt;/tr&gt;&lt;tr bgcolor="#E3E3F3"&gt;
&lt;th&gt;NM_RGI&lt;/th&gt;
&lt;td&gt;Amarante - Água Branca - Regeneração&lt;/td&gt;
&lt;/tr&gt;&lt;tr bgcolor=""&gt;
&lt;th&gt;CT_LOCALIDADE&lt;/th&gt;
&lt;td&gt;Povoado&lt;/td&gt;
&lt;/tr&gt;&lt;tr bgcolor="#E3E3F3"&gt;
&lt;th&gt;CD_LOCALIDADE&lt;/th&gt;
&lt;td&gt;220460000002&lt;/td&gt;
&lt;/tr&gt;&lt;tr bgcolor=""&gt;
&lt;th&gt;NM_LOCALIDADE&lt;/th&gt;
&lt;td&gt;Bela Vista&lt;/td&gt;
&lt;/tr&gt;&lt;tr bgcolor="#E3E3F3"&gt;
&lt;th&gt;LAT_LOCALIDADE&lt;/th&gt;
&lt;td&gt;-6.0092&lt;/td&gt;
&lt;/tr&gt;&lt;tr bgcolor=""&gt;
&lt;th&gt;LONG_LOCALIDADE&lt;/th&gt;
&lt;td&gt;-42.5585&lt;/td&gt;
&lt;/tr&gt;&lt;/table&gt;&lt;/center&gt;</description>
<Style>
<IconStyle>
<color>ff00ff54</color>
<scale>0.8</scale>
<Icon>
<href>http://maps.google.com/mapfiles/kml/shapes/placemark_circle.png</href>
</Icon>
</IconStyle>
<LabelStyle>
<scale>0.8</scale>
</LabelStyle>
<LineStyle>
<color>72ff54ff</color>
<width>1.0</width>
<gx:labelVisibility>1</gx:labelVisibility>
</LineStyle>
<PolyStyle>
<color>66ff54ff</color>
</PolyStyle>
</Style>
<ExtendedData>
<SchemaData schemaUrl="#kml_schema_ft_Povoados">
<SimpleData name="CD_UF">22</SimpleData>
<SimpleData name="NM_UF">Piauí</SimpleData>
<SimpleData name="SIGLA_UF">PI</SimpleData>
<SimpleData name="CD_MUN">2204600</SimpleData>
<SimpleData name="NM_MUN">Hugo Napoleão</SimpleData>
<SimpleData name="CD_RGINT">2201</SimpleData>
<SimpleData name="NM_RGINT">Teresina</SimpleData>
<SimpleData name="CD_RGI">220002</SimpleData>
<SimpleData name="NM_RGI">Amarante - Água Branca - Regeneração</SimpleData>
<SimpleData name="CT_LOCALIDADE">Povoado</SimpleData>
<SimpleData name="CD_LOCALIDADE">220460000002</SimpleData>
<SimpleData name="NM_LOCALIDADE">Bela Vista</SimpleData>
<SimpleData name="LAT_LOCALIDADE">-6.0092</SimpleData>
<SimpleData name="LONG_LOCALIDADE">-42.5585</SimpleData>
</SchemaData>
</ExtendedData>
<Point>
<extrude>0</extrude>
<coordinates>-42.5585045301204,-6.0091729154654,0.0</coordinates>
</Point>
</Placemark>
</Folder>
<Folder id="12. Outras Localidades">
<name>12. Outras Localidades</name>
<Placemark id="12. Outras Localidades">
<name>Gomes [220460000001]</name>
<visibility>1</visibility>
<snippet> </snippet>
<description>&lt;center&gt;&lt;table&gt;&lt;tr&gt;&lt;th colspan='2' align='center'&gt;&lt;em&gt;Attributes&lt;/em&gt;&lt;/th&gt;&lt;/tr&gt;&lt;tr bgcolor="#E3E3F3"&gt;
&lt;th&gt;CD_UF&lt;/th&gt;
&lt;td&gt;22&lt;/td&gt;
&lt;/tr&gt;&lt;tr bgcolor=""&gt;
&lt;th&gt;NM_UF&lt;/th&gt;
&lt;td&gt;Piauí&lt;/td&gt;
&lt;/tr&gt;&lt;tr bgcolor="#E3E3F3"&gt;
&lt;th&gt;SIGLA_UF&lt;/th&gt;
&lt;td&gt;PI&lt;/td&gt;
&lt;/tr&gt;&lt;tr bgcolor=""&gt;
&lt;th&gt;CD_MUN&lt;/th&gt;
&lt;td&gt;2204600&lt;/td&gt;
&lt;/tr&gt;&lt;tr bgcolor="#E3E3F3"&gt;
&lt;th&gt;NM_MUN&lt;/th&gt;
&lt;td&gt;Hugo Napoleão&lt;/td&gt;
&lt;/tr&gt;&lt;tr bgcolor=""&gt;
&lt;th&gt;CD_RGINT&lt;/th&gt;
&lt;td&gt;2201&lt;/td&gt;
&lt;/tr&gt;&lt;tr bgcolor="#E3E3F3"&gt;
&lt;th&gt;NM_RGINT&lt;/th&gt;
&lt;td&gt;Teresina&lt;/td&gt;
&lt;/tr&gt;&lt;tr bgcolor=""&gt;
&lt;th&gt;CD_RGI&lt;/th&gt;
&lt;td&gt;220002&lt;/td&gt;
&lt;/tr&gt;&lt;tr bgcolor="#E3E3F3"&gt;
&lt;th&gt;NM_RGI&lt;/th&gt;
&lt;td&gt;Amarante - Água Branca - Regeneração&lt;/td&gt;
&lt;/tr&gt;&lt;tr bgcolor=""&gt;
&lt;th&gt;CT_LOCALIDADE&lt;/th&gt;
&lt;td&gt;Outras Localidades&lt;/td&gt;
&lt;/tr&gt;&lt;tr bgcolor="#E3E3F3"&gt;
&lt;th&gt;SCT_LOCALIDADE&lt;/th&gt;
&lt;td&gt;&lt;/td&gt;
&lt;/tr&gt;&lt;tr bgcolor=""&gt;
&lt;th&gt;CD_LOCALIDADE&lt;/th&gt;
&lt;td&gt;220460000001&lt;/td&gt;
&lt;/tr&gt;&lt;tr bgcolor="#E3E3F3"&gt;
&lt;th&gt;NM_LOCALIDADE&lt;/th&gt;
&lt;td&gt;Gomes&lt;/td&gt;
&lt;/tr&gt;&lt;/table&gt;&lt;/center&gt;</description>
<Style>
<IconStyle>
<color>ff0069d3</color>
<scale>0.6</scale>
<Icon>
<href>http://maps.google.com/mapfiles/kml/shapes/placemark_circle.png</href>
</Icon>
</IconStyle>
<LabelStyle>
<scale>0.6</scale>
</LabelStyle>
<LineStyle>
<width>1.0</width>
<gx:labelVisibility>1</gx:labelVisibility>
</LineStyle>
</Style>
<ExtendedData>
<SchemaData schemaUrl="#kml_schema_ft_Localidades">
<SimpleData name="CD_UF">22</SimpleData>
<SimpleData name="NM_UF">Piauí</SimpleData>
<SimpleData name="SIGLA_UF">PI</SimpleData>
<SimpleData name="CD_MUN">2204600</SimpleData>
<SimpleData name="NM_MUN">Hugo Napoleão</SimpleData>
<SimpleData name="CD_RGINT">2201</SimpleData>
<SimpleData name="NM_RGINT">Teresina</SimpleData>
<SimpleData name="CD_RGI">220002</SimpleData>
<SimpleData name="NM_RGI">Amarante - Água Branca - Regeneração</SimpleData>
<SimpleData name="CT_LOCALIDADE">Outras Localidades</SimpleData>
<SimpleData name="CD_LOCALIDADE">220460000001</SimpleData>
<SimpleData name="NM_LOCALIDADE">Gomes</SimpleData>
</SchemaData>
</ExtendedData>
<Point>
<extrude>0</extrude>
<coordinates>-42.537939,-5.99378299980325,0.0</coordinates>
</Point>
</Placemark>
<Placemark id="12. Outras Localidades">
<name>Jacaré [220460000003]</name>
<visibility>1</visibility>
<snippet> </snippet>
<description>&lt;center&gt;&lt;table&gt;&lt;tr&gt;&lt;th colspan='2' align='center'&gt;&lt;em&gt;Attributes&lt;/em&gt;&lt;/th&gt;&lt;/tr&gt;&lt;tr bgcolor="#E3E3F3"&gt;
&lt;th&gt;CD_UF&lt;/th&gt;
&lt;td&gt;22&lt;/td&gt;
&lt;/tr&gt;&lt;tr bgcolor=""&gt;
&lt;th&gt;NM_UF&lt;/th&gt;
&lt;td&gt;Piauí&lt;/td&gt;
&lt;/tr&gt;&lt;tr bgcolor="#E3E3F3"&gt;
&lt;th&gt;SIGLA_UF&lt;/th&gt;
&lt;td&gt;PI&lt;/td&gt;
&lt;/tr&gt;&lt;tr bgcolor=""&gt;
&lt;th&gt;CD_MUN&lt;/th&gt;
&lt;td&gt;2204600&lt;/td&gt;
&lt;/tr&gt;&lt;tr bgcolor="#E3E3F3"&gt;
&lt;th&gt;NM_MUN&lt;/th&gt;
&lt;td&gt;Hugo Napoleão&lt;/td&gt;
&lt;/tr&gt;&lt;tr bgcolor=""&gt;
&lt;th&gt;CD_RGINT&lt;/th&gt;
&lt;td&gt;2201&lt;/td&gt;
&lt;/tr&gt;&lt;tr bgcolor="#E3E3F3"&gt;
&lt;th&gt;NM_RGINT&lt;/th&gt;
&lt;td&gt;Teresina&lt;/td&gt;
&lt;/tr&gt;&lt;tr bgcolor=""&gt;
&lt;th&gt;CD_RGI&lt;/th&gt;
&lt;td&gt;220002&lt;/td&gt;
&lt;/tr&gt;&lt;tr bgcolor="#E3E3F3"&gt;
&lt;th&gt;NM_RGI&lt;/th&gt;
&lt;td&gt;Amarante - Água Branca - Regeneração&lt;/td&gt;
&lt;/tr&gt;&lt;tr bgcolor=""&gt;
&lt;th&gt;CT_LOCALIDADE&lt;/th&gt;
&lt;td&gt;Outras Localidades&lt;/td&gt;
&lt;/tr&gt;&lt;tr bgcolor="#E3E3F3"&gt;
&lt;th&gt;SCT_LOCALIDADE&lt;/th&gt;
&lt;td&gt;&lt;/td&gt;
&lt;/tr&gt;&lt;tr bgcolor=""&gt;
&lt;th&gt;CD_LOCALIDADE&lt;/th&gt;
&lt;td&gt;220460000003&lt;/td&gt;
&lt;/tr&gt;&lt;tr bgcolor="#E3E3F3"&gt;
&lt;th&gt;NM_LOCALIDADE&lt;/th&gt;
&lt;td&gt;Jacaré&lt;/td&gt;
&lt;/tr&gt;&lt;/table&gt;&lt;/center&gt;</description>
<Style>
<IconStyle>
<color>ff0069d3</color>
<scale>0.6</scale>
<Icon>
<href>http://maps.google.com/mapfiles/kml/shapes/placemark_circle.png</href>
</Icon>
</IconStyle>
<LabelStyle>
<scale>0.6</scale>
</LabelStyle>
<LineStyle>
<width>1.0</width>
<gx:labelVisibility>1</gx:labelVisibility>
</LineStyle>
</Style>
<ExtendedData>
<SchemaData schemaUrl="#kml_schema_ft_Localidades">
<SimpleData name="CD_UF">22</SimpleData>
<SimpleData name="NM_UF">Piauí</SimpleData>
<SimpleData name="SIGLA_UF">PI</SimpleData>
<SimpleData name="CD_MUN">2204600</SimpleData>
<SimpleData name="NM_MUN">Hugo Napoleão</SimpleData>
<SimpleData name="CD_RGINT">2201</SimpleData>
<SimpleData name="NM_RGINT">Teresina</SimpleData>
<SimpleData name="CD_RGI">220002</SimpleData>
<SimpleData name="NM_RGI">Amarante - Água Branca - Regeneração</SimpleData>
<SimpleData name="CT_LOCALIDADE">Outras Localidades</SimpleData>
<SimpleData name="CD_LOCALIDADE">220460000003</SimpleData>
<SimpleData name="NM_LOCALIDADE">Jacaré</SimpleData>
</SchemaData>
</ExtendedData>
<Point>
<extrude>0</extrude>
<coordinates>-42.55081,-6.02647799980219,0.0</coordinates>
</Point>
</Placemark>
</Folder>
<Folder id="13. Referência">
<name>13. Referência</name>
<Placemark id="13. Referência">
<name>Hugo Napoleão [2204600]</name>
<visibility>1</visibility>
<snippet> </snippet>
<description>&lt;center&gt;&lt;table&gt;&lt;tr&gt;&lt;th colspan='2' align='center'&gt;&lt;em&gt;Attributes&lt;/em&gt;&lt;/th&gt;&lt;/tr&gt;&lt;tr bgcolor="#E3E3F3"&gt;
&lt;th&gt;CD_UF&lt;/th&gt;
&lt;td&gt;22&lt;/td&gt;
&lt;/tr&gt;&lt;tr bgcolor=""&gt;
&lt;th&gt;NM_UF&lt;/th&gt;
&lt;td&gt;Piauí&lt;/td&gt;
&lt;/tr&gt;&lt;tr bgcolor="#E3E3F3"&gt;
&lt;th&gt;CD_MUN&lt;/th&gt;
&lt;td&gt;2204600&lt;/td&gt;
&lt;/tr&gt;&lt;tr bgcolor=""&gt;
&lt;th&gt;NM_MUN&lt;/th&gt;
&lt;td&gt;Hugo Napoleão&lt;/td&gt;
&lt;/tr&gt;&lt;tr bgcolor="#E3E3F3"&gt;
&lt;th&gt;CD_RGINT&lt;/th&gt;
&lt;td&gt;2201&lt;/td&gt;
&lt;/tr&gt;&lt;tr bgcolor=""&gt;
&lt;th&gt;NM_RGINT&lt;/th&gt;
&lt;td&gt;Teresina&lt;/td&gt;
&lt;/tr&gt;&lt;tr bgcolor="#E3E3F3"&gt;
&lt;th&gt;CD_RGI&lt;/th&gt;
&lt;td&gt;220002&lt;/td&gt;
&lt;/tr&gt;&lt;tr bgcolor=""&gt;
&lt;th&gt;NM_RGI&lt;/th&gt;
&lt;td&gt;Amarante - Água Branca - Regeneração&lt;/td&gt;
&lt;/tr&gt;&lt;/table&gt;&lt;/center&gt;</description>
<Style>
<IconStyle>
<scale>0.7</scale>
</IconStyle>
<LabelStyle>
<scale>0.7</scale>
</LabelStyle>
<LineStyle>
<color>ffffffff</color>
<width>3</width>
<gx:labelVisibility>1</gx:labelVisibility>
</LineStyle>
<PolyStyle>
<color>00ffffff</color>
</PolyStyle>
</Style>
<ExtendedData>
<SchemaData schemaUrl="#kml_schema_ft_Município">
<SimpleData name="CD_UF">22</SimpleData>
<SimpleData name="NM_UF">Piauí</SimpleData>
<SimpleData name="CD_MUN">2204600</SimpleData>
<SimpleData name="NM_MUN">Hugo Napoleão</SimpleData>
<SimpleData name="CD_RGINT">2201</SimpleData>
<SimpleData name="NM_RGINT">Teresina</SimpleData>
<SimpleData name="CD_RGI">220002</SimpleData>
<SimpleData name="NM_RGI">Amarante - Água Branca - Regeneração</SimpleData>
</SchemaData>
</ExtendedData>
<MultiGeometry>
<Polygon>
<extrude>0</extrude>
<tessellate>1</tessellate>
<outerBoundaryIs>
<LinearRing>
<coordinates>-42.5862396,-5.98834229980342,0.0 -42.586235,-5.98831299980342,0.0 -42.5798969,-5.94772339980474,0.0 -42.5478247,-5.94379799980486,0.0 -42.4896947,-5.93668349980509,0.0 -42.489648,-5.93738199980507,0.0 -42.48993,-5.93834899980504,0.0 -42.490234,-5.93850199980504,0.0 -42.490715,-5.93862999980503,0.0 -42.491106,-5.93864299980503,0.0 -42.491672,-5.93861299980503,0.0 -42.492299,-5.93877099980503,0.0 -42.492822,-5.93911699980502,0.0 -42.492934,-5.93933399980501,0.0 -42.492871,-5.93969799980499,0.0 -42.49251,-5.94035499980497,0.0 -42.492218,-5.94091799980496,0.0 -42.492141,-5.94145499980494,0.0 -42.49233,-5.94193299980492,0.0 -42.492793,-5.94218099980492,0.0 -42.493695,-5.94205299980492,0.0 -42.494424,-5.94192499980493,0.0 -42.495308,-5.94204399980492,0.0 -42.495692,-5.94210999980492,0.0 -42.496087,-5.94225099980491,0.0 -42.496345,-5.94245999980491,0.0 -42.496538,-5.94306099980489,0.0 -42.496572,-5.94358999980487,0.0 -42.496435,-5.94408499980486,0.0 -42.496284,-5.94432799980485,0.0 -42.496018,-5.94450699980484,0.0 -42.495988,-5.94469899980484,0.0 -42.496349,-5.94502799980483,0.0 -42.497014,-5.94493799980483,0.0 -42.497859,-5.94432399980485,0.0 -42.498553,-5.94372999980487,0.0 -42.499158,-5.94331999980488,0.0 -42.499664,-5.94281699980489,0.0 -42.49996,-5.9425179998049,0.0 -42.500368,-5.94229199980491,0.0 -42.50075,-5.94233899980491,0.0 -42.501291,-5.9425779998049,0.0 -42.501514,-5.94290699980489,0.0 -42.501733,-5.94341799980488,0.0 -42.50205,-5.94392999980486,0.0 -42.50211,-5.94420799980485,0.0 -42.501642,-5.94518499980482,0.0 -42.501367,-5.9456619998048,0.0 -42.500616,-5.94620799980479,0.0 -42.500066,-5.94631499980478,0.0 -42.49968,-5.94655799980477,0.0 -42.499427,-5.94708199980476,0.0 -42.499431,-5.94779499980474,0.0 -42.499621,-5.94850099980471,0.0 -42.499741,-5.94911999980469,0.0 -42.49972,-5.94970399980467,0.0 -42.499587,-5.95050599980465,0.0 -42.499525,-5.95094099980463,0.0 -42.499525,-5.95119299980462,0.0 -42.499756,-5.95162799980461,0.0 -42.500258,-5.9519049998046,0.0 -42.500593,-5.95223299980459,0.0 -42.5007,-5.95244699980459,0.0 -42.500688,-5.95272399980458,0.0 -42.500525,-5.95326999980456,0.0 -42.500344,-5.95343249980455,0.0 -42.50017,-5.95360099980455,0.0 -42.499904,-5.95383099980454,0.0 -42.499591,-5.95393799980453,0.0 -42.499226,-5.95383099980454,0.0 -42.498969,-5.95367799980454,0.0 -42.49851,-5.95377099980454,0.0 -42.497669,-5.95399299980453,0.0 -42.497278,-5.95438999980452,0.0 -42.497016,-5.95536299980449,0.0 -42.49681,-5.95624399980446,0.0 -42.496677,-5.95649599980445,0.0 -42.496458,-5.95679399980444,0.0 -42.496166,-5.95780499980441,0.0 -42.49612,-5.95838299980439,0.0 -42.496266,-5.95896299980437,0.0 -42.496824,-5.95979499980435,0.0 -42.497438,-5.96040499980433,0.0 -42.497714,-5.96070299980432,0.0 -42.497847,-5.96092899980431,0.0 -42.497847,-5.9611339998043,0.0 -42.497701,-5.96164599980429,0.0 -42.497512,-5.96222199980427,0.0 -42.49746,-5.96268199980425,0.0 -42.497529,-5.96300199980424,0.0 -42.497516,-5.96341999980423,0.0 -42.497598,-5.96372299980422,0.0 -42.497985,-5.96403599980421,0.0 -42.498603,-5.9643469998042,0.0 -42.499221,-5.96455199980419,0.0 -42.499813,-5.96500799980418,0.0 -42.499873,-5.96526399980417,0.0 -42.49953,-5.96616799980414,0.0 -42.499315,-5.96707699980411,0.0 -42.499079,-5.96765699980409,0.0 -42.499028,-5.96786599980409,0.0 -42.499071,-5.96879099980406,0.0 -42.499242,-5.96958399980403,0.0 -42.499487,-5.96990399980402,0.0 -42.499886,-5.97019399980401,0.0 -42.500358,-5.97033499980401,0.0 -42.500779,-5.97028799980401,0.0 -42.501041,-5.97032399980401,0.0 -42.501036,-5.970485999804,0.0 -42.500865,-5.97077199980399,0.0 -42.5005,-5.97099399980399,0.0 -42.500066,-5.97111699980398,0.0 -42.499916,-5.97131799980397,0.0 -42.499865,-5.97173999980396,0.0 -42.500063,-5.97200699980395,0.0 -42.500106,-5.97221999980395,0.0 -42.500012,-5.97276199980393,0.0 -42.49996,-5.9737219998039,0.0 -42.499889,-5.97532299980385,0.0 -42.499919,-5.97583099980383,0.0 -42.500044,-5.9766749998038,0.0 -42.500059,-5.97730399980378,0.0 -42.499939,-5.97763199980377,0.0 -42.499698,-5.97772199980377,0.0 -42.499265,-5.97755999980377,0.0 -42.498982,-5.97751699980377,0.0 -42.498793,-5.97752999980378,0.0 -42.498626,-5.97769199980377,0.0 -42.4986,-5.97787499980376,0.0 -42.498767,-5.97810599980375,0.0 -42.49887,-5.97823399980375,0.0 -42.498784,-5.97850699980374,0.0 -42.498244,-5.97910399980372,0.0 -42.497622,-5.97931099980372,0.0 -42.496979,-5.97960499980371,0.0 -42.496361,-5.9796949998037,0.0 -42.496133,-5.9798009998037,0.0 -42.495867,-5.9799809998037,0.0 -42.495472,-5.98005299980369,0.0 -42.494666,-5.98005299980369,0.0 -42.493876,-5.98012999980369,0.0 -42.493093,-5.98042899980368,0.0 -42.491209,-5.98143599980365,0.0 -42.490638,-5.98177699980364,0.0 -42.490183,-5.98224699980362,0.0 -42.489812,-5.9828569998036,0.0 -42.489666,-5.9829799998036,0.0 -42.48967,-5.98314699980359,0.0 -42.489842,-5.98354799980358,0.0 -42.490099,-5.98386299980357,0.0 -42.49025,-5.98456699980355,0.0 -42.490241,-5.98492599980353,0.0 -42.489958,-5.98544999980352,0.0 -42.489825,-5.98555599980351,0.0 -42.489134,-5.98554399980351,0.0 -42.488752,-5.98562499980351,0.0 -42.488438,-5.98573099980351,0.0 -42.488211,-5.9859359998035,0.0 -42.4881939,-5.9860767998035,0.0 -42.488095,-5.98689199980347,0.0 -42.488134,-5.98755299980345,0.0 -42.488116,-5.98793199980344,0.0 -42.487892,-5.98845699980342,0.0 -42.487751,-5.98879799980341,0.0 -42.487759,-5.9890199998034,0.0 -42.487961,-5.98932699980339,0.0 -42.488189,-5.98953999980339,0.0 -42.488214,-5.98966399980338,0.0 -42.488051,-5.98977499980338,0.0 -42.487425,-5.98972399980338,0.0 -42.487,-5.98977099980338,0.0 -42.486373,-5.98997999980337,0.0 -42.486124,-5.99038899980336,0.0 -42.485756,-5.99119599980333,0.0 -42.48549,-5.99149399980332,0.0 -42.48513,-5.99173299980331,0.0 -42.484859,-5.99198099980331,0.0 -42.484774,-5.9921339998033,0.0 -42.484804,-5.99235999980329,0.0 -42.484859,-5.99259499980329,0.0 -42.48464,-5.99304699980327,0.0 -42.4845182,-5.99315089980327,0.0 -42.484517,-5.99315199980327,0.0 -42.484294,-5.99316499980327,0.0 -42.484097,-5.99323699980327,0.0 -42.484002,-5.99336099980326,0.0 -42.483994,-5.99363399980325,0.0 -42.484049,-5.99379599980325,0.0 -42.484024,-5.99400499980324,0.0 -42.483719,-5.99410699980324,0.0 -42.483388,-5.99398399980324,0.0 -42.482916,-5.99408999980324,0.0 -42.482779,-5.99425199980323,0.0 -42.482592,-5.99473499980322,0.0 -42.482434,-5.9952769998032,0.0 -42.482361,-5.99543499980319,0.0 -42.482142,-5.99558799980319,0.0 -42.481987,-5.99569899980319,0.0 -42.48191,-5.99582299980318,0.0 -42.481931,-5.99603999980317,0.0 -42.481983,-5.99625799980317,0.0 -42.481889,-5.99638999980316,0.0 -42.481601,-5.99650499980316,0.0 -42.481355,-5.99665399980316,0.0 -42.481205,-5.99702499980314,0.0 -42.481085,-5.99761799980312,0.0 -42.481128,-5.99812899980311,0.0 -42.481158,-5.9983979998031,0.0 -42.481094,-5.99863299980309,0.0 -42.480789,-5.99904699980308,0.0 -42.480288,-5.99936399980307,0.0 -42.480013,-5.99942299980307,0.0 -42.479696,-5.99932499980307,0.0 -42.479451,-5.99899199980308,0.0 -42.479284,-5.99894999980308,0.0 -42.478914,-5.99903499980308,0.0 -42.478709,-5.99898799980308,0.0 -42.478378,-5.99877899980309,0.0 -42.477679,-5.99883499980308,0.0 -42.477151,-5.99907799980308,0.0 -42.47705,-5.99921899980307,0.0 -42.477024,-5.99949599980306,0.0 -42.47699,-5.99982899980305,0.0 -42.47687,-6.00009299980304,0.0 -42.476655,-6.00014899980304,0.0 -42.476342,-5.99997399980305,0.0 -42.476089,-5.99992299980305,0.0 -42.475784,-5.99991799980305,0.0 -42.475368,-6.00010599980304,0.0 -42.475338,-6.00036199980303,0.0 -42.475372,-6.00075899980302,0.0 -42.475543,-6.00107899980301,0.0 -42.475651,-6.00209699980298,0.0 -42.475591,-6.00232699980297,0.0 -42.475389,-6.00254899980296,0.0 -42.474994,-6.00277899980296,0.0 -42.474758,-6.00306499980295,0.0 -42.474681,-6.00338899980294,0.0 -42.474743,-6.00359299980293,0.0 -42.474666,-6.00377299980293,0.0 -42.474035,-6.00423299980291,0.0 -42.473837,-6.00433099980291,0.0 -42.473515,-6.0044169998029,0.0 -42.473266,-6.0043739998029,0.0 -42.473017,-6.00417399980291,0.0 -42.472832,-6.00395599980292,0.0 -42.472485,-6.00362799980293,0.0 -42.47215,-6.00337199980294,0.0 -42.4719242,-6.00321429980294,0.0 -42.471676,-6.00322729980294,0.0 -42.4714706,-6.00334469980294,0.0 -42.4713843,-6.00349459980293,0.0 -42.471459,-6.00357199980293,0.0 -42.4715733,-6.00364299980293,0.0 -42.471575,-6.00385399980292,0.0 -42.471502,-6.00423299980291,0.0 -42.471395,-6.0044129998029,0.0 -42.471257,-6.0044549998029,0.0 -42.471081,-6.0046859998029,0.0 -42.470953,-6.00527399980288,0.0 -42.471031,-6.00564299980286,0.0 -42.47107,-6.00597599980285,0.0 -42.470894,-6.00630399980284,0.0 -42.470615,-6.00668399980283,0.0 -42.47025,-6.00678599980283,0.0 -42.469791,-6.00681599980283,0.0 -42.469585,-6.00682899980283,0.0 -42.469486,-6.00687999980282,0.0 -42.46943,-6.00730199980281,0.0 -42.46943,-6.00744199980281,0.0 -42.468941,-6.0077269998028,0.0 -42.468409,-6.00777899980279,0.0 -42.467739,-6.00799599980279,0.0 -42.467245,-6.00811399980278,0.0 -42.466992,-6.00813099980278,0.0 -42.466708,-6.00804999980279,0.0 -42.466468,-6.00785399980279,0.0 -42.46609,-6.0077299998028,0.0 -42.465794,-6.00778099980279,0.0 -42.465614,-6.00788799980279,0.0 -42.465417,-6.00806699980279,0.0 -42.4653442,-6.00817539980278,0.0 -42.465005,-6.00830399980278,0.0 -42.464627,-6.00853399980277,0.0 -42.464335,-6.00858999980277,0.0 -42.463567,-6.00837599980278,0.0 -42.463048,-6.00834199980278,0.0 -42.462812,-6.00845299980277,0.0 -42.462747,-6.00865799980277,0.0 -42.462833,-6.00905899980275,0.0 -42.462953,-6.00934499980275,0.0 -42.463048,-6.00955799980274,0.0 -42.462962,-6.00973699980273,0.0 -42.462606,-6.00982699980273,0.0 -42.46237,-6.00971599980273,0.0 -42.462073,-6.00951099980274,0.0 -42.461812,-6.00951899980274,0.0 -42.461661,-6.00956999980274,0.0 -42.461653,-6.00975399980273,0.0 -42.461554,-6.00994199980272,0.0 -42.461142,-6.01026999980272,0.0 -42.460696,-6.01033799980271,0.0 -42.460164,-6.01009899980272,0.0 -42.459964,-6.01006599980272,0.0 -42.459432,-6.01015499980272,0.0 -42.458844,-6.01046699980271,0.0 -42.458651,-6.0108929998027,0.0 -42.458707,-6.01118799980268,0.0 -42.458947,-6.01146099980268,0.0 -42.459157,-6.01160599980267,0.0 -42.459205,-6.01178499980267,0.0 -42.458947,-6.01202399980266,0.0 -42.458526,-6.01224499980265,0.0 -42.458325,-6.01233899980265,0.0 -42.45816,-6.01222699980265,0.0 -42.458031,-6.01202299980266,0.0 -42.457872,-6.01201799980266,0.0 -42.457434,-6.01223599980265,0.0 -42.457048,-6.01259899980264,0.0 -42.456838,-6.01272199980263,0.0 -42.456683,-6.01282899980263,0.0 -42.456567,-6.01300399980263,0.0 -42.456456,-6.01317899980262,0.0 -42.456499,-6.01337499980261,0.0 -42.456696,-6.01350699980261,0.0 -42.45673,-6.01363099980261,0.0 -42.456572,-6.0137629998026,0.0 -42.456503,-6.0138949998026,0.0 -42.456589,-6.01429199980258,0.0 -42.456548,-6.01455599980257,0.0 -42.456252,-6.01488399980257,0.0 -42.456067,-6.01510599980256,0.0 -42.456076,-6.01538699980255,0.0 -42.456123,-6.01559199980254,0.0 -42.456063,-6.01590799980253,0.0 -42.455784,-6.01604399980253,0.0 -42.455591,-6.01590299980253,0.0 -42.455415,-6.01578799980254,0.0 -42.455158,-6.01567299980254,0.0 -42.454737,-6.01590299980253,0.0 -42.454278,-6.01600499980253,0.0 -42.453827,-6.01623999980252,0.0 -42.453574,-6.01646599980251,0.0 -42.453462,-6.01665399980251,0.0 -42.45345,-6.01711399980249,0.0 -42.453474,-6.01749999980248,0.0 -42.453281,-6.01806299980246,0.0 -42.453195,-6.01845599980245,0.0 -42.453161,-6.01883499980244,0.0 -42.453024,-6.01900999980243,0.0 -42.452693,-6.01916799980243,0.0 -42.452345,-6.01946199980242,0.0 -42.452156,-6.01958199980241,0.0 -42.451778,-6.01953099980242,0.0 -42.451259,-6.01932999980242,0.0 -42.451031,-6.01932999980242,0.0 -42.450731,-6.01953099980242,0.0 -42.450538,-6.01970099980241,0.0 -42.450486,-6.01982899980241,0.0 -42.450585,-6.0201779998024,0.0 -42.450534,-6.02030199980239,0.0 -42.450297,-6.02048999980238,0.0 -42.450087,-6.02043899980239,0.0 -42.449855,-6.02018299980239,0.0 -42.449598,-6.0201779998024,0.0 -42.44931,-6.02041299980239,0.0 -42.44913,-6.02080999980237,0.0 -42.44886,-6.02116799980236,0.0 -42.448456,-6.02148399980235,0.0 -42.448126,-6.02158599980235,0.0 -42.447864,-6.02151799980235,0.0 -42.447517,-6.02130899980236,0.0 -42.447332,-6.02122299980236,0.0 -42.44713,-6.02131299980236,0.0 -42.44686,-6.02136399980236,0.0 -42.446551,-6.02123999980236,0.0 -42.44595,-6.02122799980236,0.0 -42.445534,-6.02138999980235,0.0 -42.444976,-6.02166699980235,0.0 -42.444774,-6.02184599980234,0.0 -42.444567,-6.02254299980232,0.0 -42.444331,-6.0230969998023,0.0 -42.444069,-6.02352399980228,0.0 -42.443825,-6.02371999980228,0.0 -42.443318,-6.02381399980228,0.0 -42.44261,-6.02387799980228,0.0 -42.442158,-6.02407199980227,0.0 -42.4417604,-6.02449579980226,0.0 -42.441634,-6.02484399980224,0.0 -42.441784,-6.02497199980224,0.0 -42.442316,-6.02515499980223,0.0 -42.442484,-6.02523999980223,0.0 -42.442552,-6.02534299980223,0.0 -42.442565,-6.02547099980222,0.0 -42.442111,-6.02574099980222,0.0 -42.441639,-6.02600899980221,0.0 -42.441197,-6.0262989998022,0.0 -42.440914,-6.02662399980219,0.0 -42.440433,-6.02743799980216,0.0 -42.44018,-6.02778699980215,0.0 -42.440103,-6.02793599980214,0.0 -42.440184,-6.02828599980213,0.0 -42.440253,-6.02855099980212,0.0 -42.440412,-6.02871299980212,0.0 -42.440463,-6.02888799980211,0.0 -42.440395,-6.02951499980209,0.0 -42.439923,-6.03037899980206,0.0 -42.439562,-6.03072899980205,0.0 -42.439339,-6.03068199980206,0.0 -42.439064,-6.03051199980206,0.0 -42.438798,-6.03053699980206,0.0 -42.438661,-6.03089999980205,0.0 -42.438631,-6.03159499980203,0.0 -42.438593,-6.03217599980201,0.0 -42.438387,-6.032397999802,0.0 -42.437293,-6.03290599980198,0.0 -42.436323,-6.03319999980197,0.0 -42.435574,-6.03363699980196,0.0 -42.435248,-6.03433699980194,0.0 -42.435152,-6.03499499980192,0.0 -42.434834,-6.0354299998019,0.0 -42.434941,-6.03599499980188,0.0 -42.434761,-6.03721899980184,0.0 -42.434546,-6.03814899980181,0.0 -42.434461,-6.0384729998018,0.0 -42.43404,-6.03894299980179,0.0 -42.433783,-6.03919899980178,0.0 -42.433765,-6.03968499980177,0.0 -42.433834,-6.04003499980175,0.0 -42.434272,-6.04047799980174,0.0 -42.434701,-6.04068099980173,0.0 -42.435267,-6.04085099980173,0.0 -42.435551,-6.04115799980172,0.0 -42.435645,-6.0415249998017,0.0 -42.435534,-6.04259999980167,0.0 -42.435267,-6.04359799980164,0.0 -42.435115,-6.04453399980161,0.0 -42.435055,-6.04495199980159,0.0 -42.434746,-6.04511399980159,0.0 -42.434016,-6.04534499980158,0.0 -42.432823,-6.04563499980157,0.0 -42.431776,-6.04611199980156,0.0 -42.431553,-6.04650499980154,0.0 -42.431819,-6.04691499980153,0.0 -42.432171,-6.04740999980151,0.0 -42.432188,-6.0477769998015,0.0 -42.431991,-6.04810099980149,0.0 -42.431553,-6.04882599980147,0.0 -42.431297,-6.04933799980145,0.0 -42.431254,-6.04980699980144,0.0 -42.431142,-6.04992299980143,0.0 -42.430979,-6.05010599980143,0.0 -42.430983,-6.05049399980141,0.0 -42.431395,-6.0508819998014,0.0 -42.431597,-6.05139399980139,0.0 -42.431916,-6.05178299980137,0.0 -42.431856,-6.05231199980136,0.0 -42.431581,-6.05273899980134,0.0 -42.431298,-6.05296899980133,0.0 -42.431066,-6.05303699980133,0.0 -42.430869,-6.05332699980132,0.0 -42.430783,-6.05373699980131,0.0 -42.430894,-6.05446199980129,0.0 -42.430721,-6.05498399980127,0.0 -42.430596,-6.05508199980127,0.0 -42.430446,-6.05513299980126,0.0 -42.430351,-6.05527799980126,0.0 -42.430506,-6.05575999980124,0.0 -42.43051,-6.05618699980123,0.0 -42.430223,-6.05735099980119,0.0 -42.430019,-6.05751099980119,0.0 -42.429955,-6.05767299980118,0.0 -42.430032,-6.05798499980117,0.0 -42.430281,-6.05841099980116,0.0 -42.430384,-6.05917499980113,0.0 -42.430139,-6.05956699980112,0.0 -42.429686,-6.05997899980111,0.0 -42.428914,-6.0601749998011,0.0 -42.428416,-6.06050799980109,0.0 -42.427901,-6.06193199980104,0.0 -42.427832,-6.06245199980103,0.0 -42.42795,-6.06308299980101,0.0 -42.428028,-6.06414999980097,0.0 -42.427985,-6.06524199980094,0.0 -42.427873,-6.06573599980092,0.0 -42.427547,-6.06600899980091,0.0 -42.426938,-6.06575299980092,0.0 -42.426646,-6.06558299980093,0.0 -42.426208,-6.06577899980092,0.0 -42.425404,-6.06699099980088,0.0 -42.424937,-6.06824899980084,0.0 -42.42456,-6.06922999980081,0.0 -42.42426,-6.0695799998008,0.0 -42.423805,-6.06973299980079,0.0 -42.423555,-6.07007999980078,0.0 -42.42325,-6.07050599980077,0.0 -42.423044,-6.07068999980076,0.0 -42.42298,-6.07097099980075,0.0 -42.423151,-6.07154699980074,0.0 -42.423096,-6.07183299980072,0.0 -42.422696,-6.0725879998007,0.0 -42.422591,-6.07331999980068,0.0 -42.422497,-6.07354199980067,0.0 -42.422557,-6.07382399980066,0.0 -42.422784,-6.07409699980065,0.0 -42.42299,-6.07455699980064,0.0 -42.423123,-6.07485999980063,0.0 -42.423257,-6.07511599980062,0.0 -42.423724,-6.07530799980061,0.0 -42.423952,-6.07524799980061,0.0 -42.424385,-6.07508999980062,0.0 -42.424677,-6.07497999980062,0.0 -42.424939,-6.07500899980062,0.0 -42.425004,-6.07532899980061,0.0 -42.425077,-6.07602399980059,0.0 -42.424871,-6.07655699980057,0.0 -42.424528,-6.07691999980056,0.0 -42.424262,-6.07727399980055,0.0 -42.423931,-6.07755699980054,0.0 -42.423489,-6.07776599980053,0.0 -42.423343,-6.07794499980053,0.0 -42.423301,-6.07820099980052,0.0 -42.423331,-6.07849099980051,0.0 -42.423185,-6.07862299980051,0.0 -42.422867,-6.0787379998005,0.0 -42.422678,-6.0788239998005,0.0 -42.42261,-6.07912199980049,0.0 -42.422554,-6.07930999980048,0.0 -42.422352,-6.07948899980048,0.0 -42.422306,-6.07969599980047,0.0 -42.422366,-6.07977699980047,0.0 -42.422525,-6.07979799980047,0.0 -42.422619,-6.07993499980046,0.0 -42.422529,-6.08016899980046,0.0 -42.422439,-6.08030999980045,0.0 -42.422538,-6.08050199980045,0.0 -42.422804,-6.08066799980044,0.0 -42.422872,-6.08085599980043,0.0 -42.422842,-6.08098799980043,0.0 -42.422555,-6.08108599980043,0.0 -42.422315,-6.08104799980043,0.0 -42.422121,-6.08105199980043,0.0 -42.422027,-6.08111599980043,0.0 -42.422052,-6.08135799980042,0.0 -42.421923,-6.08152399980041,0.0 -42.421734,-6.08163899980041,0.0 -42.42158,-6.08157499980041,0.0 -42.421489,-6.08152899980041,0.0 -42.421391,-6.08161799980041,0.0 -42.421356,-6.0818439998004,0.0 -42.421447,-6.08209999980039,0.0 -42.4217,-6.08237699980038,0.0 -42.421811,-6.08251799980038,0.0 -42.421837,-6.08271399980037,0.0 -42.421678,-6.08280399980037,0.0 -42.421532,-6.08287199980037,0.0 -42.421537,-6.08298699980036,0.0 -42.421683,-6.08319599980036,0.0 -42.42188,-6.08319199980036,0.0 -42.422159,-6.08313199980036,0.0 -42.422635,-6.08328899980035,0.0 -42.423288,-6.08373199980034,0.0 -42.423399,-6.08394599980033,0.0 -42.423395,-6.08414999980033,0.0 -42.423189,-6.08434699980032,0.0 -42.423004,-6.08441099980032,0.0 -42.422961,-6.08466199980031,0.0 -42.423052,-6.08512699980029,0.0 -42.422907,-6.08549399980028,0.0 -42.422606,-6.08589099980027,0.0 -42.422263,-6.08618499980026,0.0 -42.421516,-6.08663299980025,0.0 -42.421036,-6.08693099980024,0.0 -42.420809,-6.08722499980023,0.0 -42.420612,-6.0880429998002,0.0 -42.420603,-6.08837999980019,0.0 -42.420856,-6.08896499980017,0.0 -42.421016,-6.08933099980016,0.0 -42.421064,-6.08974899980015,0.0 -42.421064,-6.09023499980013,0.0 -42.421085,-6.09048199980012,0.0 -42.421278,-6.09074199980011,0.0 -42.42136,-6.09096799980011,0.0 -42.421351,-6.0912969998001,0.0 -42.421391,-6.09149399980009,0.0 -42.421494,-6.09164799980009,0.0 -42.42152,-6.09193799980008,0.0 -42.421571,-6.09217199980007,0.0 -42.421391,-6.09222799980007,0.0 -42.421258,-6.09207799980007,0.0 -42.421103,-6.09207799980007,0.0 -42.421013,-6.09244099980006,0.0 -42.421054,-6.09285699980005,0.0 -42.42117,-6.09318899980004,0.0 -42.421238,-6.09376499980002,0.0 -42.421174,-6.0941269998,0.0 -42.421037,-6.0944169998,0.0 -42.421067,-6.09483499979998,0.0 -42.421198,-6.09519699979997,0.0 -42.421322,-6.09535499979996,0.0 -42.421442,-6.09543999979996,0.0 -42.421447,-6.09572599979995,0.0 -42.421451,-6.09608399979994,0.0 -42.421537,-6.09632299979993,0.0 -42.421592,-6.09663399979992,0.0 -42.421515,-6.09679199979992,0.0 -42.421356,-6.09676199979992,0.0 -42.421228,-6.09668499979992,0.0 -42.421138,-6.09673599979992,0.0 -42.42115,-6.09697999979991,0.0 -42.42103,-6.0972559997999,0.0 -42.420936,-6.09754599979989,0.0 -42.421043,-6.09798499979988,0.0 -42.421161,-6.09834099979987,0.0 -42.421135,-6.09865699979986,0.0 -42.420972,-6.09918499979984,0.0 -42.420625,-6.09948799979983,0.0 -42.42038,-6.09973099979982,0.0 -42.420341,-6.10001299979981,0.0 -42.420293,-6.10020899979981,0.0 -42.419997,-6.1003619997998,0.0 -42.419349,-6.10067399979979,0.0 -42.419062,-6.10091299979978,0.0 -42.418847,-6.10101099979978,0.0 -42.418624,-6.10132199979977,0.0 -42.418311,-6.10183399979976,0.0 -42.417939,-6.10224599979974,0.0 -42.417678,-6.10322299979971,0.0 -42.417643,-6.1035939997997,0.0 -42.417682,-6.10401199979969,0.0 -42.417853,-6.10408499979968,0.0 -42.418098,-6.10410999979968,0.0 -42.418124,-6.10431099979968,0.0 -42.417742,-6.10496299979965,0.0 -42.41763,-6.10517199979965,0.0 -42.417371,-6.10600599979962,0.0 -42.417285,-6.1065559997996,0.0 -42.417225,-6.10679099979959,0.0 -42.417053,-6.10713599979958,0.0 -42.417036,-6.10738299979957,0.0 -42.417233,-6.10748099979957,0.0 -42.417572,-6.10757499979957,0.0 -42.417836,-6.10799699979956,0.0 -42.418081,-6.10842299979954,0.0 -42.418201,-6.10900699979952,0.0 -42.418081,-6.10921199979952,0.0 -42.417244,-6.1096219997995,0.0 -42.4166,-6.10988599979949,0.0 -42.416326,-6.11019099979949,0.0 -42.41624,-6.11053199979947,0.0 -42.416124,-6.11075399979947,0.0 -42.416034,-6.11100099979946,0.0 -42.41603,-6.11118499979945,0.0 -42.415922,-6.11144099979945,0.0 -42.41548,-6.11163199979944,0.0 -42.41524,-6.11157299979944,0.0 -42.415025,-6.11149999979944,0.0 -42.414841,-6.11154699979944,0.0 -42.414772,-6.11164999979944,0.0 -42.414944,-6.11183699979943,0.0 -42.415137,-6.11198199979943,0.0 -42.415273,-6.11235399979941,0.0 -42.415501,-6.11244799979941,0.0 -42.41581,-6.11264799979941,0.0 -42.415926,-6.1128999997994,0.0 -42.416011,-6.11370199979937,0.0 -42.415794,-6.11406799979936,0.0 -42.415193,-6.11440899979935,0.0 -42.414528,-6.11493799979933,0.0 -42.414249,-6.11545799979932,0.0 -42.413785,-6.1158889997993,0.0 -42.413308,-6.11621199979929,0.0 -42.413175,-6.11647199979928,0.0 -42.413016,-6.11716699979926,0.0 -42.412943,-6.11785799979924,0.0 -42.412729,-6.11840799979922,0.0 -42.412656,-6.1189199997992,0.0 -42.412403,-6.11923999979919,0.0 -42.41233,-6.11941899979919,0.0 -42.412468,-6.11971299979918,0.0 -42.412323,-6.12064699979915,0.0 -42.412104,-6.12127399979913,0.0 -42.411954,-6.12167499979911,0.0 -42.411374,-6.12197399979911,0.0 -42.411029,-6.12190599979911,0.0 -42.41072,-6.1219829997991,0.0 -42.410377,-6.1221959997991,0.0 -42.410093,-6.12271699979908,0.0 -42.409733,-6.12312599979907,0.0 -42.409415,-6.12319399979907,0.0 -42.409055,-6.12309199979907,0.0 -42.408746,-6.12316899979906,0.0 -42.408402,-6.12353499979906,0.0 -42.407922,-6.12379099979905,0.0 -42.407252,-6.12388499979904,0.0 -42.406857,-6.12400399979904,0.0 -42.406669,-6.12429399979903,0.0 -42.406291,-6.12487399979901,0.0 -42.405759,-6.12504499979901,0.0 -42.404865,-6.12551299979899,0.0 -42.404144,-6.12603699979897,0.0 -42.40396,-6.12622899979897,0.0 -42.403852,-6.12654499979896,0.0 -42.403694,-6.12688199979895,0.0 -42.403556,-6.12694599979895,0.0 -42.403367,-6.12692899979894,0.0 -42.403237,-6.12698399979894,0.0 -42.403086,-6.12716799979894,0.0 -42.402975,-6.12718899979894,0.0 -42.402867,-6.12705199979894,0.0 -42.402743,-6.12706899979894,0.0 -42.402687,-6.12723099979894,0.0 -42.402756,-6.12753399979892,0.0 -42.40267,-6.1281819997989,0.0 -42.402477,-6.12862199979889,0.0 -42.402275,-6.12887299979888,0.0 -42.40221,-6.12906499979888,0.0 -42.40227,-6.12920999979887,0.0 -42.4022741,-6.12936149979886,0.0 -42.402278,-6.12950899979886,0.0 -42.40215,-6.12981599979885,0.0 -42.4020459,-6.12986929979885,0.0 -42.401785,-6.13000299979885,0.0 -42.401446,-6.13001999979885,0.0 -42.401257,-6.13008399979884,0.0 -42.401073,-6.13008899979884,0.0 -42.400892,-6.12994799979885,0.0 -42.400725,-6.12986699979885,0.0 -42.400081,-6.13010999979884,0.0 -42.399749,-6.13031699979883,0.0 -42.399525,-6.13044499979883,0.0 -42.399388,-6.13061499979882,0.0 -42.399289,-6.13067499979882,0.0 -42.399109,-6.13068799979882,0.0 -42.398963,-6.13075599979882,0.0 -42.398834,-6.13095699979881,0.0 -42.398719,-6.13124199979881,0.0 -42.398624,-6.1314849997988,0.0 -42.398375,-6.13169399979879,0.0 -42.397955,-6.13191599979878,0.0 -42.397727,-6.13206499979878,0.0 -42.397389,-6.13239899979877,0.0 -42.397376,-6.13251399979876,0.0 -42.397497,-6.13266699979876,0.0 -42.397479,-6.13285499979875,0.0 -42.397145,-6.13335399979874,0.0 -42.396909,-6.13373799979873,0.0 -42.396755,-6.13394199979872,0.0 -42.396661,-6.13391199979872,0.0 -42.396635,-6.13373299979873,0.0 -42.396605,-6.13348099979873,0.0 -42.396502,-6.13331099979874,0.0 -42.396257,-6.13334099979874,0.0 -42.395828,-6.13389899979872,0.0 -42.395704,-6.13411799979871,0.0 -42.395592,-6.13421999979871,0.0 -42.395532,-6.1343739997987,0.0 -42.395627,-6.1344969997987,0.0 -42.395695,-6.13473599979869,0.0 -42.395618,-6.13492799979869,0.0 -42.395335,-6.13511599979868,0.0 -42.394901,-6.13534599979867,0.0 -42.394755,-6.13544799979867,0.0 -42.394682,-6.13566999979866,0.0 -42.394725,-6.13598099979865,0.0 -42.394691,-6.13624999979865,0.0 -42.394549,-6.13640799979864,0.0 -42.394416,-6.13647599979864,0.0 -42.394288,-6.13653199979864,0.0 -42.394193,-6.13668099979863,0.0 -42.394202,-6.13692799979862,0.0 -42.394177,-6.13716999979862,0.0 -42.3938338,-6.13741749979861,0.0 -42.3975016,-6.14648429979831,0.0 -42.4359327,-6.15030729979819,0.0 -42.4769552,-6.11223039979942,0.0 -42.4770131,-6.11217669979942,0.0 -42.4770321,-6.11215899979942,0.0 -42.4861985,-6.1036507997997,0.0 -42.5004018,-6.09068469980012,0.0 -42.5017543,-6.05968989980112,0.0 -42.5257612,-6.04841909980148,0.0 -42.5728,-6.04305219980165,0.0 -42.5737564,-6.04294309980166,0.0 -42.5761417,-6.04267099980167,0.0 -42.5824534,-6.02632829980219,0.0 -42.5904884,-6.01556489980254,0.0 -42.5863424,-5.9890001998034,0.0 -42.5862396,-5.98834229980342,0.0</coordinates>
</LinearRing>
</outerBoundaryIs>
</Polygon>
</MultiGeometry>
</Placemark>
</Folder>
</Document></kml>
