<?xml version='1.0' encoding='UTF-8'?>
<kml xmlns:xsd="http://www.w3.org/2001/XMLSchema" xmlns:gx="http://www.google.com/kml/ext/2.2" xmlns:atom="http://www.w3.org/2005/Atom" xmlns="http://www.opengis.net/kml/2.2">
<Document>
<name>barao_de_cotegipe_4301701_localidades_2022</name>
<visibility>1</visibility>
<Schema name="Núcleos Urbanos" id="kml_schema_ft_Núcleos_Urbanos">
<SimpleField type="xsd:string" name="CD_UF">
<displayName>CD_UF</displayName>
</SimpleField>
<SimpleField type="xsd:string" name="NM_UF">
<displayName>NM_UF</displayName>
</SimpleField>
<SimpleField type="xsd:string" name="SIGLA_UF">
<displayName>SIGLA_UF</displayName>
</SimpleField>
<SimpleField type="xsd:string" name="CD_MUN">
<displayName>CD_MUN</displayName>
</SimpleField>
<SimpleField type="xsd:string" name="NM_MUN">
<displayName>NM_MUN</displayName>
</SimpleField>
<SimpleField type="xsd:string" name="CD_RGINT">
<displayName>CD_RGINT</displayName>
</SimpleField>
<SimpleField type="xsd:string" name="NM_RGINT">
<displayName>NM_RGINT</displayName>
</SimpleField>
<SimpleField type="xsd:string" name="CD_RGI">
<displayName>CD_RGI</displayName>
</SimpleField>
<SimpleField type="xsd:string" name="NM_RGI">
<displayName>NM_RGI</displayName>
</SimpleField>
<SimpleField type="xsd:string" name="CT_LOCALIDADE">
<displayName>CT_LOCALIDADE</displayName>
</SimpleField>
<SimpleField type="xsd:string" name="CD_LOCALIDADE">
<displayName>CD_LOCALIDADE</displayName>
</SimpleField>
<SimpleField type="xsd:string" name="NM_LOCALIDADE">
<displayName>NM_LOCALIDADE</displayName>
</SimpleField>
<SimpleField type="xsd:string" name="LAT_LOCALIDADE">
<displayName>LAT_LOCALIDADE</displayName>
</SimpleField>
<SimpleField type="xsd:string" name="LONG_LOCALIDADE">
<displayName>LONG_LOCALIDADE</displayName>
</SimpleField>
</Schema>
<Schema name="01. Cidade" id="kml_schema_ft_01._Cidade">
<SimpleField type="xsd:string" name="CD_UF">
<displayName>CD_UF</displayName>
</SimpleField>
<SimpleField type="xsd:string" name="NM_UF">
<displayName>NM_UF</displayName>
</SimpleField>
<SimpleField type="xsd:string" name="SIGLA_UF">
<displayName>SIGLA_UF</displayName>
</SimpleField>
<SimpleField type="xsd:string" name="CD_MUN">
<displayName>CD_MUN</displayName>
</SimpleField>
<SimpleField type="xsd:string" name="NM_MUN">
<displayName>NM_MUN</displayName>
</SimpleField>
<SimpleField type="xsd:string" name="CD_RGINT">
<displayName>CD_RGINT</displayName>
</SimpleField>
<SimpleField type="xsd:string" name="NM_RGINT">
<displayName>NM_RGINT</displayName>
</SimpleField>
<SimpleField type="xsd:string" name="CD_RGI">
<displayName>CD_RGI</displayName>
</SimpleField>
<SimpleField type="xsd:string" name="NM_RGI">
<displayName>NM_RGI</displayName>
</SimpleField>
<SimpleField type="xsd:string" name="CT_LOCALIDADE">
<displayName>CT_LOCALIDADE</displayName>
</SimpleField>
<SimpleField type="xsd:string" name="SCT_LOCALIDADE">
<displayName>SCT_LOCALIDADE</displayName>
</SimpleField>
<SimpleField type="xsd:string" name="CD_LOCALIDADE">
<displayName>CD_LOCALIDADE</displayName>
</SimpleField>
<SimpleField type="xsd:string" name="NM_LOCALIDADE">
<displayName>NM_LOCALIDADE</displayName>
</SimpleField>
<SimpleField type="xsd:string" name="LAT_LOCALIDADE">
<displayName>LAT_LOCALIDADE</displayName>
</SimpleField>
<SimpleField type="xsd:string" name="LONG_LOCALIDADE">
<displayName>LONG_LOCALIDADE</displayName>
</SimpleField>
</Schema>
<Schema name="Município" id="kml_schema_ft_Município">
<SimpleField type="xsd:string" name="CD_UF">
<displayName>CD_UF</displayName>
</SimpleField>
<SimpleField type="xsd:string" name="NM_UF">
<displayName>NM_UF</displayName>
</SimpleField>
<SimpleField type="xsd:string" name="CD_MUN">
<displayName>CD_MUN</displayName>
</SimpleField>
<SimpleField type="xsd:string" name="NM_MUN">
<displayName>NM_MUN</displayName>
</SimpleField>
<SimpleField type="xsd:string" name="CD_RGINT">
<displayName>CD_RGINT</displayName>
</SimpleField>
<SimpleField type="xsd:string" name="NM_RGINT">
<displayName>NM_RGINT</displayName>
</SimpleField>
<SimpleField type="xsd:string" name="CD_RGI">
<displayName>CD_RGI</displayName>
</SimpleField>
<SimpleField type="xsd:string" name="NM_RGI">
<displayName>NM_RGI</displayName>
</SimpleField>
</Schema>
<Folder id="01. Cidade">
<name>01. Cidade</name>
<Folder id="01.03. Sede Municipal">
<name>01.03. Sede Municipal</name>
<Placemark id="01.03. Sede Municipal">
<name>Barão de Cotegipe [4301701]</name>
<visibility>1</visibility>
<snippet> </snippet>
<description>&lt;center&gt;&lt;table&gt;&lt;tr&gt;&lt;th colspan='2' align='center'&gt;&lt;em&gt;Atributos&lt;/em&gt;&lt;/th&gt;&lt;/tr&gt;&lt;tr bgcolor="#E3E3F3"&gt;
&lt;th&gt;CD_UF&lt;/th&gt;
&lt;td&gt;43&lt;/td&gt;
&lt;/tr&gt;&lt;tr bgcolor=""&gt;
&lt;th&gt;NM_UF&lt;/th&gt;
&lt;td&gt;Rio Grande do Sul&lt;/td&gt;
&lt;/tr&gt;&lt;tr bgcolor="#E3E3F3"&gt;
&lt;th&gt;SIGLA_UF&lt;/th&gt;
&lt;td&gt;RS&lt;/td&gt;
&lt;/tr&gt;&lt;tr bgcolor=""&gt;
&lt;th&gt;CD_MUN&lt;/th&gt;
&lt;td&gt;4301701&lt;/td&gt;
&lt;/tr&gt;&lt;tr bgcolor="#E3E3F3"&gt;
&lt;th&gt;NM_MUN&lt;/th&gt;
&lt;td&gt;Barão de Cotegipe&lt;/td&gt;
&lt;/tr&gt;&lt;tr bgcolor=""&gt;
&lt;th&gt;CD_RGINT&lt;/th&gt;
&lt;td&gt;4306&lt;/td&gt;
&lt;/tr&gt;&lt;tr bgcolor="#E3E3F3"&gt;
&lt;th&gt;NM_RGINT&lt;/th&gt;
&lt;td&gt;Passo Fundo&lt;/td&gt;
&lt;/tr&gt;&lt;tr bgcolor=""&gt;
&lt;th&gt;CD_RGI&lt;/th&gt;
&lt;td&gt;430026&lt;/td&gt;
&lt;/tr&gt;&lt;tr bgcolor="#E3E3F3"&gt;
&lt;th&gt;NM_RGI&lt;/th&gt;
&lt;td&gt;Erechim&lt;/td&gt;
&lt;/tr&gt;&lt;tr bgcolor=""&gt;
&lt;th&gt;CT_LOCALIDADE&lt;/th&gt;
&lt;td&gt;Cidade&lt;/td&gt;
&lt;/tr&gt;&lt;tr bgcolor="#E3E3F3"&gt;
&lt;th&gt;SCT_LOCALIDADE&lt;/th&gt;
&lt;td&gt;Sede Municipal&lt;/td&gt;
&lt;/tr&gt;&lt;tr bgcolor=""&gt;
&lt;th&gt;CD_LOCALIDADE&lt;/th&gt;
&lt;td&gt;4301701&lt;/td&gt;
&lt;/tr&gt;&lt;tr bgcolor="#E3E3F3"&gt;
&lt;th&gt;NM_LOCALIDADE&lt;/th&gt;
&lt;td&gt;Barão de Cotegipe&lt;/td&gt;
&lt;/tr&gt;&lt;tr bgcolor=""&gt;
&lt;th&gt;LAT_LOCALIDADE&lt;/th&gt;
&lt;td&gt;-27.6222&lt;/td&gt;
&lt;/tr&gt;&lt;tr bgcolor="#E3E3F3"&gt;
&lt;th&gt;LONG_LOCALIDADE&lt;/th&gt;
&lt;td&gt;-52.3789&lt;/td&gt;
&lt;/tr&gt;&lt;/table&gt;&lt;/center&gt;</description>
<Style>
<IconStyle>
<color>ff00aaff</color>
<scale>1.0</scale>
<Icon>
<href>http://maps.google.com/mapfiles/kml/shapes/placemark_circle.png</href>
</Icon>
</IconStyle>
<LabelStyle>
<scale>1.0</scale>
</LabelStyle>
<LineStyle>
<color>ffffffff</color>
<width>3</width>
<gx:labelVisibility>1</gx:labelVisibility>
</LineStyle>
<PolyStyle>
<color>00ffffff</color>
</PolyStyle>
</Style>
<ExtendedData>
<SchemaData schemaUrl="#kml_schema_ft_01._Cidade">
<SimpleData name="CD_UF">43</SimpleData>
<SimpleData name="NM_UF">Rio Grande do Sul</SimpleData>
<SimpleData name="SIGLA_UF">RS</SimpleData>
<SimpleData name="CD_MUN">4301701</SimpleData>
<SimpleData name="NM_MUN">Barão de Cotegipe</SimpleData>
<SimpleData name="CD_RGINT">4306</SimpleData>
<SimpleData name="NM_RGINT">Passo Fundo</SimpleData>
<SimpleData name="CD_RGI">430026</SimpleData>
<SimpleData name="NM_RGI">Erechim</SimpleData>
<SimpleData name="CT_LOCALIDADE">Cidade</SimpleData>
<SimpleData name="SCT_LOCALIDADE">Sede Municipal</SimpleData>
<SimpleData name="CD_LOCALIDADE">4301701</SimpleData>
<SimpleData name="NM_LOCALIDADE">Barão de Cotegipe</SimpleData>
<SimpleData name="LAT_LOCALIDADE">-27.6222</SimpleData>
<SimpleData name="LONG_LOCALIDADE">-52.3789</SimpleData>
</SchemaData>
</ExtendedData>
<Point>
<extrude>0</extrude>
<coordinates>-52.378897,-27.6222319992236,0.0</coordinates>
</Point>
</Placemark>
</Folder>
</Folder>
<Folder id="05. Núcleos Urbanos">
<name>05. Núcleos Urbanos</name>
<Placemark id="localidades">
<name>Monte Alegre [4301701001]</name>
<visibility>1</visibility>
<snippet> </snippet>
<description>&lt;center&gt;&lt;table&gt;&lt;tr&gt;&lt;th colspan='2' align='center'&gt;&lt;em&gt;Attributes&lt;/em&gt;&lt;/th&gt;&lt;/tr&gt;&lt;tr bgcolor="#E3E3F3"&gt;
&lt;th&gt;CD_UF&lt;/th&gt;
&lt;td&gt;43&lt;/td&gt;
&lt;/tr&gt;&lt;tr bgcolor=""&gt;
&lt;th&gt;NM_UF&lt;/th&gt;
&lt;td&gt;Rio Grande do Sul&lt;/td&gt;
&lt;/tr&gt;&lt;tr bgcolor="#E3E3F3"&gt;
&lt;th&gt;SIGLA_UF&lt;/th&gt;
&lt;td&gt;RS&lt;/td&gt;
&lt;/tr&gt;&lt;tr bgcolor=""&gt;
&lt;th&gt;CD_MUN&lt;/th&gt;
&lt;td&gt;4301701&lt;/td&gt;
&lt;/tr&gt;&lt;tr bgcolor="#E3E3F3"&gt;
&lt;th&gt;NM_MUN&lt;/th&gt;
&lt;td&gt;Barão de Cotegipe&lt;/td&gt;
&lt;/tr&gt;&lt;tr bgcolor=""&gt;
&lt;th&gt;CD_RGINT&lt;/th&gt;
&lt;td&gt;4306&lt;/td&gt;
&lt;/tr&gt;&lt;tr bgcolor="#E3E3F3"&gt;
&lt;th&gt;NM_RGINT&lt;/th&gt;
&lt;td&gt;Passo Fundo&lt;/td&gt;
&lt;/tr&gt;&lt;tr bgcolor=""&gt;
&lt;th&gt;CD_RGI&lt;/th&gt;
&lt;td&gt;430026&lt;/td&gt;
&lt;/tr&gt;&lt;tr bgcolor="#E3E3F3"&gt;
&lt;th&gt;NM_RGI&lt;/th&gt;
&lt;td&gt;Erechim&lt;/td&gt;
&lt;/tr&gt;&lt;tr bgcolor=""&gt;
&lt;th&gt;CT_LOCALIDADE&lt;/th&gt;
&lt;td&gt;Núcleo Urbano&lt;/td&gt;
&lt;/tr&gt;&lt;tr bgcolor="#E3E3F3"&gt;
&lt;th&gt;CD_LOCALIDADE&lt;/th&gt;
&lt;td&gt;4301701001&lt;/td&gt;
&lt;/tr&gt;&lt;tr bgcolor=""&gt;
&lt;th&gt;NM_LOCALIDADE&lt;/th&gt;
&lt;td&gt;Monte Alegre&lt;/td&gt;
&lt;/tr&gt;&lt;tr bgcolor="#E3E3F3"&gt;
&lt;th&gt;LAT_LOCALIDADE&lt;/th&gt;
&lt;td&gt;-27.5824&lt;/td&gt;
&lt;/tr&gt;&lt;tr bgcolor=""&gt;
&lt;th&gt;LONG_LOCALIDADE&lt;/th&gt;
&lt;td&gt;-52.4749&lt;/td&gt;
&lt;/tr&gt;&lt;/table&gt;&lt;/center&gt;</description>
<Style>
<IconStyle>
<color>ff0000ff</color>
<scale>0.9</scale>
<Icon>
<href>http://maps.google.com/mapfiles/kml/shapes/placemark_circle.png</href>
</Icon>
</IconStyle>
<LabelStyle>
<scale>0.9</scale>
</LabelStyle>
<LineStyle>
<color>72ffffff</color>
<width>1.0</width>
<gx:labelVisibility>1</gx:labelVisibility>
</LineStyle>
<PolyStyle>
<color>66ff54ff</color>
</PolyStyle>
</Style>
<ExtendedData>
<SchemaData schemaUrl="#kml_schema_ft_Núcleos_Urbanos">
<SimpleData name="CD_UF">43</SimpleData>
<SimpleData name="NM_UF">Rio Grande do Sul</SimpleData>
<SimpleData name="SIGLA_UF">RS</SimpleData>
<SimpleData name="CD_MUN">4301701</SimpleData>
<SimpleData name="NM_MUN">Barão de Cotegipe</SimpleData>
<SimpleData name="CD_RGINT">4306</SimpleData>
<SimpleData name="NM_RGINT">Passo Fundo</SimpleData>
<SimpleData name="CD_RGI">430026</SimpleData>
<SimpleData name="NM_RGI">Erechim</SimpleData>
<SimpleData name="CT_LOCALIDADE">Núcleo Urbano</SimpleData>
<SimpleData name="CD_LOCALIDADE">4301701001</SimpleData>
<SimpleData name="NM_LOCALIDADE">Monte Alegre</SimpleData>
<SimpleData name="LAT_LOCALIDADE">-27.5824</SimpleData>
<SimpleData name="LONG_LOCALIDADE">-52.4749</SimpleData>
</SchemaData>
</ExtendedData>
<Point>
<extrude>0</extrude>
<coordinates>-52.47487972,-27.5824375192243,0.0</coordinates>
</Point>
</Placemark>
<Placemark id="localidades">
<name>Miguel Wawruk [4301701002]</name>
<visibility>1</visibility>
<snippet> </snippet>
<description>&lt;center&gt;&lt;table&gt;&lt;tr&gt;&lt;th colspan='2' align='center'&gt;&lt;em&gt;Attributes&lt;/em&gt;&lt;/th&gt;&lt;/tr&gt;&lt;tr bgcolor="#E3E3F3"&gt;
&lt;th&gt;CD_UF&lt;/th&gt;
&lt;td&gt;43&lt;/td&gt;
&lt;/tr&gt;&lt;tr bgcolor=""&gt;
&lt;th&gt;NM_UF&lt;/th&gt;
&lt;td&gt;Rio Grande do Sul&lt;/td&gt;
&lt;/tr&gt;&lt;tr bgcolor="#E3E3F3"&gt;
&lt;th&gt;SIGLA_UF&lt;/th&gt;
&lt;td&gt;RS&lt;/td&gt;
&lt;/tr&gt;&lt;tr bgcolor=""&gt;
&lt;th&gt;CD_MUN&lt;/th&gt;
&lt;td&gt;4301701&lt;/td&gt;
&lt;/tr&gt;&lt;tr bgcolor="#E3E3F3"&gt;
&lt;th&gt;NM_MUN&lt;/th&gt;
&lt;td&gt;Barão de Cotegipe&lt;/td&gt;
&lt;/tr&gt;&lt;tr bgcolor=""&gt;
&lt;th&gt;CD_RGINT&lt;/th&gt;
&lt;td&gt;4306&lt;/td&gt;
&lt;/tr&gt;&lt;tr bgcolor="#E3E3F3"&gt;
&lt;th&gt;NM_RGINT&lt;/th&gt;
&lt;td&gt;Passo Fundo&lt;/td&gt;
&lt;/tr&gt;&lt;tr bgcolor=""&gt;
&lt;th&gt;CD_RGI&lt;/th&gt;
&lt;td&gt;430026&lt;/td&gt;
&lt;/tr&gt;&lt;tr bgcolor="#E3E3F3"&gt;
&lt;th&gt;NM_RGI&lt;/th&gt;
&lt;td&gt;Erechim&lt;/td&gt;
&lt;/tr&gt;&lt;tr bgcolor=""&gt;
&lt;th&gt;CT_LOCALIDADE&lt;/th&gt;
&lt;td&gt;Núcleo Urbano&lt;/td&gt;
&lt;/tr&gt;&lt;tr bgcolor="#E3E3F3"&gt;
&lt;th&gt;CD_LOCALIDADE&lt;/th&gt;
&lt;td&gt;4301701002&lt;/td&gt;
&lt;/tr&gt;&lt;tr bgcolor=""&gt;
&lt;th&gt;NM_LOCALIDADE&lt;/th&gt;
&lt;td&gt;Miguel Wawruk&lt;/td&gt;
&lt;/tr&gt;&lt;tr bgcolor="#E3E3F3"&gt;
&lt;th&gt;LAT_LOCALIDADE&lt;/th&gt;
&lt;td&gt;-27.5146&lt;/td&gt;
&lt;/tr&gt;&lt;tr bgcolor=""&gt;
&lt;th&gt;LONG_LOCALIDADE&lt;/th&gt;
&lt;td&gt;-52.4492&lt;/td&gt;
&lt;/tr&gt;&lt;/table&gt;&lt;/center&gt;</description>
<Style>
<IconStyle>
<color>ff0000ff</color>
<scale>0.9</scale>
<Icon>
<href>http://maps.google.com/mapfiles/kml/shapes/placemark_circle.png</href>
</Icon>
</IconStyle>
<LabelStyle>
<scale>0.9</scale>
</LabelStyle>
<LineStyle>
<color>72ffffff</color>
<width>1.0</width>
<gx:labelVisibility>1</gx:labelVisibility>
</LineStyle>
<PolyStyle>
<color>66ff54ff</color>
</PolyStyle>
</Style>
<ExtendedData>
<SchemaData schemaUrl="#kml_schema_ft_Núcleos_Urbanos">
<SimpleData name="CD_UF">43</SimpleData>
<SimpleData name="NM_UF">Rio Grande do Sul</SimpleData>
<SimpleData name="SIGLA_UF">RS</SimpleData>
<SimpleData name="CD_MUN">4301701</SimpleData>
<SimpleData name="NM_MUN">Barão de Cotegipe</SimpleData>
<SimpleData name="CD_RGINT">4306</SimpleData>
<SimpleData name="NM_RGINT">Passo Fundo</SimpleData>
<SimpleData name="CD_RGI">430026</SimpleData>
<SimpleData name="NM_RGI">Erechim</SimpleData>
<SimpleData name="CT_LOCALIDADE">Núcleo Urbano</SimpleData>
<SimpleData name="CD_LOCALIDADE">4301701002</SimpleData>
<SimpleData name="NM_LOCALIDADE">Miguel Wawruk</SimpleData>
<SimpleData name="LAT_LOCALIDADE">-27.5146</SimpleData>
<SimpleData name="LONG_LOCALIDADE">-52.4492</SimpleData>
</SchemaData>
</ExtendedData>
<Point>
<extrude>0</extrude>
<coordinates>-52.4492178214285,-27.5145751063684,0.0</coordinates>
</Point>
</Placemark>
</Folder>
<Folder id="13. Referência">
<name>13. Referência</name>
<Placemark id="13. Referência">
<name>Barão de Cotegipe [4301701]</name>
<visibility>1</visibility>
<snippet> </snippet>
<description>&lt;center&gt;&lt;table&gt;&lt;tr&gt;&lt;th colspan='2' align='center'&gt;&lt;em&gt;Attributes&lt;/em&gt;&lt;/th&gt;&lt;/tr&gt;&lt;tr bgcolor="#E3E3F3"&gt;
&lt;th&gt;CD_UF&lt;/th&gt;
&lt;td&gt;43&lt;/td&gt;
&lt;/tr&gt;&lt;tr bgcolor=""&gt;
&lt;th&gt;NM_UF&lt;/th&gt;
&lt;td&gt;Rio Grande do Sul&lt;/td&gt;
&lt;/tr&gt;&lt;tr bgcolor="#E3E3F3"&gt;
&lt;th&gt;CD_MUN&lt;/th&gt;
&lt;td&gt;4301701&lt;/td&gt;
&lt;/tr&gt;&lt;tr bgcolor=""&gt;
&lt;th&gt;NM_MUN&lt;/th&gt;
&lt;td&gt;Barão de Cotegipe&lt;/td&gt;
&lt;/tr&gt;&lt;tr bgcolor="#E3E3F3"&gt;
&lt;th&gt;CD_RGINT&lt;/th&gt;
&lt;td&gt;4306&lt;/td&gt;
&lt;/tr&gt;&lt;tr bgcolor=""&gt;
&lt;th&gt;NM_RGINT&lt;/th&gt;
&lt;td&gt;Passo Fundo&lt;/td&gt;
&lt;/tr&gt;&lt;tr bgcolor="#E3E3F3"&gt;
&lt;th&gt;CD_RGI&lt;/th&gt;
&lt;td&gt;430026&lt;/td&gt;
&lt;/tr&gt;&lt;tr bgcolor=""&gt;
&lt;th&gt;NM_RGI&lt;/th&gt;
&lt;td&gt;Erechim&lt;/td&gt;
&lt;/tr&gt;&lt;/table&gt;&lt;/center&gt;</description>
<Style>
<IconStyle>
<scale>0.7</scale>
</IconStyle>
<LabelStyle>
<scale>0.7</scale>
</LabelStyle>
<LineStyle>
<color>ffffffff</color>
<width>3</width>
<gx:labelVisibility>1</gx:labelVisibility>
</LineStyle>
<PolyStyle>
<color>00ffffff</color>
</PolyStyle>
</Style>
<ExtendedData>
<SchemaData schemaUrl="#kml_schema_ft_Município">
<SimpleData name="CD_UF">43</SimpleData>
<SimpleData name="NM_UF">Rio Grande do Sul</SimpleData>
<SimpleData name="CD_MUN">4301701</SimpleData>
<SimpleData name="NM_MUN">Barão de Cotegipe</SimpleData>
<SimpleData name="CD_RGINT">4306</SimpleData>
<SimpleData name="NM_RGINT">Passo Fundo</SimpleData>
<SimpleData name="CD_RGI">430026</SimpleData>
<SimpleData name="NM_RGI">Erechim</SimpleData>
</SchemaData>
</ExtendedData>
<MultiGeometry>
<Polygon>
<extrude>0</extrude>
<tessellate>1</tessellate>
<outerBoundaryIs>
<LinearRing>
<coordinates>-52.447066,-27.6517220992231,0.0 -52.4470879,-27.6508868992231,0.0 -52.4450838,-27.6514156992231,0.0 -52.4450256,-27.6313829992234,0.0 -52.4652995,-27.6314110992234,0.0 -52.4653256,-27.6227066992236,0.0 -52.4653266,-27.6223498992236,0.0 -52.4653363,-27.6189643992237,0.0 -52.465361,-27.6108706992238,0.0 -52.4771443,-27.6109562992238,0.0 -52.4772157,-27.603527999224,0.0 -52.4773948,-27.5849979992243,0.0 -52.4797421,-27.5829801992243,0.0 -52.4797401,-27.5826823992244,0.0 -52.4796075,-27.5612283992248,0.0 -52.4875317,-27.5609177992248,0.0 -52.4844632,-27.5586431992248,0.0 -52.4826459,-27.5541238992249,0.0 -52.4808504,-27.5534762992249,0.0 -52.481284,-27.5514726992249,0.0 -52.4792503,-27.550401999225,0.0 -52.4787023,-27.548948799225,0.0 -52.4764544,-27.549025299225,0.0 -52.4778577,-27.546020799225,0.0 -52.4803792,-27.5450441992251,0.0 -52.4805777,-27.5450382992251,0.0 -52.5004235,-27.5443983992251,0.0 -52.5029595,-27.5424750992251,0.0 -52.5050978,-27.5336586992253,0.0 -52.5064241,-27.5312593992253,0.0 -52.5113913,-27.5276143992254,0.0 -52.512165,-27.5303049992253,0.0 -52.5268674,-27.5302476992253,0.0 -52.5268665,-27.5297820992253,0.0 -52.5268581,-27.5067139992258,0.0 -52.5105327,-27.5066637992258,0.0 -52.5102908,-27.5066629992258,0.0 -52.5114798,-27.5053295992258,0.0 -52.5117433,-27.5034267992258,0.0 -52.5073002,-27.5016901992259,0.0 -52.5079529,-27.4991456992259,0.0 -52.5075029,-27.497092699226,0.0 -52.5086985,-27.495864899226,0.0 -52.5160931,-27.495296999226,0.0 -52.5147839,-27.4916505992261,0.0 -52.5124111,-27.492903699226,0.0 -52.5113663,-27.4921057992261,0.0 -52.510938,-27.4888070992261,0.0 -52.5119785,-27.4866933992262,0.0 -52.507525,-27.4870507992261,0.0 -52.5003533,-27.4897246992261,0.0 -52.4971245,-27.4883509992261,0.0 -52.4928295,-27.4885029992261,0.0 -52.491357,-27.4870217992261,0.0 -52.4854305,-27.4866795992261,0.0 -52.4802708,-27.4878341992261,0.0 -52.4766207,-27.4899587992261,0.0 -52.4746667,-27.4902387992261,0.0 -52.4724243,-27.4922748992261,0.0 -52.4622375,-27.492907999226,0.0 -52.4588948,-27.4905071992261,0.0 -52.4559435,-27.4900936992261,0.0 -52.4483039,-27.493750099226,0.0 -52.4479975,-27.493896699226,0.0 -52.4470235,-27.494434399226,0.0 -52.4368242,-27.494590399226,0.0 -52.4366827,-27.494543799226,0.0 -52.4365712,-27.494494099226,0.0 -52.4364653,-27.494465299226,0.0 -52.4363612,-27.494473399226,0.0 -52.4362629,-27.494499299226,0.0 -52.4359906,-27.494496399226,0.0 -52.4358418,-27.494537799226,0.0 -52.4357095,-27.494633499226,0.0 -52.4353932,-27.494751399226,0.0 -52.4350289,-27.494798499226,0.0 -52.4349053,-27.494846399226,0.0 -52.4347276,-27.494971599226,0.0 -52.4345661,-27.495004699226,0.0 -52.4343979,-27.494974299226,0.0 -52.4341062,-27.494857499226,0.0 -52.4337281,-27.494411999226,0.0 -52.4334841,-27.493963599226,0.0 -52.4330526,-27.493729499226,0.0 -52.4325967,-27.493501099226,0.0 -52.4321343,-27.492948999226,0.0 -52.4320663,-27.492531799226,0.0 -52.4319725,-27.492333999226,0.0 -52.4318457,-27.492209299226,0.0 -52.4313499,-27.4920720992261,0.0 -52.4310311,-27.4918858992261,0.0 -52.4304239,-27.4916063992261,0.0 -52.4298605,-27.4912865992261,0.0 -52.429613,-27.4909791992261,0.0 -52.4294667,-27.4906476992261,0.0 -52.4291857,-27.4903183992261,0.0 -52.4288778,-27.4901052992261,0.0 -52.4288221,-27.4899992992261,0.0 -52.4288231,-27.4898408992261,0.0 -52.4287296,-27.4897084992261,0.0 -52.4285446,-27.4896294992261,0.0 -52.4283237,-27.4895908992261,0.0 -52.4280789,-27.4895842992261,0.0 -52.4278306,-27.4896333992261,0.0 -52.4274566,-27.4898045992261,0.0 -52.4272629,-27.4898455992261,0.0 -52.4271045,-27.4897903992261,0.0 -52.4270475,-27.4896418992261,0.0 -52.4270079,-27.4892307992261,0.0 -52.4269492,-27.4888595992261,0.0 -52.4266842,-27.4886629992261,0.0 -52.4265791,-27.4883038992261,0.0 -52.4266414,-27.4879642992261,0.0 -52.4266001,-27.4877083992261,0.0 -52.4264129,-27.4874422992261,0.0 -52.426099,-27.4872117992261,0.0 -52.4257667,-27.4871202992261,0.0 -52.4254768,-27.4870754992261,0.0 -52.425488,-27.4865508992262,0.0 -52.4255695,-27.4860967992262,0.0 -52.4255725,-27.4856537992262,0.0 -52.4255318,-27.4853058992262,0.0 -52.4254702,-27.4848594992262,0.0 -52.425499,-27.4844500992262,0.0 -52.4256045,-27.4840408992262,0.0 -52.4257247,-27.4836511992262,0.0 -52.4257475,-27.4830829992262,0.0 -52.4256905,-27.4825433992262,0.0 -52.4258119,-27.4821241992262,0.0 -52.4262286,-27.4815686992262,0.0 -52.4256679,-27.4815377992263,0.0 -52.4251788,-27.4815369992263,0.0 -52.4249625,-27.4816309992263,0.0 -52.424616,-27.4815054992263,0.0 -52.4244329,-27.4813387992263,0.0 -52.424214,-27.4812333992263,0.0 -52.4239107,-27.4811606992263,0.0 -52.4236015,-27.4811448992263,0.0 -52.4227665,-27.4809604992263,0.0 -52.4218988,-27.4807855992263,0.0 -52.4213735,-27.4807873992263,0.0 -52.420865,-27.4808243992263,0.0 -52.4201905,-27.4807486992263,0.0 -52.4196014,-27.4807995992263,0.0 -52.4186652,-27.4808385992263,0.0 -52.4180167,-27.4810085992263,0.0 -52.4175005,-27.4810661992263,0.0 -52.4170343,-27.4810567992263,0.0 -52.4166193,-27.4811984992263,0.0 -52.4160718,-27.4812696992263,0.0 -52.4157921,-27.4812448992263,0.0 -52.4154472,-27.4813917992263,0.0 -52.4150577,-27.4813214992263,0.0 -52.4151172,-27.4779797992263,0.0 -52.4086865,-27.4781257992263,0.0 -52.4075888,-27.4780753992263,0.0 -52.4067971,-27.4806200992263,0.0 -52.4009357,-27.4806087992263,0.0 -52.4003935,-27.4802221992263,0.0 -52.3999313,-27.4799833992263,0.0 -52.3994956,-27.4796690992263,0.0 -52.3993528,-27.4792683992263,0.0 -52.3990762,-27.4790345992263,0.0 -52.3933048,-27.4826168992262,0.0 -52.3809265,-27.4895498992261,0.0 -52.374296,-27.493749199226,0.0 -52.3744815,-27.494520399226,0.0 -52.3744501,-27.495243399226,0.0 -52.3742655,-27.495951799226,0.0 -52.3743916,-27.496831599226,0.0 -52.374361,-27.4974681992259,0.0 -52.3741165,-27.4979218992259,0.0 -52.3735619,-27.4981977992259,0.0 -52.3732091,-27.4985718992259,0.0 -52.3730023,-27.4990149992259,0.0 -52.3729948,-27.4993883992259,0.0 -52.3680186,-27.4985169992259,0.0 -52.3647678,-27.5000498992259,0.0 -52.3635692,-27.5007295992259,0.0 -52.3633691,-27.5005712992259,0.0 -52.3631856,-27.5004706992259,0.0 -52.3630276,-27.5004367992259,0.0 -52.3629276,-27.5004417992259,0.0 -52.3627553,-27.5004924992259,0.0 -52.362584,-27.5005365992259,0.0 -52.3625108,-27.5005269992259,0.0 -52.3624255,-27.5004645992259,0.0 -52.3622875,-27.5003177992259,0.0 -52.3622584,-27.5001572992259,0.0 -52.3621822,-27.4999770992259,0.0 -52.3620903,-27.4998085992259,0.0 -52.3620097,-27.4997465992259,0.0 -52.3618792,-27.4996829992259,0.0 -52.361676,-27.4996317992259,0.0 -52.3615511,-27.4995988992259,0.0 -52.3613798,-27.4995454992259,0.0 -52.3612529,-27.4995081992259,0.0 -52.3610896,-27.4995174992259,0.0 -52.3609098,-27.4995686992259,0.0 -52.3606507,-27.4997033992259,0.0 -52.360254,-27.4998563992259,0.0 -52.3601012,-27.4998975992259,0.0 -52.3599019,-27.4999353992259,0.0 -52.35958,-27.4999686992259,0.0 -52.359109,-27.4998634992259,0.0 -52.3587666,-27.4997766992259,0.0 -52.3584799,-27.4997079992259,0.0 -52.3581971,-27.4996198992259,0.0 -52.3579689,-27.4995443992259,0.0 -52.3575745,-27.4993984992259,0.0 -52.3573004,-27.4992989992259,0.0 -52.3568681,-27.4991854992259,0.0 -52.3564474,-27.4989922992259,0.0 -52.3562666,-27.4988687992259,0.0 -52.3559521,-27.4986339992259,0.0 -52.3557834,-27.4984991992259,0.0 -52.3555818,-27.4983259992259,0.0 -52.3554056,-27.4981848992259,0.0 -52.355228,-27.4980330992259,0.0 -52.35514,-27.4979943992259,0.0 -52.3550418,-27.4979661992259,0.0 -52.3549217,-27.4979692992259,0.0 -52.3547888,-27.4979752992259,0.0 -52.3546955,-27.4980437992259,0.0 -52.3545653,-27.4981145992259,0.0 -52.3544418,-27.4982397992259,0.0 -52.354307,-27.4983498992259,0.0 -52.3541688,-27.4983973992259,0.0 -52.3535387,-27.4984125992259,0.0 -52.3531213,-27.4984839992259,0.0 -52.3507738,-27.4979828992259,0.0 -52.3506912,-27.5008725992259,0.0 -52.3488808,-27.5094609992257,0.0 -52.3441544,-27.5093578992257,0.0 -52.3439973,-27.5276159992254,0.0 -52.3491415,-27.5276554992254,0.0 -52.3491894,-27.545656999225,0.0 -52.3491248,-27.5601952992248,0.0 -52.3439802,-27.5602143992248,0.0 -52.3439545,-27.5693480992246,0.0 -52.3438758,-27.5968968992241,0.0 -52.3432827,-27.6337653992234,0.0 -52.3432682,-27.6346610992234,0.0 -52.3421956,-27.6609729992229,0.0 -52.3470802,-27.6609289992229,0.0 -52.3525204,-27.6609732992229,0.0 -52.3655527,-27.6618988992229,0.0 -52.3757656,-27.6618301992229,0.0 -52.3922647,-27.6620752992229,0.0 -52.3935514,-27.6620863992229,0.0 -52.3935563,-27.6612595992229,0.0 -52.3936056,-27.6591960992229,0.0 -52.3942637,-27.6590495992229,0.0 -52.3949322,-27.6588183992229,0.0 -52.3952924,-27.6585877992229,0.0 -52.3955907,-27.6583888992229,0.0 -52.3958332,-27.6584346992229,0.0 -52.3960279,-27.6586688992229,0.0 -52.3962967,-27.6591781992229,0.0 -52.396782,-27.6596183992229,0.0 -52.3976019,-27.6600027992229,0.0 -52.3983443,-27.6601615992229,0.0 -52.3990706,-27.6604273992229,0.0 -52.3999377,-27.6607383992229,0.0 -52.4008291,-27.6608153992229,0.0 -52.4011631,-27.6605518992229,0.0 -52.4012743,-27.6605392992229,0.0 -52.401392,-27.6605621992229,0.0 -52.4015523,-27.6607561992229,0.0 -52.4016922,-27.6612125992229,0.0 -52.4017677,-27.6612661992229,0.0 -52.4021954,-27.6613507992229,0.0 -52.4025693,-27.6614724992229,0.0 -52.4030967,-27.6616416992229,0.0 -52.4035195,-27.6617747992229,0.0 -52.4040129,-27.6618022992229,0.0 -52.4046721,-27.6615559992229,0.0 -52.4051745,-27.6614993992229,0.0 -52.4060051,-27.6615533992229,0.0 -52.4073432,-27.6613617992229,0.0 -52.407912,-27.6612782992229,0.0 -52.4087042,-27.6612739992229,0.0 -52.4089114,-27.6614024992229,0.0 -52.4092468,-27.6618090992229,0.0 -52.4094736,-27.6621228992229,0.0 -52.4095864,-27.6625255992229,0.0 -52.4095618,-27.6628371992228,0.0 -52.4094931,-27.6630773992228,0.0 -52.4114511,-27.6631472992228,0.0 -52.4246201,-27.6633413992228,0.0 -52.4273874,-27.6633609992228,0.0 -52.4374795,-27.6634290992228,0.0 -52.447256,-27.6627538992229,0.0 -52.447066,-27.6517220992231,0.0</coordinates>
</LinearRing>
</outerBoundaryIs>
</Polygon>
</MultiGeometry>
</Placemark>
</Folder>
</Document></kml>
