<?xml version='1.0' encoding='UTF-8'?>
<kml xmlns:xsd="http://www.w3.org/2001/XMLSchema" xmlns:gx="http://www.google.com/kml/ext/2.2" xmlns:atom="http://www.w3.org/2005/Atom" xmlns="http://www.opengis.net/kml/2.2">
<Document>
<name>boa_vista_do_sul_4302253_localidades_2022</name>
<visibility>1</visibility>
<Schema name="01. Cidade" id="kml_schema_ft_01._Cidade">
<SimpleField type="xsd:string" name="CD_UF">
<displayName>CD_UF</displayName>
</SimpleField>
<SimpleField type="xsd:string" name="NM_UF">
<displayName>NM_UF</displayName>
</SimpleField>
<SimpleField type="xsd:string" name="SIGLA_UF">
<displayName>SIGLA_UF</displayName>
</SimpleField>
<SimpleField type="xsd:string" name="CD_MUN">
<displayName>CD_MUN</displayName>
</SimpleField>
<SimpleField type="xsd:string" name="NM_MUN">
<displayName>NM_MUN</displayName>
</SimpleField>
<SimpleField type="xsd:string" name="CD_RGINT">
<displayName>CD_RGINT</displayName>
</SimpleField>
<SimpleField type="xsd:string" name="NM_RGINT">
<displayName>NM_RGINT</displayName>
</SimpleField>
<SimpleField type="xsd:string" name="CD_RGI">
<displayName>CD_RGI</displayName>
</SimpleField>
<SimpleField type="xsd:string" name="NM_RGI">
<displayName>NM_RGI</displayName>
</SimpleField>
<SimpleField type="xsd:string" name="CT_LOCALIDADE">
<displayName>CT_LOCALIDADE</displayName>
</SimpleField>
<SimpleField type="xsd:string" name="SCT_LOCALIDADE">
<displayName>SCT_LOCALIDADE</displayName>
</SimpleField>
<SimpleField type="xsd:string" name="CD_LOCALIDADE">
<displayName>CD_LOCALIDADE</displayName>
</SimpleField>
<SimpleField type="xsd:string" name="NM_LOCALIDADE">
<displayName>NM_LOCALIDADE</displayName>
</SimpleField>
<SimpleField type="xsd:string" name="LAT_LOCALIDADE">
<displayName>LAT_LOCALIDADE</displayName>
</SimpleField>
<SimpleField type="xsd:string" name="LONG_LOCALIDADE">
<displayName>LONG_LOCALIDADE</displayName>
</SimpleField>
</Schema>
<Schema name="Município" id="kml_schema_ft_Município">
<SimpleField type="xsd:string" name="CD_UF">
<displayName>CD_UF</displayName>
</SimpleField>
<SimpleField type="xsd:string" name="NM_UF">
<displayName>NM_UF</displayName>
</SimpleField>
<SimpleField type="xsd:string" name="CD_MUN">
<displayName>CD_MUN</displayName>
</SimpleField>
<SimpleField type="xsd:string" name="NM_MUN">
<displayName>NM_MUN</displayName>
</SimpleField>
<SimpleField type="xsd:string" name="CD_RGINT">
<displayName>CD_RGINT</displayName>
</SimpleField>
<SimpleField type="xsd:string" name="NM_RGINT">
<displayName>NM_RGINT</displayName>
</SimpleField>
<SimpleField type="xsd:string" name="CD_RGI">
<displayName>CD_RGI</displayName>
</SimpleField>
<SimpleField type="xsd:string" name="NM_RGI">
<displayName>NM_RGI</displayName>
</SimpleField>
</Schema>
<Folder id="01. Cidade">
<name>01. Cidade</name>
<Folder id="01.03. Sede Municipal">
<name>01.03. Sede Municipal</name>
<Placemark id="01.03. Sede Municipal">
<name>Boa Vista do Sul [4302253]</name>
<visibility>1</visibility>
<snippet> </snippet>
<description>&lt;center&gt;&lt;table&gt;&lt;tr&gt;&lt;th colspan='2' align='center'&gt;&lt;em&gt;Atributos&lt;/em&gt;&lt;/th&gt;&lt;/tr&gt;&lt;tr bgcolor="#E3E3F3"&gt;
&lt;th&gt;CD_UF&lt;/th&gt;
&lt;td&gt;43&lt;/td&gt;
&lt;/tr&gt;&lt;tr bgcolor=""&gt;
&lt;th&gt;NM_UF&lt;/th&gt;
&lt;td&gt;Rio Grande do Sul&lt;/td&gt;
&lt;/tr&gt;&lt;tr bgcolor="#E3E3F3"&gt;
&lt;th&gt;SIGLA_UF&lt;/th&gt;
&lt;td&gt;RS&lt;/td&gt;
&lt;/tr&gt;&lt;tr bgcolor=""&gt;
&lt;th&gt;CD_MUN&lt;/th&gt;
&lt;td&gt;4302253&lt;/td&gt;
&lt;/tr&gt;&lt;tr bgcolor="#E3E3F3"&gt;
&lt;th&gt;NM_MUN&lt;/th&gt;
&lt;td&gt;Boa Vista do Sul&lt;/td&gt;
&lt;/tr&gt;&lt;tr bgcolor=""&gt;
&lt;th&gt;CD_RGINT&lt;/th&gt;
&lt;td&gt;4307&lt;/td&gt;
&lt;/tr&gt;&lt;tr bgcolor="#E3E3F3"&gt;
&lt;th&gt;NM_RGINT&lt;/th&gt;
&lt;td&gt;Caxias do Sul&lt;/td&gt;
&lt;/tr&gt;&lt;tr bgcolor=""&gt;
&lt;th&gt;CD_RGI&lt;/th&gt;
&lt;td&gt;430037&lt;/td&gt;
&lt;/tr&gt;&lt;tr bgcolor="#E3E3F3"&gt;
&lt;th&gt;NM_RGI&lt;/th&gt;
&lt;td&gt;Bento Gonçalves&lt;/td&gt;
&lt;/tr&gt;&lt;tr bgcolor=""&gt;
&lt;th&gt;CT_LOCALIDADE&lt;/th&gt;
&lt;td&gt;Cidade&lt;/td&gt;
&lt;/tr&gt;&lt;tr bgcolor="#E3E3F3"&gt;
&lt;th&gt;SCT_LOCALIDADE&lt;/th&gt;
&lt;td&gt;Sede Municipal&lt;/td&gt;
&lt;/tr&gt;&lt;tr bgcolor=""&gt;
&lt;th&gt;CD_LOCALIDADE&lt;/th&gt;
&lt;td&gt;4302253&lt;/td&gt;
&lt;/tr&gt;&lt;tr bgcolor="#E3E3F3"&gt;
&lt;th&gt;NM_LOCALIDADE&lt;/th&gt;
&lt;td&gt;Boa Vista do Sul&lt;/td&gt;
&lt;/tr&gt;&lt;tr bgcolor=""&gt;
&lt;th&gt;LAT_LOCALIDADE&lt;/th&gt;
&lt;td&gt;-29.3507&lt;/td&gt;
&lt;/tr&gt;&lt;tr bgcolor="#E3E3F3"&gt;
&lt;th&gt;LONG_LOCALIDADE&lt;/th&gt;
&lt;td&gt;-51.6761&lt;/td&gt;
&lt;/tr&gt;&lt;/table&gt;&lt;/center&gt;</description>
<Style>
<IconStyle>
<color>ff00aaff</color>
<scale>1.0</scale>
<Icon>
<href>http://maps.google.com/mapfiles/kml/shapes/placemark_circle.png</href>
</Icon>
</IconStyle>
<LabelStyle>
<scale>1.0</scale>
</LabelStyle>
<LineStyle>
<color>ffffffff</color>
<width>3</width>
<gx:labelVisibility>1</gx:labelVisibility>
</LineStyle>
<PolyStyle>
<color>00ffffff</color>
</PolyStyle>
</Style>
<ExtendedData>
<SchemaData schemaUrl="#kml_schema_ft_01._Cidade">
<SimpleData name="CD_UF">43</SimpleData>
<SimpleData name="NM_UF">Rio Grande do Sul</SimpleData>
<SimpleData name="SIGLA_UF">RS</SimpleData>
<SimpleData name="CD_MUN">4302253</SimpleData>
<SimpleData name="NM_MUN">Boa Vista do Sul</SimpleData>
<SimpleData name="CD_RGINT">4307</SimpleData>
<SimpleData name="NM_RGINT">Caxias do Sul</SimpleData>
<SimpleData name="CD_RGI">430037</SimpleData>
<SimpleData name="NM_RGI">Bento Gonçalves</SimpleData>
<SimpleData name="CT_LOCALIDADE">Cidade</SimpleData>
<SimpleData name="SCT_LOCALIDADE">Sede Municipal</SimpleData>
<SimpleData name="CD_LOCALIDADE">4302253</SimpleData>
<SimpleData name="NM_LOCALIDADE">Boa Vista do Sul</SimpleData>
<SimpleData name="LAT_LOCALIDADE">-29.3507</SimpleData>
<SimpleData name="LONG_LOCALIDADE">-51.6761</SimpleData>
</SchemaData>
</ExtendedData>
<Point>
<extrude>0</extrude>
<coordinates>-51.676072,-29.3506649991927,0.0</coordinates>
</Point>
</Placemark>
</Folder>
</Folder>
<Folder id="13. Referência">
<name>13. Referência</name>
<Placemark id="13. Referência">
<name>Boa Vista do Sul [4302253]</name>
<visibility>1</visibility>
<snippet> </snippet>
<description>&lt;center&gt;&lt;table&gt;&lt;tr&gt;&lt;th colspan='2' align='center'&gt;&lt;em&gt;Attributes&lt;/em&gt;&lt;/th&gt;&lt;/tr&gt;&lt;tr bgcolor="#E3E3F3"&gt;
&lt;th&gt;CD_UF&lt;/th&gt;
&lt;td&gt;43&lt;/td&gt;
&lt;/tr&gt;&lt;tr bgcolor=""&gt;
&lt;th&gt;NM_UF&lt;/th&gt;
&lt;td&gt;Rio Grande do Sul&lt;/td&gt;
&lt;/tr&gt;&lt;tr bgcolor="#E3E3F3"&gt;
&lt;th&gt;CD_MUN&lt;/th&gt;
&lt;td&gt;4302253&lt;/td&gt;
&lt;/tr&gt;&lt;tr bgcolor=""&gt;
&lt;th&gt;NM_MUN&lt;/th&gt;
&lt;td&gt;Boa Vista do Sul&lt;/td&gt;
&lt;/tr&gt;&lt;tr bgcolor="#E3E3F3"&gt;
&lt;th&gt;CD_RGINT&lt;/th&gt;
&lt;td&gt;4307&lt;/td&gt;
&lt;/tr&gt;&lt;tr bgcolor=""&gt;
&lt;th&gt;NM_RGINT&lt;/th&gt;
&lt;td&gt;Caxias do Sul&lt;/td&gt;
&lt;/tr&gt;&lt;tr bgcolor="#E3E3F3"&gt;
&lt;th&gt;CD_RGI&lt;/th&gt;
&lt;td&gt;430037&lt;/td&gt;
&lt;/tr&gt;&lt;tr bgcolor=""&gt;
&lt;th&gt;NM_RGI&lt;/th&gt;
&lt;td&gt;Bento Gonçalves&lt;/td&gt;
&lt;/tr&gt;&lt;/table&gt;&lt;/center&gt;</description>
<Style>
<IconStyle>
<scale>0.7</scale>
</IconStyle>
<LabelStyle>
<scale>0.7</scale>
</LabelStyle>
<LineStyle>
<color>ffffffff</color>
<width>3</width>
<gx:labelVisibility>1</gx:labelVisibility>
</LineStyle>
<PolyStyle>
<color>00ffffff</color>
</PolyStyle>
</Style>
<ExtendedData>
<SchemaData schemaUrl="#kml_schema_ft_Município">
<SimpleData name="CD_UF">43</SimpleData>
<SimpleData name="NM_UF">Rio Grande do Sul</SimpleData>
<SimpleData name="CD_MUN">4302253</SimpleData>
<SimpleData name="NM_MUN">Boa Vista do Sul</SimpleData>
<SimpleData name="CD_RGINT">4307</SimpleData>
<SimpleData name="NM_RGINT">Caxias do Sul</SimpleData>
<SimpleData name="CD_RGI">430037</SimpleData>
<SimpleData name="NM_RGI">Bento Gonçalves</SimpleData>
</SchemaData>
</ExtendedData>
<MultiGeometry>
<Polygon>
<extrude>0</extrude>
<tessellate>1</tessellate>
<outerBoundaryIs>
<LinearRing>
<coordinates>-51.646551,-29.3503002991927,0.0 -51.6465739,-29.3510473991927,0.0 -51.6454991,-29.3510774991927,0.0 -51.6455875,-29.3549489991926,0.0 -51.6455976,-29.3590954991926,0.0 -51.6457572,-29.3678398991924,0.0 -51.6457501,-29.3712622991924,0.0 -51.6381556,-29.3712198991924,0.0 -51.6353518,-29.3712446991924,0.0 -51.6093262,-29.3709818991924,0.0 -51.6101703,-29.3711102991924,0.0 -51.6106427,-29.3713591991923,0.0 -51.6108865,-29.3715725991924,0.0 -51.6113082,-29.3720399991923,0.0 -51.6116155,-29.3724513991923,0.0 -51.6117146,-29.3726977991923,0.0 -51.6117699,-29.3728070991923,0.0 -51.6118598,-29.3729390991923,0.0 -51.6121236,-29.3732164991923,0.0 -51.6125413,-29.3736342991923,0.0 -51.6128474,-29.3738737991923,0.0 -51.6131767,-29.3740566991923,0.0 -51.6134821,-29.3741864991923,0.0 -51.6137542,-29.3742463991923,0.0 -51.6140133,-29.3742573991923,0.0 -51.6143917,-29.3743436991923,0.0 -51.6147651,-29.3744706991923,0.0 -51.6149504,-29.3745860991923,0.0 -51.6151147,-29.3746647991923,0.0 -51.6152825,-29.3747197991923,0.0 -51.6157357,-29.3748223991923,0.0 -51.6161515,-29.3749836991923,0.0 -51.6164264,-29.3751244991923,0.0 -51.6166083,-29.3753000991923,0.0 -51.6167379,-29.3755544991923,0.0 -51.616766,-29.3759465991923,0.0 -51.6167082,-29.3764594991923,0.0 -51.6166625,-29.3768303991923,0.0 -51.616665,-29.3769979991923,0.0 -51.6167158,-29.3771706991923,0.0 -51.6167768,-29.3773078991923,0.0 -51.6168098,-29.3774551991922,0.0 -51.6168174,-29.3776685991922,0.0 -51.6168023,-29.3778849991922,0.0 -51.6160494,-29.3817736991922,0.0 -51.6140685,-29.3837852991922,0.0 -51.61399,-29.3882107991921,0.0 -51.6105266,-29.4008051991919,0.0 -51.6575304,-29.3993034991919,0.0 -51.6586095,-29.4021260991918,0.0 -51.6647117,-29.4109776991917,0.0 -51.665801,-29.4143189991916,0.0 -51.6694576,-29.4182930991916,0.0 -51.6803343,-29.4134074991916,0.0 -51.6912295,-29.4235254991915,0.0 -51.6912053,-29.4150697991916,0.0 -51.6911321,-29.389496199192,0.0 -51.6911316,-29.3892993991921,0.0 -51.6910799,-29.3713726991924,0.0 -51.7274541,-29.3694053991924,0.0 -51.7274661,-29.3692078991924,0.0 -51.7278921,-29.3621639991925,0.0 -51.7288308,-29.3466452991928,0.0 -51.7288531,-29.3462765991928,0.0 -51.7292686,-29.3393975991929,0.0 -51.7289575,-29.334062599193,0.0 -51.726069,-29.334104499193,0.0 -51.7018885,-29.334449899193,0.0 -51.7017838,-29.3242016991932,0.0 -51.7006879,-29.3230203991932,0.0 -51.7060514,-29.3232108991932,0.0 -51.7087456,-29.3245268991932,0.0 -51.7110139,-29.3243935991932,0.0 -51.714685,-29.3236465991932,0.0 -51.7166973,-29.3209079991932,0.0 -51.7190435,-29.3234721991932,0.0 -51.7204184,-29.3239222991932,0.0 -51.7233958,-29.3224624991932,0.0 -51.7267716,-29.3249503991931,0.0 -51.7290379,-29.3248590991931,0.0 -51.7289295,-29.3161852991933,0.0 -51.7237132,-29.3138311991933,0.0 -51.7166632,-29.3131020991933,0.0 -51.7139524,-29.3135589991933,0.0 -51.7090799,-29.3126124991934,0.0 -51.7090492,-29.3120376991934,0.0 -51.7088535,-29.3083664991934,0.0 -51.7062439,-29.3075704991934,0.0 -51.7034805,-29.3050447991935,0.0 -51.7013032,-29.3048585991935,0.0 -51.6994538,-29.3056554991935,0.0 -51.700926,-29.3043253991935,0.0 -51.6989124,-29.3034926991935,0.0 -51.6993648,-29.3018645991935,0.0 -51.6949036,-29.2995953991936,0.0 -51.6930625,-29.2955396991936,0.0 -51.6905147,-29.2965427991936,0.0 -51.6863161,-29.2960687991936,0.0 -51.6838997,-29.2970378991936,0.0 -51.6786597,-29.2947690991937,0.0 -51.6583018,-29.2944946991937,0.0 -51.6580964,-29.2943006991937,0.0 -51.6582412,-29.2940834991937,0.0 -51.6583415,-29.2938327991937,0.0 -51.6561524,-29.2938383991937,0.0 -51.6499965,-29.2939224991937,0.0 -51.6319117,-29.2934953991937,0.0 -51.6313743,-29.3136867991933,0.0 -51.6312547,-29.3197116991932,0.0 -51.6311176,-29.3231609991932,0.0 -51.6310518,-29.3280838991931,0.0 -51.6308805,-29.333302999193,0.0 -51.6464538,-29.333542899193,0.0 -51.6464925,-29.3378059991929,0.0 -51.6465173,-29.3445806991928,0.0 -51.6465562,-29.3476213991928,0.0 -51.6465506,-29.3501886991927,0.0 -51.646551,-29.3502970991927,0.0 -51.646551,-29.3503002991927,0.0</coordinates>
</LinearRing>
</outerBoundaryIs>
</Polygon>
</MultiGeometry>
</Placemark>
</Folder>
</Document></kml>
