<?xml version='1.0' encoding='UTF-8'?>
<kml xmlns:xsd="http://www.w3.org/2001/XMLSchema" xmlns:gx="http://www.google.com/kml/ext/2.2" xmlns:atom="http://www.w3.org/2005/Atom" xmlns="http://www.opengis.net/kml/2.2">
<Document>
<name>coxilha_4305975_localidades_2022</name>
<visibility>1</visibility>
<Schema name="01. Cidade" id="kml_schema_ft_01._Cidade">
<SimpleField type="xsd:string" name="CD_UF">
<displayName>CD_UF</displayName>
</SimpleField>
<SimpleField type="xsd:string" name="NM_UF">
<displayName>NM_UF</displayName>
</SimpleField>
<SimpleField type="xsd:string" name="SIGLA_UF">
<displayName>SIGLA_UF</displayName>
</SimpleField>
<SimpleField type="xsd:string" name="CD_MUN">
<displayName>CD_MUN</displayName>
</SimpleField>
<SimpleField type="xsd:string" name="NM_MUN">
<displayName>NM_MUN</displayName>
</SimpleField>
<SimpleField type="xsd:string" name="CD_RGINT">
<displayName>CD_RGINT</displayName>
</SimpleField>
<SimpleField type="xsd:string" name="NM_RGINT">
<displayName>NM_RGINT</displayName>
</SimpleField>
<SimpleField type="xsd:string" name="CD_RGI">
<displayName>CD_RGI</displayName>
</SimpleField>
<SimpleField type="xsd:string" name="NM_RGI">
<displayName>NM_RGI</displayName>
</SimpleField>
<SimpleField type="xsd:string" name="CT_LOCALIDADE">
<displayName>CT_LOCALIDADE</displayName>
</SimpleField>
<SimpleField type="xsd:string" name="SCT_LOCALIDADE">
<displayName>SCT_LOCALIDADE</displayName>
</SimpleField>
<SimpleField type="xsd:string" name="CD_LOCALIDADE">
<displayName>CD_LOCALIDADE</displayName>
</SimpleField>
<SimpleField type="xsd:string" name="NM_LOCALIDADE">
<displayName>NM_LOCALIDADE</displayName>
</SimpleField>
<SimpleField type="xsd:string" name="LAT_LOCALIDADE">
<displayName>LAT_LOCALIDADE</displayName>
</SimpleField>
<SimpleField type="xsd:string" name="LONG_LOCALIDADE">
<displayName>LONG_LOCALIDADE</displayName>
</SimpleField>
</Schema>
<Schema name="Localidades" id="kml_schema_ft_Localidades">
<SimpleField type="xsd:string" name="CD_UF">
<displayName>CD_UF</displayName>
</SimpleField>
<SimpleField type="xsd:string" name="NM_UF">
<displayName>NM_UF</displayName>
</SimpleField>
<SimpleField type="xsd:string" name="SIGLA_UF">
<displayName>SIGLA_UF</displayName>
</SimpleField>
<SimpleField type="xsd:string" name="CD_MUN">
<displayName>CD_MUN</displayName>
</SimpleField>
<SimpleField type="xsd:string" name="NM_MUN">
<displayName>NM_MUN</displayName>
</SimpleField>
<SimpleField type="xsd:string" name="CD_RGINT">
<displayName>CD_RGINT</displayName>
</SimpleField>
<SimpleField type="xsd:string" name="NM_RGINT">
<displayName>NM_RGINT</displayName>
</SimpleField>
<SimpleField type="xsd:string" name="CD_RGI">
<displayName>CD_RGI</displayName>
</SimpleField>
<SimpleField type="xsd:string" name="NM_RGI">
<displayName>NM_RGI</displayName>
</SimpleField>
<SimpleField type="xsd:string" name="CT_LOCALIDADE">
<displayName>CT_LOCALIDADE</displayName>
</SimpleField>
<SimpleField type="xsd:string" name="SCT_LOCALIDADE">
<displayName>SCT_LOCALIDADE</displayName>
</SimpleField>
<SimpleField type="xsd:string" name="CD_LOCALIDADE">
<displayName>CD_LOCALIDADE</displayName>
</SimpleField>
<SimpleField type="xsd:string" name="NM_LOCALIDADE">
<displayName>NM_LOCALIDADE</displayName>
</SimpleField>
</Schema>
<Schema name="Território Quilombola" id="kml_schema_ft_Território_Quilombola">
<SimpleField type="xsd:string" name="COD_TQ">
<displayName>COD_TQ</displayName>
</SimpleField>
<SimpleField type="xsd:string" name="NOM_TQ">
<displayName>NOM_TQ</displayName>
</SimpleField>
</Schema>
<Schema name="Município" id="kml_schema_ft_Município">
<SimpleField type="xsd:string" name="CD_UF">
<displayName>CD_UF</displayName>
</SimpleField>
<SimpleField type="xsd:string" name="NM_UF">
<displayName>NM_UF</displayName>
</SimpleField>
<SimpleField type="xsd:string" name="CD_MUN">
<displayName>CD_MUN</displayName>
</SimpleField>
<SimpleField type="xsd:string" name="NM_MUN">
<displayName>NM_MUN</displayName>
</SimpleField>
<SimpleField type="xsd:string" name="CD_RGINT">
<displayName>CD_RGINT</displayName>
</SimpleField>
<SimpleField type="xsd:string" name="NM_RGINT">
<displayName>NM_RGINT</displayName>
</SimpleField>
<SimpleField type="xsd:string" name="CD_RGI">
<displayName>CD_RGI</displayName>
</SimpleField>
<SimpleField type="xsd:string" name="NM_RGI">
<displayName>NM_RGI</displayName>
</SimpleField>
</Schema>
<Folder id="01. Cidade">
<name>01. Cidade</name>
<Folder id="01.03. Sede Municipal">
<name>01.03. Sede Municipal</name>
<Placemark id="01.03. Sede Municipal">
<name>Coxilha [4305975]</name>
<visibility>1</visibility>
<snippet> </snippet>
<description>&lt;center&gt;&lt;table&gt;&lt;tr&gt;&lt;th colspan='2' align='center'&gt;&lt;em&gt;Atributos&lt;/em&gt;&lt;/th&gt;&lt;/tr&gt;&lt;tr bgcolor="#E3E3F3"&gt;
&lt;th&gt;CD_UF&lt;/th&gt;
&lt;td&gt;43&lt;/td&gt;
&lt;/tr&gt;&lt;tr bgcolor=""&gt;
&lt;th&gt;NM_UF&lt;/th&gt;
&lt;td&gt;Rio Grande do Sul&lt;/td&gt;
&lt;/tr&gt;&lt;tr bgcolor="#E3E3F3"&gt;
&lt;th&gt;SIGLA_UF&lt;/th&gt;
&lt;td&gt;RS&lt;/td&gt;
&lt;/tr&gt;&lt;tr bgcolor=""&gt;
&lt;th&gt;CD_MUN&lt;/th&gt;
&lt;td&gt;4305975&lt;/td&gt;
&lt;/tr&gt;&lt;tr bgcolor="#E3E3F3"&gt;
&lt;th&gt;NM_MUN&lt;/th&gt;
&lt;td&gt;Coxilha&lt;/td&gt;
&lt;/tr&gt;&lt;tr bgcolor=""&gt;
&lt;th&gt;CD_RGINT&lt;/th&gt;
&lt;td&gt;4306&lt;/td&gt;
&lt;/tr&gt;&lt;tr bgcolor="#E3E3F3"&gt;
&lt;th&gt;NM_RGINT&lt;/th&gt;
&lt;td&gt;Passo Fundo&lt;/td&gt;
&lt;/tr&gt;&lt;tr bgcolor=""&gt;
&lt;th&gt;CD_RGI&lt;/th&gt;
&lt;td&gt;430025&lt;/td&gt;
&lt;/tr&gt;&lt;tr bgcolor="#E3E3F3"&gt;
&lt;th&gt;NM_RGI&lt;/th&gt;
&lt;td&gt;Passo Fundo&lt;/td&gt;
&lt;/tr&gt;&lt;tr bgcolor=""&gt;
&lt;th&gt;CT_LOCALIDADE&lt;/th&gt;
&lt;td&gt;Cidade&lt;/td&gt;
&lt;/tr&gt;&lt;tr bgcolor="#E3E3F3"&gt;
&lt;th&gt;SCT_LOCALIDADE&lt;/th&gt;
&lt;td&gt;Sede Municipal&lt;/td&gt;
&lt;/tr&gt;&lt;tr bgcolor=""&gt;
&lt;th&gt;CD_LOCALIDADE&lt;/th&gt;
&lt;td&gt;4305975&lt;/td&gt;
&lt;/tr&gt;&lt;tr bgcolor="#E3E3F3"&gt;
&lt;th&gt;NM_LOCALIDADE&lt;/th&gt;
&lt;td&gt;Coxilha&lt;/td&gt;
&lt;/tr&gt;&lt;tr bgcolor=""&gt;
&lt;th&gt;LAT_LOCALIDADE&lt;/th&gt;
&lt;td&gt;-28.1266&lt;/td&gt;
&lt;/tr&gt;&lt;tr bgcolor="#E3E3F3"&gt;
&lt;th&gt;LONG_LOCALIDADE&lt;/th&gt;
&lt;td&gt;-52.3001&lt;/td&gt;
&lt;/tr&gt;&lt;/table&gt;&lt;/center&gt;</description>
<Style>
<IconStyle>
<color>ff00aaff</color>
<scale>1.0</scale>
<Icon>
<href>http://maps.google.com/mapfiles/kml/shapes/placemark_circle.png</href>
</Icon>
</IconStyle>
<LabelStyle>
<scale>1.0</scale>
</LabelStyle>
<LineStyle>
<color>ffffffff</color>
<width>3</width>
<gx:labelVisibility>1</gx:labelVisibility>
</LineStyle>
<PolyStyle>
<color>00ffffff</color>
</PolyStyle>
</Style>
<ExtendedData>
<SchemaData schemaUrl="#kml_schema_ft_01._Cidade">
<SimpleData name="CD_UF">43</SimpleData>
<SimpleData name="NM_UF">Rio Grande do Sul</SimpleData>
<SimpleData name="SIGLA_UF">RS</SimpleData>
<SimpleData name="CD_MUN">4305975</SimpleData>
<SimpleData name="NM_MUN">Coxilha</SimpleData>
<SimpleData name="CD_RGINT">4306</SimpleData>
<SimpleData name="NM_RGINT">Passo Fundo</SimpleData>
<SimpleData name="CD_RGI">430025</SimpleData>
<SimpleData name="NM_RGI">Passo Fundo</SimpleData>
<SimpleData name="CT_LOCALIDADE">Cidade</SimpleData>
<SimpleData name="SCT_LOCALIDADE">Sede Municipal</SimpleData>
<SimpleData name="CD_LOCALIDADE">4305975</SimpleData>
<SimpleData name="NM_LOCALIDADE">Coxilha</SimpleData>
<SimpleData name="LAT_LOCALIDADE">-28.1266</SimpleData>
<SimpleData name="LONG_LOCALIDADE">-52.3001</SimpleData>
</SchemaData>
</ExtendedData>
<Point>
<extrude>0</extrude>
<coordinates>-52.300138,-28.1265529992143,0.0</coordinates>
</Point>
</Placemark>
</Folder>
</Folder>
<Folder id="12. Outras Localidades">
<name>12. Outras Localidades</name>
<Placemark id="12. Outras Localidades">
<name>Interior [430597500001]</name>
<visibility>1</visibility>
<snippet> </snippet>
<description>&lt;center&gt;&lt;table&gt;&lt;tr&gt;&lt;th colspan='2' align='center'&gt;&lt;em&gt;Attributes&lt;/em&gt;&lt;/th&gt;&lt;/tr&gt;&lt;tr bgcolor="#E3E3F3"&gt;
&lt;th&gt;CD_UF&lt;/th&gt;
&lt;td&gt;43&lt;/td&gt;
&lt;/tr&gt;&lt;tr bgcolor=""&gt;
&lt;th&gt;NM_UF&lt;/th&gt;
&lt;td&gt;Rio Grande do Sul&lt;/td&gt;
&lt;/tr&gt;&lt;tr bgcolor="#E3E3F3"&gt;
&lt;th&gt;SIGLA_UF&lt;/th&gt;
&lt;td&gt;RS&lt;/td&gt;
&lt;/tr&gt;&lt;tr bgcolor=""&gt;
&lt;th&gt;CD_MUN&lt;/th&gt;
&lt;td&gt;4305975&lt;/td&gt;
&lt;/tr&gt;&lt;tr bgcolor="#E3E3F3"&gt;
&lt;th&gt;NM_MUN&lt;/th&gt;
&lt;td&gt;Coxilha&lt;/td&gt;
&lt;/tr&gt;&lt;tr bgcolor=""&gt;
&lt;th&gt;CD_RGINT&lt;/th&gt;
&lt;td&gt;4306&lt;/td&gt;
&lt;/tr&gt;&lt;tr bgcolor="#E3E3F3"&gt;
&lt;th&gt;NM_RGINT&lt;/th&gt;
&lt;td&gt;Passo Fundo&lt;/td&gt;
&lt;/tr&gt;&lt;tr bgcolor=""&gt;
&lt;th&gt;CD_RGI&lt;/th&gt;
&lt;td&gt;430025&lt;/td&gt;
&lt;/tr&gt;&lt;tr bgcolor="#E3E3F3"&gt;
&lt;th&gt;NM_RGI&lt;/th&gt;
&lt;td&gt;Passo Fundo&lt;/td&gt;
&lt;/tr&gt;&lt;tr bgcolor=""&gt;
&lt;th&gt;CT_LOCALIDADE&lt;/th&gt;
&lt;td&gt;Outras Localidades&lt;/td&gt;
&lt;/tr&gt;&lt;tr bgcolor="#E3E3F3"&gt;
&lt;th&gt;SCT_LOCALIDADE&lt;/th&gt;
&lt;td&gt;&lt;/td&gt;
&lt;/tr&gt;&lt;tr bgcolor=""&gt;
&lt;th&gt;CD_LOCALIDADE&lt;/th&gt;
&lt;td&gt;430597500001&lt;/td&gt;
&lt;/tr&gt;&lt;tr bgcolor="#E3E3F3"&gt;
&lt;th&gt;NM_LOCALIDADE&lt;/th&gt;
&lt;td&gt;Interior&lt;/td&gt;
&lt;/tr&gt;&lt;/table&gt;&lt;/center&gt;</description>
<Style>
<IconStyle>
<color>ff0069d3</color>
<scale>0.6</scale>
<Icon>
<href>http://maps.google.com/mapfiles/kml/shapes/placemark_circle.png</href>
</Icon>
</IconStyle>
<LabelStyle>
<scale>0.6</scale>
</LabelStyle>
<LineStyle>
<width>1.0</width>
<gx:labelVisibility>1</gx:labelVisibility>
</LineStyle>
</Style>
<ExtendedData>
<SchemaData schemaUrl="#kml_schema_ft_Localidades">
<SimpleData name="CD_UF">43</SimpleData>
<SimpleData name="NM_UF">Rio Grande do Sul</SimpleData>
<SimpleData name="SIGLA_UF">RS</SimpleData>
<SimpleData name="CD_MUN">4305975</SimpleData>
<SimpleData name="NM_MUN">Coxilha</SimpleData>
<SimpleData name="CD_RGINT">4306</SimpleData>
<SimpleData name="NM_RGINT">Passo Fundo</SimpleData>
<SimpleData name="CD_RGI">430025</SimpleData>
<SimpleData name="NM_RGI">Passo Fundo</SimpleData>
<SimpleData name="CT_LOCALIDADE">Outras Localidades</SimpleData>
<SimpleData name="CD_LOCALIDADE">430597500001</SimpleData>
<SimpleData name="NM_LOCALIDADE">Interior</SimpleData>
</SchemaData>
</ExtendedData>
<Point>
<extrude>0</extrude>
<coordinates>-52.335977,-28.085794999215,0.0</coordinates>
</Point>
</Placemark>
</Folder>
<Folder id="13. Referência">
<name>13. Referência</name>
<Placemark id="13. Referência">
<name>Coxilha [4305975]</name>
<visibility>1</visibility>
<snippet> </snippet>
<description>&lt;center&gt;&lt;table&gt;&lt;tr&gt;&lt;th colspan='2' align='center'&gt;&lt;em&gt;Attributes&lt;/em&gt;&lt;/th&gt;&lt;/tr&gt;&lt;tr bgcolor="#E3E3F3"&gt;
&lt;th&gt;CD_UF&lt;/th&gt;
&lt;td&gt;43&lt;/td&gt;
&lt;/tr&gt;&lt;tr bgcolor=""&gt;
&lt;th&gt;NM_UF&lt;/th&gt;
&lt;td&gt;Rio Grande do Sul&lt;/td&gt;
&lt;/tr&gt;&lt;tr bgcolor="#E3E3F3"&gt;
&lt;th&gt;CD_MUN&lt;/th&gt;
&lt;td&gt;4305975&lt;/td&gt;
&lt;/tr&gt;&lt;tr bgcolor=""&gt;
&lt;th&gt;NM_MUN&lt;/th&gt;
&lt;td&gt;Coxilha&lt;/td&gt;
&lt;/tr&gt;&lt;tr bgcolor="#E3E3F3"&gt;
&lt;th&gt;CD_RGINT&lt;/th&gt;
&lt;td&gt;4306&lt;/td&gt;
&lt;/tr&gt;&lt;tr bgcolor=""&gt;
&lt;th&gt;NM_RGINT&lt;/th&gt;
&lt;td&gt;Passo Fundo&lt;/td&gt;
&lt;/tr&gt;&lt;tr bgcolor="#E3E3F3"&gt;
&lt;th&gt;CD_RGI&lt;/th&gt;
&lt;td&gt;430025&lt;/td&gt;
&lt;/tr&gt;&lt;tr bgcolor=""&gt;
&lt;th&gt;NM_RGI&lt;/th&gt;
&lt;td&gt;Passo Fundo&lt;/td&gt;
&lt;/tr&gt;&lt;/table&gt;&lt;/center&gt;</description>
<Style>
<IconStyle>
<scale>0.7</scale>
</IconStyle>
<LabelStyle>
<scale>0.7</scale>
</LabelStyle>
<LineStyle>
<color>ffffffff</color>
<width>3</width>
<gx:labelVisibility>1</gx:labelVisibility>
</LineStyle>
<PolyStyle>
<color>00ffffff</color>
</PolyStyle>
</Style>
<ExtendedData>
<SchemaData schemaUrl="#kml_schema_ft_Município">
<SimpleData name="CD_UF">43</SimpleData>
<SimpleData name="NM_UF">Rio Grande do Sul</SimpleData>
<SimpleData name="CD_MUN">4305975</SimpleData>
<SimpleData name="NM_MUN">Coxilha</SimpleData>
<SimpleData name="CD_RGINT">4306</SimpleData>
<SimpleData name="NM_RGINT">Passo Fundo</SimpleData>
<SimpleData name="CD_RGI">430025</SimpleData>
<SimpleData name="NM_RGI">Passo Fundo</SimpleData>
</SchemaData>
</ExtendedData>
<MultiGeometry>
<Polygon>
<extrude>0</extrude>
<tessellate>1</tessellate>
<outerBoundaryIs>
<LinearRing>
<coordinates>-52.2935469,-28.2009821992129,0.0 -52.2978778,-28.199787599213,0.0 -52.3003378,-28.198178999213,0.0 -52.3020034,-28.195915499213,0.0 -52.3033938,-28.1915934992131,0.0 -52.3148506,-28.196069699213,0.0 -52.3278251,-28.196752899213,0.0 -52.3359709,-28.2006329992129,0.0 -52.3531465,-28.1939726992131,0.0 -52.3615236,-28.1917474992131,0.0 -52.364648,-28.1925182992131,0.0 -52.3679023,-28.1917776992131,0.0 -52.3743996,-28.1861966992132,0.0 -52.3780287,-28.1855784992132,0.0 -52.3804712,-28.1851617992132,0.0 -52.3828835,-28.1865506992132,0.0 -52.3849601,-28.1860834992132,0.0 -52.3902672,-28.1876660992132,0.0 -52.3933188,-28.1874484992132,0.0 -52.396034,-28.1888966992132,0.0 -52.3978913,-28.1887189992132,0.0 -52.4020314,-28.1840789992133,0.0 -52.4060119,-28.1811057992133,0.0 -52.4075505,-28.1780311992134,0.0 -52.4107298,-28.1748762992134,0.0 -52.415343,-28.1748142992134,0.0 -52.4162874,-28.1737515992134,0.0 -52.4186251,-28.1741998992134,0.0 -52.4208062,-28.1749828992134,0.0 -52.4344299,-28.1751482992134,0.0 -52.4406197,-28.1750745992134,0.0 -52.4489771,-28.1710880992135,0.0 -52.4492388,-28.1725010992135,0.0 -52.4532274,-28.1718867992135,0.0 -52.4532627,-28.1704887992135,0.0 -52.4556491,-28.1713835992135,0.0 -52.4577226,-28.1700238992135,0.0 -52.4577879,-28.1683150992135,0.0 -52.4587676,-28.1676701992135,0.0 -52.4620217,-28.1689824992135,0.0 -52.4650762,-28.1675894992135,0.0 -52.4681803,-28.1628481992136,0.0 -52.4707294,-28.1615332992137,0.0 -52.4707711,-28.1589571992137,0.0 -52.4680016,-28.1580204992137,0.0 -52.4678243,-28.1555275992138,0.0 -52.4694872,-28.1543706992138,0.0 -52.4692333,-28.1533212992138,0.0 -52.4719604,-28.1522889992138,0.0 -52.4723501,-28.1538856992138,0.0 -52.4758338,-28.1568690992137,0.0 -52.4754911,-28.1558359992138,0.0 -52.4768107,-28.1546813992138,0.0 -52.4759136,-28.1536808992138,0.0 -52.4767227,-28.1527019992138,0.0 -52.4762878,-28.1498354992139,0.0 -52.4779678,-28.1486785992139,0.0 -52.4777135,-28.1477284992139,0.0 -52.4794114,-28.1458013992139,0.0 -52.4810333,-28.145148999214,0.0 -52.4828959,-28.141068399214,0.0 -52.4864145,-28.1386677992141,0.0 -52.4872661,-28.1368935992141,0.0 -52.4864869,-28.1356877992141,0.0 -52.479942,-28.1332444992142,0.0 -52.4808338,-28.1313624992142,0.0 -52.484284,-28.1280860992143,0.0 -52.4817019,-28.1269063992143,0.0 -52.4813472,-28.1245504992143,0.0 -52.4792543,-28.1261439992143,0.0 -52.4786806,-28.1253941992143,0.0 -52.4814902,-28.1229993992144,0.0 -52.4856555,-28.1237960992143,0.0 -52.4869578,-28.1218266992144,0.0 -52.4871227,-28.1207765992144,0.0 -52.4871661,-28.1204033992144,0.0 -52.4872247,-28.1202732992144,0.0 -52.4872605,-28.1202113992144,0.0 -52.4873137,-28.1201690992144,0.0 -52.4873885,-28.1201571992144,0.0 -52.4874699,-28.1201712992144,0.0 -52.4876261,-28.1202558992144,0.0 -52.4879992,-28.1204901992144,0.0 -52.4883377,-28.1209761992144,0.0 -52.4884603,-28.1211030992144,0.0 -52.4885308,-28.1211562992144,0.0 -52.4886067,-28.1211844992144,0.0 -52.4887271,-28.1211660992144,0.0 -52.4888324,-28.1211150992144,0.0 -52.4889398,-28.1210293992144,0.0 -52.4890233,-28.1209154992144,0.0 -52.4891708,-28.1205422992144,0.0 -52.4894485,-28.1201430992144,0.0 -52.4896915,-28.1198479992144,0.0 -52.4900734,-28.1195268992144,0.0 -52.4905247,-28.1193359992144,0.0 -52.4909322,-28.1190780992144,0.0 -52.4913361,-28.1188065992144,0.0 -52.4915899,-28.1185310992144,0.0 -52.4917027,-28.1182533992145,0.0 -52.4917114,-28.1180276992144,0.0 -52.4916246,-28.1176718992145,0.0 -52.4915335,-28.1175655992145,0.0 -52.4914858,-28.1174549992145,0.0 -52.4914945,-28.1173464992145,0.0 -52.4915335,-28.1172466992145,0.0 -52.4916745,-28.1171338992145,0.0 -52.4917331,-28.1170340992145,0.0 -52.4918416,-28.1167780992145,0.0 -52.4920629,-28.1164438992145,0.0 -52.4921974,-28.1163093992145,0.0 -52.4923363,-28.1162225992145,0.0 -52.4924404,-28.1162095992145,0.0 -52.4925706,-28.1162356992145,0.0 -52.4926725,-28.1163202992145,0.0 -52.4927789,-28.1163657992145,0.0 -52.4930023,-28.1163809992145,0.0 -52.4932475,-28.1163440992145,0.0 -52.4935773,-28.1163961992145,0.0 -52.4939418,-28.1163571992145,0.0 -52.4940871,-28.1163744992145,0.0 -52.4944169,-28.1164525992145,0.0 -52.4946187,-28.1164525992145,0.0 -52.4947836,-28.1163918992145,0.0 -52.4949571,-28.1163831992145,0.0 -52.4951047,-28.1164395992145,0.0 -52.4951524,-28.1166001992145,0.0 -52.4951133,-28.1167953992145,0.0 -52.494853,-28.1174549992145,0.0 -52.4947402,-28.1181068992144,0.0 -52.4947315,-28.1186536992144,0.0 -52.4946664,-28.1189313992144,0.0 -52.4945406,-28.1191482992144,0.0 -52.4944277,-28.1192188992144,0.0 -52.4943106,-28.1192350992144,0.0 -52.4941956,-28.1191732992144,0.0 -52.4940893,-28.1191786992144,0.0 -52.493983,-28.1192600992144,0.0 -52.4939287,-28.1193685992144,0.0 -52.4938159,-28.1196125992144,0.0 -52.4937031,-28.1197134992144,0.0 -52.4935686,-28.1197861992144,0.0 -52.4934948,-28.1198751992144,0.0 -52.4934742,-28.1199282992144,0.0 -52.4934775,-28.1199770992144,0.0 -52.4935111,-28.1200074992144,0.0 -52.4935794,-28.1200226992144,0.0 -52.4937031,-28.1200378992144,0.0 -52.4939504,-28.1201376992144,0.0 -52.4943974,-28.1201376992144,0.0 -52.4948486,-28.1201289992144,0.0 -52.4952782,-28.1202027992144,0.0 -52.4954865,-28.1201679992144,0.0 -52.4956991,-28.1200985992144,0.0 -52.4958597,-28.1199293992144,0.0 -52.4959985,-28.1194607992144,0.0 -52.4961808,-28.1191005992144,0.0 -52.496324,-28.1185798992144,0.0 -52.4965236,-28.1182544992145,0.0 -52.4966451,-28.1181546992145,0.0 -52.496836,-28.1181372992145,0.0 -52.4972873,-28.1181893992145,0.0 -52.4975954,-28.1182934992144,0.0 -52.4978557,-28.1183238992144,0.0 -52.4986064,-28.1182630992144,0.0 -52.4989926,-28.1182500992145,0.0 -52.4993571,-28.1183064992144,0.0 -52.499587,-28.1184279992144,0.0 -52.4997823,-28.1185798992144,0.0 -52.4999125,-28.1188402992144,0.0 -52.4999862,-28.1189096992144,0.0 -52.5001121,-28.1189530992144,0.0 -52.5002726,-28.1189009992144,0.0 -52.5004071,-28.1188054992144,0.0 -52.5005764,-28.1185039992144,0.0 -52.5007109,-28.1181698992144,0.0 -52.5008497,-28.1179745992145,0.0 -52.5011318,-28.1178313992145,0.0 -52.5012685,-28.1176707992145,0.0 -52.5013574,-28.1174885992145,0.0 -52.5013878,-28.1173193992145,0.0 -52.5013618,-28.1168637992145,0.0 -52.5013791,-28.1167161992145,0.0 -52.5014095,-28.1166554992145,0.0 -52.5014702,-28.1166142992145,0.0 -52.5015874,-28.1165860992145,0.0 -52.501659,-28.1165295992145,0.0 -52.5016894,-28.1164601992145,0.0 -52.5016991,-28.1163462992145,0.0 -52.5017328,-28.1161021992145,0.0 -52.5017566,-28.1159806992145,0.0 -52.5018022,-28.1159090992145,0.0 -52.5019877,-28.1157517992145,0.0 -52.5020474,-28.1156769992145,0.0 -52.5020593,-28.1156227992145,0.0 -52.5020571,-28.1155652992145,0.0 -52.5020354,-28.1155153992145,0.0 -52.5019747,-28.1154795992145,0.0 -52.5018987,-28.1154610992145,0.0 -52.5016492,-28.1154437992145,0.0 -52.5013867,-28.1154697992145,0.0 -52.5012663,-28.1155294992145,0.0 -52.5011003,-28.1156606992145,0.0 -52.5008725,-28.1157474992145,0.0 -52.5005362,-28.1158168992145,0.0 -52.4999461,-28.1158342992145,0.0 -52.4998398,-28.1157539992145,0.0 -52.4997986,-28.1156433992145,0.0 -52.4998007,-28.1154372992145,0.0 -52.499753,-28.1152636992145,0.0 -52.4996749,-28.1151703992145,0.0 -52.4995773,-28.1151095992145,0.0 -52.499356,-28.1150141992145,0.0 -52.4991998,-28.1148882992145,0.0 -52.4991651,-28.1147884992145,0.0 -52.4991651,-28.1146539992145,0.0 -52.4992084,-28.1144109992145,0.0 -52.4993299,-28.1138729992145,0.0 -52.4993473,-28.1134997992145,0.0 -52.4992974,-28.1129226992145,0.0 -52.4993712,-28.1124887992146,0.0 -52.4994232,-28.1123021992146,0.0 -52.4995274,-28.1121719992146,0.0 -52.499612,-28.1121025992146,0.0 -52.4997357,-28.1120591992146,0.0 -52.4998398,-28.1120461992146,0.0 -52.4999483,-28.1120548992146,0.0 -52.5000654,-28.1121068992146,0.0 -52.5001924,-28.1121264992146,0.0 -52.5004212,-28.1121025992146,0.0 -52.5007131,-28.1119962992146,0.0 -52.5008986,-28.1119506992146,0.0 -52.5010721,-28.1119441992146,0.0 -52.5012978,-28.1119777992146,0.0 -52.5014041,-28.1119701992146,0.0 -52.5014909,-28.1119528992146,0.0 -52.5015722,-28.1119181992146,0.0 -52.5016362,-28.1118888992146,0.0 -52.5016883,-28.1118443992146,0.0 -52.5017675,-28.1117098992146,0.0 -52.5018423,-28.1115319992146,0.0 -52.5019682,-28.1113323992146,0.0 -52.5020419,-28.1112390992146,0.0 -52.5021537,-28.1111631992146,0.0 -52.5022546,-28.1111348992146,0.0 -52.5023717,-28.1111370992146,0.0 -52.5026614,-28.1111479992146,0.0 -52.5029434,-28.1111435992146,0.0 -52.5031105,-28.1111544992146,0.0 -52.5031799,-28.1111717992146,0.0 -52.5031983,-28.1111923992146,0.0 -52.5032124,-28.1112238992146,0.0 -52.503207,-28.1112618992146,0.0 -52.5031842,-28.1112976992146,0.0 -52.5031126,-28.1113496992146,0.0 -52.5029759,-28.1114451992146,0.0 -52.5028805,-28.1115840992146,0.0 -52.5028588,-28.1116664992146,0.0 -52.5028826,-28.1117445992146,0.0 -52.5029282,-28.1118139992146,0.0 -52.5030345,-28.1118682992146,0.0 -52.5031886,-28.1118877992146,0.0 -52.5033535,-28.1118725992146,0.0 -52.503488,-28.1118877992146,0.0 -52.5036377,-28.1119202992146,0.0 -52.5037939,-28.1119788992146,0.0 -52.5040369,-28.1120830992146,0.0 -52.5041367,-28.1121763992146,0.0 -52.5042365,-28.1123498992146,0.0 -52.5043341,-28.1124822992146,0.0 -52.5044621,-28.1125776992146,0.0 -52.504601,-28.1126037992146,0.0 -52.5047377,-28.1125928992145,0.0 -52.5050002,-28.1125342992146,0.0 -52.5050804,-28.1124995992146,0.0 -52.5051369,-28.1124496992146,0.0 -52.5052518,-28.1122869992146,0.0 -52.5053408,-28.1122066992146,0.0 -52.5055946,-28.1120916992146,0.0 -52.5056554,-28.1120222992146,0.0 -52.5056684,-28.1119354992146,0.0 -52.5056207,-28.1118747992146,0.0 -52.5055556,-28.1118313992146,0.0 -52.5053256,-28.1117315992146,0.0 -52.504896,-28.1115275992146,0.0 -52.5045663,-28.1112498992146,0.0 -52.5044014,-28.1110155992146,0.0 -52.5043536,-28.1108203992146,0.0 -52.504358,-28.1105729992146,0.0 -52.5044534,-28.1102301992146,0.0 -52.5044925,-28.1101737992146,0.0 -52.5045663,-28.1101390992146,0.0 -52.5046574,-28.1101477992146,0.0 -52.5047593,-28.1101694992146,0.0 -52.504883,-28.1101347992146,0.0 -52.505126,-28.1099676992146,0.0 -52.5052866,-28.1099047992146,0.0 -52.5054905,-28.1098700992146,0.0 -52.5057205,-28.1099047992146,0.0 -52.5059439,-28.1099698992146,0.0 -52.5062065,-28.1100088992146,0.0 -52.5069528,-28.1099568992146,0.0 -52.5075082,-28.1099047992146,0.0 -52.5080463,-28.1099654992146,0.0 -52.508298,-28.1098917992146,0.0 -52.5085583,-28.1096791992146,0.0 -52.5086538,-28.1093406992146,0.0 -52.508593,-28.1089457992146,0.0 -52.5084455,-28.1085769992146,0.0 -52.508337,-28.1083860992146,0.0 -52.5081244,-28.1082558992146,0.0 -52.5074388,-28.1080909992146,0.0 -52.5062781,-28.1080215992146,0.0 -52.5049394,-28.1079564992146,0.0 -52.5042126,-28.1078566992146,0.0 -52.5038655,-28.1077177992146,0.0 -52.5037006,-28.1076657992146,0.0 -52.5035357,-28.1076592992146,0.0 -52.503284,-28.1077091992146,0.0 -52.5030844,-28.1076917992146,0.0 -52.5028241,-28.1076093992146,0.0 -52.5023815,-28.1073706992146,0.0 -52.5017002,-28.1070191992147,0.0 -52.5015397,-28.1068586992147,0.0 -52.5012056,-28.1063162992147,0.0 -52.5009886,-28.1057651992147,0.0 -52.500763,-28.1054831992147,0.0 -52.5006762,-28.1052357992147,0.0 -52.5005417,-28.1050535992147,0.0 -52.5003551,-28.1049060992147,0.0 -52.5001425,-28.1048322992147,0.0 -52.4999125,-28.1047975992147,0.0 -52.4989839,-28.1046499992147,0.0 -52.4984111,-28.1046413992147,0.0 -52.4980206,-28.1046586992147,0.0 -52.4976301,-28.1047628992147,0.0 -52.497309,-28.1049060992147,0.0 -52.4970747,-28.1051012992147,0.0 -52.4965539,-28.1055438992147,0.0 -52.4961244,-28.1057933992147,0.0 -52.4959291,-28.1059430992147,0.0 -52.4957903,-28.1061730992147,0.0 -52.4957143,-28.1062446992147,0.0 -52.4956167,-28.1062815992147,0.0 -52.4954865,-28.1062663992147,0.0 -52.495339,-28.1062142992147,0.0 -52.4950569,-28.1061903992147,0.0 -52.4945102,-28.1061166992147,0.0 -52.4940242,-28.1059517992147,0.0 -52.4935209,-28.1056913992147,0.0 -52.4932388,-28.1054310992147,0.0 -52.492998,-28.1053225992147,0.0 -52.4925662,-28.1050990992147,0.0 -52.4921801,-28.1049602992147,0.0 -52.4919739,-28.1048365992147,0.0 -52.4919132,-28.1047129992147,0.0 -52.4918958,-28.1045458992147,0.0 -52.4919392,-28.1043636992147,0.0 -52.4920238,-28.1042139992147,0.0 -52.4921323,-28.1040490992147,0.0 -52.4923146,-28.1038580992147,0.0 -52.4924534,-28.1035868992147,0.0 -52.4925272,-28.1033373992147,0.0 -52.4926747,-28.1031421992147,0.0 -52.4930153,-28.1028861992147,0.0 -52.4932648,-28.1026344992147,0.0 -52.4934167,-28.1025606992147,0.0 -52.4939504,-28.1023914992147,0.0 -52.4944104,-28.1019965992148,0.0 -52.4948139,-28.1015409992148,0.0 -52.4951958,-28.1010810992148,0.0 -52.4953954,-28.1008076992148,0.0 -52.4954388,-28.1006384992148,0.0 -52.4954388,-28.1004561992148,0.0 -52.4952912,-28.1002001992148,0.0 -52.4950483,-28.0999528992148,0.0 -52.4938159,-28.0989721992148,0.0 -52.4932518,-28.0983907992148,0.0 -52.4929589,-28.0978049992148,0.0 -52.4928027,-28.0973015992148,0.0 -52.4926899,-28.0965899992148,0.0 -52.4925597,-28.0963252992148,0.0 -52.4924447,-28.0961017992148,0.0 -52.4924339,-28.0960106992149,0.0 -52.4924512,-28.0959217992149,0.0 -52.4924925,-28.0958392992149,0.0 -52.4925597,-28.0957872992149,0.0 -52.4928613,-28.0957416992149,0.0 -52.4931151,-28.0956440992149,0.0 -52.4935621,-28.0956092992149,0.0 -52.4939569,-28.0954964992149,0.0 -52.494278,-28.0953315992149,0.0 -52.4946035,-28.0952274992149,0.0 -52.4950244,-28.0951406992149,0.0 -52.4957751,-28.0950799992149,0.0 -52.4970551,-28.0948325992149,0.0 -52.4974977,-28.0947544992149,0.0 -52.4978318,-28.0947241992149,0.0 -52.4981399,-28.0947544992149,0.0 -52.4986129,-28.0948803992149,0.0 -52.4990338,-28.0948759992149,0.0 -52.5004701,-28.0946546992149,0.0 -52.5014572,-28.0943682992149,0.0 -52.5019215,-28.0941296992149,0.0 -52.5025724,-28.0939517992149,0.0 -52.5027134,-28.0938823992149,0.0 -52.5027655,-28.0937586992149,0.0 -52.5027416,-28.0936718992149,0.0 -52.5026809,-28.0936154992149,0.0 -52.5025051,-28.0935763992149,0.0 -52.5020799,-28.0934288992149,0.0 -52.5017414,-28.0931771992149,0.0 -52.5014225,-28.0930188992149,0.0 -52.5011687,-28.0929602992149,0.0 -52.5006219,-28.0930122992149,0.0 -52.4998344,-28.0932704992149,0.0 -52.4993202,-28.0934809992149,0.0 -52.4987561,-28.0935677992149,0.0 -52.4985673,-28.0935395992149,0.0 -52.4984437,-28.0934418992149,0.0 -52.4984133,-28.0932856992149,0.0 -52.4984523,-28.0931251992149,0.0 -52.4984762,-28.0930079992149,0.0 -52.4985478,-28.0929255992149,0.0 -52.4986237,-28.0928842992149,0.0 -52.49873,-28.0928647992149,0.0 -52.4990338,-28.0928821992149,0.0 -52.4992594,-28.0928474992149,0.0 -52.4994894,-28.0927215992149,0.0 -52.4997107,-28.0925436992149,0.0 -52.5001186,-28.0920489992149,0.0 -52.5005959,-28.0912939992149,0.0 -52.5010645,-28.090400199215,0.0 -52.5012641,-28.090217899215,0.0 -52.5014811,-28.090165799215,0.0 -52.5018022,-28.090313399215,0.0 -52.5021146,-28.090330699215,0.0 -52.5025832,-28.090061699215,0.0 -52.5030519,-28.089627799215,0.0 -52.5032168,-28.089402099215,0.0 -52.5032775,-28.089107099215,0.0 -52.5031734,-28.088777299215,0.0 -52.5030172,-28.088499599215,0.0 -52.5025312,-28.087692499215,0.0 -52.5022621,-28.087223899215,0.0 -52.5018456,-28.086963499215,0.0 -52.5013422,-28.086911499215,0.0 -52.5009604,-28.087076299215,0.0 -52.500674,-28.087397399215,0.0 -52.5001099,-28.088393299215,0.0 -52.499893,-28.088668799215,0.0 -52.4994068,-28.089170899215,0.0 -52.4991119,-28.089258999215,0.0 -52.4988602,-28.089261099215,0.0 -52.4986129,-28.089085399215,0.0 -52.4983829,-28.088801199215,0.0 -52.4979316,-28.088158999215,0.0 -52.4975064,-28.087265099215,0.0 -52.4972764,-28.087097999215,0.0 -52.4969944,-28.086978699215,0.0 -52.4958922,-28.086839899215,0.0 -52.4955256,-28.086692299215,0.0 -52.4953672,-28.086611999215,0.0 -52.4952978,-28.086564299215,0.0 -52.4952674,-28.086510099215,0.0 -52.495275,-28.086447199215,0.0 -52.4953129,-28.086386399215,0.0 -52.4954236,-28.086293099215,0.0 -52.4958835,-28.086015399215,0.0 -52.496196,-28.085807099215,0.0 -52.4966906,-28.085624899215,0.0 -52.4973936,-28.085433999215,0.0 -52.4978535,-28.0853991992151,0.0 -52.4984402,-28.0851419992151,0.0 -52.4989427,-28.0844532992151,0.0 -52.4990468,-28.0841755992151,0.0 -52.4992638,-28.0839195992151,0.0 -52.4995675,-28.0836982992151,0.0 -52.4996369,-28.0835897992151,0.0 -52.4996717,-28.0834552992151,0.0 -52.4995892,-28.0827479992151,0.0 -52.4995849,-28.0820406992151,0.0 -52.4996847,-28.0816414992151,0.0 -52.4998843,-28.0813247992151,0.0 -52.5001403,-28.0810122992151,0.0 -52.5002488,-28.0807909992151,0.0 -52.5002661,-28.0806130992151,0.0 -52.5002054,-28.0804872992151,0.0 -52.5000709,-28.0803527992151,0.0 -52.4995502,-28.0798667992152,0.0 -52.4992508,-28.0795065992152,0.0 -52.4990685,-28.0791919992152,0.0 -52.4989036,-28.0789403992152,0.0 -52.49878,-28.0786821992152,0.0 -52.4987626,-28.0784499992152,0.0 -52.49878,-28.0783024992152,0.0 -52.4987908,-28.0781028992152,0.0 -52.4987496,-28.0780204992152,0.0 -52.4986519,-28.0779336992152,0.0 -52.4985717,-28.0778880992152,0.0 -52.4984827,-28.0778728992152,0.0 -52.4983222,-28.0779271992152,0.0 -52.4981594,-28.0779141992152,0.0 -52.4980553,-28.0778707992152,0.0 -52.4979902,-28.0777318992152,0.0 -52.4979555,-28.0775365992152,0.0 -52.4979533,-28.0774367992152,0.0 -52.4979729,-28.0773304992152,0.0 -52.4980076,-28.0772285992152,0.0 -52.4980683,-28.0771547992152,0.0 -52.4981855,-28.0771091992152,0.0 -52.4983417,-28.0770874992152,0.0 -52.4986064,-28.0770939992152,0.0 -52.498921,-28.0770918992152,0.0 -52.4992009,-28.0771308992152,0.0 -52.4994916,-28.0771113992152,0.0 -52.4996608,-28.0770723992152,0.0 -52.4997281,-28.0770549992152,0.0 -52.4997693,-28.0770158992152,0.0 -52.4997845,-28.0769508992152,0.0 -52.4997649,-28.0768813992152,0.0 -52.499689,-28.0767533992152,0.0 -52.4994916,-28.0765125992152,0.0 -52.4992573,-28.0763064992152,0.0 -52.4990837,-28.0761263992152,0.0 -52.4990273,-28.0759853992152,0.0 -52.4990707,-28.0757662992152,0.0 -52.499036,-28.0756013992152,0.0 -52.4989557,-28.0754602992152,0.0 -52.4988429,-28.0753387992152,0.0 -52.4986758,-28.0752281992152,0.0 -52.4985022,-28.0751674992152,0.0 -52.4983699,-28.0751912992152,0.0 -52.4982245,-28.0752628992152,0.0 -52.4980163,-28.0754407992152,0.0 -52.4978557,-28.0755796992152,0.0 -52.4977125,-28.0756533992152,0.0 -52.497565,-28.0756533992152,0.0 -52.4974478,-28.0756056992152,0.0 -52.4973914,-28.0755015992152,0.0 -52.4973307,-28.0752932992152,0.0 -52.4972482,-28.0751890992152,0.0 -52.497079,-28.0751109992152,0.0 -52.4966754,-28.0750632992152,0.0 -52.4965019,-28.0749547992152,0.0 -52.4964194,-28.0748332992152,0.0 -52.496337,-28.0743906992152,0.0 -52.4963587,-28.0740218992153,0.0 -52.496324,-28.0738613992153,0.0 -52.4962112,-28.0737528992153,0.0 -52.4959768,-28.0736617992153,0.0 -52.495825,-28.0735662992153,0.0 -52.4957599,-28.0734273992153,0.0 -52.4957555,-28.0732624992153,0.0 -52.495825,-28.0730672992153,0.0 -52.4958033,-28.0729066992153,0.0 -52.4956861,-28.0727808992153,0.0 -52.4954388,-28.0726029992153,0.0 -52.4953694,-28.0724727992153,0.0 -52.4953477,-28.0722905992153,0.0 -52.4953607,-28.0718566992153,0.0 -52.4952435,-28.0715485992153,0.0 -52.4951611,-28.0713923992153,0.0 -52.4950678,-28.0712935992153,0.0 -52.4950396,-28.0710668992153,0.0 -52.4950266,-28.0708889992153,0.0 -52.4950526,-28.0707848992153,0.0 -52.4951242,-28.0707078992153,0.0 -52.4951958,-28.0706492992153,0.0 -52.4952956,-28.0706188992153,0.0 -52.4953824,-28.0705906992153,0.0 -52.4954713,-28.0705863992153,0.0 -52.4956753,-28.0705581992153,0.0 -52.4957794,-28.0705298992153,0.0 -52.4958402,-28.0704908992153,0.0 -52.4958792,-28.0704409992153,0.0 -52.4958835,-28.0703801992153,0.0 -52.4958694,-28.0703248992153,0.0 -52.4958727,-28.0702673992153,0.0 -52.495889,-28.0702185992153,0.0 -52.4959204,-28.0701740992153,0.0 -52.4959964,-28.0700742992153,0.0 -52.4960528,-28.0700070992153,0.0 -52.4960962,-28.0699874992153,0.0 -52.4961721,-28.0699647992153,0.0 -52.4962263,-28.0699137992153,0.0 -52.4962806,-28.0698052992153,0.0 -52.4963001,-28.0697401992153,0.0 -52.4962828,-28.0696794992153,0.0 -52.4961895,-28.0696164992153,0.0 -52.4960658,-28.0695644992153,0.0 -52.4959334,-28.0694255992153,0.0 -52.4958315,-28.0693583992153,0.0 -52.495749,-28.0693474992153,0.0 -52.4956471,-28.0693583992153,0.0 -52.495493,-28.0692975992153,0.0 -52.4953889,-28.0691955992153,0.0 -52.495263,-28.0690241992153,0.0 -52.49502,-28.0684514992154,0.0 -52.4949506,-28.0681954992154,0.0 -52.4948031,-28.0680218992154,0.0 -52.4945753,-28.0678873992154,0.0 -52.4943388,-28.0678439992154,0.0 -52.4940155,-28.0678808992154,0.0 -52.493651,-28.0678439992154,0.0 -52.4933646,-28.0677897992154,0.0 -52.4932041,-28.0677831992154,0.0 -52.4930891,-28.0677983992154,0.0 -52.4929763,-28.0678417992154,0.0 -52.4928244,-28.0679068992154,0.0 -52.4927268,-28.0679394992154,0.0 -52.4926715,-28.0679426992154,0.0 -52.4926118,-28.0679263992154,0.0 -52.4925543,-28.0678960992154,0.0 -52.4925185,-28.0678439992154,0.0 -52.492512,-28.0677463992154,0.0 -52.4925684,-28.0675011992154,0.0 -52.4925576,-28.0674317992154,0.0 -52.4925185,-28.0673753992154,0.0 -52.492371,-28.0672798992154,0.0 -52.4922321,-28.0672581992154,0.0 -52.4921649,-28.0672364992154,0.0 -52.492128,-28.0671843992154,0.0 -52.492128,-28.0671192992154,0.0 -52.4921584,-28.0670498992154,0.0 -52.4922495,-28.0669327992154,0.0 -52.4927008,-28.0665682992154,0.0 -52.4935078,-28.0659433992154,0.0 -52.4936727,-28.0655875992154,0.0 -52.494137,-28.0651167992154,0.0 -52.494866,-28.0645613992154,0.0 -52.4950656,-28.0644441992154,0.0 -52.4953043,-28.0643574992154,0.0 -52.495595,-28.0643400992154,0.0 -52.4957512,-28.0643096992154,0.0 -52.4958597,-28.0642185992154,0.0 -52.4959334,-28.0641057992154,0.0 -52.4959638,-28.0639994992154,0.0 -52.4959465,-28.0638844992154,0.0 -52.495851,-28.0636587992154,0.0 -52.4958141,-28.0635481992154,0.0 -52.495838,-28.0634461992154,0.0 -52.495953,-28.0633593992155,0.0 -52.4962415,-28.0632162992154,0.0 -52.4968273,-28.0627519992155,0.0 -52.4977472,-28.0623396992155,0.0 -52.4979425,-28.0622832992155,0.0 -52.4981464,-28.0622832992155,0.0 -52.4983981,-28.0622832992155,0.0 -52.4985717,-28.0621964992155,0.0 -52.4986932,-28.0620402992155,0.0 -52.4990663,-28.0617972992155,0.0 -52.4993831,-28.0616844992155,0.0 -52.4999645,-28.0615282992155,0.0 -52.5003421,-28.0614197992155,0.0 -52.5005373,-28.0614154992155,0.0 -52.5007348,-28.0613828992155,0.0 -52.5008389,-28.0613677992155,0.0 -52.5009105,-28.0613178992155,0.0 -52.5009539,-28.0612028992155,0.0 -52.5010407,-28.0610856992155,0.0 -52.5011665,-28.0609858992155,0.0 -52.5012446,-28.0608795992155,0.0 -52.5012359,-28.0607862992155,0.0 -52.5011622,-28.0606625992155,0.0 -52.5011752,-28.0605193992155,0.0 -52.5012576,-28.0603718992155,0.0 -52.5016959,-28.0600898992155,0.0 -52.5018044,-28.0599032992155,0.0 -52.5018261,-28.0596971992155,0.0 -52.5017653,-28.0594910992155,0.0 -52.5014963,-28.0592111992155,0.0 -52.5014095,-28.0591004992155,0.0 -52.5013835,-28.0589529992155,0.0 -52.5013401,-28.0584821992155,0.0 -52.5013032,-28.0581675992155,0.0 -52.5012967,-28.0579896992155,0.0 -52.5013574,-28.0578225992156,0.0 -52.5016677,-28.0573821992156,0.0 -52.5018716,-28.0571695992156,0.0 -52.5018955,-28.0571044992156,0.0 -52.5018716,-28.0570393992156,0.0 -52.5017545,-28.0569308992156,0.0 -52.5016633,-28.0567876992156,0.0 -52.5016547,-28.0566857992156,0.0 -52.5016698,-28.0566076992156,0.0 -52.5017067,-28.0565338992156,0.0 -52.5017762,-28.0564904992156,0.0 -52.5020192,-28.0564383992156,0.0 -52.5021059,-28.0564058992156,0.0 -52.5021537,-28.0563429992156,0.0 -52.5022057,-28.0560131992156,0.0 -52.5022404,-28.0558959992156,0.0 -52.5023815,-28.0557918992156,0.0 -52.502874,-28.0557180992156,0.0 -52.5031517,-28.0557050992156,0.0 -52.5034229,-28.0557745992156,0.0 -52.5036333,-28.0559176992156,0.0 -52.5038373,-28.0562431992156,0.0 -52.5040629,-28.0564817992156,0.0 -52.5042842,-28.0565815992156,0.0 -52.5044448,-28.0567681992156,0.0 -52.504614,-28.0571543992156,0.0 -52.5046465,-28.0572476992156,0.0 -52.5047225,-28.0573192992156,0.0 -52.5049351,-28.0573886992156,0.0 -52.5050284,-28.0574364992156,0.0 -52.5050848,-28.0575275992156,0.0 -52.5050848,-28.0576164992156,0.0 -52.5050457,-28.0577423992156,0.0 -52.5050761,-28.0578746992155,0.0 -52.5051412,-28.0579614992155,0.0 -52.5052757,-28.0580091992156,0.0 -52.5055057,-28.0579874992156,0.0 -52.5056901,-28.0579961992156,0.0 -52.505855,-28.0580655992155,0.0 -52.5059309,-28.0582044992155,0.0 -52.5059526,-28.0583606992155,0.0 -52.5059743,-28.0587685992155,0.0 -52.5060134,-28.0589551992155,0.0 -52.5061652,-28.0591417992155,0.0 -52.5066339,-28.0594888992155,0.0 -52.507007,-28.0596537992155,0.0 -52.5075711,-28.0598012992155,0.0 -52.5078488,-28.0600269992155,0.0 -52.5080745,-28.0604781992155,0.0 -52.5085778,-28.0613807992155,0.0 -52.5088035,-28.0619014992155,0.0 -52.5088892,-28.0624698992155,0.0 -52.5092884,-28.0627041992155,0.0 -52.5099479,-28.0628690992155,0.0 -52.5101996,-28.0630426992155,0.0 -52.5106205,-28.0631511992155,0.0 -52.5115111,-28.0629949992155,0.0 -52.5123123,-28.0626108992155,0.0 -52.5129958,-28.0622820992155,0.0 -52.5134544,-28.0621609992155,0.0 -52.5135625,-28.0620836992155,0.0 -52.5137442,-28.0617478992155,0.0 -52.5139821,-28.0609496992155,0.0 -52.5141508,-28.0600866992155,0.0 -52.5142028,-28.0595199992155,0.0 -52.5141876,-28.0592668992155,0.0 -52.5141379,-28.0591154992155,0.0 -52.5140189,-28.0588883992155,0.0 -52.5139389,-28.0586785992155,0.0 -52.5139151,-28.0584881992155,0.0 -52.5138697,-28.0582978992155,0.0 -52.5137918,-28.0581464992155,0.0 -52.5137247,-28.0578846992155,0.0 -52.513649,-28.0577094992156,0.0 -52.5135517,-28.0575818992156,0.0 -52.513344,-28.0570714992156,0.0 -52.5133138,-28.0568983992156,0.0 -52.5133613,-28.0565176992156,0.0 -52.5132792,-28.0563489992156,0.0 -52.5130282,-28.0560894992156,0.0 -52.512972,-28.0558731992156,0.0 -52.5129547,-28.0556870992156,0.0 -52.5129828,-28.0554859992156,0.0 -52.512985,-28.0552934992156,0.0 -52.5129244,-28.0550987992156,0.0 -52.5126951,-28.0547526992156,0.0 -52.5126216,-28.0543849992156,0.0 -52.5127341,-28.0539610992156,0.0 -52.5127514,-28.0535457992156,0.0 -52.5127687,-28.0531736992156,0.0 -52.5128293,-28.0529227992156,0.0 -52.5131018,-28.0526891992156,0.0 -52.5132835,-28.0522911992157,0.0 -52.5136728,-28.0517374992157,0.0 -52.5138459,-28.0515644992157,0.0 -52.5140405,-28.0514778992157,0.0 -52.5142006,-28.0513481992157,0.0 -52.5142179,-28.0512183992157,0.0 -52.5142006,-28.0511058992157,0.0 -52.5141357,-28.0509804992157,0.0 -52.5140449,-28.0508722992157,0.0 -52.5137766,-28.0507857992157,0.0 -52.5134652,-28.0507684992157,0.0 -52.5127471,-28.0508376992157,0.0 -52.5123404,-28.0508030992157,0.0 -52.5119424,-28.0506905992157,0.0 -52.5115704,-28.0505521992157,0.0 -52.5113627,-28.0503098992157,0.0 -52.5112589,-28.0500070992157,0.0 -52.5111984,-28.0495571992157,0.0 -52.5110599,-28.0492673992157,0.0 -52.5106965,-28.0490553992157,0.0 -52.510212,-28.0489212992157,0.0 -52.509269,-28.0487092992157,0.0 -52.5086979,-28.0484453992157,0.0 -52.5077981,-28.0483501992157,0.0 -52.5071752,-28.0483501992157,0.0 -52.5069416,-28.0482982992157,0.0 -52.5067166,-28.0481728992157,0.0 -52.5065263,-28.0481425992157,0.0 -52.5062754,-28.0482117992157,0.0 -52.5057476,-28.0484453992157,0.0 -52.5054837,-28.0485189992157,0.0 -52.5052371,-28.0485232992157,0.0 -52.5050165,-28.0483804992157,0.0 -52.5048045,-28.0483501992157,0.0 -52.5044368,-28.0483848992157,0.0 -52.5040605,-28.0483415992157,0.0 -52.5036408,-28.0483934992157,0.0 -52.5032948,-28.0482982992157,0.0 -52.5030871,-28.0480992992157,0.0 -52.5030352,-28.0477359992157,0.0 -52.5030439,-28.0472513992157,0.0 -52.5029876,-28.0470610992157,0.0 -52.5027756,-28.0468187992158,0.0 -52.5026718,-28.0466111992158,0.0 -52.5026632,-28.0464121992158,0.0 -52.5027583,-28.0462347992158,0.0 -52.5028102,-28.0460314992158,0.0 -52.5027843,-28.0458670992158,0.0 -52.5027151,-28.0457546992158,0.0 -52.5024901,-28.0455988992158,0.0 -52.50217,-28.0455556992158,0.0 -52.5018499,-28.0456161992158,0.0 -52.5012702,-28.0457805992158,0.0 -52.5002666,-28.0459968992158,0.0 -52.4998513,-28.0459882992158,0.0 -52.4996955,-28.0458930992158,0.0 -52.499635,-28.0457199992158,0.0 -52.4997301,-28.0452181992158,0.0 -52.4998426,-28.0449586992158,0.0 -52.500007,-28.0448115992158,0.0 -52.5002579,-28.0446298992158,0.0 -52.5006732,-28.0444481992158,0.0 -52.5011058,-28.0441107992158,0.0 -52.5020445,-28.0432844992158,0.0 -52.5022911,-28.0430162992158,0.0 -52.5026978,-28.0426831992158,0.0 -52.5031217,-28.0424279992158,0.0 -52.5034635,-28.0422635992158,0.0 -52.5037101,-28.0420602992158,0.0 -52.5037836,-28.0419174992158,0.0 -52.5037987,-28.0418190992158,0.0 -52.5037576,-28.0417573992158,0.0 -52.5036863,-28.0417152992158,0.0 -52.5036668,-28.0416589992159,0.0 -52.5036906,-28.0415984992158,0.0 -52.5037209,-28.0415605992158,0.0 -52.5037771,-28.0415486992159,0.0 -52.5039415,-28.0415756992158,0.0 -52.5040259,-28.0415627992158,0.0 -52.5041016,-28.0415043992159,0.0 -52.5041448,-28.0414772992159,0.0 -52.5042313,-28.0414588992159,0.0 -52.5043287,-28.0414675992158,0.0 -52.5044801,-28.0415043992159,0.0 -52.5045536,-28.0414978992158,0.0 -52.5046077,-28.0414599992159,0.0 -52.5046207,-28.0414004992159,0.0 -52.5045926,-28.0413377992159,0.0 -52.5045579,-28.0412642992159,0.0 -52.5044649,-28.0411603992159,0.0 -52.5044347,-28.0411009992159,0.0 -52.504439,-28.0410392992159,0.0 -52.5044714,-28.0409851992159,0.0 -52.5046185,-28.0408532992159,0.0 -52.5048564,-28.0406812992159,0.0 -52.5049538,-28.0406423992159,0.0 -52.5050727,-28.0406553992159,0.0 -52.5053626,-28.0407418992159,0.0 -52.5055226,-28.0407115992159,0.0 -52.5056308,-28.0405774992159,0.0 -52.5057692,-28.0401318992159,0.0 -52.5060245,-28.0396603992159,0.0 -52.5061888,-28.0389855992159,0.0 -52.506323,-28.0387735992159,0.0 -52.5067945,-28.0384101992159,0.0 -52.5071492,-28.0380683992159,0.0 -52.5074953,-28.0378434992159,0.0 -52.5078933,-28.0375752992159,0.0 -52.508473,-28.0373719992159,0.0 -52.5091219,-28.0371815992159,0.0 -52.5094247,-28.0370171992159,0.0 -52.509522,-28.0368895992159,0.0 -52.5095545,-28.0367489992159,0.0 -52.509509,-28.0366494992159,0.0 -52.5094204,-28.0366018992159,0.0 -52.5091392,-28.0365326992159,0.0 -52.5086201,-28.0364288992159,0.0 -52.5074261,-28.036264499216,0.0 -52.5069589,-28.0360914992159,0.0 -52.5067685,-28.0362211992159,0.0 -52.5064398,-28.0362038992159,0.0 -52.5059899,-28.035987599216,0.0 -52.5057389,-28.035650199216,0.0 -52.505514,-28.034975399216,0.0 -52.5053063,-28.034698499216,0.0 -52.5047786,-28.034464899216,0.0 -52.5040691,-28.034386999216,0.0 -52.5035413,-28.034412999216,0.0 -52.5018566,-28.035363299216,0.0 -52.4982547,-28.0380349992159,0.0 -52.4936181,-28.035241599216,0.0 -52.4929066,-28.035722799216,0.0 -52.4932514,-28.0367387992159,0.0 -52.4906629,-28.0368141992159,0.0 -52.4891764,-28.0407899992159,0.0 -52.4894391,-28.0419278992158,0.0 -52.4906435,-28.0414150992158,0.0 -52.4922774,-28.0426969992158,0.0 -52.4914374,-28.0440735992158,0.0 -52.4920381,-28.0446836992158,0.0 -52.4908783,-28.0454323992158,0.0 -52.4908331,-28.0470666992157,0.0 -52.4894955,-28.0467740992158,0.0 -52.4891799,-28.0481771992157,0.0 -52.4877687,-28.0487119992157,0.0 -52.4877959,-28.0496026992157,0.0 -52.4895508,-28.0510402992157,0.0 -52.488573,-28.0512062992157,0.0 -52.4887121,-28.0520225992157,0.0 -52.4868013,-28.0529298992156,0.0 -52.4843562,-28.0560289992156,0.0 -52.4867792,-28.0574874992156,0.0 -52.488533,-28.0572667992156,0.0 -52.488325,-28.0610824992155,0.0 -52.4839351,-28.0603718992155,0.0 -52.4815387,-28.0625918992155,0.0 -52.4796997,-28.0601085992155,0.0 -52.4776322,-28.0599918992155,0.0 -52.4734969,-28.0629393992155,0.0 -52.4770062,-28.0655684992154,0.0 -52.4765685,-28.0677532992154,0.0 -52.47405,-28.0700167992153,0.0 -52.4754647,-28.0716401992153,0.0 -52.4780318,-28.0720620992153,0.0 -52.4787992,-28.0729068992153,0.0 -52.4766439,-28.0725031992153,0.0 -52.4773497,-28.0736810992153,0.0 -52.4758123,-28.0740420992153,0.0 -52.4760609,-28.0756786992152,0.0 -52.4748946,-28.0774258992152,0.0 -52.4717627,-28.0781587992152,0.0 -52.4693505,-28.0772107992152,0.0 -52.4691338,-28.0764198992152,0.0 -52.4703528,-28.0748284992152,0.0 -52.4686963,-28.0744076992153,0.0 -52.4685046,-28.0726426992153,0.0 -52.4640738,-28.0732138992153,0.0 -52.4622633,-28.0717482992153,0.0 -52.460666,-28.0738180992153,0.0 -52.4624963,-28.0737510992153,0.0 -52.4620874,-28.0750248992152,0.0 -52.4594407,-28.0740550992153,0.0 -52.4563032,-28.0743166992152,0.0 -52.457273,-28.0766524992152,0.0 -52.4563535,-28.0779899992152,0.0 -52.4550838,-28.0778385992152,0.0 -52.4545985,-28.0797529992151,0.0 -52.4536826,-28.0803335992151,0.0 -52.4524481,-28.0796457992152,0.0 -52.4518712,-28.0807795992151,0.0 -52.4498711,-28.0817475992151,0.0 -52.4493695,-28.0825231992151,0.0 -52.4492342,-28.0805440992151,0.0 -52.4512491,-28.0796691992152,0.0 -52.4510382,-28.0784154992152,0.0 -52.4498113,-28.0782608992152,0.0 -52.4506197,-28.0770196992152,0.0 -52.4494037,-28.0765349992152,0.0 -52.4491239,-28.0753995992152,0.0 -52.4478587,-28.0755070992152,0.0 -52.4452061,-28.0739595992153,0.0 -52.4448174,-28.0741067992153,0.0 -52.4443417,-28.0742872992152,0.0 -52.4428094,-28.0725935992153,0.0 -52.4438265,-28.0695079992153,0.0 -52.4433354,-28.0685758992154,0.0 -52.4419939,-28.0707303992153,0.0 -52.4400503,-28.0704728992153,0.0 -52.438518,-28.0732214992153,0.0 -52.4361274,-28.0748136992152,0.0 -52.4358201,-28.0762211992152,0.0 -52.433296,-28.0757178992152,0.0 -52.4329127,-28.0772399992152,0.0 -52.4318517,-28.0768759992152,0.0 -52.4308727,-28.0751353992152,0.0 -52.4303377,-28.0730244992153,0.0 -52.4312631,-28.0717999992153,0.0 -52.4292357,-28.0696052992153,0.0 -52.4279584,-28.0698477992153,0.0 -52.4275367,-28.0707947992153,0.0 -52.4249802,-28.0708457992153,0.0 -52.4237133,-28.0717703992153,0.0 -52.4240337,-28.0728187992153,0.0 -52.420404,-28.0728582992153,0.0 -52.41971,-28.0739779992153,0.0 -52.4176763,-28.0748007992152,0.0 -52.4170462,-28.0735719992153,0.0 -52.4103885,-28.0749953992152,0.0 -52.406745,-28.0740987992153,0.0 -52.4049914,-28.0749661992152,0.0 -52.4044751,-28.0774031992152,0.0 -52.4009112,-28.0778696992152,0.0 -52.4004879,-28.0817160992151,0.0 -52.3988217,-28.0830543992151,0.0 -52.3992032,-28.085661599215,0.0 -52.3975713,-28.088385099215,0.0 -52.3889369,-28.090247099215,0.0 -52.3867286,-28.085288199215,0.0 -52.3819111,-28.0812438992151,0.0 -52.3821634,-28.0707232992153,0.0 -52.3795963,-28.0676165992154,0.0 -52.3800101,-28.0632270992154,0.0 -52.3773213,-28.0595668992155,0.0 -52.3782846,-28.0565911992156,0.0 -52.3781637,-28.0536667992156,0.0 -52.3757991,-28.0491677992157,0.0 -52.375242,-28.0448849992158,0.0 -52.3755544,-28.0431808992158,0.0 -52.3781039,-28.0401634992159,0.0 -52.3782618,-28.0394733992159,0.0 -52.3788417,-28.0369505992159,0.0 -52.3773669,-28.0259691992161,0.0 -52.3782431,-28.0226766992162,0.0 -52.3770302,-28.0191944992163,0.0 -52.3731484,-28.0201535992162,0.0 -52.3722945,-28.0229753992162,0.0 -52.3709424,-28.0237541992162,0.0 -52.3689197,-28.0276617992161,0.0 -52.3670172,-28.0266991992161,0.0 -52.3658083,-28.0270808992161,0.0 -52.3620552,-28.0248935992161,0.0 -52.3608679,-28.0267333992161,0.0 -52.3600037,-28.0268510992161,0.0 -52.3591634,-28.0239884992162,0.0 -52.357212,-28.0247121992162,0.0 -52.3557059,-28.0233038992162,0.0 -52.3551627,-28.0254526992161,0.0 -52.3561849,-28.0271185992161,0.0 -52.3541625,-28.0278918992161,0.0 -52.3531948,-28.0282618992161,0.0 -52.3539707,-28.0302748992161,0.0 -52.353413,-28.032433399216,0.0 -52.3518436,-28.031502499216,0.0 -52.351193,-28.032752299216,0.0 -52.3492479,-28.031721199216,0.0 -52.3473641,-28.032600699216,0.0 -52.3448429,-28.0289364992161,0.0 -52.3445773,-28.030076399216,0.0 -52.3424221,-28.030949799216,0.0 -52.3418892,-28.0307484992161,0.0 -52.3423226,-28.0299435992161,0.0 -52.3403705,-28.0293742992161,0.0 -52.338249,-28.0299701992161,0.0 -52.3369305,-28.0291332992161,0.0 -52.3319418,-28.031720699216,0.0 -52.3281683,-28.0301582992161,0.0 -52.3263579,-28.0288515992161,0.0 -52.3239914,-28.030875199216,0.0 -52.3235226,-28.032316499216,0.0 -52.3198968,-28.032843299216,0.0 -52.3168922,-28.0363861992159,0.0 -52.3180848,-28.0383728992159,0.0 -52.3158426,-28.0415398992158,0.0 -52.3155391,-28.0465250992158,0.0 -52.3144389,-28.0496933992157,0.0 -52.3110674,-28.0492694992157,0.0 -52.3078934,-28.0513621992157,0.0 -52.2974519,-28.0625044992155,0.0 -52.2962468,-28.0663461992154,0.0 -52.296533,-28.0700674992153,0.0 -52.3002047,-28.0729203992153,0.0 -52.2960169,-28.0759501992152,0.0 -52.2892489,-28.0772218992152,0.0 -52.2872078,-28.0752388992152,0.0 -52.2835356,-28.0733940992153,0.0 -52.2778827,-28.0728154992153,0.0 -52.2710371,-28.0678759992154,0.0 -52.2642939,-28.0693262992153,0.0 -52.2592221,-28.0715967992153,0.0 -52.2544515,-28.0695777992153,0.0 -52.2512161,-28.0643646992154,0.0 -52.247552,-28.0635195992154,0.0 -52.2428797,-28.0695591992153,0.0 -52.2425035,-28.0721731992153,0.0 -52.2414463,-28.0729237992153,0.0 -52.2434036,-28.0761323992152,0.0 -52.242283,-28.0776534992152,0.0 -52.2445152,-28.0821041992151,0.0 -52.2406912,-28.0792424992152,0.0 -52.2246382,-28.0740957992153,0.0 -52.2185591,-28.0680360992154,0.0 -52.2156034,-28.0637369992154,0.0 -52.2139476,-28.0646933992154,0.0 -52.2081437,-28.0634549992154,0.0 -52.2057949,-28.0644752992154,0.0 -52.2018897,-28.0642635992154,0.0 -52.1973608,-28.0672280992154,0.0 -52.1900436,-28.0669270992154,0.0 -52.1865882,-28.0649464992154,0.0 -52.1815535,-28.0679488992154,0.0 -52.1784363,-28.0677595992154,0.0 -52.1743117,-28.0642750992154,0.0 -52.1726819,-28.0645744992154,0.0 -52.1699748,-28.0654631992154,0.0 -52.1693423,-28.0691072992153,0.0 -52.1664747,-28.0711131992153,0.0 -52.1645838,-28.0735948992153,0.0 -52.1686876,-28.0770514992152,0.0 -52.1725247,-28.0791476992152,0.0 -52.1711277,-28.0838885992151,0.0 -52.1715796,-28.085563499215,0.0 -52.1705864,-28.086589499215,0.0 -52.1718326,-28.087809499215,0.0 -52.1730997,-28.088219699215,0.0 -52.1775169,-28.087326699215,0.0 -52.1808192,-28.085985699215,0.0 -52.1833853,-28.089504499215,0.0 -52.1870915,-28.089925199215,0.0 -52.1844722,-28.0928214992149,0.0 -52.1843457,-28.0929605992149,0.0 -52.1837682,-28.0948058992149,0.0 -52.1807268,-28.0959301992149,0.0 -52.1795805,-28.0953484992149,0.0 -52.1786753,-28.0950161992149,0.0 -52.1761713,-28.0954113992149,0.0 -52.1749944,-28.1001326992148,0.0 -52.1720466,-28.1035214992147,0.0 -52.1724667,-28.1044994992147,0.0 -52.1768769,-28.1041215992147,0.0 -52.1785966,-28.1078691992146,0.0 -52.1849619,-28.1091929992146,0.0 -52.1860995,-28.1088489992146,0.0 -52.186912,-28.1071403992147,0.0 -52.1887171,-28.1077072992146,0.0 -52.1882932,-28.1110096992146,0.0 -52.1834,-28.1113427992146,0.0 -52.1811467,-28.1125406992146,0.0 -52.1771775,-28.1164950992145,0.0 -52.1764219,-28.1180204992145,0.0 -52.1770674,-28.1223410992144,0.0 -52.1755519,-28.1239545992143,0.0 -52.1732464,-28.1248467992143,0.0 -52.1738873,-28.1262525992143,0.0 -52.1759106,-28.1248298992143,0.0 -52.1790815,-28.1264001992143,0.0 -52.1803228,-28.1290877992143,0.0 -52.1820923,-28.1299131992142,0.0 -52.1826649,-28.1321759992142,0.0 -52.1772783,-28.1358125992141,0.0 -52.1763853,-28.1364154992141,0.0 -52.1761155,-28.1365977992141,0.0 -52.1755337,-28.143593899214,0.0 -52.1714361,-28.1464475992139,0.0 -52.1714852,-28.1470959992139,0.0 -52.1746005,-28.1480738992139,0.0 -52.1753671,-28.1476555992139,0.0 -52.1747285,-28.1465257992139,0.0 -52.1785824,-28.1466933992139,0.0 -52.1800652,-28.1481176992139,0.0 -52.182115,-28.1474989992139,0.0 -52.1848624,-28.1486818992139,0.0 -52.1894137,-28.1467457992139,0.0 -52.1892186,-28.1520465992138,0.0 -52.1878348,-28.1554319992138,0.0 -52.1851756,-28.1572189992137,0.0 -52.1867697,-28.1585183992137,0.0 -52.1870079,-28.1614830992137,0.0 -52.1861173,-28.1635695992136,0.0 -52.1877952,-28.1640707992136,0.0 -52.1880076,-28.1668763992136,0.0 -52.1913386,-28.1699045992135,0.0 -52.190428,-28.1733601992134,0.0 -52.193913,-28.1752996992134,0.0 -52.1962604,-28.1748777992134,0.0 -52.1983123,-28.1753517992134,0.0 -52.1990583,-28.1753836992134,0.0 -52.1996931,-28.1751631992134,0.0 -52.2003587,-28.1752566992134,0.0 -52.2011846,-28.1752543992134,0.0 -52.2015881,-28.1748169992134,0.0 -52.2023833,-28.1739854992134,0.0 -52.2026459,-28.1740480992134,0.0 -52.2027935,-28.1742516992134,0.0 -52.2027811,-28.1748708992134,0.0 -52.202549,-28.1753958992134,0.0 -52.20309,-28.1760211992134,0.0 -52.2035043,-28.1765544992134,0.0 -52.2040362,-28.1766252992134,0.0 -52.2049723,-28.1758878992134,0.0 -52.2054943,-28.1753012992134,0.0 -52.2057413,-28.1748930992134,0.0 -52.2058053,-28.1744212992134,0.0 -52.2062525,-28.1742894992134,0.0 -52.2066493,-28.1743913992134,0.0 -52.2070287,-28.1745198992134,0.0 -52.2077392,-28.1746277992134,0.0 -52.2082369,-28.1742926992134,0.0 -52.2082932,-28.1737822992134,0.0 -52.2085044,-28.1737019992134,0.0 -52.2087654,-28.1737696992134,0.0 -52.2088271,-28.1740695992134,0.0 -52.209226,-28.1744149992134,0.0 -52.2096869,-28.1746584992134,0.0 -52.2099468,-28.1751265992134,0.0 -52.2101498,-28.1754236992134,0.0 -52.210532,-28.1754385992134,0.0 -52.2107528,-28.1754361992134,0.0 -52.2108956,-28.1750852992134,0.0 -52.21077,-28.1747929992134,0.0 -52.2110054,-28.1744667992134,0.0 -52.2117595,-28.1738455992134,0.0 -52.212334,-28.1732744992134,0.0 -52.212705,-28.1729057992134,0.0 -52.2131095,-28.1722423992135,0.0 -52.2134069,-28.1722048992135,0.0 -52.21382,-28.1725806992135,0.0 -52.2147223,-28.1725665992135,0.0 -52.2151293,-28.1723925992135,0.0 -52.215439,-28.1718509992135,0.0 -52.2156073,-28.1712598992135,0.0 -52.2159805,-28.1707614992135,0.0 -52.2165214,-28.1704719992135,0.0 -52.2170583,-28.1704201992135,0.0 -52.2176472,-28.1707357992135,0.0 -52.2182844,-28.1708903992135,0.0 -52.2192613,-28.1710073992135,0.0 -52.2198857,-28.1712744992135,0.0 -52.2206709,-28.1717237992135,0.0 -52.2213681,-28.1721202992135,0.0 -52.2218846,-28.1724690992135,0.0 -52.2224827,-28.1725852992135,0.0 -52.2229191,-28.1721001992135,0.0 -52.2237201,-28.1714132992135,0.0 -52.2242939,-28.1711743992135,0.0 -52.2249243,-28.1710248992135,0.0 -52.225336,-28.1712341992135,0.0 -52.2255246,-28.1717916992135,0.0 -52.22596,-28.1725867992135,0.0 -52.2264671,-28.1729685992135,0.0 -52.2268462,-28.1735903992134,0.0 -52.227418,-28.1736444992134,0.0 -52.2286819,-28.1732006992134,0.0 -52.2291296,-28.1730848992134,0.0 -52.2299132,-28.1725246992135,0.0 -52.2305095,-28.1725009992135,0.0 -52.2310892,-28.1726957992135,0.0 -52.2315469,-28.1726635992135,0.0 -52.2317927,-28.1731228992134,0.0 -52.2313649,-28.1738746992134,0.0 -52.2315344,-28.1741972992134,0.0 -52.2319021,-28.1745733992134,0.0 -52.2326597,-28.1745363992134,0.0 -52.2330998,-28.1746770992134,0.0 -52.2334087,-28.1750536992134,0.0 -52.2335633,-28.1753154992134,0.0 -52.2335334,-28.1757154992134,0.0 -52.2337771,-28.1758030992134,0.0 -52.2339673,-28.1760027992134,0.0 -52.233866,-28.1762337992134,0.0 -52.2335783,-28.1763670992134,0.0 -52.233579,-28.1765675992134,0.0 -52.2338109,-28.1767642992134,0.0 -52.2336232,-28.1770615992134,0.0 -52.2332649,-28.1771033992134,0.0 -52.233275,-28.1775482992134,0.0 -52.2335843,-28.1777508992134,0.0 -52.2342586,-28.1778673992134,0.0 -52.2348247,-28.1779701992134,0.0 -52.2350661,-28.1783088992134,0.0 -52.2349786,-28.1785865992133,0.0 -52.2346635,-28.1789672992133,0.0 -52.2349072,-28.1792788992133,0.0 -52.2351918,-28.1795380992133,0.0 -52.2354887,-28.1798312992133,0.0 -52.2359518,-28.1801536992133,0.0 -52.2366119,-28.1802782992133,0.0 -52.2371352,-28.1806789992133,0.0 -52.2374136,-28.1810017992133,0.0 -52.237494,-28.1812904992133,0.0 -52.2376461,-28.1814176992133,0.0 -52.2382887,-28.1813446992133,0.0 -52.2390137,-28.1813433992133,0.0 -52.2395859,-28.1812648992133,0.0 -52.2400079,-28.1815486992133,0.0 -52.2402425,-28.1818291992133,0.0 -52.240106,-28.1822564992133,0.0 -52.2401893,-28.1826354992133,0.0 -52.2407138,-28.1828300992133,0.0 -52.2408673,-28.1832998992133,0.0 -52.2407372,-28.1836971992133,0.0 -52.2402864,-28.1840508992132,0.0 -52.2402635,-28.1844261992132,0.0 -52.2403632,-28.1848462992132,0.0 -52.2407726,-28.1848009992132,0.0 -52.2411537,-28.1844910992132,0.0 -52.2416763,-28.1843215992132,0.0 -52.2418726,-28.1846644992132,0.0 -52.2422338,-28.1848550992132,0.0 -52.2427554,-28.1846544992132,0.0 -52.2429678,-28.1847606992132,0.0 -52.2429119,-28.1850567992132,0.0 -52.2430308,-28.1853119992132,0.0 -52.2433014,-28.1853836992132,0.0 -52.2437913,-28.1854209992132,0.0 -52.2442974,-28.1851502992132,0.0 -52.2447372,-28.1852268992132,0.0 -52.2448867,-28.1855521992132,0.0 -52.2450755,-28.1860906992132,0.0 -52.2454762,-28.1866355992132,0.0 -52.2458938,-28.1870326992132,0.0 -52.2463915,-28.1875426992132,0.0 -52.2467249,-28.1877942992132,0.0 -52.247354,-28.1874669992132,0.0 -52.2477097,-28.1873840992132,0.0 -52.2482817,-28.1874539992132,0.0 -52.2487903,-28.1875290992132,0.0 -52.2494793,-28.1876553992132,0.0 -52.2496933,-28.1880495992132,0.0 -52.2498459,-28.1885542992132,0.0 -52.2503136,-28.1888509992132,0.0 -52.2505964,-28.1890551992132,0.0 -52.2509043,-28.1891550992132,0.0 -52.2510883,-28.1893373992131,0.0 -52.2509185,-28.1895241992131,0.0 -52.2503816,-28.1896480992132,0.0 -52.2497812,-28.1894976992132,0.0 -52.2494081,-28.1897507992131,0.0 -52.2491443,-28.1900544992131,0.0 -52.2487701,-28.1906159992131,0.0 -52.2486184,-28.1911184992131,0.0 -52.2487257,-28.1918357992131,0.0 -52.2489596,-28.1926313992131,0.0 -52.2492422,-28.1935736992131,0.0 -52.2496571,-28.1936460992131,0.0 -52.2501943,-28.1936837992131,0.0 -52.2506944,-28.1936928992131,0.0 -52.2510149,-28.1937855992131,0.0 -52.2512079,-28.1941325992131,0.0 -52.2513171,-28.1944522992131,0.0 -52.2515956,-28.1945105992131,0.0 -52.2517467,-28.1945885992131,0.0 -52.2518177,-28.1946906992131,0.0 -52.2518182,-28.194998899213,0.0 -52.2518896,-28.195525799213,0.0 -52.252099,-28.195695099213,0.0 -52.2526048,-28.195794099213,0.0 -52.2531147,-28.195822199213,0.0 -52.2535016,-28.195873299213,0.0 -52.2539326,-28.195765299213,0.0 -52.2545871,-28.195677499213,0.0 -52.2550459,-28.195749299213,0.0 -52.2557668,-28.195766799213,0.0 -52.2559325,-28.195941699213,0.0 -52.2558959,-28.196281299213,0.0 -52.2558377,-28.196811199213,0.0 -52.2560627,-28.197115499213,0.0 -52.2564175,-28.197470199213,0.0 -52.256777,-28.197541299213,0.0 -52.2571998,-28.197627699213,0.0 -52.257493,-28.197925599213,0.0 -52.2578345,-28.197964699213,0.0 -52.2583288,-28.197883399213,0.0 -52.2585269,-28.197924099213,0.0 -52.258622,-28.198189199213,0.0 -52.2587097,-28.198514499213,0.0 -52.2588242,-28.198674599213,0.0 -52.2593137,-28.198862599213,0.0 -52.2595916,-28.198927799213,0.0 -52.2596699,-28.199036299213,0.0 -52.2597024,-28.199181299213,0.0 -52.259867,-28.199552799213,0.0 -52.2601293,-28.199743599213,0.0 -52.2602918,-28.200000599213,0.0 -52.2605436,-28.2002906992129,0.0 -52.2604865,-28.200725199213,0.0 -52.2604628,-28.2010057992129,0.0 -52.2614451,-28.2016089992129,0.0 -52.2628862,-28.2029091992129,0.0 -52.2630427,-28.2032608992129,0.0 -52.2631093,-28.2036445992129,0.0 -52.263171,-28.2039280992129,0.0 -52.2633605,-28.2043290992129,0.0 -52.2639092,-28.2047067992129,0.0 -52.2641858,-28.2048948992129,0.0 -52.2643763,-28.2051774992129,0.0 -52.264679,-28.2055304992129,0.0 -52.2649328,-28.2060252992129,0.0 -52.2650017,-28.2061684992128,0.0 -52.2651058,-28.2062676992129,0.0 -52.2665412,-28.2069795992128,0.0 -52.266671,-28.2071215992128,0.0 -52.2668938,-28.2074461992128,0.0 -52.267005,-28.2075778992128,0.0 -52.2672124,-28.2078306992128,0.0 -52.2673222,-28.2079956992128,0.0 -52.2674422,-28.2080991992128,0.0 -52.2675946,-28.2083578992128,0.0 -52.2677205,-28.2086296992128,0.0 -52.267924,-28.2090608992128,0.0 -52.2680499,-28.2093696992128,0.0 -52.2681903,-28.2095166992128,0.0 -52.2683086,-28.2096715992128,0.0 -52.2684383,-28.2098297992128,0.0 -52.2686069,-28.2100826992128,0.0 -52.2686677,-28.2104309992128,0.0 -52.2689214,-28.2115159992128,0.0 -52.2690019,-28.2117683992127,0.0 -52.2691076,-28.2123909992127,0.0 -52.2691978,-28.2127252992127,0.0 -52.2692087,-28.2133097992127,0.0 -52.2691398,-28.2140277992127,0.0 -52.2690764,-28.2149580992127,0.0 -52.2690135,-28.2154446992127,0.0 -52.2689592,-28.2161389992127,0.0 -52.2689293,-28.2167303992127,0.0 -52.2690241,-28.2177353992126,0.0 -52.2690606,-28.2178993992126,0.0 -52.2691949,-28.2184488992126,0.0 -52.2693185,-28.2188974992126,0.0 -52.269508,-28.2198329992126,0.0 -52.2695905,-28.2202147992126,0.0 -52.2697097,-28.2205023992126,0.0 -52.2698581,-28.2207195992126,0.0 -52.2700907,-28.2211870992126,0.0 -52.2701657,-28.2214157992126,0.0 -52.2702646,-28.2217581992126,0.0 -52.2704169,-28.2222633992126,0.0 -52.2706284,-28.2228234992126,0.0 -52.2707784,-28.2231725992125,0.0 -52.2709443,-28.2235728992125,0.0 -52.2710495,-28.2238232992125,0.0 -52.2711825,-28.2240527992125,0.0 -52.2713524,-28.2242751992125,0.0 -52.27166,-28.2244393992125,0.0 -52.2721719,-28.2246557992125,0.0 -52.2726328,-28.2248419992125,0.0 -52.2731125,-28.2250915992125,0.0 -52.2735339,-28.2253566992125,0.0 -52.2737744,-28.2254871992125,0.0 -52.274187,-28.2256372992125,0.0 -52.2748388,-28.2258819992125,0.0 -52.2753428,-28.2261198992125,0.0 -52.2761114,-28.2264835992125,0.0 -52.2764472,-28.2266493992125,0.0 -52.2765625,-28.2267329992125,0.0 -52.2767053,-28.2268927992125,0.0 -52.2768933,-28.2273745992125,0.0 -52.2770593,-28.2279755992125,0.0 -52.2771554,-28.2283143992124,0.0 -52.2860615,-28.2299655992124,0.0 -52.2893204,-28.2312810992124,0.0 -52.2894118,-28.2300255992124,0.0 -52.2872402,-28.2271062992125,0.0 -52.2879275,-28.2200467992126,0.0 -52.2866698,-28.2141410992127,0.0 -52.288152,-28.2097446992128,0.0 -52.2885086,-28.2040522992129,0.0 -52.2902718,-28.2018857992129,0.0 -52.2935469,-28.2009821992129,0.0</coordinates>
</LinearRing>
</outerBoundaryIs>
</Polygon>
</MultiGeometry>
</Placemark>
<Placemark id="13. Referência">
<name>TQ - Arvinha [258]</name>
<visibility>0</visibility>
<snippet> </snippet>
<description>&lt;center&gt;&lt;table&gt;&lt;tr&gt;&lt;th colspan='2' align='center'&gt;&lt;em&gt;Attributes&lt;/em&gt;&lt;/th&gt;&lt;/tr&gt;&lt;tr bgcolor="#E3E3F3"&gt;
&lt;th&gt;COD_TQ&lt;/th&gt;
&lt;td&gt;258&lt;/td&gt;
&lt;/tr&gt;&lt;tr bgcolor=""&gt;
&lt;th&gt;NOM_TQ&lt;/th&gt;
&lt;td&gt;Arvinha&lt;/td&gt;
&lt;/tr&gt;&lt;/table&gt;&lt;/center&gt;</description>
<Style>
<IconStyle>
<scale>0.7</scale>
</IconStyle>
<LabelStyle>
<scale>0.7</scale>
</LabelStyle>
<LineStyle>
<color>ffffaaff</color>
<width>3</width>
<gx:labelVisibility>1</gx:labelVisibility>
</LineStyle>
<PolyStyle>
<color>33ffaaff</color>
</PolyStyle>
</Style>
<ExtendedData>
<SchemaData schemaUrl="#kml_schema_ft_Território_Quilombola">
<SimpleData name="COD_TQ">258</SimpleData>
<SimpleData name="NOM_TQ">Arvinha</SimpleData>
</SchemaData>
</ExtendedData>
<MultiGeometry>
<Polygon>
<extrude>0</extrude>
<tessellate>1</tessellate>
<outerBoundaryIs>
<LinearRing>
<coordinates>-52.3795963302161,-28.0676166357829,0.0 -52.3795963188266,-28.0676166219993,0.0 -52.3795963219999,-28.0676166362154,0.0 -52.3795963302161,-28.0676166357829,0.0</coordinates>
</LinearRing>
</outerBoundaryIs>
</Polygon>
<Polygon>
<extrude>0</extrude>
<tessellate>1</tessellate>
<outerBoundaryIs>
<LinearRing>
<coordinates>-52.3782845731955,-28.0565912820167,0.0 -52.377958469,-28.0569117252155,0.0 -52.3775478279999,-28.0572982682154,0.0 -52.377307753,-28.0576689462156,0.0 -52.377090826,-28.0582660532155,0.0 -52.376787334,-28.0588100142154,0.0 -52.376633601,-28.0592696712155,0.0 -52.3762572489998,-28.0596902542155,0.0 -52.3758186159999,-28.0599251102154,0.0 -52.375048436,-28.0600728332155,0.0 -52.374500079,-28.0602863432155,0.0 -52.37351838,-28.0607262962155,0.0 -52.373018187,-28.0611855062154,0.0 -52.3728596779999,-28.0617517932155,0.0 -52.372708269,-28.0683496532153,0.0 -52.373370106,-28.0682670722153,0.0 -52.374288301,-28.0680792132153,0.0 -52.3744103619999,-28.0680649102153,0.0 -52.375052997,-28.0682696882154,0.0 -52.3767446919999,-28.0690552352153,0.0 -52.377406658,-28.0683540262153,0.0 -52.377709954,-28.0683188002154,0.0 -52.37802419,-28.0682206092153,0.0 -52.3785780379999,-28.0676981112154,0.0 -52.378860386,-28.0675208352153,0.0 -52.379203205,-28.0673750872153,0.0 -52.3795205989999,-28.0672774022153,0.0 -52.37959630408,-28.0676165559355,0.0 -52.3800101,-28.0632270992154,0.0 -52.3773213,-28.0595668992155,0.0 -52.3782845731955,-28.0565912820167,0.0</coordinates>
</LinearRing>
</outerBoundaryIs>
</Polygon>
</MultiGeometry>
</Placemark>
</Folder>
</Document></kml>
