<?xml version='1.0' encoding='UTF-8'?>
<kml xmlns:xsd="http://www.w3.org/2001/XMLSchema" xmlns:gx="http://www.google.com/kml/ext/2.2" xmlns:atom="http://www.w3.org/2005/Atom" xmlns="http://www.opengis.net/kml/2.2">
<Document>
<name>guaiba_4309308_localidades_2022</name>
<visibility>1</visibility>
<Schema name="Povoados" id="kml_schema_ft_Povoados">
<SimpleField type="xsd:string" name="CD_UF">
<displayName>CD_UF</displayName>
</SimpleField>
<SimpleField type="xsd:string" name="NM_UF">
<displayName>NM_UF</displayName>
</SimpleField>
<SimpleField type="xsd:string" name="SIGLA_UF">
<displayName>SIGLA_UF</displayName>
</SimpleField>
<SimpleField type="xsd:string" name="CD_MUN">
<displayName>CD_MUN</displayName>
</SimpleField>
<SimpleField type="xsd:string" name="NM_MUN">
<displayName>NM_MUN</displayName>
</SimpleField>
<SimpleField type="xsd:string" name="CD_RGINT">
<displayName>CD_RGINT</displayName>
</SimpleField>
<SimpleField type="xsd:string" name="NM_RGINT">
<displayName>NM_RGINT</displayName>
</SimpleField>
<SimpleField type="xsd:string" name="CD_RGI">
<displayName>CD_RGI</displayName>
</SimpleField>
<SimpleField type="xsd:string" name="NM_RGI">
<displayName>NM_RGI</displayName>
</SimpleField>
<SimpleField type="xsd:string" name="CT_LOCALIDADE">
<displayName>CT_LOCALIDADE</displayName>
</SimpleField>
<SimpleField type="xsd:string" name="CD_LOCALIDADE">
<displayName>CD_LOCALIDADE</displayName>
</SimpleField>
<SimpleField type="xsd:string" name="NM_LOCALIDADE">
<displayName>NM_LOCALIDADE</displayName>
</SimpleField>
<SimpleField type="xsd:string" name="LAT_LOCALIDADE">
<displayName>LAT_LOCALIDADE</displayName>
</SimpleField>
<SimpleField type="xsd:string" name="LONG_LOCALIDADE">
<displayName>LONG_LOCALIDADE</displayName>
</SimpleField>
</Schema>
<Schema name="Localidades" id="kml_schema_ft_Localidades">
<SimpleField type="xsd:string" name="CD_UF">
<displayName>CD_UF</displayName>
</SimpleField>
<SimpleField type="xsd:string" name="NM_UF">
<displayName>NM_UF</displayName>
</SimpleField>
<SimpleField type="xsd:string" name="SIGLA_UF">
<displayName>SIGLA_UF</displayName>
</SimpleField>
<SimpleField type="xsd:string" name="CD_MUN">
<displayName>CD_MUN</displayName>
</SimpleField>
<SimpleField type="xsd:string" name="NM_MUN">
<displayName>NM_MUN</displayName>
</SimpleField>
<SimpleField type="xsd:string" name="CD_RGINT">
<displayName>CD_RGINT</displayName>
</SimpleField>
<SimpleField type="xsd:string" name="NM_RGINT">
<displayName>NM_RGINT</displayName>
</SimpleField>
<SimpleField type="xsd:string" name="CD_RGI">
<displayName>CD_RGI</displayName>
</SimpleField>
<SimpleField type="xsd:string" name="NM_RGI">
<displayName>NM_RGI</displayName>
</SimpleField>
<SimpleField type="xsd:string" name="CT_LOCALIDADE">
<displayName>CT_LOCALIDADE</displayName>
</SimpleField>
<SimpleField type="xsd:string" name="SCT_LOCALIDADE">
<displayName>SCT_LOCALIDADE</displayName>
</SimpleField>
<SimpleField type="xsd:string" name="CD_LOCALIDADE">
<displayName>CD_LOCALIDADE</displayName>
</SimpleField>
<SimpleField type="xsd:string" name="NM_LOCALIDADE">
<displayName>NM_LOCALIDADE</displayName>
</SimpleField>
</Schema>
<Schema name="Núcleos Urbanos" id="kml_schema_ft_Núcleos_Urbanos">
<SimpleField type="xsd:string" name="CD_UF">
<displayName>CD_UF</displayName>
</SimpleField>
<SimpleField type="xsd:string" name="NM_UF">
<displayName>NM_UF</displayName>
</SimpleField>
<SimpleField type="xsd:string" name="SIGLA_UF">
<displayName>SIGLA_UF</displayName>
</SimpleField>
<SimpleField type="xsd:string" name="CD_MUN">
<displayName>CD_MUN</displayName>
</SimpleField>
<SimpleField type="xsd:string" name="NM_MUN">
<displayName>NM_MUN</displayName>
</SimpleField>
<SimpleField type="xsd:string" name="CD_RGINT">
<displayName>CD_RGINT</displayName>
</SimpleField>
<SimpleField type="xsd:string" name="NM_RGINT">
<displayName>NM_RGINT</displayName>
</SimpleField>
<SimpleField type="xsd:string" name="CD_RGI">
<displayName>CD_RGI</displayName>
</SimpleField>
<SimpleField type="xsd:string" name="NM_RGI">
<displayName>NM_RGI</displayName>
</SimpleField>
<SimpleField type="xsd:string" name="CT_LOCALIDADE">
<displayName>CT_LOCALIDADE</displayName>
</SimpleField>
<SimpleField type="xsd:string" name="CD_LOCALIDADE">
<displayName>CD_LOCALIDADE</displayName>
</SimpleField>
<SimpleField type="xsd:string" name="NM_LOCALIDADE">
<displayName>NM_LOCALIDADE</displayName>
</SimpleField>
<SimpleField type="xsd:string" name="LAT_LOCALIDADE">
<displayName>LAT_LOCALIDADE</displayName>
</SimpleField>
<SimpleField type="xsd:string" name="LONG_LOCALIDADE">
<displayName>LONG_LOCALIDADE</displayName>
</SimpleField>
</Schema>
<Schema name="01. Cidade" id="kml_schema_ft_01._Cidade">
<SimpleField type="xsd:string" name="CD_UF">
<displayName>CD_UF</displayName>
</SimpleField>
<SimpleField type="xsd:string" name="NM_UF">
<displayName>NM_UF</displayName>
</SimpleField>
<SimpleField type="xsd:string" name="SIGLA_UF">
<displayName>SIGLA_UF</displayName>
</SimpleField>
<SimpleField type="xsd:string" name="CD_MUN">
<displayName>CD_MUN</displayName>
</SimpleField>
<SimpleField type="xsd:string" name="NM_MUN">
<displayName>NM_MUN</displayName>
</SimpleField>
<SimpleField type="xsd:string" name="CD_RGINT">
<displayName>CD_RGINT</displayName>
</SimpleField>
<SimpleField type="xsd:string" name="NM_RGINT">
<displayName>NM_RGINT</displayName>
</SimpleField>
<SimpleField type="xsd:string" name="CD_RGI">
<displayName>CD_RGI</displayName>
</SimpleField>
<SimpleField type="xsd:string" name="NM_RGI">
<displayName>NM_RGI</displayName>
</SimpleField>
<SimpleField type="xsd:string" name="CT_LOCALIDADE">
<displayName>CT_LOCALIDADE</displayName>
</SimpleField>
<SimpleField type="xsd:string" name="SCT_LOCALIDADE">
<displayName>SCT_LOCALIDADE</displayName>
</SimpleField>
<SimpleField type="xsd:string" name="CD_LOCALIDADE">
<displayName>CD_LOCALIDADE</displayName>
</SimpleField>
<SimpleField type="xsd:string" name="NM_LOCALIDADE">
<displayName>NM_LOCALIDADE</displayName>
</SimpleField>
<SimpleField type="xsd:string" name="LAT_LOCALIDADE">
<displayName>LAT_LOCALIDADE</displayName>
</SimpleField>
<SimpleField type="xsd:string" name="LONG_LOCALIDADE">
<displayName>LONG_LOCALIDADE</displayName>
</SimpleField>
</Schema>
<Schema name="Município" id="kml_schema_ft_Município">
<SimpleField type="xsd:string" name="CD_UF">
<displayName>CD_UF</displayName>
</SimpleField>
<SimpleField type="xsd:string" name="NM_UF">
<displayName>NM_UF</displayName>
</SimpleField>
<SimpleField type="xsd:string" name="CD_MUN">
<displayName>CD_MUN</displayName>
</SimpleField>
<SimpleField type="xsd:string" name="NM_MUN">
<displayName>NM_MUN</displayName>
</SimpleField>
<SimpleField type="xsd:string" name="CD_RGINT">
<displayName>CD_RGINT</displayName>
</SimpleField>
<SimpleField type="xsd:string" name="NM_RGINT">
<displayName>NM_RGINT</displayName>
</SimpleField>
<SimpleField type="xsd:string" name="CD_RGI">
<displayName>CD_RGI</displayName>
</SimpleField>
<SimpleField type="xsd:string" name="NM_RGI">
<displayName>NM_RGI</displayName>
</SimpleField>
</Schema>
<Folder id="01. Cidade">
<name>01. Cidade</name>
<Folder id="01.03. Sede Municipal">
<name>01.03. Sede Municipal</name>
<Placemark id="01.03. Sede Municipal">
<name>Guaíba [4309308]</name>
<visibility>1</visibility>
<snippet> </snippet>
<description>&lt;center&gt;&lt;table&gt;&lt;tr&gt;&lt;th colspan='2' align='center'&gt;&lt;em&gt;Atributos&lt;/em&gt;&lt;/th&gt;&lt;/tr&gt;&lt;tr bgcolor="#E3E3F3"&gt;
&lt;th&gt;CD_UF&lt;/th&gt;
&lt;td&gt;43&lt;/td&gt;
&lt;/tr&gt;&lt;tr bgcolor=""&gt;
&lt;th&gt;NM_UF&lt;/th&gt;
&lt;td&gt;Rio Grande do Sul&lt;/td&gt;
&lt;/tr&gt;&lt;tr bgcolor="#E3E3F3"&gt;
&lt;th&gt;SIGLA_UF&lt;/th&gt;
&lt;td&gt;RS&lt;/td&gt;
&lt;/tr&gt;&lt;tr bgcolor=""&gt;
&lt;th&gt;CD_MUN&lt;/th&gt;
&lt;td&gt;4309308&lt;/td&gt;
&lt;/tr&gt;&lt;tr bgcolor="#E3E3F3"&gt;
&lt;th&gt;NM_MUN&lt;/th&gt;
&lt;td&gt;Guaíba&lt;/td&gt;
&lt;/tr&gt;&lt;tr bgcolor=""&gt;
&lt;th&gt;CD_RGINT&lt;/th&gt;
&lt;td&gt;4301&lt;/td&gt;
&lt;/tr&gt;&lt;tr bgcolor="#E3E3F3"&gt;
&lt;th&gt;NM_RGINT&lt;/th&gt;
&lt;td&gt;Porto Alegre&lt;/td&gt;
&lt;/tr&gt;&lt;tr bgcolor=""&gt;
&lt;th&gt;CD_RGI&lt;/th&gt;
&lt;td&gt;430001&lt;/td&gt;
&lt;/tr&gt;&lt;tr bgcolor="#E3E3F3"&gt;
&lt;th&gt;NM_RGI&lt;/th&gt;
&lt;td&gt;Porto Alegre&lt;/td&gt;
&lt;/tr&gt;&lt;tr bgcolor=""&gt;
&lt;th&gt;CT_LOCALIDADE&lt;/th&gt;
&lt;td&gt;Cidade&lt;/td&gt;
&lt;/tr&gt;&lt;tr bgcolor="#E3E3F3"&gt;
&lt;th&gt;SCT_LOCALIDADE&lt;/th&gt;
&lt;td&gt;Sede Municipal&lt;/td&gt;
&lt;/tr&gt;&lt;tr bgcolor=""&gt;
&lt;th&gt;CD_LOCALIDADE&lt;/th&gt;
&lt;td&gt;4309308&lt;/td&gt;
&lt;/tr&gt;&lt;tr bgcolor="#E3E3F3"&gt;
&lt;th&gt;NM_LOCALIDADE&lt;/th&gt;
&lt;td&gt;Guaíba&lt;/td&gt;
&lt;/tr&gt;&lt;tr bgcolor=""&gt;
&lt;th&gt;LAT_LOCALIDADE&lt;/th&gt;
&lt;td&gt;-30.114&lt;/td&gt;
&lt;/tr&gt;&lt;tr bgcolor="#E3E3F3"&gt;
&lt;th&gt;LONG_LOCALIDADE&lt;/th&gt;
&lt;td&gt;-51.3293&lt;/td&gt;
&lt;/tr&gt;&lt;/table&gt;&lt;/center&gt;</description>
<Style>
<IconStyle>
<color>ff00aaff</color>
<scale>1.0</scale>
<Icon>
<href>http://maps.google.com/mapfiles/kml/shapes/placemark_circle.png</href>
</Icon>
</IconStyle>
<LabelStyle>
<scale>1.0</scale>
</LabelStyle>
<LineStyle>
<color>ffffffff</color>
<width>3</width>
<gx:labelVisibility>1</gx:labelVisibility>
</LineStyle>
<PolyStyle>
<color>00ffffff</color>
</PolyStyle>
</Style>
<ExtendedData>
<SchemaData schemaUrl="#kml_schema_ft_01._Cidade">
<SimpleData name="CD_UF">43</SimpleData>
<SimpleData name="NM_UF">Rio Grande do Sul</SimpleData>
<SimpleData name="SIGLA_UF">RS</SimpleData>
<SimpleData name="CD_MUN">4309308</SimpleData>
<SimpleData name="NM_MUN">Guaíba</SimpleData>
<SimpleData name="CD_RGINT">4301</SimpleData>
<SimpleData name="NM_RGINT">Porto Alegre</SimpleData>
<SimpleData name="CD_RGI">430001</SimpleData>
<SimpleData name="NM_RGI">Porto Alegre</SimpleData>
<SimpleData name="CT_LOCALIDADE">Cidade</SimpleData>
<SimpleData name="SCT_LOCALIDADE">Sede Municipal</SimpleData>
<SimpleData name="CD_LOCALIDADE">4309308</SimpleData>
<SimpleData name="NM_LOCALIDADE">Guaíba</SimpleData>
<SimpleData name="LAT_LOCALIDADE">-30.114</SimpleData>
<SimpleData name="LONG_LOCALIDADE">-51.3293</SimpleData>
</SchemaData>
</ExtendedData>
<Point>
<extrude>0</extrude>
<coordinates>-51.329348,-30.11403699918,0.0</coordinates>
</Point>
</Placemark>
</Folder>
</Folder>
<Folder id="05. Núcleos Urbanos">
<name>05. Núcleos Urbanos</name>
<Placemark id="localidades">
<name>Pedras Brancas [4309308001]</name>
<visibility>1</visibility>
<snippet> </snippet>
<description>&lt;center&gt;&lt;table&gt;&lt;tr&gt;&lt;th colspan='2' align='center'&gt;&lt;em&gt;Attributes&lt;/em&gt;&lt;/th&gt;&lt;/tr&gt;&lt;tr bgcolor="#E3E3F3"&gt;
&lt;th&gt;CD_UF&lt;/th&gt;
&lt;td&gt;43&lt;/td&gt;
&lt;/tr&gt;&lt;tr bgcolor=""&gt;
&lt;th&gt;NM_UF&lt;/th&gt;
&lt;td&gt;Rio Grande do Sul&lt;/td&gt;
&lt;/tr&gt;&lt;tr bgcolor="#E3E3F3"&gt;
&lt;th&gt;SIGLA_UF&lt;/th&gt;
&lt;td&gt;RS&lt;/td&gt;
&lt;/tr&gt;&lt;tr bgcolor=""&gt;
&lt;th&gt;CD_MUN&lt;/th&gt;
&lt;td&gt;4309308&lt;/td&gt;
&lt;/tr&gt;&lt;tr bgcolor="#E3E3F3"&gt;
&lt;th&gt;NM_MUN&lt;/th&gt;
&lt;td&gt;Guaíba&lt;/td&gt;
&lt;/tr&gt;&lt;tr bgcolor=""&gt;
&lt;th&gt;CD_RGINT&lt;/th&gt;
&lt;td&gt;4301&lt;/td&gt;
&lt;/tr&gt;&lt;tr bgcolor="#E3E3F3"&gt;
&lt;th&gt;NM_RGINT&lt;/th&gt;
&lt;td&gt;Porto Alegre&lt;/td&gt;
&lt;/tr&gt;&lt;tr bgcolor=""&gt;
&lt;th&gt;CD_RGI&lt;/th&gt;
&lt;td&gt;430001&lt;/td&gt;
&lt;/tr&gt;&lt;tr bgcolor="#E3E3F3"&gt;
&lt;th&gt;NM_RGI&lt;/th&gt;
&lt;td&gt;Porto Alegre&lt;/td&gt;
&lt;/tr&gt;&lt;tr bgcolor=""&gt;
&lt;th&gt;CT_LOCALIDADE&lt;/th&gt;
&lt;td&gt;Núcleo Urbano&lt;/td&gt;
&lt;/tr&gt;&lt;tr bgcolor="#E3E3F3"&gt;
&lt;th&gt;CD_LOCALIDADE&lt;/th&gt;
&lt;td&gt;4309308001&lt;/td&gt;
&lt;/tr&gt;&lt;tr bgcolor=""&gt;
&lt;th&gt;NM_LOCALIDADE&lt;/th&gt;
&lt;td&gt;Pedras Brancas&lt;/td&gt;
&lt;/tr&gt;&lt;tr bgcolor="#E3E3F3"&gt;
&lt;th&gt;LAT_LOCALIDADE&lt;/th&gt;
&lt;td&gt;-30.166&lt;/td&gt;
&lt;/tr&gt;&lt;tr bgcolor=""&gt;
&lt;th&gt;LONG_LOCALIDADE&lt;/th&gt;
&lt;td&gt;-51.3975&lt;/td&gt;
&lt;/tr&gt;&lt;/table&gt;&lt;/center&gt;</description>
<Style>
<IconStyle>
<color>ff0000ff</color>
<scale>0.9</scale>
<Icon>
<href>http://maps.google.com/mapfiles/kml/shapes/placemark_circle.png</href>
</Icon>
</IconStyle>
<LabelStyle>
<scale>0.9</scale>
</LabelStyle>
<LineStyle>
<color>72ffffff</color>
<width>1.0</width>
<gx:labelVisibility>1</gx:labelVisibility>
</LineStyle>
<PolyStyle>
<color>66ff54ff</color>
</PolyStyle>
</Style>
<ExtendedData>
<SchemaData schemaUrl="#kml_schema_ft_Núcleos_Urbanos">
<SimpleData name="CD_UF">43</SimpleData>
<SimpleData name="NM_UF">Rio Grande do Sul</SimpleData>
<SimpleData name="SIGLA_UF">RS</SimpleData>
<SimpleData name="CD_MUN">4309308</SimpleData>
<SimpleData name="NM_MUN">Guaíba</SimpleData>
<SimpleData name="CD_RGINT">4301</SimpleData>
<SimpleData name="NM_RGINT">Porto Alegre</SimpleData>
<SimpleData name="CD_RGI">430001</SimpleData>
<SimpleData name="NM_RGI">Porto Alegre</SimpleData>
<SimpleData name="CT_LOCALIDADE">Núcleo Urbano</SimpleData>
<SimpleData name="CD_LOCALIDADE">4309308001</SimpleData>
<SimpleData name="NM_LOCALIDADE">Pedras Brancas</SimpleData>
<SimpleData name="LAT_LOCALIDADE">-30.166</SimpleData>
<SimpleData name="LONG_LOCALIDADE">-51.3975</SimpleData>
</SchemaData>
</ExtendedData>
<Point>
<extrude>0</extrude>
<coordinates>-51.3974837705724,-30.1659968784277,0.0</coordinates>
</Point>
</Placemark>
</Folder>
<Folder id="06. Povoados">
<name>06. Povoados</name>
<Placemark id="06. Povoados">
<name>Aglomerado Rural Guaíba [430930800005]</name>
<visibility>1</visibility>
<snippet> </snippet>
<description>&lt;center&gt;&lt;table&gt;&lt;tr&gt;&lt;th colspan='2' align='center'&gt;&lt;em&gt;Atributos&lt;/em&gt;&lt;/th&gt;&lt;/tr&gt;&lt;tr bgcolor="#E3E3F3"&gt;
&lt;th&gt;CD_UF&lt;/th&gt;
&lt;td&gt;43&lt;/td&gt;
&lt;/tr&gt;&lt;tr bgcolor=""&gt;
&lt;th&gt;NM_UF&lt;/th&gt;
&lt;td&gt;Rio Grande do Sul&lt;/td&gt;
&lt;/tr&gt;&lt;tr bgcolor="#E3E3F3"&gt;
&lt;th&gt;SIGLA_UF&lt;/th&gt;
&lt;td&gt;RS&lt;/td&gt;
&lt;/tr&gt;&lt;tr bgcolor=""&gt;
&lt;th&gt;CD_MUN&lt;/th&gt;
&lt;td&gt;4309308&lt;/td&gt;
&lt;/tr&gt;&lt;tr bgcolor="#E3E3F3"&gt;
&lt;th&gt;NM_MUN&lt;/th&gt;
&lt;td&gt;Guaíba&lt;/td&gt;
&lt;/tr&gt;&lt;tr bgcolor=""&gt;
&lt;th&gt;CD_RGINT&lt;/th&gt;
&lt;td&gt;4301&lt;/td&gt;
&lt;/tr&gt;&lt;tr bgcolor="#E3E3F3"&gt;
&lt;th&gt;NM_RGINT&lt;/th&gt;
&lt;td&gt;Porto Alegre&lt;/td&gt;
&lt;/tr&gt;&lt;tr bgcolor=""&gt;
&lt;th&gt;CD_RGI&lt;/th&gt;
&lt;td&gt;430001&lt;/td&gt;
&lt;/tr&gt;&lt;tr bgcolor="#E3E3F3"&gt;
&lt;th&gt;NM_RGI&lt;/th&gt;
&lt;td&gt;Porto Alegre&lt;/td&gt;
&lt;/tr&gt;&lt;tr bgcolor=""&gt;
&lt;th&gt;CT_LOCALIDADE&lt;/th&gt;
&lt;td&gt;Povoado&lt;/td&gt;
&lt;/tr&gt;&lt;tr bgcolor="#E3E3F3"&gt;
&lt;th&gt;CD_LOCALIDADE&lt;/th&gt;
&lt;td&gt;430930800005&lt;/td&gt;
&lt;/tr&gt;&lt;tr bgcolor=""&gt;
&lt;th&gt;NM_LOCALIDADE&lt;/th&gt;
&lt;td&gt;Aglomerado Rural Guaíba&lt;/td&gt;
&lt;/tr&gt;&lt;tr bgcolor="#E3E3F3"&gt;
&lt;th&gt;LAT_LOCALIDADE&lt;/th&gt;
&lt;td&gt;-30.1457&lt;/td&gt;
&lt;/tr&gt;&lt;tr bgcolor=""&gt;
&lt;th&gt;LONG_LOCALIDADE&lt;/th&gt;
&lt;td&gt;-51.4441&lt;/td&gt;
&lt;/tr&gt;&lt;/table&gt;&lt;/center&gt;</description>
<Style>
<IconStyle>
<color>ff00ff54</color>
<scale>0.8</scale>
<Icon>
<href>http://maps.google.com/mapfiles/kml/shapes/placemark_circle.png</href>
</Icon>
</IconStyle>
<LabelStyle>
<scale>0.8</scale>
</LabelStyle>
<LineStyle>
<color>72ff54ff</color>
<width>1.0</width>
<gx:labelVisibility>1</gx:labelVisibility>
</LineStyle>
<PolyStyle>
<color>66ff54ff</color>
</PolyStyle>
</Style>
<ExtendedData>
<SchemaData schemaUrl="#kml_schema_ft_Povoados">
<SimpleData name="CD_UF">43</SimpleData>
<SimpleData name="NM_UF">Rio Grande do Sul</SimpleData>
<SimpleData name="SIGLA_UF">RS</SimpleData>
<SimpleData name="CD_MUN">4309308</SimpleData>
<SimpleData name="NM_MUN">Guaíba</SimpleData>
<SimpleData name="CD_RGINT">4301</SimpleData>
<SimpleData name="NM_RGINT">Porto Alegre</SimpleData>
<SimpleData name="CD_RGI">430001</SimpleData>
<SimpleData name="NM_RGI">Porto Alegre</SimpleData>
<SimpleData name="CT_LOCALIDADE">Povoado</SimpleData>
<SimpleData name="CD_LOCALIDADE">430930800005</SimpleData>
<SimpleData name="NM_LOCALIDADE">Aglomerado Rural Guaíba</SimpleData>
<SimpleData name="LAT_LOCALIDADE">-30.1457</SimpleData>
<SimpleData name="LONG_LOCALIDADE">-51.4441</SimpleData>
</SchemaData>
</ExtendedData>
<Point>
<extrude>0</extrude>
<coordinates>-51.4441086470588,-30.1457308046093,0.0</coordinates>
</Point>
</Placemark>
</Folder>
<Folder id="12. Outras Localidades">
<name>12. Outras Localidades</name>
<Placemark id="12. Outras Localidades">
<name>Califórnia City [430930800006]</name>
<visibility>1</visibility>
<snippet> </snippet>
<description>&lt;center&gt;&lt;table&gt;&lt;tr&gt;&lt;th colspan='2' align='center'&gt;&lt;em&gt;Attributes&lt;/em&gt;&lt;/th&gt;&lt;/tr&gt;&lt;tr bgcolor="#E3E3F3"&gt;
&lt;th&gt;CD_UF&lt;/th&gt;
&lt;td&gt;43&lt;/td&gt;
&lt;/tr&gt;&lt;tr bgcolor=""&gt;
&lt;th&gt;NM_UF&lt;/th&gt;
&lt;td&gt;Rio Grande do Sul&lt;/td&gt;
&lt;/tr&gt;&lt;tr bgcolor="#E3E3F3"&gt;
&lt;th&gt;SIGLA_UF&lt;/th&gt;
&lt;td&gt;RS&lt;/td&gt;
&lt;/tr&gt;&lt;tr bgcolor=""&gt;
&lt;th&gt;CD_MUN&lt;/th&gt;
&lt;td&gt;4309308&lt;/td&gt;
&lt;/tr&gt;&lt;tr bgcolor="#E3E3F3"&gt;
&lt;th&gt;NM_MUN&lt;/th&gt;
&lt;td&gt;Guaíba&lt;/td&gt;
&lt;/tr&gt;&lt;tr bgcolor=""&gt;
&lt;th&gt;CD_RGINT&lt;/th&gt;
&lt;td&gt;4301&lt;/td&gt;
&lt;/tr&gt;&lt;tr bgcolor="#E3E3F3"&gt;
&lt;th&gt;NM_RGINT&lt;/th&gt;
&lt;td&gt;Porto Alegre&lt;/td&gt;
&lt;/tr&gt;&lt;tr bgcolor=""&gt;
&lt;th&gt;CD_RGI&lt;/th&gt;
&lt;td&gt;430001&lt;/td&gt;
&lt;/tr&gt;&lt;tr bgcolor="#E3E3F3"&gt;
&lt;th&gt;NM_RGI&lt;/th&gt;
&lt;td&gt;Porto Alegre&lt;/td&gt;
&lt;/tr&gt;&lt;tr bgcolor=""&gt;
&lt;th&gt;CT_LOCALIDADE&lt;/th&gt;
&lt;td&gt;Outras Localidades&lt;/td&gt;
&lt;/tr&gt;&lt;tr bgcolor="#E3E3F3"&gt;
&lt;th&gt;SCT_LOCALIDADE&lt;/th&gt;
&lt;td&gt;&lt;/td&gt;
&lt;/tr&gt;&lt;tr bgcolor=""&gt;
&lt;th&gt;CD_LOCALIDADE&lt;/th&gt;
&lt;td&gt;430930800006&lt;/td&gt;
&lt;/tr&gt;&lt;tr bgcolor="#E3E3F3"&gt;
&lt;th&gt;NM_LOCALIDADE&lt;/th&gt;
&lt;td&gt;Califórnia City&lt;/td&gt;
&lt;/tr&gt;&lt;/table&gt;&lt;/center&gt;</description>
<Style>
<IconStyle>
<color>ff0069d3</color>
<scale>0.6</scale>
<Icon>
<href>http://maps.google.com/mapfiles/kml/shapes/placemark_circle.png</href>
</Icon>
</IconStyle>
<LabelStyle>
<scale>0.6</scale>
</LabelStyle>
<LineStyle>
<width>1.0</width>
<gx:labelVisibility>1</gx:labelVisibility>
</LineStyle>
</Style>
<ExtendedData>
<SchemaData schemaUrl="#kml_schema_ft_Localidades">
<SimpleData name="CD_UF">43</SimpleData>
<SimpleData name="NM_UF">Rio Grande do Sul</SimpleData>
<SimpleData name="SIGLA_UF">RS</SimpleData>
<SimpleData name="CD_MUN">4309308</SimpleData>
<SimpleData name="NM_MUN">Guaíba</SimpleData>
<SimpleData name="CD_RGINT">4301</SimpleData>
<SimpleData name="NM_RGINT">Porto Alegre</SimpleData>
<SimpleData name="CD_RGI">430001</SimpleData>
<SimpleData name="NM_RGI">Porto Alegre</SimpleData>
<SimpleData name="CT_LOCALIDADE">Outras Localidades</SimpleData>
<SimpleData name="CD_LOCALIDADE">430930800006</SimpleData>
<SimpleData name="NM_LOCALIDADE">Califórnia City</SimpleData>
</SchemaData>
</ExtendedData>
<Point>
<extrude>0</extrude>
<coordinates>-51.413533,-30.2131129991784,0.0</coordinates>
</Point>
</Placemark>
<Placemark id="12. Outras Localidades">
<name>Petin [430930800007]</name>
<visibility>1</visibility>
<snippet> </snippet>
<description>&lt;center&gt;&lt;table&gt;&lt;tr&gt;&lt;th colspan='2' align='center'&gt;&lt;em&gt;Attributes&lt;/em&gt;&lt;/th&gt;&lt;/tr&gt;&lt;tr bgcolor="#E3E3F3"&gt;
&lt;th&gt;CD_UF&lt;/th&gt;
&lt;td&gt;43&lt;/td&gt;
&lt;/tr&gt;&lt;tr bgcolor=""&gt;
&lt;th&gt;NM_UF&lt;/th&gt;
&lt;td&gt;Rio Grande do Sul&lt;/td&gt;
&lt;/tr&gt;&lt;tr bgcolor="#E3E3F3"&gt;
&lt;th&gt;SIGLA_UF&lt;/th&gt;
&lt;td&gt;RS&lt;/td&gt;
&lt;/tr&gt;&lt;tr bgcolor=""&gt;
&lt;th&gt;CD_MUN&lt;/th&gt;
&lt;td&gt;4309308&lt;/td&gt;
&lt;/tr&gt;&lt;tr bgcolor="#E3E3F3"&gt;
&lt;th&gt;NM_MUN&lt;/th&gt;
&lt;td&gt;Guaíba&lt;/td&gt;
&lt;/tr&gt;&lt;tr bgcolor=""&gt;
&lt;th&gt;CD_RGINT&lt;/th&gt;
&lt;td&gt;4301&lt;/td&gt;
&lt;/tr&gt;&lt;tr bgcolor="#E3E3F3"&gt;
&lt;th&gt;NM_RGINT&lt;/th&gt;
&lt;td&gt;Porto Alegre&lt;/td&gt;
&lt;/tr&gt;&lt;tr bgcolor=""&gt;
&lt;th&gt;CD_RGI&lt;/th&gt;
&lt;td&gt;430001&lt;/td&gt;
&lt;/tr&gt;&lt;tr bgcolor="#E3E3F3"&gt;
&lt;th&gt;NM_RGI&lt;/th&gt;
&lt;td&gt;Porto Alegre&lt;/td&gt;
&lt;/tr&gt;&lt;tr bgcolor=""&gt;
&lt;th&gt;CT_LOCALIDADE&lt;/th&gt;
&lt;td&gt;Outras Localidades&lt;/td&gt;
&lt;/tr&gt;&lt;tr bgcolor="#E3E3F3"&gt;
&lt;th&gt;SCT_LOCALIDADE&lt;/th&gt;
&lt;td&gt;&lt;/td&gt;
&lt;/tr&gt;&lt;tr bgcolor=""&gt;
&lt;th&gt;CD_LOCALIDADE&lt;/th&gt;
&lt;td&gt;430930800007&lt;/td&gt;
&lt;/tr&gt;&lt;tr bgcolor="#E3E3F3"&gt;
&lt;th&gt;NM_LOCALIDADE&lt;/th&gt;
&lt;td&gt;Petin&lt;/td&gt;
&lt;/tr&gt;&lt;/table&gt;&lt;/center&gt;</description>
<Style>
<IconStyle>
<color>ff0069d3</color>
<scale>0.6</scale>
<Icon>
<href>http://maps.google.com/mapfiles/kml/shapes/placemark_circle.png</href>
</Icon>
</IconStyle>
<LabelStyle>
<scale>0.6</scale>
</LabelStyle>
<LineStyle>
<width>1.0</width>
<gx:labelVisibility>1</gx:labelVisibility>
</LineStyle>
</Style>
<ExtendedData>
<SchemaData schemaUrl="#kml_schema_ft_Localidades">
<SimpleData name="CD_UF">43</SimpleData>
<SimpleData name="NM_UF">Rio Grande do Sul</SimpleData>
<SimpleData name="SIGLA_UF">RS</SimpleData>
<SimpleData name="CD_MUN">4309308</SimpleData>
<SimpleData name="NM_MUN">Guaíba</SimpleData>
<SimpleData name="CD_RGINT">4301</SimpleData>
<SimpleData name="NM_RGINT">Porto Alegre</SimpleData>
<SimpleData name="CD_RGI">430001</SimpleData>
<SimpleData name="NM_RGI">Porto Alegre</SimpleData>
<SimpleData name="CT_LOCALIDADE">Outras Localidades</SimpleData>
<SimpleData name="CD_LOCALIDADE">430930800007</SimpleData>
<SimpleData name="NM_LOCALIDADE">Petin</SimpleData>
</SchemaData>
</ExtendedData>
<Point>
<extrude>0</extrude>
<coordinates>-51.396597,-30.1938629991787,0.0</coordinates>
</Point>
</Placemark>
</Folder>
<Folder id="13. Referência">
<name>13. Referência</name>
<Placemark id="13. Referência">
<name>Guaíba [4309308]</name>
<visibility>1</visibility>
<snippet> </snippet>
<description>&lt;center&gt;&lt;table&gt;&lt;tr&gt;&lt;th colspan='2' align='center'&gt;&lt;em&gt;Attributes&lt;/em&gt;&lt;/th&gt;&lt;/tr&gt;&lt;tr bgcolor="#E3E3F3"&gt;
&lt;th&gt;CD_UF&lt;/th&gt;
&lt;td&gt;43&lt;/td&gt;
&lt;/tr&gt;&lt;tr bgcolor=""&gt;
&lt;th&gt;NM_UF&lt;/th&gt;
&lt;td&gt;Rio Grande do Sul&lt;/td&gt;
&lt;/tr&gt;&lt;tr bgcolor="#E3E3F3"&gt;
&lt;th&gt;CD_MUN&lt;/th&gt;
&lt;td&gt;4309308&lt;/td&gt;
&lt;/tr&gt;&lt;tr bgcolor=""&gt;
&lt;th&gt;NM_MUN&lt;/th&gt;
&lt;td&gt;Guaíba&lt;/td&gt;
&lt;/tr&gt;&lt;tr bgcolor="#E3E3F3"&gt;
&lt;th&gt;CD_RGINT&lt;/th&gt;
&lt;td&gt;4301&lt;/td&gt;
&lt;/tr&gt;&lt;tr bgcolor=""&gt;
&lt;th&gt;NM_RGINT&lt;/th&gt;
&lt;td&gt;Porto Alegre&lt;/td&gt;
&lt;/tr&gt;&lt;tr bgcolor="#E3E3F3"&gt;
&lt;th&gt;CD_RGI&lt;/th&gt;
&lt;td&gt;430001&lt;/td&gt;
&lt;/tr&gt;&lt;tr bgcolor=""&gt;
&lt;th&gt;NM_RGI&lt;/th&gt;
&lt;td&gt;Porto Alegre&lt;/td&gt;
&lt;/tr&gt;&lt;/table&gt;&lt;/center&gt;</description>
<Style>
<IconStyle>
<scale>0.7</scale>
</IconStyle>
<LabelStyle>
<scale>0.7</scale>
</LabelStyle>
<LineStyle>
<color>ffffffff</color>
<width>3</width>
<gx:labelVisibility>1</gx:labelVisibility>
</LineStyle>
<PolyStyle>
<color>00ffffff</color>
</PolyStyle>
</Style>
<ExtendedData>
<SchemaData schemaUrl="#kml_schema_ft_Município">
<SimpleData name="CD_UF">43</SimpleData>
<SimpleData name="NM_UF">Rio Grande do Sul</SimpleData>
<SimpleData name="CD_MUN">4309308</SimpleData>
<SimpleData name="NM_MUN">Guaíba</SimpleData>
<SimpleData name="CD_RGINT">4301</SimpleData>
<SimpleData name="NM_RGINT">Porto Alegre</SimpleData>
<SimpleData name="CD_RGI">430001</SimpleData>
<SimpleData name="NM_RGI">Porto Alegre</SimpleData>
</SchemaData>
</ExtendedData>
<MultiGeometry>
<Polygon>
<extrude>0</extrude>
<tessellate>1</tessellate>
<outerBoundaryIs>
<LinearRing>
<coordinates>-51.311513,-30.1030421991802,0.0 -51.3115413,-30.1032674991802,0.0 -51.3110163,-30.1036142991802,0.0 -51.3111201,-30.1037466991802,0.0 -51.3110598,-30.1039985991802,0.0 -51.3112121,-30.1042183991802,0.0 -51.3114815,-30.1043933991801,0.0 -51.3115701,-30.1045196991801,0.0 -51.3114845,-30.1046438991801,0.0 -51.3116194,-30.1048588991801,0.0 -51.3113534,-30.1054071991801,0.0 -51.3115812,-30.1054594991801,0.0 -51.3113442,-30.1056828991801,0.0 -51.3113703,-30.1058824991801,0.0 -51.3114908,-30.1061509991801,0.0 -51.3115528,-30.1061790991801,0.0 -51.3116314,-30.1061904991801,0.0 -51.3117067,-30.1062038991801,0.0 -51.3117168,-30.1062231991801,0.0 -51.3116955,-30.1062554991801,0.0 -51.3116432,-30.1062968991801,0.0 -51.3115892,-30.1063872991801,0.0 -51.3116227,-30.1064534991801,0.0 -51.3116728,-30.1064466991801,0.0 -51.3117776,-30.1066425991801,0.0 -51.3117078,-30.1066583991801,0.0 -51.3116439,-30.1066968991801,0.0 -51.3116271,-30.1068754991801,0.0 -51.3116021,-30.1069416991801,0.0 -51.3115159,-30.1070739991801,0.0 -51.3114077,-30.1070555991801,0.0 -51.3113582,-30.1070638991801,0.0 -51.3113483,-30.1071818991801,0.0 -51.3113751,-30.1072961991801,0.0 -51.3113604,-30.1073524991801,0.0 -51.3112349,-30.1074335991801,0.0 -51.3110866,-30.1074665991801,0.0 -51.3109202,-30.1075538991801,0.0 -51.3110744,-30.1078692991801,0.0 -51.3115152,-30.1077583991801,0.0 -51.3118,-30.1080004991801,0.0 -51.3120962,-30.1083742991801,0.0 -51.3125048,-30.1087397991801,0.0 -51.3125887,-30.1090125991801,0.0 -51.3127553,-30.1091621991801,0.0 -51.3129594,-30.1094207991801,0.0 -51.3129874,-30.1095538991801,0.0 -51.3129738,-30.1096441991801,0.0 -51.3129121,-30.1096992991801,0.0 -51.3128286,-30.1097507991801,0.0 -51.3127307,-30.1097901991801,0.0 -51.3127708,-30.1099592991801,0.0 -51.3129844,-30.1099229991801,0.0 -51.3130258,-30.1100597991801,0.0 -51.3131141,-30.1101614991801,0.0 -51.3131955,-30.11025599918,0.0 -51.3132415,-30.1103511991801,0.0 -51.3133209,-30.11052249918,0.0 -51.3134526,-30.11083809918,0.0 -51.3135364,-30.11103759918,0.0 -51.3127429,-30.11126749918,0.0 -51.312808,-30.11151239918,0.0 -51.3136202,-30.11131019918,0.0 -51.3138211,-30.11180699918,0.0 -51.3140419,-30.11247789918,0.0 -51.3140072,-30.11255189918,0.0 -51.3140708,-30.11261139918,0.0 -51.3141695,-30.11285659918,0.0 -51.3143738,-30.11383119918,0.0 -51.3141049,-30.11410279918,0.0 -51.3138595,-30.11402929918,0.0 -51.3135449,-30.11390779918,0.0 -51.3132361,-30.11400749918,0.0 -51.3131644,-30.11397279918,0.0 -51.3131152,-30.11402489918,0.0 -51.3134942,-30.11528199918,0.0 -51.313589,-30.11566789918,0.0 -51.3136265,-30.11623119918,0.0 -51.3136027,-30.11653089918,0.0 -51.3134262,-30.1168310991799,0.0 -51.3133248,-30.1169411991799,0.0 -51.3132203,-30.1171261991799,0.0 -51.3130645,-30.1175073991799,0.0 -51.3130752,-30.1176207991799,0.0 -51.3130812,-30.1177101991799,0.0 -51.3131068,-30.1178318991799,0.0 -51.3131899,-30.1178922991799,0.0 -51.3132261,-30.1179719991799,0.0 -51.3131981,-30.1181193991799,0.0 -51.3130694,-30.1183610991799,0.0 -51.3129638,-30.1185617991799,0.0 -51.3129905,-30.1186788991799,0.0 -51.3129666,-30.1187715991799,0.0 -51.3127991,-30.1190569991799,0.0 -51.3126979,-30.1190933991799,0.0 -51.3126692,-30.1191700991799,0.0 -51.31272,-30.1192298991799,0.0 -51.31272,-30.1193201991799,0.0 -51.3127883,-30.1194082991799,0.0 -51.3127378,-30.1195174991799,0.0 -51.3125731,-30.1195527991799,0.0 -51.3124418,-30.1195631991799,0.0 -51.3124012,-30.1196510991799,0.0 -51.3124695,-30.1199866991799,0.0 -51.3123964,-30.1200410991799,0.0 -51.3124224,-30.1201710991799,0.0 -51.3125145,-30.1201954991799,0.0 -51.3125669,-30.1203157991799,0.0 -51.312537,-30.1203949991799,0.0 -51.312427,-30.1204239991799,0.0 -51.3123834,-30.1204896991799,0.0 -51.3125297,-30.1205473991799,0.0 -51.3125549,-30.1206322991799,0.0 -51.3126008,-30.1206816991799,0.0 -51.3127259,-30.1206703991799,0.0 -51.3128448,-30.1206101991799,0.0 -51.3129075,-30.1206003991799,0.0 -51.3130018,-30.1206053991799,0.0 -51.313089,-30.1208001991799,0.0 -51.3131633,-30.1208758991799,0.0 -51.3135093,-30.1213099991799,0.0 -51.3138012,-30.1220031991799,0.0 -51.313584,-30.1221391991799,0.0 -51.3135465,-30.1221912991799,0.0 -51.3133861,-30.1222122991799,0.0 -51.3134213,-30.1223937991799,0.0 -51.3133348,-30.1224688991799,0.0 -51.3133188,-30.1226138991799,0.0 -51.3132671,-30.1227677991798,0.0 -51.3132834,-30.1231904991798,0.0 -51.313212,-30.1232593991798,0.0 -51.3130979,-30.1233693991798,0.0 -51.3131122,-30.1234908991798,0.0 -51.3136202,-30.1233613991798,0.0 -51.313636,-30.1234764991798,0.0 -51.313673,-30.1235395991798,0.0 -51.3137511,-30.1236703991798,0.0 -51.3138901,-30.1238198991798,0.0 -51.3137947,-30.1239055991798,0.0 -51.3137149,-30.1239768991798,0.0 -51.3137691,-30.1240556991798,0.0 -51.3135079,-30.1249832991798,0.0 -51.3135077,-30.1252066991798,0.0 -51.3135547,-30.1255518991798,0.0 -51.3135271,-30.1256690991798,0.0 -51.313638,-30.1257354991798,0.0 -51.3137962,-30.1257537991798,0.0 -51.3137694,-30.1259694991798,0.0 -51.3142088,-30.1261120991798,0.0 -51.3142837,-30.1263860991798,0.0 -51.3142305,-30.1266448991798,0.0 -51.314403,-30.1271082991798,0.0 -51.3144103,-30.1275387991798,0.0 -51.3143144,-30.1275831991798,0.0 -51.3141792,-30.1275888991798,0.0 -51.3140743,-30.1283464991798,0.0 -51.3140875,-30.1285337991797,0.0 -51.3138809,-30.1291342991797,0.0 -51.3136905,-30.1292793991797,0.0 -51.3137036,-30.1295009991797,0.0 -51.3135973,-30.1296540991797,0.0 -51.3134896,-30.1297556991797,0.0 -51.3133611,-30.1297271991797,0.0 -51.3132574,-30.1297497991797,0.0 -51.3133098,-30.1298534991797,0.0 -51.3132653,-30.1299109991797,0.0 -51.3132165,-30.1301116991797,0.0 -51.3131575,-30.1303760991797,0.0 -51.3121085,-30.1306123991797,0.0 -51.3112921,-30.1308562991797,0.0 -51.3112742,-30.1313356991797,0.0 -51.3102549,-30.1318050991797,0.0 -51.3077112,-30.1320265991797,0.0 -51.3069052,-30.1319455991797,0.0 -51.3062207,-30.1319589991797,0.0 -51.3057303,-30.1325007991797,0.0 -51.3056885,-30.1332842991797,0.0 -51.3059625,-30.1338154991797,0.0 -51.3058128,-30.1345824991797,0.0 -51.306157,-30.1355085991796,0.0 -51.3065756,-30.1358840991796,0.0 -51.3069642,-30.1359310991796,0.0 -51.3072368,-30.1358717991796,0.0 -51.3075037,-30.1358423991796,0.0 -51.3081415,-30.1359259991796,0.0 -51.3087976,-30.1360518991796,0.0 -51.3093164,-30.1360395991796,0.0 -51.3093484,-30.1361203991796,0.0 -51.3097783,-30.1359989991796,0.0 -51.3098923,-30.1363042991796,0.0 -51.3108644,-30.1360630991796,0.0 -51.3110061,-30.1364564991796,0.0 -51.3101573,-30.1367074991796,0.0 -51.3101989,-30.1368400991796,0.0 -51.3100582,-30.1370456991796,0.0 -51.3100384,-30.1372581991796,0.0 -51.3100967,-30.1374937991796,0.0 -51.3102075,-30.1375464991796,0.0 -51.3110577,-30.1382753991796,0.0 -51.3110387,-30.1383858991796,0.0 -51.3110405,-30.1384196991796,0.0 -51.3111322,-30.1384098991796,0.0 -51.3111908,-30.1384990991796,0.0 -51.3112266,-30.1385536991796,0.0 -51.3112301,-30.1386336991796,0.0 -51.3112168,-30.1387054991796,0.0 -51.3148986,-30.1416255991795,0.0 -51.3154023,-30.1420250991795,0.0 -51.3176755,-30.1444901991795,0.0 -51.3177297,-30.1446338991795,0.0 -51.3176764,-30.1447568991795,0.0 -51.3176698,-30.1448901991795,0.0 -51.3177883,-30.1449562991795,0.0 -51.3179308,-30.1450309991795,0.0 -51.3183046,-30.1457504991795,0.0 -51.3182365,-30.1458829991795,0.0 -51.3181909,-30.1459983991795,0.0 -51.3182498,-30.1460751991795,0.0 -51.3183443,-30.1460377991795,0.0 -51.3183948,-30.1461769991795,0.0 -51.3184852,-30.1462330991795,0.0 -51.3185933,-30.1462138991795,0.0 -51.3187317,-30.1465405991795,0.0 -51.3189353,-30.1468813991795,0.0 -51.3192164,-30.1473180991794,0.0 -51.3193685,-30.1473406991795,0.0 -51.3198898,-30.1478481991794,0.0 -51.3202606,-30.1484074991794,0.0 -51.3202748,-30.1484288991794,0.0 -51.3209612,-30.1494663991794,0.0 -51.3212584,-30.1502596991794,0.0 -51.321404,-30.1504166991794,0.0 -51.3215972,-30.1505503991794,0.0 -51.3217378,-30.1505321991794,0.0 -51.3217888,-30.1510068991794,0.0 -51.3216658,-30.1513477991794,0.0 -51.3216906,-30.1516426991794,0.0 -51.3217596,-30.1518520991794,0.0 -51.3218649,-30.1522404991794,0.0 -51.3217312,-30.1524124991794,0.0 -51.3216046,-30.1524480991794,0.0 -51.3214278,-30.1523935991794,0.0 -51.3213064,-30.1523953991794,0.0 -51.3212173,-30.1524360991794,0.0 -51.321755,-30.1528209991794,0.0 -51.321779,-30.1530236991794,0.0 -51.3216763,-30.1531511991794,0.0 -51.3217402,-30.1533372991794,0.0 -51.3218466,-30.1533995991793,0.0 -51.3223167,-30.1545678991793,0.0 -51.3224621,-30.1549655991793,0.0 -51.3226568,-30.1559070991793,0.0 -51.3227528,-30.1562068991793,0.0 -51.3228268,-30.1563994991793,0.0 -51.3228179,-30.1566013991793,0.0 -51.3227502,-30.1567850991793,0.0 -51.3228351,-30.1571051991793,0.0 -51.3229375,-30.1571957991793,0.0 -51.322995,-30.1576220991793,0.0 -51.3229379,-30.1578116991793,0.0 -51.3230038,-30.1579601991793,0.0 -51.3230053,-30.1581972991793,0.0 -51.3231514,-30.1583231991793,0.0 -51.3231094,-30.1585922991793,0.0 -51.3231148,-30.1588334991793,0.0 -51.3232529,-30.1591278991793,0.0 -51.3234825,-30.1591727991793,0.0 -51.3235104,-30.1592586991792,0.0 -51.3232731,-30.1593878991793,0.0 -51.3231865,-30.1595063991793,0.0 -51.3233206,-30.1596908991793,0.0 -51.3234893,-30.1597713991793,0.0 -51.323442,-30.1599332991792,0.0 -51.3235939,-30.1600773991792,0.0 -51.3238434,-30.1602445991792,0.0 -51.3239278,-30.1605385991792,0.0 -51.3239679,-30.1606785991792,0.0 -51.3234347,-30.1609131991792,0.0 -51.3232495,-30.1612381991792,0.0 -51.3234533,-30.1625254991792,0.0 -51.3232399,-30.1634198991792,0.0 -51.3239797,-30.1645982991792,0.0 -51.3244836,-30.1655412991792,0.0 -51.324664,-30.1674261991791,0.0 -51.3244858,-30.1682229991791,0.0 -51.3245623,-30.1684426991791,0.0 -51.3240575,-30.1713631991791,0.0 -51.3236791,-30.172834199179,0.0 -51.3148213,-30.1887450991788,0.0 -51.3160349,-30.1912785991787,0.0 -51.3164206,-30.1925676991787,0.0 -51.3157098,-30.1937267991787,0.0 -51.3152287,-30.1939150991787,0.0 -51.3150539,-30.1942556991787,0.0 -51.3151153,-30.1946924991787,0.0 -51.315296,-30.1950011991787,0.0 -51.3156492,-30.1949656991787,0.0 -51.3180384,-30.1985799991786,0.0 -51.3183839,-30.1991409991786,0.0 -51.3186982,-30.1991562991786,0.0 -51.3188497,-30.1993127991786,0.0 -51.3190439,-30.1997217991786,0.0 -51.3189692,-30.2003392991786,0.0 -51.3201516,-30.2026776991786,0.0 -51.3201862,-30.2033283991785,0.0 -51.3205155,-30.2050431991785,0.0 -51.3207916,-30.2050518991785,0.0 -51.3211799,-30.2064540991785,0.0 -51.3214934,-30.2094688991784,0.0 -51.3215455,-30.2100390991784,0.0 -51.3214104,-30.2106346991784,0.0 -51.3204209,-30.2119861991784,0.0 -51.319904,-30.2123154991784,0.0 -51.3196413,-30.2130794991784,0.0 -51.3199025,-30.2139749991784,0.0 -51.3207498,-30.2137425991784,0.0 -51.3215131,-30.2132222991784,0.0 -51.3224176,-30.2127893991784,0.0 -51.323307,-30.2128018991784,0.0 -51.3243282,-30.2134000991784,0.0 -51.3249147,-30.2140061991784,0.0 -51.32561,-30.2151826991784,0.0 -51.3263474,-30.2165505991783,0.0 -51.3281798,-30.2219789991782,0.0 -51.3284366,-30.2250473991782,0.0 -51.3281221,-30.2260572991782,0.0 -51.328182,-30.2263059991782,0.0 -51.328287,-30.2264908991782,0.0 -51.3285497,-30.2264388991782,0.0 -51.3287862,-30.2264444991782,0.0 -51.3290024,-30.2264686991782,0.0 -51.3294238,-30.2263600991782,0.0 -51.3296691,-30.2263588991782,0.0 -51.3300807,-30.2265178991782,0.0 -51.3302496,-30.2265669991782,0.0 -51.3304119,-30.2265566991782,0.0 -51.331219,-30.2265203991782,0.0 -51.3317506,-30.2264154991782,0.0 -51.3321557,-30.2260417991782,0.0 -51.3326285,-30.2258153991782,0.0 -51.3332079,-30.2260170991782,0.0 -51.3334464,-30.2263142991782,0.0 -51.3334728,-30.2266257991782,0.0 -51.333502,-30.2271679991782,0.0 -51.3331934,-30.2275655991781,0.0 -51.3328337,-30.2276698991781,0.0 -51.3326148,-30.2278194991781,0.0 -51.3323943,-30.2282657991781,0.0 -51.3325138,-30.2285690991781,0.0 -51.3328454,-30.2287648991781,0.0 -51.3335241,-30.2285978991781,0.0 -51.3342384,-30.2285800991781,0.0 -51.3346318,-30.2283747991781,0.0 -51.33472,-30.2280371991781,0.0 -51.3350242,-30.2278337991781,0.0 -51.3355562,-30.2277350991781,0.0 -51.3360432,-30.2277669991781,0.0 -51.336479,-30.2281203991781,0.0 -51.3367216,-30.2285927991781,0.0 -51.33686,-30.2292280991781,0.0 -51.3368537,-30.2297422991781,0.0 -51.3374051,-30.2302287991781,0.0 -51.3376199,-30.2300696991781,0.0 -51.3378333,-30.2298982991781,0.0 -51.3380591,-30.2297909991781,0.0 -51.3382163,-30.2297859991781,0.0 -51.3383886,-30.2299664991781,0.0 -51.3385839,-30.2301759991781,0.0 -51.3387287,-30.2305296991781,0.0 -51.3386672,-30.2308667991781,0.0 -51.3386929,-30.2309550991781,0.0 -51.3388534,-30.2309186991781,0.0 -51.3389391,-30.2306744991781,0.0 -51.3391905,-30.2305855991781,0.0 -51.3393596,-30.2303369991781,0.0 -51.3393701,-30.2303074991781,0.0 -51.3393966,-30.2302985991781,0.0 -51.3395047,-30.2302596991781,0.0 -51.3395443,-30.2302169991781,0.0 -51.3395588,-30.2301843991781,0.0 -51.3395979,-30.2301322991781,0.0 -51.3396335,-30.2301166991781,0.0 -51.3397259,-30.2300466991781,0.0 -51.3397554,-30.2299949991781,0.0 -51.3397935,-30.2299813991781,0.0 -51.3399748,-30.2299726991781,0.0 -51.3402441,-30.2296802991781,0.0 -51.3402534,-30.2296143991781,0.0 -51.3402632,-30.2295868991781,0.0 -51.3403048,-30.2295312991781,0.0 -51.3403513,-30.2294976991781,0.0 -51.3404575,-30.2294359991781,0.0 -51.3406203,-30.2292974991781,0.0 -51.3406786,-30.2292474991781,0.0 -51.3408684,-30.2290475991781,0.0 -51.3410565,-30.2287740991781,0.0 -51.3411962,-30.2285101991781,0.0 -51.34132,-30.2283330991781,0.0 -51.3414226,-30.2282658991781,0.0 -51.3415069,-30.2281302991781,0.0 -51.3424906,-30.2274199991781,0.0 -51.3426398,-30.2273080991782,0.0 -51.3427225,-30.2272199991782,0.0 -51.3428255,-30.2270031991781,0.0 -51.3429528,-30.2269428991782,0.0 -51.3431471,-30.2268714991782,0.0 -51.3432493,-30.2267429991782,0.0 -51.3433267,-30.2266561991782,0.0 -51.3434009,-30.2266424991782,0.0 -51.3435373,-30.2266386991782,0.0 -51.3436378,-30.2265951991782,0.0 -51.343724,-30.2265041991782,0.0 -51.3438361,-30.2264578991782,0.0 -51.3439066,-30.2263690991782,0.0 -51.343945,-30.2261866991782,0.0 -51.3439656,-30.2261255991782,0.0 -51.3440107,-30.2260763991782,0.0 -51.3441219,-30.2259894991782,0.0 -51.3441995,-30.2259191991782,0.0 -51.3442522,-30.2258454991782,0.0 -51.3442903,-30.2257627991782,0.0 -51.3443257,-30.2257223991782,0.0 -51.3443864,-30.2256872991782,0.0 -51.344481,-30.2256066991782,0.0 -51.3445453,-30.2255509991782,0.0 -51.344596,-30.2254652991782,0.0 -51.3446366,-30.2254197991782,0.0 -51.3447104,-30.2253814991782,0.0 -51.3448376,-30.2253611991782,0.0 -51.3449582,-30.2253901991782,0.0 -51.3451503,-30.2254607991782,0.0 -51.3452336,-30.2255583991782,0.0 -51.3452692,-30.2256438991782,0.0 -51.345359,-30.2257660991782,0.0 -51.3454776,-30.2258645991782,0.0 -51.3457188,-30.2259964991782,0.0 -51.3460554,-30.2260165991782,0.0 -51.3462532,-30.2260108991782,0.0 -51.346352,-30.2261483991782,0.0 -51.3464118,-30.2262766991782,0.0 -51.3465347,-30.2263492991782,0.0 -51.3466443,-30.2263478991782,0.0 -51.3467719,-30.2263180991782,0.0 -51.3469155,-30.2263374991782,0.0 -51.3470428,-30.2263735991782,0.0 -51.3471722,-30.2264031991782,0.0 -51.3473368,-30.2264014991782,0.0 -51.3475799,-30.2263604991782,0.0 -51.3478413,-30.2263810991782,0.0 -51.3479519,-30.2264155991782,0.0 -51.3481524,-30.2265963991782,0.0 -51.3482574,-30.2266910991782,0.0 -51.3499654,-30.2263317991782,0.0 -51.3518727,-30.2259100991782,0.0 -51.355468,-30.2250858991782,0.0 -51.3566682,-30.2245041991782,0.0 -51.3569601,-30.2238577991782,0.0 -51.3570639,-30.2233516991782,0.0 -51.3572705,-30.2227196991782,0.0 -51.3580028,-30.2228494991782,0.0 -51.3583659,-30.2229105991782,0.0 -51.3587194,-30.2230548991782,0.0 -51.358872,-30.2229813991782,0.0 -51.359348,-30.2224532991782,0.0 -51.3596821,-30.2222288991782,0.0 -51.3601094,-30.2217218991782,0.0 -51.3609352,-30.2212643991783,0.0 -51.3617651,-30.2213257991782,0.0 -51.3626721,-30.2217346991782,0.0 -51.3635281,-30.2219657991782,0.0 -51.3636598,-30.2227338991782,0.0 -51.3636171,-30.2235190991782,0.0 -51.3637694,-30.2243285991782,0.0 -51.3636581,-30.2261634991782,0.0 -51.3752397,-30.2297626991781,0.0 -51.3762831,-30.2295796991781,0.0 -51.3768505,-30.2298610991781,0.0 -51.3781633,-30.2306194991781,0.0 -51.3786858,-30.2308296991781,0.0 -51.3789053,-30.2310021991781,0.0 -51.3790889,-30.2310865991781,0.0 -51.3792326,-30.2312316991781,0.0 -51.3792227,-30.2314604991781,0.0 -51.3792682,-30.2317627991781,0.0 -51.3795166,-30.2320328991781,0.0 -51.3801376,-30.2314642991781,0.0 -51.3802739,-30.2313893991781,0.0 -51.3811734,-30.2309702991781,0.0 -51.3816558,-30.2307243991781,0.0 -51.3818646,-30.2305940991781,0.0 -51.3820157,-30.2304281991781,0.0 -51.3822923,-30.2304005991781,0.0 -51.3826962,-30.2303933991781,0.0 -51.3830566,-30.2303747991781,0.0 -51.3833928,-30.2299403991781,0.0 -51.3834901,-30.2298018991781,0.0 -51.3838332,-30.2296679991781,0.0 -51.384048,-30.2297046991781,0.0 -51.3842976,-30.2296826991781,0.0 -51.3844638,-30.2295721991781,0.0 -51.3845811,-30.2294328991781,0.0 -51.3847944,-30.2293238991781,0.0 -51.3850083,-30.2292564991781,0.0 -51.3852162,-30.2292212991781,0.0 -51.385422,-30.2292247991781,0.0 -51.3856812,-30.2292874991781,0.0 -51.385915,-30.2294198991781,0.0 -51.3862643,-30.2295282991781,0.0 -51.386706,-30.2296159991781,0.0 -51.3881653,-30.2297195991781,0.0 -51.3900165,-30.2297256991781,0.0 -51.4024547,-30.2296781991781,0.0 -51.404655,-30.2304031991781,0.0 -51.4062823,-30.2303995991781,0.0 -51.4064623,-30.2310545991781,0.0 -51.4067521,-30.2322348991781,0.0 -51.4072154,-30.234096899178,0.0 -51.4072883,-30.234572799178,0.0 -51.407325,-30.235049699178,0.0 -51.4073325,-30.235615399178,0.0 -51.4072895,-30.236255699178,0.0 -51.4068679,-30.239090699178,0.0 -51.4067475,-30.2400796991779,0.0 -51.4066564,-30.2407615991779,0.0 -51.4065722,-30.2413233991779,0.0 -51.4065178,-30.2417753991779,0.0 -51.4063813,-30.2427690991779,0.0 -51.4061408,-30.2444415991779,0.0 -51.405709,-30.2474396991778,0.0 -51.4055839,-30.2484279991778,0.0 -51.4054445,-30.2493431991778,0.0 -51.4054222,-30.2495901991778,0.0 -51.4053981,-30.2499619991778,0.0 -51.4054361,-30.2506941991778,0.0 -51.4054628,-30.2511148991778,0.0 -51.4054947,-30.2514784991778,0.0 -51.4059116,-30.2557823991777,0.0 -51.4062902,-30.2596128991776,0.0 -51.4065323,-30.2620303991776,0.0 -51.4067723,-30.2645116991776,0.0 -51.4067997,-30.2648518991776,0.0 -51.4068478,-30.2651903991775,0.0 -51.4069815,-30.2657757991775,0.0 -51.4072461,-30.2666557991775,0.0 -51.4080092,-30.2688530991775,0.0 -51.409693,-30.2657844991775,0.0 -51.4101043,-30.2653408991775,0.0 -51.4104022,-30.2650618991775,0.0 -51.4107831,-30.2649769991775,0.0 -51.4115296,-30.2651015991775,0.0 -51.4117663,-30.2649682991775,0.0 -51.4120378,-30.2649392991776,0.0 -51.4122987,-30.2650755991775,0.0 -51.4126198,-30.2651315991775,0.0 -51.4128581,-30.2648345991775,0.0 -51.4129716,-30.2645035991776,0.0 -51.4131469,-30.2642953991776,0.0 -51.4131893,-30.2640439991776,0.0 -51.4133528,-30.2639638991776,0.0 -51.4136953,-30.2639204991776,0.0 -51.4138872,-30.2638261991776,0.0 -51.4139585,-30.2636599991776,0.0 -51.4139934,-30.2634956991776,0.0 -51.4140376,-30.2633236991776,0.0 -51.4142573,-30.2631316991776,0.0 -51.4143974,-30.2629710991776,0.0 -51.4145893,-30.2629327991776,0.0 -51.4147394,-30.2629153991776,0.0 -51.4147823,-30.2627522991776,0.0 -51.4147323,-30.2625741991776,0.0 -51.4149126,-30.2623061991776,0.0 -51.4149497,-30.2620627991776,0.0 -51.415046,-30.2618497991776,0.0 -51.4151432,-30.2617263991776,0.0 -51.4153406,-30.2616968991776,0.0 -51.415505,-30.2615812991776,0.0 -51.4157183,-30.2612323991776,0.0 -51.4157275,-30.2610260991776,0.0 -51.4156623,-30.2607967991776,0.0 -51.4157732,-30.2605791991776,0.0 -51.4159645,-30.2605237991776,0.0 -51.416228,-30.2605676991776,0.0 -51.4165384,-30.2608557991776,0.0 -51.4167654,-30.2610293991776,0.0 -51.4171561,-30.2610083991776,0.0 -51.4174231,-30.2608652991776,0.0 -51.4176209,-30.2607083991776,0.0 -51.4178674,-30.2606686991776,0.0 -51.4181376,-30.2607118991776,0.0 -51.4185307,-30.2607043991776,0.0 -51.4190449,-30.2607533991776,0.0 -51.4191072,-30.2607593991776,0.0 -51.4190824,-30.2606284991776,0.0 -51.4190449,-30.2605757991776,0.0 -51.4190065,-30.2605217991776,0.0 -51.4188323,-30.2604618991776,0.0 -51.4187556,-30.2603214991776,0.0 -51.4189897,-30.2599910991776,0.0 -51.4190449,-30.2599106991776,0.0 -51.4191136,-30.2598107991776,0.0 -51.4191696,-30.2595240991776,0.0 -51.4192023,-30.2592291991776,0.0 -51.419399,-30.2589745991776,0.0 -51.4196347,-30.2587893991776,0.0 -51.4198469,-30.2586126991776,0.0 -51.4209208,-30.2561178991777,0.0 -51.4210444,-30.2560113991777,0.0 -51.4211001,-30.2557205991777,0.0 -51.4212228,-30.2554727991777,0.0 -51.4212452,-30.2552162991777,0.0 -51.4210534,-30.2548402991777,0.0 -51.4210409,-30.2546159991777,0.0 -51.4208181,-30.2544375991777,0.0 -51.4207933,-30.2542982991777,0.0 -51.4209303,-30.2542395991777,0.0 -51.4211051,-30.2541410991777,0.0 -51.421157,-30.2539688991777,0.0 -51.4212237,-30.2538739991777,0.0 -51.4213943,-30.2539802991777,0.0 -51.4215053,-30.2538517991777,0.0 -51.4216371,-30.2537589991777,0.0 -51.4218649,-30.2537262991777,0.0 -51.4221187,-30.2538344991777,0.0 -51.4224401,-30.2538438991777,0.0 -51.4227438,-30.2537451991777,0.0 -51.4230531,-30.2537242991777,0.0 -51.4232762,-30.2537862991777,0.0 -51.4237602,-30.2536677991777,0.0 -51.4241173,-30.2536523991777,0.0 -51.424295,-30.2537280991777,0.0 -51.4242604,-30.2544980991777,0.0 -51.4244339,-30.2548961991777,0.0 -51.4244221,-30.2552242991777,0.0 -51.4244892,-30.2555080991777,0.0 -51.4247054,-30.2556613991777,0.0 -51.4256695,-30.2561501991777,0.0 -51.4258431,-30.2565471991777,0.0 -51.4257848,-30.2573735991777,0.0 -51.4256919,-30.2577335991777,0.0 -51.4254936,-30.2581594991777,0.0 -51.4257761,-30.2585590991776,0.0 -51.4260089,-30.2586469991776,0.0 -51.4261133,-30.2588571991776,0.0 -51.4262458,-30.2590562991776,0.0 -51.4263753,-30.2589619991776,0.0 -51.4264876,-30.2587780991777,0.0 -51.4266423,-30.2586868991777,0.0 -51.4270807,-30.2590185991776,0.0 -51.4272905,-30.2590204991776,0.0 -51.427456,-30.2590317991776,0.0 -51.4276483,-30.2591656991776,0.0 -51.4277226,-30.2593507991776,0.0 -51.4278164,-30.2594006991776,0.0 -51.4279854,-30.2595035991776,0.0 -51.4283333,-30.2593153991776,0.0 -51.4285092,-30.2591786991776,0.0 -51.4287791,-30.2591785991776,0.0 -51.4290517,-30.2591219991776,0.0 -51.4291832,-30.2589456991776,0.0 -51.4292652,-30.2587316991777,0.0 -51.4295275,-30.2586845991776,0.0 -51.429656,-30.2584386991776,0.0 -51.4297801,-30.2582138991777,0.0 -51.4299378,-30.2581220991777,0.0 -51.4301203,-30.2579631991777,0.0 -51.4303233,-30.2576903991777,0.0 -51.4303569,-30.2574811991777,0.0 -51.4302729,-30.2572218991777,0.0 -51.4302159,-30.2570322991777,0.0 -51.4300274,-30.2568948991777,0.0 -51.4302047,-30.2566577991777,0.0 -51.4305762,-30.2564068991777,0.0 -51.4306976,-30.2563577991777,0.0 -51.4307091,-30.2562491991777,0.0 -51.4307304,-30.2561470991777,0.0 -51.430783,-30.2560958991777,0.0 -51.4308676,-30.2560577991777,0.0 -51.431286,-30.2555076991777,0.0 -51.4312903,-30.2553960991777,0.0 -51.4313517,-30.2553354991777,0.0 -51.4314701,-30.2553297991777,0.0 -51.4316018,-30.2552918991777,0.0 -51.4316719,-30.2552479991777,0.0 -51.4317452,-30.2551721991777,0.0 -51.4318371,-30.2551904991777,0.0 -51.4319316,-30.2551003991777,0.0 -51.4320543,-30.2550925991777,0.0 -51.4337161,-30.2546057991777,0.0 -51.4338846,-30.2544981991777,0.0 -51.4340442,-30.2544022991777,0.0 -51.4341819,-30.2542709991777,0.0 -51.4343281,-30.2541496991777,0.0 -51.4344633,-30.2541709991777,0.0 -51.4345442,-30.2542782991777,0.0 -51.4346111,-30.2544444991777,0.0 -51.434696,-30.2547925991777,0.0 -51.434779,-30.2549289991777,0.0 -51.4352322,-30.2551392991777,0.0 -51.4357324,-30.2553412991777,0.0 -51.4359322,-30.2553591991777,0.0 -51.4360758,-30.2553692991777,0.0 -51.4361991,-30.2554823991777,0.0 -51.4363553,-30.2556165991777,0.0 -51.4364504,-30.2556713991777,0.0 -51.436591,-30.2556656991777,0.0 -51.436703,-30.2555972991777,0.0 -51.4368185,-30.2555075991777,0.0 -51.4369388,-30.2554526991777,0.0 -51.4370623,-30.2554172991777,0.0 -51.4371997,-30.2554418991777,0.0 -51.4373627,-30.2555668991777,0.0 -51.4374871,-30.2557055991777,0.0 -51.4375956,-30.2557903991777,0.0 -51.4375944,-30.2558990991777,0.0 -51.437596,-30.2559639991777,0.0 -51.4377108,-30.2559906991777,0.0 -51.4377652,-30.2560393991777,0.0 -51.4377872,-30.2561084991777,0.0 -51.4378898,-30.2561997991777,0.0 -51.4380108,-30.2562859991777,0.0 -51.4380364,-30.2563672991777,0.0 -51.4383367,-30.2566103991777,0.0 -51.4384357,-30.2567852991777,0.0 -51.4385571,-30.2568239991777,0.0 -51.4385403,-30.2569761991777,0.0 -51.4385019,-30.2570793991777,0.0 -51.4385435,-30.2571748991777,0.0 -51.4386219,-30.2572296991777,0.0 -51.4387243,-30.2572784991777,0.0 -51.4387917,-30.2572374991777,0.0 -51.4388661,-30.2571915991777,0.0 -51.4389744,-30.2571573991777,0.0 -51.4391053,-30.2571544991777,0.0 -51.4392055,-30.2571515991777,0.0 -51.4392571,-30.2570810991777,0.0 -51.4392978,-30.2570099991777,0.0 -51.4393825,-30.2570171991777,0.0 -51.4394738,-30.2570756991777,0.0 -51.4396609,-30.2571126991777,0.0 -51.439835,-30.2571460991777,0.0 -51.4399331,-30.2571909991777,0.0 -51.4400731,-30.2571785991777,0.0 -51.440192,-30.2571104991777,0.0 -51.4402975,-30.2569985991777,0.0 -51.4404508,-30.2563892991777,0.0 -51.4403455,-30.2561198991777,0.0 -51.4404869,-30.2559885991777,0.0 -51.4406726,-30.2559732991777,0.0 -51.4412695,-30.2560848991777,0.0 -51.4416612,-30.2560327991777,0.0 -51.4417263,-30.2557256991777,0.0 -51.4418233,-30.2554903991777,0.0 -51.442233,-30.2552877991777,0.0 -51.4427238,-30.2549876991777,0.0 -51.4431421,-30.2543528991777,0.0 -51.4438413,-30.2537602991777,0.0 -51.4441308,-30.2534985991777,0.0 -51.4445786,-30.2534323991777,0.0 -51.4449773,-30.2534849991777,0.0 -51.4452813,-30.2533305991777,0.0 -51.4454401,-30.2530274991777,0.0 -51.4456775,-30.2527014991777,0.0 -51.4460372,-30.2523472991777,0.0 -51.4461683,-30.2521683991778,0.0 -51.4464343,-30.2520482991778,0.0 -51.4468548,-30.2521141991778,0.0 -51.4470593,-30.2521978991778,0.0 -51.4473366,-30.2519980991778,0.0 -51.4475956,-30.2519475991778,0.0 -51.4481666,-30.2520807991778,0.0 -51.448367,-30.2520586991778,0.0 -51.4485518,-30.2519401991778,0.0 -51.4488077,-30.2520033991777,0.0 -51.4489997,-30.2519043991778,0.0 -51.4492501,-30.2518231991778,0.0 -51.4494345,-30.2516827991778,0.0 -51.4497182,-30.2518776991778,0.0 -51.4500095,-30.2521884991777,0.0 -51.4502648,-30.2526292991777,0.0 -51.4501549,-30.2529833991777,0.0 -51.4500206,-30.2532401991777,0.0 -51.4503027,-30.2535191991777,0.0 -51.450917,-30.2539246991777,0.0 -51.4516629,-30.2538241991777,0.0 -51.4519348,-30.2537377991777,0.0 -51.4523092,-30.2535537991777,0.0 -51.4524151,-30.2533440991777,0.0 -51.4527455,-30.2529576991777,0.0 -51.4529847,-30.2528619991777,0.0 -51.453281,-30.2527016991777,0.0 -51.4535195,-30.2525308991777,0.0 -51.4537599,-30.2524443991778,0.0 -51.4540263,-30.2525059991777,0.0 -51.4541781,-30.2523793991777,0.0 -51.4543755,-30.2522339991778,0.0 -51.4544885,-30.2519595991778,0.0 -51.4546592,-30.2517888991778,0.0 -51.4548443,-30.2516535991778,0.0 -51.4551784,-30.2515964991778,0.0 -51.4555762,-30.2516303991778,0.0 -51.4563745,-30.2517251991778,0.0 -51.4567119,-30.2517725991777,0.0 -51.4569147,-30.2517292991778,0.0 -51.4574047,-30.2520918991777,0.0 -51.4574987,-30.2520858991778,0.0 -51.4575759,-30.2521246991778,0.0 -51.4576199,-30.2521072991777,0.0 -51.4577132,-30.2519829991777,0.0 -51.4577603,-30.2518772991778,0.0 -51.4577734,-30.2517554991778,0.0 -51.457867,-30.2517083991778,0.0 -51.4579718,-30.2517685991778,0.0 -51.4581128,-30.2518541991778,0.0 -51.4582487,-30.2519845991778,0.0 -51.4584242,-30.2519444991777,0.0 -51.4585832,-30.2518904991778,0.0 -51.4588058,-30.2518130991778,0.0 -51.4589752,-30.2519683991778,0.0 -51.4591879,-30.2520641991778,0.0 -51.4593488,-30.2520124991778,0.0 -51.4595069,-30.2519965991778,0.0 -51.4596975,-30.2519283991778,0.0 -51.4598773,-30.2518507991778,0.0 -51.4601443,-30.2519925991778,0.0 -51.4604304,-30.2522105991777,0.0 -51.4605645,-30.2525335991777,0.0 -51.4606489,-30.2526913991778,0.0 -51.4610128,-30.2526534991778,0.0 -51.4611946,-30.2526966991778,0.0 -51.4612015,-30.2528342991777,0.0 -51.4613741,-30.2528631991777,0.0 -51.4615521,-30.2528533991777,0.0 -51.4617579,-30.2529015991777,0.0 -51.4617844,-30.2530576991777,0.0 -51.4616974,-30.2532044991777,0.0 -51.461946,-30.2532682991777,0.0 -51.4622448,-30.2533885991777,0.0 -51.4625727,-30.2534380991777,0.0 -51.462881,-30.2535243991777,0.0 -51.4632026,-30.2534661991777,0.0 -51.4633654,-30.2533564991777,0.0 -51.4634375,-30.2532522991777,0.0 -51.4635113,-30.2532388991777,0.0 -51.4636612,-30.2532575991777,0.0 -51.4638363,-30.2533442991777,0.0 -51.463888,-30.2534648991777,0.0 -51.4640106,-30.2535566991777,0.0 -51.4640936,-30.2535176991777,0.0 -51.4642548,-30.2535670991777,0.0 -51.4643513,-30.2535481991777,0.0 -51.4645212,-30.2536075991777,0.0 -51.4646638,-30.2536601991777,0.0 -51.4648159,-30.2536110991777,0.0 -51.4649585,-30.2535156991777,0.0 -51.4651556,-30.2534321991777,0.0 -51.4652894,-30.2533254991777,0.0 -51.4654245,-30.2532805991777,0.0 -51.4656491,-30.2532696991777,0.0 -51.4658487,-30.2533437991777,0.0 -51.4659907,-30.2532908991777,0.0 -51.4661318,-30.2532933991777,0.0 -51.4662529,-30.2533277991777,0.0 -51.4663757,-30.2532770991777,0.0 -51.4665491,-30.2532512991777,0.0 -51.4667655,-30.2532187991777,0.0 -51.4669374,-30.2532414991777,0.0 -51.4670043,-30.2533142991777,0.0 -51.4671517,-30.2533502991777,0.0 -51.4673049,-30.2533052991777,0.0 -51.4675792,-30.2533827991777,0.0 -51.4678055,-30.2533325991777,0.0 -51.4679818,-30.2534724991777,0.0 -51.4681907,-30.2536081991777,0.0 -51.468407,-30.2535811991777,0.0 -51.468642,-30.2535568991777,0.0 -51.4689115,-30.2534818991777,0.0 -51.4691652,-30.2534642991777,0.0 -51.4695802,-30.2535714991777,0.0 -51.466567,-30.2538011991777,0.0 -51.4685113,-30.2541335991777,0.0 -51.4693498,-30.2542768991777,0.0 -51.4833562,-30.2612285991776,0.0 -51.4849877,-30.2612842991776,0.0 -51.4891828,-30.2573613991777,0.0 -51.4914764,-30.2590471991776,0.0 -51.5022663,-30.2594949991776,0.0 -51.5035113,-30.2603211991776,0.0 -51.5035228,-30.2626601991776,0.0 -51.5062021,-30.2669876991775,0.0 -51.5059251,-30.2684051991775,0.0 -51.5141136,-30.2692099991775,0.0 -51.5158768,-30.2729121991774,0.0 -51.5162753,-30.2731970991774,0.0 -51.5166391,-30.2734517991774,0.0 -51.5171284,-30.2737796991774,0.0 -51.5176171,-30.2741772991774,0.0 -51.5178177,-30.2742670991774,0.0 -51.5179208,-30.2741993991774,0.0 -51.5180707,-30.2742112991774,0.0 -51.5182377,-30.2743183991774,0.0 -51.5183076,-30.2743967991774,0.0 -51.5182864,-30.2744601991774,0.0 -51.5182302,-30.2745829991774,0.0 -51.5181615,-30.2746900991774,0.0 -51.5182655,-30.2747664991774,0.0 -51.5183266,-30.2748868991774,0.0 -51.5183683,-30.2750043991774,0.0 -51.5186377,-30.2750809991774,0.0 -51.5189701,-30.2751754991774,0.0 -51.5190372,-30.2752713991774,0.0 -51.5195859,-30.2754594991774,0.0 -51.5196941,-30.2754594991774,0.0 -51.5198566,-30.2754274991774,0.0 -51.5199654,-30.2755045991774,0.0 -51.5201078,-30.2755786991774,0.0 -51.5202406,-30.2755662991774,0.0 -51.5203444,-30.2755400991774,0.0 -51.5204474,-30.2755093991774,0.0 -51.5206581,-30.2755324991774,0.0 -51.5207957,-30.2756033991774,0.0 -51.5209764,-30.2757044991774,0.0 -51.5211007,-30.2756268991774,0.0 -51.5213717,-30.2755598991774,0.0 -51.5214868,-30.2755066991774,0.0 -51.5216256,-30.2754234991774,0.0 -51.5219786,-30.2753013991774,0.0 -51.5222094,-30.2752188991774,0.0 -51.5224572,-30.2751533991774,0.0 -51.5225609,-30.2750605991774,0.0 -51.5226664,-30.2750382991774,0.0 -51.522757,-30.2749862991774,0.0 -51.5228704,-30.2749959991774,0.0 -51.5229587,-30.2749633991774,0.0 -51.5230825,-30.2750256991774,0.0 -51.5231595,-30.2750179991774,0.0 -51.5232486,-30.2749670991774,0.0 -51.5233253,-30.2748802991774,0.0 -51.5233985,-30.2748389991774,0.0 -51.5234573,-30.2748465991774,0.0 -51.5234922,-30.2748804991774,0.0 -51.5235267,-30.2748595991774,0.0 -51.5235932,-30.2748768991774,0.0 -51.5236592,-30.2748694991774,0.0 -51.5237326,-30.2749159991774,0.0 -51.5237874,-30.2749557991774,0.0 -51.5240197,-30.2751478991774,0.0 -51.5242388,-30.2752386991774,0.0 -51.5244705,-30.2752238991774,0.0 -51.5246922,-30.2750775991774,0.0 -51.5248633,-30.2750292991774,0.0 -51.5251594,-30.2750366991774,0.0 -51.5253348,-30.2751206991774,0.0 -51.5254602,-30.2752276991774,0.0 -51.5255913,-30.2752990991774,0.0 -51.5256982,-30.2753042991774,0.0 -51.5258313,-30.2752147991774,0.0 -51.5259221,-30.2752415991774,0.0 -51.5260213,-30.2753136991774,0.0 -51.5262708,-30.2752653991774,0.0 -51.5266077,-30.2754194991774,0.0 -51.5267873,-30.2755743991774,0.0 -51.5270346,-30.2757329991774,0.0 -51.5272244,-30.2758367991774,0.0 -51.5274739,-30.2759847991774,0.0 -51.527614,-30.2761033991774,0.0 -51.5277469,-30.2761972991774,0.0 -51.5277905,-30.2763053991774,0.0 -51.5278099,-30.2764155991774,0.0 -51.5279221,-30.2764360991774,0.0 -51.528084,-30.2765141991774,0.0 -51.5282314,-30.2765428991774,0.0 -51.5282952,-30.2766017991774,0.0 -51.5288163,-30.2771119991773,0.0 -51.5290274,-30.2772021991774,0.0 -51.5292056,-30.2772832991773,0.0 -51.5293901,-30.2773238991773,0.0 -51.5295761,-30.2772966991773,0.0 -51.5296715,-30.2772014991773,0.0 -51.5297981,-30.2769375991773,0.0 -51.5300676,-30.2764454991774,0.0 -51.5300953,-30.2762086991774,0.0 -51.5305165,-30.2760571991774,0.0 -51.5306287,-30.2758559991774,0.0 -51.5307357,-30.2758076991774,0.0 -51.5308894,-30.2755508991774,0.0 -51.5307514,-30.2753643991774,0.0 -51.5310156,-30.2752379991774,0.0 -51.531176,-30.2747247991774,0.0 -51.5313886,-30.2746645991774,0.0 -51.5315924,-30.2748074991774,0.0 -51.5316827,-30.2751945991774,0.0 -51.5321946,-30.2755146991774,0.0 -51.5330645,-30.2758146991774,0.0 -51.5338257,-30.2766127991774,0.0 -51.5342273,-30.2762088991774,0.0 -51.5346289,-30.2756271991774,0.0 -51.5350049,-30.2754417991774,0.0 -51.536021,-30.2752292991774,0.0 -51.536385,-30.2755151991774,0.0 -51.5367501,-30.2755315991774,0.0 -51.5372514,-30.2759101991774,0.0 -51.5376677,-30.2757162991774,0.0 -51.5381368,-30.2758257991774,0.0 -51.5389045,-30.2757350991774,0.0 -51.539826,-30.2755752991774,0.0 -51.5402001,-30.2753360991774,0.0 -51.5403424,-30.2750048991774,0.0 -51.5406345,-30.2748028991774,0.0 -51.540366,-30.2746982991774,0.0 -51.540266,-30.2745289991774,0.0 -51.5401869,-30.2742936991774,0.0 -51.5401412,-30.2739067991774,0.0 -51.5403289,-30.2738359991774,0.0 -51.540668,-30.2737048991774,0.0 -51.5409618,-30.2735820991774,0.0 -51.5411797,-30.2733787991774,0.0 -51.5413666,-30.2731738991774,0.0 -51.5415433,-30.2729861991774,0.0 -51.5417772,-30.2728758991774,0.0 -51.5419836,-30.2727721991774,0.0 -51.5421885,-30.2727735991774,0.0 -51.5424135,-30.2728926991774,0.0 -51.5426731,-30.2729789991774,0.0 -51.5429496,-30.2728660991774,0.0 -51.543302,-30.2728450991774,0.0 -51.5437183,-30.2727485991774,0.0 -51.5440514,-30.2726705991774,0.0 -51.5442483,-30.2725689991774,0.0 -51.5447543,-30.2724858991774,0.0 -51.5449694,-30.2725059991774,0.0 -51.5451879,-30.2724941991774,0.0 -51.5453409,-30.2724021991774,0.0 -51.5454484,-30.2722823991774,0.0 -51.5461072,-30.2720764991774,0.0 -51.5462335,-30.2721657991774,0.0 -51.5464387,-30.2721778991774,0.0 -51.546696,-30.2721189991774,0.0 -51.5470547,-30.2720000991774,0.0 -51.5472777,-30.2720212991774,0.0 -51.5475465,-30.2720852991774,0.0 -51.547852,-30.2719624991774,0.0 -51.5480316,-30.2717897991774,0.0 -51.548258,-30.2715990991774,0.0 -51.5484704,-30.2715009991774,0.0 -51.5485881,-30.2715883991774,0.0 -51.5487056,-30.2717788991774,0.0 -51.549132,-30.2721005991774,0.0 -51.5493568,-30.2722592991774,0.0 -51.5496225,-30.2723643991774,0.0 -51.5499832,-30.2723427991774,0.0 -51.5503176,-30.2722687991774,0.0 -51.5504358,-30.2720814991774,0.0 -51.5504159,-30.2719025991774,0.0 -51.5501975,-30.2717073991774,0.0 -51.5501953,-30.2715549991774,0.0 -51.5502683,-30.2714540991774,0.0 -51.5504021,-30.2714534991774,0.0 -51.5512193,-30.2715821991774,0.0 -51.5514109,-30.2716464991774,0.0 -51.5515718,-30.2717138991774,0.0 -51.5516214,-30.2717879991774,0.0 -51.5525816,-30.2716174991774,0.0 -51.5530111,-30.2714997991774,0.0 -51.5533018,-30.2713788991774,0.0 -51.553575,-30.2712672991774,0.0 -51.5537972,-30.2712748991774,0.0 -51.5539894,-30.2711937991774,0.0 -51.5542391,-30.2710416991775,0.0 -51.5545576,-30.2708811991774,0.0 -51.5547656,-30.2707635991775,0.0 -51.5548213,-30.2704503991775,0.0 -51.5546867,-30.2701857991775,0.0 -51.5544274,-30.2698508991775,0.0 -51.5541517,-30.2695762991775,0.0 -51.5541845,-30.2694516991775,0.0 -51.5542461,-30.2692686991775,0.0 -51.5542885,-30.2688457991775,0.0 -51.5543993,-30.2686087991775,0.0 -51.5545603,-30.2684952991775,0.0 -51.5547925,-30.2684293991775,0.0 -51.5549658,-30.2684413991775,0.0 -51.5551012,-30.2685240991775,0.0 -51.5552501,-30.2686070991775,0.0 -51.5554137,-30.2686720991775,0.0 -51.5556544,-30.2686646991775,0.0 -51.5558841,-30.2686724991775,0.0 -51.556563,-30.2683964991775,0.0 -51.5572824,-30.2680459991775,0.0 -51.5573156,-30.2680063991775,0.0 -51.5573358,-30.2679571991775,0.0 -51.557433,-30.2679506991775,0.0 -51.5574965,-30.2679412991775,0.0 -51.5575449,-30.2679622991775,0.0 -51.5576025,-30.2679982991775,0.0 -51.5576741,-30.2680101991775,0.0 -51.5577615,-30.2679898991775,0.0 -51.5578424,-30.2679788991775,0.0 -51.5578767,-30.2678869991775,0.0 -51.557939,-30.2677967991775,0.0 -51.5580007,-30.2677213991775,0.0 -51.5581462,-30.2676485991775,0.0 -51.5584651,-30.2675659991775,0.0 -51.5586789,-30.2675735991775,0.0 -51.5588022,-30.2673919991775,0.0 -51.5590706,-30.2670073991775,0.0 -51.5595409,-30.2666075991775,0.0 -51.5599188,-30.2662482991775,0.0 -51.5603381,-30.2661393991775,0.0 -51.5607049,-30.2663160991775,0.0 -51.5610241,-30.2665091991775,0.0 -51.5615052,-30.2665846991775,0.0 -51.5617991,-30.2663362991775,0.0 -51.5620831,-30.2661732991775,0.0 -51.5625706,-30.2662477991775,0.0 -51.563106,-30.2664296991775,0.0 -51.5636427,-30.2664925991775,0.0 -51.5640526,-30.2664199991775,0.0 -51.564328,-30.2662916991775,0.0 -51.5645203,-30.2661255991775,0.0 -51.5647949,-30.2659836991775,0.0 -51.5649998,-30.2660320991775,0.0 -51.5652063,-30.2661215991775,0.0 -51.5653504,-30.2662235991775,0.0 -51.5654935,-30.2663459991775,0.0 -51.5656718,-30.2663871991775,0.0 -51.5660948,-30.2662774991775,0.0 -51.5664055,-30.2661512991775,0.0 -51.5667143,-30.2660201991775,0.0 -51.5670165,-30.2659255991775,0.0 -51.5672519,-30.2659211991775,0.0 -51.5674927,-30.2658251991775,0.0 -51.5676784,-30.2656400991775,0.0 -51.5678919,-30.2654980991775,0.0 -51.5682074,-30.2652531991775,0.0 -51.5685352,-30.2650455991775,0.0 -51.5687802,-30.2647858991776,0.0 -51.5691085,-30.2646129991776,0.0 -51.5694219,-30.2644257991776,0.0 -51.5697027,-30.2642763991776,0.0 -51.5700797,-30.2641993991776,0.0 -51.5704389,-30.2641352991776,0.0 -51.5715878,-30.2633385991776,0.0 -51.5719098,-30.2630170991776,0.0 -51.5720778,-30.2627790991776,0.0 -51.5724712,-30.2626245991776,0.0 -51.5729943,-30.2625109991776,0.0 -51.5734566,-30.2624631991776,0.0 -51.5731538,-30.2616879991776,0.0 -51.5728995,-30.2609563991776,0.0 -51.5728318,-30.2605949991776,0.0 -51.5728962,-30.2603317991776,0.0 -51.5731493,-30.2599043991776,0.0 -51.5733465,-30.2595182991776,0.0 -51.5737466,-30.2591716991776,0.0 -51.5741175,-30.2588585991776,0.0 -51.5743915,-30.2585972991776,0.0 -51.5751487,-30.2584612991777,0.0 -51.5764899,-30.2585152991777,0.0 -51.577382,-30.2586090991776,0.0 -51.5785615,-30.2586778991776,0.0 -51.5792486,-30.2586896991776,0.0 -51.5797138,-30.2584114991777,0.0 -51.5802409,-30.2579915991777,0.0 -51.5806345,-30.2575058991777,0.0 -51.580879,-30.2574019991777,0.0 -51.5811939,-30.2573460991777,0.0 -51.5815592,-30.2572650991777,0.0 -51.5819509,-30.2571114991777,0.0 -51.5818857,-30.2560185991777,0.0 -51.5817171,-30.2549426991777,0.0 -51.5816254,-30.2534524991777,0.0 -51.5816158,-30.2527876991777,0.0 -51.5816158,-30.2527831991777,0.0 -51.5817302,-30.2516237991778,0.0 -51.5817569,-30.2503048991778,0.0 -51.5816453,-30.2487991991778,0.0 -51.5811581,-30.2480833991778,0.0 -51.5806141,-30.2474027991778,0.0 -51.58006,-30.2467148991778,0.0 -51.5794871,-30.2460545991778,0.0 -51.5794843,-30.2460514991778,0.0 -51.5792454,-30.2451297991779,0.0 -51.5790832,-30.2440721991779,0.0 -51.5781622,-30.2427788991779,0.0 -51.5776275,-30.2417121991779,0.0 -51.5771803,-30.2404242991779,0.0 -51.5770244,-30.239246099178,0.0 -51.5769987,-30.238904599178,0.0 -51.5770085,-30.238546499178,0.0 -51.5771223,-30.238176399178,0.0 -51.5773406,-30.237767799178,0.0 -51.5774852,-30.237395199178,0.0 -51.5774083,-30.237091999178,0.0 -51.5772611,-30.236788699178,0.0 -51.5770718,-30.236487299178,0.0 -51.5767703,-30.236198699178,0.0 -51.5763962,-30.235885499178,0.0 -51.5761393,-30.235675599178,0.0 -51.5757094,-30.235278699178,0.0 -51.5750143,-30.234599599178,0.0 -51.5748868,-30.234416399178,0.0 -51.5748715,-30.234173799178,0.0 -51.5749085,-30.233963599178,0.0 -51.574993,-30.233606099178,0.0 -51.5751328,-30.2331219991781,0.0 -51.5752001,-30.2326429991781,0.0 -51.5752099,-30.2320885991781,0.0 -51.5752487,-30.2314469991781,0.0 -51.575592,-30.2305103991781,0.0 -51.5760208,-30.2292735991781,0.0 -51.5761718,-30.2288981991781,0.0 -51.5763202,-30.2284999991781,0.0 -51.5766062,-30.2277828991782,0.0 -51.5766893,-30.2276480991781,0.0 -51.5768147,-30.2275356991781,0.0 -51.5770332,-30.2273541991782,0.0 -51.5772487,-30.2272094991782,0.0 -51.5775697,-30.2270438991782,0.0 -51.577861,-30.2267528991782,0.0 -51.5781598,-30.2262832991782,0.0 -51.5783177,-30.2259196991782,0.0 -51.578368,-30.2253949991782,0.0 -51.5783665,-30.2248451991782,0.0 -51.5781882,-30.2235590991782,0.0 -51.5781063,-30.2223800991782,0.0 -51.5780473,-30.2218087991782,0.0 -51.5778906,-30.2211416991783,0.0 -51.5776429,-30.2202757991783,0.0 -51.5774014,-30.2198458991783,0.0 -51.5772208,-30.2194086991783,0.0 -51.5772167,-30.2190228991783,0.0 -51.5776013,-30.2178153991783,0.0 -51.5776526,-30.2173171991783,0.0 -51.5777224,-30.2170597991783,0.0 -51.5778457,-30.2168988991783,0.0 -51.5780569,-30.2167898991783,0.0 -51.5782563,-30.2167178991783,0.0 -51.5789839,-30.2165120991783,0.0 -51.5802094,-30.2161192991783,0.0 -51.5808225,-30.2155778991783,0.0 -51.5815481,-30.2148129991784,0.0 -51.5823037,-30.2140199991784,0.0 -51.5825913,-30.2133437991784,0.0 -51.5827339,-30.2127651991784,0.0 -51.5822264,-30.2110651991784,0.0 -51.5819809,-30.2105855991784,0.0 -51.5816911,-30.2103506991784,0.0 -51.5813222,-30.2100999991784,0.0 -51.5800251,-30.2092549991784,0.0 -51.5794393,-30.2089731991784,0.0 -51.5783086,-30.2079978991785,0.0 -51.5778467,-30.2075374991785,0.0 -51.5773494,-30.2069798991785,0.0 -51.5768008,-30.2062533991785,0.0 -51.5762156,-30.2057051991785,0.0 -51.5758582,-30.2051671991785,0.0 -51.5748876,-30.2037902991785,0.0 -51.5744901,-30.2031226991785,0.0 -51.5741901,-30.2025911991785,0.0 -51.573968,-30.2022906991786,0.0 -51.5737827,-30.2021026991786,0.0 -51.5736179,-30.2020063991786,0.0 -51.5730252,-30.2017047991786,0.0 -51.5723557,-30.2013920991786,0.0 -51.5718214,-30.2012499991786,0.0 -51.5710847,-30.2010556991786,0.0 -51.5696535,-30.2006899991786,0.0 -51.5687419,-30.2004273991786,0.0 -51.568315,-30.2003662991786,0.0 -51.5680329,-30.2004186991786,0.0 -51.5677625,-30.2005127991786,0.0 -51.5673523,-30.2006820991786,0.0 -51.5656449,-30.2014404991786,0.0 -51.565246,-30.2015524991786,0.0 -51.564849,-30.2016230991786,0.0 -51.5645682,-30.2015993991786,0.0 -51.5640449,-30.2014633991786,0.0 -51.5638053,-30.2014154991786,0.0 -51.563533,-30.2013795991786,0.0 -51.5632282,-30.2014133991786,0.0 -51.5628862,-30.2015089991786,0.0 -51.5618222,-30.2019594991786,0.0 -51.5611046,-30.2022778991786,0.0 -51.560376,-30.2026422991785,0.0 -51.5600108,-30.2029946991785,0.0 -51.5597883,-30.2032056991786,0.0 -51.5594827,-30.2033533991785,0.0 -51.5591846,-30.2033308991785,0.0 -51.5588031,-30.2032007991785,0.0 -51.558534,-30.2030644991785,0.0 -51.5582668,-30.2028248991785,0.0 -51.5580344,-30.2025367991786,0.0 -51.5577333,-30.2021962991786,0.0 -51.557465,-30.2020084991786,0.0 -51.5570966,-30.2017987991786,0.0 -51.5567399,-30.2015994991786,0.0 -51.5565845,-30.2015152991786,0.0 -51.5564307,-30.2013606991786,0.0 -51.5563604,-30.2010748991786,0.0 -51.5563631,-30.2007887991786,0.0 -51.5564765,-30.2001586991786,0.0 -51.5565363,-30.1998101991786,0.0 -51.55654,-30.1995466991786,0.0 -51.5564864,-30.1992670991786,0.0 -51.5563924,-30.1989686991786,0.0 -51.5561994,-30.1985036991786,0.0 -51.5560795,-30.1982575991786,0.0 -51.5558771,-30.1980232991786,0.0 -51.5550414,-30.1971180991786,0.0 -51.5545329,-30.1964865991787,0.0 -51.5540843,-30.1958398991787,0.0 -51.5538569,-30.1952419991787,0.0 -51.5537005,-30.1947103991787,0.0 -51.5535645,-30.1942660991787,0.0 -51.553502,-30.1937843991787,0.0 -51.5534081,-30.1935427991787,0.0 -51.5532352,-30.1932864991787,0.0 -51.5529814,-30.1930985991787,0.0 -51.5521036,-30.1926222991787,0.0 -51.5515994,-30.1923557991787,0.0 -51.5513034,-30.1921643991787,0.0 -51.5510483,-30.1919016991787,0.0 -51.5508854,-30.1916510991787,0.0 -51.5507087,-30.1912906991787,0.0 -51.5505079,-30.1908689991787,0.0 -51.5503855,-30.1905398991787,0.0 -51.5502633,-30.1902501991788,0.0 -51.5499082,-30.1895960991788,0.0 -51.5495687,-30.1886333991788,0.0 -51.5493318,-30.1879487991788,0.0 -51.5492512,-30.1876343991788,0.0 -51.5493575,-30.1871127991788,0.0 -51.5494076,-30.1866765991788,0.0 -51.5493309,-30.1863918991788,0.0 -51.5492243,-30.1861052991788,0.0 -51.5491006,-30.1858835991788,0.0 -51.5489664,-30.1856379991788,0.0 -51.5488204,-30.1854119991788,0.0 -51.5485246,-30.1848358991788,0.0 -51.5483798,-30.1846194991788,0.0 -51.5480133,-30.1844719991788,0.0 -51.5475858,-30.1844285991788,0.0 -51.5471765,-30.1844667991789,0.0 -51.5466191,-30.1845084991788,0.0 -51.5461987,-30.1845359991788,0.0 -51.5456737,-30.1845497991788,0.0 -51.5452424,-30.1845788991788,0.0 -51.5449383,-30.1846597991788,0.0 -51.5446607,-30.1847056991788,0.0 -51.5442453,-30.1846697991788,0.0 -51.54385,-30.1845376991788,0.0 -51.5434617,-30.1843867991788,0.0 -51.5432779,-30.1841997991789,0.0 -51.5430995,-30.1839706991789,0.0 -51.5427526,-30.1832115991789,0.0 -51.5426064,-30.1830095991789,0.0 -51.5423751,-30.1827555991789,0.0 -51.541847,-30.1822571991789,0.0 -51.5416235,-30.1819322991789,0.0 -51.5414567,-30.1816249991789,0.0 -51.5413843,-30.1813429991789,0.0 -51.5414127,-30.1809506991789,0.0 -51.5414891,-30.1805209991789,0.0 -51.5414994,-30.1803212991789,0.0 -51.5413415,-30.1797694991789,0.0 -51.5411823,-30.1791411991789,0.0 -51.5410584,-30.1786020991789,0.0 -51.5406287,-30.177759299179,0.0 -51.5404279,-30.177282999179,0.0 -51.5403668,-30.176814299179,0.0 -51.5406809,-30.175637699179,0.0 -51.5406707,-30.175279599179,0.0 -51.5404411,-30.175013999179,0.0 -51.5400224,-30.174746199179,0.0 -51.5395693,-30.174560299179,0.0 -51.5390742,-30.174416199179,0.0 -51.5392957,-30.173416999179,0.0 -51.5396942,-30.171993899179,0.0 -51.5401599,-30.1703411991791,0.0 -51.5402608,-30.1701016991791,0.0 -51.5403954,-30.1698633991791,0.0 -51.5412585,-30.1685930991791,0.0 -51.541763,-30.1678600991791,0.0 -51.5419123,-30.1675955991791,0.0 -51.5420387,-30.1672833991791,0.0 -51.5420427,-30.1669234991791,0.0 -51.5420048,-30.1659395991791,0.0 -51.5419257,-30.1653881991792,0.0 -51.5419628,-30.1641699991792,0.0 -51.5420655,-30.1635822991792,0.0 -51.5422406,-30.1630414991792,0.0 -51.5423702,-30.1626389991792,0.0 -51.5424228,-30.1623058991792,0.0 -51.5423476,-30.1620090991792,0.0 -51.5422471,-30.1617976991792,0.0 -51.5416801,-30.1608696991792,0.0 -51.541255,-30.1600254991792,0.0 -51.5408661,-30.1593995991793,0.0 -51.5407574,-30.1591308991793,0.0 -51.5405984,-30.1576678991793,0.0 -51.5405561,-30.1568102991793,0.0 -51.5404474,-30.1564011991793,0.0 -51.5403204,-30.1560618991793,0.0 -51.5401544,-30.1557600991793,0.0 -51.5400398,-30.1556401991793,0.0 -51.539353,-30.1548788991793,0.0 -51.5392562,-30.1547080991793,0.0 -51.5390125,-30.1539830991793,0.0 -51.5389245,-30.1538096991793,0.0 -51.5387942,-30.1536062991794,0.0 -51.5385637,-30.1534128991793,0.0 -51.5376747,-30.1526074991794,0.0 -51.5374884,-30.1524727991794,0.0 -51.5373108,-30.1523283991794,0.0 -51.5372037,-30.1522222991794,0.0 -51.5360566,-30.1511372991794,0.0 -51.5358948,-30.1510008991794,0.0 -51.5356415,-30.1510297991794,0.0 -51.533281,-30.1514244991794,0.0 -51.5329171,-30.1513846991794,0.0 -51.5325606,-30.1513279991794,0.0 -51.5321245,-30.1512412991794,0.0 -51.5315717,-30.1511302991794,0.0 -51.5310919,-30.1510582991794,0.0 -51.5306382,-30.1510013991794,0.0 -51.5302767,-30.1509106991794,0.0 -51.529921,-30.1507853991794,0.0 -51.5285884,-30.1501992991794,0.0 -51.5282297,-30.1500071991794,0.0 -51.5281018,-30.1499453991794,0.0 -51.5279421,-30.1498889991794,0.0 -51.5269504,-30.1495478991794,0.0 -51.5259213,-30.1492326991794,0.0 -51.5257141,-30.1491581991794,0.0 -51.525486,-30.1491053991794,0.0 -51.5252352,-30.1490725991794,0.0 -51.5249841,-30.1490581991794,0.0 -51.5245594,-30.1490243991794,0.0 -51.5239706,-30.1489349991794,0.0 -51.5234919,-30.1487876991794,0.0 -51.5229923,-30.1485968991794,0.0 -51.5226306,-30.1484082991794,0.0 -51.5222963,-30.1481820991794,0.0 -51.5220123,-30.1479350991794,0.0 -51.5216619,-30.1475984991794,0.0 -51.5212766,-30.1473131991795,0.0 -51.5209371,-30.1470703991795,0.0 -51.5207295,-30.1468973991795,0.0 -51.5203,-30.1465823991795,0.0 -51.5197661,-30.1460967991795,0.0 -51.5195298,-30.1459099991795,0.0 -51.5190612,-30.1456246991795,0.0 -51.5177574,-30.1449161991795,0.0 -51.5173006,-30.1446065991795,0.0 -51.5170357,-30.1443273991795,0.0 -51.5168862,-30.1441723991795,0.0 -51.5165042,-30.1438469991795,0.0 -51.5159774,-30.1435115991795,0.0 -51.5155678,-30.1432432991795,0.0 -51.5150745,-30.1428642991795,0.0 -51.5146236,-30.1425632991795,0.0 -51.5141055,-30.1422702991795,0.0 -51.5136701,-30.1419893991795,0.0 -51.5133652,-30.1417853991795,0.0 -51.5131059,-30.1416674991795,0.0 -51.5129139,-30.1415772991795,0.0 -51.5126019,-30.1414669991795,0.0 -51.5122103,-30.1413281991795,0.0 -51.5118292,-30.1412178991795,0.0 -51.5112725,-30.1410416991795,0.0 -51.5110794,-30.1409860991795,0.0 -51.5109427,-30.1409613991796,0.0 -51.5106444,-30.1409660991796,0.0 -51.5104387,-30.1409535991795,0.0 -51.5100199,-30.1408115991796,0.0 -51.5098717,-30.1407040991796,0.0 -51.5096811,-30.1406107991796,0.0 -51.5095478,-30.1405165991796,0.0 -51.5093859,-30.1403705991796,0.0 -51.5092701,-30.1402005991796,0.0 -51.5091865,-30.1400597991796,0.0 -51.5090849,-30.1398997991796,0.0 -51.5089792,-30.1396217991796,0.0 -51.5087932,-30.1386827991796,0.0 -51.5086823,-30.1382621991796,0.0 -51.5085005,-30.1377579991796,0.0 -51.5083717,-30.1375516991796,0.0 -51.5081799,-30.1373318991796,0.0 -51.5080146,-30.1371501991796,0.0 -51.5075651,-30.1367428991796,0.0 -51.5073793,-30.1365917991796,0.0 -51.5068345,-30.1361692991796,0.0 -51.5064002,-30.1358816991796,0.0 -51.5062765,-30.1354785991796,0.0 -51.5061496,-30.1351589991796,0.0 -51.5059625,-30.1349300991796,0.0 -51.5057855,-30.1347591991797,0.0 -51.5055617,-30.1345851991797,0.0 -51.5052758,-30.1344227991797,0.0 -51.5050104,-30.1343176991797,0.0 -51.5033148,-30.1336937991797,0.0 -51.5030459,-30.1335997991797,0.0 -51.5027908,-30.1336087991797,0.0 -51.5025899,-30.1336528991797,0.0 -51.5020173,-30.1338083991797,0.0 -51.5013981,-30.1340716991797,0.0 -51.5010451,-30.1341378991797,0.0 -51.5007584,-30.1341613991797,0.0 -51.5004734,-30.1341694991797,0.0 -51.5001868,-30.1341060991797,0.0 -51.4999038,-30.1339869991797,0.0 -51.4996724,-30.1338127991797,0.0 -51.4995355,-30.1336492991797,0.0 -51.4992908,-30.1332010991797,0.0 -51.4991154,-30.1329365991797,0.0 -51.498829,-30.1326737991797,0.0 -51.4981208,-30.1319370991797,0.0 -51.4979427,-30.1318131991797,0.0 -51.497702,-30.1317435991797,0.0 -51.4972839,-30.1316978991797,0.0 -51.4967709,-30.1315923991797,0.0 -51.4965587,-30.1315252991797,0.0 -51.4963875,-30.1314093991797,0.0 -51.4962448,-30.1312952991797,0.0 -51.4959964,-30.1310403991797,0.0 -51.4957289,-30.1307665991797,0.0 -51.4955958,-30.1304277991797,0.0 -51.4955221,-30.1300681991797,0.0 -51.4955821,-30.1298640991797,0.0 -51.4957887,-30.1294349991797,0.0 -51.4958473,-30.1291393991798,0.0 -51.4957512,-30.1289353991797,0.0 -51.4956845,-30.1285362991798,0.0 -51.4956031,-30.1283096991798,0.0 -51.49549,-30.1281090991798,0.0 -51.4945772,-30.1266515991798,0.0 -51.4936121,-30.1255848991798,0.0 -51.4935103,-30.1252361991798,0.0 -51.493576,-30.1250169991798,0.0 -51.4938096,-30.1247371991798,0.0 -51.4945149,-30.1240483991798,0.0 -51.494817,-30.1237800991798,0.0 -51.4949818,-30.1235809991798,0.0 -51.4952857,-30.1232900991798,0.0 -51.4948794,-30.1227295991798,0.0 -51.4944075,-30.1220738991799,0.0 -51.4941513,-30.1217830991799,0.0 -51.493728,-30.1216091991799,0.0 -51.4930834,-30.1213505991799,0.0 -51.4906368,-30.1205207991799,0.0 -51.4901369,-30.1205231991799,0.0 -51.4894537,-30.1205884991799,0.0 -51.4881172,-30.1207419991799,0.0 -51.4879366,-30.1207463991799,0.0 -51.487761,-30.1207237991799,0.0 -51.4870769,-30.1205887991799,0.0 -51.4865951,-30.1206068991799,0.0 -51.4854692,-30.1206980991799,0.0 -51.4850489,-30.1206905991799,0.0 -51.4848274,-30.1207102991799,0.0 -51.4845753,-30.1207759991799,0.0 -51.4843016,-30.1208286991799,0.0 -51.4840249,-30.1208813991799,0.0 -51.4838122,-30.1209060991799,0.0 -51.4836384,-30.1208881991799,0.0 -51.4834792,-30.1208265991799,0.0 -51.4833201,-30.1207298991799,0.0 -51.4815928,-30.1192363991799,0.0 -51.4814501,-30.1191460991799,0.0 -51.4812503,-30.1190902991799,0.0 -51.4802455,-30.1189191991799,0.0 -51.4799985,-30.1188876991799,0.0 -51.4797111,-30.1188868991799,0.0 -51.478137,-30.1189350991799,0.0 -51.4767038,-30.1190280991799,0.0 -51.4763573,-30.1191818991799,0.0 -51.4756331,-30.1196852991799,0.0 -51.474668,-30.1202023991799,0.0 -51.4741946,-30.1204544991799,0.0 -51.4736135,-30.1205971991799,0.0 -51.4732338,-30.1206915991799,0.0 -51.4719564,-30.1210674991799,0.0 -51.471336,-30.1212191991799,0.0 -51.4711701,-30.1210359991799,0.0 -51.4710215,-30.1207679991799,0.0 -51.4703866,-30.1201812991799,0.0 -51.4698381,-30.1196913991799,0.0 -51.4679394,-30.1186344991799,0.0 -51.4669644,-30.1180756991799,0.0 -51.4666326,-30.1179029991799,0.0 -51.4663186,-30.1178219991799,0.0 -51.4634671,-30.1171933991799,0.0 -51.4632498,-30.1171225991799,0.0 -51.463102,-30.1169728991799,0.0 -51.4629853,-30.1167623991799,0.0 -51.4626997,-30.11614129918,0.0 -51.4620628,-30.11400349918,0.0 -51.4618531,-30.11316539918,0.0 -51.4615902,-30.11228639918,0.0 -51.4614818,-30.11186359918,0.0 -51.4613175,-30.11132049918,0.0 -51.4612539,-30.11113569918,0.0 -51.4611343,-30.11088299918,0.0 -51.4606467,-30.10994699918,0.0 -51.4605563,-30.1098111991801,0.0 -51.4601872,-30.1093474991801,0.0 -51.4592212,-30.1083665991801,0.0 -51.4588327,-30.1079475991801,0.0 -51.4587459,-30.1078110991801,0.0 -51.4581936,-30.1067296991801,0.0 -51.457588,-30.1056026991801,0.0 -51.4574637,-30.1053875991801,0.0 -51.4572842,-30.1052155991801,0.0 -51.4558627,-30.1042499991802,0.0 -51.4543296,-30.1032288991802,0.0 -51.453517,-30.1026719991802,0.0 -51.4527788,-30.1020569991802,0.0 -51.4526567,-30.1019628991802,0.0 -51.4525264,-30.1018759991802,0.0 -51.4517695,-30.1013038991802,0.0 -51.4507745,-30.1006141991802,0.0 -51.4494436,-30.0998820991802,0.0 -51.449239,-30.0998114991802,0.0 -51.4480472,-30.0993896991802,0.0 -51.4472638,-30.0991245991802,0.0 -51.44642,-30.0988585991802,0.0 -51.4458682,-30.0986798991802,0.0 -51.4455611,-30.0985667991802,0.0 -51.4453181,-30.0984338991802,0.0 -51.4452331,-30.0983405991802,0.0 -51.4448649,-30.0977534991803,0.0 -51.4447519,-30.0976141991803,0.0 -51.4446288,-30.0975528991803,0.0 -51.4427432,-30.0965162991803,0.0 -51.4402077,-30.0950854991803,0.0 -51.4399374,-30.0949456991803,0.0 -51.4397938,-30.0948793991803,0.0 -51.4395273,-30.0948677991803,0.0 -51.4358849,-30.0949833991803,0.0 -51.4356732,-30.0949550991803,0.0 -51.4355041,-30.0948714991803,0.0 -51.4353691,-30.0947316991803,0.0 -51.4351605,-30.0944969991803,0.0 -51.4349461,-30.0942183991803,0.0 -51.4347995,-30.0939665991803,0.0 -51.4347143,-30.0937695991803,0.0 -51.4341714,-30.0923604991804,0.0 -51.434059,-30.0920095991804,0.0 -51.4336062,-30.0909534991804,0.0 -51.4335294,-30.0908129991804,0.0 -51.4333509,-30.0907327991804,0.0 -51.4322172,-30.0904114991804,0.0 -51.4321232,-30.0906276991804,0.0 -51.4315914,-30.0913443991804,0.0 -51.431104,-30.0919483991804,0.0 -51.4305079,-30.0927357991803,0.0 -51.4303224,-30.0929422991803,0.0 -51.4300757,-30.0930577991803,0.0 -51.4298946,-30.0930778991803,0.0 -51.4297634,-30.0930996991803,0.0 -51.4295493,-30.0931590991803,0.0 -51.4288234,-30.0933230991803,0.0 -51.4283979,-30.0934424991803,0.0 -51.4273442,-30.0933294991803,0.0 -51.4271142,-30.0933119991803,0.0 -51.4267166,-30.0932716991803,0.0 -51.4252933,-30.0927811991803,0.0 -51.4199591,-30.0942514991803,0.0 -51.4190449,-30.0942739991803,0.0 -51.4130223,-30.0944219991803,0.0 -51.4129757,-30.0952784991803,0.0 -51.4087955,-30.0953659991803,0.0 -51.4079343,-30.0963958991803,0.0 -51.4076078,-30.0963456991803,0.0 -51.4071701,-30.0963913991803,0.0 -51.4068601,-30.0963592991803,0.0 -51.4064392,-30.0963439991803,0.0 -51.4058984,-30.0963644991803,0.0 -51.4055117,-30.0963531991803,0.0 -51.4052946,-30.0963774991803,0.0 -51.4051457,-30.0963550991803,0.0 -51.405002,-30.0964343991803,0.0 -51.4048365,-30.0965352991803,0.0 -51.4047311,-30.0965192991803,0.0 -51.4046303,-30.0965396991803,0.0 -51.4043589,-30.0966405991803,0.0 -51.4041468,-30.0966782991803,0.0 -51.4037918,-30.0967950991803,0.0 -51.403733,-30.0969198991803,0.0 -51.4036244,-30.0968650991803,0.0 -51.403337,-30.0969647991803,0.0 -51.4025262,-30.0975448991803,0.0 -51.4021594,-30.0980346991803,0.0 -51.4016875,-30.0984926991802,0.0 -51.4012308,-30.0989414991802,0.0 -51.4006663,-30.0991691991802,0.0 -51.3999772,-30.0992841991802,0.0 -51.3991205,-30.0993926991802,0.0 -51.3985484,-30.0995149991802,0.0 -51.398332,-30.0995907991802,0.0 -51.3981615,-30.0996879991802,0.0 -51.3979789,-30.0998877991802,0.0 -51.3977874,-30.1000444991802,0.0 -51.3975759,-30.1000798991802,0.0 -51.3964779,-30.1003160991802,0.0 -51.3959199,-30.1005035991802,0.0 -51.3956483,-30.1005693991802,0.0 -51.3951376,-30.1008139991802,0.0 -51.394841,-30.1008466991802,0.0 -51.3945686,-30.1008696991802,0.0 -51.3943092,-30.1009991991802,0.0 -51.3938601,-30.1011968991802,0.0 -51.3936278,-30.1012717991802,0.0 -51.3933643,-30.1012536991802,0.0 -51.3900438,-30.0995754991802,0.0 -51.3900515,-30.0993120991802,0.0 -51.3883479,-30.0984316991802,0.0 -51.3868881,-30.0978048991803,0.0 -51.3862749,-30.0974782991803,0.0 -51.3859117,-30.0973588991803,0.0 -51.3848789,-30.0972492991803,0.0 -51.3847036,-30.0968480991803,0.0 -51.3844035,-30.0966619991803,0.0 -51.3838738,-30.0964546991803,0.0 -51.3833031,-30.0960593991803,0.0 -51.3828043,-30.0959950991803,0.0 -51.3824409,-30.0959393991803,0.0 -51.3814309,-30.0963167991803,0.0 -51.3808485,-30.0963374991803,0.0 -51.380233,-30.0964011991803,0.0 -51.3799762,-30.0965697991803,0.0 -51.3800053,-30.0967949991803,0.0 -51.3799019,-30.0971914991803,0.0 -51.3769215,-30.0975463991803,0.0 -51.3763984,-30.0969553991803,0.0 -51.3735484,-30.0971170991803,0.0 -51.3734723,-30.0969487991803,0.0 -51.3721919,-30.0968287991803,0.0 -51.3696992,-30.0967146991803,0.0 -51.3695195,-30.0965605991803,0.0 -51.3692757,-30.0964845991803,0.0 -51.3690466,-30.0961380991803,0.0 -51.3686264,-30.0956125991803,0.0 -51.3681054,-30.0943894991803,0.0 -51.368389,-30.0942354991803,0.0 -51.3685066,-30.0940933991803,0.0 -51.3685275,-30.0939585991803,0.0 -51.3686974,-30.0938988991803,0.0 -51.368824,-30.0937488991803,0.0 -51.3688168,-30.0936051991803,0.0 -51.3687234,-30.0934942991803,0.0 -51.3685745,-30.0933907991803,0.0 -51.3681974,-30.0932102991803,0.0 -51.3675811,-30.0929476991803,0.0 -51.3674103,-30.0926308991803,0.0 -51.3672318,-30.0923246991803,0.0 -51.3670032,-30.0917838991804,0.0 -51.3667585,-30.0911236991804,0.0 -51.3662118,-30.0905092991804,0.0 -51.3661214,-30.0903349991804,0.0 -51.3659786,-30.0900973991804,0.0 -51.365764,-30.0898374991804,0.0 -51.3656152,-30.0896750991804,0.0 -51.365539,-30.0895516991804,0.0 -51.3652981,-30.0889001991804,0.0 -51.365102,-30.0885949991804,0.0 -51.3646672,-30.0882570991804,0.0 -51.3643751,-30.0880711991804,0.0 -51.3640543,-30.0879123991804,0.0 -51.3634388,-30.0872432991804,0.0 -51.3615426,-30.0875531991804,0.0 -51.3598802,-30.0862522991804,0.0 -51.3581146,-30.0848365991805,0.0 -51.3570632,-30.0839925991805,0.0 -51.356712,-30.0839704991805,0.0 -51.3565478,-30.0832356991805,0.0 -51.3565365,-30.0826293991805,0.0 -51.3564413,-30.0820148991805,0.0 -51.3564014,-30.0818345991805,0.0 -51.3561974,-30.0811817991805,0.0 -51.3559968,-30.0805833991805,0.0 -51.3558054,-30.0799309991805,0.0 -51.3560194,-30.0796041991805,0.0 -51.3558119,-30.0792507991806,0.0 -51.3555184,-30.0788098991806,0.0 -51.3553477,-30.0785481991806,0.0 -51.3550671,-30.0781604991806,0.0 -51.354213,-30.0769647991806,0.0 -51.3521891,-30.0743241991806,0.0 -51.3519928,-30.0740690991806,0.0 -51.3517486,-30.0737782991806,0.0 -51.3512545,-30.0732004991807,0.0 -51.3506574,-30.0724183991807,0.0 -51.3501669,-30.0716507991807,0.0 -51.3499639,-30.0714325991807,0.0 -51.3496733,-30.0711942991807,0.0 -51.349434,-30.0709835991807,0.0 -51.3492317,-30.0708340991807,0.0 -51.3489212,-30.0705748991807,0.0 -51.3486525,-30.0702990991807,0.0 -51.3472382,-30.0691091991807,0.0 -51.3470878,-30.0690596991807,0.0 -51.3469244,-30.0689191991807,0.0 -51.3458037,-30.0678711991807,0.0 -51.34548,-30.0672586991808,0.0 -51.3453356,-30.0667325991808,0.0 -51.3446406,-30.0660865991808,0.0 -51.3444979,-30.0658166991808,0.0 -51.3440978,-30.0653049991808,0.0 -51.3439411,-30.0650359991808,0.0 -51.3437103,-30.0647869991808,0.0 -51.3437348,-30.0642290991808,0.0 -51.3442912,-30.0636652991808,0.0 -51.3446203,-30.0632100991808,0.0 -51.3447037,-30.0628082991808,0.0 -51.3444629,-30.0623712991808,0.0 -51.3443073,-30.0617158991809,0.0 -51.3437244,-30.0613572991809,0.0 -51.3428716,-30.0611704991809,0.0 -51.3424563,-30.0609388991809,0.0 -51.3420484,-30.0605627991809,0.0 -51.3417056,-30.0604726991809,0.0 -51.3412037,-30.0605126991809,0.0 -51.3407395,-30.0604410991809,0.0 -51.3400259,-30.0601340991809,0.0 -51.3397397,-30.0596439991809,0.0 -51.339498,-30.0595182991809,0.0 -51.3390458,-30.0595353991809,0.0 -51.3386315,-30.0596438991809,0.0 -51.3384464,-30.0597059991809,0.0 -51.3377681,-30.0597059991809,0.0 -51.3365165,-30.0595885991809,0.0 -51.3358276,-30.0593352991809,0.0 -51.3357793,-30.0589776991809,0.0 -51.3356585,-30.0586640991809,0.0 -51.3353539,-30.0584887991809,0.0 -51.3348621,-30.0584541991809,0.0 -51.3330564,-30.0574410991809,0.0 -51.3320064,-30.0570588991809,0.0 -51.3311211,-30.0569004991809,0.0 -51.3303002,-30.0570242991809,0.0 -51.3293986,-30.0572183991809,0.0 -51.3284806,-30.0576858991809,0.0 -51.3269699,-30.0579609991809,0.0 -51.325762,-30.0576729991809,0.0 -51.324731,-30.0575695991809,0.0 -51.3239824,-30.0573013991809,0.0 -51.3238609,-30.0572384991809,0.0 -51.323576,-30.0572021991809,0.0 -51.3234274,-30.0572469991809,0.0 -51.3233214,-30.0573026991809,0.0 -51.3230898,-30.0575828991809,0.0 -51.3229718,-30.0576317991809,0.0 -51.3227805,-30.0575021991809,0.0 -51.3226667,-30.0573025991809,0.0 -51.3224988,-30.0572203991809,0.0 -51.322331,-30.0572867991809,0.0 -51.3220024,-30.0573684991809,0.0 -51.3219221,-30.0572512991809,0.0 -51.321967,-30.0569224991809,0.0 -51.3218497,-30.0566941991809,0.0 -51.3216726,-30.0566792991809,0.0 -51.3211312,-30.0568559991809,0.0 -51.3209384,-30.0575334991809,0.0 -51.3208666,-30.0576428991809,0.0 -51.3207241,-30.0577194991809,0.0 -51.3205946,-30.0577190991809,0.0 -51.3204839,-30.0576354991809,0.0 -51.3202921,-30.0570704991809,0.0 -51.3201016,-30.0569548991809,0.0 -51.3199264,-30.0570005991809,0.0 -51.3198508,-30.0571616991809,0.0 -51.3199189,-30.0576882991809,0.0 -51.3198233,-30.0578249991809,0.0 -51.3195576,-30.0577974991809,0.0 -51.3193098,-30.0577368991809,0.0 -51.3191772,-30.0576353991809,0.0 -51.3189398,-30.0573236991809,0.0 -51.3188386,-30.0570872991809,0.0 -51.318787,-30.0569568991809,0.0 -51.318674,-30.0568836991809,0.0 -51.3185362,-30.0569426991809,0.0 -51.3183722,-30.0571107991809,0.0 -51.3181994,-30.0572342991809,0.0 -51.3180453,-30.0572949991809,0.0 -51.317896,-30.0570946991809,0.0 -51.3177356,-30.0570008991809,0.0 -51.3175644,-30.0570867991809,0.0 -51.3173976,-30.0572363991809,0.0 -51.3160073,-30.0577940991809,0.0 -51.3154717,-30.0576845991809,0.0 -51.3151992,-30.0575724991809,0.0 -51.314991,-30.0574052991809,0.0 -51.3148587,-30.0572004991809,0.0 -51.3148991,-30.0566049991809,0.0 -51.3149658,-30.0564077991809,0.0 -51.3148865,-30.0562157991809,0.0 -51.3146859,-30.0561001991809,0.0 -51.3143711,-30.0561529991809,0.0 -51.3139524,-30.0563402991809,0.0 -51.3135834,-30.0565556991809,0.0 -51.3133301,-30.0563929991809,0.0 -51.3131839,-30.0559169991809,0.0 -51.3130513,-30.055527799181,0.0 -51.3131213,-30.055120099181,0.0 -51.3130728,-30.0549618991809,0.0 -51.3129027,-30.054791699181,0.0 -51.3125746,-30.054728799181,0.0 -51.3118741,-30.054754099181,0.0 -51.3117417,-30.054315899181,0.0 -51.3117921,-30.054015299181,0.0 -51.3119371,-30.053488199181,0.0 -51.3119573,-30.053213399181,0.0 -51.3118537,-30.052952899181,0.0 -51.3117134,-30.052731599181,0.0 -51.3114688,-30.052541299181,0.0 -51.311035,-30.052308799181,0.0 -51.310665,-30.052223299181,0.0 -51.3103384,-30.052233999181,0.0 -51.3100253,-30.052277499181,0.0 -51.3096786,-30.052452299181,0.0 -51.3093396,-30.052728099181,0.0 -51.3091892,-30.053001299181,0.0 -51.3091732,-30.053230099181,0.0 -51.3092491,-30.053334499181,0.0 -51.3095342,-30.053495499181,0.0 -51.3095717,-30.053699899181,0.0 -51.3094553,-30.053902399181,0.0 -51.3092071,-30.054074599181,0.0 -51.308861,-30.054279399181,0.0 -51.3085848,-30.054264999181,0.0 -51.3083063,-30.054215799181,0.0 -51.308065,-30.054104299181,0.0 -51.3079257,-30.053922799181,0.0 -51.3077175,-30.053751699181,0.0 -51.307575,-30.053524199181,0.0 -51.3070041,-30.053173199181,0.0 -51.3066715,-30.053042599181,0.0 -51.3064167,-30.052966499181,0.0 -51.3061278,-30.052933399181,0.0 -51.3059915,-30.053075899181,0.0 -51.3058898,-30.053183299181,0.0 -51.3057333,-30.053220099181,0.0 -51.3055296,-30.053147499181,0.0 -51.3052599,-30.052896699181,0.0 -51.3051727,-30.052747699181,0.0 -51.3050242,-30.052646499181,0.0 -51.3048386,-30.052564199181,0.0 -51.3046583,-30.052504399181,0.0 -51.3044604,-30.052492499181,0.0 -51.3042798,-30.052499499181,0.0 -51.3040997,-30.052598099181,0.0 -51.3039181,-30.052661099181,0.0 -51.3035769,-30.052624499181,0.0 -51.3033675,-30.052619199181,0.0 -51.3032583,-30.052688399181,0.0 -51.3033007,-30.052868199181,0.0 -51.3032835,-30.053082799181,0.0 -51.3030901,-30.053383999181,0.0 -51.302653,-30.053509999181,0.0 -51.3023536,-30.053464799181,0.0 -51.3022033,-30.053512599181,0.0 -51.3020089,-30.053693199181,0.0 -51.3015458,-30.053841199181,0.0 -51.3011507,-30.054175899181,0.0 -51.3019109,-30.054395499181,0.0 -51.302217,-30.054283399181,0.0 -51.3026097,-30.054292199181,0.0 -51.3029533,-30.054633299181,0.0 -51.3031725,-30.054724899181,0.0 -51.3033405,-30.054689699181,0.0 -51.3034093,-30.054525899181,0.0 -51.3032272,-30.054136799181,0.0 -51.3032436,-30.053890799181,0.0 -51.3033796,-30.053651299181,0.0 -51.3037147,-30.053520099181,0.0 -51.3041196,-30.053384899181,0.0 -51.3043431,-30.053434299181,0.0 -51.3045107,-30.053586199181,0.0 -51.3045386,-30.053753199181,0.0 -51.304647,-30.053843599181,0.0 -51.3048025,-30.053880599181,0.0 -51.3050952,-30.053894999181,0.0 -51.3051916,-30.053990599181,0.0 -51.3052153,-30.054166399181,0.0 -51.3051722,-30.054381999181,0.0 -51.3052308,-30.054516999181,0.0 -51.3054344,-30.054793999181,0.0 -51.3054527,-30.0550473991809,0.0 -51.305384,-30.0557815991809,0.0 -51.3049732,-30.0569915991809,0.0 -51.3052608,-30.0571642991809,0.0 -51.3050407,-30.0576125991809,0.0 -51.3051689,-30.0579716991809,0.0 -51.3053935,-30.0578771991809,0.0 -51.3055501,-30.0579741991809,0.0 -51.3055478,-30.0582311991809,0.0 -51.305421,-30.0585348991809,0.0 -51.3055413,-30.0586092991809,0.0 -51.3053397,-30.0589643991809,0.0 -51.3053919,-30.0591507991809,0.0 -51.3053021,-30.0596227991809,0.0 -51.3057878,-30.0604990991809,0.0 -51.3058924,-30.0608748991809,0.0 -51.3056712,-30.0613103991808,0.0 -51.3056723,-30.0615489991809,0.0 -51.3059058,-30.0617994991808,0.0 -51.3059914,-30.0621298991808,0.0 -51.3063446,-30.0622940991808,0.0 -51.3067441,-30.0623028991808,0.0 -51.3069141,-30.0622213991808,0.0 -51.3072034,-30.0618489991808,0.0 -51.3072493,-30.0615057991808,0.0 -51.3073706,-30.0611911991809,0.0 -51.3076008,-30.0610576991809,0.0 -51.307827,-30.0610200991809,0.0 -51.3080563,-30.0611659991809,0.0 -51.3080796,-30.0613136991809,0.0 -51.3079876,-30.0614593991808,0.0 -51.3081399,-30.0616840991809,0.0 -51.308156,-30.0618982991808,0.0 -51.3083804,-30.0620301991808,0.0 -51.3085719,-30.0620245991808,0.0 -51.3085493,-30.0618601991808,0.0 -51.308779,-30.0617040991808,0.0 -51.3091278,-30.0618146991809,0.0 -51.309323,-30.0622187991808,0.0 -51.3097236,-30.0634464991808,0.0 -51.3096446,-30.0636975991808,0.0 -51.3092548,-30.0639921991808,0.0 -51.308696,-30.0643463991808,0.0 -51.3085026,-30.0648154991808,0.0 -51.3085407,-30.0652314991808,0.0 -51.3088429,-30.0661523991808,0.0 -51.3091775,-30.0669737991808,0.0 -51.3091856,-30.0675211991807,0.0 -51.3092886,-30.0679431991807,0.0 -51.3095713,-30.0682117991807,0.0 -51.3102219,-30.0716721991807,0.0 -51.310414,-30.0718999991807,0.0 -51.3106399,-30.0719382991807,0.0 -51.3108966,-30.0723107991807,0.0 -51.311078,-30.0722661991807,0.0 -51.3112405,-30.0720363991807,0.0 -51.3116102,-30.0720022991807,0.0 -51.3121488,-30.0724436991807,0.0 -51.3124365,-30.0729211991807,0.0 -51.3124587,-30.0732892991806,0.0 -51.3120918,-30.0737271991806,0.0 -51.3120504,-30.0739123991807,0.0 -51.3118663,-30.0741194991806,0.0 -51.3118111,-30.0743093991806,0.0 -51.3119388,-30.0744917991806,0.0 -51.3121011,-30.0746963991806,0.0 -51.3119862,-30.0750780991806,0.0 -51.3118464,-30.0753063991806,0.0 -51.3116323,-30.0754000991806,0.0 -51.3114796,-30.0755756991806,0.0 -51.311313,-30.0757829991806,0.0 -51.311144,-30.0760769991806,0.0 -51.3108678,-30.0764355991806,0.0 -51.3108565,-30.0769275991806,0.0 -51.3109023,-30.0773112991806,0.0 -51.3110786,-30.0780137991806,0.0 -51.3113326,-30.0787696991806,0.0 -51.311383,-30.0807073991805,0.0 -51.3117949,-30.0804665991805,0.0 -51.3121456,-30.0803648991805,0.0 -51.312469,-30.0805397991805,0.0 -51.3127245,-30.0804187991805,0.0 -51.3129231,-30.0803888991805,0.0 -51.3131089,-30.0802390991805,0.0 -51.3134542,-30.0802412991805,0.0 -51.3138253,-30.0803270991805,0.0 -51.3140609,-30.0805848991805,0.0 -51.3142246,-30.0808954991805,0.0 -51.3142609,-30.0814306991805,0.0 -51.3143024,-30.0820287991805,0.0 -51.3142185,-30.0822525991805,0.0 -51.3141927,-30.0824336991805,0.0 -51.314372,-30.0825893991805,0.0 -51.314284,-30.0827670991805,0.0 -51.3140894,-30.0831700991805,0.0 -51.3139112,-30.0841146991805,0.0 -51.3136747,-30.0843992991805,0.0 -51.3132976,-30.0847299991805,0.0 -51.3127848,-30.0849123991805,0.0 -51.3123135,-30.0849774991805,0.0 -51.3118307,-30.0853493991805,0.0 -51.3111768,-30.0853797991805,0.0 -51.3106159,-30.0852370991805,0.0 -51.3101595,-30.0850107991805,0.0 -51.3096993,-30.0850878991805,0.0 -51.3093366,-30.0852700991805,0.0 -51.3091447,-30.0853706991805,0.0 -51.3089572,-30.0854728991805,0.0 -51.3088173,-30.0856904991805,0.0 -51.3084148,-30.0861941991805,0.0 -51.3082728,-30.0874821991804,0.0 -51.308417,-30.0876912991804,0.0 -51.3087551,-30.0876652991804,0.0 -51.3091293,-30.0873169991804,0.0 -51.3094213,-30.0870923991804,0.0 -51.309553,-30.0872847991804,0.0 -51.3096749,-30.0874278991804,0.0 -51.3099581,-30.0873287991804,0.0 -51.3099293,-30.0875397991804,0.0 -51.3103195,-30.0876316991804,0.0 -51.3105797,-30.0883858991804,0.0 -51.3105175,-30.0887320991804,0.0 -51.3102669,-30.0889140991804,0.0 -51.3100864,-30.0889804991804,0.0 -51.3101196,-30.0893709991804,0.0 -51.3099511,-30.0894472991804,0.0 -51.30973,-30.0895840991804,0.0 -51.3094252,-30.0894905991804,0.0 -51.3086322,-30.0899548991804,0.0 -51.3079598,-30.0901663991804,0.0 -51.3076007,-30.0905585991804,0.0 -51.3075158,-30.0908750991804,0.0 -51.3075522,-30.0911860991804,0.0 -51.3073813,-30.0915936991804,0.0 -51.3074345,-30.0917002991804,0.0 -51.3072087,-30.0919387991804,0.0 -51.3071241,-30.0924598991803,0.0 -51.3072048,-30.0927143991803,0.0 -51.3070709,-30.0928467991803,0.0 -51.3069116,-30.0929572991803,0.0 -51.3067691,-30.0929524991803,0.0 -51.3066277,-30.0930181991803,0.0 -51.3065549,-30.0931753991803,0.0 -51.3065231,-30.0933661991803,0.0 -51.3066169,-30.0935196991803,0.0 -51.3065268,-30.0937114991803,0.0 -51.3065012,-30.0939314991803,0.0 -51.3066135,-30.0941445991803,0.0 -51.3065439,-30.0943233991803,0.0 -51.306509,-30.0944128991803,0.0 -51.3066482,-30.0947655991803,0.0 -51.3068123,-30.0950802991803,0.0 -51.3066884,-30.0954929991803,0.0 -51.3068404,-30.0959408991803,0.0 -51.3068682,-30.0962175991803,0.0 -51.3069525,-30.0964091991803,0.0 -51.3068849,-30.0965814991803,0.0 -51.3067911,-30.0966660991803,0.0 -51.3067741,-30.0967456991803,0.0 -51.3068428,-30.0968250991803,0.0 -51.3069111,-30.0969311991803,0.0 -51.3069927,-30.0970203991803,0.0 -51.3069449,-30.0971607991803,0.0 -51.306971,-30.0972796991803,0.0 -51.3070414,-30.0973559991803,0.0 -51.3070992,-30.0974142991803,0.0 -51.3071397,-30.0974249991803,0.0 -51.3071985,-30.0974209991803,0.0 -51.3072541,-30.0974621991803,0.0 -51.30726,-30.0975283991803,0.0 -51.3072724,-30.0975754991803,0.0 -51.3072603,-30.0976193991803,0.0 -51.3073014,-30.0976621991802,0.0 -51.3073487,-30.0976803991803,0.0 -51.3073874,-30.0976171991803,0.0 -51.3074188,-30.0975688991803,0.0 -51.3075668,-30.0976727991803,0.0 -51.3075487,-30.0977219991803,0.0 -51.3075361,-30.0977610991803,0.0 -51.3075638,-30.0977961991803,0.0 -51.3076142,-30.0977939991803,0.0 -51.3076617,-30.0978481991803,0.0 -51.3076276,-30.0980499991802,0.0 -51.3075963,-30.0981609991803,0.0 -51.3076085,-30.0982005991802,0.0 -51.3075716,-30.0982714991802,0.0 -51.3075871,-30.0983383991802,0.0 -51.3076444,-30.0983489991802,0.0 -51.3077027,-30.0983008991802,0.0 -51.3077393,-30.0983726991803,0.0 -51.3077971,-30.0983955991802,0.0 -51.3078702,-30.0983640991802,0.0 -51.3079731,-30.0984024991802,0.0 -51.3089543,-30.0990705991802,0.0 -51.3092038,-30.0993455991802,0.0 -51.3093046,-30.0994497991802,0.0 -51.3094573,-30.0997153991802,0.0 -51.3097035,-30.1001266991802,0.0 -51.3098867,-30.1003569991802,0.0 -51.3101051,-30.1005316991802,0.0 -51.3100266,-30.1005696991802,0.0 -51.3099811,-30.1006137991802,0.0 -51.3100227,-30.1006974991802,0.0 -51.3101926,-30.1009612991802,0.0 -51.3101511,-30.1014017991802,0.0 -51.3100899,-30.1015627991802,0.0 -51.3101389,-30.1016933991802,0.0 -51.3103049,-30.1016489991802,0.0 -51.3103715,-30.1020286991802,0.0 -51.310509,-30.1021302991802,0.0 -51.3105213,-30.1022984991802,0.0 -51.3104745,-30.1024368991802,0.0 -51.3106282,-30.1026448991802,0.0 -51.3108302,-30.1027274991802,0.0 -51.3110866,-30.1027108991802,0.0 -51.3112985,-30.1029188991802,0.0 -51.311513,-30.1030421991802,0.0</coordinates>
</LinearRing>
</outerBoundaryIs>
</Polygon>
</MultiGeometry>
</Placemark>
</Folder>
</Document></kml>
