<?xml version='1.0' encoding='UTF-8'?>
<kml xmlns:xsd="http://www.w3.org/2001/XMLSchema" xmlns:gx="http://www.google.com/kml/ext/2.2" xmlns:atom="http://www.w3.org/2005/Atom" xmlns="http://www.opengis.net/kml/2.2">
<Document>
<name>lagoa_dos_tres_cantos_4311270_localidades_2022</name>
<visibility>1</visibility>
<Schema name="Vilas" id="kml_schema_ft_Vilas">
<SimpleField type="xsd:string" name="CD_UF">
<displayName>CD_UF</displayName>
</SimpleField>
<SimpleField type="xsd:string" name="NM_UF">
<displayName>NM_UF</displayName>
</SimpleField>
<SimpleField type="xsd:string" name="SIGLA_UF">
<displayName>SIGLA_UF</displayName>
</SimpleField>
<SimpleField type="xsd:string" name="CD_MUN">
<displayName>CD_MUN</displayName>
</SimpleField>
<SimpleField type="xsd:string" name="NM_MUN">
<displayName>NM_MUN</displayName>
</SimpleField>
<SimpleField type="xsd:string" name="CD_RGINT">
<displayName>CD_RGINT</displayName>
</SimpleField>
<SimpleField type="xsd:string" name="NM_RGINT">
<displayName>NM_RGINT</displayName>
</SimpleField>
<SimpleField type="xsd:string" name="CD_RGI">
<displayName>CD_RGI</displayName>
</SimpleField>
<SimpleField type="xsd:string" name="NM_RGI">
<displayName>NM_RGI</displayName>
</SimpleField>
<SimpleField type="xsd:string" name="CT_LOCALIDADE">
<displayName>CT_LOCALIDADE</displayName>
</SimpleField>
<SimpleField type="xsd:string" name="CD_LOCALIDADE">
<displayName>CD_LOCALIDADE</displayName>
</SimpleField>
<SimpleField type="xsd:string" name="NM_LOCALIDADE">
<displayName>NM_LOCALIDADE</displayName>
</SimpleField>
<SimpleField type="xsd:string" name="LAT_LOCALIDADE">
<displayName>LAT_LOCALIDADE</displayName>
</SimpleField>
<SimpleField type="xsd:string" name="LONG_LOCALIDADE">
<displayName>LONG_LOCALIDADE</displayName>
</SimpleField>
</Schema>
<Schema name="01. Cidade" id="kml_schema_ft_01._Cidade">
<SimpleField type="xsd:string" name="CD_UF">
<displayName>CD_UF</displayName>
</SimpleField>
<SimpleField type="xsd:string" name="NM_UF">
<displayName>NM_UF</displayName>
</SimpleField>
<SimpleField type="xsd:string" name="SIGLA_UF">
<displayName>SIGLA_UF</displayName>
</SimpleField>
<SimpleField type="xsd:string" name="CD_MUN">
<displayName>CD_MUN</displayName>
</SimpleField>
<SimpleField type="xsd:string" name="NM_MUN">
<displayName>NM_MUN</displayName>
</SimpleField>
<SimpleField type="xsd:string" name="CD_RGINT">
<displayName>CD_RGINT</displayName>
</SimpleField>
<SimpleField type="xsd:string" name="NM_RGINT">
<displayName>NM_RGINT</displayName>
</SimpleField>
<SimpleField type="xsd:string" name="CD_RGI">
<displayName>CD_RGI</displayName>
</SimpleField>
<SimpleField type="xsd:string" name="NM_RGI">
<displayName>NM_RGI</displayName>
</SimpleField>
<SimpleField type="xsd:string" name="CT_LOCALIDADE">
<displayName>CT_LOCALIDADE</displayName>
</SimpleField>
<SimpleField type="xsd:string" name="SCT_LOCALIDADE">
<displayName>SCT_LOCALIDADE</displayName>
</SimpleField>
<SimpleField type="xsd:string" name="CD_LOCALIDADE">
<displayName>CD_LOCALIDADE</displayName>
</SimpleField>
<SimpleField type="xsd:string" name="NM_LOCALIDADE">
<displayName>NM_LOCALIDADE</displayName>
</SimpleField>
<SimpleField type="xsd:string" name="LAT_LOCALIDADE">
<displayName>LAT_LOCALIDADE</displayName>
</SimpleField>
<SimpleField type="xsd:string" name="LONG_LOCALIDADE">
<displayName>LONG_LOCALIDADE</displayName>
</SimpleField>
</Schema>
<Schema name="Município" id="kml_schema_ft_Município">
<SimpleField type="xsd:string" name="CD_UF">
<displayName>CD_UF</displayName>
</SimpleField>
<SimpleField type="xsd:string" name="NM_UF">
<displayName>NM_UF</displayName>
</SimpleField>
<SimpleField type="xsd:string" name="CD_MUN">
<displayName>CD_MUN</displayName>
</SimpleField>
<SimpleField type="xsd:string" name="NM_MUN">
<displayName>NM_MUN</displayName>
</SimpleField>
<SimpleField type="xsd:string" name="CD_RGINT">
<displayName>CD_RGINT</displayName>
</SimpleField>
<SimpleField type="xsd:string" name="NM_RGINT">
<displayName>NM_RGINT</displayName>
</SimpleField>
<SimpleField type="xsd:string" name="CD_RGI">
<displayName>CD_RGI</displayName>
</SimpleField>
<SimpleField type="xsd:string" name="NM_RGI">
<displayName>NM_RGI</displayName>
</SimpleField>
</Schema>
<Folder id="01. Cidade">
<name>01. Cidade</name>
<Folder id="01.03. Sede Municipal">
<name>01.03. Sede Municipal</name>
<Placemark id="01.03. Sede Municipal">
<name>Lagoa dos Três Cantos [4311270]</name>
<visibility>1</visibility>
<snippet> </snippet>
<description>&lt;center&gt;&lt;table&gt;&lt;tr&gt;&lt;th colspan='2' align='center'&gt;&lt;em&gt;Atributos&lt;/em&gt;&lt;/th&gt;&lt;/tr&gt;&lt;tr bgcolor="#E3E3F3"&gt;
&lt;th&gt;CD_UF&lt;/th&gt;
&lt;td&gt;43&lt;/td&gt;
&lt;/tr&gt;&lt;tr bgcolor=""&gt;
&lt;th&gt;NM_UF&lt;/th&gt;
&lt;td&gt;Rio Grande do Sul&lt;/td&gt;
&lt;/tr&gt;&lt;tr bgcolor="#E3E3F3"&gt;
&lt;th&gt;SIGLA_UF&lt;/th&gt;
&lt;td&gt;RS&lt;/td&gt;
&lt;/tr&gt;&lt;tr bgcolor=""&gt;
&lt;th&gt;CD_MUN&lt;/th&gt;
&lt;td&gt;4311270&lt;/td&gt;
&lt;/tr&gt;&lt;tr bgcolor="#E3E3F3"&gt;
&lt;th&gt;NM_MUN&lt;/th&gt;
&lt;td&gt;Lagoa dos Três Cantos&lt;/td&gt;
&lt;/tr&gt;&lt;tr bgcolor=""&gt;
&lt;th&gt;CD_RGINT&lt;/th&gt;
&lt;td&gt;4306&lt;/td&gt;
&lt;/tr&gt;&lt;tr bgcolor="#E3E3F3"&gt;
&lt;th&gt;NM_RGINT&lt;/th&gt;
&lt;td&gt;Passo Fundo&lt;/td&gt;
&lt;/tr&gt;&lt;tr bgcolor=""&gt;
&lt;th&gt;CD_RGI&lt;/th&gt;
&lt;td&gt;430025&lt;/td&gt;
&lt;/tr&gt;&lt;tr bgcolor="#E3E3F3"&gt;
&lt;th&gt;NM_RGI&lt;/th&gt;
&lt;td&gt;Passo Fundo&lt;/td&gt;
&lt;/tr&gt;&lt;tr bgcolor=""&gt;
&lt;th&gt;CT_LOCALIDADE&lt;/th&gt;
&lt;td&gt;Cidade&lt;/td&gt;
&lt;/tr&gt;&lt;tr bgcolor="#E3E3F3"&gt;
&lt;th&gt;SCT_LOCALIDADE&lt;/th&gt;
&lt;td&gt;Sede Municipal&lt;/td&gt;
&lt;/tr&gt;&lt;tr bgcolor=""&gt;
&lt;th&gt;CD_LOCALIDADE&lt;/th&gt;
&lt;td&gt;4311270&lt;/td&gt;
&lt;/tr&gt;&lt;tr bgcolor="#E3E3F3"&gt;
&lt;th&gt;NM_LOCALIDADE&lt;/th&gt;
&lt;td&gt;Lagoa dos Três Cantos&lt;/td&gt;
&lt;/tr&gt;&lt;tr bgcolor=""&gt;
&lt;th&gt;LAT_LOCALIDADE&lt;/th&gt;
&lt;td&gt;-28.5716&lt;/td&gt;
&lt;/tr&gt;&lt;tr bgcolor="#E3E3F3"&gt;
&lt;th&gt;LONG_LOCALIDADE&lt;/th&gt;
&lt;td&gt;-52.8543&lt;/td&gt;
&lt;/tr&gt;&lt;/table&gt;&lt;/center&gt;</description>
<Style>
<IconStyle>
<color>ff00aaff</color>
<scale>1.0</scale>
<Icon>
<href>http://maps.google.com/mapfiles/kml/shapes/placemark_circle.png</href>
</Icon>
</IconStyle>
<LabelStyle>
<scale>1.0</scale>
</LabelStyle>
<LineStyle>
<color>ffffffff</color>
<width>3</width>
<gx:labelVisibility>1</gx:labelVisibility>
</LineStyle>
<PolyStyle>
<color>00ffffff</color>
</PolyStyle>
</Style>
<ExtendedData>
<SchemaData schemaUrl="#kml_schema_ft_01._Cidade">
<SimpleData name="CD_UF">43</SimpleData>
<SimpleData name="NM_UF">Rio Grande do Sul</SimpleData>
<SimpleData name="SIGLA_UF">RS</SimpleData>
<SimpleData name="CD_MUN">4311270</SimpleData>
<SimpleData name="NM_MUN">Lagoa dos Três Cantos</SimpleData>
<SimpleData name="CD_RGINT">4306</SimpleData>
<SimpleData name="NM_RGINT">Passo Fundo</SimpleData>
<SimpleData name="CD_RGI">430025</SimpleData>
<SimpleData name="NM_RGI">Passo Fundo</SimpleData>
<SimpleData name="CT_LOCALIDADE">Cidade</SimpleData>
<SimpleData name="SCT_LOCALIDADE">Sede Municipal</SimpleData>
<SimpleData name="CD_LOCALIDADE">4311270</SimpleData>
<SimpleData name="NM_LOCALIDADE">Lagoa dos Três Cantos</SimpleData>
<SimpleData name="LAT_LOCALIDADE">-28.5716</SimpleData>
<SimpleData name="LONG_LOCALIDADE">-52.8543</SimpleData>
</SchemaData>
</ExtendedData>
<Point>
<extrude>0</extrude>
<coordinates>-52.854274,-28.5716399992063,0.0</coordinates>
</Point>
</Placemark>
</Folder>
</Folder>
<Folder id="04. Vilas">
<name>04. Vilas</name>
<Placemark id="04. Vilas">
<name>Linha Glória [431127020]</name>
<visibility>1</visibility>
<snippet> </snippet>
<description>&lt;center&gt;&lt;table&gt;&lt;tr&gt;&lt;th colspan='2' align='center'&gt;&lt;em&gt;Atributos&lt;/em&gt;&lt;/th&gt;&lt;/tr&gt;&lt;tr bgcolor="#E3E3F3"&gt;
&lt;th&gt;CD_UF&lt;/th&gt;
&lt;td&gt;43&lt;/td&gt;
&lt;/tr&gt;&lt;tr bgcolor=""&gt;
&lt;th&gt;NM_UF&lt;/th&gt;
&lt;td&gt;Rio Grande do Sul&lt;/td&gt;
&lt;/tr&gt;&lt;tr bgcolor="#E3E3F3"&gt;
&lt;th&gt;SIGLA_UF&lt;/th&gt;
&lt;td&gt;RS&lt;/td&gt;
&lt;/tr&gt;&lt;tr bgcolor=""&gt;
&lt;th&gt;CD_MUN&lt;/th&gt;
&lt;td&gt;4311270&lt;/td&gt;
&lt;/tr&gt;&lt;tr bgcolor="#E3E3F3"&gt;
&lt;th&gt;NM_MUN&lt;/th&gt;
&lt;td&gt;Lagoa dos Três Cantos&lt;/td&gt;
&lt;/tr&gt;&lt;tr bgcolor=""&gt;
&lt;th&gt;CD_RGINT&lt;/th&gt;
&lt;td&gt;4306&lt;/td&gt;
&lt;/tr&gt;&lt;tr bgcolor="#E3E3F3"&gt;
&lt;th&gt;NM_RGINT&lt;/th&gt;
&lt;td&gt;Passo Fundo&lt;/td&gt;
&lt;/tr&gt;&lt;tr bgcolor=""&gt;
&lt;th&gt;CD_RGI&lt;/th&gt;
&lt;td&gt;430025&lt;/td&gt;
&lt;/tr&gt;&lt;tr bgcolor="#E3E3F3"&gt;
&lt;th&gt;NM_RGI&lt;/th&gt;
&lt;td&gt;Passo Fundo&lt;/td&gt;
&lt;/tr&gt;&lt;tr bgcolor=""&gt;
&lt;th&gt;CT_LOCALIDADE&lt;/th&gt;
&lt;td&gt;Vila&lt;/td&gt;
&lt;/tr&gt;&lt;tr bgcolor="#E3E3F3"&gt;
&lt;th&gt;CD_LOCALIDADE&lt;/th&gt;
&lt;td&gt;431127020&lt;/td&gt;
&lt;/tr&gt;&lt;tr bgcolor=""&gt;
&lt;th&gt;NM_LOCALIDADE&lt;/th&gt;
&lt;td&gt;Linha Glória&lt;/td&gt;
&lt;/tr&gt;&lt;tr bgcolor="#E3E3F3"&gt;
&lt;th&gt;LAT_LOCALIDADE&lt;/th&gt;
&lt;td&gt;-28.5886&lt;/td&gt;
&lt;/tr&gt;&lt;tr bgcolor=""&gt;
&lt;th&gt;LONG_LOCALIDADE&lt;/th&gt;
&lt;td&gt;-52.7793&lt;/td&gt;
&lt;/tr&gt;&lt;/table&gt;&lt;/center&gt;</description>
<Style>
<IconStyle>
<color>ffff5400</color>
<scale>1.0</scale>
<Icon>
<href>http://maps.google.com/mapfiles/kml/shapes/placemark_circle.png</href>
</Icon>
</IconStyle>
<LabelStyle>
<scale>0.9</scale>
</LabelStyle>
<LineStyle>
<color>72ffffff</color>
<width>1.0</width>
<gx:labelVisibility>1</gx:labelVisibility>
</LineStyle>
<PolyStyle>
<color>660054ff</color>
</PolyStyle>
</Style>
<ExtendedData>
<SchemaData schemaUrl="#kml_schema_ft_Vilas">
<SimpleData name="CD_UF">43</SimpleData>
<SimpleData name="NM_UF">Rio Grande do Sul</SimpleData>
<SimpleData name="SIGLA_UF">RS</SimpleData>
<SimpleData name="CD_MUN">4311270</SimpleData>
<SimpleData name="NM_MUN">Lagoa dos Três Cantos</SimpleData>
<SimpleData name="CD_RGINT">4306</SimpleData>
<SimpleData name="NM_RGINT">Passo Fundo</SimpleData>
<SimpleData name="CD_RGI">430025</SimpleData>
<SimpleData name="NM_RGI">Passo Fundo</SimpleData>
<SimpleData name="CT_LOCALIDADE">Vila</SimpleData>
<SimpleData name="CD_LOCALIDADE">431127020</SimpleData>
<SimpleData name="NM_LOCALIDADE">Linha Glória</SimpleData>
<SimpleData name="LAT_LOCALIDADE">-28.5886</SimpleData>
<SimpleData name="LONG_LOCALIDADE">-52.7793</SimpleData>
</SchemaData>
</ExtendedData>
<Point>
<extrude>0</extrude>
<coordinates>-52.779329,-28.588624999206,0.0</coordinates>
</Point>
</Placemark>
</Folder>
<Folder id="13. Referência">
<name>13. Referência</name>
<Placemark id="13. Referência">
<name>Lagoa dos Três Cantos [4311270]</name>
<visibility>1</visibility>
<snippet> </snippet>
<description>&lt;center&gt;&lt;table&gt;&lt;tr&gt;&lt;th colspan='2' align='center'&gt;&lt;em&gt;Attributes&lt;/em&gt;&lt;/th&gt;&lt;/tr&gt;&lt;tr bgcolor="#E3E3F3"&gt;
&lt;th&gt;CD_UF&lt;/th&gt;
&lt;td&gt;43&lt;/td&gt;
&lt;/tr&gt;&lt;tr bgcolor=""&gt;
&lt;th&gt;NM_UF&lt;/th&gt;
&lt;td&gt;Rio Grande do Sul&lt;/td&gt;
&lt;/tr&gt;&lt;tr bgcolor="#E3E3F3"&gt;
&lt;th&gt;CD_MUN&lt;/th&gt;
&lt;td&gt;4311270&lt;/td&gt;
&lt;/tr&gt;&lt;tr bgcolor=""&gt;
&lt;th&gt;NM_MUN&lt;/th&gt;
&lt;td&gt;Lagoa dos Três Cantos&lt;/td&gt;
&lt;/tr&gt;&lt;tr bgcolor="#E3E3F3"&gt;
&lt;th&gt;CD_RGINT&lt;/th&gt;
&lt;td&gt;4306&lt;/td&gt;
&lt;/tr&gt;&lt;tr bgcolor=""&gt;
&lt;th&gt;NM_RGINT&lt;/th&gt;
&lt;td&gt;Passo Fundo&lt;/td&gt;
&lt;/tr&gt;&lt;tr bgcolor="#E3E3F3"&gt;
&lt;th&gt;CD_RGI&lt;/th&gt;
&lt;td&gt;430025&lt;/td&gt;
&lt;/tr&gt;&lt;tr bgcolor=""&gt;
&lt;th&gt;NM_RGI&lt;/th&gt;
&lt;td&gt;Passo Fundo&lt;/td&gt;
&lt;/tr&gt;&lt;/table&gt;&lt;/center&gt;</description>
<Style>
<IconStyle>
<scale>0.7</scale>
</IconStyle>
<LabelStyle>
<scale>0.7</scale>
</LabelStyle>
<LineStyle>
<color>ffffffff</color>
<width>3</width>
<gx:labelVisibility>1</gx:labelVisibility>
</LineStyle>
<PolyStyle>
<color>00ffffff</color>
</PolyStyle>
</Style>
<ExtendedData>
<SchemaData schemaUrl="#kml_schema_ft_Município">
<SimpleData name="CD_UF">43</SimpleData>
<SimpleData name="NM_UF">Rio Grande do Sul</SimpleData>
<SimpleData name="CD_MUN">4311270</SimpleData>
<SimpleData name="NM_MUN">Lagoa dos Três Cantos</SimpleData>
<SimpleData name="CD_RGINT">4306</SimpleData>
<SimpleData name="NM_RGINT">Passo Fundo</SimpleData>
<SimpleData name="CD_RGI">430025</SimpleData>
<SimpleData name="NM_RGI">Passo Fundo</SimpleData>
</SchemaData>
</ExtendedData>
<MultiGeometry>
<Polygon>
<extrude>0</extrude>
<tessellate>1</tessellate>
<outerBoundaryIs>
<LinearRing>
<coordinates>-52.8526963,-28.6015354992057,0.0 -52.8636003,-28.5978569992058,0.0 -52.8713744,-28.6002702992058,0.0 -52.8723869,-28.6000423992058,0.0 -52.8802241,-28.5982739992058,0.0 -52.8873741,-28.5986251992058,0.0 -52.8918796,-28.5954402992059,0.0 -52.8941571,-28.5949788992059,0.0 -52.8954645,-28.5950941992059,0.0 -52.9000745,-28.5995063992058,0.0 -52.9072329,-28.5983706992058,0.0 -52.9091766,-28.5995483992058,0.0 -52.9107646,-28.5967471992058,0.0 -52.916775,-28.5957509992058,0.0 -52.9164836,-28.5950840992059,0.0 -52.9162512,-28.5944631992059,0.0 -52.916305,-28.5940929992059,0.0 -52.9163164,-28.5935703992059,0.0 -52.9164399,-28.5933071992059,0.0 -52.9168278,-28.5933626992059,0.0 -52.9171804,-28.5933511992059,0.0 -52.917629,-28.5932211992059,0.0 -52.9178566,-28.5933375992059,0.0 -52.9178775,-28.5936247992059,0.0 -52.9177492,-28.5940503992059,0.0 -52.9179216,-28.5942708992059,0.0 -52.9183307,-28.5943480992059,0.0 -52.9189138,-28.5942262992059,0.0 -52.9201958,-28.5933697992059,0.0 -52.92094,-28.5931876992059,0.0 -52.9215114,-28.5931007992059,0.0 -52.921549,-28.5926572992059,0.0 -52.9212806,-28.5923787992059,0.0 -52.9207347,-28.5923725992059,0.0 -52.920186,-28.5920991992059,0.0 -52.920161,-28.5917934992059,0.0 -52.9209316,-28.5916160992059,0.0 -52.9209717,-28.5913370992059,0.0 -52.9203687,-28.5907303992059,0.0 -52.9202199,-28.5904592992059,0.0 -52.920495,-28.5901230992059,0.0 -52.9209169,-28.589884999206,0.0 -52.9210936,-28.589572399206,0.0 -52.9212916,-28.589179699206,0.0 -52.9217711,-28.589104999206,0.0 -52.922393,-28.589307799206,0.0 -52.9230827,-28.589377899206,0.0 -52.9236291,-28.588780899206,0.0 -52.9237583,-28.588297099206,0.0 -52.923699,-28.587364499206,0.0 -52.9235294,-28.586750599206,0.0 -52.9232465,-28.586414499206,0.0 -52.9232572,-28.586081499206,0.0 -52.9238615,-28.585343099206,0.0 -52.92402,-28.584863599206,0.0 -52.9243292,-28.584912599206,0.0 -52.9243897,-28.585193299206,0.0 -52.9241053,-28.585752399206,0.0 -52.9240366,-28.586082799206,0.0 -52.9241507,-28.586409199206,0.0 -52.9245326,-28.586653199206,0.0 -52.924945,-28.586690499206,0.0 -52.9255177,-28.586546499206,0.0 -52.9260226,-28.586137199206,0.0 -52.926475,-28.585678599206,0.0 -52.9268359,-28.585149799206,0.0 -52.926954,-28.584662399206,0.0 -52.9281016,-28.5803721992061,0.0 -52.9249775,-28.5798493992061,0.0 -52.9215785,-28.5806209992061,0.0 -52.9197437,-28.5786957992062,0.0 -52.9219532,-28.5770501992062,0.0 -52.9240434,-28.5766044992062,0.0 -52.9254679,-28.5769308992062,0.0 -52.9258914,-28.5750039992062,0.0 -52.924858,-28.5728390992063,0.0 -52.9264222,-28.5715835992063,0.0 -52.9281649,-28.5726587992063,0.0 -52.930048,-28.5729865992063,0.0 -52.9320919,-28.5727752992063,0.0 -52.9296772,-28.5713247992063,0.0 -52.9294093,-28.5695696992063,0.0 -52.9280204,-28.5680212992063,0.0 -52.9259439,-28.5650613992064,0.0 -52.9239564,-28.5646406992064,0.0 -52.9220909,-28.5662681992064,0.0 -52.9218693,-28.5693706992063,0.0 -52.9221801,-28.5716309992063,0.0 -52.9207986,-28.5723786992063,0.0 -52.9177059,-28.5714237992063,0.0 -52.9150792,-28.5689906992063,0.0 -52.9176034,-28.5666081992064,0.0 -52.917297,-28.5653052992064,0.0 -52.9159306,-28.5634647992064,0.0 -52.9159732,-28.5607627992065,0.0 -52.9169304,-28.5594537992065,0.0 -52.9175619,-28.5587610992065,0.0 -52.9159299,-28.5555310992066,0.0 -52.9165751,-28.5551070992066,0.0 -52.9172014,-28.5561334992066,0.0 -52.9185952,-28.5564739992066,0.0 -52.919353,-28.5551988992066,0.0 -52.9206115,-28.5542913992066,0.0 -52.9219084,-28.5542931992066,0.0 -52.9231734,-28.5536405992066,0.0 -52.924359,-28.5537348992066,0.0 -52.9242866,-28.5549142992066,0.0 -52.9222498,-28.5573379992065,0.0 -52.9228655,-28.5582725992065,0.0 -52.9248004,-28.5581005992065,0.0 -52.926024,-28.5548680992066,0.0 -52.9275361,-28.5536693992066,0.0 -52.9266268,-28.5508745992067,0.0 -52.9244005,-28.5492263992067,0.0 -52.9243676,-28.5460293992067,0.0 -52.9232409,-28.5457316992068,0.0 -52.9216385,-28.5468951992067,0.0 -52.9181966,-28.5460783992067,0.0 -52.9157014,-28.5465935992067,0.0 -52.9139865,-28.5464864992067,0.0 -52.9142061,-28.5455668992067,0.0 -52.915489,-28.5450269992068,0.0 -52.9174631,-28.5432987992068,0.0 -52.9180053,-28.5407712992068,0.0 -52.920635,-28.5401242992068,0.0 -52.9198577,-28.5383000992069,0.0 -52.91399,-28.5348546992069,0.0 -52.9112441,-28.5340892992069,0.0 -52.9107782,-28.531998799207,0.0 -52.9115332,-28.530517099207,0.0 -52.9049517,-28.532138699207,0.0 -52.9048507,-28.5343022992069,0.0 -52.9001685,-28.5461482992067,0.0 -52.8969811,-28.5423322992068,0.0 -52.8962928,-28.5387656992069,0.0 -52.8923892,-28.5393735992069,0.0 -52.8907291,-28.5383621992069,0.0 -52.8918306,-28.533480299207,0.0 -52.8879126,-28.529534499207,0.0 -52.8878877,-28.529374699207,0.0 -52.8896053,-28.5250851992071,0.0 -52.8887338,-28.5242360992071,0.0 -52.888692,-28.5241953992071,0.0 -52.8877778,-28.5233045992071,0.0 -52.8874864,-28.5231316992071,0.0 -52.8804711,-28.5204648992072,0.0 -52.8776787,-28.5214577992072,0.0 -52.8770473,-28.5228362992071,0.0 -52.8768022,-28.5233712992071,0.0 -52.8757657,-28.5256344992071,0.0 -52.8735795,-28.5269624992071,0.0 -52.8691313,-28.5279774992071,0.0 -52.8648229,-28.531394299207,0.0 -52.8608453,-28.531009099207,0.0 -52.8523465,-28.5351408992069,0.0 -52.8406644,-28.5213165992072,0.0 -52.8359332,-28.5240106992071,0.0 -52.8359451,-28.5258061992071,0.0 -52.8340496,-28.528523599207,0.0 -52.8328582,-28.530840099207,0.0 -52.8301787,-28.532271399207,0.0 -52.824457,-28.531147499207,0.0 -52.8172936,-28.532785999207,0.0 -52.8134029,-28.529028699207,0.0 -52.8107671,-28.5275494992071,0.0 -52.8086633,-28.5263681992071,0.0 -52.803402,-28.5265988992071,0.0 -52.8001484,-28.5200527992072,0.0 -52.7954604,-28.5186751992072,0.0 -52.7943262,-28.5194995992072,0.0 -52.7935448,-28.5223570992072,0.0 -52.7907226,-28.5219332992072,0.0 -52.788447,-28.5231264992071,0.0 -52.787507,-28.5248249992071,0.0 -52.781811,-28.5262499992071,0.0 -52.7801648,-28.529735799207,0.0 -52.77871,-28.530962299207,0.0 -52.7770215,-28.5368491992069,0.0 -52.7754121,-28.5364079992069,0.0 -52.7743147,-28.5380842992069,0.0 -52.7702554,-28.5395460992069,0.0 -52.7679393,-28.5427521992068,0.0 -52.764958,-28.5417471992068,0.0 -52.7638361,-28.5425281992068,0.0 -52.7608315,-28.5419422992068,0.0 -52.7601041,-28.5428856992068,0.0 -52.76297,-28.5447657992068,0.0 -52.7616666,-28.5469840992067,0.0 -52.7632727,-28.5498117992067,0.0 -52.7622714,-28.5511062992066,0.0 -52.7591963,-28.5512883992066,0.0 -52.7576508,-28.5527917992066,0.0 -52.7572086,-28.5573779992065,0.0 -52.7598758,-28.5612348992065,0.0 -52.7604401,-28.5614014992065,0.0 -52.7603555,-28.5599824992065,0.0 -52.7610612,-28.5597642992065,0.0 -52.7649596,-28.5639371992064,0.0 -52.7669837,-28.5690835992063,0.0 -52.7695668,-28.5718775992063,0.0 -52.763895,-28.5718666992063,0.0 -52.7611515,-28.5728295992063,0.0 -52.7612139,-28.5736095992062,0.0 -52.7661132,-28.5736081992062,0.0 -52.765098,-28.5751091992062,0.0 -52.7657839,-28.5775612992062,0.0 -52.7643997,-28.5804527992061,0.0 -52.764746,-28.5823143992061,0.0 -52.7658924,-28.5831512992061,0.0 -52.7642754,-28.5845348992061,0.0 -52.7634025,-28.586794099206,0.0 -52.7599938,-28.586557299206,0.0 -52.755619,-28.588935999206,0.0 -52.7547852,-28.5917674992059,0.0 -52.7517173,-28.5920135992059,0.0 -52.7467001,-28.589984299206,0.0 -52.7476461,-28.5946184992059,0.0 -52.7493976,-28.5977128992058,0.0 -52.7494731,-28.6002233992058,0.0 -52.7521584,-28.5997591992058,0.0 -52.757973,-28.6043657992057,0.0 -52.7604323,-28.6053012992057,0.0 -52.7612116,-28.6067689992056,0.0 -52.7606746,-28.6081723992056,0.0 -52.7597938,-28.6104774992056,0.0 -52.7627343,-28.6109346992056,0.0 -52.7652981,-28.6144909992055,0.0 -52.7629769,-28.6189400992054,0.0 -52.7607823,-28.6203391992054,0.0 -52.7629569,-28.6252713992053,0.0 -52.7643459,-28.6233307992054,0.0 -52.7657339,-28.6234814992054,0.0 -52.7627913,-28.6268341992053,0.0 -52.7642459,-28.6267148992053,0.0 -52.7694167,-28.6292554992053,0.0 -52.7751664,-28.6289863992053,0.0 -52.777959,-28.6278721992053,0.0 -52.7813142,-28.6245318992053,0.0 -52.7887922,-28.6235297992054,0.0 -52.8108897,-28.6184440992054,0.0 -52.8377756,-28.6122508992056,0.0 -52.8418231,-28.6064402992057,0.0 -52.8458258,-28.6038525992057,0.0 -52.8526963,-28.6015354992057,0.0</coordinates>
</LinearRing>
</outerBoundaryIs>
</Polygon>
</MultiGeometry>
</Placemark>
</Folder>
</Document></kml>
