<?xml version='1.0' encoding='UTF-8'?>
<kml xmlns:xsd="http://www.w3.org/2001/XMLSchema" xmlns:gx="http://www.google.com/kml/ext/2.2" xmlns:atom="http://www.w3.org/2005/Atom" xmlns="http://www.opengis.net/kml/2.2">
<Document>
<name>rondinha_4316204_localidades_2022</name>
<visibility>1</visibility>
<Schema name="01. Cidade" id="kml_schema_ft_01._Cidade">
<SimpleField type="xsd:string" name="CD_UF">
<displayName>CD_UF</displayName>
</SimpleField>
<SimpleField type="xsd:string" name="NM_UF">
<displayName>NM_UF</displayName>
</SimpleField>
<SimpleField type="xsd:string" name="SIGLA_UF">
<displayName>SIGLA_UF</displayName>
</SimpleField>
<SimpleField type="xsd:string" name="CD_MUN">
<displayName>CD_MUN</displayName>
</SimpleField>
<SimpleField type="xsd:string" name="NM_MUN">
<displayName>NM_MUN</displayName>
</SimpleField>
<SimpleField type="xsd:string" name="CD_RGINT">
<displayName>CD_RGINT</displayName>
</SimpleField>
<SimpleField type="xsd:string" name="NM_RGINT">
<displayName>NM_RGINT</displayName>
</SimpleField>
<SimpleField type="xsd:string" name="CD_RGI">
<displayName>CD_RGI</displayName>
</SimpleField>
<SimpleField type="xsd:string" name="NM_RGI">
<displayName>NM_RGI</displayName>
</SimpleField>
<SimpleField type="xsd:string" name="CT_LOCALIDADE">
<displayName>CT_LOCALIDADE</displayName>
</SimpleField>
<SimpleField type="xsd:string" name="SCT_LOCALIDADE">
<displayName>SCT_LOCALIDADE</displayName>
</SimpleField>
<SimpleField type="xsd:string" name="CD_LOCALIDADE">
<displayName>CD_LOCALIDADE</displayName>
</SimpleField>
<SimpleField type="xsd:string" name="NM_LOCALIDADE">
<displayName>NM_LOCALIDADE</displayName>
</SimpleField>
<SimpleField type="xsd:string" name="LAT_LOCALIDADE">
<displayName>LAT_LOCALIDADE</displayName>
</SimpleField>
<SimpleField type="xsd:string" name="LONG_LOCALIDADE">
<displayName>LONG_LOCALIDADE</displayName>
</SimpleField>
</Schema>
<Schema name="Município" id="kml_schema_ft_Município">
<SimpleField type="xsd:string" name="CD_UF">
<displayName>CD_UF</displayName>
</SimpleField>
<SimpleField type="xsd:string" name="NM_UF">
<displayName>NM_UF</displayName>
</SimpleField>
<SimpleField type="xsd:string" name="CD_MUN">
<displayName>CD_MUN</displayName>
</SimpleField>
<SimpleField type="xsd:string" name="NM_MUN">
<displayName>NM_MUN</displayName>
</SimpleField>
<SimpleField type="xsd:string" name="CD_RGINT">
<displayName>CD_RGINT</displayName>
</SimpleField>
<SimpleField type="xsd:string" name="NM_RGINT">
<displayName>NM_RGINT</displayName>
</SimpleField>
<SimpleField type="xsd:string" name="CD_RGI">
<displayName>CD_RGI</displayName>
</SimpleField>
<SimpleField type="xsd:string" name="NM_RGI">
<displayName>NM_RGI</displayName>
</SimpleField>
</Schema>
<Folder id="01. Cidade">
<name>01. Cidade</name>
<Folder id="01.03. Sede Municipal">
<name>01.03. Sede Municipal</name>
<Placemark id="01.03. Sede Municipal">
<name>Rondinha [4316204]</name>
<visibility>1</visibility>
<snippet> </snippet>
<description>&lt;center&gt;&lt;table&gt;&lt;tr&gt;&lt;th colspan='2' align='center'&gt;&lt;em&gt;Atributos&lt;/em&gt;&lt;/th&gt;&lt;/tr&gt;&lt;tr bgcolor="#E3E3F3"&gt;
&lt;th&gt;CD_UF&lt;/th&gt;
&lt;td&gt;43&lt;/td&gt;
&lt;/tr&gt;&lt;tr bgcolor=""&gt;
&lt;th&gt;NM_UF&lt;/th&gt;
&lt;td&gt;Rio Grande do Sul&lt;/td&gt;
&lt;/tr&gt;&lt;tr bgcolor="#E3E3F3"&gt;
&lt;th&gt;SIGLA_UF&lt;/th&gt;
&lt;td&gt;RS&lt;/td&gt;
&lt;/tr&gt;&lt;tr bgcolor=""&gt;
&lt;th&gt;CD_MUN&lt;/th&gt;
&lt;td&gt;4316204&lt;/td&gt;
&lt;/tr&gt;&lt;tr bgcolor="#E3E3F3"&gt;
&lt;th&gt;NM_MUN&lt;/th&gt;
&lt;td&gt;Rondinha&lt;/td&gt;
&lt;/tr&gt;&lt;tr bgcolor=""&gt;
&lt;th&gt;CD_RGINT&lt;/th&gt;
&lt;td&gt;4306&lt;/td&gt;
&lt;/tr&gt;&lt;tr bgcolor="#E3E3F3"&gt;
&lt;th&gt;NM_RGINT&lt;/th&gt;
&lt;td&gt;Passo Fundo&lt;/td&gt;
&lt;/tr&gt;&lt;tr bgcolor=""&gt;
&lt;th&gt;CD_RGI&lt;/th&gt;
&lt;td&gt;430028&lt;/td&gt;
&lt;/tr&gt;&lt;tr bgcolor="#E3E3F3"&gt;
&lt;th&gt;NM_RGI&lt;/th&gt;
&lt;td&gt;Carazinho&lt;/td&gt;
&lt;/tr&gt;&lt;tr bgcolor=""&gt;
&lt;th&gt;CT_LOCALIDADE&lt;/th&gt;
&lt;td&gt;Cidade&lt;/td&gt;
&lt;/tr&gt;&lt;tr bgcolor="#E3E3F3"&gt;
&lt;th&gt;SCT_LOCALIDADE&lt;/th&gt;
&lt;td&gt;Sede Municipal&lt;/td&gt;
&lt;/tr&gt;&lt;tr bgcolor=""&gt;
&lt;th&gt;CD_LOCALIDADE&lt;/th&gt;
&lt;td&gt;4316204&lt;/td&gt;
&lt;/tr&gt;&lt;tr bgcolor="#E3E3F3"&gt;
&lt;th&gt;NM_LOCALIDADE&lt;/th&gt;
&lt;td&gt;Rondinha&lt;/td&gt;
&lt;/tr&gt;&lt;tr bgcolor=""&gt;
&lt;th&gt;LAT_LOCALIDADE&lt;/th&gt;
&lt;td&gt;-27.8313&lt;/td&gt;
&lt;/tr&gt;&lt;tr bgcolor="#E3E3F3"&gt;
&lt;th&gt;LONG_LOCALIDADE&lt;/th&gt;
&lt;td&gt;-52.9079&lt;/td&gt;
&lt;/tr&gt;&lt;/table&gt;&lt;/center&gt;</description>
<Style>
<IconStyle>
<color>ff00aaff</color>
<scale>1.0</scale>
<Icon>
<href>http://maps.google.com/mapfiles/kml/shapes/placemark_circle.png</href>
</Icon>
</IconStyle>
<LabelStyle>
<scale>1.0</scale>
</LabelStyle>
<LineStyle>
<color>ffffffff</color>
<width>3</width>
<gx:labelVisibility>1</gx:labelVisibility>
</LineStyle>
<PolyStyle>
<color>00ffffff</color>
</PolyStyle>
</Style>
<ExtendedData>
<SchemaData schemaUrl="#kml_schema_ft_01._Cidade">
<SimpleData name="CD_UF">43</SimpleData>
<SimpleData name="NM_UF">Rio Grande do Sul</SimpleData>
<SimpleData name="SIGLA_UF">RS</SimpleData>
<SimpleData name="CD_MUN">4316204</SimpleData>
<SimpleData name="NM_MUN">Rondinha</SimpleData>
<SimpleData name="CD_RGINT">4306</SimpleData>
<SimpleData name="NM_RGINT">Passo Fundo</SimpleData>
<SimpleData name="CD_RGI">430028</SimpleData>
<SimpleData name="NM_RGI">Carazinho</SimpleData>
<SimpleData name="CT_LOCALIDADE">Cidade</SimpleData>
<SimpleData name="SCT_LOCALIDADE">Sede Municipal</SimpleData>
<SimpleData name="CD_LOCALIDADE">4316204</SimpleData>
<SimpleData name="NM_LOCALIDADE">Rondinha</SimpleData>
<SimpleData name="LAT_LOCALIDADE">-27.8313</SimpleData>
<SimpleData name="LONG_LOCALIDADE">-52.9079</SimpleData>
</SchemaData>
</ExtendedData>
<Point>
<extrude>0</extrude>
<coordinates>-52.90792,-27.8312919992197,0.0</coordinates>
</Point>
</Placemark>
</Folder>
</Folder>
<Folder id="13. Referência">
<name>13. Referência</name>
<Placemark id="13. Referência">
<name>Rondinha [4316204]</name>
<visibility>1</visibility>
<snippet> </snippet>
<description>&lt;center&gt;&lt;table&gt;&lt;tr&gt;&lt;th colspan='2' align='center'&gt;&lt;em&gt;Attributes&lt;/em&gt;&lt;/th&gt;&lt;/tr&gt;&lt;tr bgcolor="#E3E3F3"&gt;
&lt;th&gt;CD_UF&lt;/th&gt;
&lt;td&gt;43&lt;/td&gt;
&lt;/tr&gt;&lt;tr bgcolor=""&gt;
&lt;th&gt;NM_UF&lt;/th&gt;
&lt;td&gt;Rio Grande do Sul&lt;/td&gt;
&lt;/tr&gt;&lt;tr bgcolor="#E3E3F3"&gt;
&lt;th&gt;CD_MUN&lt;/th&gt;
&lt;td&gt;4316204&lt;/td&gt;
&lt;/tr&gt;&lt;tr bgcolor=""&gt;
&lt;th&gt;NM_MUN&lt;/th&gt;
&lt;td&gt;Rondinha&lt;/td&gt;
&lt;/tr&gt;&lt;tr bgcolor="#E3E3F3"&gt;
&lt;th&gt;CD_RGINT&lt;/th&gt;
&lt;td&gt;4306&lt;/td&gt;
&lt;/tr&gt;&lt;tr bgcolor=""&gt;
&lt;th&gt;NM_RGINT&lt;/th&gt;
&lt;td&gt;Passo Fundo&lt;/td&gt;
&lt;/tr&gt;&lt;tr bgcolor="#E3E3F3"&gt;
&lt;th&gt;CD_RGI&lt;/th&gt;
&lt;td&gt;430028&lt;/td&gt;
&lt;/tr&gt;&lt;tr bgcolor=""&gt;
&lt;th&gt;NM_RGI&lt;/th&gt;
&lt;td&gt;Carazinho&lt;/td&gt;
&lt;/tr&gt;&lt;/table&gt;&lt;/center&gt;</description>
<Style>
<IconStyle>
<scale>0.7</scale>
</IconStyle>
<LabelStyle>
<scale>0.7</scale>
</LabelStyle>
<LineStyle>
<color>ffffffff</color>
<width>3</width>
<gx:labelVisibility>1</gx:labelVisibility>
</LineStyle>
<PolyStyle>
<color>00ffffff</color>
</PolyStyle>
</Style>
<ExtendedData>
<SchemaData schemaUrl="#kml_schema_ft_Município">
<SimpleData name="CD_UF">43</SimpleData>
<SimpleData name="NM_UF">Rio Grande do Sul</SimpleData>
<SimpleData name="CD_MUN">4316204</SimpleData>
<SimpleData name="NM_MUN">Rondinha</SimpleData>
<SimpleData name="CD_RGINT">4306</SimpleData>
<SimpleData name="NM_RGINT">Passo Fundo</SimpleData>
<SimpleData name="CD_RGI">430028</SimpleData>
<SimpleData name="NM_RGI">Carazinho</SimpleData>
</SchemaData>
</ExtendedData>
<MultiGeometry>
<Polygon>
<extrude>0</extrude>
<tessellate>1</tessellate>
<outerBoundaryIs>
<LinearRing>
<coordinates>-52.9153481,-27.8858149992187,0.0 -52.915594,-27.8859987992187,0.0 -52.915854,-27.8859999992187,0.0 -52.9160967,-27.8860000992187,0.0 -52.9194929,-27.8860104992187,0.0 -52.9205287,-27.8875560992187,0.0 -52.9236535,-27.8873819992187,0.0 -52.9242121,-27.8857378992187,0.0 -52.9257622,-27.8853998992187,0.0 -52.9264459,-27.8839488992187,0.0 -52.9227416,-27.8820377992188,0.0 -52.9266996,-27.8800493992188,0.0 -52.9300106,-27.8807535992188,0.0 -52.9309186,-27.8818776992188,0.0 -52.9354515,-27.8834069992188,0.0 -52.9402024,-27.8807988992188,0.0 -52.9414535,-27.8785094992189,0.0 -52.9415933,-27.8757269992189,0.0 -52.942938,-27.8742520992189,0.0 -52.9432204,-27.871103399219,0.0 -52.9451489,-27.869942499219,0.0 -52.9469223,-27.870002099219,0.0 -52.9483311,-27.871438499219,0.0 -52.9492434,-27.8730830992189,0.0 -52.9492331,-27.8753098992189,0.0 -52.9463988,-27.8788766992188,0.0 -52.9444651,-27.8799319992188,0.0 -52.9443133,-27.8812418992188,0.0 -52.9460127,-27.8821436992188,0.0 -52.9463734,-27.8806584992188,0.0 -52.948764,-27.8802508992188,0.0 -52.9501037,-27.8780161992189,0.0 -52.952284,-27.8767613992189,0.0 -52.9562842,-27.8760175992189,0.0 -52.956388,-27.8747298992189,0.0 -52.9580799,-27.8745080992189,0.0 -52.9590935,-27.870986799219,0.0 -52.9627441,-27.872814399219,0.0 -52.9659397,-27.870792899219,0.0 -52.9680882,-27.870611399219,0.0 -52.969459,-27.872225899219,0.0 -52.9706272,-27.871764599219,0.0 -52.9708251,-27.872851499219,0.0 -52.9688927,-27.8751947992189,0.0 -52.96925,-27.8760753992189,0.0 -52.9708411,-27.8758787992189,0.0 -52.9713012,-27.8775956992189,0.0 -52.9729295,-27.8767037992189,0.0 -52.9779547,-27.8739511992189,0.0 -52.9776122,-27.871598099219,0.0 -52.9788452,-27.870498399219,0.0 -52.9811252,-27.870579299219,0.0 -52.9812423,-27.872823299219,0.0 -52.9828448,-27.8740116992189,0.0 -52.987102,-27.872794199219,0.0 -52.9847138,-27.868842599219,0.0 -52.9860617,-27.8656475992191,0.0 -52.9857387,-27.8644495992191,0.0 -52.9870894,-27.8636681992191,0.0 -52.9905185,-27.8643168992191,0.0 -52.9926493,-27.8610885992192,0.0 -52.9929081,-27.8586831992192,0.0 -52.9910218,-27.8575595992192,0.0 -52.987198,-27.8572256992192,0.0 -52.9903721,-27.8555732992193,0.0 -52.9925209,-27.8526835992193,0.0 -52.996139,-27.8505254992194,0.0 -52.992525,-27.8494867992194,0.0 -52.9909608,-27.8448473992195,0.0 -52.9886275,-27.8425771992195,0.0 -52.992261,-27.8421345992195,0.0 -52.9987617,-27.8396698992196,0.0 -52.9956885,-27.8390366992196,0.0 -52.988758,-27.8384717992196,0.0 -52.9869107,-27.8372292992196,0.0 -52.9886747,-27.8347500992197,0.0 -52.9899347,-27.8344055992197,0.0 -52.9986501,-27.8342461992197,0.0 -53.0050239,-27.8331580992197,0.0 -53.0074778,-27.8320089992197,0.0 -53.0087369,-27.8295114992198,0.0 -53.0081564,-27.8268165992198,0.0 -53.0111714,-27.8243270992199,0.0 -53.0146973,-27.8240237992199,0.0 -53.015341,-27.8233381992199,0.0 -53.0148597,-27.81840359922,0.0 -53.0171573,-27.81675059922,0.0 -53.0207738,-27.81594619922,0.0 -53.0250531,-27.8195604992199,0.0 -53.0270883,-27.8202262992199,0.0 -53.0325419,-27.81690889922,0.0 -53.0327907,-27.81482809922,0.0 -53.0226887,-27.8121293992201,0.0 -53.0218699,-27.8087001992201,0.0 -53.0171142,-27.8074492992202,0.0 -53.0169438,-27.8065375992202,0.0 -53.0180585,-27.8053336992202,0.0 -53.0182266,-27.8052010992202,0.0 -53.0183801,-27.8050965992202,0.0 -53.0185902,-27.8050372992202,0.0 -53.0189572,-27.8049565992202,0.0 -53.0191377,-27.8048150992202,0.0 -53.01893,-27.8047306992202,0.0 -53.0185917,-27.8046802992202,0.0 -53.0183304,-27.8045680992202,0.0 -53.0181222,-27.8044153992202,0.0 -53.0179511,-27.8042781992202,0.0 -53.0178163,-27.8041225992202,0.0 -53.0178587,-27.8038740992202,0.0 -53.0178201,-27.8037226992202,0.0 -53.0176547,-27.8035215992202,0.0 -53.0175269,-27.8033774992202,0.0 -53.0175792,-27.8031814992202,0.0 -53.0176446,-27.8030180992202,0.0 -53.0175727,-27.8028794992202,0.0 -53.0174081,-27.8028163992203,0.0 -53.0172437,-27.8027950992203,0.0 -53.0170394,-27.8027662992202,0.0 -53.0168762,-27.8027366992202,0.0 -53.0167771,-27.8026037992202,0.0 -53.0167098,-27.8024570992203,0.0 -53.0165092,-27.8023362992203,0.0 -53.0163092,-27.8022958992203,0.0 -53.016132,-27.8022223992203,0.0 -53.0159631,-27.8021927992203,0.0 -53.0158116,-27.8021993992203,0.0 -53.0156113,-27.8022220992203,0.0 -53.0153705,-27.8023096992203,0.0 -53.0150665,-27.8023707992203,0.0 -53.014782,-27.8024762992203,0.0 -53.0145177,-27.8024995992203,0.0 -53.0142482,-27.8025678992203,0.0 -53.0139918,-27.8026762992203,0.0 -53.0138499,-27.8027689992203,0.0 -53.0138963,-27.8029161992202,0.0 -53.0138065,-27.8029879992202,0.0 -53.0136343,-27.8030507992202,0.0 -53.013475,-27.8030793992202,0.0 -53.0133858,-27.8030988992202,0.0 -53.0132682,-27.8031154992202,0.0 -53.0131381,-27.8030872992202,0.0 -53.0130883,-27.8029855992202,0.0 -53.0130202,-27.8028866992202,0.0 -53.0131024,-27.8028189992202,0.0 -53.0130732,-27.8027720992203,0.0 -53.0129913,-27.8027562992202,0.0 -53.012914,-27.8026888992202,0.0 -53.0129296,-27.8026143992202,0.0 -53.0128466,-27.8024006992203,0.0 -53.0128011,-27.8022079992203,0.0 -53.0127888,-27.8020606992203,0.0 -53.0127772,-27.8019079992203,0.0 -53.0126368,-27.8017635992203,0.0 -53.0124304,-27.8016282992203,0.0 -53.0121458,-27.8016241992203,0.0 -53.0118056,-27.8015990992203,0.0 -53.0113951,-27.8015767992203,0.0 -53.0111246,-27.8014609992203,0.0 -53.0109141,-27.8013537992203,0.0 -53.0107165,-27.8013499992203,0.0 -53.0104792,-27.8013998992203,0.0 -53.0102825,-27.8012223992203,0.0 -53.0100827,-27.8011227992203,0.0 -53.0099999,-27.8008847992203,0.0 -53.0100107,-27.8006958992203,0.0 -53.0100017,-27.8004997992203,0.0 -53.0098443,-27.8003746992203,0.0 -53.0097165,-27.8001739992203,0.0 -53.009588,-27.7999337992203,0.0 -53.0095829,-27.7997119992203,0.0 -53.0096056,-27.7994602992203,0.0 -53.0095029,-27.7991843992203,0.0 -53.0092758,-27.7989038992203,0.0 -53.0090183,-27.7986934992203,0.0 -53.00871,-27.7985274992203,0.0 -53.0083385,-27.7985545992203,0.0 -53.0080546,-27.7984927992203,0.0 -53.0077237,-27.7983802992203,0.0 -53.007492,-27.7983085992203,0.0 -53.0072077,-27.7982947992203,0.0 -53.0069367,-27.7983291992203,0.0 -53.0066739,-27.7983105992203,0.0 -53.0064332,-27.7981919992203,0.0 -53.0063225,-27.7980949992203,0.0 -53.0061679,-27.7980183992203,0.0 -53.0060876,-27.7978998992203,0.0 -53.0060133,-27.7978611992203,0.0 -53.0058938,-27.7978458992203,0.0 -53.0057588,-27.7978108992203,0.0 -53.0056544,-27.7977366992204,0.0 -53.0055659,-27.7976369992203,0.0 -53.0053839,-27.7975888992203,0.0 -53.0052777,-27.7974832992203,0.0 -53.0053666,-27.7972347992204,0.0 -53.0053297,-27.7970469992204,0.0 -53.0052384,-27.7969388992204,0.0 -53.0050833,-27.7968417992204,0.0 -53.0049336,-27.7967960992204,0.0 -53.0047856,-27.7966911992204,0.0 -53.0047431,-27.7965529992204,0.0 -53.0047255,-27.7964361992204,0.0 -53.0046678,-27.7963355992204,0.0 -53.0044816,-27.7963823992204,0.0 -53.0043012,-27.7964580992204,0.0 -53.0040364,-27.7964603992204,0.0 -53.0037497,-27.7964110992204,0.0 -53.0034173,-27.7962927992204,0.0 -53.0031841,-27.7962741992204,0.0 -53.0029002,-27.7961954992204,0.0 -53.0027151,-27.7959009992204,0.0 -53.0026629,-27.7956746992204,0.0 -53.002692,-27.7954070992204,0.0 -53.002723,-27.7952480992204,0.0 -53.002512,-27.7950942992204,0.0 -53.0023122,-27.7949258992204,0.0 -53.0022258,-27.7947039992204,0.0 -53.0023831,-27.7944838992204,0.0 -53.002468,-27.7942444992204,0.0 -53.0021364,-27.7939760992204,0.0 -53.0019308,-27.7937285992204,0.0 -53.0018813,-27.7934732992204,0.0 -53.0018034,-27.7932508992204,0.0 -53.0017653,-27.7930875992204,0.0 -53.0014788,-27.7931339992204,0.0 -53.0009094,-27.7931122992204,0.0 -53.0006134,-27.7931100992204,0.0 -53.0004946,-27.7929327992204,0.0 -53.0003805,-27.7927146992204,0.0 -53.0001724,-27.7927164992204,0.0 -53.0000209,-27.7926569992204,0.0 -52.9998714,-27.7926275992204,0.0 -52.9996483,-27.7924515992204,0.0 -52.9995253,-27.7923742992204,0.0 -52.9994572,-27.7924578992204,0.0 -52.9993298,-27.7925644992204,0.0 -52.9990089,-27.7925829992204,0.0 -52.9985831,-27.7925054992204,0.0 -52.9983675,-27.7924256992204,0.0 -52.9981285,-27.7924108992204,0.0 -52.997887,-27.7924612992204,0.0 -52.9976967,-27.7925655992204,0.0 -52.9974719,-27.7924888992204,0.0 -52.9971851,-27.7923479992204,0.0 -52.9969847,-27.7921903992204,0.0 -52.9968091,-27.7920433992205,0.0 -52.9965878,-27.7919809992205,0.0 -52.9963408,-27.7918806992204,0.0 -52.9960375,-27.7918327992205,0.0 -52.9957686,-27.7917272992205,0.0 -52.995495,-27.7916581992204,0.0 -52.9952452,-27.7916841992204,0.0 -52.9949717,-27.7916955992205,0.0 -52.9948259,-27.7916519992205,0.0 -52.994818,-27.7915139992205,0.0 -52.9947089,-27.7914472992205,0.0 -52.9944077,-27.7914357992205,0.0 -52.9942,-27.7914209992205,0.0 -52.9940288,-27.7914570992205,0.0 -52.993944,-27.7914082992205,0.0 -52.9938598,-27.7915191992205,0.0 -52.9936388,-27.7915337992205,0.0 -52.9932152,-27.7914013992205,0.0 -52.9927286,-27.7911570992205,0.0 -52.9921967,-27.7909339992205,0.0 -52.9917242,-27.7908573992205,0.0 -52.9913851,-27.7907633992205,0.0 -52.9909587,-27.7907645992205,0.0 -52.9906812,-27.7908011992205,0.0 -52.9902067,-27.7906718992205,0.0 -52.9896471,-27.7905965992205,0.0 -52.9889138,-27.7906592992205,0.0 -52.9844301,-27.7904893992205,0.0 -52.9764464,-27.7889497992205,0.0 -52.9769673,-27.7870632992205,0.0 -52.9727704,-27.7810326992206,0.0 -52.9743461,-27.7784411992207,0.0 -52.9774032,-27.7772438992207,0.0 -52.9804535,-27.7726230992208,0.0 -52.9834111,-27.7708708992208,0.0 -52.9841961,-27.7698001992209,0.0 -52.984279,-27.7673203992209,0.0 -52.9868278,-27.7673931992209,0.0 -52.9855848,-27.7656678992209,0.0 -52.9859294,-27.762314699221,0.0 -52.9827503,-27.763486899221,0.0 -52.9805457,-27.762085599221,0.0 -52.9778254,-27.762684499221,0.0 -52.9726105,-27.759595099221,0.0 -52.9720701,-27.761189999221,0.0 -52.9700317,-27.761543899221,0.0 -52.9702094,-27.763143199221,0.0 -52.9737768,-27.763955699221,0.0 -52.9742199,-27.7650687992209,0.0 -52.9741514,-27.7698866992209,0.0 -52.9732364,-27.7710546992208,0.0 -52.9718529,-27.7704786992208,0.0 -52.9687826,-27.7711595992208,0.0 -52.9677141,-27.7702023992208,0.0 -52.9665566,-27.7707387992209,0.0 -52.9650326,-27.7698908992209,0.0 -52.9627782,-27.7702168992209,0.0 -52.9626106,-27.7702408992209,0.0 -52.9621227,-27.7717305992208,0.0 -52.9595118,-27.7726321992208,0.0 -52.9572807,-27.7716805992208,0.0 -52.9546106,-27.7722865992208,0.0 -52.9528444,-27.7716434992208,0.0 -52.9526098,-27.7696511992209,0.0 -52.9474523,-27.7669673992209,0.0 -52.9427375,-27.7701489992209,0.0 -52.9416632,-27.7685734992209,0.0 -52.9425825,-27.765089499221,0.0 -52.9401878,-27.763677999221,0.0 -52.9395232,-27.7647384992209,0.0 -52.9374601,-27.7656384992209,0.0 -52.9359938,-27.7651489992209,0.0 -52.9348293,-27.7661776992209,0.0 -52.9326465,-27.7647812992209,0.0 -52.930697,-27.764636299221,0.0 -52.9272426,-27.759677499221,0.0 -52.9214553,-27.7546191992211,0.0 -52.9174025,-27.7527955992212,0.0 -52.9174088,-27.7445674992213,0.0 -52.9121914,-27.7383168992214,0.0 -52.9090104,-27.7415058992214,0.0 -52.9062805,-27.7458126992213,0.0 -52.9012837,-27.7471508992213,0.0 -52.8989009,-27.7495879992212,0.0 -52.8947791,-27.7508372992212,0.0 -52.8907923,-27.7554775992211,0.0 -52.8874294,-27.7563825992211,0.0 -52.8853179,-27.7591157992211,0.0 -52.8839324,-27.759294199221,0.0 -52.8823919,-27.760836399221,0.0 -52.8811686,-27.763898799221,0.0 -52.8815033,-27.7677822992209,0.0 -52.8783069,-27.7683329992209,0.0 -52.8792356,-27.7711728992208,0.0 -52.8816628,-27.7736169992208,0.0 -52.880937,-27.7759263992208,0.0 -52.8816757,-27.7772163992207,0.0 -52.8688469,-27.7760355992207,0.0 -52.8696825,-27.7704832992208,0.0 -52.8676507,-27.7712318992208,0.0 -52.8644117,-27.7707947992208,0.0 -52.8619571,-27.7724897992208,0.0 -52.85887,-27.7724607992208,0.0 -52.8579033,-27.7837061992206,0.0 -52.8551319,-27.7825788992206,0.0 -52.8539508,-27.7974812992204,0.0 -52.858327,-27.7987057992203,0.0 -52.8595897,-27.8002410992203,0.0 -52.8624806,-27.7999834992203,0.0 -52.8617525,-27.8059677992202,0.0 -52.8576751,-27.8050579992202,0.0 -52.855394,-27.8030820992202,0.0 -52.8483309,-27.8048829992202,0.0 -52.8451158,-27.8033393992202,0.0 -52.8375964,-27.8082676992201,0.0 -52.8375933,-27.8082697992201,0.0 -52.8367917,-27.8087951992201,0.0 -52.8335748,-27.8085694992201,0.0 -52.8225318,-27.8077954992202,0.0 -52.8245405,-27.8121092992201,0.0 -52.8243012,-27.8214188992199,0.0 -52.8233175,-27.8196365992199,0.0 -52.8164969,-27.8217644992199,0.0 -52.8186064,-27.8303650992197,0.0 -52.8133976,-27.8297321992197,0.0 -52.8102328,-27.8313840992197,0.0 -52.8065803,-27.8287882992198,0.0 -52.8033391,-27.8279544992198,0.0 -52.795922,-27.8287624992198,0.0 -52.7925294,-27.8263941992198,0.0 -52.7812668,-27.8265081992198,0.0 -52.7791923,-27.8340258992197,0.0 -52.7790429,-27.8345674992197,0.0 -52.7777996,-27.8390750992196,0.0 -52.7807696,-27.8465612992194,0.0 -52.7801265,-27.8514035992194,0.0 -52.7795879,-27.8519897992193,0.0 -52.7787083,-27.8529460992193,0.0 -52.7601508,-27.8731225992189,0.0 -52.7588507,-27.8754435992189,0.0 -52.7588343,-27.8754728992189,0.0 -52.7584642,-27.8761327992189,0.0 -52.7580234,-27.8801465992188,0.0 -52.7607526,-27.8868045992187,0.0 -52.7703516,-27.9032403992184,0.0 -52.7721488,-27.9154468992182,0.0 -52.7812901,-27.9115391992182,0.0 -52.7847104,-27.9116487992182,0.0 -52.7869479,-27.9129622992182,0.0 -52.7905308,-27.9135243992182,0.0 -52.79432,-27.9131891992182,0.0 -52.7961293,-27.9103985992183,0.0 -52.7936475,-27.9064778992183,0.0 -52.7964682,-27.9004419992184,0.0 -52.8030847,-27.8952041992185,0.0 -52.8061162,-27.8960795992185,0.0 -52.8115948,-27.8929409992186,0.0 -52.8137377,-27.8904402992186,0.0 -52.8158806,-27.8879394992187,0.0 -52.8169509,-27.8880488992187,0.0 -52.8178467,-27.8881404992187,0.0 -52.8191156,-27.8898935992186,0.0 -52.8217234,-27.8913433992186,0.0 -52.8220315,-27.8894286992186,0.0 -52.8239668,-27.8899494992186,0.0 -52.8252734,-27.8893425992187,0.0 -52.829869,-27.8908866992186,0.0 -52.8316195,-27.8925436992186,0.0 -52.833643,-27.8908139992186,0.0 -52.8413572,-27.8873691992187,0.0 -52.8473653,-27.8883714992187,0.0 -52.8479835,-27.8860044992187,0.0 -52.8466719,-27.8848873992187,0.0 -52.8468091,-27.8839257992187,0.0 -52.8494924,-27.8832452992188,0.0 -52.8502332,-27.8821452992188,0.0 -52.8516798,-27.8822998992188,0.0 -52.8517404,-27.8814675992188,0.0 -52.8537845,-27.8803386992188,0.0 -52.8539707,-27.8792448992188,0.0 -52.8568099,-27.8794660992188,0.0 -52.8580821,-27.8835656992188,0.0 -52.8578852,-27.8852937992187,0.0 -52.8617294,-27.8827639992188,0.0 -52.866826,-27.8839067992187,0.0 -52.8713756,-27.8835416992188,0.0 -52.8726473,-27.8845147992187,0.0 -52.874174,-27.8832116992188,0.0 -52.8757919,-27.8818308992188,0.0 -52.8780148,-27.8814219992188,0.0 -52.8785962,-27.8813150992188,0.0 -52.8798838,-27.8821140992188,0.0 -52.8824212,-27.8819758992188,0.0 -52.8829044,-27.8845720992187,0.0 -52.8860695,-27.8842295992187,0.0 -52.8860964,-27.8825929992188,0.0 -52.8879948,-27.8825695992188,0.0 -52.887574,-27.8851854992187,0.0 -52.8891886,-27.8850108992187,0.0 -52.8888599,-27.8863651992187,0.0 -52.8903354,-27.8867840992187,0.0 -52.8906016,-27.8852847992187,0.0 -52.8934838,-27.8850922992187,0.0 -52.8938955,-27.8838639992187,0.0 -52.89718,-27.8829563992188,0.0 -52.8973314,-27.8813406992188,0.0 -52.9000131,-27.8819891992188,0.0 -52.9011372,-27.8854259992187,0.0 -52.9031825,-27.8843369992187,0.0 -52.903374,-27.8851875992187,0.0 -52.9047744,-27.8856028992187,0.0 -52.9041228,-27.8860704992187,0.0 -52.9045937,-27.8868059992187,0.0 -52.9056328,-27.8869008992187,0.0 -52.9069445,-27.8887708992187,0.0 -52.9040191,-27.8895109992186,0.0 -52.9044783,-27.8905017992186,0.0 -52.9045151,-27.8905814992186,0.0 -52.9063394,-27.8897522992186,0.0 -52.9071645,-27.8905275992186,0.0 -52.9087365,-27.8889339992187,0.0 -52.9105215,-27.8892891992186,0.0 -52.912974,-27.8874858992187,0.0 -52.9133728,-27.8856916992187,0.0 -52.9143621,-27.8850777992187,0.0 -52.9153131,-27.8857887992187,0.0 -52.9153481,-27.8858149992187,0.0</coordinates>
</LinearRing>
</outerBoundaryIs>
</Polygon>
</MultiGeometry>
</Placemark>
</Folder>
</Document></kml>
