<?xml version='1.0' encoding='UTF-8'?>
<kml xmlns:xsd="http://www.w3.org/2001/XMLSchema" xmlns:gx="http://www.google.com/kml/ext/2.2" xmlns:atom="http://www.w3.org/2005/Atom" xmlns="http://www.opengis.net/kml/2.2">
<Document>
<name>correntes_2604700_localidades_2022</name>
<visibility>1</visibility>
<Schema name="Povoados" id="kml_schema_ft_Povoados">
<SimpleField type="xsd:string" name="CD_UF">
<displayName>CD_UF</displayName>
</SimpleField>
<SimpleField type="xsd:string" name="NM_UF">
<displayName>NM_UF</displayName>
</SimpleField>
<SimpleField type="xsd:string" name="SIGLA_UF">
<displayName>SIGLA_UF</displayName>
</SimpleField>
<SimpleField type="xsd:string" name="CD_MUN">
<displayName>CD_MUN</displayName>
</SimpleField>
<SimpleField type="xsd:string" name="NM_MUN">
<displayName>NM_MUN</displayName>
</SimpleField>
<SimpleField type="xsd:string" name="CD_RGINT">
<displayName>CD_RGINT</displayName>
</SimpleField>
<SimpleField type="xsd:string" name="NM_RGINT">
<displayName>NM_RGINT</displayName>
</SimpleField>
<SimpleField type="xsd:string" name="CD_RGI">
<displayName>CD_RGI</displayName>
</SimpleField>
<SimpleField type="xsd:string" name="NM_RGI">
<displayName>NM_RGI</displayName>
</SimpleField>
<SimpleField type="xsd:string" name="CT_LOCALIDADE">
<displayName>CT_LOCALIDADE</displayName>
</SimpleField>
<SimpleField type="xsd:string" name="CD_LOCALIDADE">
<displayName>CD_LOCALIDADE</displayName>
</SimpleField>
<SimpleField type="xsd:string" name="NM_LOCALIDADE">
<displayName>NM_LOCALIDADE</displayName>
</SimpleField>
<SimpleField type="xsd:string" name="LAT_LOCALIDADE">
<displayName>LAT_LOCALIDADE</displayName>
</SimpleField>
<SimpleField type="xsd:string" name="LONG_LOCALIDADE">
<displayName>LONG_LOCALIDADE</displayName>
</SimpleField>
</Schema>
<Schema name="Vilas" id="kml_schema_ft_Vilas">
<SimpleField type="xsd:string" name="CD_UF">
<displayName>CD_UF</displayName>
</SimpleField>
<SimpleField type="xsd:string" name="NM_UF">
<displayName>NM_UF</displayName>
</SimpleField>
<SimpleField type="xsd:string" name="SIGLA_UF">
<displayName>SIGLA_UF</displayName>
</SimpleField>
<SimpleField type="xsd:string" name="CD_MUN">
<displayName>CD_MUN</displayName>
</SimpleField>
<SimpleField type="xsd:string" name="NM_MUN">
<displayName>NM_MUN</displayName>
</SimpleField>
<SimpleField type="xsd:string" name="CD_RGINT">
<displayName>CD_RGINT</displayName>
</SimpleField>
<SimpleField type="xsd:string" name="NM_RGINT">
<displayName>NM_RGINT</displayName>
</SimpleField>
<SimpleField type="xsd:string" name="CD_RGI">
<displayName>CD_RGI</displayName>
</SimpleField>
<SimpleField type="xsd:string" name="NM_RGI">
<displayName>NM_RGI</displayName>
</SimpleField>
<SimpleField type="xsd:string" name="CT_LOCALIDADE">
<displayName>CT_LOCALIDADE</displayName>
</SimpleField>
<SimpleField type="xsd:string" name="CD_LOCALIDADE">
<displayName>CD_LOCALIDADE</displayName>
</SimpleField>
<SimpleField type="xsd:string" name="NM_LOCALIDADE">
<displayName>NM_LOCALIDADE</displayName>
</SimpleField>
<SimpleField type="xsd:string" name="LAT_LOCALIDADE">
<displayName>LAT_LOCALIDADE</displayName>
</SimpleField>
<SimpleField type="xsd:string" name="LONG_LOCALIDADE">
<displayName>LONG_LOCALIDADE</displayName>
</SimpleField>
</Schema>
<Schema name="Núcleos Urbanos" id="kml_schema_ft_Núcleos_Urbanos">
<SimpleField type="xsd:string" name="CD_UF">
<displayName>CD_UF</displayName>
</SimpleField>
<SimpleField type="xsd:string" name="NM_UF">
<displayName>NM_UF</displayName>
</SimpleField>
<SimpleField type="xsd:string" name="SIGLA_UF">
<displayName>SIGLA_UF</displayName>
</SimpleField>
<SimpleField type="xsd:string" name="CD_MUN">
<displayName>CD_MUN</displayName>
</SimpleField>
<SimpleField type="xsd:string" name="NM_MUN">
<displayName>NM_MUN</displayName>
</SimpleField>
<SimpleField type="xsd:string" name="CD_RGINT">
<displayName>CD_RGINT</displayName>
</SimpleField>
<SimpleField type="xsd:string" name="NM_RGINT">
<displayName>NM_RGINT</displayName>
</SimpleField>
<SimpleField type="xsd:string" name="CD_RGI">
<displayName>CD_RGI</displayName>
</SimpleField>
<SimpleField type="xsd:string" name="NM_RGI">
<displayName>NM_RGI</displayName>
</SimpleField>
<SimpleField type="xsd:string" name="CT_LOCALIDADE">
<displayName>CT_LOCALIDADE</displayName>
</SimpleField>
<SimpleField type="xsd:string" name="CD_LOCALIDADE">
<displayName>CD_LOCALIDADE</displayName>
</SimpleField>
<SimpleField type="xsd:string" name="NM_LOCALIDADE">
<displayName>NM_LOCALIDADE</displayName>
</SimpleField>
<SimpleField type="xsd:string" name="LAT_LOCALIDADE">
<displayName>LAT_LOCALIDADE</displayName>
</SimpleField>
<SimpleField type="xsd:string" name="LONG_LOCALIDADE">
<displayName>LONG_LOCALIDADE</displayName>
</SimpleField>
</Schema>
<Schema name="01. Cidade" id="kml_schema_ft_01._Cidade">
<SimpleField type="xsd:string" name="CD_UF">
<displayName>CD_UF</displayName>
</SimpleField>
<SimpleField type="xsd:string" name="NM_UF">
<displayName>NM_UF</displayName>
</SimpleField>
<SimpleField type="xsd:string" name="SIGLA_UF">
<displayName>SIGLA_UF</displayName>
</SimpleField>
<SimpleField type="xsd:string" name="CD_MUN">
<displayName>CD_MUN</displayName>
</SimpleField>
<SimpleField type="xsd:string" name="NM_MUN">
<displayName>NM_MUN</displayName>
</SimpleField>
<SimpleField type="xsd:string" name="CD_RGINT">
<displayName>CD_RGINT</displayName>
</SimpleField>
<SimpleField type="xsd:string" name="NM_RGINT">
<displayName>NM_RGINT</displayName>
</SimpleField>
<SimpleField type="xsd:string" name="CD_RGI">
<displayName>CD_RGI</displayName>
</SimpleField>
<SimpleField type="xsd:string" name="NM_RGI">
<displayName>NM_RGI</displayName>
</SimpleField>
<SimpleField type="xsd:string" name="CT_LOCALIDADE">
<displayName>CT_LOCALIDADE</displayName>
</SimpleField>
<SimpleField type="xsd:string" name="SCT_LOCALIDADE">
<displayName>SCT_LOCALIDADE</displayName>
</SimpleField>
<SimpleField type="xsd:string" name="CD_LOCALIDADE">
<displayName>CD_LOCALIDADE</displayName>
</SimpleField>
<SimpleField type="xsd:string" name="NM_LOCALIDADE">
<displayName>NM_LOCALIDADE</displayName>
</SimpleField>
<SimpleField type="xsd:string" name="LAT_LOCALIDADE">
<displayName>LAT_LOCALIDADE</displayName>
</SimpleField>
<SimpleField type="xsd:string" name="LONG_LOCALIDADE">
<displayName>LONG_LOCALIDADE</displayName>
</SimpleField>
</Schema>
<Schema name="Localidades" id="kml_schema_ft_Localidades">
<SimpleField type="xsd:string" name="CD_UF">
<displayName>CD_UF</displayName>
</SimpleField>
<SimpleField type="xsd:string" name="NM_UF">
<displayName>NM_UF</displayName>
</SimpleField>
<SimpleField type="xsd:string" name="SIGLA_UF">
<displayName>SIGLA_UF</displayName>
</SimpleField>
<SimpleField type="xsd:string" name="CD_MUN">
<displayName>CD_MUN</displayName>
</SimpleField>
<SimpleField type="xsd:string" name="NM_MUN">
<displayName>NM_MUN</displayName>
</SimpleField>
<SimpleField type="xsd:string" name="CD_RGINT">
<displayName>CD_RGINT</displayName>
</SimpleField>
<SimpleField type="xsd:string" name="NM_RGINT">
<displayName>NM_RGINT</displayName>
</SimpleField>
<SimpleField type="xsd:string" name="CD_RGI">
<displayName>CD_RGI</displayName>
</SimpleField>
<SimpleField type="xsd:string" name="NM_RGI">
<displayName>NM_RGI</displayName>
</SimpleField>
<SimpleField type="xsd:string" name="CT_LOCALIDADE">
<displayName>CT_LOCALIDADE</displayName>
</SimpleField>
<SimpleField type="xsd:string" name="SCT_LOCALIDADE">
<displayName>SCT_LOCALIDADE</displayName>
</SimpleField>
<SimpleField type="xsd:string" name="CD_LOCALIDADE">
<displayName>CD_LOCALIDADE</displayName>
</SimpleField>
<SimpleField type="xsd:string" name="NM_LOCALIDADE">
<displayName>NM_LOCALIDADE</displayName>
</SimpleField>
</Schema>
<Schema name="Território Quilombola" id="kml_schema_ft_Território_Quilombola">
<SimpleField type="xsd:string" name="COD_TQ">
<displayName>COD_TQ</displayName>
</SimpleField>
<SimpleField type="xsd:string" name="NOM_TQ">
<displayName>NOM_TQ</displayName>
</SimpleField>
</Schema>
<Schema name="Município" id="kml_schema_ft_Município">
<SimpleField type="xsd:string" name="CD_UF">
<displayName>CD_UF</displayName>
</SimpleField>
<SimpleField type="xsd:string" name="NM_UF">
<displayName>NM_UF</displayName>
</SimpleField>
<SimpleField type="xsd:string" name="CD_MUN">
<displayName>CD_MUN</displayName>
</SimpleField>
<SimpleField type="xsd:string" name="NM_MUN">
<displayName>NM_MUN</displayName>
</SimpleField>
<SimpleField type="xsd:string" name="CD_RGINT">
<displayName>CD_RGINT</displayName>
</SimpleField>
<SimpleField type="xsd:string" name="NM_RGINT">
<displayName>NM_RGINT</displayName>
</SimpleField>
<SimpleField type="xsd:string" name="CD_RGI">
<displayName>CD_RGI</displayName>
</SimpleField>
<SimpleField type="xsd:string" name="NM_RGI">
<displayName>NM_RGI</displayName>
</SimpleField>
</Schema>
<Folder id="01. Cidade">
<name>01. Cidade</name>
<Folder id="01.03. Sede Municipal">
<name>01.03. Sede Municipal</name>
<Placemark id="01.03. Sede Municipal">
<name>Correntes [2604700]</name>
<visibility>1</visibility>
<snippet> </snippet>
<description>&lt;center&gt;&lt;table&gt;&lt;tr&gt;&lt;th colspan='2' align='center'&gt;&lt;em&gt;Atributos&lt;/em&gt;&lt;/th&gt;&lt;/tr&gt;&lt;tr bgcolor="#E3E3F3"&gt;
&lt;th&gt;CD_UF&lt;/th&gt;
&lt;td&gt;26&lt;/td&gt;
&lt;/tr&gt;&lt;tr bgcolor=""&gt;
&lt;th&gt;NM_UF&lt;/th&gt;
&lt;td&gt;Pernambuco&lt;/td&gt;
&lt;/tr&gt;&lt;tr bgcolor="#E3E3F3"&gt;
&lt;th&gt;SIGLA_UF&lt;/th&gt;
&lt;td&gt;PE&lt;/td&gt;
&lt;/tr&gt;&lt;tr bgcolor=""&gt;
&lt;th&gt;CD_MUN&lt;/th&gt;
&lt;td&gt;2604700&lt;/td&gt;
&lt;/tr&gt;&lt;tr bgcolor="#E3E3F3"&gt;
&lt;th&gt;NM_MUN&lt;/th&gt;
&lt;td&gt;Correntes&lt;/td&gt;
&lt;/tr&gt;&lt;tr bgcolor=""&gt;
&lt;th&gt;CD_RGINT&lt;/th&gt;
&lt;td&gt;2602&lt;/td&gt;
&lt;/tr&gt;&lt;tr bgcolor="#E3E3F3"&gt;
&lt;th&gt;NM_RGINT&lt;/th&gt;
&lt;td&gt;Caruaru&lt;/td&gt;
&lt;/tr&gt;&lt;tr bgcolor=""&gt;
&lt;th&gt;CD_RGI&lt;/th&gt;
&lt;td&gt;260010&lt;/td&gt;
&lt;/tr&gt;&lt;tr bgcolor="#E3E3F3"&gt;
&lt;th&gt;NM_RGI&lt;/th&gt;
&lt;td&gt;Garanhuns&lt;/td&gt;
&lt;/tr&gt;&lt;tr bgcolor=""&gt;
&lt;th&gt;CT_LOCALIDADE&lt;/th&gt;
&lt;td&gt;Cidade&lt;/td&gt;
&lt;/tr&gt;&lt;tr bgcolor="#E3E3F3"&gt;
&lt;th&gt;SCT_LOCALIDADE&lt;/th&gt;
&lt;td&gt;Sede Municipal&lt;/td&gt;
&lt;/tr&gt;&lt;tr bgcolor=""&gt;
&lt;th&gt;CD_LOCALIDADE&lt;/th&gt;
&lt;td&gt;2604700&lt;/td&gt;
&lt;/tr&gt;&lt;tr bgcolor="#E3E3F3"&gt;
&lt;th&gt;NM_LOCALIDADE&lt;/th&gt;
&lt;td&gt;Correntes&lt;/td&gt;
&lt;/tr&gt;&lt;tr bgcolor=""&gt;
&lt;th&gt;LAT_LOCALIDADE&lt;/th&gt;
&lt;td&gt;-9.1294&lt;/td&gt;
&lt;/tr&gt;&lt;tr bgcolor="#E3E3F3"&gt;
&lt;th&gt;LONG_LOCALIDADE&lt;/th&gt;
&lt;td&gt;-36.328&lt;/td&gt;
&lt;/tr&gt;&lt;/table&gt;&lt;/center&gt;</description>
<Style>
<IconStyle>
<color>ff00aaff</color>
<scale>1.0</scale>
<Icon>
<href>http://maps.google.com/mapfiles/kml/shapes/placemark_circle.png</href>
</Icon>
</IconStyle>
<LabelStyle>
<scale>1.0</scale>
</LabelStyle>
<LineStyle>
<color>ffffffff</color>
<width>3</width>
<gx:labelVisibility>1</gx:labelVisibility>
</LineStyle>
<PolyStyle>
<color>00ffffff</color>
</PolyStyle>
</Style>
<ExtendedData>
<SchemaData schemaUrl="#kml_schema_ft_01._Cidade">
<SimpleData name="CD_UF">26</SimpleData>
<SimpleData name="NM_UF">Pernambuco</SimpleData>
<SimpleData name="SIGLA_UF">PE</SimpleData>
<SimpleData name="CD_MUN">2604700</SimpleData>
<SimpleData name="NM_MUN">Correntes</SimpleData>
<SimpleData name="CD_RGINT">2602</SimpleData>
<SimpleData name="NM_RGINT">Caruaru</SimpleData>
<SimpleData name="CD_RGI">260010</SimpleData>
<SimpleData name="NM_RGI">Garanhuns</SimpleData>
<SimpleData name="CT_LOCALIDADE">Cidade</SimpleData>
<SimpleData name="SCT_LOCALIDADE">Sede Municipal</SimpleData>
<SimpleData name="CD_LOCALIDADE">2604700</SimpleData>
<SimpleData name="NM_LOCALIDADE">Correntes</SimpleData>
<SimpleData name="LAT_LOCALIDADE">-9.1294</SimpleData>
<SimpleData name="LONG_LOCALIDADE">-36.328</SimpleData>
</SchemaData>
</ExtendedData>
<Point>
<extrude>0</extrude>
<coordinates>-36.327989,-9.12943299970327,0.0</coordinates>
</Point>
</Placemark>
</Folder>
</Folder>
<Folder id="04. Vilas">
<name>04. Vilas</name>
<Placemark id="04. Vilas">
<name>Poço Comprido [260470010]</name>
<visibility>1</visibility>
<snippet> </snippet>
<description>&lt;center&gt;&lt;table&gt;&lt;tr&gt;&lt;th colspan='2' align='center'&gt;&lt;em&gt;Atributos&lt;/em&gt;&lt;/th&gt;&lt;/tr&gt;&lt;tr bgcolor="#E3E3F3"&gt;
&lt;th&gt;CD_UF&lt;/th&gt;
&lt;td&gt;26&lt;/td&gt;
&lt;/tr&gt;&lt;tr bgcolor=""&gt;
&lt;th&gt;NM_UF&lt;/th&gt;
&lt;td&gt;Pernambuco&lt;/td&gt;
&lt;/tr&gt;&lt;tr bgcolor="#E3E3F3"&gt;
&lt;th&gt;SIGLA_UF&lt;/th&gt;
&lt;td&gt;PE&lt;/td&gt;
&lt;/tr&gt;&lt;tr bgcolor=""&gt;
&lt;th&gt;CD_MUN&lt;/th&gt;
&lt;td&gt;2604700&lt;/td&gt;
&lt;/tr&gt;&lt;tr bgcolor="#E3E3F3"&gt;
&lt;th&gt;NM_MUN&lt;/th&gt;
&lt;td&gt;Correntes&lt;/td&gt;
&lt;/tr&gt;&lt;tr bgcolor=""&gt;
&lt;th&gt;CD_RGINT&lt;/th&gt;
&lt;td&gt;2602&lt;/td&gt;
&lt;/tr&gt;&lt;tr bgcolor="#E3E3F3"&gt;
&lt;th&gt;NM_RGINT&lt;/th&gt;
&lt;td&gt;Caruaru&lt;/td&gt;
&lt;/tr&gt;&lt;tr bgcolor=""&gt;
&lt;th&gt;CD_RGI&lt;/th&gt;
&lt;td&gt;260010&lt;/td&gt;
&lt;/tr&gt;&lt;tr bgcolor="#E3E3F3"&gt;
&lt;th&gt;NM_RGI&lt;/th&gt;
&lt;td&gt;Garanhuns&lt;/td&gt;
&lt;/tr&gt;&lt;tr bgcolor=""&gt;
&lt;th&gt;CT_LOCALIDADE&lt;/th&gt;
&lt;td&gt;Vila&lt;/td&gt;
&lt;/tr&gt;&lt;tr bgcolor="#E3E3F3"&gt;
&lt;th&gt;CD_LOCALIDADE&lt;/th&gt;
&lt;td&gt;260470010&lt;/td&gt;
&lt;/tr&gt;&lt;tr bgcolor=""&gt;
&lt;th&gt;NM_LOCALIDADE&lt;/th&gt;
&lt;td&gt;Poço Comprido&lt;/td&gt;
&lt;/tr&gt;&lt;tr bgcolor="#E3E3F3"&gt;
&lt;th&gt;LAT_LOCALIDADE&lt;/th&gt;
&lt;td&gt;-9.0399&lt;/td&gt;
&lt;/tr&gt;&lt;tr bgcolor=""&gt;
&lt;th&gt;LONG_LOCALIDADE&lt;/th&gt;
&lt;td&gt;-36.398&lt;/td&gt;
&lt;/tr&gt;&lt;/table&gt;&lt;/center&gt;</description>
<Style>
<IconStyle>
<color>ffff5400</color>
<scale>1.0</scale>
<Icon>
<href>http://maps.google.com/mapfiles/kml/shapes/placemark_circle.png</href>
</Icon>
</IconStyle>
<LabelStyle>
<scale>0.9</scale>
</LabelStyle>
<LineStyle>
<color>72ffffff</color>
<width>1.0</width>
<gx:labelVisibility>1</gx:labelVisibility>
</LineStyle>
<PolyStyle>
<color>660054ff</color>
</PolyStyle>
</Style>
<ExtendedData>
<SchemaData schemaUrl="#kml_schema_ft_Vilas">
<SimpleData name="CD_UF">26</SimpleData>
<SimpleData name="NM_UF">Pernambuco</SimpleData>
<SimpleData name="SIGLA_UF">PE</SimpleData>
<SimpleData name="CD_MUN">2604700</SimpleData>
<SimpleData name="NM_MUN">Correntes</SimpleData>
<SimpleData name="CD_RGINT">2602</SimpleData>
<SimpleData name="NM_RGINT">Caruaru</SimpleData>
<SimpleData name="CD_RGI">260010</SimpleData>
<SimpleData name="NM_RGI">Garanhuns</SimpleData>
<SimpleData name="CT_LOCALIDADE">Vila</SimpleData>
<SimpleData name="CD_LOCALIDADE">260470010</SimpleData>
<SimpleData name="NM_LOCALIDADE">Poço Comprido</SimpleData>
<SimpleData name="LAT_LOCALIDADE">-9.0399</SimpleData>
<SimpleData name="LONG_LOCALIDADE">-36.398</SimpleData>
</SchemaData>
</ExtendedData>
<Point>
<extrude>0</extrude>
<coordinates>-36.397997,-9.03993599970608,0.0</coordinates>
</Point>
</Placemark>
</Folder>
<Folder id="05. Núcleos Urbanos">
<name>05. Núcleos Urbanos</name>
<Placemark id="localidades">
<name>Residencial Ronaldo Amaral [2604700001]</name>
<visibility>1</visibility>
<snippet> </snippet>
<description>&lt;center&gt;&lt;table&gt;&lt;tr&gt;&lt;th colspan='2' align='center'&gt;&lt;em&gt;Attributes&lt;/em&gt;&lt;/th&gt;&lt;/tr&gt;&lt;tr bgcolor="#E3E3F3"&gt;
&lt;th&gt;CD_UF&lt;/th&gt;
&lt;td&gt;26&lt;/td&gt;
&lt;/tr&gt;&lt;tr bgcolor=""&gt;
&lt;th&gt;NM_UF&lt;/th&gt;
&lt;td&gt;Pernambuco&lt;/td&gt;
&lt;/tr&gt;&lt;tr bgcolor="#E3E3F3"&gt;
&lt;th&gt;SIGLA_UF&lt;/th&gt;
&lt;td&gt;PE&lt;/td&gt;
&lt;/tr&gt;&lt;tr bgcolor=""&gt;
&lt;th&gt;CD_MUN&lt;/th&gt;
&lt;td&gt;2604700&lt;/td&gt;
&lt;/tr&gt;&lt;tr bgcolor="#E3E3F3"&gt;
&lt;th&gt;NM_MUN&lt;/th&gt;
&lt;td&gt;Correntes&lt;/td&gt;
&lt;/tr&gt;&lt;tr bgcolor=""&gt;
&lt;th&gt;CD_RGINT&lt;/th&gt;
&lt;td&gt;2602&lt;/td&gt;
&lt;/tr&gt;&lt;tr bgcolor="#E3E3F3"&gt;
&lt;th&gt;NM_RGINT&lt;/th&gt;
&lt;td&gt;Caruaru&lt;/td&gt;
&lt;/tr&gt;&lt;tr bgcolor=""&gt;
&lt;th&gt;CD_RGI&lt;/th&gt;
&lt;td&gt;260010&lt;/td&gt;
&lt;/tr&gt;&lt;tr bgcolor="#E3E3F3"&gt;
&lt;th&gt;NM_RGI&lt;/th&gt;
&lt;td&gt;Garanhuns&lt;/td&gt;
&lt;/tr&gt;&lt;tr bgcolor=""&gt;
&lt;th&gt;CT_LOCALIDADE&lt;/th&gt;
&lt;td&gt;Núcleo Urbano&lt;/td&gt;
&lt;/tr&gt;&lt;tr bgcolor="#E3E3F3"&gt;
&lt;th&gt;CD_LOCALIDADE&lt;/th&gt;
&lt;td&gt;2604700001&lt;/td&gt;
&lt;/tr&gt;&lt;tr bgcolor=""&gt;
&lt;th&gt;NM_LOCALIDADE&lt;/th&gt;
&lt;td&gt;Residencial Ronaldo Amaral&lt;/td&gt;
&lt;/tr&gt;&lt;tr bgcolor="#E3E3F3"&gt;
&lt;th&gt;LAT_LOCALIDADE&lt;/th&gt;
&lt;td&gt;-9.1415&lt;/td&gt;
&lt;/tr&gt;&lt;tr bgcolor=""&gt;
&lt;th&gt;LONG_LOCALIDADE&lt;/th&gt;
&lt;td&gt;-36.313&lt;/td&gt;
&lt;/tr&gt;&lt;/table&gt;&lt;/center&gt;</description>
<Style>
<IconStyle>
<color>ff0000ff</color>
<scale>0.9</scale>
<Icon>
<href>http://maps.google.com/mapfiles/kml/shapes/placemark_circle.png</href>
</Icon>
</IconStyle>
<LabelStyle>
<scale>0.9</scale>
</LabelStyle>
<LineStyle>
<color>72ffffff</color>
<width>1.0</width>
<gx:labelVisibility>1</gx:labelVisibility>
</LineStyle>
<PolyStyle>
<color>66ff54ff</color>
</PolyStyle>
</Style>
<ExtendedData>
<SchemaData schemaUrl="#kml_schema_ft_Núcleos_Urbanos">
<SimpleData name="CD_UF">26</SimpleData>
<SimpleData name="NM_UF">Pernambuco</SimpleData>
<SimpleData name="SIGLA_UF">PE</SimpleData>
<SimpleData name="CD_MUN">2604700</SimpleData>
<SimpleData name="NM_MUN">Correntes</SimpleData>
<SimpleData name="CD_RGINT">2602</SimpleData>
<SimpleData name="NM_RGINT">Caruaru</SimpleData>
<SimpleData name="CD_RGI">260010</SimpleData>
<SimpleData name="NM_RGI">Garanhuns</SimpleData>
<SimpleData name="CT_LOCALIDADE">Núcleo Urbano</SimpleData>
<SimpleData name="CD_LOCALIDADE">2604700001</SimpleData>
<SimpleData name="NM_LOCALIDADE">Residencial Ronaldo Amaral</SimpleData>
<SimpleData name="LAT_LOCALIDADE">-9.1415</SimpleData>
<SimpleData name="LONG_LOCALIDADE">-36.313</SimpleData>
</SchemaData>
</ExtendedData>
<Point>
<extrude>0</extrude>
<coordinates>-36.3129657427007,-9.14145071320653,0.0</coordinates>
</Point>
</Placemark>
</Folder>
<Folder id="06. Povoados">
<name>06. Povoados</name>
<Placemark id="06. Povoados">
<name>Pau Amarelo [260470000001]</name>
<visibility>1</visibility>
<snippet> </snippet>
<description>&lt;center&gt;&lt;table&gt;&lt;tr&gt;&lt;th colspan='2' align='center'&gt;&lt;em&gt;Atributos&lt;/em&gt;&lt;/th&gt;&lt;/tr&gt;&lt;tr bgcolor="#E3E3F3"&gt;
&lt;th&gt;CD_UF&lt;/th&gt;
&lt;td&gt;26&lt;/td&gt;
&lt;/tr&gt;&lt;tr bgcolor=""&gt;
&lt;th&gt;NM_UF&lt;/th&gt;
&lt;td&gt;Pernambuco&lt;/td&gt;
&lt;/tr&gt;&lt;tr bgcolor="#E3E3F3"&gt;
&lt;th&gt;SIGLA_UF&lt;/th&gt;
&lt;td&gt;PE&lt;/td&gt;
&lt;/tr&gt;&lt;tr bgcolor=""&gt;
&lt;th&gt;CD_MUN&lt;/th&gt;
&lt;td&gt;2604700&lt;/td&gt;
&lt;/tr&gt;&lt;tr bgcolor="#E3E3F3"&gt;
&lt;th&gt;NM_MUN&lt;/th&gt;
&lt;td&gt;Correntes&lt;/td&gt;
&lt;/tr&gt;&lt;tr bgcolor=""&gt;
&lt;th&gt;CD_RGINT&lt;/th&gt;
&lt;td&gt;2602&lt;/td&gt;
&lt;/tr&gt;&lt;tr bgcolor="#E3E3F3"&gt;
&lt;th&gt;NM_RGINT&lt;/th&gt;
&lt;td&gt;Caruaru&lt;/td&gt;
&lt;/tr&gt;&lt;tr bgcolor=""&gt;
&lt;th&gt;CD_RGI&lt;/th&gt;
&lt;td&gt;260010&lt;/td&gt;
&lt;/tr&gt;&lt;tr bgcolor="#E3E3F3"&gt;
&lt;th&gt;NM_RGI&lt;/th&gt;
&lt;td&gt;Garanhuns&lt;/td&gt;
&lt;/tr&gt;&lt;tr bgcolor=""&gt;
&lt;th&gt;CT_LOCALIDADE&lt;/th&gt;
&lt;td&gt;Povoado&lt;/td&gt;
&lt;/tr&gt;&lt;tr bgcolor="#E3E3F3"&gt;
&lt;th&gt;CD_LOCALIDADE&lt;/th&gt;
&lt;td&gt;260470000001&lt;/td&gt;
&lt;/tr&gt;&lt;tr bgcolor=""&gt;
&lt;th&gt;NM_LOCALIDADE&lt;/th&gt;
&lt;td&gt;Pau Amarelo&lt;/td&gt;
&lt;/tr&gt;&lt;tr bgcolor="#E3E3F3"&gt;
&lt;th&gt;LAT_LOCALIDADE&lt;/th&gt;
&lt;td&gt;-9.1256&lt;/td&gt;
&lt;/tr&gt;&lt;tr bgcolor=""&gt;
&lt;th&gt;LONG_LOCALIDADE&lt;/th&gt;
&lt;td&gt;-36.2969&lt;/td&gt;
&lt;/tr&gt;&lt;/table&gt;&lt;/center&gt;</description>
<Style>
<IconStyle>
<color>ff00ff54</color>
<scale>0.8</scale>
<Icon>
<href>http://maps.google.com/mapfiles/kml/shapes/placemark_circle.png</href>
</Icon>
</IconStyle>
<LabelStyle>
<scale>0.8</scale>
</LabelStyle>
<LineStyle>
<color>72ff54ff</color>
<width>1.0</width>
<gx:labelVisibility>1</gx:labelVisibility>
</LineStyle>
<PolyStyle>
<color>66ff54ff</color>
</PolyStyle>
</Style>
<ExtendedData>
<SchemaData schemaUrl="#kml_schema_ft_Povoados">
<SimpleData name="CD_UF">26</SimpleData>
<SimpleData name="NM_UF">Pernambuco</SimpleData>
<SimpleData name="SIGLA_UF">PE</SimpleData>
<SimpleData name="CD_MUN">2604700</SimpleData>
<SimpleData name="NM_MUN">Correntes</SimpleData>
<SimpleData name="CD_RGINT">2602</SimpleData>
<SimpleData name="NM_RGINT">Caruaru</SimpleData>
<SimpleData name="CD_RGI">260010</SimpleData>
<SimpleData name="NM_RGI">Garanhuns</SimpleData>
<SimpleData name="CT_LOCALIDADE">Povoado</SimpleData>
<SimpleData name="CD_LOCALIDADE">260470000001</SimpleData>
<SimpleData name="NM_LOCALIDADE">Pau Amarelo</SimpleData>
<SimpleData name="LAT_LOCALIDADE">-9.1256</SimpleData>
<SimpleData name="LONG_LOCALIDADE">-36.2969</SimpleData>
</SchemaData>
</ExtendedData>
<Point>
<extrude>0</extrude>
<coordinates>-36.2969389442231,-9.12557936623725,0.0</coordinates>
</Point>
</Placemark>
<Placemark id="06. Povoados">
<name>Olho d'Água de Góis [260470000002]</name>
<visibility>1</visibility>
<snippet> </snippet>
<description>&lt;center&gt;&lt;table&gt;&lt;tr&gt;&lt;th colspan='2' align='center'&gt;&lt;em&gt;Atributos&lt;/em&gt;&lt;/th&gt;&lt;/tr&gt;&lt;tr bgcolor="#E3E3F3"&gt;
&lt;th&gt;CD_UF&lt;/th&gt;
&lt;td&gt;26&lt;/td&gt;
&lt;/tr&gt;&lt;tr bgcolor=""&gt;
&lt;th&gt;NM_UF&lt;/th&gt;
&lt;td&gt;Pernambuco&lt;/td&gt;
&lt;/tr&gt;&lt;tr bgcolor="#E3E3F3"&gt;
&lt;th&gt;SIGLA_UF&lt;/th&gt;
&lt;td&gt;PE&lt;/td&gt;
&lt;/tr&gt;&lt;tr bgcolor=""&gt;
&lt;th&gt;CD_MUN&lt;/th&gt;
&lt;td&gt;2604700&lt;/td&gt;
&lt;/tr&gt;&lt;tr bgcolor="#E3E3F3"&gt;
&lt;th&gt;NM_MUN&lt;/th&gt;
&lt;td&gt;Correntes&lt;/td&gt;
&lt;/tr&gt;&lt;tr bgcolor=""&gt;
&lt;th&gt;CD_RGINT&lt;/th&gt;
&lt;td&gt;2602&lt;/td&gt;
&lt;/tr&gt;&lt;tr bgcolor="#E3E3F3"&gt;
&lt;th&gt;NM_RGINT&lt;/th&gt;
&lt;td&gt;Caruaru&lt;/td&gt;
&lt;/tr&gt;&lt;tr bgcolor=""&gt;
&lt;th&gt;CD_RGI&lt;/th&gt;
&lt;td&gt;260010&lt;/td&gt;
&lt;/tr&gt;&lt;tr bgcolor="#E3E3F3"&gt;
&lt;th&gt;NM_RGI&lt;/th&gt;
&lt;td&gt;Garanhuns&lt;/td&gt;
&lt;/tr&gt;&lt;tr bgcolor=""&gt;
&lt;th&gt;CT_LOCALIDADE&lt;/th&gt;
&lt;td&gt;Povoado&lt;/td&gt;
&lt;/tr&gt;&lt;tr bgcolor="#E3E3F3"&gt;
&lt;th&gt;CD_LOCALIDADE&lt;/th&gt;
&lt;td&gt;260470000002&lt;/td&gt;
&lt;/tr&gt;&lt;tr bgcolor=""&gt;
&lt;th&gt;NM_LOCALIDADE&lt;/th&gt;
&lt;td&gt;Olho d'Água de Góis&lt;/td&gt;
&lt;/tr&gt;&lt;tr bgcolor="#E3E3F3"&gt;
&lt;th&gt;LAT_LOCALIDADE&lt;/th&gt;
&lt;td&gt;-9.073&lt;/td&gt;
&lt;/tr&gt;&lt;tr bgcolor=""&gt;
&lt;th&gt;LONG_LOCALIDADE&lt;/th&gt;
&lt;td&gt;-36.4273&lt;/td&gt;
&lt;/tr&gt;&lt;/table&gt;&lt;/center&gt;</description>
<Style>
<IconStyle>
<color>ff00ff54</color>
<scale>0.8</scale>
<Icon>
<href>http://maps.google.com/mapfiles/kml/shapes/placemark_circle.png</href>
</Icon>
</IconStyle>
<LabelStyle>
<scale>0.8</scale>
</LabelStyle>
<LineStyle>
<color>72ff54ff</color>
<width>1.0</width>
<gx:labelVisibility>1</gx:labelVisibility>
</LineStyle>
<PolyStyle>
<color>66ff54ff</color>
</PolyStyle>
</Style>
<ExtendedData>
<SchemaData schemaUrl="#kml_schema_ft_Povoados">
<SimpleData name="CD_UF">26</SimpleData>
<SimpleData name="NM_UF">Pernambuco</SimpleData>
<SimpleData name="SIGLA_UF">PE</SimpleData>
<SimpleData name="CD_MUN">2604700</SimpleData>
<SimpleData name="NM_MUN">Correntes</SimpleData>
<SimpleData name="CD_RGINT">2602</SimpleData>
<SimpleData name="NM_RGINT">Caruaru</SimpleData>
<SimpleData name="CD_RGI">260010</SimpleData>
<SimpleData name="NM_RGI">Garanhuns</SimpleData>
<SimpleData name="CT_LOCALIDADE">Povoado</SimpleData>
<SimpleData name="CD_LOCALIDADE">260470000002</SimpleData>
<SimpleData name="NM_LOCALIDADE">Olho d'Água de Góis</SimpleData>
<SimpleData name="LAT_LOCALIDADE">-9.073</SimpleData>
<SimpleData name="LONG_LOCALIDADE">-36.4273</SimpleData>
</SchemaData>
</ExtendedData>
<Point>
<extrude>0</extrude>
<coordinates>-36.4272721902654,-9.07296011032451,0.0</coordinates>
</Point>
</Placemark>
</Folder>
<Folder id="12. Outras Localidades">
<name>12. Outras Localidades</name>
<Placemark id="12. Outras Localidades">
<name>Sítio Flecheira [260470000003]</name>
<visibility>1</visibility>
<snippet> </snippet>
<description>&lt;center&gt;&lt;table&gt;&lt;tr&gt;&lt;th colspan='2' align='center'&gt;&lt;em&gt;Attributes&lt;/em&gt;&lt;/th&gt;&lt;/tr&gt;&lt;tr bgcolor="#E3E3F3"&gt;
&lt;th&gt;CD_UF&lt;/th&gt;
&lt;td&gt;26&lt;/td&gt;
&lt;/tr&gt;&lt;tr bgcolor=""&gt;
&lt;th&gt;NM_UF&lt;/th&gt;
&lt;td&gt;Pernambuco&lt;/td&gt;
&lt;/tr&gt;&lt;tr bgcolor="#E3E3F3"&gt;
&lt;th&gt;SIGLA_UF&lt;/th&gt;
&lt;td&gt;PE&lt;/td&gt;
&lt;/tr&gt;&lt;tr bgcolor=""&gt;
&lt;th&gt;CD_MUN&lt;/th&gt;
&lt;td&gt;2604700&lt;/td&gt;
&lt;/tr&gt;&lt;tr bgcolor="#E3E3F3"&gt;
&lt;th&gt;NM_MUN&lt;/th&gt;
&lt;td&gt;Correntes&lt;/td&gt;
&lt;/tr&gt;&lt;tr bgcolor=""&gt;
&lt;th&gt;CD_RGINT&lt;/th&gt;
&lt;td&gt;2602&lt;/td&gt;
&lt;/tr&gt;&lt;tr bgcolor="#E3E3F3"&gt;
&lt;th&gt;NM_RGINT&lt;/th&gt;
&lt;td&gt;Caruaru&lt;/td&gt;
&lt;/tr&gt;&lt;tr bgcolor=""&gt;
&lt;th&gt;CD_RGI&lt;/th&gt;
&lt;td&gt;260010&lt;/td&gt;
&lt;/tr&gt;&lt;tr bgcolor="#E3E3F3"&gt;
&lt;th&gt;NM_RGI&lt;/th&gt;
&lt;td&gt;Garanhuns&lt;/td&gt;
&lt;/tr&gt;&lt;tr bgcolor=""&gt;
&lt;th&gt;CT_LOCALIDADE&lt;/th&gt;
&lt;td&gt;Outras Localidades&lt;/td&gt;
&lt;/tr&gt;&lt;tr bgcolor="#E3E3F3"&gt;
&lt;th&gt;SCT_LOCALIDADE&lt;/th&gt;
&lt;td&gt;&lt;/td&gt;
&lt;/tr&gt;&lt;tr bgcolor=""&gt;
&lt;th&gt;CD_LOCALIDADE&lt;/th&gt;
&lt;td&gt;260470000003&lt;/td&gt;
&lt;/tr&gt;&lt;tr bgcolor="#E3E3F3"&gt;
&lt;th&gt;NM_LOCALIDADE&lt;/th&gt;
&lt;td&gt;Sítio Flecheira&lt;/td&gt;
&lt;/tr&gt;&lt;/table&gt;&lt;/center&gt;</description>
<Style>
<IconStyle>
<color>ff0069d3</color>
<scale>0.6</scale>
<Icon>
<href>http://maps.google.com/mapfiles/kml/shapes/placemark_circle.png</href>
</Icon>
</IconStyle>
<LabelStyle>
<scale>0.6</scale>
</LabelStyle>
<LineStyle>
<width>1.0</width>
<gx:labelVisibility>1</gx:labelVisibility>
</LineStyle>
</Style>
<ExtendedData>
<SchemaData schemaUrl="#kml_schema_ft_Localidades">
<SimpleData name="CD_UF">26</SimpleData>
<SimpleData name="NM_UF">Pernambuco</SimpleData>
<SimpleData name="SIGLA_UF">PE</SimpleData>
<SimpleData name="CD_MUN">2604700</SimpleData>
<SimpleData name="NM_MUN">Correntes</SimpleData>
<SimpleData name="CD_RGINT">2602</SimpleData>
<SimpleData name="NM_RGINT">Caruaru</SimpleData>
<SimpleData name="CD_RGI">260010</SimpleData>
<SimpleData name="NM_RGI">Garanhuns</SimpleData>
<SimpleData name="CT_LOCALIDADE">Outras Localidades</SimpleData>
<SimpleData name="CD_LOCALIDADE">260470000003</SimpleData>
<SimpleData name="NM_LOCALIDADE">Sítio Flecheira</SimpleData>
</SchemaData>
</ExtendedData>
<Point>
<extrude>0</extrude>
<coordinates>-36.407444,-9.13435999970312,0.0</coordinates>
</Point>
</Placemark>
<Placemark id="12. Outras Localidades">
<name>Sítio Mata Verde [260470000004]</name>
<visibility>1</visibility>
<snippet> </snippet>
<description>&lt;center&gt;&lt;table&gt;&lt;tr&gt;&lt;th colspan='2' align='center'&gt;&lt;em&gt;Attributes&lt;/em&gt;&lt;/th&gt;&lt;/tr&gt;&lt;tr bgcolor="#E3E3F3"&gt;
&lt;th&gt;CD_UF&lt;/th&gt;
&lt;td&gt;26&lt;/td&gt;
&lt;/tr&gt;&lt;tr bgcolor=""&gt;
&lt;th&gt;NM_UF&lt;/th&gt;
&lt;td&gt;Pernambuco&lt;/td&gt;
&lt;/tr&gt;&lt;tr bgcolor="#E3E3F3"&gt;
&lt;th&gt;SIGLA_UF&lt;/th&gt;
&lt;td&gt;PE&lt;/td&gt;
&lt;/tr&gt;&lt;tr bgcolor=""&gt;
&lt;th&gt;CD_MUN&lt;/th&gt;
&lt;td&gt;2604700&lt;/td&gt;
&lt;/tr&gt;&lt;tr bgcolor="#E3E3F3"&gt;
&lt;th&gt;NM_MUN&lt;/th&gt;
&lt;td&gt;Correntes&lt;/td&gt;
&lt;/tr&gt;&lt;tr bgcolor=""&gt;
&lt;th&gt;CD_RGINT&lt;/th&gt;
&lt;td&gt;2602&lt;/td&gt;
&lt;/tr&gt;&lt;tr bgcolor="#E3E3F3"&gt;
&lt;th&gt;NM_RGINT&lt;/th&gt;
&lt;td&gt;Caruaru&lt;/td&gt;
&lt;/tr&gt;&lt;tr bgcolor=""&gt;
&lt;th&gt;CD_RGI&lt;/th&gt;
&lt;td&gt;260010&lt;/td&gt;
&lt;/tr&gt;&lt;tr bgcolor="#E3E3F3"&gt;
&lt;th&gt;NM_RGI&lt;/th&gt;
&lt;td&gt;Garanhuns&lt;/td&gt;
&lt;/tr&gt;&lt;tr bgcolor=""&gt;
&lt;th&gt;CT_LOCALIDADE&lt;/th&gt;
&lt;td&gt;Outras Localidades&lt;/td&gt;
&lt;/tr&gt;&lt;tr bgcolor="#E3E3F3"&gt;
&lt;th&gt;SCT_LOCALIDADE&lt;/th&gt;
&lt;td&gt;&lt;/td&gt;
&lt;/tr&gt;&lt;tr bgcolor=""&gt;
&lt;th&gt;CD_LOCALIDADE&lt;/th&gt;
&lt;td&gt;260470000004&lt;/td&gt;
&lt;/tr&gt;&lt;tr bgcolor="#E3E3F3"&gt;
&lt;th&gt;NM_LOCALIDADE&lt;/th&gt;
&lt;td&gt;Sítio Mata Verde&lt;/td&gt;
&lt;/tr&gt;&lt;/table&gt;&lt;/center&gt;</description>
<Style>
<IconStyle>
<color>ff0069d3</color>
<scale>0.6</scale>
<Icon>
<href>http://maps.google.com/mapfiles/kml/shapes/placemark_circle.png</href>
</Icon>
</IconStyle>
<LabelStyle>
<scale>0.6</scale>
</LabelStyle>
<LineStyle>
<width>1.0</width>
<gx:labelVisibility>1</gx:labelVisibility>
</LineStyle>
</Style>
<ExtendedData>
<SchemaData schemaUrl="#kml_schema_ft_Localidades">
<SimpleData name="CD_UF">26</SimpleData>
<SimpleData name="NM_UF">Pernambuco</SimpleData>
<SimpleData name="SIGLA_UF">PE</SimpleData>
<SimpleData name="CD_MUN">2604700</SimpleData>
<SimpleData name="NM_MUN">Correntes</SimpleData>
<SimpleData name="CD_RGINT">2602</SimpleData>
<SimpleData name="NM_RGINT">Caruaru</SimpleData>
<SimpleData name="CD_RGI">260010</SimpleData>
<SimpleData name="NM_RGI">Garanhuns</SimpleData>
<SimpleData name="CT_LOCALIDADE">Outras Localidades</SimpleData>
<SimpleData name="CD_LOCALIDADE">260470000004</SimpleData>
<SimpleData name="NM_LOCALIDADE">Sítio Mata Verde</SimpleData>
</SchemaData>
</ExtendedData>
<Point>
<extrude>0</extrude>
<coordinates>-36.384091,-9.11294899970379,0.0</coordinates>
</Point>
</Placemark>
<Placemark id="12. Outras Localidades">
<name>Sítio São Francisco [260470000005]</name>
<visibility>1</visibility>
<snippet> </snippet>
<description>&lt;center&gt;&lt;table&gt;&lt;tr&gt;&lt;th colspan='2' align='center'&gt;&lt;em&gt;Attributes&lt;/em&gt;&lt;/th&gt;&lt;/tr&gt;&lt;tr bgcolor="#E3E3F3"&gt;
&lt;th&gt;CD_UF&lt;/th&gt;
&lt;td&gt;26&lt;/td&gt;
&lt;/tr&gt;&lt;tr bgcolor=""&gt;
&lt;th&gt;NM_UF&lt;/th&gt;
&lt;td&gt;Pernambuco&lt;/td&gt;
&lt;/tr&gt;&lt;tr bgcolor="#E3E3F3"&gt;
&lt;th&gt;SIGLA_UF&lt;/th&gt;
&lt;td&gt;PE&lt;/td&gt;
&lt;/tr&gt;&lt;tr bgcolor=""&gt;
&lt;th&gt;CD_MUN&lt;/th&gt;
&lt;td&gt;2604700&lt;/td&gt;
&lt;/tr&gt;&lt;tr bgcolor="#E3E3F3"&gt;
&lt;th&gt;NM_MUN&lt;/th&gt;
&lt;td&gt;Correntes&lt;/td&gt;
&lt;/tr&gt;&lt;tr bgcolor=""&gt;
&lt;th&gt;CD_RGINT&lt;/th&gt;
&lt;td&gt;2602&lt;/td&gt;
&lt;/tr&gt;&lt;tr bgcolor="#E3E3F3"&gt;
&lt;th&gt;NM_RGINT&lt;/th&gt;
&lt;td&gt;Caruaru&lt;/td&gt;
&lt;/tr&gt;&lt;tr bgcolor=""&gt;
&lt;th&gt;CD_RGI&lt;/th&gt;
&lt;td&gt;260010&lt;/td&gt;
&lt;/tr&gt;&lt;tr bgcolor="#E3E3F3"&gt;
&lt;th&gt;NM_RGI&lt;/th&gt;
&lt;td&gt;Garanhuns&lt;/td&gt;
&lt;/tr&gt;&lt;tr bgcolor=""&gt;
&lt;th&gt;CT_LOCALIDADE&lt;/th&gt;
&lt;td&gt;Outras Localidades&lt;/td&gt;
&lt;/tr&gt;&lt;tr bgcolor="#E3E3F3"&gt;
&lt;th&gt;SCT_LOCALIDADE&lt;/th&gt;
&lt;td&gt;&lt;/td&gt;
&lt;/tr&gt;&lt;tr bgcolor=""&gt;
&lt;th&gt;CD_LOCALIDADE&lt;/th&gt;
&lt;td&gt;260470000005&lt;/td&gt;
&lt;/tr&gt;&lt;tr bgcolor="#E3E3F3"&gt;
&lt;th&gt;NM_LOCALIDADE&lt;/th&gt;
&lt;td&gt;Sítio São Francisco&lt;/td&gt;
&lt;/tr&gt;&lt;/table&gt;&lt;/center&gt;</description>
<Style>
<IconStyle>
<color>ff0069d3</color>
<scale>0.6</scale>
<Icon>
<href>http://maps.google.com/mapfiles/kml/shapes/placemark_circle.png</href>
</Icon>
</IconStyle>
<LabelStyle>
<scale>0.6</scale>
</LabelStyle>
<LineStyle>
<width>1.0</width>
<gx:labelVisibility>1</gx:labelVisibility>
</LineStyle>
</Style>
<ExtendedData>
<SchemaData schemaUrl="#kml_schema_ft_Localidades">
<SimpleData name="CD_UF">26</SimpleData>
<SimpleData name="NM_UF">Pernambuco</SimpleData>
<SimpleData name="SIGLA_UF">PE</SimpleData>
<SimpleData name="CD_MUN">2604700</SimpleData>
<SimpleData name="NM_MUN">Correntes</SimpleData>
<SimpleData name="CD_RGINT">2602</SimpleData>
<SimpleData name="NM_RGINT">Caruaru</SimpleData>
<SimpleData name="CD_RGI">260010</SimpleData>
<SimpleData name="NM_RGI">Garanhuns</SimpleData>
<SimpleData name="CT_LOCALIDADE">Outras Localidades</SimpleData>
<SimpleData name="CD_LOCALIDADE">260470000005</SimpleData>
<SimpleData name="NM_LOCALIDADE">Sítio São Francisco</SimpleData>
</SchemaData>
</ExtendedData>
<Point>
<extrude>0</extrude>
<coordinates>-36.34931,-9.14635699970274,0.0</coordinates>
</Point>
</Placemark>
</Folder>
<Folder id="13. Referência">
<name>13. Referência</name>
<Placemark id="13. Referência">
<name>Correntes [2604700]</name>
<visibility>1</visibility>
<snippet> </snippet>
<description>&lt;center&gt;&lt;table&gt;&lt;tr&gt;&lt;th colspan='2' align='center'&gt;&lt;em&gt;Attributes&lt;/em&gt;&lt;/th&gt;&lt;/tr&gt;&lt;tr bgcolor="#E3E3F3"&gt;
&lt;th&gt;CD_UF&lt;/th&gt;
&lt;td&gt;26&lt;/td&gt;
&lt;/tr&gt;&lt;tr bgcolor=""&gt;
&lt;th&gt;NM_UF&lt;/th&gt;
&lt;td&gt;Pernambuco&lt;/td&gt;
&lt;/tr&gt;&lt;tr bgcolor="#E3E3F3"&gt;
&lt;th&gt;CD_MUN&lt;/th&gt;
&lt;td&gt;2604700&lt;/td&gt;
&lt;/tr&gt;&lt;tr bgcolor=""&gt;
&lt;th&gt;NM_MUN&lt;/th&gt;
&lt;td&gt;Correntes&lt;/td&gt;
&lt;/tr&gt;&lt;tr bgcolor="#E3E3F3"&gt;
&lt;th&gt;CD_RGINT&lt;/th&gt;
&lt;td&gt;2602&lt;/td&gt;
&lt;/tr&gt;&lt;tr bgcolor=""&gt;
&lt;th&gt;NM_RGINT&lt;/th&gt;
&lt;td&gt;Caruaru&lt;/td&gt;
&lt;/tr&gt;&lt;tr bgcolor="#E3E3F3"&gt;
&lt;th&gt;CD_RGI&lt;/th&gt;
&lt;td&gt;260010&lt;/td&gt;
&lt;/tr&gt;&lt;tr bgcolor=""&gt;
&lt;th&gt;NM_RGI&lt;/th&gt;
&lt;td&gt;Garanhuns&lt;/td&gt;
&lt;/tr&gt;&lt;/table&gt;&lt;/center&gt;</description>
<Style>
<IconStyle>
<scale>0.7</scale>
</IconStyle>
<LabelStyle>
<scale>0.7</scale>
</LabelStyle>
<LineStyle>
<color>ffffffff</color>
<width>3</width>
<gx:labelVisibility>1</gx:labelVisibility>
</LineStyle>
<PolyStyle>
<color>00ffffff</color>
</PolyStyle>
</Style>
<ExtendedData>
<SchemaData schemaUrl="#kml_schema_ft_Município">
<SimpleData name="CD_UF">26</SimpleData>
<SimpleData name="NM_UF">Pernambuco</SimpleData>
<SimpleData name="CD_MUN">2604700</SimpleData>
<SimpleData name="NM_MUN">Correntes</SimpleData>
<SimpleData name="CD_RGINT">2602</SimpleData>
<SimpleData name="NM_RGINT">Caruaru</SimpleData>
<SimpleData name="CD_RGI">260010</SimpleData>
<SimpleData name="NM_RGI">Garanhuns</SimpleData>
</SchemaData>
</ExtendedData>
<MultiGeometry>
<Polygon>
<extrude>0</extrude>
<tessellate>1</tessellate>
<outerBoundaryIs>
<LinearRing>
<coordinates>-36.3471357,-9.05112299970573,0.0 -36.347035,-9.05115549970573,0.0 -36.3418333,-9.05283039970567,0.0 -36.3369768,-9.05042949970575,0.0 -36.3341741,-9.05180079970571,0.0 -36.3309342,-9.05148879970572,0.0 -36.3213272,-9.04920549970578,0.0 -36.3110388,-9.04975399970577,0.0 -36.3073514,-9.05062319970574,0.0 -36.3057335,-9.05100459970573,0.0 -36.3004447,-9.05009359970576,0.0 -36.2965377,-9.04992819970576,0.0 -36.2948319,-9.04978419970577,0.0 -36.2937173,-9.05007049970576,0.0 -36.289755,-9.05108799970573,0.0 -36.2886053,-9.05239139970569,0.0 -36.2883305,-9.05402029970564,0.0 -36.2874958,-9.05462549970562,0.0 -36.2870859,-9.05464099970562,0.0 -36.285856,-9.05468719970562,0.0 -36.284897,-9.05469429970562,0.0 -36.2828875,-9.05544719970559,0.0 -36.2812435,-9.0551790997056,0.0 -36.2800917,-9.05416099970563,0.0 -36.2795803,-9.05306909970567,0.0 -36.2780973,-9.05290919970567,0.0 -36.2764642,-9.05309609970566,0.0 -36.2755054,-9.05307469970567,0.0 -36.2743878,-9.05323699970566,0.0 -36.2738739,-9.05436299970563,0.0 -36.2728589,-9.05505069970561,0.0 -36.272034,-9.05535999970559,0.0 -36.2709746,-9.05548409970559,0.0 -36.2690634,-9.0550797997056,0.0 -36.2680855,-9.05464239970562,0.0 -36.2667907,-9.05493559970561,0.0 -36.2654219,-9.05575499970558,0.0 -36.2652783,-9.05630139970557,0.0 -36.2649605,-9.05782039970552,0.0 -36.2643545,-9.0583026997055,0.0 -36.2625847,-9.05875599970549,0.0 -36.2599911,-9.05878729970549,0.0 -36.2576592,-9.05803879970551,0.0 -36.2531905,-9.05905169970548,0.0 -36.2101175,-9.04822759970582,0.0 -36.1968776,-9.04465049970593,0.0 -36.1957276,-9.04478619970593,0.0 -36.1985057,-9.04667669970587,0.0 -36.1992335,-9.0488460997058,0.0 -36.2002749,-9.05339289970566,0.0 -36.20337,-9.0616451997054,0.0 -36.202797,-9.06684489970523,0.0 -36.2043591,-9.06864909970518,0.0 -36.2045488,-9.06886819970517,0.0 -36.204547,-9.06887069970517,0.0 -36.2045523,-9.06887679970517,0.0 -36.2046038,-9.06893619970517,0.0 -36.2059262,-9.07046399970512,0.0 -36.205962,-9.07080449970511,0.0 -36.2060029,-9.0711934997051,0.0 -36.206903,-9.07158199970508,0.0 -36.2069043,-9.07158119970509,0.0 -36.2076866,-9.0710902997051,0.0 -36.2076889,-9.0710906997051,0.0 -36.2086696,-9.07144289970509,0.0 -36.2103383,-9.07313849970504,0.0 -36.2103419,-9.07313869970504,0.0 -36.2174361,-9.07357649970502,0.0 -36.2174387,-9.07357629970502,0.0 -36.2206425,-9.07302749970504,0.0 -36.2206441,-9.07302749970504,0.0 -36.2219125,-9.07330279970503,0.0 -36.2215596,-9.07651689970493,0.0 -36.223401,-9.08253639970474,0.0 -36.2224678,-9.08643359970462,0.0 -36.2282711,-9.09493359970435,0.0 -36.2318196,-9.09809749970425,0.0 -36.2325476,-9.09952139970421,0.0 -36.2364577,-9.10348979970408,0.0 -36.2364589,-9.10348839970409,0.0 -36.2392745,-9.10022199970419,0.0 -36.2409616,-9.09939289970422,0.0 -36.2409653,-9.09939279970421,0.0 -36.2455224,-9.09904429970422,0.0 -36.2455246,-9.09904429970422,0.0 -36.2518377,-9.0997433997042,0.0 -36.2556749,-9.10264179970411,0.0 -36.2556784,-9.10264189970411,0.0 -36.2668438,-9.10238179970412,0.0 -36.2683909,-9.10392429970407,0.0 -36.267714,-9.10655999970399,0.0 -36.2678645,-9.10843529970393,0.0 -36.2669971,-9.11109069970385,0.0 -36.2661455,-9.11195349970382,0.0 -36.2660713,-9.11202869970382,0.0 -36.266074,-9.11202899970382,0.0 -36.2658304,-9.11227589970381,0.0 -36.2658241,-9.11227909970381,0.0 -36.2621828,-9.11596819970369,0.0 -36.2606855,-9.11852239970361,0.0 -36.2636423,-9.12359509970345,0.0 -36.2635431,-9.12600429970338,0.0 -36.2603101,-9.12992119970325,0.0 -36.2580672,-9.13346319970314,0.0 -36.2580381,-9.13713699970303,0.0 -36.2577196,-9.13836019970299,0.0 -36.257719,-9.13836259970299,0.0 -36.2573869,-9.13964029970295,0.0 -36.2573339,-9.13984429970295,0.0 -36.2572548,-9.14014879970293,0.0 -36.2572552,-9.14014999970293,0.0 -36.2573556,-9.14048919970292,0.0 -36.2573859,-9.14059109970292,0.0 -36.2647196,-9.16586259970213,0.0 -36.2639079,-9.16590809970213,0.0 -36.2631419,-9.16632049970211,0.0 -36.2625821,-9.16726329970208,0.0 -36.2628473,-9.16864789970204,0.0 -36.2625588,-9.17053129970198,0.0 -36.2624446,-9.17127729970196,0.0 -36.2628424,-9.17135939970195,0.0 -36.2628459,-9.17135989970196,0.0 -36.2634982,-9.17201449970194,0.0 -36.2670698,-9.17158229970195,0.0 -36.2670724,-9.17158219970195,0.0 -36.2680694,-9.170099299702,0.0 -36.2684337,-9.170100999702,0.0 -36.2683044,-9.17086519970197,0.0 -36.2688783,-9.17106069970196,0.0 -36.2688808,-9.17106069970196,0.0 -36.271095,-9.17103829970196,0.0 -36.2711413,-9.17031159970199,0.0 -36.2704491,-9.16957969970201,0.0 -36.2706185,-9.16904729970203,0.0 -36.2710743,-9.16839939970205,0.0 -36.271078,-9.16839929970205,0.0 -36.2723478,-9.16829409970206,0.0 -36.2730582,-9.1667310997021,0.0 -36.2741702,-9.16620379970212,0.0 -36.2741727,-9.16620409970212,0.0 -36.2755236,-9.16640539970211,0.0 -36.2766646,-9.16717829970209,0.0 -36.2766683,-9.16717849970209,0.0 -36.2794981,-9.16731439970208,0.0 -36.2857571,-9.170078499702,0.0 -36.2859418,-9.17271749970191,0.0 -36.2870457,-9.17341599970189,0.0 -36.2870481,-9.17341569970189,0.0 -36.2877602,-9.1733022997019,0.0 -36.2886479,-9.1731609997019,0.0 -36.2897781,-9.17403539970187,0.0 -36.2899953,-9.17420339970186,0.0 -36.2899967,-9.17420349970187,0.0 -36.2899979,-9.17420439970187,0.0 -36.290945,-9.17421079970187,0.0 -36.2915064,-9.17408839970187,0.0 -36.2921307,-9.17395229970188,0.0 -36.293497,-9.17258429970192,0.0 -36.2934997,-9.17258429970192,0.0 -36.2949756,-9.17244279970192,0.0 -36.2959775,-9.17511639970184,0.0 -36.2972013,-9.17678209970179,0.0 -36.297204,-9.17678239970178,0.0 -36.2978584,-9.17690169970178,0.0 -36.2978611,-9.17690199970178,0.0 -36.3000032,-9.17550279970183,0.0 -36.3005203,-9.17578039970181,0.0 -36.3015242,-9.1763191997018,0.0 -36.3015992,-9.1763595997018,0.0 -36.3018813,-9.17651169970179,0.0 -36.301884,-9.17651179970179,0.0 -36.3040048,-9.17656609970179,0.0 -36.3060536,-9.17868459970173,0.0 -36.3060551,-9.17868439970173,0.0 -36.3060563,-9.17868559970172,0.0 -36.3078228,-9.17846989970173,0.0 -36.3085624,-9.17708279970178,0.0 -36.3088527,-9.17254599970192,0.0 -36.3097916,-9.17236279970192,0.0 -36.3117892,-9.17448119970186,0.0 -36.3118855,-9.17828039970174,0.0 -36.3123238,-9.17991799970169,0.0 -36.3161673,-9.18212669970162,0.0 -36.3161699,-9.18212709970162,0.0 -36.3179716,-9.1825636997016,0.0 -36.3191626,-9.18406999970155,0.0 -36.3215197,-9.18538059970152,0.0 -36.3228835,-9.18963809970138,0.0 -36.3226653,-9.19131949970133,0.0 -36.324956,-9.19252249970129,0.0 -36.3263533,-9.19781339970113,0.0 -36.3276442,-9.20076769970103,0.0 -36.3294794,-9.20250379970098,0.0 -36.33185,-9.20378419970094,0.0 -36.335223,-9.2048114997009,0.0 -36.3388877,-9.20701139970084,0.0 -36.3388904,-9.20701139970084,0.0 -36.3414622,-9.20697809970084,0.0 -36.3444504,-9.20484589970091,0.0 -36.3485926,-9.20337569970095,0.0 -36.3514105,-9.20136419970102,0.0 -36.3514132,-9.20136419970102,0.0 -36.3539165,-9.20119359970102,0.0 -36.3548271,-9.20330249970095,0.0 -36.3544206,-9.20521149970089,0.0 -36.3511844,-9.20898779970077,0.0 -36.3492292,-9.21299009970065,0.0 -36.3488883,-9.2147368997006,0.0 -36.3491629,-9.21625909970055,0.0 -36.3503523,-9.21689009970053,0.0 -36.3503551,-9.21689019970053,0.0 -36.3522465,-9.21703329970052,0.0 -36.3528348,-9.21950969970044,0.0 -36.3536025,-9.22012169970042,0.0 -36.353604,-9.22012119970042,0.0 -36.354725,-9.21971249970044,0.0 -36.35593,-9.21838579970048,0.0 -36.3559327,-9.21838589970048,0.0 -36.3583459,-9.21828819970048,0.0 -36.3602138,-9.22155529970038,0.0 -36.3602174,-9.22155579970038,0.0 -36.365704,-9.22262729970035,0.0 -36.3696923,-9.2211059997004,0.0 -36.3708907,-9.22044149970042,0.0 -36.3740785,-9.21699129970053,0.0 -36.3740812,-9.21699109970052,0.0 -36.3758732,-9.21670019970053,0.0 -36.3803416,-9.21971189970044,0.0 -36.3803452,-9.21971229970044,0.0 -36.3822585,-9.22003419970043,0.0 -36.3858448,-9.22063729970041,0.0 -36.3873836,-9.22355749970032,0.0 -36.3900395,-9.22487569970028,0.0 -36.3900422,-9.22487589970028,0.0 -36.3910924,-9.22502799970027,0.0 -36.3917344,-9.22512099970027,0.0 -36.3917371,-9.22512109970027,0.0 -36.3996113,-9.22452709970029,0.0 -36.4029131,-9.22342429970032,0.0 -36.4039554,-9.20582999970088,0.0 -36.4041682,-9.20358699970094,0.0 -36.405234,-9.1923424997013,0.0 -36.4052484,-9.1921910997013,0.0 -36.4052561,-9.1921099997013,0.0 -36.4082846,-9.16011329970231,0.0 -36.4082965,-9.15998769970231,0.0 -36.4082988,-9.15996269970231,0.0 -36.4089023,-9.15357809970251,0.0 -36.4089098,-9.15349779970252,0.0 -36.4089214,-9.15337679970252,0.0 -36.4089254,-9.15333409970252,0.0 -36.4128398,-9.11186859970382,0.0 -36.4128658,-9.11158779970383,0.0 -36.4128717,-9.11152599970383,0.0 -36.4128789,-9.11144869970384,0.0 -36.4128937,-9.11129149970384,0.0 -36.4150879,-9.08800139970457,0.0 -36.4151313,-9.08753699970458,0.0 -36.4190346,-9.08936859970453,0.0 -36.4216543,-9.08903419970454,0.0 -36.4243259,-9.0901669997045,0.0 -36.4256586,-9.0902698997045,0.0 -36.4276631,-9.08911029970453,0.0 -36.4293156,-9.08576869970464,0.0 -36.4365305,-9.08446109970468,0.0 -36.4371356,-9.08356479970471,0.0 -36.4370153,-9.08284109970473,0.0 -36.4336583,-9.08133769970478,0.0 -36.4335908,-9.0806500997048,0.0 -36.4351812,-9.07955519970483,0.0 -36.4378663,-9.07936719970484,0.0 -36.437534,-9.07771479970489,0.0 -36.4386026,-9.07569409970496,0.0 -36.4410981,-9.07390949970501,0.0 -36.4420978,-9.07199039970507,0.0 -36.4445098,-9.07143579970509,0.0 -36.445141,-9.06979819970514,0.0 -36.4462088,-9.0711866997051,0.0 -36.4463538,-9.07348989970503,0.0 -36.4469451,-9.074156599705,0.0 -36.4484579,-9.074316899705,0.0 -36.4501019,-9.07514879970497,0.0 -36.4531458,-9.07288809970504,0.0 -36.4552721,-9.074217999705,0.0 -36.4554684,-9.07546279970496,0.0 -36.4563819,-9.07587859970495,0.0 -36.4581822,-9.074283299705,0.0 -36.4648859,-9.07790919970489,0.0 -36.4652054,-9.07808199970488,0.0 -36.4599779,-9.07346749970503,0.0 -36.4405024,-9.06001149970545,0.0 -36.4179607,-9.04444049970594,0.0 -36.409505,-9.03859869970612,0.0 -36.4070734,-9.03746739970616,0.0 -36.4070691,-9.03746539970616,0.0 -36.4066191,-9.03725599970616,0.0 -36.3838678,-9.02666809970649,0.0 -36.3791637,-9.02447889970656,0.0 -36.3664882,-9.01858009970675,0.0 -36.366219,-9.01943349970672,0.0 -36.364561,-9.02617249970651,0.0 -36.3645158,-9.0263562997065,0.0 -36.3593935,-9.04717609970585,0.0 -36.3544208,-9.0487772997058,0.0 -36.3541203,-9.0488739997058,0.0 -36.3533655,-9.04911709970579,0.0 -36.3471357,-9.05112299970573,0.0</coordinates>
</LinearRing>
</outerBoundaryIs>
</Polygon>
</MultiGeometry>
</Placemark>
<Placemark id="13. Referência">
<name>TQ - Timbo [367]</name>
<visibility>0</visibility>
<snippet> </snippet>
<description>&lt;center&gt;&lt;table&gt;&lt;tr&gt;&lt;th colspan='2' align='center'&gt;&lt;em&gt;Attributes&lt;/em&gt;&lt;/th&gt;&lt;/tr&gt;&lt;tr bgcolor="#E3E3F3"&gt;
&lt;th&gt;COD_TQ&lt;/th&gt;
&lt;td&gt;367&lt;/td&gt;
&lt;/tr&gt;&lt;tr bgcolor=""&gt;
&lt;th&gt;NOM_TQ&lt;/th&gt;
&lt;td&gt;Timbo&lt;/td&gt;
&lt;/tr&gt;&lt;/table&gt;&lt;/center&gt;</description>
<Style>
<IconStyle>
<scale>0.7</scale>
</IconStyle>
<LabelStyle>
<scale>0.7</scale>
</LabelStyle>
<LineStyle>
<color>ffffaaff</color>
<width>3</width>
<gx:labelVisibility>1</gx:labelVisibility>
</LineStyle>
<PolyStyle>
<color>33ffaaff</color>
</PolyStyle>
</Style>
<ExtendedData>
<SchemaData schemaUrl="#kml_schema_ft_Território_Quilombola">
<SimpleData name="COD_TQ">367</SimpleData>
<SimpleData name="NOM_TQ">Timbo</SimpleData>
</SchemaData>
</ExtendedData>
<Polygon>
<extrude>0</extrude>
<tessellate>1</tessellate>
<outerBoundaryIs>
<LinearRing>
<coordinates>-36.3816968477263,-9.02565777919516,0.0 -36.3791637,-9.02447889970656,0.0 -36.3783959494825,-9.02412161149291,0.0 -36.3784023811231,-9.02425856189018,0.0 -36.3783707550203,-9.02446881476866,0.0 -36.3783666913759,-9.02456485856113,0.0 -36.3783822443245,-9.02480479769049,0.0 -36.3783954691042,-9.02488771531916,0.0 -36.3784587894843,-9.02513406142355,0.0 -36.3785122739112,-9.02525933238418,0.0 -36.3786007897531,-9.02536286181596,0.0 -36.3787162270367,-9.02543516417464,0.0 -36.3787844088808,-9.02546460614865,0.0 -36.3787997878757,-9.02556629806264,0.0 -36.3788511496585,-9.02592151276926,0.0 -36.3788739250275,-9.02601176064172,0.0 -36.3789817147142,-9.02630631318256,0.0 -36.3790036620732,-9.0263565656189,0.0 -36.3790560612345,-9.02645902402253,0.0 -36.3790943497843,-9.02661295673825,0.0 -36.3791203884433,-9.02672908142545,0.0 -36.3791230706863,-9.02674036081603,0.0 -36.3791416459995,-9.0268142324578,0.0 -36.3791558845581,-9.02687692473087,0.0 -36.3791779554493,-9.0270457087522,0.0 -36.3791854836728,-9.02708769068701,0.0 -36.3792776608321,-9.02749072091317,0.0 -36.3792942182803,-9.02754633538886,0.0 -36.3794482431511,-9.02796325752433,0.0 -36.3795149457448,-9.02808332407809,0.0 -36.3796147591683,-9.02817767710579,0.0 -36.3797383846486,-9.02823752653342,0.0 -36.3798743050445,-9.02825729669564,0.0 -36.3800098578018,-9.02823514577348,0.0 -36.3801324146157,-9.02817313738128,0.0 -36.3801634867916,-9.02814271557265,0.0 -36.3804143908595,-9.02799684473077,0.0 -36.3805165688098,-9.02791552225011,0.0 -36.3805910942849,-9.02780828590861,0.0 -36.3806316910699,-9.02768416668989,0.0 -36.380634940278,-9.02755361738111,0.0 -36.3806005682749,-9.02742763228356,0.0 -36.3804406090559,-9.02706155989872,0.0 -36.3809162438672,-9.02659246616297,0.0 -36.3813156363617,-9.02623536089816,0.0 -36.3813975897709,-9.02613792314723,0.0 -36.3816968477263,-9.02565777919516,0.0</coordinates>
</LinearRing>
</outerBoundaryIs>
</Polygon>
</Placemark>
</Folder>
</Document></kml>
