<?xml version='1.0' encoding='UTF-8'?>
<kml xmlns:xsd="http://www.w3.org/2001/XMLSchema" xmlns:gx="http://www.google.com/kml/ext/2.2" xmlns:atom="http://www.w3.org/2005/Atom" xmlns="http://www.opengis.net/kml/2.2">
<Document>
<name>americo_de_campos_3501806_localidades_2022</name>
<visibility>1</visibility>
<Schema name="Localidades" id="kml_schema_ft_Localidades">
<SimpleField type="xsd:string" name="CD_UF">
<displayName>CD_UF</displayName>
</SimpleField>
<SimpleField type="xsd:string" name="NM_UF">
<displayName>NM_UF</displayName>
</SimpleField>
<SimpleField type="xsd:string" name="SIGLA_UF">
<displayName>SIGLA_UF</displayName>
</SimpleField>
<SimpleField type="xsd:string" name="CD_MUN">
<displayName>CD_MUN</displayName>
</SimpleField>
<SimpleField type="xsd:string" name="NM_MUN">
<displayName>NM_MUN</displayName>
</SimpleField>
<SimpleField type="xsd:string" name="CD_RGINT">
<displayName>CD_RGINT</displayName>
</SimpleField>
<SimpleField type="xsd:string" name="NM_RGINT">
<displayName>NM_RGINT</displayName>
</SimpleField>
<SimpleField type="xsd:string" name="CD_RGI">
<displayName>CD_RGI</displayName>
</SimpleField>
<SimpleField type="xsd:string" name="NM_RGI">
<displayName>NM_RGI</displayName>
</SimpleField>
<SimpleField type="xsd:string" name="CT_LOCALIDADE">
<displayName>CT_LOCALIDADE</displayName>
</SimpleField>
<SimpleField type="xsd:string" name="SCT_LOCALIDADE">
<displayName>SCT_LOCALIDADE</displayName>
</SimpleField>
<SimpleField type="xsd:string" name="CD_LOCALIDADE">
<displayName>CD_LOCALIDADE</displayName>
</SimpleField>
<SimpleField type="xsd:string" name="NM_LOCALIDADE">
<displayName>NM_LOCALIDADE</displayName>
</SimpleField>
</Schema>
<Schema name="01. Cidade" id="kml_schema_ft_01._Cidade">
<SimpleField type="xsd:string" name="CD_UF">
<displayName>CD_UF</displayName>
</SimpleField>
<SimpleField type="xsd:string" name="NM_UF">
<displayName>NM_UF</displayName>
</SimpleField>
<SimpleField type="xsd:string" name="SIGLA_UF">
<displayName>SIGLA_UF</displayName>
</SimpleField>
<SimpleField type="xsd:string" name="CD_MUN">
<displayName>CD_MUN</displayName>
</SimpleField>
<SimpleField type="xsd:string" name="NM_MUN">
<displayName>NM_MUN</displayName>
</SimpleField>
<SimpleField type="xsd:string" name="CD_RGINT">
<displayName>CD_RGINT</displayName>
</SimpleField>
<SimpleField type="xsd:string" name="NM_RGINT">
<displayName>NM_RGINT</displayName>
</SimpleField>
<SimpleField type="xsd:string" name="CD_RGI">
<displayName>CD_RGI</displayName>
</SimpleField>
<SimpleField type="xsd:string" name="NM_RGI">
<displayName>NM_RGI</displayName>
</SimpleField>
<SimpleField type="xsd:string" name="CT_LOCALIDADE">
<displayName>CT_LOCALIDADE</displayName>
</SimpleField>
<SimpleField type="xsd:string" name="SCT_LOCALIDADE">
<displayName>SCT_LOCALIDADE</displayName>
</SimpleField>
<SimpleField type="xsd:string" name="CD_LOCALIDADE">
<displayName>CD_LOCALIDADE</displayName>
</SimpleField>
<SimpleField type="xsd:string" name="NM_LOCALIDADE">
<displayName>NM_LOCALIDADE</displayName>
</SimpleField>
<SimpleField type="xsd:string" name="LAT_LOCALIDADE">
<displayName>LAT_LOCALIDADE</displayName>
</SimpleField>
<SimpleField type="xsd:string" name="LONG_LOCALIDADE">
<displayName>LONG_LOCALIDADE</displayName>
</SimpleField>
</Schema>
<Schema name="Município" id="kml_schema_ft_Município">
<SimpleField type="xsd:string" name="CD_UF">
<displayName>CD_UF</displayName>
</SimpleField>
<SimpleField type="xsd:string" name="NM_UF">
<displayName>NM_UF</displayName>
</SimpleField>
<SimpleField type="xsd:string" name="CD_MUN">
<displayName>CD_MUN</displayName>
</SimpleField>
<SimpleField type="xsd:string" name="NM_MUN">
<displayName>NM_MUN</displayName>
</SimpleField>
<SimpleField type="xsd:string" name="CD_RGINT">
<displayName>CD_RGINT</displayName>
</SimpleField>
<SimpleField type="xsd:string" name="NM_RGINT">
<displayName>NM_RGINT</displayName>
</SimpleField>
<SimpleField type="xsd:string" name="CD_RGI">
<displayName>CD_RGI</displayName>
</SimpleField>
<SimpleField type="xsd:string" name="NM_RGI">
<displayName>NM_RGI</displayName>
</SimpleField>
</Schema>
<Folder id="01. Cidade">
<name>01. Cidade</name>
<Folder id="01.03. Sede Municipal">
<name>01.03. Sede Municipal</name>
<Placemark id="01.03. Sede Municipal">
<name>Américo de Campos [3501806]</name>
<visibility>1</visibility>
<snippet> </snippet>
<description>&lt;center&gt;&lt;table&gt;&lt;tr&gt;&lt;th colspan='2' align='center'&gt;&lt;em&gt;Atributos&lt;/em&gt;&lt;/th&gt;&lt;/tr&gt;&lt;tr bgcolor="#E3E3F3"&gt;
&lt;th&gt;CD_UF&lt;/th&gt;
&lt;td&gt;35&lt;/td&gt;
&lt;/tr&gt;&lt;tr bgcolor=""&gt;
&lt;th&gt;NM_UF&lt;/th&gt;
&lt;td&gt;São Paulo&lt;/td&gt;
&lt;/tr&gt;&lt;tr bgcolor="#E3E3F3"&gt;
&lt;th&gt;SIGLA_UF&lt;/th&gt;
&lt;td&gt;SP&lt;/td&gt;
&lt;/tr&gt;&lt;tr bgcolor=""&gt;
&lt;th&gt;CD_MUN&lt;/th&gt;
&lt;td&gt;3501806&lt;/td&gt;
&lt;/tr&gt;&lt;tr bgcolor="#E3E3F3"&gt;
&lt;th&gt;NM_MUN&lt;/th&gt;
&lt;td&gt;Américo de Campos&lt;/td&gt;
&lt;/tr&gt;&lt;tr bgcolor=""&gt;
&lt;th&gt;CD_RGINT&lt;/th&gt;
&lt;td&gt;3507&lt;/td&gt;
&lt;/tr&gt;&lt;tr bgcolor="#E3E3F3"&gt;
&lt;th&gt;NM_RGINT&lt;/th&gt;
&lt;td&gt;São José do Rio Preto&lt;/td&gt;
&lt;/tr&gt;&lt;tr bgcolor=""&gt;
&lt;th&gt;CD_RGI&lt;/th&gt;
&lt;td&gt;350027&lt;/td&gt;
&lt;/tr&gt;&lt;tr bgcolor="#E3E3F3"&gt;
&lt;th&gt;NM_RGI&lt;/th&gt;
&lt;td&gt;Votuporanga&lt;/td&gt;
&lt;/tr&gt;&lt;tr bgcolor=""&gt;
&lt;th&gt;CT_LOCALIDADE&lt;/th&gt;
&lt;td&gt;Cidade&lt;/td&gt;
&lt;/tr&gt;&lt;tr bgcolor="#E3E3F3"&gt;
&lt;th&gt;SCT_LOCALIDADE&lt;/th&gt;
&lt;td&gt;Sede Municipal&lt;/td&gt;
&lt;/tr&gt;&lt;tr bgcolor=""&gt;
&lt;th&gt;CD_LOCALIDADE&lt;/th&gt;
&lt;td&gt;3501806&lt;/td&gt;
&lt;/tr&gt;&lt;tr bgcolor="#E3E3F3"&gt;
&lt;th&gt;NM_LOCALIDADE&lt;/th&gt;
&lt;td&gt;Américo de Campos&lt;/td&gt;
&lt;/tr&gt;&lt;tr bgcolor=""&gt;
&lt;th&gt;LAT_LOCALIDADE&lt;/th&gt;
&lt;td&gt;-20.2992&lt;/td&gt;
&lt;/tr&gt;&lt;tr bgcolor="#E3E3F3"&gt;
&lt;th&gt;LONG_LOCALIDADE&lt;/th&gt;
&lt;td&gt;-49.7319&lt;/td&gt;
&lt;/tr&gt;&lt;/table&gt;&lt;/center&gt;</description>
<Style>
<IconStyle>
<color>ff00aaff</color>
<scale>1.0</scale>
<Icon>
<href>http://maps.google.com/mapfiles/kml/shapes/placemark_circle.png</href>
</Icon>
</IconStyle>
<LabelStyle>
<scale>1.0</scale>
</LabelStyle>
<LineStyle>
<color>ffffffff</color>
<width>3</width>
<gx:labelVisibility>1</gx:labelVisibility>
</LineStyle>
<PolyStyle>
<color>00ffffff</color>
</PolyStyle>
</Style>
<ExtendedData>
<SchemaData schemaUrl="#kml_schema_ft_01._Cidade">
<SimpleData name="CD_UF">35</SimpleData>
<SimpleData name="NM_UF">São Paulo</SimpleData>
<SimpleData name="SIGLA_UF">SP</SimpleData>
<SimpleData name="CD_MUN">3501806</SimpleData>
<SimpleData name="NM_MUN">Américo de Campos</SimpleData>
<SimpleData name="CD_RGINT">3507</SimpleData>
<SimpleData name="NM_RGINT">São José do Rio Preto</SimpleData>
<SimpleData name="CD_RGI">350027</SimpleData>
<SimpleData name="NM_RGI">Votuporanga</SimpleData>
<SimpleData name="CT_LOCALIDADE">Cidade</SimpleData>
<SimpleData name="SCT_LOCALIDADE">Sede Municipal</SimpleData>
<SimpleData name="CD_LOCALIDADE">3501806</SimpleData>
<SimpleData name="NM_LOCALIDADE">Américo de Campos</SimpleData>
<SimpleData name="LAT_LOCALIDADE">-20.2992</SimpleData>
<SimpleData name="LONG_LOCALIDADE">-49.7319</SimpleData>
</SchemaData>
</ExtendedData>
<Point>
<extrude>0</extrude>
<coordinates>-49.7319,-20.2991999993845,0.0</coordinates>
</Point>
</Placemark>
</Folder>
</Folder>
<Folder id="12. Outras Localidades">
<name>12. Outras Localidades</name>
<Placemark id="12. Outras Localidades">
<name>Águas Paradas [350180600001]</name>
<visibility>1</visibility>
<snippet> </snippet>
<description>&lt;center&gt;&lt;table&gt;&lt;tr&gt;&lt;th colspan='2' align='center'&gt;&lt;em&gt;Attributes&lt;/em&gt;&lt;/th&gt;&lt;/tr&gt;&lt;tr bgcolor="#E3E3F3"&gt;
&lt;th&gt;CD_UF&lt;/th&gt;
&lt;td&gt;35&lt;/td&gt;
&lt;/tr&gt;&lt;tr bgcolor=""&gt;
&lt;th&gt;NM_UF&lt;/th&gt;
&lt;td&gt;São Paulo&lt;/td&gt;
&lt;/tr&gt;&lt;tr bgcolor="#E3E3F3"&gt;
&lt;th&gt;SIGLA_UF&lt;/th&gt;
&lt;td&gt;SP&lt;/td&gt;
&lt;/tr&gt;&lt;tr bgcolor=""&gt;
&lt;th&gt;CD_MUN&lt;/th&gt;
&lt;td&gt;3501806&lt;/td&gt;
&lt;/tr&gt;&lt;tr bgcolor="#E3E3F3"&gt;
&lt;th&gt;NM_MUN&lt;/th&gt;
&lt;td&gt;Américo de Campos&lt;/td&gt;
&lt;/tr&gt;&lt;tr bgcolor=""&gt;
&lt;th&gt;CD_RGINT&lt;/th&gt;
&lt;td&gt;3507&lt;/td&gt;
&lt;/tr&gt;&lt;tr bgcolor="#E3E3F3"&gt;
&lt;th&gt;NM_RGINT&lt;/th&gt;
&lt;td&gt;São José do Rio Preto&lt;/td&gt;
&lt;/tr&gt;&lt;tr bgcolor=""&gt;
&lt;th&gt;CD_RGI&lt;/th&gt;
&lt;td&gt;350027&lt;/td&gt;
&lt;/tr&gt;&lt;tr bgcolor="#E3E3F3"&gt;
&lt;th&gt;NM_RGI&lt;/th&gt;
&lt;td&gt;Votuporanga&lt;/td&gt;
&lt;/tr&gt;&lt;tr bgcolor=""&gt;
&lt;th&gt;CT_LOCALIDADE&lt;/th&gt;
&lt;td&gt;Outras Localidades&lt;/td&gt;
&lt;/tr&gt;&lt;tr bgcolor="#E3E3F3"&gt;
&lt;th&gt;SCT_LOCALIDADE&lt;/th&gt;
&lt;td&gt;&lt;/td&gt;
&lt;/tr&gt;&lt;tr bgcolor=""&gt;
&lt;th&gt;CD_LOCALIDADE&lt;/th&gt;
&lt;td&gt;350180600001&lt;/td&gt;
&lt;/tr&gt;&lt;tr bgcolor="#E3E3F3"&gt;
&lt;th&gt;NM_LOCALIDADE&lt;/th&gt;
&lt;td&gt;Águas Paradas&lt;/td&gt;
&lt;/tr&gt;&lt;/table&gt;&lt;/center&gt;</description>
<Style>
<IconStyle>
<color>ff0069d3</color>
<scale>0.6</scale>
<Icon>
<href>http://maps.google.com/mapfiles/kml/shapes/placemark_circle.png</href>
</Icon>
</IconStyle>
<LabelStyle>
<scale>0.6</scale>
</LabelStyle>
<LineStyle>
<width>1.0</width>
<gx:labelVisibility>1</gx:labelVisibility>
</LineStyle>
</Style>
<ExtendedData>
<SchemaData schemaUrl="#kml_schema_ft_Localidades">
<SimpleData name="CD_UF">35</SimpleData>
<SimpleData name="NM_UF">São Paulo</SimpleData>
<SimpleData name="SIGLA_UF">SP</SimpleData>
<SimpleData name="CD_MUN">3501806</SimpleData>
<SimpleData name="NM_MUN">Américo de Campos</SimpleData>
<SimpleData name="CD_RGINT">3507</SimpleData>
<SimpleData name="NM_RGINT">São José do Rio Preto</SimpleData>
<SimpleData name="CD_RGI">350027</SimpleData>
<SimpleData name="NM_RGI">Votuporanga</SimpleData>
<SimpleData name="CT_LOCALIDADE">Outras Localidades</SimpleData>
<SimpleData name="CD_LOCALIDADE">350180600001</SimpleData>
<SimpleData name="NM_LOCALIDADE">Águas Paradas</SimpleData>
</SchemaData>
</ExtendedData>
<Point>
<extrude>0</extrude>
<coordinates>-49.803951,-20.3053919993843,0.0</coordinates>
</Point>
</Placemark>
</Folder>
<Folder id="13. Referência">
<name>13. Referência</name>
<Placemark id="13. Referência">
<name>Américo de Campos [3501806]</name>
<visibility>1</visibility>
<snippet> </snippet>
<description>&lt;center&gt;&lt;table&gt;&lt;tr&gt;&lt;th colspan='2' align='center'&gt;&lt;em&gt;Attributes&lt;/em&gt;&lt;/th&gt;&lt;/tr&gt;&lt;tr bgcolor="#E3E3F3"&gt;
&lt;th&gt;CD_UF&lt;/th&gt;
&lt;td&gt;35&lt;/td&gt;
&lt;/tr&gt;&lt;tr bgcolor=""&gt;
&lt;th&gt;NM_UF&lt;/th&gt;
&lt;td&gt;São Paulo&lt;/td&gt;
&lt;/tr&gt;&lt;tr bgcolor="#E3E3F3"&gt;
&lt;th&gt;CD_MUN&lt;/th&gt;
&lt;td&gt;3501806&lt;/td&gt;
&lt;/tr&gt;&lt;tr bgcolor=""&gt;
&lt;th&gt;NM_MUN&lt;/th&gt;
&lt;td&gt;Américo de Campos&lt;/td&gt;
&lt;/tr&gt;&lt;tr bgcolor="#E3E3F3"&gt;
&lt;th&gt;CD_RGINT&lt;/th&gt;
&lt;td&gt;3507&lt;/td&gt;
&lt;/tr&gt;&lt;tr bgcolor=""&gt;
&lt;th&gt;NM_RGINT&lt;/th&gt;
&lt;td&gt;São José do Rio Preto&lt;/td&gt;
&lt;/tr&gt;&lt;tr bgcolor="#E3E3F3"&gt;
&lt;th&gt;CD_RGI&lt;/th&gt;
&lt;td&gt;350027&lt;/td&gt;
&lt;/tr&gt;&lt;tr bgcolor=""&gt;
&lt;th&gt;NM_RGI&lt;/th&gt;
&lt;td&gt;Votuporanga&lt;/td&gt;
&lt;/tr&gt;&lt;/table&gt;&lt;/center&gt;</description>
<Style>
<IconStyle>
<scale>0.7</scale>
</IconStyle>
<LabelStyle>
<scale>0.7</scale>
</LabelStyle>
<LineStyle>
<color>ffffffff</color>
<width>3</width>
<gx:labelVisibility>1</gx:labelVisibility>
</LineStyle>
<PolyStyle>
<color>00ffffff</color>
</PolyStyle>
</Style>
<ExtendedData>
<SchemaData schemaUrl="#kml_schema_ft_Município">
<SimpleData name="CD_UF">35</SimpleData>
<SimpleData name="NM_UF">São Paulo</SimpleData>
<SimpleData name="CD_MUN">3501806</SimpleData>
<SimpleData name="NM_MUN">Américo de Campos</SimpleData>
<SimpleData name="CD_RGINT">3507</SimpleData>
<SimpleData name="NM_RGINT">São José do Rio Preto</SimpleData>
<SimpleData name="CD_RGI">350027</SimpleData>
<SimpleData name="NM_RGI">Votuporanga</SimpleData>
</SchemaData>
</ExtendedData>
<MultiGeometry>
<Polygon>
<extrude>0</extrude>
<tessellate>1</tessellate>
<outerBoundaryIs>
<LinearRing>
<coordinates>-49.6831528,-20.2292882993862,0.0 -49.6826235,-20.2296505993862,0.0 -49.6817379,-20.2300270993862,0.0 -49.6809434,-20.2305218993862,0.0 -49.6800238,-20.2315371993862,0.0 -49.6799554,-20.2318371993862,0.0 -49.6799749,-20.2321273993862,0.0 -49.6801527,-20.2323082993861,0.0 -49.6802913,-20.2323507993861,0.0 -49.6812126,-20.2324474993861,0.0 -49.6818014,-20.2324760993861,0.0 -49.6819128,-20.2327186993861,0.0 -49.6818718,-20.2332363993861,0.0 -49.6814278,-20.2338305993861,0.0 -49.6810954,-20.2341975993861,0.0 -49.6810648,-20.2347878993861,0.0 -49.680634,-20.2350988993861,0.0 -49.6803359,-20.2348687993861,0.0 -49.6792457,-20.2348536993861,0.0 -49.6788867,-20.2353378993861,0.0 -49.6790281,-20.2359191993861,0.0 -49.6788768,-20.236511999386,0.0 -49.679167,-20.237677999386,0.0 -49.6788277,-20.237982799386,0.0 -49.6784286,-20.238017799386,0.0 -49.678222,-20.237356599386,0.0 -49.677754,-20.237311699386,0.0 -49.6765568,-20.238255799386,0.0 -49.6765475,-20.238490599386,0.0 -49.6766206,-20.238720799386,0.0 -49.6769349,-20.238980399386,0.0 -49.6770104,-20.239136399386,0.0 -49.6770092,-20.239281499386,0.0 -49.6768268,-20.239653099386,0.0 -49.6765042,-20.239666799386,0.0 -49.6757699,-20.239151199386,0.0 -49.6751854,-20.239036299386,0.0 -49.6736383,-20.239171399386,0.0 -49.6733272,-20.239182899386,0.0 -49.6730463,-20.239512299386,0.0 -49.6730821,-20.240033999386,0.0 -49.6725323,-20.2405789993859,0.0 -49.6723725,-20.2408643993859,0.0 -49.6720459,-20.2418461993859,0.0 -49.6717745,-20.2419096993859,0.0 -49.671516,-20.2417592993859,0.0 -49.67187,-20.2410159993859,0.0 -49.6717142,-20.2408248993859,0.0 -49.6714557,-20.2406709993859,0.0 -49.6710018,-20.2406916993859,0.0 -49.6709345,-20.2408707993859,0.0 -49.6710131,-20.2410888993859,0.0 -49.6708562,-20.2414710993859,0.0 -49.6704445,-20.2416854993859,0.0 -49.6701708,-20.2415939993859,0.0 -49.6700304,-20.2409053993859,0.0 -49.6698279,-20.2406206993859,0.0 -49.6694513,-20.2405901993859,0.0 -49.6681637,-20.2409740993859,0.0 -49.6675025,-20.2408412993859,0.0 -49.6669191,-20.2410233993859,0.0 -49.6665192,-20.2407198993859,0.0 -49.666528,-20.2401155993859,0.0 -49.6663685,-20.239948599386,0.0 -49.6659806,-20.2399490993859,0.0 -49.6656234,-20.239787499386,0.0 -49.6654155,-20.239281699386,0.0 -49.665664,-20.238889899386,0.0 -49.6660538,-20.238664899386,0.0 -49.6668474,-20.238712399386,0.0 -49.6671203,-20.238455499386,0.0 -49.667116,-20.238103199386,0.0 -49.66698,-20.237746499386,0.0 -49.6664661,-20.237079499386,0.0 -49.6660404,-20.236806899386,0.0 -49.6658021,-20.236432099386,0.0 -49.6652864,-20.236397099386,0.0 -49.6645683,-20.237793699386,0.0 -49.6643686,-20.238469099386,0.0 -49.6641963,-20.238554999386,0.0 -49.6639298,-20.238455099386,0.0 -49.6638398,-20.238254799386,0.0 -49.6636377,-20.238091299386,0.0 -49.6634699,-20.238108799386,0.0 -49.6633851,-20.238224899386,0.0 -49.6633987,-20.238503699386,0.0 -49.6634004,-20.238774899386,0.0 -49.6633425,-20.239007999386,0.0 -49.6631672,-20.239447299386,0.0 -49.6627575,-20.239764299386,0.0 -49.6624684,-20.240008099386,0.0 -49.6619668,-20.2401471993859,0.0 -49.6614,-20.240198799386,0.0 -49.661032,-20.240115199386,0.0 -49.6608674,-20.2401076993859,0.0 -49.6605957,-20.2403169993859,0.0 -49.6604085,-20.2407330993859,0.0 -49.6603379,-20.2408898993859,0.0 -49.6604325,-20.2410074993859,0.0 -49.6606569,-20.2413534993859,0.0 -49.660846,-20.2415071993859,0.0 -49.6613622,-20.2417281993859,0.0 -49.6617677,-20.2419258993859,0.0 -49.6616211,-20.2423713993859,0.0 -49.6615165,-20.2425427993859,0.0 -49.6612848,-20.2427380993859,0.0 -49.6609998,-20.2426860993859,0.0 -49.6606298,-20.2426682993859,0.0 -49.6602691,-20.2427977993859,0.0 -49.6598644,-20.2431364993859,0.0 -49.6594834,-20.2434828993859,0.0 -49.6590213,-20.2440307993859,0.0 -49.6585423,-20.2447032993858,0.0 -49.6583365,-20.2452780993858,0.0 -49.6579614,-20.2458465993858,0.0 -49.6575942,-20.2461307993858,0.0 -49.6569336,-20.2461169993858,0.0 -49.6547144,-20.2463210993858,0.0 -49.6542768,-20.2461518993858,0.0 -49.6540529,-20.2458048993858,0.0 -49.6537192,-20.2441825993858,0.0 -49.6533874,-20.2440488993858,0.0 -49.6531114,-20.2442262993859,0.0 -49.6530109,-20.2444292993858,0.0 -49.6530334,-20.2452116993858,0.0 -49.6513944,-20.2460261993858,0.0 -49.6510205,-20.2461027993858,0.0 -49.6504137,-20.2468785993858,0.0 -49.6500379,-20.2471726993858,0.0 -49.6492989,-20.2467317993858,0.0 -49.6485617,-20.2465085993858,0.0 -49.6467276,-20.2466014993858,0.0 -49.6463825,-20.2467334993858,0.0 -49.6462552,-20.2469704993858,0.0 -49.6462063,-20.2472225993858,0.0 -49.6462734,-20.2479206993858,0.0 -49.6464122,-20.2483810993857,0.0 -49.6464685,-20.2486335993857,0.0 -49.6464522,-20.2492481993857,0.0 -49.6463606,-20.2496860993857,0.0 -49.6464061,-20.2499281993857,0.0 -49.6467125,-20.2502516993857,0.0 -49.6473204,-20.2504013993857,0.0 -49.6482012,-20.2513820993857,0.0 -49.6488646,-20.2518913993857,0.0 -49.6490465,-20.2522182993857,0.0 -49.6488205,-20.2529693993856,0.0 -49.6495062,-20.2540728993856,0.0 -49.6495796,-20.2548953993856,0.0 -49.6494935,-20.2553238993856,0.0 -49.6492848,-20.2559843993856,0.0 -49.6488212,-20.2571204993855,0.0 -49.6485245,-20.2584166993855,0.0 -49.6484743,-20.2591415993855,0.0 -49.6482765,-20.2600102993855,0.0 -49.6518506,-20.2614260993854,0.0 -49.6531937,-20.2626934993854,0.0 -49.6536803,-20.2639749993854,0.0 -49.6540156,-20.2649859993853,0.0 -49.6541897,-20.2660164993853,0.0 -49.6548547,-20.2669885993853,0.0 -49.6555295,-20.2676774993853,0.0 -49.6559546,-20.2684543993852,0.0 -49.656062,-20.2687383993852,0.0 -49.6565653,-20.2689424993852,0.0 -49.656702,-20.2692129993852,0.0 -49.6564514,-20.2694112993852,0.0 -49.6563537,-20.2697075993852,0.0 -49.6565188,-20.2700886993852,0.0 -49.6572225,-20.2699697993852,0.0 -49.657992,-20.2715642993852,0.0 -49.657883,-20.2723162993851,0.0 -49.6586896,-20.2738592993851,0.0 -49.6590011,-20.2742380993851,0.0 -49.6593478,-20.2743443993851,0.0 -49.6600433,-20.2743289993851,0.0 -49.6598845,-20.2736439993851,0.0 -49.6612383,-20.2741293993851,0.0 -49.6628766,-20.2742642993851,0.0 -49.6629678,-20.2747276993851,0.0 -49.662713,-20.2749985993851,0.0 -49.6633073,-20.2752620993851,0.0 -49.6635213,-20.2758117993851,0.0 -49.6644011,-20.2753101993851,0.0 -49.6650777,-20.2751581993851,0.0 -49.6653089,-20.2757211993851,0.0 -49.6655777,-20.2755384993851,0.0 -49.6687009,-20.2760548993851,0.0 -49.6691774,-20.2759456993851,0.0 -49.6700435,-20.2760903993851,0.0 -49.6707354,-20.2760714993851,0.0 -49.6712172,-20.2762305993851,0.0 -49.6712921,-20.276459099385,0.0 -49.6716797,-20.276754799385,0.0 -49.6717302,-20.277018399385,0.0 -49.6724188,-20.276957999385,0.0 -49.6726944,-20.277253699385,0.0 -49.6733775,-20.277403899385,0.0 -49.6737135,-20.277485899385,0.0 -49.6740645,-20.277101699385,0.0 -49.6745256,-20.277540299385,0.0 -49.6748061,-20.278139599385,0.0 -49.6749241,-20.278879899385,0.0 -49.6750352,-20.279821699385,0.0 -49.6756526,-20.2805913993849,0.0 -49.6762861,-20.2809863993849,0.0 -49.6784803,-20.2820562993849,0.0 -49.679117,-20.2838016993849,0.0 -49.6792087,-20.2842132993848,0.0 -49.6793708,-20.2846350993848,0.0 -49.6795401,-20.2846419993848,0.0 -49.6800651,-20.2842266993848,0.0 -49.6804241,-20.2841844993848,0.0 -49.6807948,-20.2845015993848,0.0 -49.68078,-20.2858171993848,0.0 -49.6803925,-20.2870506993848,0.0 -49.6809268,-20.2879902993848,0.0 -49.6814591,-20.2886057993847,0.0 -49.683631,-20.2897410993847,0.0 -49.6844963,-20.2908734993847,0.0 -49.6856983,-20.2928716993846,0.0 -49.6859104,-20.2941435993846,0.0 -49.6864822,-20.2945352993846,0.0 -49.6876537,-20.2949480993846,0.0 -49.6880491,-20.2953757993846,0.0 -49.6896261,-20.2959482993846,0.0 -49.690544,-20.2963115993845,0.0 -49.6906324,-20.2964416993845,0.0 -49.6906038,-20.2975072993845,0.0 -49.69,-20.2981458993845,0.0 -49.6896088,-20.2992519993845,0.0 -49.6894019,-20.2999134993845,0.0 -49.6892394,-20.3002973993844,0.0 -49.689395,-20.3013839993844,0.0 -49.6894716,-20.3016949993844,0.0 -49.6903234,-20.3031670993844,0.0 -49.6907864,-20.3041647993843,0.0 -49.6912783,-20.3048763993843,0.0 -49.6918495,-20.3052950993843,0.0 -49.6919113,-20.3058649993843,0.0 -49.6919785,-20.3063451993843,0.0 -49.6918047,-20.3070160993843,0.0 -49.6919188,-20.3091892993842,0.0 -49.6919658,-20.3093264993842,0.0 -49.6924753,-20.3097085993842,0.0 -49.6926744,-20.3107833993842,0.0 -49.6931663,-20.3113163993842,0.0 -49.6934883,-20.3120705993841,0.0 -49.6935496,-20.3124866993841,0.0 -49.6933003,-20.3134981993841,0.0 -49.6932152,-20.3151166993841,0.0 -49.6937308,-20.316661599384,0.0 -49.6943759,-20.317014399384,0.0 -49.6952651,-20.317501099384,0.0 -49.6959351,-20.317930799384,0.0 -49.6964097,-20.318524899384,0.0 -49.6977098,-20.318900699384,0.0 -49.6988009,-20.318888099384,0.0 -49.6996285,-20.318863199384,0.0 -49.7013532,-20.319687499384,0.0 -49.7028401,-20.320061199384,0.0 -49.7043627,-20.3205524993839,0.0 -49.7060072,-20.3217837993839,0.0 -49.7071781,-20.3227455993839,0.0 -49.7087857,-20.3231373993839,0.0 -49.7094121,-20.3235356993839,0.0 -49.7106208,-20.3252298993838,0.0 -49.7114418,-20.3260095993838,0.0 -49.7121901,-20.3291686993837,0.0 -49.713725,-20.3305987993837,0.0 -49.7148992,-20.3311737993837,0.0 -49.7171528,-20.3322678993836,0.0 -49.7192921,-20.3330225993836,0.0 -49.7215657,-20.3343653993836,0.0 -49.7223085,-20.3357591993836,0.0 -49.7228843,-20.3360879993836,0.0 -49.7235565,-20.3362724993836,0.0 -49.725559,-20.3358588993836,0.0 -49.7279672,-20.3359799993836,0.0 -49.7282474,-20.3362831993835,0.0 -49.7284011,-20.3365446993835,0.0 -49.7286285,-20.3374905993835,0.0 -49.7292519,-20.3382686993835,0.0 -49.7299916,-20.3391581993835,0.0 -49.7306599,-20.3398122993834,0.0 -49.731368,-20.3409915993834,0.0 -49.7321884,-20.3418609993834,0.0 -49.7318408,-20.3437339993834,0.0 -49.7324659,-20.3454563993833,0.0 -49.7326916,-20.3463443993833,0.0 -49.7327284,-20.3469193993833,0.0 -49.7324749,-20.3485104993832,0.0 -49.7325082,-20.3490754993832,0.0 -49.7326672,-20.3495985993832,0.0 -49.7329039,-20.3499098993832,0.0 -49.7332961,-20.3500717993832,0.0 -49.7344089,-20.3497579993832,0.0 -49.7356264,-20.3495319993832,0.0 -49.736725,-20.3495260993832,0.0 -49.7373107,-20.3495440993832,0.0 -49.7378805,-20.3497139993832,0.0 -49.7385652,-20.3501747993832,0.0 -49.7392525,-20.3503040993832,0.0 -49.7397947,-20.3502803993832,0.0 -49.7404106,-20.3501881993832,0.0 -49.7408771,-20.3504539993832,0.0 -49.7411525,-20.3508150993832,0.0 -49.7418914,-20.3521423993832,0.0 -49.7427823,-20.3521391993831,0.0 -49.7437643,-20.3520495993832,0.0 -49.7445707,-20.3519586993832,0.0 -49.7453771,-20.3518539993832,0.0 -49.7456664,-20.3522368993831,0.0 -49.7463744,-20.3526070993831,0.0 -49.7473286,-20.3532493993831,0.0 -49.7487647,-20.3540677993831,0.0 -49.7493258,-20.3544240993831,0.0 -49.7500617,-20.3548296993831,0.0 -49.7511024,-20.3554894993831,0.0 -49.7523029,-20.3558070993831,0.0 -49.7530114,-20.356847399383,0.0 -49.7534454,-20.357565699383,0.0 -49.7542008,-20.357930299383,0.0 -49.7549511,-20.358505499383,0.0 -49.7551955,-20.359343699383,0.0 -49.7554994,-20.359876199383,0.0 -49.7573373,-20.3613890993829,0.0 -49.7579825,-20.3627339993829,0.0 -49.7581881,-20.3634721993829,0.0 -49.758552,-20.3643009993829,0.0 -49.7591246,-20.3650267993828,0.0 -49.7599835,-20.3683750993827,0.0 -49.7603681,-20.3693223993827,0.0 -49.7620201,-20.3714858993827,0.0 -49.7625815,-20.3723013993826,0.0 -49.7629004,-20.3722726993826,0.0 -49.7630166,-20.3726026993826,0.0 -49.7630332,-20.3727787993826,0.0 -49.7635905,-20.3732097993826,0.0 -49.7635934,-20.3732864993826,0.0 -49.7639232,-20.3734245993826,0.0 -49.7642847,-20.3733646993826,0.0 -49.7646303,-20.3736087993826,0.0 -49.7652036,-20.3736300993826,0.0 -49.7668704,-20.3751664993826,0.0 -49.767169,-20.3757319993826,0.0 -49.7670057,-20.3764573993825,0.0 -49.7684321,-20.3771664993825,0.0 -49.7692,-20.3780750993825,0.0 -49.7701892,-20.3778383993825,0.0 -49.7713274,-20.3771901993825,0.0 -49.7724199,-20.3770000993825,0.0 -49.773723,-20.3762583993826,0.0 -49.7756972,-20.3759617993826,0.0 -49.7772797,-20.3764300993825,0.0 -49.7780801,-20.3768149993825,0.0 -49.7781977,-20.3770199993825,0.0 -49.7785712,-20.3769073993825,0.0 -49.7786619,-20.3770464993825,0.0 -49.7792188,-20.3770270993825,0.0 -49.779645,-20.3771667993825,0.0 -49.7799752,-20.3769188993825,0.0 -49.7801326,-20.3770213993825,0.0 -49.7808832,-20.3766300993825,0.0 -49.7811444,-20.3765145993825,0.0 -49.7830353,-20.3761947993825,0.0 -49.7847114,-20.3766073993825,0.0 -49.785254,-20.3766380993825,0.0 -49.7858364,-20.3768943993825,0.0 -49.7872097,-20.3772122993825,0.0 -49.7882406,-20.3777536993825,0.0 -49.7889983,-20.3775348993825,0.0 -49.7892755,-20.3776439993825,0.0 -49.7898289,-20.3774447993825,0.0 -49.7911974,-20.3775152993825,0.0 -49.792736,-20.3775259993825,0.0 -49.793458,-20.3777749993825,0.0 -49.7954404,-20.3786113993825,0.0 -49.7974885,-20.3805678993824,0.0 -49.797895,-20.3813686993824,0.0 -49.7988255,-20.3822357993824,0.0 -49.7992824,-20.3825935993824,0.0 -49.7995693,-20.3826002993824,0.0 -49.7997939,-20.3831543993824,0.0 -49.8003395,-20.3833953993824,0.0 -49.8009923,-20.3842308993823,0.0 -49.8013083,-20.3840681993824,0.0 -49.8018188,-20.3840806993824,0.0 -49.8021225,-20.3843746993823,0.0 -49.8030803,-20.3845947993823,0.0 -49.8026538,-20.3841374993824,0.0 -49.801945,-20.3828521993824,0.0 -49.8009848,-20.3797074993825,0.0 -49.8000584,-20.3757450993826,0.0 -49.7996932,-20.3746870993826,0.0 -49.7997788,-20.3737588993826,0.0 -49.800157,-20.3733081993826,0.0 -49.8007444,-20.3730608993826,0.0 -49.8015712,-20.3729220993826,0.0 -49.8023178,-20.3725262993826,0.0 -49.8026415,-20.3720751993827,0.0 -49.8030742,-20.3710994993827,0.0 -49.8037458,-20.3702853993827,0.0 -49.8047101,-20.3693880993827,0.0 -49.8057255,-20.3688661993827,0.0 -49.8075931,-20.3681510993827,0.0 -49.8088757,-20.3674579993828,0.0 -49.8105091,-20.3661881993828,0.0 -49.8111994,-20.3660676993828,0.0 -49.8137156,-20.3661693993828,0.0 -49.8157392,-20.3661330993828,0.0 -49.8174427,-20.3658167993828,0.0 -49.8182453,-20.3654718993828,0.0 -49.820117,-20.3641039993829,0.0 -49.8239821,-20.3617930993829,0.0 -49.8248631,-20.3615237993829,0.0 -49.8255804,-20.3614291993829,0.0 -49.8272299,-20.3615144993829,0.0 -49.8281096,-20.3612956993829,0.0 -49.8286905,-20.3609290993829,0.0 -49.8320109,-20.358164099383,0.0 -49.8335065,-20.357269399383,0.0 -49.834309,-20.356999199383,0.0 -49.8348659,-20.356952899383,0.0 -49.8363009,-20.357139399383,0.0 -49.8374708,-20.357170899383,0.0 -49.8403679,-20.356321199383,0.0 -49.8442552,-20.3560204993831,0.0 -49.8467857,-20.3555098993831,0.0 -49.8486276,-20.3548450993831,0.0 -49.8505362,-20.3538752993831,0.0 -49.8516311,-20.3530555993831,0.0 -49.8524869,-20.3527612993831,0.0 -49.8529367,-20.3528124993831,0.0 -49.8534426,-20.3529921993831,0.0 -49.8573733,-20.3548135993831,0.0 -49.8590616,-20.355967499383,0.0 -49.86001,-20.357226799383,0.0 -49.8602747,-20.357431399383,0.0 -49.8606477,-20.357384299383,0.0 -49.8607296,-20.357081599383,0.0 -49.8608555,-20.3544467993831,0.0 -49.8611561,-20.3531032993831,0.0 -49.8614291,-20.3523752993831,0.0 -49.8626956,-20.3501469993832,0.0 -49.8632402,-20.3486931993832,0.0 -49.8633211,-20.3479963993833,0.0 -49.8631182,-20.3470910993833,0.0 -49.8627762,-20.3463356993833,0.0 -49.8619802,-20.3458272993833,0.0 -49.8608388,-20.3457714993833,0.0 -49.8599851,-20.3460649993833,0.0 -49.8597441,-20.3460133993833,0.0 -49.8595632,-20.3456114993833,0.0 -49.8593888,-20.3439603993834,0.0 -49.8586025,-20.3423723993834,0.0 -49.8583162,-20.3415415993834,0.0 -49.8583734,-20.3410164993834,0.0 -49.8585346,-20.3407525993834,0.0 -49.8617531,-20.3372092993835,0.0 -49.8621306,-20.3366321993835,0.0 -49.8622677,-20.3359800993836,0.0 -49.8620107,-20.3346974993836,0.0 -49.8616721,-20.3337789993836,0.0 -49.8606166,-20.3325163993836,0.0 -49.8603776,-20.3323898993836,0.0 -49.8594219,-20.3322329993836,0.0 -49.8583334,-20.3310380993837,0.0 -49.8583542,-20.3297430993837,0.0 -49.8581203,-20.3289109993837,0.0 -49.8578074,-20.3283355993837,0.0 -49.8573033,-20.3278792993838,0.0 -49.855804,-20.3256577993838,0.0 -49.8541577,-20.3253970993838,0.0 -49.8533578,-20.3255421993838,0.0 -49.8525319,-20.3258390993838,0.0 -49.8496974,-20.3277767993838,0.0 -49.849512,-20.3277273993838,0.0 -49.8494344,-20.3274757993838,0.0 -49.8496937,-20.3260152993838,0.0 -49.8503871,-20.3244089993838,0.0 -49.8509785,-20.3235332993839,0.0 -49.8526644,-20.3214216993839,0.0 -49.8533109,-20.3207316993839,0.0 -49.8543128,-20.319873799384,0.0 -49.8561555,-20.318417099384,0.0 -49.8588355,-20.317308699384,0.0 -49.8608146,-20.316164699384,0.0 -49.8618202,-20.3150052993841,0.0 -49.86236,-20.3136174993841,0.0 -49.8625883,-20.3122276993841,0.0 -49.8627684,-20.3103183993842,0.0 -49.8625375,-20.3077988993843,0.0 -49.8629748,-20.3062340993843,0.0 -49.8639621,-20.3040641993843,0.0 -49.86448,-20.3020503993844,0.0 -49.8654928,-20.2994496993845,0.0 -49.8660948,-20.2983168993845,0.0 -49.8668901,-20.2974924993845,0.0 -49.8670277,-20.2970103993845,0.0 -49.8669022,-20.2956485993846,0.0 -49.8665724,-20.2939986993846,0.0 -49.8660606,-20.2928615993846,0.0 -49.8659678,-20.2904424993847,0.0 -49.8661131,-20.2885401993847,0.0 -49.8662479,-20.2867259993848,0.0 -49.8659227,-20.2846858993848,0.0 -49.8655094,-20.2833311993849,0.0 -49.8650364,-20.2826862993849,0.0 -49.8643694,-20.2815993993849,0.0 -49.8638052,-20.279752399385,0.0 -49.8624366,-20.278506699385,0.0 -49.8622946,-20.277892199385,0.0 -49.8615203,-20.276353799385,0.0 -49.8609103,-20.2738709993851,0.0 -49.8605163,-20.2727220993851,0.0 -49.8604174,-20.2718473993852,0.0 -49.8605694,-20.2709338993852,0.0 -49.8605198,-20.2701432993852,0.0 -49.8603975,-20.2697113993852,0.0 -49.8602178,-20.2691684993852,0.0 -49.8597747,-20.2679995993852,0.0 -49.8589382,-20.2666714993853,0.0 -49.8577899,-20.2649399993853,0.0 -49.8576556,-20.2638756993854,0.0 -49.8571956,-20.2628928993854,0.0 -49.8565475,-20.2619835993854,0.0 -49.8559955,-20.2613353993854,0.0 -49.8547159,-20.2602753993854,0.0 -49.8541457,-20.2592702993855,0.0 -49.853972,-20.2583632993855,0.0 -49.8539786,-20.2577329993855,0.0 -49.8536702,-20.2566041993855,0.0 -49.8532341,-20.2551953993856,0.0 -49.8524574,-20.2535148993856,0.0 -49.8515854,-20.2517480993857,0.0 -49.8509682,-20.2509723993857,0.0 -49.8501629,-20.2500118993857,0.0 -49.8497444,-20.2493893993857,0.0 -49.8490343,-20.2485470993857,0.0 -49.8480903,-20.2469220993858,0.0 -49.8467383,-20.2459821993858,0.0 -49.8462128,-20.2445424993858,0.0 -49.8458827,-20.2423117993859,0.0 -49.8459308,-20.2412629993859,0.0 -49.8458742,-20.2403108993859,0.0 -49.8455841,-20.238754999386,0.0 -49.8455625,-20.237888799386,0.0 -49.8450912,-20.236561499386,0.0 -49.844805,-20.2357060993861,0.0 -49.8447784,-20.2349136993861,0.0 -49.8450927,-20.2341592993861,0.0 -49.8451951,-20.2335189993861,0.0 -49.8449809,-20.2330081993861,0.0 -49.8445679,-20.2326172993861,0.0 -49.8442468,-20.2319867993862,0.0 -49.84394,-20.2311206993862,0.0 -49.843778,-20.2303817993862,0.0 -49.8435718,-20.2296564993862,0.0 -49.8436773,-20.2293044993862,0.0 -49.8440931,-20.2289136993862,0.0 -49.8442402,-20.2285976993862,0.0 -49.8442644,-20.2282656993863,0.0 -49.8437897,-20.2272811993863,0.0 -49.8434752,-20.2265992993863,0.0 -49.8435695,-20.2261806993863,0.0 -49.8436917,-20.2259040993863,0.0 -49.8443694,-20.2252944993863,0.0 -49.844653,-20.2247827993863,0.0 -49.844647,-20.2233159993864,0.0 -49.8454389,-20.2214343993864,0.0 -49.8454818,-20.2209035993864,0.0 -49.845398,-20.2193753993865,0.0 -49.8452511,-20.2186714993865,0.0 -49.845026,-20.2174201993865,0.0 -49.8450091,-20.2168873993865,0.0 -49.8449358,-20.2160538993865,0.0 -49.8444225,-20.2148112993866,0.0 -49.8439611,-20.2133336993866,0.0 -49.8432131,-20.2120200993867,0.0 -49.842045,-20.2110964993867,0.0 -49.8413328,-20.2101618993867,0.0 -49.8403382,-20.2093379993867,0.0 -49.8394132,-20.2086766993867,0.0 -49.8389586,-20.2083968993867,0.0 -49.8387673,-20.2076068993868,0.0 -49.8385838,-20.2075101993868,0.0 -49.8380311,-20.2075113993868,0.0 -49.8371214,-20.2080785993868,0.0 -49.8363277,-20.2080291993868,0.0 -49.835017,-20.2070407993868,0.0 -49.834165,-20.2064716993868,0.0 -49.8334325,-20.2058838993868,0.0 -49.8327615,-20.2053895993868,0.0 -49.8321002,-20.2050079993868,0.0 -49.8309078,-20.2041524993869,0.0 -49.8295152,-20.2037071993869,0.0 -49.8280473,-20.2029282993869,0.0 -49.8267276,-20.2024589993869,0.0 -49.8255364,-20.2021473993869,0.0 -49.8242916,-20.2020605993869,0.0 -49.8234083,-20.2018685993869,0.0 -49.8227291,-20.2018002993869,0.0 -49.8216273,-20.2013324993869,0.0 -49.8209633,-20.2013034993869,0.0 -49.819364,-20.2014396993869,0.0 -49.8190035,-20.2012523993869,0.0 -49.8186767,-20.2008925993869,0.0 -49.817996,-20.2006650993869,0.0 -49.81773,-20.2005016993869,0.0 -49.8175354,-20.199472299387,0.0 -49.8170152,-20.198736999387,0.0 -49.8162653,-20.198400999387,0.0 -49.8149831,-20.198009199387,0.0 -49.8139719,-20.197578699387,0.0 -49.8135271,-20.196857599387,0.0 -49.813406,-20.1955589993871,0.0 -49.8130146,-20.1951668993871,0.0 -49.8124501,-20.1947252993871,0.0 -49.8118325,-20.1953776993871,0.0 -49.8112048,-20.1957674993871,0.0 -49.8092844,-20.196641299387,0.0 -49.8080849,-20.198899699387,0.0 -49.8076198,-20.2005057993869,0.0 -49.8069971,-20.2015627993869,0.0 -49.805526,-20.2034514993869,0.0 -49.8055937,-20.2041083993869,0.0 -49.8057695,-20.2055547993868,0.0 -49.8055497,-20.2087758993867,0.0 -49.8050535,-20.2097538993867,0.0 -49.8049694,-20.2101412993867,0.0 -49.805275,-20.2110923993867,0.0 -49.8053477,-20.2117737993867,0.0 -49.80529,-20.2126016993866,0.0 -49.8049685,-20.2141327993866,0.0 -49.804294,-20.2147621993866,0.0 -49.8029197,-20.2157506993866,0.0 -49.8026856,-20.2161633993865,0.0 -49.8027593,-20.2166266993865,0.0 -49.8034222,-20.2175321993865,0.0 -49.8036456,-20.2185894993865,0.0 -49.8043333,-20.2197137993865,0.0 -49.8052964,-20.2218126993864,0.0 -49.8053694,-20.2224454993864,0.0 -49.8052818,-20.2237098993864,0.0 -49.8050715,-20.2242700993863,0.0 -49.8045763,-20.2248504993863,0.0 -49.8039026,-20.2252355993863,0.0 -49.8029485,-20.2255445993863,0.0 -49.8019967,-20.2260157993863,0.0 -49.8011155,-20.2265680993863,0.0 -49.7995567,-20.2282357993862,0.0 -49.7986741,-20.2291798993862,0.0 -49.7984909,-20.2297622993862,0.0 -49.7984851,-20.2302254993862,0.0 -49.7991168,-20.2319018993862,0.0 -49.7993383,-20.2331700993861,0.0 -49.7993302,-20.2342903993861,0.0 -49.7991107,-20.236006899386,0.0 -49.7991861,-20.236298999386,0.0 -49.7993902,-20.236471499386,0.0 -49.799803,-20.236498499386,0.0 -49.8009927,-20.236189799386,0.0 -49.8031069,-20.2359616993861,0.0 -49.8051073,-20.236120299386,0.0 -49.8059821,-20.236270899386,0.0 -49.8063676,-20.236494699386,0.0 -49.8066447,-20.237226899386,0.0 -49.8067035,-20.239849699386,0.0 -49.8069517,-20.2407281993859,0.0 -49.8075921,-20.2411950993859,0.0 -49.8087242,-20.2416403993859,0.0 -49.8097788,-20.2419394993859,0.0 -49.8101903,-20.2421620993859,0.0 -49.8104725,-20.2424563993859,0.0 -49.8109654,-20.2429092993859,0.0 -49.811219,-20.2436947993859,0.0 -49.8122307,-20.2468593993858,0.0 -49.8126112,-20.2476661993858,0.0 -49.8129702,-20.2481308993857,0.0 -49.8138654,-20.2488426993857,0.0 -49.8164306,-20.2501504993857,0.0 -49.8177395,-20.2512552993857,0.0 -49.8189401,-20.2525773993856,0.0 -49.8206241,-20.2549404993856,0.0 -49.8224641,-20.2570205993855,0.0 -49.8227956,-20.2575819993855,0.0 -49.8231487,-20.2584854993855,0.0 -49.8233972,-20.2617149993854,0.0 -49.8236727,-20.2627608993854,0.0 -49.8252016,-20.2651995993853,0.0 -49.8253533,-20.2655421993853,0.0 -49.8253245,-20.2658316993853,0.0 -49.8246398,-20.2679428993853,0.0 -49.8239571,-20.2693004993852,0.0 -49.8188952,-20.2751971993851,0.0 -49.8185514,-20.276414099385,0.0 -49.8188775,-20.277607199385,0.0 -49.8202976,-20.2808870993849,0.0 -49.820547,-20.2817656993849,0.0 -49.8206378,-20.2833741993849,0.0 -49.8205823,-20.2839101993849,0.0 -49.8203203,-20.2843942993848,0.0 -49.8195199,-20.2848520993848,0.0 -49.8189069,-20.2848212993848,0.0 -49.8160655,-20.2846805993848,0.0 -49.8152151,-20.2848233993848,0.0 -49.8137999,-20.2853142993848,0.0 -49.8128959,-20.2855298993848,0.0 -49.812511,-20.2855251993848,0.0 -49.8116598,-20.2850568993848,0.0 -49.8098678,-20.2836078993849,0.0 -49.8093538,-20.2835297993849,0.0 -49.8076496,-20.2837621993849,0.0 -49.8028999,-20.2847538993848,0.0 -49.8027465,-20.2845112993848,0.0 -49.8019028,-20.2815650993849,0.0 -49.8014458,-20.2806121993849,0.0 -49.7999878,-20.279214399385,0.0 -49.7989616,-20.278526399385,0.0 -49.7972473,-20.277930099385,0.0 -49.7946252,-20.277229999385,0.0 -49.7913284,-20.276866999385,0.0 -49.790348,-20.276933699385,0.0 -49.7871298,-20.277771399385,0.0 -49.7859954,-20.277935299385,0.0 -49.7844507,-20.277656699385,0.0 -49.783038,-20.277135999385,0.0 -49.7810086,-20.2759775993851,0.0 -49.78019,-20.2754089993851,0.0 -49.779933,-20.2750692993851,0.0 -49.7800227,-20.2735606993851,0.0 -49.7799219,-20.2732165993851,0.0 -49.7796668,-20.2728769993851,0.0 -49.7792298,-20.2726771993851,0.0 -49.7777841,-20.2727406993851,0.0 -49.7721349,-20.2719475993851,0.0 -49.7712838,-20.2719406993852,0.0 -49.7701714,-20.2722500993851,0.0 -49.7693434,-20.2727312993851,0.0 -49.7678713,-20.2729887993851,0.0 -49.7657853,-20.2729006993851,0.0 -49.7644952,-20.2725919993851,0.0 -49.7642112,-20.2724248993851,0.0 -49.763482,-20.2719959993852,0.0 -49.7626409,-20.2709183993852,0.0 -49.7613982,-20.2683049993852,0.0 -49.7607369,-20.2674480993853,0.0 -49.7585262,-20.2663129993853,0.0 -49.7577306,-20.2660639993853,0.0 -49.7537375,-20.2657538993853,0.0 -49.7534796,-20.2655565993853,0.0 -49.753401,-20.2652838993853,0.0 -49.7549447,-20.2629860993854,0.0 -49.7552346,-20.2623315993854,0.0 -49.7553689,-20.2613331993854,0.0 -49.7554346,-20.2597997993855,0.0 -49.7552595,-20.2590572993855,0.0 -49.7544929,-20.2582725993855,0.0 -49.7531852,-20.2573864993855,0.0 -49.7530578,-20.2570705993855,0.0 -49.7530889,-20.2567044993855,0.0 -49.7534004,-20.2562685993855,0.0 -49.7547989,-20.2554757993856,0.0 -49.7551886,-20.2550876993856,0.0 -49.7562336,-20.2528900993856,0.0 -49.7564826,-20.2512356993857,0.0 -49.7563853,-20.2504815993857,0.0 -49.7561286,-20.2503807993857,0.0 -49.7536779,-20.2505099993857,0.0 -49.7528541,-20.2504557993857,0.0 -49.7518434,-20.2497933993857,0.0 -49.7509443,-20.2496591993857,0.0 -49.7493482,-20.2489499993857,0.0 -49.7451669,-20.2463715993858,0.0 -49.7431643,-20.2451277993858,0.0 -49.7409793,-20.2433714993859,0.0 -49.7386634,-20.2415037993859,0.0 -49.7362836,-20.2401981993859,0.0 -49.7359007,-20.239674199386,0.0 -49.7352117,-20.239241099386,0.0 -49.7348335,-20.238892099386,0.0 -49.7345218,-20.238529399386,0.0 -49.7342035,-20.236909499386,0.0 -49.7318286,-20.2360254993861,0.0 -49.7309533,-20.2352282993861,0.0 -49.730294,-20.2344084993861,0.0 -49.7303378,-20.2335212993861,0.0 -49.7294273,-20.2329965993861,0.0 -49.7281501,-20.2321273993862,0.0 -49.726173,-20.2304795993862,0.0 -49.7253679,-20.2305094993862,0.0 -49.725344,-20.2286565993862,0.0 -49.7258313,-20.2243676993863,0.0 -49.7255871,-20.2211057993864,0.0 -49.7255052,-20.2191988993865,0.0 -49.7259142,-20.2172603993865,0.0 -49.7259617,-20.2162929993865,0.0 -49.7259739,-20.2154910993866,0.0 -49.7259725,-20.2149616993866,0.0 -49.726456,-20.2125731993866,0.0 -49.7264125,-20.2117087993867,0.0 -49.7264302,-20.2102278993867,0.0 -49.7266361,-20.2085826993867,0.0 -49.7261397,-20.2083437993867,0.0 -49.7256939,-20.2081427993868,0.0 -49.7245189,-20.2077652993868,0.0 -49.7239187,-20.2070551993868,0.0 -49.7230778,-20.2066854993868,0.0 -49.7224284,-20.2064455993868,0.0 -49.7217308,-20.2065634993868,0.0 -49.7208878,-20.2064610993868,0.0 -49.7201012,-20.2063857993868,0.0 -49.7193382,-20.2061824993868,0.0 -49.7189033,-20.2060348993868,0.0 -49.7184754,-20.2057270993868,0.0 -49.7179751,-20.2049782993868,0.0 -49.7174431,-20.2042986993869,0.0 -49.7167481,-20.2034896993869,0.0 -49.7160951,-20.2027343993869,0.0 -49.7153772,-20.2019572993869,0.0 -49.7150377,-20.2016717993869,0.0 -49.7148481,-20.2016168993869,0.0 -49.7146066,-20.2013871993869,0.0 -49.7140612,-20.2013199993869,0.0 -49.7134529,-20.2013154993869,0.0 -49.7129204,-20.2013943993869,0.0 -49.6891862,-20.2013330993869,0.0 -49.6873336,-20.2013046993869,0.0 -49.6868524,-20.2019779993869,0.0 -49.6864785,-20.2020649993869,0.0 -49.686012,-20.2018542993869,0.0 -49.685671,-20.2015132993869,0.0 -49.6854259,-20.2010831993869,0.0 -49.684726,-20.199917599387,0.0 -49.6845619,-20.199412199387,0.0 -49.684191,-20.199146899387,0.0 -49.6835921,-20.199031899387,0.0 -49.6822726,-20.199339699387,0.0 -49.6806641,-20.199210299387,0.0 -49.6801495,-20.199503399387,0.0 -49.6796556,-20.1999347993869,0.0 -49.67912,-20.2009806993869,0.0 -49.6783237,-20.2017136993869,0.0 -49.6780008,-20.2026920993869,0.0 -49.6780713,-20.2030172993869,0.0 -49.6795845,-20.2040370993869,0.0 -49.6798967,-20.2038908993869,0.0 -49.6803116,-20.2032758993869,0.0 -49.6807971,-20.2027407993869,0.0 -49.6814107,-20.2024206993869,0.0 -49.6817006,-20.2027509993869,0.0 -49.6816907,-20.2030651993869,0.0 -49.6813976,-20.2035464993869,0.0 -49.6811854,-20.2038292993869,0.0 -49.6795365,-20.2060362993868,0.0 -49.6790479,-20.2062777993868,0.0 -49.67836,-20.2063002993868,0.0 -49.6766865,-20.2060597993868,0.0 -49.6754157,-20.2053594993868,0.0 -49.6749531,-20.2051280993868,0.0 -49.6745786,-20.2052874993868,0.0 -49.6744512,-20.2060704993868,0.0 -49.6748229,-20.2066776993868,0.0 -49.6752639,-20.2072991993868,0.0 -49.6757047,-20.2079517993868,0.0 -49.6758254,-20.2092546993867,0.0 -49.6755432,-20.2097428993867,0.0 -49.6747116,-20.2103168993867,0.0 -49.6736082,-20.2105778993867,0.0 -49.6728465,-20.2106722993867,0.0 -49.6723117,-20.2107476993867,0.0 -49.6718955,-20.2110829993867,0.0 -49.6716575,-20.2119617993867,0.0 -49.6708102,-20.2139514993866,0.0 -49.6700094,-20.2151921993866,0.0 -49.6701384,-20.2163673993865,0.0 -49.6699251,-20.2173672993865,0.0 -49.6700423,-20.2177721993865,0.0 -49.670363,-20.2179299993865,0.0 -49.6708823,-20.2179477993865,0.0 -49.6722752,-20.2185004993865,0.0 -49.672661,-20.2187416993865,0.0 -49.6729325,-20.2190821993865,0.0 -49.6734448,-20.2207955993864,0.0 -49.6735865,-20.2213388993864,0.0 -49.6737934,-20.2215337993864,0.0 -49.6743679,-20.2215277993864,0.0 -49.6763254,-20.2210797993864,0.0 -49.6763169,-20.2203475993865,0.0 -49.6768939,-20.2187494993865,0.0 -49.6772033,-20.2185031993865,0.0 -49.6781504,-20.2181165993865,0.0 -49.6786162,-20.2184170993865,0.0 -49.6791439,-20.2191808993865,0.0 -49.6793405,-20.2192997993865,0.0 -49.6803814,-20.2190796993865,0.0 -49.6809563,-20.2194500993865,0.0 -49.6811804,-20.2197694993865,0.0 -49.6816949,-20.2203672993864,0.0 -49.6820448,-20.2213921993864,0.0 -49.6821283,-20.2219038993864,0.0 -49.6819523,-20.2228212993864,0.0 -49.6819175,-20.2230385993864,0.0 -49.6818291,-20.2231103993864,0.0 -49.6819236,-20.2236222993864,0.0 -49.6829736,-20.2240652993863,0.0 -49.683542,-20.2243388993863,0.0 -49.6841475,-20.2241258993864,0.0 -49.6848619,-20.2235820993864,0.0 -49.6852644,-20.2231430993864,0.0 -49.6858591,-20.2229022993864,0.0 -49.686268,-20.2230020993864,0.0 -49.6866104,-20.2231841993864,0.0 -49.6867764,-20.2234651993864,0.0 -49.6864562,-20.2241189993864,0.0 -49.6862222,-20.2245385993863,0.0 -49.6862353,-20.2247216993863,0.0 -49.6855042,-20.2255174993863,0.0 -49.6850776,-20.2257766993863,0.0 -49.6844245,-20.2259928993863,0.0 -49.6840887,-20.2263356993863,0.0 -49.6840516,-20.2268292993863,0.0 -49.6842037,-20.2274450993863,0.0 -49.6844211,-20.2277022993863,0.0 -49.6849204,-20.2283725993863,0.0 -49.6846545,-20.2286640993862,0.0 -49.6840201,-20.2283934993862,0.0 -49.6834848,-20.2285310993862,0.0 -49.6831528,-20.2292882993862,0.0</coordinates>
</LinearRing>
</outerBoundaryIs>
</Polygon>
</MultiGeometry>
</Placemark>
</Folder>
</Document></kml>
