<?xml version='1.0' encoding='UTF-8'?>
<kml xmlns:xsd="http://www.w3.org/2001/XMLSchema" xmlns:gx="http://www.google.com/kml/ext/2.2" xmlns:atom="http://www.w3.org/2005/Atom" xmlns="http://www.opengis.net/kml/2.2">
<Document>
<name>boraceia_3507308_localidades_2022</name>
<visibility>1</visibility>
<Schema name="Localidades" id="kml_schema_ft_Localidades">
<SimpleField type="xsd:string" name="CD_UF">
<displayName>CD_UF</displayName>
</SimpleField>
<SimpleField type="xsd:string" name="NM_UF">
<displayName>NM_UF</displayName>
</SimpleField>
<SimpleField type="xsd:string" name="SIGLA_UF">
<displayName>SIGLA_UF</displayName>
</SimpleField>
<SimpleField type="xsd:string" name="CD_MUN">
<displayName>CD_MUN</displayName>
</SimpleField>
<SimpleField type="xsd:string" name="NM_MUN">
<displayName>NM_MUN</displayName>
</SimpleField>
<SimpleField type="xsd:string" name="CD_RGINT">
<displayName>CD_RGINT</displayName>
</SimpleField>
<SimpleField type="xsd:string" name="NM_RGINT">
<displayName>NM_RGINT</displayName>
</SimpleField>
<SimpleField type="xsd:string" name="CD_RGI">
<displayName>CD_RGI</displayName>
</SimpleField>
<SimpleField type="xsd:string" name="NM_RGI">
<displayName>NM_RGI</displayName>
</SimpleField>
<SimpleField type="xsd:string" name="CT_LOCALIDADE">
<displayName>CT_LOCALIDADE</displayName>
</SimpleField>
<SimpleField type="xsd:string" name="SCT_LOCALIDADE">
<displayName>SCT_LOCALIDADE</displayName>
</SimpleField>
<SimpleField type="xsd:string" name="CD_LOCALIDADE">
<displayName>CD_LOCALIDADE</displayName>
</SimpleField>
<SimpleField type="xsd:string" name="NM_LOCALIDADE">
<displayName>NM_LOCALIDADE</displayName>
</SimpleField>
</Schema>
<Schema name="Núcleos Urbanos" id="kml_schema_ft_Núcleos_Urbanos">
<SimpleField type="xsd:string" name="CD_UF">
<displayName>CD_UF</displayName>
</SimpleField>
<SimpleField type="xsd:string" name="NM_UF">
<displayName>NM_UF</displayName>
</SimpleField>
<SimpleField type="xsd:string" name="SIGLA_UF">
<displayName>SIGLA_UF</displayName>
</SimpleField>
<SimpleField type="xsd:string" name="CD_MUN">
<displayName>CD_MUN</displayName>
</SimpleField>
<SimpleField type="xsd:string" name="NM_MUN">
<displayName>NM_MUN</displayName>
</SimpleField>
<SimpleField type="xsd:string" name="CD_RGINT">
<displayName>CD_RGINT</displayName>
</SimpleField>
<SimpleField type="xsd:string" name="NM_RGINT">
<displayName>NM_RGINT</displayName>
</SimpleField>
<SimpleField type="xsd:string" name="CD_RGI">
<displayName>CD_RGI</displayName>
</SimpleField>
<SimpleField type="xsd:string" name="NM_RGI">
<displayName>NM_RGI</displayName>
</SimpleField>
<SimpleField type="xsd:string" name="CT_LOCALIDADE">
<displayName>CT_LOCALIDADE</displayName>
</SimpleField>
<SimpleField type="xsd:string" name="CD_LOCALIDADE">
<displayName>CD_LOCALIDADE</displayName>
</SimpleField>
<SimpleField type="xsd:string" name="NM_LOCALIDADE">
<displayName>NM_LOCALIDADE</displayName>
</SimpleField>
<SimpleField type="xsd:string" name="LAT_LOCALIDADE">
<displayName>LAT_LOCALIDADE</displayName>
</SimpleField>
<SimpleField type="xsd:string" name="LONG_LOCALIDADE">
<displayName>LONG_LOCALIDADE</displayName>
</SimpleField>
</Schema>
<Schema name="01. Cidade" id="kml_schema_ft_01._Cidade">
<SimpleField type="xsd:string" name="CD_UF">
<displayName>CD_UF</displayName>
</SimpleField>
<SimpleField type="xsd:string" name="NM_UF">
<displayName>NM_UF</displayName>
</SimpleField>
<SimpleField type="xsd:string" name="SIGLA_UF">
<displayName>SIGLA_UF</displayName>
</SimpleField>
<SimpleField type="xsd:string" name="CD_MUN">
<displayName>CD_MUN</displayName>
</SimpleField>
<SimpleField type="xsd:string" name="NM_MUN">
<displayName>NM_MUN</displayName>
</SimpleField>
<SimpleField type="xsd:string" name="CD_RGINT">
<displayName>CD_RGINT</displayName>
</SimpleField>
<SimpleField type="xsd:string" name="NM_RGINT">
<displayName>NM_RGINT</displayName>
</SimpleField>
<SimpleField type="xsd:string" name="CD_RGI">
<displayName>CD_RGI</displayName>
</SimpleField>
<SimpleField type="xsd:string" name="NM_RGI">
<displayName>NM_RGI</displayName>
</SimpleField>
<SimpleField type="xsd:string" name="CT_LOCALIDADE">
<displayName>CT_LOCALIDADE</displayName>
</SimpleField>
<SimpleField type="xsd:string" name="SCT_LOCALIDADE">
<displayName>SCT_LOCALIDADE</displayName>
</SimpleField>
<SimpleField type="xsd:string" name="CD_LOCALIDADE">
<displayName>CD_LOCALIDADE</displayName>
</SimpleField>
<SimpleField type="xsd:string" name="NM_LOCALIDADE">
<displayName>NM_LOCALIDADE</displayName>
</SimpleField>
<SimpleField type="xsd:string" name="LAT_LOCALIDADE">
<displayName>LAT_LOCALIDADE</displayName>
</SimpleField>
<SimpleField type="xsd:string" name="LONG_LOCALIDADE">
<displayName>LONG_LOCALIDADE</displayName>
</SimpleField>
</Schema>
<Schema name="Município" id="kml_schema_ft_Município">
<SimpleField type="xsd:string" name="CD_UF">
<displayName>CD_UF</displayName>
</SimpleField>
<SimpleField type="xsd:string" name="NM_UF">
<displayName>NM_UF</displayName>
</SimpleField>
<SimpleField type="xsd:string" name="CD_MUN">
<displayName>CD_MUN</displayName>
</SimpleField>
<SimpleField type="xsd:string" name="NM_MUN">
<displayName>NM_MUN</displayName>
</SimpleField>
<SimpleField type="xsd:string" name="CD_RGINT">
<displayName>CD_RGINT</displayName>
</SimpleField>
<SimpleField type="xsd:string" name="NM_RGINT">
<displayName>NM_RGINT</displayName>
</SimpleField>
<SimpleField type="xsd:string" name="CD_RGI">
<displayName>CD_RGI</displayName>
</SimpleField>
<SimpleField type="xsd:string" name="NM_RGI">
<displayName>NM_RGI</displayName>
</SimpleField>
</Schema>
<Folder id="01. Cidade">
<name>01. Cidade</name>
<Folder id="01.03. Sede Municipal">
<name>01.03. Sede Municipal</name>
<Placemark id="01.03. Sede Municipal">
<name>Boracéia [3507308]</name>
<visibility>1</visibility>
<snippet> </snippet>
<description>&lt;center&gt;&lt;table&gt;&lt;tr&gt;&lt;th colspan='2' align='center'&gt;&lt;em&gt;Atributos&lt;/em&gt;&lt;/th&gt;&lt;/tr&gt;&lt;tr bgcolor="#E3E3F3"&gt;
&lt;th&gt;CD_UF&lt;/th&gt;
&lt;td&gt;35&lt;/td&gt;
&lt;/tr&gt;&lt;tr bgcolor=""&gt;
&lt;th&gt;NM_UF&lt;/th&gt;
&lt;td&gt;São Paulo&lt;/td&gt;
&lt;/tr&gt;&lt;tr bgcolor="#E3E3F3"&gt;
&lt;th&gt;SIGLA_UF&lt;/th&gt;
&lt;td&gt;SP&lt;/td&gt;
&lt;/tr&gt;&lt;tr bgcolor=""&gt;
&lt;th&gt;CD_MUN&lt;/th&gt;
&lt;td&gt;3507308&lt;/td&gt;
&lt;/tr&gt;&lt;tr bgcolor="#E3E3F3"&gt;
&lt;th&gt;NM_MUN&lt;/th&gt;
&lt;td&gt;Boracéia&lt;/td&gt;
&lt;/tr&gt;&lt;tr bgcolor=""&gt;
&lt;th&gt;CD_RGINT&lt;/th&gt;
&lt;td&gt;3503&lt;/td&gt;
&lt;/tr&gt;&lt;tr bgcolor="#E3E3F3"&gt;
&lt;th&gt;NM_RGINT&lt;/th&gt;
&lt;td&gt;Bauru&lt;/td&gt;
&lt;/tr&gt;&lt;tr bgcolor=""&gt;
&lt;th&gt;CD_RGI&lt;/th&gt;
&lt;td&gt;350010&lt;/td&gt;
&lt;/tr&gt;&lt;tr bgcolor="#E3E3F3"&gt;
&lt;th&gt;NM_RGI&lt;/th&gt;
&lt;td&gt;Jaú&lt;/td&gt;
&lt;/tr&gt;&lt;tr bgcolor=""&gt;
&lt;th&gt;CT_LOCALIDADE&lt;/th&gt;
&lt;td&gt;Cidade&lt;/td&gt;
&lt;/tr&gt;&lt;tr bgcolor="#E3E3F3"&gt;
&lt;th&gt;SCT_LOCALIDADE&lt;/th&gt;
&lt;td&gt;Sede Municipal&lt;/td&gt;
&lt;/tr&gt;&lt;tr bgcolor=""&gt;
&lt;th&gt;CD_LOCALIDADE&lt;/th&gt;
&lt;td&gt;3507308&lt;/td&gt;
&lt;/tr&gt;&lt;tr bgcolor="#E3E3F3"&gt;
&lt;th&gt;NM_LOCALIDADE&lt;/th&gt;
&lt;td&gt;Boracéia&lt;/td&gt;
&lt;/tr&gt;&lt;tr bgcolor=""&gt;
&lt;th&gt;LAT_LOCALIDADE&lt;/th&gt;
&lt;td&gt;-22.195&lt;/td&gt;
&lt;/tr&gt;&lt;tr bgcolor="#E3E3F3"&gt;
&lt;th&gt;LONG_LOCALIDADE&lt;/th&gt;
&lt;td&gt;-48.7792&lt;/td&gt;
&lt;/tr&gt;&lt;/table&gt;&lt;/center&gt;</description>
<Style>
<IconStyle>
<color>ff00aaff</color>
<scale>1.0</scale>
<Icon>
<href>http://maps.google.com/mapfiles/kml/shapes/placemark_circle.png</href>
</Icon>
</IconStyle>
<LabelStyle>
<scale>1.0</scale>
</LabelStyle>
<LineStyle>
<color>ffffffff</color>
<width>3</width>
<gx:labelVisibility>1</gx:labelVisibility>
</LineStyle>
<PolyStyle>
<color>00ffffff</color>
</PolyStyle>
</Style>
<ExtendedData>
<SchemaData schemaUrl="#kml_schema_ft_01._Cidade">
<SimpleData name="CD_UF">35</SimpleData>
<SimpleData name="NM_UF">São Paulo</SimpleData>
<SimpleData name="SIGLA_UF">SP</SimpleData>
<SimpleData name="CD_MUN">3507308</SimpleData>
<SimpleData name="NM_MUN">Boracéia</SimpleData>
<SimpleData name="CD_RGINT">3503</SimpleData>
<SimpleData name="NM_RGINT">Bauru</SimpleData>
<SimpleData name="CD_RGI">350010</SimpleData>
<SimpleData name="NM_RGI">Jaú</SimpleData>
<SimpleData name="CT_LOCALIDADE">Cidade</SimpleData>
<SimpleData name="SCT_LOCALIDADE">Sede Municipal</SimpleData>
<SimpleData name="CD_LOCALIDADE">3507308</SimpleData>
<SimpleData name="NM_LOCALIDADE">Boracéia</SimpleData>
<SimpleData name="LAT_LOCALIDADE">-22.195</SimpleData>
<SimpleData name="LONG_LOCALIDADE">-48.7792</SimpleData>
</SchemaData>
</ExtendedData>
<Point>
<extrude>0</extrude>
<coordinates>-48.7792,-22.1949999993385,0.0</coordinates>
</Point>
</Placemark>
</Folder>
</Folder>
<Folder id="05. Núcleos Urbanos">
<name>05. Núcleos Urbanos</name>
<Placemark id="localidades">
<name>Distrito Industrial [3507308002]</name>
<visibility>1</visibility>
<snippet> </snippet>
<description>&lt;center&gt;&lt;table&gt;&lt;tr&gt;&lt;th colspan='2' align='center'&gt;&lt;em&gt;Attributes&lt;/em&gt;&lt;/th&gt;&lt;/tr&gt;&lt;tr bgcolor="#E3E3F3"&gt;
&lt;th&gt;CD_UF&lt;/th&gt;
&lt;td&gt;35&lt;/td&gt;
&lt;/tr&gt;&lt;tr bgcolor=""&gt;
&lt;th&gt;NM_UF&lt;/th&gt;
&lt;td&gt;São Paulo&lt;/td&gt;
&lt;/tr&gt;&lt;tr bgcolor="#E3E3F3"&gt;
&lt;th&gt;SIGLA_UF&lt;/th&gt;
&lt;td&gt;SP&lt;/td&gt;
&lt;/tr&gt;&lt;tr bgcolor=""&gt;
&lt;th&gt;CD_MUN&lt;/th&gt;
&lt;td&gt;3507308&lt;/td&gt;
&lt;/tr&gt;&lt;tr bgcolor="#E3E3F3"&gt;
&lt;th&gt;NM_MUN&lt;/th&gt;
&lt;td&gt;Boracéia&lt;/td&gt;
&lt;/tr&gt;&lt;tr bgcolor=""&gt;
&lt;th&gt;CD_RGINT&lt;/th&gt;
&lt;td&gt;3503&lt;/td&gt;
&lt;/tr&gt;&lt;tr bgcolor="#E3E3F3"&gt;
&lt;th&gt;NM_RGINT&lt;/th&gt;
&lt;td&gt;Bauru&lt;/td&gt;
&lt;/tr&gt;&lt;tr bgcolor=""&gt;
&lt;th&gt;CD_RGI&lt;/th&gt;
&lt;td&gt;350010&lt;/td&gt;
&lt;/tr&gt;&lt;tr bgcolor="#E3E3F3"&gt;
&lt;th&gt;NM_RGI&lt;/th&gt;
&lt;td&gt;Jaú&lt;/td&gt;
&lt;/tr&gt;&lt;tr bgcolor=""&gt;
&lt;th&gt;CT_LOCALIDADE&lt;/th&gt;
&lt;td&gt;Núcleo Urbano&lt;/td&gt;
&lt;/tr&gt;&lt;tr bgcolor="#E3E3F3"&gt;
&lt;th&gt;CD_LOCALIDADE&lt;/th&gt;
&lt;td&gt;3507308002&lt;/td&gt;
&lt;/tr&gt;&lt;tr bgcolor=""&gt;
&lt;th&gt;NM_LOCALIDADE&lt;/th&gt;
&lt;td&gt;Distrito Industrial&lt;/td&gt;
&lt;/tr&gt;&lt;tr bgcolor="#E3E3F3"&gt;
&lt;th&gt;LAT_LOCALIDADE&lt;/th&gt;
&lt;td&gt;-22.1768&lt;/td&gt;
&lt;/tr&gt;&lt;tr bgcolor=""&gt;
&lt;th&gt;LONG_LOCALIDADE&lt;/th&gt;
&lt;td&gt;-48.7694&lt;/td&gt;
&lt;/tr&gt;&lt;/table&gt;&lt;/center&gt;</description>
<Style>
<IconStyle>
<color>ff0000ff</color>
<scale>0.9</scale>
<Icon>
<href>http://maps.google.com/mapfiles/kml/shapes/placemark_circle.png</href>
</Icon>
</IconStyle>
<LabelStyle>
<scale>0.9</scale>
</LabelStyle>
<LineStyle>
<color>72ffffff</color>
<width>1.0</width>
<gx:labelVisibility>1</gx:labelVisibility>
</LineStyle>
<PolyStyle>
<color>66ff54ff</color>
</PolyStyle>
</Style>
<ExtendedData>
<SchemaData schemaUrl="#kml_schema_ft_Núcleos_Urbanos">
<SimpleData name="CD_UF">35</SimpleData>
<SimpleData name="NM_UF">São Paulo</SimpleData>
<SimpleData name="SIGLA_UF">SP</SimpleData>
<SimpleData name="CD_MUN">3507308</SimpleData>
<SimpleData name="NM_MUN">Boracéia</SimpleData>
<SimpleData name="CD_RGINT">3503</SimpleData>
<SimpleData name="NM_RGINT">Bauru</SimpleData>
<SimpleData name="CD_RGI">350010</SimpleData>
<SimpleData name="NM_RGI">Jaú</SimpleData>
<SimpleData name="CT_LOCALIDADE">Núcleo Urbano</SimpleData>
<SimpleData name="CD_LOCALIDADE">3507308002</SimpleData>
<SimpleData name="NM_LOCALIDADE">Distrito Industrial</SimpleData>
<SimpleData name="LAT_LOCALIDADE">-22.1768</SimpleData>
<SimpleData name="LONG_LOCALIDADE">-48.7694</SimpleData>
</SchemaData>
</ExtendedData>
<Point>
<extrude>0</extrude>
<coordinates>-48.7694035624999,-22.1767513743389,0.0</coordinates>
</Point>
</Placemark>
</Folder>
<Folder id="12. Outras Localidades">
<name>12. Outras Localidades</name>
<Placemark id="12. Outras Localidades">
<name>Condomínio Piovesana [350730899003]</name>
<visibility>1</visibility>
<snippet> </snippet>
<description>&lt;center&gt;&lt;table&gt;&lt;tr&gt;&lt;th colspan='2' align='center'&gt;&lt;em&gt;Attributes&lt;/em&gt;&lt;/th&gt;&lt;/tr&gt;&lt;tr bgcolor="#E3E3F3"&gt;
&lt;th&gt;CD_UF&lt;/th&gt;
&lt;td&gt;35&lt;/td&gt;
&lt;/tr&gt;&lt;tr bgcolor=""&gt;
&lt;th&gt;NM_UF&lt;/th&gt;
&lt;td&gt;São Paulo&lt;/td&gt;
&lt;/tr&gt;&lt;tr bgcolor="#E3E3F3"&gt;
&lt;th&gt;SIGLA_UF&lt;/th&gt;
&lt;td&gt;SP&lt;/td&gt;
&lt;/tr&gt;&lt;tr bgcolor=""&gt;
&lt;th&gt;CD_MUN&lt;/th&gt;
&lt;td&gt;3507308&lt;/td&gt;
&lt;/tr&gt;&lt;tr bgcolor="#E3E3F3"&gt;
&lt;th&gt;NM_MUN&lt;/th&gt;
&lt;td&gt;Boracéia&lt;/td&gt;
&lt;/tr&gt;&lt;tr bgcolor=""&gt;
&lt;th&gt;CD_RGINT&lt;/th&gt;
&lt;td&gt;3503&lt;/td&gt;
&lt;/tr&gt;&lt;tr bgcolor="#E3E3F3"&gt;
&lt;th&gt;NM_RGINT&lt;/th&gt;
&lt;td&gt;Bauru&lt;/td&gt;
&lt;/tr&gt;&lt;tr bgcolor=""&gt;
&lt;th&gt;CD_RGI&lt;/th&gt;
&lt;td&gt;350010&lt;/td&gt;
&lt;/tr&gt;&lt;tr bgcolor="#E3E3F3"&gt;
&lt;th&gt;NM_RGI&lt;/th&gt;
&lt;td&gt;Jaú&lt;/td&gt;
&lt;/tr&gt;&lt;tr bgcolor=""&gt;
&lt;th&gt;CT_LOCALIDADE&lt;/th&gt;
&lt;td&gt;Outras Localidades&lt;/td&gt;
&lt;/tr&gt;&lt;tr bgcolor="#E3E3F3"&gt;
&lt;th&gt;SCT_LOCALIDADE&lt;/th&gt;
&lt;td&gt;&lt;/td&gt;
&lt;/tr&gt;&lt;tr bgcolor=""&gt;
&lt;th&gt;CD_LOCALIDADE&lt;/th&gt;
&lt;td&gt;350730899003&lt;/td&gt;
&lt;/tr&gt;&lt;tr bgcolor="#E3E3F3"&gt;
&lt;th&gt;NM_LOCALIDADE&lt;/th&gt;
&lt;td&gt;Condomínio Piovesana&lt;/td&gt;
&lt;/tr&gt;&lt;/table&gt;&lt;/center&gt;</description>
<Style>
<IconStyle>
<color>ff0069d3</color>
<scale>0.6</scale>
<Icon>
<href>http://maps.google.com/mapfiles/kml/shapes/placemark_circle.png</href>
</Icon>
</IconStyle>
<LabelStyle>
<scale>0.6</scale>
</LabelStyle>
<LineStyle>
<width>1.0</width>
<gx:labelVisibility>1</gx:labelVisibility>
</LineStyle>
</Style>
<ExtendedData>
<SchemaData schemaUrl="#kml_schema_ft_Localidades">
<SimpleData name="CD_UF">35</SimpleData>
<SimpleData name="NM_UF">São Paulo</SimpleData>
<SimpleData name="SIGLA_UF">SP</SimpleData>
<SimpleData name="CD_MUN">3507308</SimpleData>
<SimpleData name="NM_MUN">Boracéia</SimpleData>
<SimpleData name="CD_RGINT">3503</SimpleData>
<SimpleData name="NM_RGINT">Bauru</SimpleData>
<SimpleData name="CD_RGI">350010</SimpleData>
<SimpleData name="NM_RGI">Jaú</SimpleData>
<SimpleData name="CT_LOCALIDADE">Outras Localidades</SimpleData>
<SimpleData name="CD_LOCALIDADE">350730899003</SimpleData>
<SimpleData name="NM_LOCALIDADE">Condomínio Piovesana</SimpleData>
</SchemaData>
</ExtendedData>
<Point>
<extrude>0</extrude>
<coordinates>-48.7750571,-22.2129143993381,0.0</coordinates>
</Point>
</Placemark>
</Folder>
<Folder id="13. Referência">
<name>13. Referência</name>
<Placemark id="13. Referência">
<name>Boracéia [3507308]</name>
<visibility>1</visibility>
<snippet> </snippet>
<description>&lt;center&gt;&lt;table&gt;&lt;tr&gt;&lt;th colspan='2' align='center'&gt;&lt;em&gt;Attributes&lt;/em&gt;&lt;/th&gt;&lt;/tr&gt;&lt;tr bgcolor="#E3E3F3"&gt;
&lt;th&gt;CD_UF&lt;/th&gt;
&lt;td&gt;35&lt;/td&gt;
&lt;/tr&gt;&lt;tr bgcolor=""&gt;
&lt;th&gt;NM_UF&lt;/th&gt;
&lt;td&gt;São Paulo&lt;/td&gt;
&lt;/tr&gt;&lt;tr bgcolor="#E3E3F3"&gt;
&lt;th&gt;CD_MUN&lt;/th&gt;
&lt;td&gt;3507308&lt;/td&gt;
&lt;/tr&gt;&lt;tr bgcolor=""&gt;
&lt;th&gt;NM_MUN&lt;/th&gt;
&lt;td&gt;Boracéia&lt;/td&gt;
&lt;/tr&gt;&lt;tr bgcolor="#E3E3F3"&gt;
&lt;th&gt;CD_RGINT&lt;/th&gt;
&lt;td&gt;3503&lt;/td&gt;
&lt;/tr&gt;&lt;tr bgcolor=""&gt;
&lt;th&gt;NM_RGINT&lt;/th&gt;
&lt;td&gt;Bauru&lt;/td&gt;
&lt;/tr&gt;&lt;tr bgcolor="#E3E3F3"&gt;
&lt;th&gt;CD_RGI&lt;/th&gt;
&lt;td&gt;350010&lt;/td&gt;
&lt;/tr&gt;&lt;tr bgcolor=""&gt;
&lt;th&gt;NM_RGI&lt;/th&gt;
&lt;td&gt;Jaú&lt;/td&gt;
&lt;/tr&gt;&lt;/table&gt;&lt;/center&gt;</description>
<Style>
<IconStyle>
<scale>0.7</scale>
</IconStyle>
<LabelStyle>
<scale>0.7</scale>
</LabelStyle>
<LineStyle>
<color>ffffffff</color>
<width>3</width>
<gx:labelVisibility>1</gx:labelVisibility>
</LineStyle>
<PolyStyle>
<color>00ffffff</color>
</PolyStyle>
</Style>
<ExtendedData>
<SchemaData schemaUrl="#kml_schema_ft_Município">
<SimpleData name="CD_UF">35</SimpleData>
<SimpleData name="NM_UF">São Paulo</SimpleData>
<SimpleData name="CD_MUN">3507308</SimpleData>
<SimpleData name="NM_MUN">Boracéia</SimpleData>
<SimpleData name="CD_RGINT">3503</SimpleData>
<SimpleData name="NM_RGINT">Bauru</SimpleData>
<SimpleData name="CD_RGI">350010</SimpleData>
<SimpleData name="NM_RGI">Jaú</SimpleData>
</SchemaData>
</ExtendedData>
<MultiGeometry>
<Polygon>
<extrude>0</extrude>
<tessellate>1</tessellate>
<outerBoundaryIs>
<LinearRing>
<coordinates>-48.8053426,-22.2319356993376,0.0 -48.8064523,-22.2316322993376,0.0 -48.8111234,-22.2298755993377,0.0 -48.8139757,-22.2283013993377,0.0 -48.8152695,-22.2274564993377,0.0 -48.8165203,-22.2263030993378,0.0 -48.8170658,-22.2254587993378,0.0 -48.8178386,-22.2220544993378,0.0 -48.8183512,-22.2206795993379,0.0 -48.8189393,-22.2195717993379,0.0 -48.8207673,-22.217790299338,0.0 -48.8229771,-22.215917199338,0.0 -48.8247107,-22.214164099338,0.0 -48.8252244,-22.2133906993381,0.0 -48.8252059,-22.2125464993381,0.0 -48.824919,-22.2114820993381,0.0 -48.8241657,-22.2103803993381,0.0 -48.8226097,-22.2092054993382,0.0 -48.8218181,-22.2083528993382,0.0 -48.8214772,-22.2075955993382,0.0 -48.8214917,-22.2065434993382,0.0 -48.8216943,-22.2058106993382,0.0 -48.8221897,-22.2045828993383,0.0 -48.8225508,-22.2041044993383,0.0 -48.8234071,-22.2023766993383,0.0 -48.8235887,-22.2012109993383,0.0 -48.8236221,-22.1998001993384,0.0 -48.8233894,-22.1982115993384,0.0 -48.823183,-22.1976494993384,0.0 -48.8224116,-22.1964346993385,0.0 -48.8218917,-22.1958509993385,0.0 -48.8209071,-22.1944438993385,0.0 -48.8201451,-22.1936084993385,0.0 -48.8193981,-22.1924961993385,0.0 -48.819135,-22.1919457993386,0.0 -48.8190055,-22.1911933993386,0.0 -48.8190519,-22.1907761993386,0.0 -48.8195957,-22.1899983993386,0.0 -48.8201899,-22.1894588993386,0.0 -48.8219715,-22.1886104993386,0.0 -48.8238172,-22.1881268993386,0.0 -48.8240493,-22.1878307993387,0.0 -48.8242036,-22.1858222993387,0.0 -48.8247123,-22.1849964993387,0.0 -48.8257463,-22.1839468993388,0.0 -48.8265653,-22.1834136993388,0.0 -48.8271004,-22.1824742993388,0.0 -48.8271693,-22.1812050993388,0.0 -48.8269335,-22.1804403993388,0.0 -48.8265468,-22.1797671993388,0.0 -48.8251798,-22.1783147993389,0.0 -48.8261127,-22.1771358993389,0.0 -48.8269409,-22.1772251993389,0.0 -48.8277422,-22.1769893993389,0.0 -48.8290666,-22.1770915993389,0.0 -48.8299762,-22.1767070993389,0.0 -48.8332746,-22.1764196993389,0.0 -48.8340004,-22.1763110993389,0.0 -48.8353355,-22.1759111993389,0.0 -48.8369126,-22.175284799339,0.0 -48.8378992,-22.174782899339,0.0 -48.8385393,-22.174046699339,0.0 -48.8391189,-22.173663399339,0.0 -48.8409588,-22.172936299339,0.0 -48.8423787,-22.172096799339,0.0 -48.8436017,-22.171681599339,0.0 -48.844928,-22.1708571993391,0.0 -48.8458211,-22.1705484993391,0.0 -48.8475147,-22.1696779993391,0.0 -48.8485292,-22.1692876993391,0.0 -48.8495184,-22.1690315993391,0.0 -48.8506562,-22.1682110993391,0.0 -48.8540584,-22.1675986993391,0.0 -48.8555342,-22.1671930993391,0.0 -48.8560389,-22.1668928993391,0.0 -48.8560161,-22.1664815993392,0.0 -48.8563586,-22.1655477993392,0.0 -48.8562007,-22.1650637993392,0.0 -48.8557794,-22.1647803993392,0.0 -48.8557169,-22.1646054993392,0.0 -48.8556657,-22.1639852993392,0.0 -48.8552749,-22.1631589993392,0.0 -48.8548866,-22.1608757993393,0.0 -48.8544586,-22.1590469993393,0.0 -48.8539482,-22.1582529993394,0.0 -48.8540467,-22.1577319993394,0.0 -48.8539531,-22.1569491993394,0.0 -48.8542051,-22.1560485993394,0.0 -48.8541716,-22.1558250993394,0.0 -48.8535319,-22.1551980993394,0.0 -48.8523558,-22.1544370993394,0.0 -48.8521864,-22.1540031993395,0.0 -48.8521093,-22.1531110993395,0.0 -48.8512627,-22.1520146993395,0.0 -48.8511233,-22.1514213993395,0.0 -48.8508371,-22.1508928993395,0.0 -48.8506565,-22.1501775993395,0.0 -48.8503871,-22.1496144993396,0.0 -48.849603,-22.1487973993396,0.0 -48.8494599,-22.1484677993396,0.0 -48.8493517,-22.1481104993396,0.0 -48.8493666,-22.1477282993396,0.0 -48.8496245,-22.1468260993396,0.0 -48.8495104,-22.1460993993396,0.0 -48.8498337,-22.1450253993397,0.0 -48.8496745,-22.1437002993397,0.0 -48.8489342,-22.1427224993397,0.0 -48.8490191,-22.1420435993397,0.0 -48.848605,-22.1418017993397,0.0 -48.8481975,-22.1413009993398,0.0 -48.8477556,-22.1413698993398,0.0 -48.8476006,-22.1413118993398,0.0 -48.8474586,-22.1408706993398,0.0 -48.8476648,-22.1400036993398,0.0 -48.8475069,-22.1393062993398,0.0 -48.8468965,-22.1385432993398,0.0 -48.8469121,-22.1379044993398,0.0 -48.8468196,-22.1377016993398,0.0 -48.8464801,-22.1374883993398,0.0 -48.846415,-22.1373341993398,0.0 -48.8463408,-22.1364961993399,0.0 -48.8457221,-22.1359093993399,0.0 -48.8454747,-22.1355378993399,0.0 -48.8452162,-22.1348876993399,0.0 -48.8451443,-22.1342253993399,0.0 -48.8447493,-22.1336231993399,0.0 -48.8442651,-22.1331765993399,0.0 -48.8437194,-22.13244989934,0.0 -48.8431155,-22.13095319934,0.0 -48.8431572,-22.13068529934,0.0 -48.8441208,-22.12905069934,0.0 -48.8425253,-22.1284943993401,0.0 -48.8411864,-22.1277930993401,0.0 -48.8391756,-22.1261539993401,0.0 -48.8372854,-22.1243213993402,0.0 -48.8355429,-22.1228023993402,0.0 -48.8313971,-22.1197217993403,0.0 -48.8302063,-22.1187116993403,0.0 -48.8293459,-22.1177075993403,0.0 -48.82753,-22.1141412993404,0.0 -48.8263218,-22.1126011993404,0.0 -48.8255291,-22.1118170993404,0.0 -48.8244988,-22.1110092993405,0.0 -48.8229859,-22.1101366993405,0.0 -48.8207614,-22.1084951993405,0.0 -48.8193037,-22.1078124993405,0.0 -48.8178188,-22.1073945993406,0.0 -48.8155724,-22.1071460993406,0.0 -48.8132757,-22.1071580993406,0.0 -48.8101446,-22.1074470993406,0.0 -48.807806,-22.1079420993405,0.0 -48.8072801,-22.1082657993405,0.0 -48.8069176,-22.1087908993405,0.0 -48.8062287,-22.1104393993405,0.0 -48.8052616,-22.1132728993404,0.0 -48.8040845,-22.1159602993404,0.0 -48.8022018,-22.1196903993403,0.0 -48.8003444,-22.1219391993402,0.0 -48.7981297,-22.1235102993402,0.0 -48.796448,-22.1244319993402,0.0 -48.7942657,-22.1253341993401,0.0 -48.7925077,-22.1255097993401,0.0 -48.7907586,-22.1254441993401,0.0 -48.7891537,-22.1249123993401,0.0 -48.7866046,-22.1238182993402,0.0 -48.7831743,-22.1221387993402,0.0 -48.7822166,-22.1213096993402,0.0 -48.7814501,-22.1203479993402,0.0 -48.7807159,-22.1189037993403,0.0 -48.7799927,-22.1167440993403,0.0 -48.7795771,-22.1145509993404,0.0 -48.7794844,-22.1126743993404,0.0 -48.7795141,-22.1109519993405,0.0 -48.7792832,-22.1099019993405,0.0 -48.778733,-22.1086787993405,0.0 -48.7774608,-22.1067852993406,0.0 -48.7761817,-22.1052903993406,0.0 -48.774308,-22.1039818993406,0.0 -48.7727556,-22.1033254993406,0.0 -48.7715024,-22.1031783993407,0.0 -48.770247,-22.1032715993406,0.0 -48.7689898,-22.1034970993406,0.0 -48.7679848,-22.1040574993406,0.0 -48.7669543,-22.1048375993406,0.0 -48.7659136,-22.1061278993406,0.0 -48.7636685,-22.1096180993405,0.0 -48.7615697,-22.1120603993404,0.0 -48.7605772,-22.1134592993404,0.0 -48.7597509,-22.1147977993404,0.0 -48.7587778,-22.1167970993403,0.0 -48.7577919,-22.1191676993403,0.0 -48.7565432,-22.1218251993402,0.0 -48.7561434,-22.1231647993402,0.0 -48.7561195,-22.1261072993401,0.0 -48.7560075,-22.1271660993401,0.0 -48.7550256,-22.13086309934,0.0 -48.754656,-22.1336585993399,0.0 -48.7538939,-22.1394000993398,0.0 -48.7538283,-22.1436449993397,0.0 -48.7539678,-22.1467835993396,0.0 -48.754547,-22.1506187993395,0.0 -48.7545691,-22.1521644993395,0.0 -48.7542342,-22.1537356993395,0.0 -48.7540533,-22.1539969993395,0.0 -48.7533845,-22.1549626993394,0.0 -48.7503011,-22.1583409993394,0.0 -48.7472813,-22.1612322993393,0.0 -48.7429313,-22.1633974993392,0.0 -48.7250351,-22.1709116993391,0.0 -48.7208856,-22.172935899339,0.0 -48.7170534,-22.1756526993389,0.0 -48.7150938,-22.1777455993389,0.0 -48.7144802,-22.1797478993388,0.0 -48.7144879,-22.1802405993388,0.0 -48.714511,-22.1815395993388,0.0 -48.7152952,-22.1833448993388,0.0 -48.7168857,-22.1860297993387,0.0 -48.7236227,-22.1913035993386,0.0 -48.728755,-22.1946897993385,0.0 -48.7319213,-22.1971245993384,0.0 -48.733704,-22.1987801993384,0.0 -48.7354094,-22.2014659993383,0.0 -48.7363735,-22.2032193993383,0.0 -48.7369186,-22.2055624993382,0.0 -48.7369947,-22.2087953993382,0.0 -48.7368851,-22.213903999338,0.0 -48.736953,-22.216838599338,0.0 -48.7375034,-22.2188568993379,0.0 -48.7388138,-22.2206673993379,0.0 -48.7408898,-22.2222738993379,0.0 -48.7413419,-22.2224873993378,0.0 -48.743031,-22.2232809993378,0.0 -48.7453939,-22.2239134993378,0.0 -48.7481396,-22.2236237993378,0.0 -48.7506697,-22.2223005993379,0.0 -48.7537429,-22.2196820993379,0.0 -48.756633,-22.217546599338,0.0 -48.7593353,-22.216334999338,0.0 -48.7613244,-22.215928799338,0.0 -48.7645279,-22.216188299338,0.0 -48.7664365,-22.217136299338,0.0 -48.7682136,-22.2190641993379,0.0 -48.7691602,-22.2217929993379,0.0 -48.7707291,-22.2249387993378,0.0 -48.7715397,-22.2269932993377,0.0 -48.7795027,-22.2301383993377,0.0 -48.7809399,-22.2306147993377,0.0 -48.7818431,-22.2310965993376,0.0 -48.7826432,-22.2312958993376,0.0 -48.7864286,-22.2316563993376,0.0 -48.7868249,-22.2315690993376,0.0 -48.7886928,-22.2316071993376,0.0 -48.7894103,-22.2317056993376,0.0 -48.7912264,-22.2322516993376,0.0 -48.7965638,-22.2326659993376,0.0 -48.7975595,-22.2326428993376,0.0 -48.7990469,-22.2324462993376,0.0 -48.8009958,-22.2325506993376,0.0 -48.8031905,-22.2324134993376,0.0 -48.8045972,-22.2321395993376,0.0 -48.8053426,-22.2319356993376,0.0</coordinates>
</LinearRing>
</outerBoundaryIs>
</Polygon>
</MultiGeometry>
</Placemark>
</Folder>
</Document></kml>
