<?xml version='1.0' encoding='UTF-8'?>
<kml xmlns:xsd="http://www.w3.org/2001/XMLSchema" xmlns:gx="http://www.google.com/kml/ext/2.2" xmlns:atom="http://www.w3.org/2005/Atom" xmlns="http://www.opengis.net/kml/2.2">
<Document>
<name>carapicuiba_3510609_localidades_2022</name>
<visibility>1</visibility>
<Schema name="Vilas" id="kml_schema_ft_Vilas">
<SimpleField type="xsd:string" name="CD_UF">
<displayName>CD_UF</displayName>
</SimpleField>
<SimpleField type="xsd:string" name="NM_UF">
<displayName>NM_UF</displayName>
</SimpleField>
<SimpleField type="xsd:string" name="SIGLA_UF">
<displayName>SIGLA_UF</displayName>
</SimpleField>
<SimpleField type="xsd:string" name="CD_MUN">
<displayName>CD_MUN</displayName>
</SimpleField>
<SimpleField type="xsd:string" name="NM_MUN">
<displayName>NM_MUN</displayName>
</SimpleField>
<SimpleField type="xsd:string" name="CD_RGINT">
<displayName>CD_RGINT</displayName>
</SimpleField>
<SimpleField type="xsd:string" name="NM_RGINT">
<displayName>NM_RGINT</displayName>
</SimpleField>
<SimpleField type="xsd:string" name="CD_RGI">
<displayName>CD_RGI</displayName>
</SimpleField>
<SimpleField type="xsd:string" name="NM_RGI">
<displayName>NM_RGI</displayName>
</SimpleField>
<SimpleField type="xsd:string" name="CT_LOCALIDADE">
<displayName>CT_LOCALIDADE</displayName>
</SimpleField>
<SimpleField type="xsd:string" name="CD_LOCALIDADE">
<displayName>CD_LOCALIDADE</displayName>
</SimpleField>
<SimpleField type="xsd:string" name="NM_LOCALIDADE">
<displayName>NM_LOCALIDADE</displayName>
</SimpleField>
<SimpleField type="xsd:string" name="LAT_LOCALIDADE">
<displayName>LAT_LOCALIDADE</displayName>
</SimpleField>
<SimpleField type="xsd:string" name="LONG_LOCALIDADE">
<displayName>LONG_LOCALIDADE</displayName>
</SimpleField>
</Schema>
<Schema name="01. Cidade" id="kml_schema_ft_01._Cidade">
<SimpleField type="xsd:string" name="CD_UF">
<displayName>CD_UF</displayName>
</SimpleField>
<SimpleField type="xsd:string" name="NM_UF">
<displayName>NM_UF</displayName>
</SimpleField>
<SimpleField type="xsd:string" name="SIGLA_UF">
<displayName>SIGLA_UF</displayName>
</SimpleField>
<SimpleField type="xsd:string" name="CD_MUN">
<displayName>CD_MUN</displayName>
</SimpleField>
<SimpleField type="xsd:string" name="NM_MUN">
<displayName>NM_MUN</displayName>
</SimpleField>
<SimpleField type="xsd:string" name="CD_RGINT">
<displayName>CD_RGINT</displayName>
</SimpleField>
<SimpleField type="xsd:string" name="NM_RGINT">
<displayName>NM_RGINT</displayName>
</SimpleField>
<SimpleField type="xsd:string" name="CD_RGI">
<displayName>CD_RGI</displayName>
</SimpleField>
<SimpleField type="xsd:string" name="NM_RGI">
<displayName>NM_RGI</displayName>
</SimpleField>
<SimpleField type="xsd:string" name="CT_LOCALIDADE">
<displayName>CT_LOCALIDADE</displayName>
</SimpleField>
<SimpleField type="xsd:string" name="SCT_LOCALIDADE">
<displayName>SCT_LOCALIDADE</displayName>
</SimpleField>
<SimpleField type="xsd:string" name="CD_LOCALIDADE">
<displayName>CD_LOCALIDADE</displayName>
</SimpleField>
<SimpleField type="xsd:string" name="NM_LOCALIDADE">
<displayName>NM_LOCALIDADE</displayName>
</SimpleField>
<SimpleField type="xsd:string" name="LAT_LOCALIDADE">
<displayName>LAT_LOCALIDADE</displayName>
</SimpleField>
<SimpleField type="xsd:string" name="LONG_LOCALIDADE">
<displayName>LONG_LOCALIDADE</displayName>
</SimpleField>
</Schema>
<Schema name="Município" id="kml_schema_ft_Município">
<SimpleField type="xsd:string" name="CD_UF">
<displayName>CD_UF</displayName>
</SimpleField>
<SimpleField type="xsd:string" name="NM_UF">
<displayName>NM_UF</displayName>
</SimpleField>
<SimpleField type="xsd:string" name="CD_MUN">
<displayName>CD_MUN</displayName>
</SimpleField>
<SimpleField type="xsd:string" name="NM_MUN">
<displayName>NM_MUN</displayName>
</SimpleField>
<SimpleField type="xsd:string" name="CD_RGINT">
<displayName>CD_RGINT</displayName>
</SimpleField>
<SimpleField type="xsd:string" name="NM_RGINT">
<displayName>NM_RGINT</displayName>
</SimpleField>
<SimpleField type="xsd:string" name="CD_RGI">
<displayName>CD_RGI</displayName>
</SimpleField>
<SimpleField type="xsd:string" name="NM_RGI">
<displayName>NM_RGI</displayName>
</SimpleField>
</Schema>
<Folder id="01. Cidade">
<name>01. Cidade</name>
<Folder id="01.03. Sede Municipal">
<name>01.03. Sede Municipal</name>
<Placemark id="01.03. Sede Municipal">
<name>Carapicuíba [3510609]</name>
<visibility>1</visibility>
<snippet> </snippet>
<description>&lt;center&gt;&lt;table&gt;&lt;tr&gt;&lt;th colspan='2' align='center'&gt;&lt;em&gt;Atributos&lt;/em&gt;&lt;/th&gt;&lt;/tr&gt;&lt;tr bgcolor="#E3E3F3"&gt;
&lt;th&gt;CD_UF&lt;/th&gt;
&lt;td&gt;35&lt;/td&gt;
&lt;/tr&gt;&lt;tr bgcolor=""&gt;
&lt;th&gt;NM_UF&lt;/th&gt;
&lt;td&gt;São Paulo&lt;/td&gt;
&lt;/tr&gt;&lt;tr bgcolor="#E3E3F3"&gt;
&lt;th&gt;SIGLA_UF&lt;/th&gt;
&lt;td&gt;SP&lt;/td&gt;
&lt;/tr&gt;&lt;tr bgcolor=""&gt;
&lt;th&gt;CD_MUN&lt;/th&gt;
&lt;td&gt;3510609&lt;/td&gt;
&lt;/tr&gt;&lt;tr bgcolor="#E3E3F3"&gt;
&lt;th&gt;NM_MUN&lt;/th&gt;
&lt;td&gt;Carapicuíba&lt;/td&gt;
&lt;/tr&gt;&lt;tr bgcolor=""&gt;
&lt;th&gt;CD_RGINT&lt;/th&gt;
&lt;td&gt;3501&lt;/td&gt;
&lt;/tr&gt;&lt;tr bgcolor="#E3E3F3"&gt;
&lt;th&gt;NM_RGINT&lt;/th&gt;
&lt;td&gt;São Paulo&lt;/td&gt;
&lt;/tr&gt;&lt;tr bgcolor=""&gt;
&lt;th&gt;CD_RGI&lt;/th&gt;
&lt;td&gt;350001&lt;/td&gt;
&lt;/tr&gt;&lt;tr bgcolor="#E3E3F3"&gt;
&lt;th&gt;NM_RGI&lt;/th&gt;
&lt;td&gt;São Paulo&lt;/td&gt;
&lt;/tr&gt;&lt;tr bgcolor=""&gt;
&lt;th&gt;CT_LOCALIDADE&lt;/th&gt;
&lt;td&gt;Cidade&lt;/td&gt;
&lt;/tr&gt;&lt;tr bgcolor="#E3E3F3"&gt;
&lt;th&gt;SCT_LOCALIDADE&lt;/th&gt;
&lt;td&gt;Sede Municipal&lt;/td&gt;
&lt;/tr&gt;&lt;tr bgcolor=""&gt;
&lt;th&gt;CD_LOCALIDADE&lt;/th&gt;
&lt;td&gt;3510609&lt;/td&gt;
&lt;/tr&gt;&lt;tr bgcolor="#E3E3F3"&gt;
&lt;th&gt;NM_LOCALIDADE&lt;/th&gt;
&lt;td&gt;Carapicuíba&lt;/td&gt;
&lt;/tr&gt;&lt;tr bgcolor=""&gt;
&lt;th&gt;LAT_LOCALIDADE&lt;/th&gt;
&lt;td&gt;-23.518&lt;/td&gt;
&lt;/tr&gt;&lt;tr bgcolor="#E3E3F3"&gt;
&lt;th&gt;LONG_LOCALIDADE&lt;/th&gt;
&lt;td&gt;-46.8404&lt;/td&gt;
&lt;/tr&gt;&lt;/table&gt;&lt;/center&gt;</description>
<Style>
<IconStyle>
<color>ff00aaff</color>
<scale>1.0</scale>
<Icon>
<href>http://maps.google.com/mapfiles/kml/shapes/placemark_circle.png</href>
</Icon>
</IconStyle>
<LabelStyle>
<scale>1.0</scale>
</LabelStyle>
<LineStyle>
<color>ffffffff</color>
<width>3</width>
<gx:labelVisibility>1</gx:labelVisibility>
</LineStyle>
<PolyStyle>
<color>00ffffff</color>
</PolyStyle>
</Style>
<ExtendedData>
<SchemaData schemaUrl="#kml_schema_ft_01._Cidade">
<SimpleData name="CD_UF">35</SimpleData>
<SimpleData name="NM_UF">São Paulo</SimpleData>
<SimpleData name="SIGLA_UF">SP</SimpleData>
<SimpleData name="CD_MUN">3510609</SimpleData>
<SimpleData name="NM_MUN">Carapicuíba</SimpleData>
<SimpleData name="CD_RGINT">3501</SimpleData>
<SimpleData name="NM_RGINT">São Paulo</SimpleData>
<SimpleData name="CD_RGI">350001</SimpleData>
<SimpleData name="NM_RGI">São Paulo</SimpleData>
<SimpleData name="CT_LOCALIDADE">Cidade</SimpleData>
<SimpleData name="SCT_LOCALIDADE">Sede Municipal</SimpleData>
<SimpleData name="CD_LOCALIDADE">3510609</SimpleData>
<SimpleData name="NM_LOCALIDADE">Carapicuíba</SimpleData>
<SimpleData name="LAT_LOCALIDADE">-23.518</SimpleData>
<SimpleData name="LONG_LOCALIDADE">-46.8404</SimpleData>
</SchemaData>
</ExtendedData>
<Point>
<extrude>0</extrude>
<coordinates>-46.840402,-23.5179729993081,0.0</coordinates>
</Point>
</Placemark>
</Folder>
</Folder>
<Folder id="04. Vilas">
<name>04. Vilas</name>
<Placemark id="04. Vilas">
<name>Aldeia de Carapicuíba [351060910]</name>
<visibility>1</visibility>
<snippet> </snippet>
<description>&lt;center&gt;&lt;table&gt;&lt;tr&gt;&lt;th colspan='2' align='center'&gt;&lt;em&gt;Atributos&lt;/em&gt;&lt;/th&gt;&lt;/tr&gt;&lt;tr bgcolor="#E3E3F3"&gt;
&lt;th&gt;CD_UF&lt;/th&gt;
&lt;td&gt;35&lt;/td&gt;
&lt;/tr&gt;&lt;tr bgcolor=""&gt;
&lt;th&gt;NM_UF&lt;/th&gt;
&lt;td&gt;São Paulo&lt;/td&gt;
&lt;/tr&gt;&lt;tr bgcolor="#E3E3F3"&gt;
&lt;th&gt;SIGLA_UF&lt;/th&gt;
&lt;td&gt;SP&lt;/td&gt;
&lt;/tr&gt;&lt;tr bgcolor=""&gt;
&lt;th&gt;CD_MUN&lt;/th&gt;
&lt;td&gt;3510609&lt;/td&gt;
&lt;/tr&gt;&lt;tr bgcolor="#E3E3F3"&gt;
&lt;th&gt;NM_MUN&lt;/th&gt;
&lt;td&gt;Carapicuíba&lt;/td&gt;
&lt;/tr&gt;&lt;tr bgcolor=""&gt;
&lt;th&gt;CD_RGINT&lt;/th&gt;
&lt;td&gt;3501&lt;/td&gt;
&lt;/tr&gt;&lt;tr bgcolor="#E3E3F3"&gt;
&lt;th&gt;NM_RGINT&lt;/th&gt;
&lt;td&gt;São Paulo&lt;/td&gt;
&lt;/tr&gt;&lt;tr bgcolor=""&gt;
&lt;th&gt;CD_RGI&lt;/th&gt;
&lt;td&gt;350001&lt;/td&gt;
&lt;/tr&gt;&lt;tr bgcolor="#E3E3F3"&gt;
&lt;th&gt;NM_RGI&lt;/th&gt;
&lt;td&gt;São Paulo&lt;/td&gt;
&lt;/tr&gt;&lt;tr bgcolor=""&gt;
&lt;th&gt;CT_LOCALIDADE&lt;/th&gt;
&lt;td&gt;Vila&lt;/td&gt;
&lt;/tr&gt;&lt;tr bgcolor="#E3E3F3"&gt;
&lt;th&gt;CD_LOCALIDADE&lt;/th&gt;
&lt;td&gt;351060910&lt;/td&gt;
&lt;/tr&gt;&lt;tr bgcolor=""&gt;
&lt;th&gt;NM_LOCALIDADE&lt;/th&gt;
&lt;td&gt;Aldeia de Carapicuíba&lt;/td&gt;
&lt;/tr&gt;&lt;tr bgcolor="#E3E3F3"&gt;
&lt;th&gt;LAT_LOCALIDADE&lt;/th&gt;
&lt;td&gt;-23.5695&lt;/td&gt;
&lt;/tr&gt;&lt;tr bgcolor=""&gt;
&lt;th&gt;LONG_LOCALIDADE&lt;/th&gt;
&lt;td&gt;-46.8312&lt;/td&gt;
&lt;/tr&gt;&lt;/table&gt;&lt;/center&gt;</description>
<Style>
<IconStyle>
<color>ffff5400</color>
<scale>1.0</scale>
<Icon>
<href>http://maps.google.com/mapfiles/kml/shapes/placemark_circle.png</href>
</Icon>
</IconStyle>
<LabelStyle>
<scale>0.9</scale>
</LabelStyle>
<LineStyle>
<color>72ffffff</color>
<width>1.0</width>
<gx:labelVisibility>1</gx:labelVisibility>
</LineStyle>
<PolyStyle>
<color>660054ff</color>
</PolyStyle>
</Style>
<ExtendedData>
<SchemaData schemaUrl="#kml_schema_ft_Vilas">
<SimpleData name="CD_UF">35</SimpleData>
<SimpleData name="NM_UF">São Paulo</SimpleData>
<SimpleData name="SIGLA_UF">SP</SimpleData>
<SimpleData name="CD_MUN">3510609</SimpleData>
<SimpleData name="NM_MUN">Carapicuíba</SimpleData>
<SimpleData name="CD_RGINT">3501</SimpleData>
<SimpleData name="NM_RGINT">São Paulo</SimpleData>
<SimpleData name="CD_RGI">350001</SimpleData>
<SimpleData name="NM_RGI">São Paulo</SimpleData>
<SimpleData name="CT_LOCALIDADE">Vila</SimpleData>
<SimpleData name="CD_LOCALIDADE">351060910</SimpleData>
<SimpleData name="NM_LOCALIDADE">Aldeia de Carapicuíba</SimpleData>
<SimpleData name="LAT_LOCALIDADE">-23.5695</SimpleData>
<SimpleData name="LONG_LOCALIDADE">-46.8312</SimpleData>
</SchemaData>
</ExtendedData>
<Point>
<extrude>0</extrude>
<coordinates>-46.831161,-23.569497999307,0.0</coordinates>
</Point>
</Placemark>
<Placemark id="04. Vilas">
<name>Vila Dirce [351060930]</name>
<visibility>1</visibility>
<snippet> </snippet>
<description>&lt;center&gt;&lt;table&gt;&lt;tr&gt;&lt;th colspan='2' align='center'&gt;&lt;em&gt;Atributos&lt;/em&gt;&lt;/th&gt;&lt;/tr&gt;&lt;tr bgcolor="#E3E3F3"&gt;
&lt;th&gt;CD_UF&lt;/th&gt;
&lt;td&gt;35&lt;/td&gt;
&lt;/tr&gt;&lt;tr bgcolor=""&gt;
&lt;th&gt;NM_UF&lt;/th&gt;
&lt;td&gt;São Paulo&lt;/td&gt;
&lt;/tr&gt;&lt;tr bgcolor="#E3E3F3"&gt;
&lt;th&gt;SIGLA_UF&lt;/th&gt;
&lt;td&gt;SP&lt;/td&gt;
&lt;/tr&gt;&lt;tr bgcolor=""&gt;
&lt;th&gt;CD_MUN&lt;/th&gt;
&lt;td&gt;3510609&lt;/td&gt;
&lt;/tr&gt;&lt;tr bgcolor="#E3E3F3"&gt;
&lt;th&gt;NM_MUN&lt;/th&gt;
&lt;td&gt;Carapicuíba&lt;/td&gt;
&lt;/tr&gt;&lt;tr bgcolor=""&gt;
&lt;th&gt;CD_RGINT&lt;/th&gt;
&lt;td&gt;3501&lt;/td&gt;
&lt;/tr&gt;&lt;tr bgcolor="#E3E3F3"&gt;
&lt;th&gt;NM_RGINT&lt;/th&gt;
&lt;td&gt;São Paulo&lt;/td&gt;
&lt;/tr&gt;&lt;tr bgcolor=""&gt;
&lt;th&gt;CD_RGI&lt;/th&gt;
&lt;td&gt;350001&lt;/td&gt;
&lt;/tr&gt;&lt;tr bgcolor="#E3E3F3"&gt;
&lt;th&gt;NM_RGI&lt;/th&gt;
&lt;td&gt;São Paulo&lt;/td&gt;
&lt;/tr&gt;&lt;tr bgcolor=""&gt;
&lt;th&gt;CT_LOCALIDADE&lt;/th&gt;
&lt;td&gt;Vila&lt;/td&gt;
&lt;/tr&gt;&lt;tr bgcolor="#E3E3F3"&gt;
&lt;th&gt;CD_LOCALIDADE&lt;/th&gt;
&lt;td&gt;351060930&lt;/td&gt;
&lt;/tr&gt;&lt;tr bgcolor=""&gt;
&lt;th&gt;NM_LOCALIDADE&lt;/th&gt;
&lt;td&gt;Vila Dirce&lt;/td&gt;
&lt;/tr&gt;&lt;tr bgcolor="#E3E3F3"&gt;
&lt;th&gt;LAT_LOCALIDADE&lt;/th&gt;
&lt;td&gt;-23.5612&lt;/td&gt;
&lt;/tr&gt;&lt;tr bgcolor=""&gt;
&lt;th&gt;LONG_LOCALIDADE&lt;/th&gt;
&lt;td&gt;-46.8372&lt;/td&gt;
&lt;/tr&gt;&lt;/table&gt;&lt;/center&gt;</description>
<Style>
<IconStyle>
<color>ffff5400</color>
<scale>1.0</scale>
<Icon>
<href>http://maps.google.com/mapfiles/kml/shapes/placemark_circle.png</href>
</Icon>
</IconStyle>
<LabelStyle>
<scale>0.9</scale>
</LabelStyle>
<LineStyle>
<color>72ffffff</color>
<width>1.0</width>
<gx:labelVisibility>1</gx:labelVisibility>
</LineStyle>
<PolyStyle>
<color>660054ff</color>
</PolyStyle>
</Style>
<ExtendedData>
<SchemaData schemaUrl="#kml_schema_ft_Vilas">
<SimpleData name="CD_UF">35</SimpleData>
<SimpleData name="NM_UF">São Paulo</SimpleData>
<SimpleData name="SIGLA_UF">SP</SimpleData>
<SimpleData name="CD_MUN">3510609</SimpleData>
<SimpleData name="NM_MUN">Carapicuíba</SimpleData>
<SimpleData name="CD_RGINT">3501</SimpleData>
<SimpleData name="NM_RGINT">São Paulo</SimpleData>
<SimpleData name="CD_RGI">350001</SimpleData>
<SimpleData name="NM_RGI">São Paulo</SimpleData>
<SimpleData name="CT_LOCALIDADE">Vila</SimpleData>
<SimpleData name="CD_LOCALIDADE">351060930</SimpleData>
<SimpleData name="NM_LOCALIDADE">Vila Dirce</SimpleData>
<SimpleData name="LAT_LOCALIDADE">-23.5612</SimpleData>
<SimpleData name="LONG_LOCALIDADE">-46.8372</SimpleData>
</SchemaData>
</ExtendedData>
<Point>
<extrude>0</extrude>
<coordinates>-46.837188,-23.5611789993072,0.0</coordinates>
</Point>
</Placemark>
</Folder>
<Folder id="13. Referência">
<name>13. Referência</name>
<Placemark id="13. Referência">
<name>Carapicuíba [3510609]</name>
<visibility>1</visibility>
<snippet> </snippet>
<description>&lt;center&gt;&lt;table&gt;&lt;tr&gt;&lt;th colspan='2' align='center'&gt;&lt;em&gt;Attributes&lt;/em&gt;&lt;/th&gt;&lt;/tr&gt;&lt;tr bgcolor="#E3E3F3"&gt;
&lt;th&gt;CD_UF&lt;/th&gt;
&lt;td&gt;35&lt;/td&gt;
&lt;/tr&gt;&lt;tr bgcolor=""&gt;
&lt;th&gt;NM_UF&lt;/th&gt;
&lt;td&gt;São Paulo&lt;/td&gt;
&lt;/tr&gt;&lt;tr bgcolor="#E3E3F3"&gt;
&lt;th&gt;CD_MUN&lt;/th&gt;
&lt;td&gt;3510609&lt;/td&gt;
&lt;/tr&gt;&lt;tr bgcolor=""&gt;
&lt;th&gt;NM_MUN&lt;/th&gt;
&lt;td&gt;Carapicuíba&lt;/td&gt;
&lt;/tr&gt;&lt;tr bgcolor="#E3E3F3"&gt;
&lt;th&gt;CD_RGINT&lt;/th&gt;
&lt;td&gt;3501&lt;/td&gt;
&lt;/tr&gt;&lt;tr bgcolor=""&gt;
&lt;th&gt;NM_RGINT&lt;/th&gt;
&lt;td&gt;São Paulo&lt;/td&gt;
&lt;/tr&gt;&lt;tr bgcolor="#E3E3F3"&gt;
&lt;th&gt;CD_RGI&lt;/th&gt;
&lt;td&gt;350001&lt;/td&gt;
&lt;/tr&gt;&lt;tr bgcolor=""&gt;
&lt;th&gt;NM_RGI&lt;/th&gt;
&lt;td&gt;São Paulo&lt;/td&gt;
&lt;/tr&gt;&lt;/table&gt;&lt;/center&gt;</description>
<Style>
<IconStyle>
<scale>0.7</scale>
</IconStyle>
<LabelStyle>
<scale>0.7</scale>
</LabelStyle>
<LineStyle>
<color>ffffffff</color>
<width>3</width>
<gx:labelVisibility>1</gx:labelVisibility>
</LineStyle>
<PolyStyle>
<color>00ffffff</color>
</PolyStyle>
</Style>
<ExtendedData>
<SchemaData schemaUrl="#kml_schema_ft_Município">
<SimpleData name="CD_UF">35</SimpleData>
<SimpleData name="NM_UF">São Paulo</SimpleData>
<SimpleData name="CD_MUN">3510609</SimpleData>
<SimpleData name="NM_MUN">Carapicuíba</SimpleData>
<SimpleData name="CD_RGINT">3501</SimpleData>
<SimpleData name="NM_RGINT">São Paulo</SimpleData>
<SimpleData name="CD_RGI">350001</SimpleData>
<SimpleData name="NM_RGI">São Paulo</SimpleData>
</SchemaData>
</ExtendedData>
<MultiGeometry>
<Polygon>
<extrude>0</extrude>
<tessellate>1</tessellate>
<outerBoundaryIs>
<LinearRing>
<coordinates>-46.8356963,-23.5771111993068,0.0 -46.8357136,-23.5771143993068,0.0 -46.8357538,-23.5771218993068,0.0 -46.8360582,-23.5771787993068,0.0 -46.836134,-23.5771929993068,0.0 -46.83671,-23.5772739993068,0.0 -46.837409,-23.5773669993068,0.0 -46.83808,-23.5774299993068,0.0 -46.838451,-23.5774434993068,0.0 -46.838822,-23.5774569993068,0.0 -46.839166,-23.5774529993068,0.0 -46.839609,-23.5773809993068,0.0 -46.8397127,-23.5773686993068,0.0 -46.8398165,-23.5773564993068,0.0 -46.840024,-23.5773319993068,0.0 -46.8403166,-23.5773199993068,0.0 -46.840468,-23.5773229993068,0.0 -46.840619,-23.5773259993068,0.0 -46.841059,-23.5773419993068,0.0 -46.841321,-23.5772808993068,0.0 -46.8417701,-23.5771720993068,0.0 -46.842192,-23.5771652993068,0.0 -46.8425819,-23.5771810993068,0.0 -46.842654,-23.5771839993068,0.0 -46.8426955,-23.5771856993068,0.0 -46.8429012,-23.5771669993068,0.0 -46.842934,-23.5771639993068,0.0 -46.8429511,-23.5771682993068,0.0 -46.8432242,-23.5772357993068,0.0 -46.8433771,-23.5773417993068,0.0 -46.8434168,-23.5773693993068,0.0 -46.843426,-23.5773876993068,0.0 -46.8434326,-23.5774007993068,0.0 -46.8434392,-23.5774139993068,0.0 -46.8434917,-23.5775190993068,0.0 -46.8435481,-23.5776882993068,0.0 -46.8435887,-23.5778100993068,0.0 -46.843771,-23.5784079993068,0.0 -46.843732,-23.5785299993068,0.0 -46.843693,-23.5786519993068,0.0 -46.843635,-23.5789349993068,0.0 -46.843487,-23.5794049993067,0.0 -46.84335,-23.5797629993067,0.0 -46.843299,-23.5798999993067,0.0 -46.843235,-23.5801389993067,0.0 -46.843155,-23.5805589993067,0.0 -46.8431484,-23.5806039993067,0.0 -46.8431333,-23.5807062993067,0.0 -46.8431289,-23.5807359993067,0.0 -46.84311,-23.5808639993067,0.0 -46.843104,-23.5809577993067,0.0 -46.843103,-23.5809739993067,0.0 -46.843088,-23.5813269993067,0.0 -46.843111,-23.5815869993067,0.0 -46.843206,-23.5818899993067,0.0 -46.843398,-23.5822759993067,0.0 -46.84352,-23.5824419993067,0.0 -46.8436,-23.5825249993067,0.0 -46.843922,-23.5826579993067,0.0 -46.844021,-23.5825934993067,0.0 -46.84412,-23.5825289993067,0.0 -46.844313,-23.5824429993067,0.0 -46.8444095,-23.5823999993067,0.0 -46.844506,-23.5823569993067,0.0 -46.845022,-23.5822519993067,0.0 -46.845231,-23.5822374993067,0.0 -46.84544,-23.5822229993067,0.0 -46.845951,-23.5822759993067,0.0 -46.846563,-23.5823929993067,0.0 -46.847016,-23.5825139993067,0.0 -46.847841,-23.5827959993067,0.0 -46.8479735,-23.5827939993067,0.0 -46.848106,-23.5827919993067,0.0 -46.848389,-23.5827199993067,0.0 -46.84864,-23.5824549993067,0.0 -46.848741,-23.5819509993067,0.0 -46.848839,-23.5818179993067,0.0 -46.8489005,-23.5817679993067,0.0 -46.848962,-23.5817179993067,0.0 -46.849715,-23.5818919993067,0.0 -46.849963,-23.5819119993067,0.0 -46.850166,-23.5818839993067,0.0 -46.8502945,-23.5818453993067,0.0 -46.850582,-23.5817589993067,0.0 -46.8507033,-23.5817351993067,0.0 -46.8508246,-23.5817113993067,0.0 -46.850893,-23.5816979993067,0.0 -46.8513373,-23.5816946993067,0.0 -46.8514252,-23.5817290993067,0.0 -46.851668,-23.5818239993067,0.0 -46.851814,-23.5818809993067,0.0 -46.851951,-23.5819279993067,0.0 -46.852265,-23.5821179993067,0.0 -46.852753,-23.5824959993067,0.0 -46.852986,-23.5827009993067,0.0 -46.853121,-23.5827829993067,0.0 -46.853236,-23.5828389993067,0.0 -46.853394,-23.5828549993067,0.0 -46.8535421,-23.5828569993067,0.0 -46.853667,-23.5828249993067,0.0 -46.853731,-23.5827889993067,0.0 -46.853795,-23.5827529993067,0.0 -46.853842,-23.5827079993067,0.0 -46.854016,-23.5824589993067,0.0 -46.854193,-23.5821259993067,0.0 -46.854315,-23.5819749993067,0.0 -46.854438,-23.5818679993067,0.0 -46.854488,-23.5818449993067,0.0 -46.8547068,-23.5818127993067,0.0 -46.8549354,-23.5817791993067,0.0 -46.8553299,-23.5818778993067,0.0 -46.855546,-23.5819319993067,0.0 -46.855707,-23.5819269993067,0.0 -46.8559572,-23.5818542993067,0.0 -46.85602,-23.5818359993067,0.0 -46.856248,-23.5816379993067,0.0 -46.8563857,-23.5813511993067,0.0 -46.8565235,-23.5810644993067,0.0 -46.856578,-23.5809509993067,0.0 -46.856742,-23.5806829993067,0.0 -46.85702,-23.5804889993067,0.0 -46.857221,-23.5803959993067,0.0 -46.8573953,-23.5803801993067,0.0 -46.8575092,-23.5803698993067,0.0 -46.8579809,-23.5803271993067,0.0 -46.858204,-23.5803069993067,0.0 -46.8583093,-23.5802793993067,0.0 -46.858669,-23.5801849993067,0.0 -46.8587471,-23.5801572993067,0.0 -46.859111,-23.5800279993067,0.0 -46.860154,-23.5789989993068,0.0 -46.8604888,-23.5787657993068,0.0 -46.8605389,-23.5787308993068,0.0 -46.860589,-23.5786959993068,0.0 -46.8606055,-23.5786697993068,0.0 -46.860622,-23.5786434993068,0.0 -46.860655,-23.5785909993068,0.0 -46.8606259,-23.5781655993068,0.0 -46.8605651,-23.5778842993068,0.0 -46.860494,-23.5776499993068,0.0 -46.860492,-23.5774869993068,0.0 -46.86048,-23.5773419993068,0.0 -46.860508,-23.5772489993068,0.0 -46.860559,-23.5771769993068,0.0 -46.860779,-23.5771219993068,0.0 -46.8610016,-23.5771816993068,0.0 -46.861014,-23.5771849993068,0.0 -46.861197,-23.5773199993068,0.0 -46.8612794,-23.5773392993068,0.0 -46.8613125,-23.5773469993068,0.0 -46.8614268,-23.5773736993068,0.0 -46.861509,-23.5773779993068,0.0 -46.8615785,-23.5773859993068,0.0 -46.8616477,-23.5773931993068,0.0 -46.861706,-23.5774149993068,0.0 -46.861793,-23.5775109993068,0.0 -46.861924,-23.5776639993068,0.0 -46.862051,-23.5778039993068,0.0 -46.8621222,-23.5778476993068,0.0 -46.8622802,-23.5778653993068,0.0 -46.862348,-23.5778529993068,0.0 -46.862443,-23.5778249993068,0.0 -46.862515,-23.5778239993068,0.0 -46.8625258,-23.5778284993068,0.0 -46.8625678,-23.5778461993068,0.0 -46.862678,-23.5778579993068,0.0 -46.8628264,-23.5778518993068,0.0 -46.862922,-23.5778329993068,0.0 -46.86316,-23.5777419993068,0.0 -46.863298,-23.5777049993068,0.0 -46.863391,-23.5776969993068,0.0 -46.863484,-23.5776889993068,0.0 -46.863619,-23.5777139993068,0.0 -46.8636424,-23.5777238993068,0.0 -46.8636767,-23.5777384993068,0.0 -46.863772,-23.5777789993068,0.0 -46.863945,-23.5778209993068,0.0 -46.864084,-23.5778229993068,0.0 -46.864232,-23.5777909993068,0.0 -46.864327,-23.5777589993068,0.0 -46.864432,-23.5777489993068,0.0 -46.864538,-23.5777649993068,0.0 -46.864653,-23.5778029993068,0.0 -46.8647488,-23.5778069993068,0.0 -46.864859,-23.5777834993068,0.0 -46.864939,-23.5777379993068,0.0 -46.865015,-23.5776669993068,0.0 -46.865122,-23.5774929993068,0.0 -46.865197,-23.5773429993068,0.0 -46.865345,-23.5770189993068,0.0 -46.865537,-23.5766639993068,0.0 -46.865687,-23.5764419993068,0.0 -46.8658,-23.5762949993068,0.0 -46.865899,-23.5762319993068,0.0 -46.866023,-23.5761769993068,0.0 -46.8660795,-23.5761719993068,0.0 -46.866137,-23.5761669993068,0.0 -46.8662338,-23.5761804993068,0.0 -46.866402,-23.5762429993068,0.0 -46.866566,-23.5763649993068,0.0 -46.86673,-23.5764469993068,0.0 -46.866864,-23.5764759993068,0.0 -46.866969,-23.5764839993068,0.0 -46.867151,-23.5764679993068,0.0 -46.867304,-23.5764439993068,0.0 -46.867455,-23.5763539993068,0.0 -46.867564,-23.5762599993068,0.0 -46.867681,-23.5760909993068,0.0 -46.867737,-23.5759319993068,0.0 -46.867744,-23.5757949993068,0.0 -46.8677425,-23.5756807993068,0.0 -46.867741,-23.5755659993068,0.0 -46.86771,-23.5753679993068,0.0 -46.867645,-23.5751479993068,0.0 -46.86758,-23.5749939993068,0.0 -46.867428,-23.5747009993068,0.0 -46.867373,-23.5745599993069,0.0 -46.867358,-23.5744629993069,0.0 -46.867379,-23.5742649993069,0.0 -46.867376,-23.5740269993069,0.0 -46.867293,-23.5735469993069,0.0 -46.867328,-23.5733519993069,0.0 -46.867388,-23.5732059993069,0.0 -46.867464,-23.5731079993069,0.0 -46.86762,-23.5730049993069,0.0 -46.867787,-23.5729409993069,0.0 -46.867953,-23.5728999993069,0.0 -46.868158,-23.5728039993069,0.0 -46.868281,-23.5727279993069,0.0 -46.868389,-23.5725989993069,0.0 -46.868512,-23.5724739993069,0.0 -46.868593,-23.5724379993069,0.0 -46.868674,-23.5724229993069,0.0 -46.868784,-23.5724269993069,0.0 -46.869143,-23.5724179993069,0.0 -46.869334,-23.5723939993069,0.0 -46.869525,-23.5723779993069,0.0 -46.869654,-23.5724119993069,0.0 -46.869746,-23.5724419993069,0.0 -46.8697475,-23.5724430993069,0.0 -46.869929,-23.5725719993069,0.0 -46.8702,-23.5728109993069,0.0 -46.870374,-23.5729319993069,0.0 -46.870485,-23.5729709993069,0.0 -46.87054,-23.5729769993069,0.0 -46.870595,-23.5729829993069,0.0 -46.870705,-23.5729679993069,0.0 -46.870745,-23.5729434993069,0.0 -46.870785,-23.5729189993069,0.0 -46.870899,-23.5728109993069,0.0 -46.870998,-23.5726959993069,0.0 -46.871116,-23.5726149993069,0.0 -46.871259,-23.5725509993069,0.0 -46.871482,-23.5724599993069,0.0 -46.8714911,-23.5724545993069,0.0 -46.871599,-23.5723909993069,0.0 -46.8717,-23.5722859993069,0.0 -46.871737,-23.5721879993069,0.0 -46.871768,-23.5720509993069,0.0 -46.8717677,-23.5720183993069,0.0 -46.871766,-23.5718619993069,0.0 -46.871784,-23.5717599993069,0.0 -46.871806,-23.5716889993069,0.0 -46.871898,-23.5715889993069,0.0 -46.87199,-23.5714889993069,0.0 -46.872044,-23.5714174993069,0.0 -46.872098,-23.5713459993069,0.0 -46.872168,-23.5712309993069,0.0 -46.872205,-23.5711149993069,0.0 -46.872251,-23.5709869993069,0.0 -46.872316,-23.5708189993069,0.0 -46.872353,-23.5707119993069,0.0 -46.872423,-23.5705969993069,0.0 -46.872587,-23.5703739993069,0.0 -46.87277,-23.570089999307,0.0 -46.872981,-23.569826999307,0.0 -46.8731043,-23.569723799307,0.0 -46.87327,-23.569598999307,0.0 -46.873417,-23.569521999307,0.0 -46.873618,-23.569470999307,0.0 -46.87379,-23.569468999307,0.0 -46.873929,-23.569502999307,0.0 -46.874088,-23.569570999307,0.0 -46.874203,-23.569609999307,0.0 -46.8743153,-23.569638499307,0.0 -46.8744,-23.569659999307,0.0 -46.874544,-23.569719999307,0.0 -46.874636,-23.569811999307,0.0 -46.8746895,-23.569881999307,0.0 -46.874743,-23.569951999307,0.0 -46.874788,-23.570065999307,0.0 -46.8749223,-23.570382999307,0.0 -46.874994,-23.5705089993069,0.0 -46.875135,-23.5706609993069,0.0 -46.875304,-23.5708179993069,0.0 -46.875406,-23.5708829993069,0.0 -46.8754925,-23.5709038993069,0.0 -46.875593,-23.5708939993069,0.0 -46.875688,-23.5708579993069,0.0 -46.875736,-23.5707999993069,0.0 -46.875763,-23.5707069993069,0.0 -46.8757695,-23.5706359993069,0.0 -46.875776,-23.5705649993069,0.0 -46.875635,-23.570434999307,0.0 -46.875514,-23.5703299993069,0.0 -46.875441,-23.570225999307,0.0 -46.875415,-23.570106999307,0.0 -46.875428,-23.569978999307,0.0 -46.875455,-23.569863999307,0.0 -46.8755262,-23.569690999307,0.0 -46.8755519,-23.569643699307,0.0 -46.875669,-23.569428999307,0.0 -46.875776,-23.569197999307,0.0 -46.8758172,-23.569000399307,0.0 -46.875833,-23.568800999307,0.0 -46.875816,-23.568610999307,0.0 -46.8758,-23.568518999307,0.0 -46.8758048,-23.568481399307,0.0 -46.875809,-23.568447999307,0.0 -46.8758825,-23.568293999307,0.0 -46.87627,-23.567555999307,0.0 -46.8763244,-23.567457099307,0.0 -46.876587,-23.566983999307,0.0 -46.876727,-23.566694999307,0.0 -46.876762,-23.566517999307,0.0 -46.876765,-23.566376999307,0.0 -46.876754,-23.566226999307,0.0 -46.876714,-23.566117999307,0.0 -46.876641,-23.566003999307,0.0 -46.876567,-23.5658939993071,0.0 -46.876417,-23.565719999307,0.0 -46.876121,-23.5654499993071,0.0 -46.875956,-23.5652799993071,0.0 -46.875858,-23.5651089993071,0.0 -46.875764,-23.5648899993071,0.0 -46.875689,-23.5646439993071,0.0 -46.875643,-23.5644239993071,0.0 -46.875583,-23.5639079993071,0.0 -46.87556,-23.5632339993071,0.0 -46.875558,-23.5627579993071,0.0 -46.875569,-23.5625369993071,0.0 -46.87561,-23.5623649993071,0.0 -46.875702,-23.5617729993071,0.0 -46.875728,-23.5615959993071,0.0 -46.875722,-23.5614459993071,0.0 -46.875701,-23.5613099993071,0.0 -46.875661,-23.5612089993072,0.0 -46.875588,-23.5611169993072,0.0 -46.875477,-23.5610479993072,0.0 -46.875347,-23.5610049993072,0.0 -46.8751405,-23.5609769993072,0.0 -46.874873,-23.5609799993072,0.0 -46.874338,-23.5610349993072,0.0 -46.873909,-23.5611059993072,0.0 -46.873508,-23.5611729993072,0.0 -46.873112,-23.5612569993072,0.0 -46.872902,-23.5612809993072,0.0 -46.872568,-23.5613069993071,0.0 -46.87229,-23.5613109993071,0.0 -46.872147,-23.5613389993072,0.0 -46.871795,-23.5614489993071,0.0 -46.871618,-23.5614779993071,0.0 -46.8714507,-23.5614969993071,0.0 -46.871327,-23.5614899993071,0.0 -46.871245,-23.5614689993071,0.0 -46.871172,-23.5614079993071,0.0 -46.871129,-23.5613599993072,0.0 -46.871099,-23.5612899993071,0.0 -46.871078,-23.5611399993072,0.0 -46.871057,-23.5610429993072,0.0 -46.871008,-23.5609639993072,0.0 -46.87094,-23.5608809993072,0.0 -46.87092,-23.5607979993072,0.0 -46.870915,-23.5607539993072,0.0 -46.870943,-23.5607049993072,0.0 -46.871004,-23.5606559993072,0.0 -46.871076,-23.5606459993072,0.0 -46.871516,-23.5606409993072,0.0 -46.871602,-23.5606309993072,0.0 -46.871659,-23.5605909993072,0.0 -46.871687,-23.5605369993072,0.0 -46.871691,-23.5604929993072,0.0 -46.871676,-23.5604579993072,0.0 -46.871642,-23.5604319993072,0.0 -46.87157,-23.5604019993072,0.0 -46.871373,-23.5603599993072,0.0 -46.87132,-23.5603209993072,0.0 -46.8713,-23.5602689993072,0.0 -46.871309,-23.5602159993072,0.0 -46.87137,-23.5601439993072,0.0 -46.8713818,-23.5601348993072,0.0 -46.8715856,-23.5599764993072,0.0 -46.871612,-23.5599559993072,0.0 -46.871663,-23.5598849993072,0.0 -46.871686,-23.5597879993072,0.0 -46.8717243,-23.5594978993072,0.0 -46.87175,-23.5593029993072,0.0 -46.871749,-23.5591299993072,0.0 -46.87178,-23.5589879993072,0.0 -46.871826,-23.5588639993072,0.0 -46.871902,-23.5587839993072,0.0 -46.872006,-23.5587209993072,0.0 -46.872092,-23.5587069993072,0.0 -46.872306,-23.5586639993072,0.0 -46.872454,-23.5586139993072,0.0 -46.87253,-23.5585559993072,0.0 -46.872591,-23.5584669993072,0.0 -46.872623,-23.5583479993072,0.0 -46.8726234,-23.5583374993072,0.0 -46.8726326,-23.5580857993072,0.0 -46.872633,-23.5580739993072,0.0 -46.872625,-23.5579889993072,0.0 -46.8725824,-23.5579211993072,0.0 -46.8725617,-23.5578882993072,0.0 -46.872505,-23.5577979993072,0.0 -46.872423,-23.5577189993072,0.0 -46.872317,-23.5576539993072,0.0 -46.872182,-23.5576069993072,0.0 -46.872,-23.5575739993072,0.0 -46.87163,-23.5575569993072,0.0 -46.871465,-23.5575559993072,0.0 -46.871158,-23.5574949993072,0.0 -46.8711041,-23.5574620993072,0.0 -46.8710167,-23.5573964993072,0.0 -46.8710052,-23.5573774993072,0.0 -46.870958,-23.5572999993072,0.0 -46.870942,-23.5571899993072,0.0 -46.870945,-23.5570709993072,0.0 -46.870977,-23.5569689993073,0.0 -46.871062,-23.5568839993073,0.0 -46.871328,-23.5567269993073,0.0 -46.871974,-23.5563749993073,0.0 -46.872121,-23.5562939993073,0.0 -46.872248,-23.5561649993073,0.0 -46.872283,-23.5561114993073,0.0 -46.872318,-23.5560579993073,0.0 -46.872397,-23.5558629993073,0.0 -46.8724556,-23.5556345993073,0.0 -46.872473,-23.5554389993073,0.0 -46.87246,-23.5552489993073,0.0 -46.872439,-23.5551129993073,0.0 -46.87236,-23.5549199993073,0.0 -46.87231,-23.5547609993073,0.0 -46.872295,-23.5546649993073,0.0 -46.872322,-23.5545669993073,0.0 -46.872359,-23.5544919993073,0.0 -46.87242,-23.5543899993073,0.0 -46.872418,-23.5542839993073,0.0 -46.872379,-23.5542139993073,0.0 -46.872277,-23.5541219993073,0.0 -46.872113,-23.5540049993073,0.0 -46.872007,-23.5539229993073,0.0 -46.871904,-23.5538829993073,0.0 -46.871791,-23.5538809993073,0.0 -46.871686,-23.5539129993073,0.0 -46.871611,-23.5539799993073,0.0 -46.871483,-23.5540969993073,0.0 -46.871389,-23.5541899993073,0.0 -46.87116,-23.5542589993073,0.0 -46.870855,-23.5543029993073,0.0 -46.870487,-23.5543689993073,0.0 -46.870196,-23.5543989993073,0.0 -46.869977,-23.5543699993073,0.0 -46.86984,-23.5542619993073,0.0 -46.869733,-23.5541439993073,0.0 -46.869618,-23.5540879993073,0.0 -46.869422,-23.5540729993073,0.0 -46.869345,-23.5540999993073,0.0 -46.869213,-23.5541769993073,0.0 -46.869018,-23.5542669993073,0.0 -46.868808,-23.5543139993073,0.0 -46.868656,-23.5543239993073,0.0 -46.868475,-23.5543409993073,0.0 -46.86833,-23.5543499993073,0.0 -46.86828,-23.5543729993073,0.0 -46.86823,-23.5543959993073,0.0 -46.8681995,-23.5544359993073,0.0 -46.868169,-23.5544759993073,0.0 -46.868128,-23.5545869993073,0.0 -46.868092,-23.5547679993073,0.0 -46.868064,-23.5548469993073,0.0 -46.868013,-23.5549099993073,0.0 -46.867946,-23.5549549993073,0.0 -46.867851,-23.5549869993073,0.0 -46.867589,-23.5550519993073,0.0 -46.8674114,-23.5550847993073,0.0 -46.867307,-23.5551039993073,0.0 -46.8672887,-23.5551031993073,0.0 -46.866886,-23.5550859993073,0.0 -46.86679,-23.5550189993073,0.0 -46.866775,-23.5550169993073,0.0 -46.866712,-23.5549469993073,0.0 -46.866692,-23.5548729993073,0.0 -46.866682,-23.5544979993073,0.0 -46.866658,-23.5541369993073,0.0 -46.866623,-23.5540579993073,0.0 -46.866551,-23.5539879993073,0.0 -46.866484,-23.5539709993073,0.0 -46.866407,-23.5539719993073,0.0 -46.866345,-23.5539899993073,0.0 -46.866151,-23.5541379993073,0.0 -46.865995,-23.5542369993073,0.0 -46.86589,-23.5542649993073,0.0 -46.865718,-23.5542759993073,0.0 -46.865622,-23.5542719993073,0.0 -46.865569,-23.5542379993073,0.0 -46.865544,-23.5541849993073,0.0 -46.865534,-23.5541369993073,0.0 -46.865543,-23.5540789993073,0.0 -46.865571,-23.5540389993073,0.0 -46.86568,-23.5539719993073,0.0 -46.865751,-23.5539399993073,0.0 -46.865775,-23.5539089993073,0.0 -46.865774,-23.5538519993073,0.0 -46.865754,-23.5538209993073,0.0 -46.865716,-23.5537989993073,0.0 -46.86562,-23.5537919993073,0.0 -46.865406,-23.5538469993073,0.0 -46.865301,-23.5538749993073,0.0 -46.865229,-23.5538669993073,0.0 -46.865181,-23.5538499993073,0.0 -46.865104,-23.5538019993073,0.0 -46.864998,-23.5537459993073,0.0 -46.864907,-23.5537339993073,0.0 -46.864816,-23.5537479993073,0.0 -46.864769,-23.5537799993073,0.0 -46.864722,-23.5538549993073,0.0 -46.864737,-23.5539299993073,0.0 -46.864777,-23.5540049993073,0.0 -46.864902,-23.5541129993073,0.0 -46.864985,-23.5542049993073,0.0 -46.865005,-23.5542889993073,0.0 -46.865001,-23.5543639993073,0.0 -46.864979,-23.5544349993073,0.0 -46.864927,-23.5544879993073,0.0 -46.8647891,-23.5545021993073,0.0 -46.864635,-23.5545179993073,0.0 -46.864539,-23.5545059993073,0.0 -46.864443,-23.5544629993073,0.0 -46.864308,-23.5543679993073,0.0 -46.864181,-23.5541839993073,0.0 -46.864088,-23.5540389993073,0.0 -46.864011,-23.5539739993073,0.0 -46.86391,-23.5539489993073,0.0 -46.8638,-23.5539499993073,0.0 -46.863734,-23.5539859993073,0.0 -46.863696,-23.5540349993073,0.0 -46.863687,-23.5540929993073,0.0 -46.863703,-23.5541809993073,0.0 -46.863747,-23.5542549993073,0.0 -46.863868,-23.5543769993073,0.0 -46.863908,-23.5544649993073,0.0 -46.863914,-23.5545569993073,0.0 -46.863881,-23.5546459993073,0.0 -46.86381,-23.5546949993073,0.0 -46.8637,-23.5547059993073,0.0 -46.86359,-23.5546889993073,0.0 -46.863479,-23.5546069993073,0.0 -46.863416,-23.5545279993073,0.0 -46.863366,-23.5543829993073,0.0 -46.863317,-23.5542999993073,0.0 -46.86322,-23.5542079993073,0.0 -46.863128,-23.5541429993073,0.0 -46.863094,-23.5540469993073,0.0 -46.863092,-23.5539589993073,0.0 -46.863124,-23.5538389993073,0.0 -46.863133,-23.5537459993073,0.0 -46.863117,-23.5536759993073,0.0 -46.863087,-23.5535929993073,0.0 -46.862898,-23.5533699993073,0.0 -46.862834,-23.5532739993073,0.0 -46.862828,-23.5531899993073,0.0 -46.862807,-23.5529919993073,0.0 -46.862809,-23.5528019993073,0.0 -46.862788,-23.5526919993073,0.0 -46.862744,-23.5525909993073,0.0 -46.862685,-23.5525209993073,0.0 -46.862613,-23.5524689993073,0.0 -46.862142,-23.5522849993074,0.0 -46.862069,-23.5522329993074,0.0 -46.861899,-23.5520189993074,0.0 -46.861768,-23.5518839993074,0.0 -46.861705,-23.5518359993074,0.0 -46.861614,-23.5518059993074,0.0 -46.8615319,-23.5518029993074,0.0 -46.861323,-23.5518539993074,0.0 -46.861266,-23.5518809993074,0.0 -46.861213,-23.5518689993074,0.0 -46.861174,-23.5518289993074,0.0 -46.861154,-23.5517769993074,0.0 -46.861163,-23.5517059993074,0.0 -46.861186,-23.5516484993074,0.0 -46.861209,-23.5515909993074,0.0 -46.86135,-23.5514209993074,0.0 -46.861402,-23.5513279993074,0.0 -46.861458,-23.5512699993074,0.0 -46.86162,-23.5512149993074,0.0 -46.8616896,-23.5511693993074,0.0 -46.861701,-23.5511619993074,0.0 -46.861748,-23.5511039993074,0.0 -46.86178,-23.5510499993074,0.0 -46.8618035,-23.5509879993074,0.0 -46.861827,-23.5509259993074,0.0 -46.861892,-23.5508419993074,0.0 -46.861967,-23.5506819993074,0.0 -46.861975,-23.5505719993074,0.0 -46.861954,-23.5504879993074,0.0 -46.861921,-23.5504529993074,0.0 -46.861853,-23.5504359993074,0.0 -46.861762,-23.5504379993074,0.0 -46.861736,-23.5504514993074,0.0 -46.86171,-23.5504649993074,0.0 -46.861654,-23.5505489993074,0.0 -46.861567,-23.5508369993074,0.0 -46.861516,-23.5509259993074,0.0 -46.861378,-23.5509929993074,0.0 -46.861268,-23.5510079993074,0.0 -46.861187,-23.5509959993074,0.0 -46.861081,-23.5509479993074,0.0 -46.861032,-23.5508739993074,0.0 -46.8610265,-23.5508319993074,0.0 -46.861021,-23.5507899993074,0.0 -46.86103,-23.5507149993074,0.0 -46.861067,-23.5506219993074,0.0 -46.8611635,-23.5505194993074,0.0 -46.86126,-23.5504169993074,0.0 -46.861269,-23.5503379993074,0.0 -46.8612585,-23.5502959993074,0.0 -46.861248,-23.5502539993074,0.0 -46.861181,-23.5502059993074,0.0 -46.861075,-23.5501769993074,0.0 -46.86098,-23.5501949993074,0.0 -46.86079,-23.5503299993074,0.0 -46.86074,-23.5503509993074,0.0 -46.86069,-23.5503709993074,0.0 -46.860633,-23.5503669993074,0.0 -46.860589,-23.5503319993074,0.0 -46.860584,-23.5502929993074,0.0 -46.8605945,-23.5502775993074,0.0 -46.8607208,-23.5500920993074,0.0 -46.8608046,-23.5499689993074,0.0 -46.860823,-23.5499419993074,0.0 -46.860869,-23.5497999993074,0.0 -46.860892,-23.5496979993074,0.0 -46.86088,-23.5495839993074,0.0 -46.860893,-23.5494729993074,0.0 -46.86093,-23.5493669993074,0.0 -46.860967,-23.5492519993074,0.0 -46.860978,-23.5490359993074,0.0 -46.86095,-23.5487629993074,0.0 -46.86094,-23.5483829993074,0.0 -46.860909,-23.5481939993074,0.0 -46.860922,-23.5480839993074,0.0 -46.860973,-23.5479859993074,0.0 -46.861082,-23.5479229993075,0.0 -46.861197,-23.5479039993075,0.0 -46.861393,-23.5479019993074,0.0 -46.861732,-23.5478579993075,0.0 -46.861999,-23.5478109993075,0.0 -46.862208,-23.5477019993075,0.0 -46.862302,-23.5475649993074,0.0 -46.8623155,-23.5475004993075,0.0 -46.862329,-23.5474359993075,0.0 -46.862317,-23.5472639993075,0.0 -46.862282,-23.5471809993075,0.0 -46.862205,-23.5471159993075,0.0 -46.862114,-23.5470859993075,0.0 -46.86197,-23.5470699993075,0.0 -46.861831,-23.5470359993075,0.0 -46.8618045,-23.5470144993075,0.0 -46.861778,-23.5469929993075,0.0 -46.861748,-23.5469179993075,0.0 -46.8617478,-23.5468472993075,0.0 -46.8617475,-23.5467303993075,0.0 -46.8617472,-23.5466134993075,0.0 -46.861747,-23.5465209993075,0.0 -46.861722,-23.5464199993075,0.0 -46.861659,-23.5463369993075,0.0 -46.861514,-23.5462239993075,0.0 -46.861368,-23.5460939993075,0.0 -46.861186,-23.5458589993075,0.0 -46.86109,-23.5456999993075,0.0 -46.860873,-23.5455179993075,0.0 -46.860664,-23.5453169993075,0.0 -46.860562,-23.5451599993075,0.0 -46.860535,-23.5450289993075,0.0 -46.8605382,-23.5449575993075,0.0 -46.860539,-23.5449389993075,0.0 -46.8605721,-23.5448737993075,0.0 -46.860577,-23.5448639993075,0.0 -46.860628,-23.5448369993075,0.0 -46.860805,-23.5448349993075,0.0 -46.860964,-23.5448589993075,0.0 -46.861219,-23.5449929993075,0.0 -46.861426,-23.5450959993075,0.0 -46.861718,-23.5451109993075,0.0 -46.861828,-23.5450649993075,0.0 -46.861941,-23.5449709993075,0.0 -46.861997,-23.5448379993075,0.0 -46.862007,-23.5447749993075,0.0 -46.862128,-23.5437979993075,0.0 -46.862147,-23.5436499993075,0.0 -46.8621478,-23.5436216993075,0.0 -46.862149,-23.5435809993076,0.0 -46.8621551,-23.5434062993076,0.0 -46.862165,-23.5431209993076,0.0 -46.862208,-23.5428289993076,0.0 -46.862287,-23.5426469993076,0.0 -46.862386,-23.5424869993076,0.0 -46.862527,-23.5423619993076,0.0 -46.862694,-23.5422989993076,0.0 -46.862807,-23.5422049993076,0.0 -46.862873,-23.5421239993076,0.0 -46.862901,-23.5420309993076,0.0 -46.862904,-23.5419299993076,0.0 -46.862879,-23.5418199993076,0.0 -46.862787,-23.5417369993076,0.0 -46.862685,-23.5416769993076,0.0 -46.8624097,-23.5416024993076,0.0 -46.862267,-23.5415409993076,0.0 -46.8622052,-23.5415019993076,0.0 -46.862123,-23.5414499993076,0.0 -46.8620992,-23.5414153993076,0.0 -46.86205,-23.5413439993076,0.0 -46.862013,-23.5412329993076,0.0 -46.8619932,-23.5411735993076,0.0 -46.861961,-23.5410749993076,0.0 -46.8618887,-23.5409493993076,0.0 -46.8618465,-23.5408762993076,0.0 -46.861798,-23.5407919993076,0.0 -46.861716,-23.5404139993076,0.0 -46.861724,-23.5402639993076,0.0 -46.861775,-23.5401709993076,0.0 -46.861865,-23.5400859993076,0.0 -46.862036,-23.5400349993076,0.0 -46.862428,-23.5400349993076,0.0 -46.8624709,-23.5400288993076,0.0 -46.862557,-23.5400159993076,0.0 -46.862638,-23.5399529993076,0.0 -46.86267,-23.5398729993076,0.0 -46.862688,-23.5397579993076,0.0 -46.862686,-23.5396439993076,0.0 -46.862598,-23.5395079993076,0.0 -46.862326,-23.5391799993076,0.0 -46.862228,-23.5390409993076,0.0 -46.862155,-23.5388909993077,0.0 -46.862114,-23.5387509993077,0.0 -46.862061,-23.5383459993077,0.0 -46.861987,-23.5381969993077,0.0 -46.861948,-23.5380909993077,0.0 -46.861951,-23.5379629993077,0.0 -46.861992,-23.5378569993077,0.0 -46.862044,-23.5377829993077,0.0 -46.862122,-23.5376079993077,0.0 -46.862121,-23.5375109993077,0.0 -46.862091,-23.5374279993077,0.0 -46.862014,-23.5373539993077,0.0 -46.861826,-23.5373029993077,0.0 -46.8617109,-23.5373129993077,0.0 -46.861564,-23.5373769993077,0.0 -46.861186,-23.5373749993077,0.0 -46.860807,-23.5371879993077,0.0 -46.860781,-23.5370729993077,0.0 -46.860803,-23.5369269993077,0.0 -46.860836,-23.5368089993077,0.0 -46.8609969,-23.5362878993077,0.0 -46.8611081,-23.5362093993077,0.0 -46.861345,-23.5360369993077,0.0 -46.8614353,-23.5359443993077,0.0 -46.8614706,-23.5358435993077,0.0 -46.8614812,-23.5358134993077,0.0 -46.8614288,-23.5356989993077,0.0 -46.8613503,-23.5355942993077,0.0 -46.8612783,-23.5354731993077,0.0 -46.8612914,-23.5353946993077,0.0 -46.8613405,-23.5353488993077,0.0 -46.861454,-23.5353129993077,0.0 -46.8616395,-23.5351700993077,0.0 -46.861775,-23.5350169993077,0.0 -46.8618018,-23.5349201993077,0.0 -46.8618744,-23.5348103993077,0.0 -46.861949,-23.5346715993077,0.0 -46.861936,-23.5345864993077,0.0 -46.8618879,-23.5345131993077,0.0 -46.8618672,-23.5344817993077,0.0 -46.8618116,-23.5343913993078,0.0 -46.8617254,-23.5342705993078,0.0 -46.8616462,-23.5341747993078,0.0 -46.8615957,-23.5339909993078,0.0 -46.8615564,-23.5339156993078,0.0 -46.8615543,-23.5338674993078,0.0 -46.8615499,-23.5337651993078,0.0 -46.8613863,-23.5337357993078,0.0 -46.8612914,-23.5337291993078,0.0 -46.861222,-23.5336629993078,0.0 -46.8610623,-23.5335197993078,0.0 -46.860926,-23.5333179993078,0.0 -46.8609118,-23.5332992993078,0.0 -46.860862,-23.5332339993078,0.0 -46.8608544,-23.5332183993078,0.0 -46.860769,-23.5330419993078,0.0 -46.860753,-23.5329009993078,0.0 -46.8607188,-23.5328261993078,0.0 -46.8607875,-23.5326494993078,0.0 -46.8608366,-23.5325807993078,0.0 -46.8609184,-23.5325283993078,0.0 -46.861046,-23.5325152993078,0.0 -46.8613007,-23.5324834993078,0.0 -46.8613143,-23.5323942993078,0.0 -46.861493,-23.5323993993078,0.0 -46.8616513,-23.5322927993078,0.0 -46.861785,-23.5321309993078,0.0 -46.8619152,-23.5320010993078,0.0 -46.8619761,-23.5317919993078,0.0 -46.8620362,-23.5316594993078,0.0 -46.8621356,-23.5315827993078,0.0 -46.8622533,-23.5314551993078,0.0 -46.8623417,-23.5312686993078,0.0 -46.8623282,-23.5311462993078,0.0 -46.862376,-23.5309908993078,0.0 -46.8624189,-23.5308792993078,0.0 -46.8624704,-23.5307561993078,0.0 -46.8624905,-23.5306130993078,0.0 -46.8624607,-23.5304818993078,0.0 -46.862396,-23.5303302993078,0.0 -46.862313,-23.5301918993078,0.0 -46.8622681,-23.5301440993078,0.0 -46.8621871,-23.5300578993078,0.0 -46.8620899,-23.5300178993078,0.0 -46.8619916,-23.5299769993079,0.0 -46.8619133,-23.5299858993078,0.0 -46.8618838,-23.5299766993078,0.0 -46.8618289,-23.5299595993079,0.0 -46.861728,-23.5298767993079,0.0 -46.861581,-23.5297557993079,0.0 -46.8615331,-23.5297193993079,0.0 -46.8614941,-23.5296898993079,0.0 -46.8613991,-23.5296808993079,0.0 -46.8613757,-23.5296726993079,0.0 -46.861227,-23.5296209993079,0.0 -46.8608709,-23.5294198993079,0.0 -46.8607355,-23.5292847993079,0.0 -46.860581,-23.5292729993079,0.0 -46.8604095,-23.5292175993079,0.0 -46.8602659,-23.5291406993079,0.0 -46.8601691,-23.5290549993079,0.0 -46.8601165,-23.5289110993079,0.0 -46.8601307,-23.5287389993079,0.0 -46.8601387,-23.5286238993079,0.0 -46.8601431,-23.5285275993079,0.0 -46.860115,-23.5283919993079,0.0 -46.860106,-23.5281829993079,0.0 -46.860058,-23.5279799993079,0.0 -46.8600307,-23.5279103993079,0.0 -46.8600171,-23.5278755993079,0.0 -46.860004,-23.5278419993079,0.0 -46.859978,-23.5277755993079,0.0 -46.8600003,-23.5275240993079,0.0 -46.8600058,-23.5274006993079,0.0 -46.860036,-23.5272359993079,0.0 -46.860036,-23.5271159993079,0.0 -46.8600466,-23.5270689993079,0.0 -46.8600576,-23.5270204993079,0.0 -46.8600665,-23.5269808993079,0.0 -46.8600751,-23.5269687993079,0.0 -46.8601254,-23.5268979993079,0.0 -46.8602003,-23.5267400993079,0.0 -46.8602949,-23.5266313993079,0.0 -46.8602968,-23.5266291993079,0.0 -46.8603421,-23.5266035993079,0.0 -46.8603849,-23.5265607993079,0.0 -46.8604259,-23.5264860993079,0.0 -46.8604545,-23.5264055993079,0.0 -46.8604786,-23.5263092993079,0.0 -46.8604946,-23.5262370993079,0.0 -46.8605,-23.5261754993079,0.0 -46.8605294,-23.5261273993079,0.0 -46.8605856,-23.5260871993079,0.0 -46.8606445,-23.5260175993079,0.0 -46.8606846,-23.5259801993079,0.0 -46.8607676,-23.5259319993079,0.0 -46.8608532,-23.5259025993079,0.0 -46.8609575,-23.5259132993079,0.0 -46.8611449,-23.5259426993079,0.0 -46.8612251,-23.5259747993079,0.0 -46.861523,-23.5259369993079,0.0 -46.8617576,-23.5257473993079,0.0 -46.8618566,-23.5256135993079,0.0 -46.8619476,-23.5254851993079,0.0 -46.862162,-23.5254089993079,0.0 -46.862418,-23.525295999308,0.0 -46.862532,-23.525197999308,0.0 -46.862607,-23.525103999308,0.0 -46.862625,-23.524984999308,0.0 -46.862613,-23.524817999308,0.0 -46.862563,-23.524716999308,0.0 -46.862437,-23.524603999308,0.0 -46.86232,-23.524441999308,0.0 -46.862275,-23.524340999308,0.0 -46.862269,-23.524221999308,0.0 -46.862301,-23.524110999308,0.0 -46.862423,-23.523937999308,0.0 -46.862521,-23.523790999308,0.0 -46.862543,-23.523662999308,0.0 -46.862537,-23.523525999308,0.0 -46.862501,-23.523363999308,0.0 -46.862427,-23.523205999308,0.0 -46.862407,-23.523099999308,0.0 -46.862424,-23.523011999308,0.0 -46.8625451,-23.522814699308,0.0 -46.8626384,-23.522858499308,0.0 -46.86276,-23.522898199308,0.0 -46.8627745,-23.522897399308,0.0 -46.8628044,-23.522895799308,0.0 -46.862891,-23.522890999308,0.0 -46.8628955,-23.522877999308,0.0 -46.862914,-23.522824999308,0.0 -46.8629278,-23.522748699308,0.0 -46.8628933,-23.522687399308,0.0 -46.8628621,-23.522631899308,0.0 -46.8627896,-23.522586099308,0.0 -46.8627536,-23.522563399308,0.0 -46.8627235,-23.522544399308,0.0 -46.8626258,-23.522503399308,0.0 -46.8626104,-23.522496999308,0.0 -46.862475,-23.522503999308,0.0 -46.8623259,-23.522427699308,0.0 -46.8621727,-23.522321899308,0.0 -46.861983,-23.522178999308,0.0 -46.8618344,-23.522027699308,0.0 -46.861735,-23.521949799308,0.0 -46.8616219,-23.521938899308,0.0 -46.8615283,-23.521971599308,0.0 -46.861365,-23.522190999308,0.0 -46.8609179,-23.522656599308,0.0 -46.860637,-23.522891799308,0.0 -46.8604455,-23.523045099308,0.0 -46.8602868,-23.523198299308,0.0 -46.8602081,-23.523246199308,0.0 -46.8601609,-23.523254599308,0.0 -46.8600978,-23.523246199308,0.0 -46.860079,-23.523202999308,0.0 -46.860054,-23.523123999308,0.0 -46.860053,-23.523043999308,0.0 -46.860071,-23.522955999308,0.0 -46.860109,-23.522853999308,0.0 -46.860176,-23.522552999308,0.0 -46.860155,-23.522447999308,0.0 -46.860092,-23.522350999308,0.0 -46.85998,-23.522259999308,0.0 -46.85973,-23.522112999308,0.0 -46.859667,-23.522042999308,0.0 -46.8595789,-23.521947799308,0.0 -46.859513,-23.521803799308,0.0 -46.8594129,-23.521645099308,0.0 -46.8592567,-23.521486399308,0.0 -46.8592006,-23.521398599308,0.0 -46.8591227,-23.521312699308,0.0 -46.8590785,-23.521222799308,0.0 -46.8590175,-23.5211421993081,0.0 -46.8589394,-23.5209957993081,0.0 -46.8588612,-23.5208517993081,0.0 -46.8587514,-23.5207418993081,0.0 -46.8586477,-23.5206829993081,0.0 -46.8585171,-23.5206271993081,0.0 -46.8584858,-23.5206369993081,0.0 -46.8584621,-23.5206393993081,0.0 -46.8584109,-23.5206210993081,0.0 -46.8583917,-23.5206080993081,0.0 -46.8583718,-23.5206051993081,0.0 -46.8583467,-23.5206214993081,0.0 -46.8583303,-23.5206210993081,0.0 -46.858301,-23.5206027993081,0.0 -46.8582693,-23.5205880993081,0.0 -46.8582476,-23.5205979993081,0.0 -46.8582302,-23.5205990993081,0.0 -46.8581924,-23.5205709993081,0.0 -46.8581783,-23.5205493993081,0.0 -46.8581558,-23.5205416993081,0.0 -46.8581333,-23.5205465993081,0.0 -46.8581118,-23.5205575993081,0.0 -46.8580825,-23.5205441993081,0.0 -46.8580532,-23.5205258993081,0.0 -46.8580142,-23.5204892993081,0.0 -46.8579765,-23.5204799993081,0.0 -46.8579348,-23.5204843993081,0.0 -46.8579171,-23.5204772993081,0.0 -46.8578995,-23.5204586993081,0.0 -46.8578777,-23.5204552993081,0.0 -46.8578482,-23.5204599993081,0.0 -46.8578244,-23.5204410993081,0.0 -46.8578116,-23.5204196993081,0.0 -46.857752,-23.5203727993081,0.0 -46.857731,-23.5203622993081,0.0 -46.8576212,-23.5203402993081,0.0 -46.8575892,-23.5203209993081,0.0 -46.8575675,-23.5203012993081,0.0 -46.8575371,-23.5202978993081,0.0 -46.8575264,-23.5203006993081,0.0 -46.8575156,-23.5203035993081,0.0 -46.8574765,-23.5202854993081,0.0 -46.8574617,-23.5202687993081,0.0 -46.8574015,-23.5202133993081,0.0 -46.8573282,-23.5201767993081,0.0 -46.8572764,-23.5201711993081,0.0 -46.8572452,-23.5201620993081,0.0 -46.8571963,-23.5201211993081,0.0 -46.8571328,-23.5200679993081,0.0 -46.8571038,-23.5200664993081,0.0 -46.8570744,-23.5200571993081,0.0 -46.8570648,-23.5200449993081,0.0 -46.857063,-23.5200270993081,0.0 -46.8570548,-23.5200095993081,0.0 -46.8570405,-23.5200068993081,0.0 -46.8570161,-23.5200171993081,0.0 -46.8569891,-23.5200049993081,0.0 -46.8569755,-23.5199924993081,0.0 -46.8569481,-23.5199346993081,0.0 -46.8569218,-23.5198667993081,0.0 -46.856884,-23.5197995993081,0.0 -46.8568498,-23.5197666993081,0.0 -46.856807,-23.5197619993081,0.0 -46.856738,-23.5196789993081,0.0 -46.856689,-23.5195879993081,0.0 -46.85663,-23.5194649993081,0.0 -46.856571,-23.5193409993081,0.0 -46.8565352,-23.5191482993081,0.0 -46.8565311,-23.5191262993081,0.0 -46.8565245,-23.5190904993081,0.0 -46.856518,-23.5190551993081,0.0 -46.8565131,-23.5190287993081,0.0 -46.856509,-23.5190069993081,0.0 -46.8565068,-23.5189963993081,0.0 -46.8565056,-23.5189905993081,0.0 -46.8564977,-23.5189529993081,0.0 -46.856473,-23.5188349993081,0.0 -46.856399,-23.5186859993081,0.0 -46.856297,-23.5185289993081,0.0 -46.85616,-23.5184329993081,0.0 -46.85607,-23.5184119993081,0.0 -46.855893,-23.5184099993081,0.0 -46.855763,-23.5183849993081,0.0 -46.855633,-23.5183599993081,0.0 -46.855492,-23.5182259993081,0.0 -46.855368,-23.5181219993081,0.0 -46.855341,-23.5179779993081,0.0 -46.855322,-23.5177669993081,0.0 -46.855262,-23.5174919993081,0.0 -46.855235,-23.5173679993081,0.0 -46.854984,-23.5170019993081,0.0 -46.85466,-23.5166729993081,0.0 -46.854429,-23.5165549993081,0.0 -46.854154,-23.5165149993082,0.0 -46.8541179,-23.5165095993082,0.0 -46.853737,-23.5164529993082,0.0 -46.853325,-23.5163929993082,0.0 -46.852694,-23.5164169993082,0.0 -46.852569,-23.5164219993082,0.0 -46.851297,-23.5162959993082,0.0 -46.851128,-23.5162889993082,0.0 -46.8507865,-23.5162754993082,0.0 -46.850445,-23.5162619993082,0.0 -46.849271,-23.5162189993082,0.0 -46.848721,-23.5162049993082,0.0 -46.848434,-23.5161979993082,0.0 -46.848358,-23.5161959993082,0.0 -46.848243,-23.5161929993082,0.0 -46.8474255,-23.5161729993082,0.0 -46.847098,-23.5161649993082,0.0 -46.846992,-23.5161609993082,0.0 -46.8463911,-23.5160892993082,0.0 -46.84592,-23.5159959993082,0.0 -46.845719,-23.5159559993082,0.0 -46.8450624,-23.5157720993082,0.0 -46.844844,-23.5157109993082,0.0 -46.8445937,-23.5156074993082,0.0 -46.844549,-23.5155889993082,0.0 -46.8445113,-23.5155656993082,0.0 -46.8444166,-23.5155071993082,0.0 -46.843675,-23.5150489993082,0.0 -46.8422549,-23.5141246993082,0.0 -46.8422518,-23.5141225993082,0.0 -46.8422225,-23.5141034993082,0.0 -46.8421779,-23.5140744993082,0.0 -46.8420135,-23.5139674993082,0.0 -46.8416012,-23.5139399993082,0.0 -46.8413447,-23.5138605993082,0.0 -46.8413126,-23.5138506993082,0.0 -46.841303,-23.5138422993082,0.0 -46.8412519,-23.5137977993082,0.0 -46.8402957,-23.5129642993082,0.0 -46.8401316,-23.5127168993082,0.0 -46.8401002,-23.5126696993082,0.0 -46.8400773,-23.5126351993082,0.0 -46.8398216,-23.5122497993082,0.0 -46.8394999,-23.5119279993083,0.0 -46.8394667,-23.5118947993083,0.0 -46.8394506,-23.5118786993083,0.0 -46.8394136,-23.5117589993083,0.0 -46.8392995,-23.5113894993083,0.0 -46.8392868,-23.5113481993083,0.0 -46.8392758,-23.5113125993083,0.0 -46.8392649,-23.5112772993083,0.0 -46.839212,-23.5111059993083,0.0 -46.8390007,-23.5109668993083,0.0 -46.838481,-23.5106249993083,0.0 -46.838157,-23.5106289993083,0.0 -46.838089,-23.5106299993083,0.0 -46.837837,-23.5106319993083,0.0 -46.836543,-23.5106459993083,0.0 -46.835632,-23.5107999993083,0.0 -46.835044,-23.5110069993083,0.0 -46.834428,-23.5112879993083,0.0 -46.8341946,-23.5114144993083,0.0 -46.834153,-23.5114369993083,0.0 -46.8339086,-23.5115639993083,0.0 -46.8338741,-23.5115818993083,0.0 -46.8338398,-23.5115997993083,0.0 -46.8337656,-23.5116382993083,0.0 -46.8337413,-23.5116476993083,0.0 -46.8337029,-23.5116625993083,0.0 -46.833684,-23.5116699993083,0.0 -46.833613,-23.5117089993083,0.0 -46.833485,-23.5117799993083,0.0 -46.833453,-23.5117974993083,0.0 -46.833421,-23.5118149993083,0.0 -46.833357,-23.5118499993083,0.0 -46.83317,-23.5119629993083,0.0 -46.832867,-23.5121269993083,0.0 -46.832545,-23.5123659993082,0.0 -46.832432,-23.5124419993082,0.0 -46.83233,-23.5125199993082,0.0 -46.832267,-23.5125949993082,0.0 -46.832202,-23.5126769993082,0.0 -46.83218,-23.5127389993082,0.0 -46.8321776,-23.5127496993082,0.0 -46.832161,-23.5128229993082,0.0 -46.83217,-23.5129379993082,0.0 -46.832194,-23.5130759993082,0.0 -46.83224,-23.5131979993082,0.0 -46.832298,-23.5132729993082,0.0 -46.832315,-23.5133299993082,0.0 -46.832341,-23.5134099993082,0.0 -46.832341,-23.5134242993082,0.0 -46.832341,-23.5135090993082,0.0 -46.832341,-23.5135939993082,0.0 -46.832336,-23.5137239993082,0.0 -46.832319,-23.5138219993082,0.0 -46.832283,-23.5139239993082,0.0 -46.832239,-23.5139879993082,0.0 -46.8322118,-23.5140080993082,0.0 -46.8321853,-23.5140280993082,0.0 -46.832172,-23.5140379993082,0.0 -46.832044,-23.5141069993082,0.0 -46.831914,-23.5141529993082,0.0 -46.831812,-23.5142089993082,0.0 -46.831691,-23.5143039993082,0.0 -46.831466,-23.5144959993082,0.0 -46.831377,-23.5145569993082,0.0 -46.831287,-23.5146179993082,0.0 -46.831134,-23.5147259993082,0.0 -46.830924,-23.5148479993082,0.0 -46.830726,-23.5149879993082,0.0 -46.8305764,-23.5151175993082,0.0 -46.830407,-23.5152549993082,0.0 -46.83016,-23.5154759993082,0.0 -46.829637,-23.5159149993082,0.0 -46.8288425,-23.5167015993081,0.0 -46.828176,-23.5172129993081,0.0 -46.827598,-23.5174689993081,0.0 -46.827092,-23.5176199993081,0.0 -46.826586,-23.5177709993081,0.0 -46.8258084,-23.5179244993081,0.0 -46.82575,-23.5179359993081,0.0 -46.825474,-23.5179899993081,0.0 -46.824319,-23.5182879993081,0.0 -46.823864,-23.5184489993081,0.0 -46.823476,-23.5186259993081,0.0 -46.823247,-23.5188139993081,0.0 -46.822996,-23.5191489993081,0.0 -46.822802,-23.5195459993081,0.0 -46.82271,-23.5199749993081,0.0 -46.822662,-23.5201769993081,0.0 -46.8225901,-23.5204444993081,0.0 -46.822507,-23.5206759993081,0.0 -46.8224195,-23.5208454993081,0.0 -46.822332,-23.5210149993081,0.0 -46.822075,-23.521305999308,0.0 -46.821834,-23.521508999308,0.0 -46.821448,-23.521738999308,0.0 -46.821053,-23.521860999308,0.0 -46.8206222,-23.521926099308,0.0 -46.820343,-23.521921999308,0.0 -46.820127,-23.521912999308,0.0 -46.819999,-23.521888999308,0.0 -46.81987,-23.521864999308,0.0 -46.819521,-23.521789999308,0.0 -46.819177,-23.521661999308,0.0 -46.818874,-23.521491999308,0.0 -46.818684,-23.521331999308,0.0 -46.8186317,-23.521259799308,0.0 -46.8186207,-23.521244699308,0.0 -46.818551,-23.521147999308,0.0 -46.818402,-23.5208799993081,0.0 -46.818268,-23.5206909993081,0.0 -46.818126,-23.5205399993081,0.0 -46.818044,-23.5204479993081,0.0 -46.8179716,-23.5205279993081,0.0 -46.817939,-23.5205639993081,0.0 -46.817826,-23.5206449993081,0.0 -46.817674,-23.5207349993081,0.0 -46.81739,-23.5207169993081,0.0 -46.8173368,-23.5208424993081,0.0 -46.817313,-23.5209219993081,0.0 -46.817297,-23.5210179993081,0.0 -46.817289,-23.5211030993081,0.0 -46.817247,-23.521520999308,0.0 -46.817229,-23.521720999308,0.0 -46.817229,-23.521783499308,0.0 -46.817229,-23.521793999308,0.0 -46.817231,-23.521878999308,0.0 -46.817238,-23.521986999308,0.0 -46.817257,-23.522223999308,0.0 -46.817259,-23.522243499308,0.0 -46.817276,-23.522412999308,0.0 -46.817286,-23.522554999308,0.0 -46.817299,-23.522656999308,0.0 -46.817322,-23.522755999308,0.0 -46.817401,-23.522987999308,0.0 -46.81746,-23.523153999308,0.0 -46.8174789,-23.523227799308,0.0 -46.817504,-23.523325999308,0.0 -46.817515,-23.523409999308,0.0 -46.817508,-23.523454999308,0.0 -46.8175018,-23.523476299308,0.0 -46.8175008,-23.523479799308,0.0 -46.817499,-23.523485999308,0.0 -46.8174921,-23.523497199308,0.0 -46.8174699,-23.523533599308,0.0 -46.8174149,-23.523623399308,0.0 -46.8173857,-23.523670999308,0.0 -46.8173467,-23.523719399308,0.0 -46.8172747,-23.523808699308,0.0 -46.8172334,-23.523859799308,0.0 -46.8169496,-23.524211499308,0.0 -46.8169292,-23.524236799308,0.0 -46.816783,-23.524417999308,0.0 -46.8167667,-23.524445599308,0.0 -46.8166881,-23.524579199308,0.0 -46.8166444,-23.524653199308,0.0 -46.8166123,-23.524721199308,0.0 -46.8165623,-23.524827099308,0.0 -46.8165227,-23.524910899308,0.0 -46.816492,-23.524975999308,0.0 -46.8164878,-23.525124799308,0.0 -46.8164819,-23.525337799308,0.0 -46.8164769,-23.525515399308,0.0 -46.816471,-23.5257259993079,0.0 -46.8164715,-23.5257651993079,0.0 -46.8164744,-23.5259730993079,0.0 -46.8164796,-23.5263397993079,0.0 -46.81648,-23.5263709993079,0.0 -46.8164905,-23.5266590993079,0.0 -46.8164898,-23.5266718993079,0.0 -46.816487,-23.5267179993079,0.0 -46.816504,-23.5273129993079,0.0 -46.8165141,-23.5274483993079,0.0 -46.816521,-23.5278859993079,0.0 -46.816541,-23.5284159993079,0.0 -46.816557,-23.5286119993079,0.0 -46.816584,-23.5287539993079,0.0 -46.816621,-23.5288829993079,0.0 -46.816651,-23.5289629993079,0.0 -46.816712,-23.5291009993079,0.0 -46.816791,-23.5292739993079,0.0 -46.816905,-23.5295039993079,0.0 -46.817051,-23.5297639993079,0.0 -46.817188,-23.5300199993079,0.0 -46.817256,-23.5301629993078,0.0 -46.817298,-23.5302719993078,0.0 -46.817326,-23.5303669993078,0.0 -46.817339,-23.5304629993078,0.0 -46.817349,-23.5306059993078,0.0 -46.817365,-23.5309449993078,0.0 -46.817374,-23.5314188993078,0.0 -46.817378,-23.5316869993078,0.0 -46.8173801,-23.5317370993078,0.0 -46.8173949,-23.5320966993078,0.0 -46.8174118,-23.5325064993078,0.0 -46.817414,-23.5325629993078,0.0 -46.8174191,-23.5327740993078,0.0 -46.81742,-23.5328089993078,0.0 -46.8174236,-23.5329362993078,0.0 -46.817435,-23.5333399993078,0.0 -46.817443,-23.5336289993078,0.0 -46.817448,-23.5338089993078,0.0 -46.8174445,-23.5341650993078,0.0 -46.817444,-23.5342119993078,0.0 -46.8174231,-23.5346606993078,0.0 -46.817403,-23.5353309993077,0.0 -46.817387,-23.5358019993077,0.0 -46.817375,-23.5361589993077,0.0 -46.817359,-23.5364259993077,0.0 -46.817342,-23.5375259993077,0.0 -46.817325,-23.5378399993077,0.0 -46.8173144,-23.5380249993077,0.0 -46.817307,-23.5381529993077,0.0 -46.8173052,-23.5383713993077,0.0 -46.817298,-23.5392649993076,0.0 -46.817304,-23.5396039993076,0.0 -46.817314,-23.5398039993076,0.0 -46.817331,-23.5399729993076,0.0 -46.817384,-23.5403019993076,0.0 -46.817471,-23.5406889993076,0.0 -46.817523,-23.5408719993076,0.0 -46.817584,-23.5411169993076,0.0 -46.817645,-23.5413949993076,0.0 -46.8177,-23.5416619993076,0.0 -46.817722,-23.5417289993076,0.0 -46.81774,-23.5417759993076,0.0 -46.817767,-23.5418019993076,0.0 -46.8182431,-23.5421203993076,0.0 -46.8183458,-23.5421890993076,0.0 -46.8184459,-23.5422559993076,0.0 -46.8185999,-23.5423589993076,0.0 -46.8187665,-23.5424703993076,0.0 -46.819087,-23.5426846993076,0.0 -46.819391,-23.5428879993076,0.0 -46.8195297,-23.5429693993076,0.0 -46.819784,-23.5431049993076,0.0 -46.82007,-23.5432509993075,0.0 -46.8201147,-23.5432745993076,0.0 -46.820326,-23.5433859993076,0.0 -46.820471,-23.5434579993075,0.0 -46.820542,-23.5435099993076,0.0 -46.820607,-23.5435679993075,0.0 -46.820659,-23.5436419993075,0.0 -46.820706,-23.5437159993075,0.0 -46.8207103,-23.5437250993075,0.0 -46.8207546,-23.5438200993075,0.0 -46.820808,-23.5439559993075,0.0 -46.820861,-23.5441179993075,0.0 -46.82093,-23.5443449993075,0.0 -46.820972,-23.5444709993075,0.0 -46.82102,-23.5445929993075,0.0 -46.821096,-23.5447579993075,0.0 -46.8212269,-23.5450329993075,0.0 -46.821264,-23.5451229993075,0.0 -46.821285,-23.5451919993075,0.0 -46.8212862,-23.5452916993075,0.0 -46.821286,-23.5453009993075,0.0 -46.821282,-23.5453429993075,0.0 -46.821263,-23.5454069993075,0.0 -46.821236,-23.5454859993075,0.0 -46.821202,-23.5455839993075,0.0 -46.8211337,-23.5456955993075,0.0 -46.8210855,-23.5457659993075,0.0 -46.8210541,-23.5458547993075,0.0 -46.82093,-23.5459307993075,0.0 -46.8208688,-23.5459900993075,0.0 -46.8207867,-23.5460788993075,0.0 -46.8207781,-23.5460881993075,0.0 -46.820717,-23.5461826993075,0.0 -46.8206521,-23.5463233993075,0.0 -46.8206225,-23.5464011993075,0.0 -46.820604,-23.5464771993075,0.0 -46.8205947,-23.5465511993075,0.0 -46.8206025,-23.5466768993075,0.0 -46.820607,-23.5467499993075,0.0 -46.820594,-23.5468869993075,0.0 -46.8205942,-23.5468910993075,0.0 -46.8205953,-23.5469155993075,0.0 -46.8205971,-23.5469554993075,0.0 -46.820598,-23.5469749993075,0.0 -46.820611,-23.5470549993075,0.0 -46.8206444,-23.5471383993075,0.0 -46.8206993,-23.5472321993075,0.0 -46.8207294,-23.5473081993075,0.0 -46.8208001,-23.5474126993075,0.0 -46.820855,-23.5474763993075,0.0 -46.8209399,-23.5475550993075,0.0 -46.8210249,-23.5476337993075,0.0 -46.821144,-23.5477509993075,0.0 -46.821311,-23.5479139993074,0.0 -46.821448,-23.5480529993075,0.0 -46.821543,-23.5481619993075,0.0 -46.821613,-23.5482709993074,0.0 -46.821674,-23.5483369993074,0.0 -46.821731,-23.5484069993074,0.0 -46.821769,-23.5484719993074,0.0 -46.821795,-23.5485469993074,0.0 -46.8218124,-23.5486328993074,0.0 -46.821822,-23.5487379993074,0.0 -46.821825,-23.5488029993074,0.0 -46.821827,-23.5488689993074,0.0 -46.821816,-23.5489429993074,0.0 -46.821794,-23.5490459993074,0.0 -46.8217347,-23.5491523993074,0.0 -46.8216884,-23.5492741993074,0.0 -46.82163,-23.5494086993074,0.0 -46.8215787,-23.5494917993074,0.0 -46.8215275,-23.5495685993074,0.0 -46.8214761,-23.5496439993074,0.0 -46.8214407,-23.5497059993074,0.0 -46.8214481,-23.5497937993074,0.0 -46.8213965,-23.5498616993074,0.0 -46.8213735,-23.5499094993074,0.0 -46.8213522,-23.5499996993074,0.0 -46.8213416,-23.5500509993074,0.0 -46.8213098,-23.5501075993074,0.0 -46.8212372,-23.5501960993074,0.0 -46.821193,-23.5502880993074,0.0 -46.821158,-23.5503849993074,0.0 -46.821109,-23.5504549993074,0.0 -46.821068,-23.5505299993074,0.0 -46.8210571,-23.5505625993074,0.0 -46.821021,-23.5506729993074,0.0 -46.82101,-23.5507429993074,0.0 -46.82101,-23.5507519993074,0.0 -46.821008,-23.5508439993074,0.0 -46.821,-23.5509179993074,0.0 -46.820981,-23.5510069993074,0.0 -46.820945,-23.5511149993074,0.0 -46.820918,-23.5511969993074,0.0 -46.820897,-23.5512429993074,0.0 -46.820879,-23.5512859993074,0.0 -46.8208568,-23.5513994993074,0.0 -46.8208037,-23.5515391993074,0.0 -46.8207807,-23.5517036993074,0.0 -46.82074,-23.5518116993074,0.0 -46.8207183,-23.5518898993074,0.0 -46.8206745,-23.5519496993074,0.0 -46.8206497,-23.5520522993074,0.0 -46.8206179,-23.5521496993074,0.0 -46.8206002,-23.5522469993074,0.0 -46.8205807,-23.5523159993074,0.0 -46.8205966,-23.5523973993074,0.0 -46.8206196,-23.5524716993074,0.0 -46.820662,-23.5525479993073,0.0 -46.820682,-23.5526189993073,0.0 -46.820698,-23.5526719993073,0.0 -46.82072,-23.5527189993073,0.0 -46.820755,-23.5527839993073,0.0 -46.820766,-23.5528019993073,0.0 -46.8207742,-23.5528155993073,0.0 -46.820559,-23.5531889993073,0.0 -46.820249,-23.5536459993073,0.0 -46.820072,-23.5538929993073,0.0 -46.819983,-23.5540209993073,0.0 -46.819977,-23.5540339993073,0.0 -46.819957,-23.5545639993073,0.0 -46.8199559,-23.5545954993073,0.0 -46.8199278,-23.5553757993073,0.0 -46.819908,-23.5559239993073,0.0 -46.819918,-23.5559379993073,0.0 -46.819931,-23.5559529993073,0.0 -46.819959,-23.5559879993073,0.0 -46.81999,-23.5560219993073,0.0 -46.820018,-23.5560689993073,0.0 -46.820028,-23.5561159993073,0.0 -46.820024,-23.5561609993073,0.0 -46.820012,-23.5562139993073,0.0 -46.8200099,-23.5562414993073,0.0 -46.820009,-23.5562535993073,0.0 -46.820008,-23.5562659993073,0.0 -46.820008,-23.5563447993073,0.0 -46.820008,-23.5563669993073,0.0 -46.8200247,-23.5567708993072,0.0 -46.820033,-23.5569819993072,0.0 -46.8200336,-23.5570013993073,0.0 -46.820036,-23.5570869993072,0.0 -46.820046,-23.5571429993072,0.0 -46.82007,-23.5571939993072,0.0 -46.820109,-23.5572329993072,0.0 -46.820156,-23.5572659993072,0.0 -46.820223,-23.5572999993072,0.0 -46.8202455,-23.5573162993072,0.0 -46.820263,-23.5573289993072,0.0 -46.82029,-23.5573639993072,0.0 -46.8202953,-23.5573720993072,0.0 -46.8203542,-23.5574342993072,0.0 -46.8204763,-23.5575988993072,0.0 -46.820556,-23.5577139993072,0.0 -46.820592,-23.5577809993072,0.0 -46.820625,-23.5578579993072,0.0 -46.820656,-23.5579399993072,0.0 -46.82069,-23.5580119993072,0.0 -46.820721,-23.5580729993072,0.0 -46.820764,-23.5581199993072,0.0 -46.820802,-23.5581689993072,0.0 -46.82081,-23.5582119993072,0.0 -46.82081,-23.5582539993072,0.0 -46.8207816,-23.5583093993072,0.0 -46.8207391,-23.5584261993072,0.0 -46.820686,-23.5585287993072,0.0 -46.8206258,-23.5587375993072,0.0 -46.820614,-23.5588229993072,0.0 -46.8205745,-23.5588605993072,0.0 -46.820494,-23.5589304993072,0.0 -46.8203179,-23.5591144993072,0.0 -46.8196377,-23.5599478993072,0.0 -46.8191331,-23.5605090993072,0.0 -46.818897,-23.5607709993072,0.0 -46.818728,-23.5609579993072,0.0 -46.818578,-23.5611099993072,0.0 -46.818408,-23.5613039993072,0.0 -46.818263,-23.5614739993071,0.0 -46.8182081,-23.5615459993071,0.0 -46.818176,-23.5615879993071,0.0 -46.8180051,-23.5618675993071,0.0 -46.817873,-23.5621069993071,0.0 -46.817822,-23.5622269993071,0.0 -46.817804,-23.5622989993071,0.0 -46.81781,-23.5623999993071,0.0 -46.817831,-23.5625929993071,0.0 -46.817871,-23.5628549993071,0.0 -46.817914,-23.5632139993071,0.0 -46.817974,-23.5636259993071,0.0 -46.8180192,-23.5639784993071,0.0 -46.8180331,-23.5640851993071,0.0 -46.818078,-23.5644289993071,0.0 -46.818179,-23.5652719993071,0.0 -46.818185,-23.5654189993071,0.0 -46.818165,-23.5655449993071,0.0 -46.818118,-23.5656859993071,0.0 -46.818034,-23.565854999307,0.0 -46.8179229,-23.565989999307,0.0 -46.8177451,-23.566259399307,0.0 -46.8176822,-23.566354499307,0.0 -46.8175194,-23.566623499307,0.0 -46.8174062,-23.566782699307,0.0 -46.8173283,-23.566920799307,0.0 -46.8166944,-23.567816799307,0.0 -46.8164915,-23.568080999307,0.0 -46.8164764,-23.568100599307,0.0 -46.8164695,-23.568108099307,0.0 -46.8164402,-23.568139899307,0.0 -46.8163525,-23.568235199307,0.0 -46.8160742,-23.568537699307,0.0 -46.816014,-23.568521699307,0.0 -46.8157451,-23.568654499307,0.0 -46.8156583,-23.568704899307,0.0 -46.8155716,-23.568755299307,0.0 -46.8154212,-23.568811899307,0.0 -46.8152744,-23.568907499307,0.0 -46.8152467,-23.568920699307,0.0 -46.8151064,-23.568987499307,0.0 -46.8150674,-23.569008299307,0.0 -46.8149896,-23.569049799307,0.0 -46.8149115,-23.569091499307,0.0 -46.8148815,-23.569107499307,0.0 -46.8148668,-23.569116899307,0.0 -46.8146904,-23.569229599307,0.0 -46.8146297,-23.569273799307,0.0 -46.814569,-23.569317999307,0.0 -46.8145064,-23.569374699307,0.0 -46.8144523,-23.569422099307,0.0 -46.8144338,-23.569438399307,0.0 -46.814402,-23.569514399307,0.0 -46.8143896,-23.569601199307,0.0 -46.8143914,-23.569701999307,0.0 -46.8144002,-23.569754999307,0.0 -46.814409,-23.569807999307,0.0 -46.814419,-23.569837999307,0.0 -46.814429,-23.569867999307,0.0 -46.814455,-23.569922999307,0.0 -46.814508,-23.570009999307,0.0 -46.814535,-23.570054499307,0.0 -46.814562,-23.5700989993069,0.0 -46.814606,-23.5702019993069,0.0 -46.814659,-23.570328999307,0.0 -46.8146768,-23.5703594993069,0.0 -46.814772,-23.5705226993069,0.0 -46.8148016,-23.5705733993069,0.0 -46.814886,-23.5707319993069,0.0 -46.814971,-23.5708799993069,0.0 -46.814998,-23.5709399993069,0.0 -46.8150048,-23.5709919993069,0.0 -46.8149846,-23.5710739993069,0.0 -46.8149658,-23.5711221993069,0.0 -46.8148896,-23.5712291993069,0.0 -46.8148494,-23.5712840993069,0.0 -46.8148146,-23.5713442993069,0.0 -46.8147571,-23.5714084993069,0.0 -46.814725,-23.5714352993069,0.0 -46.8146848,-23.5714606993069,0.0 -46.8146621,-23.5715154993069,0.0 -46.814626,-23.5715810993069,0.0 -46.8146012,-23.5716519993069,0.0 -46.8145972,-23.5717242993069,0.0 -46.8146146,-23.5718125993069,0.0 -46.8146133,-23.5718754993069,0.0 -46.8146133,-23.5719583993069,0.0 -46.814617,-23.5720839993069,0.0 -46.81461,-23.5721979993069,0.0 -46.8146111,-23.5722159993069,0.0 -46.814617,-23.5723159993069,0.0 -46.814632,-23.5724009993069,0.0 -46.814675,-23.5725749993069,0.0 -46.8147036,-23.5726565993069,0.0 -46.814739,-23.5727119993069,0.0 -46.814791,-23.5727649993069,0.0 -46.81487,-23.5728139993069,0.0 -46.8149493,-23.5728556993069,0.0 -46.814986,-23.5728749993069,0.0 -46.815175,-23.5729629993069,0.0 -46.815252,-23.5730039993069,0.0 -46.815302,-23.5730449993069,0.0 -46.8153307,-23.5730856993069,0.0 -46.81534,-23.5730989993069,0.0 -46.81537,-23.5731599993069,0.0 -46.8153853,-23.5732197993069,0.0 -46.815401,-23.5732809993069,0.0 -46.815441,-23.5734549993069,0.0 -46.8154782,-23.5736216993069,0.0 -46.815491,-23.5736789993069,0.0 -46.815506,-23.5738168993069,0.0 -46.815506,-23.5738999993069,0.0 -46.815491,-23.5739979993069,0.0 -46.8154713,-23.5740401993069,0.0 -46.8153907,-23.5741102993069,0.0 -46.8153438,-23.5741891993069,0.0 -46.8152957,-23.5742601993069,0.0 -46.8152635,-23.5743002993069,0.0 -46.8151873,-23.5743604993069,0.0 -46.8151404,-23.5743898993069,0.0 -46.8151083,-23.5744327993069,0.0 -46.8151043,-23.5744929993069,0.0 -46.8151217,-23.5745317993069,0.0 -46.8151384,-23.5745832993068,0.0 -46.815171,-23.5746449993069,0.0 -46.815209,-23.5747259993068,0.0 -46.815306,-23.5748699993068,0.0 -46.815387,-23.5749999993068,0.0 -46.815422,-23.5750439993068,0.0 -46.815461,-23.5751029993068,0.0 -46.8154938,-23.5751922993068,0.0 -46.815534,-23.5753009993068,0.0 -46.815578,-23.5754619993068,0.0 -46.815615,-23.5755929993068,0.0 -46.815701,-23.5757749993068,0.0 -46.815769,-23.5759009993068,0.0 -46.815799,-23.5759869993068,0.0 -46.815813,-23.5760429993068,0.0 -46.815806,-23.5760949993068,0.0 -46.815783,-23.5761439993068,0.0 -46.815722,-23.5762289993068,0.0 -46.815635,-23.5763429993068,0.0 -46.81559,-23.5764039993068,0.0 -46.815583,-23.5764244993068,0.0 -46.815576,-23.5764449993068,0.0 -46.815576,-23.5764799993068,0.0 -46.815589,-23.5765239993068,0.0 -46.815631,-23.5765719993068,0.0 -46.8156852,-23.5766450993068,0.0 -46.815777,-23.5767349993068,0.0 -46.81598,-23.5769189993068,0.0 -46.816061,-23.5770279993068,0.0 -46.8161127,-23.5771096993068,0.0 -46.816182,-23.5772799993068,0.0 -46.816186,-23.5773189993068,0.0 -46.816187,-23.5774119993068,0.0 -46.816287,-23.5775459993068,0.0 -46.8165025,-23.5778048993068,0.0 -46.8165788,-23.5778965993068,0.0 -46.816709,-23.5780529993068,0.0 -46.816781,-23.5781129993068,0.0 -46.816861,-23.5781679993068,0.0 -46.816971,-23.5782229993068,0.0 -46.8170267,-23.5782659993068,0.0 -46.817083,-23.5783398993068,0.0 -46.8170906,-23.5783498993068,0.0 -46.8171408,-23.5784157993068,0.0 -46.817233,-23.5785369993068,0.0 -46.817268,-23.5786249993068,0.0 -46.817289,-23.5787009993068,0.0 -46.817293,-23.5787749993068,0.0 -46.817282,-23.5789389993068,0.0 -46.81729,-23.5792649993067,0.0 -46.817283,-23.5795249993067,0.0 -46.81729,-23.5797339993067,0.0 -46.8172913,-23.5798844993067,0.0 -46.817301,-23.5800429993067,0.0 -46.81732,-23.5800949993067,0.0 -46.817354,-23.5801479993067,0.0 -46.8173709,-23.5801604993067,0.0 -46.8174,-23.5801819993067,0.0 -46.817458,-23.5802139993067,0.0 -46.817575,-23.5802669993067,0.0 -46.817642,-23.5803149993067,0.0 -46.8176885,-23.5803746993067,0.0 -46.817695,-23.5803829993067,0.0 -46.817727,-23.5804649993067,0.0 -46.8177445,-23.5805064993067,0.0 -46.817762,-23.5805479993067,0.0 -46.817799,-23.5806049993067,0.0 -46.817865,-23.5806679993067,0.0 -46.817944,-23.5807249993067,0.0 -46.817994,-23.5807569993067,0.0 -46.818004,-23.5807819993067,0.0 -46.818006,-23.5808139993067,0.0 -46.81799,-23.5808429993067,0.0 -46.817964,-23.5808789993067,0.0 -46.817803,-23.5810309993067,0.0 -46.81769,-23.5811379993067,0.0 -46.817664,-23.5811829993067,0.0 -46.81765,-23.5812309993067,0.0 -46.81765,-23.5812819993067,0.0 -46.81765,-23.5813999993067,0.0 -46.817643,-23.5814659993067,0.0 -46.817613,-23.5815249993067,0.0 -46.817574,-23.5815669993067,0.0 -46.8175167,-23.5816112993067,0.0 -46.817445,-23.5816599993067,0.0 -46.81736,-23.5817819993067,0.0 -46.8173356,-23.5818468993067,0.0 -46.8173323,-23.5818558993067,0.0 -46.817343,-23.5819319993067,0.0 -46.817443,-23.5821469993067,0.0 -46.81752,-23.5822679993067,0.0 -46.8176263,-23.5824311993067,0.0 -46.817632,-23.5824399993067,0.0 -46.8177586,-23.5825846993067,0.0 -46.817827,-23.5826629993067,0.0 -46.818048,-23.5828379993067,0.0 -46.8183046,-23.5829895993067,0.0 -46.8183377,-23.5830091993067,0.0 -46.8183868,-23.5830317993067,0.0 -46.81899,-23.5833069993067,0.0 -46.8193008,-23.5834491993067,0.0 -46.8193876,-23.5834889993067,0.0 -46.819722,-23.5836419993066,0.0 -46.8201931,-23.5838640993066,0.0 -46.820443,-23.5839819993066,0.0 -46.820904,-23.5841489993066,0.0 -46.8212473,-23.5842547993066,0.0 -46.821388,-23.5842859993066,0.0 -46.8214851,-23.5843106993066,0.0 -46.8214955,-23.5841694993066,0.0 -46.8216336,-23.5840620993066,0.0 -46.8218079,-23.5840000993066,0.0 -46.8220054,-23.5839148993066,0.0 -46.8222262,-23.5839380993066,0.0 -46.8225515,-23.5839303993066,0.0 -46.8227142,-23.5839690993066,0.0 -46.8229079,-23.5839845993066,0.0 -46.8234037,-23.5839922993066,0.0 -46.8238531,-23.5839184993066,0.0 -46.8240098,-23.5839012993066,0.0 -46.824131,-23.5838990993066,0.0 -46.8243587,-23.5838894993066,0.0 -46.8244979,-23.5838851993066,0.0 -46.824553,-23.5838612993067,0.0 -46.8246081,-23.5838373993066,0.0 -46.8247175,-23.5838656993066,0.0 -46.8248147,-23.5838545993066,0.0 -46.8248564,-23.5837239993066,0.0 -46.8248726,-23.5836986993066,0.0 -46.8249204,-23.5836238993067,0.0 -46.8249624,-23.5835295993067,0.0 -46.8249835,-23.5834270993067,0.0 -46.825122,-23.5833639993067,0.0 -46.8252314,-23.5833166993067,0.0 -46.82527,-23.5832999993067,0.0 -46.825351,-23.5832434993067,0.0 -46.825432,-23.5831869993067,0.0 -46.82556,-23.5830669993067,0.0 -46.825701,-23.5828929993067,0.0 -46.8258787,-23.5827451993067,0.0 -46.8258516,-23.5823655993067,0.0 -46.8258528,-23.5823649993067,0.0 -46.8262487,-23.5821726993067,0.0 -46.8262583,-23.5821679993067,0.0 -46.8262805,-23.5821542993067,0.0 -46.826519,-23.5820069993067,0.0 -46.8265952,-23.5819743993067,0.0 -46.8272133,-23.5818377993067,0.0 -46.8272881,-23.5818212993067,0.0 -46.827312,-23.5818159993067,0.0 -46.8274242,-23.5818000993067,0.0 -46.8274635,-23.5817945993067,0.0 -46.8274795,-23.5817922993067,0.0 -46.8281487,-23.5816976993067,0.0 -46.8281504,-23.5816974993067,0.0 -46.828173,-23.5816941993067,0.0 -46.829021,-23.5815709993067,0.0 -46.829569,-23.5814149993067,0.0 -46.829979,-23.5812729993067,0.0 -46.830226,-23.5811429993067,0.0 -46.830397,-23.5810169993067,0.0 -46.8305,-23.5808789993067,0.0 -46.830593,-23.5806709993067,0.0 -46.830708,-23.5803739993067,0.0 -46.830792,-23.5801529993067,0.0 -46.830861,-23.5799929993067,0.0 -46.830983,-23.5797889993067,0.0 -46.831166,-23.5795569993067,0.0 -46.831429,-23.5792059993068,0.0 -46.831641,-23.5789339993068,0.0 -46.831806,-23.5787649993068,0.0 -46.832024,-23.5785679993068,0.0 -46.832203,-23.5783989993068,0.0 -46.832402,-23.5782549993068,0.0 -46.8324231,-23.5782388993068,0.0 -46.832749,-23.5779899993068,0.0 -46.8328,-23.5779509993068,0.0 -46.83325,-23.5776409993068,0.0 -46.833706,-23.5773669993068,0.0 -46.833905,-23.5772409993068,0.0 -46.834117,-23.5771359993068,0.0 -46.834362,-23.5770239993068,0.0 -46.834466,-23.5769389993068,0.0 -46.834513,-23.5768744993068,0.0 -46.8345365,-23.5768421993068,0.0 -46.83456,-23.5768099993068,0.0 -46.8345626,-23.5768063993068,0.0 -46.834621,-23.5767249993068,0.0 -46.834606,-23.5766289993068,0.0 -46.83489,-23.5767659993068,0.0 -46.8351682,-23.5769085993068,0.0 -46.8355537,-23.5770623993068,0.0 -46.8356581,-23.5771039993068,0.0 -46.8356646,-23.5771051993068,0.0 -46.8356963,-23.5771111993068,0.0</coordinates>
</LinearRing>
</outerBoundaryIs>
</Polygon>
</MultiGeometry>
</Placemark>
</Folder>
</Document></kml>
