<?xml version='1.0' encoding='UTF-8'?>
<kml xmlns:xsd="http://www.w3.org/2001/XMLSchema" xmlns:gx="http://www.google.com/kml/ext/2.2" xmlns:atom="http://www.w3.org/2005/Atom" xmlns="http://www.opengis.net/kml/2.2">
<Document>
<name>jumirim_3525854_localidades_2022</name>
<visibility>1</visibility>
<Schema name="Núcleos Urbanos" id="kml_schema_ft_Núcleos_Urbanos">
<SimpleField type="xsd:string" name="CD_UF">
<displayName>CD_UF</displayName>
</SimpleField>
<SimpleField type="xsd:string" name="NM_UF">
<displayName>NM_UF</displayName>
</SimpleField>
<SimpleField type="xsd:string" name="SIGLA_UF">
<displayName>SIGLA_UF</displayName>
</SimpleField>
<SimpleField type="xsd:string" name="CD_MUN">
<displayName>CD_MUN</displayName>
</SimpleField>
<SimpleField type="xsd:string" name="NM_MUN">
<displayName>NM_MUN</displayName>
</SimpleField>
<SimpleField type="xsd:string" name="CD_RGINT">
<displayName>CD_RGINT</displayName>
</SimpleField>
<SimpleField type="xsd:string" name="NM_RGINT">
<displayName>NM_RGINT</displayName>
</SimpleField>
<SimpleField type="xsd:string" name="CD_RGI">
<displayName>CD_RGI</displayName>
</SimpleField>
<SimpleField type="xsd:string" name="NM_RGI">
<displayName>NM_RGI</displayName>
</SimpleField>
<SimpleField type="xsd:string" name="CT_LOCALIDADE">
<displayName>CT_LOCALIDADE</displayName>
</SimpleField>
<SimpleField type="xsd:string" name="CD_LOCALIDADE">
<displayName>CD_LOCALIDADE</displayName>
</SimpleField>
<SimpleField type="xsd:string" name="NM_LOCALIDADE">
<displayName>NM_LOCALIDADE</displayName>
</SimpleField>
<SimpleField type="xsd:string" name="LAT_LOCALIDADE">
<displayName>LAT_LOCALIDADE</displayName>
</SimpleField>
<SimpleField type="xsd:string" name="LONG_LOCALIDADE">
<displayName>LONG_LOCALIDADE</displayName>
</SimpleField>
</Schema>
<Schema name="01. Cidade" id="kml_schema_ft_01._Cidade">
<SimpleField type="xsd:string" name="CD_UF">
<displayName>CD_UF</displayName>
</SimpleField>
<SimpleField type="xsd:string" name="NM_UF">
<displayName>NM_UF</displayName>
</SimpleField>
<SimpleField type="xsd:string" name="SIGLA_UF">
<displayName>SIGLA_UF</displayName>
</SimpleField>
<SimpleField type="xsd:string" name="CD_MUN">
<displayName>CD_MUN</displayName>
</SimpleField>
<SimpleField type="xsd:string" name="NM_MUN">
<displayName>NM_MUN</displayName>
</SimpleField>
<SimpleField type="xsd:string" name="CD_RGINT">
<displayName>CD_RGINT</displayName>
</SimpleField>
<SimpleField type="xsd:string" name="NM_RGINT">
<displayName>NM_RGINT</displayName>
</SimpleField>
<SimpleField type="xsd:string" name="CD_RGI">
<displayName>CD_RGI</displayName>
</SimpleField>
<SimpleField type="xsd:string" name="NM_RGI">
<displayName>NM_RGI</displayName>
</SimpleField>
<SimpleField type="xsd:string" name="CT_LOCALIDADE">
<displayName>CT_LOCALIDADE</displayName>
</SimpleField>
<SimpleField type="xsd:string" name="SCT_LOCALIDADE">
<displayName>SCT_LOCALIDADE</displayName>
</SimpleField>
<SimpleField type="xsd:string" name="CD_LOCALIDADE">
<displayName>CD_LOCALIDADE</displayName>
</SimpleField>
<SimpleField type="xsd:string" name="NM_LOCALIDADE">
<displayName>NM_LOCALIDADE</displayName>
</SimpleField>
<SimpleField type="xsd:string" name="LAT_LOCALIDADE">
<displayName>LAT_LOCALIDADE</displayName>
</SimpleField>
<SimpleField type="xsd:string" name="LONG_LOCALIDADE">
<displayName>LONG_LOCALIDADE</displayName>
</SimpleField>
</Schema>
<Schema name="Município" id="kml_schema_ft_Município">
<SimpleField type="xsd:string" name="CD_UF">
<displayName>CD_UF</displayName>
</SimpleField>
<SimpleField type="xsd:string" name="NM_UF">
<displayName>NM_UF</displayName>
</SimpleField>
<SimpleField type="xsd:string" name="CD_MUN">
<displayName>CD_MUN</displayName>
</SimpleField>
<SimpleField type="xsd:string" name="NM_MUN">
<displayName>NM_MUN</displayName>
</SimpleField>
<SimpleField type="xsd:string" name="CD_RGINT">
<displayName>CD_RGINT</displayName>
</SimpleField>
<SimpleField type="xsd:string" name="NM_RGINT">
<displayName>NM_RGINT</displayName>
</SimpleField>
<SimpleField type="xsd:string" name="CD_RGI">
<displayName>CD_RGI</displayName>
</SimpleField>
<SimpleField type="xsd:string" name="NM_RGI">
<displayName>NM_RGI</displayName>
</SimpleField>
</Schema>
<Folder id="01. Cidade">
<name>01. Cidade</name>
<Folder id="01.03. Sede Municipal">
<name>01.03. Sede Municipal</name>
<Placemark id="01.03. Sede Municipal">
<name>Jumirim [3525854]</name>
<visibility>1</visibility>
<snippet> </snippet>
<description>&lt;center&gt;&lt;table&gt;&lt;tr&gt;&lt;th colspan='2' align='center'&gt;&lt;em&gt;Atributos&lt;/em&gt;&lt;/th&gt;&lt;/tr&gt;&lt;tr bgcolor="#E3E3F3"&gt;
&lt;th&gt;CD_UF&lt;/th&gt;
&lt;td&gt;35&lt;/td&gt;
&lt;/tr&gt;&lt;tr bgcolor=""&gt;
&lt;th&gt;NM_UF&lt;/th&gt;
&lt;td&gt;São Paulo&lt;/td&gt;
&lt;/tr&gt;&lt;tr bgcolor="#E3E3F3"&gt;
&lt;th&gt;SIGLA_UF&lt;/th&gt;
&lt;td&gt;SP&lt;/td&gt;
&lt;/tr&gt;&lt;tr bgcolor=""&gt;
&lt;th&gt;CD_MUN&lt;/th&gt;
&lt;td&gt;3525854&lt;/td&gt;
&lt;/tr&gt;&lt;tr bgcolor="#E3E3F3"&gt;
&lt;th&gt;NM_MUN&lt;/th&gt;
&lt;td&gt;Jumirim&lt;/td&gt;
&lt;/tr&gt;&lt;tr bgcolor=""&gt;
&lt;th&gt;CD_RGINT&lt;/th&gt;
&lt;td&gt;3502&lt;/td&gt;
&lt;/tr&gt;&lt;tr bgcolor="#E3E3F3"&gt;
&lt;th&gt;NM_RGINT&lt;/th&gt;
&lt;td&gt;Sorocaba&lt;/td&gt;
&lt;/tr&gt;&lt;tr bgcolor=""&gt;
&lt;th&gt;CD_RGI&lt;/th&gt;
&lt;td&gt;350003&lt;/td&gt;
&lt;/tr&gt;&lt;tr bgcolor="#E3E3F3"&gt;
&lt;th&gt;NM_RGI&lt;/th&gt;
&lt;td&gt;Sorocaba&lt;/td&gt;
&lt;/tr&gt;&lt;tr bgcolor=""&gt;
&lt;th&gt;CT_LOCALIDADE&lt;/th&gt;
&lt;td&gt;Cidade&lt;/td&gt;
&lt;/tr&gt;&lt;tr bgcolor="#E3E3F3"&gt;
&lt;th&gt;SCT_LOCALIDADE&lt;/th&gt;
&lt;td&gt;Sede Municipal&lt;/td&gt;
&lt;/tr&gt;&lt;tr bgcolor=""&gt;
&lt;th&gt;CD_LOCALIDADE&lt;/th&gt;
&lt;td&gt;3525854&lt;/td&gt;
&lt;/tr&gt;&lt;tr bgcolor="#E3E3F3"&gt;
&lt;th&gt;NM_LOCALIDADE&lt;/th&gt;
&lt;td&gt;Jumirim&lt;/td&gt;
&lt;/tr&gt;&lt;tr bgcolor=""&gt;
&lt;th&gt;LAT_LOCALIDADE&lt;/th&gt;
&lt;td&gt;-23.0862&lt;/td&gt;
&lt;/tr&gt;&lt;tr bgcolor="#E3E3F3"&gt;
&lt;th&gt;LONG_LOCALIDADE&lt;/th&gt;
&lt;td&gt;-47.7844&lt;/td&gt;
&lt;/tr&gt;&lt;/table&gt;&lt;/center&gt;</description>
<Style>
<IconStyle>
<color>ff00aaff</color>
<scale>1.0</scale>
<Icon>
<href>http://maps.google.com/mapfiles/kml/shapes/placemark_circle.png</href>
</Icon>
</IconStyle>
<LabelStyle>
<scale>1.0</scale>
</LabelStyle>
<LineStyle>
<color>ffffffff</color>
<width>3</width>
<gx:labelVisibility>1</gx:labelVisibility>
</LineStyle>
<PolyStyle>
<color>00ffffff</color>
</PolyStyle>
</Style>
<ExtendedData>
<SchemaData schemaUrl="#kml_schema_ft_01._Cidade">
<SimpleData name="CD_UF">35</SimpleData>
<SimpleData name="NM_UF">São Paulo</SimpleData>
<SimpleData name="SIGLA_UF">SP</SimpleData>
<SimpleData name="CD_MUN">3525854</SimpleData>
<SimpleData name="NM_MUN">Jumirim</SimpleData>
<SimpleData name="CD_RGINT">3502</SimpleData>
<SimpleData name="NM_RGINT">Sorocaba</SimpleData>
<SimpleData name="CD_RGI">350003</SimpleData>
<SimpleData name="NM_RGI">Sorocaba</SimpleData>
<SimpleData name="CT_LOCALIDADE">Cidade</SimpleData>
<SimpleData name="SCT_LOCALIDADE">Sede Municipal</SimpleData>
<SimpleData name="CD_LOCALIDADE">3525854</SimpleData>
<SimpleData name="NM_LOCALIDADE">Jumirim</SimpleData>
<SimpleData name="LAT_LOCALIDADE">-23.0862</SimpleData>
<SimpleData name="LONG_LOCALIDADE">-47.7844</SimpleData>
</SchemaData>
</ExtendedData>
<Point>
<extrude>0</extrude>
<coordinates>-47.7844,-23.0861999993179,0.0</coordinates>
</Point>
</Placemark>
</Folder>
</Folder>
<Folder id="05. Núcleos Urbanos">
<name>05. Núcleos Urbanos</name>
<Placemark id="localidades">
<name>Jumirim Velho [3525854002]</name>
<visibility>1</visibility>
<snippet> </snippet>
<description>&lt;center&gt;&lt;table&gt;&lt;tr&gt;&lt;th colspan='2' align='center'&gt;&lt;em&gt;Attributes&lt;/em&gt;&lt;/th&gt;&lt;/tr&gt;&lt;tr bgcolor="#E3E3F3"&gt;
&lt;th&gt;CD_UF&lt;/th&gt;
&lt;td&gt;35&lt;/td&gt;
&lt;/tr&gt;&lt;tr bgcolor=""&gt;
&lt;th&gt;NM_UF&lt;/th&gt;
&lt;td&gt;São Paulo&lt;/td&gt;
&lt;/tr&gt;&lt;tr bgcolor="#E3E3F3"&gt;
&lt;th&gt;SIGLA_UF&lt;/th&gt;
&lt;td&gt;SP&lt;/td&gt;
&lt;/tr&gt;&lt;tr bgcolor=""&gt;
&lt;th&gt;CD_MUN&lt;/th&gt;
&lt;td&gt;3525854&lt;/td&gt;
&lt;/tr&gt;&lt;tr bgcolor="#E3E3F3"&gt;
&lt;th&gt;NM_MUN&lt;/th&gt;
&lt;td&gt;Jumirim&lt;/td&gt;
&lt;/tr&gt;&lt;tr bgcolor=""&gt;
&lt;th&gt;CD_RGINT&lt;/th&gt;
&lt;td&gt;3502&lt;/td&gt;
&lt;/tr&gt;&lt;tr bgcolor="#E3E3F3"&gt;
&lt;th&gt;NM_RGINT&lt;/th&gt;
&lt;td&gt;Sorocaba&lt;/td&gt;
&lt;/tr&gt;&lt;tr bgcolor=""&gt;
&lt;th&gt;CD_RGI&lt;/th&gt;
&lt;td&gt;350003&lt;/td&gt;
&lt;/tr&gt;&lt;tr bgcolor="#E3E3F3"&gt;
&lt;th&gt;NM_RGI&lt;/th&gt;
&lt;td&gt;Sorocaba&lt;/td&gt;
&lt;/tr&gt;&lt;tr bgcolor=""&gt;
&lt;th&gt;CT_LOCALIDADE&lt;/th&gt;
&lt;td&gt;Núcleo Urbano&lt;/td&gt;
&lt;/tr&gt;&lt;tr bgcolor="#E3E3F3"&gt;
&lt;th&gt;CD_LOCALIDADE&lt;/th&gt;
&lt;td&gt;3525854002&lt;/td&gt;
&lt;/tr&gt;&lt;tr bgcolor=""&gt;
&lt;th&gt;NM_LOCALIDADE&lt;/th&gt;
&lt;td&gt;Jumirim Velho&lt;/td&gt;
&lt;/tr&gt;&lt;tr bgcolor="#E3E3F3"&gt;
&lt;th&gt;LAT_LOCALIDADE&lt;/th&gt;
&lt;td&gt;-23.1372&lt;/td&gt;
&lt;/tr&gt;&lt;tr bgcolor=""&gt;
&lt;th&gt;LONG_LOCALIDADE&lt;/th&gt;
&lt;td&gt;-47.8086&lt;/td&gt;
&lt;/tr&gt;&lt;/table&gt;&lt;/center&gt;</description>
<Style>
<IconStyle>
<color>ff0000ff</color>
<scale>0.9</scale>
<Icon>
<href>http://maps.google.com/mapfiles/kml/shapes/placemark_circle.png</href>
</Icon>
</IconStyle>
<LabelStyle>
<scale>0.9</scale>
</LabelStyle>
<LineStyle>
<color>72ffffff</color>
<width>1.0</width>
<gx:labelVisibility>1</gx:labelVisibility>
</LineStyle>
<PolyStyle>
<color>66ff54ff</color>
</PolyStyle>
</Style>
<ExtendedData>
<SchemaData schemaUrl="#kml_schema_ft_Núcleos_Urbanos">
<SimpleData name="CD_UF">35</SimpleData>
<SimpleData name="NM_UF">São Paulo</SimpleData>
<SimpleData name="SIGLA_UF">SP</SimpleData>
<SimpleData name="CD_MUN">3525854</SimpleData>
<SimpleData name="NM_MUN">Jumirim</SimpleData>
<SimpleData name="CD_RGINT">3502</SimpleData>
<SimpleData name="NM_RGINT">Sorocaba</SimpleData>
<SimpleData name="CD_RGI">350003</SimpleData>
<SimpleData name="NM_RGI">Sorocaba</SimpleData>
<SimpleData name="CT_LOCALIDADE">Núcleo Urbano</SimpleData>
<SimpleData name="CD_LOCALIDADE">3525854002</SimpleData>
<SimpleData name="NM_LOCALIDADE">Jumirim Velho</SimpleData>
<SimpleData name="LAT_LOCALIDADE">-23.1372</SimpleData>
<SimpleData name="LONG_LOCALIDADE">-47.8086</SimpleData>
</SchemaData>
</ExtendedData>
<Point>
<extrude>0</extrude>
<coordinates>-47.8085916529683,-23.13722515608,0.0</coordinates>
</Point>
</Placemark>
<Placemark id="localidades">
<name>Vicinal Ferroligas [3525854003]</name>
<visibility>1</visibility>
<snippet> </snippet>
<description>&lt;center&gt;&lt;table&gt;&lt;tr&gt;&lt;th colspan='2' align='center'&gt;&lt;em&gt;Attributes&lt;/em&gt;&lt;/th&gt;&lt;/tr&gt;&lt;tr bgcolor="#E3E3F3"&gt;
&lt;th&gt;CD_UF&lt;/th&gt;
&lt;td&gt;35&lt;/td&gt;
&lt;/tr&gt;&lt;tr bgcolor=""&gt;
&lt;th&gt;NM_UF&lt;/th&gt;
&lt;td&gt;São Paulo&lt;/td&gt;
&lt;/tr&gt;&lt;tr bgcolor="#E3E3F3"&gt;
&lt;th&gt;SIGLA_UF&lt;/th&gt;
&lt;td&gt;SP&lt;/td&gt;
&lt;/tr&gt;&lt;tr bgcolor=""&gt;
&lt;th&gt;CD_MUN&lt;/th&gt;
&lt;td&gt;3525854&lt;/td&gt;
&lt;/tr&gt;&lt;tr bgcolor="#E3E3F3"&gt;
&lt;th&gt;NM_MUN&lt;/th&gt;
&lt;td&gt;Jumirim&lt;/td&gt;
&lt;/tr&gt;&lt;tr bgcolor=""&gt;
&lt;th&gt;CD_RGINT&lt;/th&gt;
&lt;td&gt;3502&lt;/td&gt;
&lt;/tr&gt;&lt;tr bgcolor="#E3E3F3"&gt;
&lt;th&gt;NM_RGINT&lt;/th&gt;
&lt;td&gt;Sorocaba&lt;/td&gt;
&lt;/tr&gt;&lt;tr bgcolor=""&gt;
&lt;th&gt;CD_RGI&lt;/th&gt;
&lt;td&gt;350003&lt;/td&gt;
&lt;/tr&gt;&lt;tr bgcolor="#E3E3F3"&gt;
&lt;th&gt;NM_RGI&lt;/th&gt;
&lt;td&gt;Sorocaba&lt;/td&gt;
&lt;/tr&gt;&lt;tr bgcolor=""&gt;
&lt;th&gt;CT_LOCALIDADE&lt;/th&gt;
&lt;td&gt;Núcleo Urbano&lt;/td&gt;
&lt;/tr&gt;&lt;tr bgcolor="#E3E3F3"&gt;
&lt;th&gt;CD_LOCALIDADE&lt;/th&gt;
&lt;td&gt;3525854003&lt;/td&gt;
&lt;/tr&gt;&lt;tr bgcolor=""&gt;
&lt;th&gt;NM_LOCALIDADE&lt;/th&gt;
&lt;td&gt;Vicinal Ferroligas&lt;/td&gt;
&lt;/tr&gt;&lt;tr bgcolor="#E3E3F3"&gt;
&lt;th&gt;LAT_LOCALIDADE&lt;/th&gt;
&lt;td&gt;-23.1406&lt;/td&gt;
&lt;/tr&gt;&lt;tr bgcolor=""&gt;
&lt;th&gt;LONG_LOCALIDADE&lt;/th&gt;
&lt;td&gt;-47.7984&lt;/td&gt;
&lt;/tr&gt;&lt;/table&gt;&lt;/center&gt;</description>
<Style>
<IconStyle>
<color>ff0000ff</color>
<scale>0.9</scale>
<Icon>
<href>http://maps.google.com/mapfiles/kml/shapes/placemark_circle.png</href>
</Icon>
</IconStyle>
<LabelStyle>
<scale>0.9</scale>
</LabelStyle>
<LineStyle>
<color>72ffffff</color>
<width>1.0</width>
<gx:labelVisibility>1</gx:labelVisibility>
</LineStyle>
<PolyStyle>
<color>66ff54ff</color>
</PolyStyle>
</Style>
<ExtendedData>
<SchemaData schemaUrl="#kml_schema_ft_Núcleos_Urbanos">
<SimpleData name="CD_UF">35</SimpleData>
<SimpleData name="NM_UF">São Paulo</SimpleData>
<SimpleData name="SIGLA_UF">SP</SimpleData>
<SimpleData name="CD_MUN">3525854</SimpleData>
<SimpleData name="NM_MUN">Jumirim</SimpleData>
<SimpleData name="CD_RGINT">3502</SimpleData>
<SimpleData name="NM_RGINT">Sorocaba</SimpleData>
<SimpleData name="CD_RGI">350003</SimpleData>
<SimpleData name="NM_RGI">Sorocaba</SimpleData>
<SimpleData name="CT_LOCALIDADE">Núcleo Urbano</SimpleData>
<SimpleData name="CD_LOCALIDADE">3525854003</SimpleData>
<SimpleData name="NM_LOCALIDADE">Vicinal Ferroligas</SimpleData>
<SimpleData name="LAT_LOCALIDADE">-23.1406</SimpleData>
<SimpleData name="LONG_LOCALIDADE">-47.7984</SimpleData>
</SchemaData>
</ExtendedData>
<Point>
<extrude>0</extrude>
<coordinates>-47.7983871836734,-23.1406481625819,0.0</coordinates>
</Point>
</Placemark>
</Folder>
<Folder id="13. Referência">
<name>13. Referência</name>
<Placemark id="13. Referência">
<name>Jumirim [3525854]</name>
<visibility>1</visibility>
<snippet> </snippet>
<description>&lt;center&gt;&lt;table&gt;&lt;tr&gt;&lt;th colspan='2' align='center'&gt;&lt;em&gt;Attributes&lt;/em&gt;&lt;/th&gt;&lt;/tr&gt;&lt;tr bgcolor="#E3E3F3"&gt;
&lt;th&gt;CD_UF&lt;/th&gt;
&lt;td&gt;35&lt;/td&gt;
&lt;/tr&gt;&lt;tr bgcolor=""&gt;
&lt;th&gt;NM_UF&lt;/th&gt;
&lt;td&gt;São Paulo&lt;/td&gt;
&lt;/tr&gt;&lt;tr bgcolor="#E3E3F3"&gt;
&lt;th&gt;CD_MUN&lt;/th&gt;
&lt;td&gt;3525854&lt;/td&gt;
&lt;/tr&gt;&lt;tr bgcolor=""&gt;
&lt;th&gt;NM_MUN&lt;/th&gt;
&lt;td&gt;Jumirim&lt;/td&gt;
&lt;/tr&gt;&lt;tr bgcolor="#E3E3F3"&gt;
&lt;th&gt;CD_RGINT&lt;/th&gt;
&lt;td&gt;3502&lt;/td&gt;
&lt;/tr&gt;&lt;tr bgcolor=""&gt;
&lt;th&gt;NM_RGINT&lt;/th&gt;
&lt;td&gt;Sorocaba&lt;/td&gt;
&lt;/tr&gt;&lt;tr bgcolor="#E3E3F3"&gt;
&lt;th&gt;CD_RGI&lt;/th&gt;
&lt;td&gt;350003&lt;/td&gt;
&lt;/tr&gt;&lt;tr bgcolor=""&gt;
&lt;th&gt;NM_RGI&lt;/th&gt;
&lt;td&gt;Sorocaba&lt;/td&gt;
&lt;/tr&gt;&lt;/table&gt;&lt;/center&gt;</description>
<Style>
<IconStyle>
<scale>0.7</scale>
</IconStyle>
<LabelStyle>
<scale>0.7</scale>
</LabelStyle>
<LineStyle>
<color>ffffffff</color>
<width>3</width>
<gx:labelVisibility>1</gx:labelVisibility>
</LineStyle>
<PolyStyle>
<color>00ffffff</color>
</PolyStyle>
</Style>
<ExtendedData>
<SchemaData schemaUrl="#kml_schema_ft_Município">
<SimpleData name="CD_UF">35</SimpleData>
<SimpleData name="NM_UF">São Paulo</SimpleData>
<SimpleData name="CD_MUN">3525854</SimpleData>
<SimpleData name="NM_MUN">Jumirim</SimpleData>
<SimpleData name="CD_RGINT">3502</SimpleData>
<SimpleData name="NM_RGINT">Sorocaba</SimpleData>
<SimpleData name="CD_RGI">350003</SimpleData>
<SimpleData name="NM_RGI">Sorocaba</SimpleData>
</SchemaData>
</ExtendedData>
<MultiGeometry>
<Polygon>
<extrude>0</extrude>
<tessellate>1</tessellate>
<outerBoundaryIs>
<LinearRing>
<coordinates>-47.8063515,-23.0605019993185,0.0 -47.7918814,-23.0489984993187,0.0 -47.7904506,-23.0501673993187,0.0 -47.7891688,-23.0508348993187,0.0 -47.7857286,-23.0521166993186,0.0 -47.7829957,-23.0530115993186,0.0 -47.7810824,-23.0540067993186,0.0 -47.7803876,-23.0545451993186,0.0 -47.7793749,-23.0557078993186,0.0 -47.7777337,-23.0581912993185,0.0 -47.7769667,-23.0588122993185,0.0 -47.7751564,-23.0597952993185,0.0 -47.7741786,-23.0607703993185,0.0 -47.7731942,-23.0623756993184,0.0 -47.7713849,-23.0659772993183,0.0 -47.769555,-23.0680574993183,0.0 -47.7665624,-23.0718742993182,0.0 -47.7640034,-23.0743815993181,0.0 -47.7613637,-23.0764764993181,0.0 -47.7605071,-23.0774877993181,0.0 -47.7593861,-23.079249399318,0.0 -47.7562356,-23.0850245993179,0.0 -47.7541456,-23.0877290993178,0.0 -47.7509244,-23.0911254993178,0.0 -47.7501418,-23.0918211993177,0.0 -47.7498198,-23.0926960993177,0.0 -47.7496031,-23.0937225993177,0.0 -47.7496341,-23.0953478993177,0.0 -47.7495215,-23.0966580993176,0.0 -47.7489646,-23.0986980993176,0.0 -47.7490071,-23.1043306993175,0.0 -47.7490115,-23.1049227993174,0.0 -47.7487664,-23.1055712993174,0.0 -47.7483386,-23.1061146993174,0.0 -47.7480733,-23.1069045993174,0.0 -47.7464233,-23.1089805993174,0.0 -47.7463276,-23.1093148993173,0.0 -47.7466648,-23.1100475993173,0.0 -47.7471982,-23.1105335993173,0.0 -47.7472971,-23.1106236993173,0.0 -47.7476781,-23.1109705993173,0.0 -47.7487432,-23.1123353993173,0.0 -47.7491854,-23.1125128993173,0.0 -47.7494498,-23.1127733993173,0.0 -47.7495139,-23.1130132993173,0.0 -47.7494574,-23.1131791993173,0.0 -47.7484104,-23.1135668993173,0.0 -47.7482941,-23.1137159993172,0.0 -47.7482565,-23.1139564993172,0.0 -47.7489093,-23.1146278993172,0.0 -47.7491369,-23.1150495993172,0.0 -47.7493577,-23.1160788993172,0.0 -47.7491964,-23.1169861993172,0.0 -47.7484687,-23.1176723993172,0.0 -47.7482412,-23.1180266993171,0.0 -47.7482948,-23.1187850993171,0.0 -47.7491647,-23.1192851993171,0.0 -47.7494492,-23.1195769993171,0.0 -47.7496579,-23.1200896993171,0.0 -47.7499412,-23.1204704993171,0.0 -47.7505344,-23.1210145993171,0.0 -47.7508169,-23.1211587993171,0.0 -47.7509616,-23.1214315993171,0.0 -47.7510147,-23.1220765993171,0.0 -47.752207,-23.1217773993171,0.0 -47.7529158,-23.1217495993171,0.0 -47.7533075,-23.1218576993171,0.0 -47.7551721,-23.122906899317,0.0 -47.7554959,-23.123213699317,0.0 -47.7559577,-23.124189599317,0.0 -47.7573657,-23.124928499317,0.0 -47.7587414,-23.126216499317,0.0 -47.7591863,-23.126421999317,0.0 -47.7601072,-23.126370999317,0.0 -47.761084,-23.126569499317,0.0 -47.7618618,-23.126359199317,0.0 -47.7625521,-23.126478099317,0.0 -47.7633336,-23.126462999317,0.0 -47.7640113,-23.126682099317,0.0 -47.7644056,-23.1269043993169,0.0 -47.7654052,-23.1271802993169,0.0 -47.7662007,-23.1280208993169,0.0 -47.766543,-23.1288778993169,0.0 -47.7668555,-23.1293478993169,0.0 -47.7673817,-23.1299270993169,0.0 -47.7682071,-23.1304397993169,0.0 -47.7693243,-23.1313208993168,0.0 -47.770417,-23.1327936993168,0.0 -47.7709329,-23.1337429993168,0.0 -47.7718946,-23.1348580993168,0.0 -47.7728345,-23.1357268993168,0.0 -47.7732539,-23.1359357993167,0.0 -47.773371,-23.1359940993167,0.0 -47.774296,-23.1364542993167,0.0 -47.7750967,-23.1366179993167,0.0 -47.7765066,-23.1372345993167,0.0 -47.7771663,-23.1374034993167,0.0 -47.778852,-23.1383554993167,0.0 -47.7798396,-23.1397782993167,0.0 -47.7800048,-23.1401354993166,0.0 -47.7799677,-23.1408093993166,0.0 -47.78068,-23.1419110993166,0.0 -47.781198,-23.1429664993166,0.0 -47.7819831,-23.1440980993166,0.0 -47.7824916,-23.1445991993165,0.0 -47.7829926,-23.1449029993165,0.0 -47.7835888,-23.1450711993165,0.0 -47.7845398,-23.1448575993165,0.0 -47.7856027,-23.1447410993165,0.0 -47.786525,-23.1447898993165,0.0 -47.787365,-23.1451168993165,0.0 -47.7882506,-23.1458746993165,0.0 -47.7888562,-23.1469595993165,0.0 -47.7893972,-23.1482802993165,0.0 -47.7895373,-23.1490969993164,0.0 -47.7893645,-23.1509507993164,0.0 -47.7894712,-23.1517715993164,0.0 -47.7897292,-23.1522573993164,0.0 -47.7906242,-23.1527493993164,0.0 -47.7917108,-23.1530086993164,0.0 -47.7924563,-23.1529291993164,0.0 -47.7931028,-23.1526235993164,0.0 -47.7937088,-23.1519260993164,0.0 -47.7941179,-23.1511309993164,0.0 -47.7942287,-23.1505543993164,0.0 -47.7940272,-23.1484429993165,0.0 -47.7941137,-23.1478608993165,0.0 -47.7943522,-23.1473315993165,0.0 -47.7951653,-23.1464650993165,0.0 -47.7956199,-23.1458820993165,0.0 -47.7996147,-23.1407597993166,0.0 -47.8013849,-23.1389737993167,0.0 -47.8022452,-23.1386288993167,0.0 -47.8033841,-23.1384935993167,0.0 -47.8041309,-23.1385222993167,0.0 -47.8077458,-23.1386614993167,0.0 -47.8087354,-23.1386272993167,0.0 -47.80937,-23.1383867993167,0.0 -47.8108957,-23.1375561993167,0.0 -47.8128631,-23.1372327993167,0.0 -47.8149141,-23.1362625993167,0.0 -47.8158231,-23.1356235993167,0.0 -47.8166585,-23.1348404993168,0.0 -47.8182141,-23.1329757993168,0.0 -47.8189123,-23.1324552993168,0.0 -47.8193483,-23.1321979993168,0.0 -47.8203212,-23.1318456993168,0.0 -47.8213311,-23.1316017993168,0.0 -47.8233355,-23.1313876993168,0.0 -47.8245062,-23.1313658993168,0.0 -47.8260644,-23.1310785993169,0.0 -47.8270137,-23.1307926993169,0.0 -47.8305446,-23.1289148993169,0.0 -47.8332882,-23.1269846993169,0.0 -47.8359621,-23.124719899317,0.0 -47.8362294,-23.124302199317,0.0 -47.8362855,-23.123975199317,0.0 -47.8362643,-23.123584099317,0.0 -47.8359848,-23.122924799317,0.0 -47.8357263,-23.122637699317,0.0 -47.8352604,-23.122400199317,0.0 -47.8347871,-23.122342199317,0.0 -47.834053,-23.122433199317,0.0 -47.8325226,-23.123289199317,0.0 -47.8318272,-23.123581399317,0.0 -47.8309952,-23.123674899317,0.0 -47.8298316,-23.123606199317,0.0 -47.8284611,-23.123384599317,0.0 -47.8264971,-23.123340499317,0.0 -47.825352,-23.123528799317,0.0 -47.8219063,-23.124723699317,0.0 -47.8208782,-23.125343699317,0.0 -47.8201217,-23.125558799317,0.0 -47.8197903,-23.125499099317,0.0 -47.8193494,-23.125203999317,0.0 -47.8189507,-23.124673999317,0.0 -47.8186825,-23.123939599317,0.0 -47.8181129,-23.123300499317,0.0 -47.817589,-23.123154099317,0.0 -47.8169838,-23.123120599317,0.0 -47.8143407,-23.123393299317,0.0 -47.8138912,-23.123265199317,0.0 -47.8134128,-23.122960499317,0.0 -47.8129295,-23.1224424993171,0.0 -47.8126989,-23.1219100993171,0.0 -47.8121837,-23.1184140993171,0.0 -47.8122317,-23.1173484993172,0.0 -47.8124954,-23.1164594993172,0.0 -47.8128684,-23.1158282993172,0.0 -47.8146234,-23.1141691993172,0.0 -47.814761,-23.1138741993172,0.0 -47.814753,-23.1135609993172,0.0 -47.8145068,-23.1132617993173,0.0 -47.8140681,-23.1130917993173,0.0 -47.8132805,-23.1130726993173,0.0 -47.8114638,-23.1134181993173,0.0 -47.8099413,-23.1134441993173,0.0 -47.8083871,-23.1133510993172,0.0 -47.8073871,-23.1130421993173,0.0 -47.806983,-23.1127152993173,0.0 -47.8067773,-23.1122584993173,0.0 -47.8068263,-23.1115984993173,0.0 -47.8071217,-23.1111675993173,0.0 -47.8091389,-23.1089701993174,0.0 -47.8095784,-23.1083784993174,0.0 -47.8096419,-23.1080176993174,0.0 -47.8095381,-23.1076628993174,0.0 -47.8093522,-23.1074334993174,0.0 -47.8076924,-23.1066446993174,0.0 -47.8068303,-23.1061001993174,0.0 -47.806433,-23.1054344993174,0.0 -47.8064258,-23.1051446993174,0.0 -47.806828,-23.1040703993175,0.0 -47.8084328,-23.1010654993175,0.0 -47.8090129,-23.0993604993176,0.0 -47.809014,-23.0993572993176,0.0 -47.8090274,-23.0993179993176,0.0 -47.8094269,-23.0981437993176,0.0 -47.8106249,-23.0965897993176,0.0 -47.8134583,-23.0936524993177,0.0 -47.8146748,-23.0927340993177,0.0 -47.8171112,-23.0915853993177,0.0 -47.8175886,-23.0912522993178,0.0 -47.8199389,-23.0880424993178,0.0 -47.8212138,-23.0859346993179,0.0 -47.8216029,-23.0855028993179,0.0 -47.8223939,-23.0850398993179,0.0 -47.8258497,-23.0842175993179,0.0 -47.8263449,-23.0842197993179,0.0 -47.8269773,-23.0844448993179,0.0 -47.8275933,-23.0849014993179,0.0 -47.8280162,-23.0855222993179,0.0 -47.8285303,-23.0864973993179,0.0 -47.8291492,-23.0882337993178,0.0 -47.8295127,-23.0888081993178,0.0 -47.830028,-23.0891798993178,0.0 -47.8304188,-23.0892868993178,0.0 -47.8308551,-23.0892318993178,0.0 -47.833223,-23.0885288993178,0.0 -47.8356117,-23.0881837993178,0.0 -47.8367411,-23.0878616993178,0.0 -47.8372918,-23.0875475993178,0.0 -47.8383284,-23.0866911993179,0.0 -47.8391199,-23.0857470993179,0.0 -47.8395659,-23.0844971993179,0.0 -47.839478,-23.0837490993179,0.0 -47.8390496,-23.082926699318,0.0 -47.8384417,-23.082207899318,0.0 -47.8374858,-23.081665299318,0.0 -47.8364867,-23.081338699318,0.0 -47.8354578,-23.081175499318,0.0 -47.8341553,-23.081311099318,0.0 -47.8330117,-23.081623699318,0.0 -47.8315901,-23.082162899318,0.0 -47.8306654,-23.082348099318,0.0 -47.8300456,-23.082368599318,0.0 -47.8299267,-23.082372499318,0.0 -47.8290751,-23.082175699318,0.0 -47.8271333,-23.081213399318,0.0 -47.8264204,-23.080654999318,0.0 -47.8258962,-23.079835999318,0.0 -47.8254984,-23.078337999318,0.0 -47.8251298,-23.0769498993181,0.0 -47.8248919,-23.0764711993181,0.0 -47.8247865,-23.0763745993181,0.0 -47.8245076,-23.0761189993181,0.0 -47.8238754,-23.0759297993181,0.0 -47.82361,-23.0759311993181,0.0 -47.822957,-23.0759345993181,0.0 -47.8224444,-23.0757594993181,0.0 -47.8219318,-23.0755843993181,0.0 -47.8217002,-23.0753306993181,0.0 -47.8213483,-23.0735902993182,0.0 -47.8213329,-23.0724124993182,0.0 -47.8212623,-23.0723548993182,0.0 -47.8166897,-23.0687206993183,0.0 -47.8162005,-23.0683318993183,0.0 -47.8161459,-23.0682884993183,0.0 -47.8160577,-23.0682182993183,0.0 -47.8160103,-23.0681805993183,0.0 -47.8159601,-23.0681407993183,0.0 -47.8063515,-23.0605019993185,0.0</coordinates>
</LinearRing>
</outerBoundaryIs>
</Polygon>
</MultiGeometry>
</Placemark>
</Folder>
</Document></kml>
