<?xml version='1.0' encoding='UTF-8'?>
<kml xmlns:xsd="http://www.w3.org/2001/XMLSchema" xmlns:gx="http://www.google.com/kml/ext/2.2" xmlns:atom="http://www.w3.org/2005/Atom" xmlns="http://www.opengis.net/kml/2.2">
<Document>
<name>louveira_3527306_localidades_2022</name>
<visibility>1</visibility>
<Schema name="Núcleos Urbanos" id="kml_schema_ft_Núcleos_Urbanos">
<SimpleField type="xsd:string" name="CD_UF">
<displayName>CD_UF</displayName>
</SimpleField>
<SimpleField type="xsd:string" name="NM_UF">
<displayName>NM_UF</displayName>
</SimpleField>
<SimpleField type="xsd:string" name="SIGLA_UF">
<displayName>SIGLA_UF</displayName>
</SimpleField>
<SimpleField type="xsd:string" name="CD_MUN">
<displayName>CD_MUN</displayName>
</SimpleField>
<SimpleField type="xsd:string" name="NM_MUN">
<displayName>NM_MUN</displayName>
</SimpleField>
<SimpleField type="xsd:string" name="CD_RGINT">
<displayName>CD_RGINT</displayName>
</SimpleField>
<SimpleField type="xsd:string" name="NM_RGINT">
<displayName>NM_RGINT</displayName>
</SimpleField>
<SimpleField type="xsd:string" name="CD_RGI">
<displayName>CD_RGI</displayName>
</SimpleField>
<SimpleField type="xsd:string" name="NM_RGI">
<displayName>NM_RGI</displayName>
</SimpleField>
<SimpleField type="xsd:string" name="CT_LOCALIDADE">
<displayName>CT_LOCALIDADE</displayName>
</SimpleField>
<SimpleField type="xsd:string" name="CD_LOCALIDADE">
<displayName>CD_LOCALIDADE</displayName>
</SimpleField>
<SimpleField type="xsd:string" name="NM_LOCALIDADE">
<displayName>NM_LOCALIDADE</displayName>
</SimpleField>
<SimpleField type="xsd:string" name="LAT_LOCALIDADE">
<displayName>LAT_LOCALIDADE</displayName>
</SimpleField>
<SimpleField type="xsd:string" name="LONG_LOCALIDADE">
<displayName>LONG_LOCALIDADE</displayName>
</SimpleField>
</Schema>
<Schema name="01. Cidade" id="kml_schema_ft_01._Cidade">
<SimpleField type="xsd:string" name="CD_UF">
<displayName>CD_UF</displayName>
</SimpleField>
<SimpleField type="xsd:string" name="NM_UF">
<displayName>NM_UF</displayName>
</SimpleField>
<SimpleField type="xsd:string" name="SIGLA_UF">
<displayName>SIGLA_UF</displayName>
</SimpleField>
<SimpleField type="xsd:string" name="CD_MUN">
<displayName>CD_MUN</displayName>
</SimpleField>
<SimpleField type="xsd:string" name="NM_MUN">
<displayName>NM_MUN</displayName>
</SimpleField>
<SimpleField type="xsd:string" name="CD_RGINT">
<displayName>CD_RGINT</displayName>
</SimpleField>
<SimpleField type="xsd:string" name="NM_RGINT">
<displayName>NM_RGINT</displayName>
</SimpleField>
<SimpleField type="xsd:string" name="CD_RGI">
<displayName>CD_RGI</displayName>
</SimpleField>
<SimpleField type="xsd:string" name="NM_RGI">
<displayName>NM_RGI</displayName>
</SimpleField>
<SimpleField type="xsd:string" name="CT_LOCALIDADE">
<displayName>CT_LOCALIDADE</displayName>
</SimpleField>
<SimpleField type="xsd:string" name="SCT_LOCALIDADE">
<displayName>SCT_LOCALIDADE</displayName>
</SimpleField>
<SimpleField type="xsd:string" name="CD_LOCALIDADE">
<displayName>CD_LOCALIDADE</displayName>
</SimpleField>
<SimpleField type="xsd:string" name="NM_LOCALIDADE">
<displayName>NM_LOCALIDADE</displayName>
</SimpleField>
<SimpleField type="xsd:string" name="LAT_LOCALIDADE">
<displayName>LAT_LOCALIDADE</displayName>
</SimpleField>
<SimpleField type="xsd:string" name="LONG_LOCALIDADE">
<displayName>LONG_LOCALIDADE</displayName>
</SimpleField>
</Schema>
<Schema name="Município" id="kml_schema_ft_Município">
<SimpleField type="xsd:string" name="CD_UF">
<displayName>CD_UF</displayName>
</SimpleField>
<SimpleField type="xsd:string" name="NM_UF">
<displayName>NM_UF</displayName>
</SimpleField>
<SimpleField type="xsd:string" name="CD_MUN">
<displayName>CD_MUN</displayName>
</SimpleField>
<SimpleField type="xsd:string" name="NM_MUN">
<displayName>NM_MUN</displayName>
</SimpleField>
<SimpleField type="xsd:string" name="CD_RGINT">
<displayName>CD_RGINT</displayName>
</SimpleField>
<SimpleField type="xsd:string" name="NM_RGINT">
<displayName>NM_RGINT</displayName>
</SimpleField>
<SimpleField type="xsd:string" name="CD_RGI">
<displayName>CD_RGI</displayName>
</SimpleField>
<SimpleField type="xsd:string" name="NM_RGI">
<displayName>NM_RGI</displayName>
</SimpleField>
</Schema>
<Folder id="01. Cidade">
<name>01. Cidade</name>
<Folder id="01.03. Sede Municipal">
<name>01.03. Sede Municipal</name>
<Placemark id="01.03. Sede Municipal">
<name>Louveira [3527306]</name>
<visibility>1</visibility>
<snippet> </snippet>
<description>&lt;center&gt;&lt;table&gt;&lt;tr&gt;&lt;th colspan='2' align='center'&gt;&lt;em&gt;Atributos&lt;/em&gt;&lt;/th&gt;&lt;/tr&gt;&lt;tr bgcolor="#E3E3F3"&gt;
&lt;th&gt;CD_UF&lt;/th&gt;
&lt;td&gt;35&lt;/td&gt;
&lt;/tr&gt;&lt;tr bgcolor=""&gt;
&lt;th&gt;NM_UF&lt;/th&gt;
&lt;td&gt;São Paulo&lt;/td&gt;
&lt;/tr&gt;&lt;tr bgcolor="#E3E3F3"&gt;
&lt;th&gt;SIGLA_UF&lt;/th&gt;
&lt;td&gt;SP&lt;/td&gt;
&lt;/tr&gt;&lt;tr bgcolor=""&gt;
&lt;th&gt;CD_MUN&lt;/th&gt;
&lt;td&gt;3527306&lt;/td&gt;
&lt;/tr&gt;&lt;tr bgcolor="#E3E3F3"&gt;
&lt;th&gt;NM_MUN&lt;/th&gt;
&lt;td&gt;Louveira&lt;/td&gt;
&lt;/tr&gt;&lt;tr bgcolor=""&gt;
&lt;th&gt;CD_RGINT&lt;/th&gt;
&lt;td&gt;3510&lt;/td&gt;
&lt;/tr&gt;&lt;tr bgcolor="#E3E3F3"&gt;
&lt;th&gt;NM_RGINT&lt;/th&gt;
&lt;td&gt;Campinas&lt;/td&gt;
&lt;/tr&gt;&lt;tr bgcolor=""&gt;
&lt;th&gt;CD_RGI&lt;/th&gt;
&lt;td&gt;350039&lt;/td&gt;
&lt;/tr&gt;&lt;tr bgcolor="#E3E3F3"&gt;
&lt;th&gt;NM_RGI&lt;/th&gt;
&lt;td&gt;Jundiaí&lt;/td&gt;
&lt;/tr&gt;&lt;tr bgcolor=""&gt;
&lt;th&gt;CT_LOCALIDADE&lt;/th&gt;
&lt;td&gt;Cidade&lt;/td&gt;
&lt;/tr&gt;&lt;tr bgcolor="#E3E3F3"&gt;
&lt;th&gt;SCT_LOCALIDADE&lt;/th&gt;
&lt;td&gt;Sede Municipal&lt;/td&gt;
&lt;/tr&gt;&lt;tr bgcolor=""&gt;
&lt;th&gt;CD_LOCALIDADE&lt;/th&gt;
&lt;td&gt;3527306&lt;/td&gt;
&lt;/tr&gt;&lt;tr bgcolor="#E3E3F3"&gt;
&lt;th&gt;NM_LOCALIDADE&lt;/th&gt;
&lt;td&gt;Louveira&lt;/td&gt;
&lt;/tr&gt;&lt;tr bgcolor=""&gt;
&lt;th&gt;LAT_LOCALIDADE&lt;/th&gt;
&lt;td&gt;-23.0886&lt;/td&gt;
&lt;/tr&gt;&lt;tr bgcolor="#E3E3F3"&gt;
&lt;th&gt;LONG_LOCALIDADE&lt;/th&gt;
&lt;td&gt;-46.9503&lt;/td&gt;
&lt;/tr&gt;&lt;/table&gt;&lt;/center&gt;</description>
<Style>
<IconStyle>
<color>ff00aaff</color>
<scale>1.0</scale>
<Icon>
<href>http://maps.google.com/mapfiles/kml/shapes/placemark_circle.png</href>
</Icon>
</IconStyle>
<LabelStyle>
<scale>1.0</scale>
</LabelStyle>
<LineStyle>
<color>ffffffff</color>
<width>3</width>
<gx:labelVisibility>1</gx:labelVisibility>
</LineStyle>
<PolyStyle>
<color>00ffffff</color>
</PolyStyle>
</Style>
<ExtendedData>
<SchemaData schemaUrl="#kml_schema_ft_01._Cidade">
<SimpleData name="CD_UF">35</SimpleData>
<SimpleData name="NM_UF">São Paulo</SimpleData>
<SimpleData name="SIGLA_UF">SP</SimpleData>
<SimpleData name="CD_MUN">3527306</SimpleData>
<SimpleData name="NM_MUN">Louveira</SimpleData>
<SimpleData name="CD_RGINT">3510</SimpleData>
<SimpleData name="NM_RGINT">Campinas</SimpleData>
<SimpleData name="CD_RGI">350039</SimpleData>
<SimpleData name="NM_RGI">Jundiaí</SimpleData>
<SimpleData name="CT_LOCALIDADE">Cidade</SimpleData>
<SimpleData name="SCT_LOCALIDADE">Sede Municipal</SimpleData>
<SimpleData name="CD_LOCALIDADE">3527306</SimpleData>
<SimpleData name="NM_LOCALIDADE">Louveira</SimpleData>
<SimpleData name="LAT_LOCALIDADE">-23.0886</SimpleData>
<SimpleData name="LONG_LOCALIDADE">-46.9503</SimpleData>
</SchemaData>
</ExtendedData>
<Point>
<extrude>0</extrude>
<coordinates>-46.9503,-23.0885999993178,0.0</coordinates>
</Point>
</Placemark>
</Folder>
</Folder>
<Folder id="05. Núcleos Urbanos">
<name>05. Núcleos Urbanos</name>
<Placemark id="localidades">
<name>Monterrey [3527306002]</name>
<visibility>1</visibility>
<snippet> </snippet>
<description>&lt;center&gt;&lt;table&gt;&lt;tr&gt;&lt;th colspan='2' align='center'&gt;&lt;em&gt;Attributes&lt;/em&gt;&lt;/th&gt;&lt;/tr&gt;&lt;tr bgcolor="#E3E3F3"&gt;
&lt;th&gt;CD_UF&lt;/th&gt;
&lt;td&gt;35&lt;/td&gt;
&lt;/tr&gt;&lt;tr bgcolor=""&gt;
&lt;th&gt;NM_UF&lt;/th&gt;
&lt;td&gt;São Paulo&lt;/td&gt;
&lt;/tr&gt;&lt;tr bgcolor="#E3E3F3"&gt;
&lt;th&gt;SIGLA_UF&lt;/th&gt;
&lt;td&gt;SP&lt;/td&gt;
&lt;/tr&gt;&lt;tr bgcolor=""&gt;
&lt;th&gt;CD_MUN&lt;/th&gt;
&lt;td&gt;3527306&lt;/td&gt;
&lt;/tr&gt;&lt;tr bgcolor="#E3E3F3"&gt;
&lt;th&gt;NM_MUN&lt;/th&gt;
&lt;td&gt;Louveira&lt;/td&gt;
&lt;/tr&gt;&lt;tr bgcolor=""&gt;
&lt;th&gt;CD_RGINT&lt;/th&gt;
&lt;td&gt;3510&lt;/td&gt;
&lt;/tr&gt;&lt;tr bgcolor="#E3E3F3"&gt;
&lt;th&gt;NM_RGINT&lt;/th&gt;
&lt;td&gt;Campinas&lt;/td&gt;
&lt;/tr&gt;&lt;tr bgcolor=""&gt;
&lt;th&gt;CD_RGI&lt;/th&gt;
&lt;td&gt;350039&lt;/td&gt;
&lt;/tr&gt;&lt;tr bgcolor="#E3E3F3"&gt;
&lt;th&gt;NM_RGI&lt;/th&gt;
&lt;td&gt;Jundiaí&lt;/td&gt;
&lt;/tr&gt;&lt;tr bgcolor=""&gt;
&lt;th&gt;CT_LOCALIDADE&lt;/th&gt;
&lt;td&gt;Núcleo Urbano&lt;/td&gt;
&lt;/tr&gt;&lt;tr bgcolor="#E3E3F3"&gt;
&lt;th&gt;CD_LOCALIDADE&lt;/th&gt;
&lt;td&gt;3527306002&lt;/td&gt;
&lt;/tr&gt;&lt;tr bgcolor=""&gt;
&lt;th&gt;NM_LOCALIDADE&lt;/th&gt;
&lt;td&gt;Monterrey&lt;/td&gt;
&lt;/tr&gt;&lt;tr bgcolor="#E3E3F3"&gt;
&lt;th&gt;LAT_LOCALIDADE&lt;/th&gt;
&lt;td&gt;-23.086&lt;/td&gt;
&lt;/tr&gt;&lt;tr bgcolor=""&gt;
&lt;th&gt;LONG_LOCALIDADE&lt;/th&gt;
&lt;td&gt;-46.8819&lt;/td&gt;
&lt;/tr&gt;&lt;/table&gt;&lt;/center&gt;</description>
<Style>
<IconStyle>
<color>ff0000ff</color>
<scale>0.9</scale>
<Icon>
<href>http://maps.google.com/mapfiles/kml/shapes/placemark_circle.png</href>
</Icon>
</IconStyle>
<LabelStyle>
<scale>0.9</scale>
</LabelStyle>
<LineStyle>
<color>72ffffff</color>
<width>1.0</width>
<gx:labelVisibility>1</gx:labelVisibility>
</LineStyle>
<PolyStyle>
<color>66ff54ff</color>
</PolyStyle>
</Style>
<ExtendedData>
<SchemaData schemaUrl="#kml_schema_ft_Núcleos_Urbanos">
<SimpleData name="CD_UF">35</SimpleData>
<SimpleData name="NM_UF">São Paulo</SimpleData>
<SimpleData name="SIGLA_UF">SP</SimpleData>
<SimpleData name="CD_MUN">3527306</SimpleData>
<SimpleData name="NM_MUN">Louveira</SimpleData>
<SimpleData name="CD_RGINT">3510</SimpleData>
<SimpleData name="NM_RGINT">Campinas</SimpleData>
<SimpleData name="CD_RGI">350039</SimpleData>
<SimpleData name="NM_RGI">Jundiaí</SimpleData>
<SimpleData name="CT_LOCALIDADE">Núcleo Urbano</SimpleData>
<SimpleData name="CD_LOCALIDADE">3527306002</SimpleData>
<SimpleData name="NM_LOCALIDADE">Monterrey</SimpleData>
<SimpleData name="LAT_LOCALIDADE">-23.086</SimpleData>
<SimpleData name="LONG_LOCALIDADE">-46.8819</SimpleData>
</SchemaData>
</ExtendedData>
<Point>
<extrude>0</extrude>
<coordinates>-46.881913,-23.0859559993179,0.0</coordinates>
</Point>
</Placemark>
<Placemark id="localidades">
<name>Vila de Santa Brígida Residence &amp; Club [3527306003]</name>
<visibility>1</visibility>
<snippet> </snippet>
<description>&lt;center&gt;&lt;table&gt;&lt;tr&gt;&lt;th colspan='2' align='center'&gt;&lt;em&gt;Attributes&lt;/em&gt;&lt;/th&gt;&lt;/tr&gt;&lt;tr bgcolor="#E3E3F3"&gt;
&lt;th&gt;CD_UF&lt;/th&gt;
&lt;td&gt;35&lt;/td&gt;
&lt;/tr&gt;&lt;tr bgcolor=""&gt;
&lt;th&gt;NM_UF&lt;/th&gt;
&lt;td&gt;São Paulo&lt;/td&gt;
&lt;/tr&gt;&lt;tr bgcolor="#E3E3F3"&gt;
&lt;th&gt;SIGLA_UF&lt;/th&gt;
&lt;td&gt;SP&lt;/td&gt;
&lt;/tr&gt;&lt;tr bgcolor=""&gt;
&lt;th&gt;CD_MUN&lt;/th&gt;
&lt;td&gt;3527306&lt;/td&gt;
&lt;/tr&gt;&lt;tr bgcolor="#E3E3F3"&gt;
&lt;th&gt;NM_MUN&lt;/th&gt;
&lt;td&gt;Louveira&lt;/td&gt;
&lt;/tr&gt;&lt;tr bgcolor=""&gt;
&lt;th&gt;CD_RGINT&lt;/th&gt;
&lt;td&gt;3510&lt;/td&gt;
&lt;/tr&gt;&lt;tr bgcolor="#E3E3F3"&gt;
&lt;th&gt;NM_RGINT&lt;/th&gt;
&lt;td&gt;Campinas&lt;/td&gt;
&lt;/tr&gt;&lt;tr bgcolor=""&gt;
&lt;th&gt;CD_RGI&lt;/th&gt;
&lt;td&gt;350039&lt;/td&gt;
&lt;/tr&gt;&lt;tr bgcolor="#E3E3F3"&gt;
&lt;th&gt;NM_RGI&lt;/th&gt;
&lt;td&gt;Jundiaí&lt;/td&gt;
&lt;/tr&gt;&lt;tr bgcolor=""&gt;
&lt;th&gt;CT_LOCALIDADE&lt;/th&gt;
&lt;td&gt;Núcleo Urbano&lt;/td&gt;
&lt;/tr&gt;&lt;tr bgcolor="#E3E3F3"&gt;
&lt;th&gt;CD_LOCALIDADE&lt;/th&gt;
&lt;td&gt;3527306003&lt;/td&gt;
&lt;/tr&gt;&lt;tr bgcolor=""&gt;
&lt;th&gt;NM_LOCALIDADE&lt;/th&gt;
&lt;td&gt;Vila de Santa Brígida Residence &amp; Club&lt;/td&gt;
&lt;/tr&gt;&lt;tr bgcolor="#E3E3F3"&gt;
&lt;th&gt;LAT_LOCALIDADE&lt;/th&gt;
&lt;td&gt;-23.0797&lt;/td&gt;
&lt;/tr&gt;&lt;tr bgcolor=""&gt;
&lt;th&gt;LONG_LOCALIDADE&lt;/th&gt;
&lt;td&gt;-46.9719&lt;/td&gt;
&lt;/tr&gt;&lt;/table&gt;&lt;/center&gt;</description>
<Style>
<IconStyle>
<color>ff0000ff</color>
<scale>0.9</scale>
<Icon>
<href>http://maps.google.com/mapfiles/kml/shapes/placemark_circle.png</href>
</Icon>
</IconStyle>
<LabelStyle>
<scale>0.9</scale>
</LabelStyle>
<LineStyle>
<color>72ffffff</color>
<width>1.0</width>
<gx:labelVisibility>1</gx:labelVisibility>
</LineStyle>
<PolyStyle>
<color>66ff54ff</color>
</PolyStyle>
</Style>
<ExtendedData>
<SchemaData schemaUrl="#kml_schema_ft_Núcleos_Urbanos">
<SimpleData name="CD_UF">35</SimpleData>
<SimpleData name="NM_UF">São Paulo</SimpleData>
<SimpleData name="SIGLA_UF">SP</SimpleData>
<SimpleData name="CD_MUN">3527306</SimpleData>
<SimpleData name="NM_MUN">Louveira</SimpleData>
<SimpleData name="CD_RGINT">3510</SimpleData>
<SimpleData name="NM_RGINT">Campinas</SimpleData>
<SimpleData name="CD_RGI">350039</SimpleData>
<SimpleData name="NM_RGI">Jundiaí</SimpleData>
<SimpleData name="CT_LOCALIDADE">Núcleo Urbano</SimpleData>
<SimpleData name="CD_LOCALIDADE">3527306003</SimpleData>
<SimpleData name="NM_LOCALIDADE">Vila de Santa Brígida Residence &amp; Club</SimpleData>
<SimpleData name="LAT_LOCALIDADE">-23.0797</SimpleData>
<SimpleData name="LONG_LOCALIDADE">-46.9719</SimpleData>
</SchemaData>
</ExtendedData>
<Point>
<extrude>0</extrude>
<coordinates>-46.9718913,-23.079702699318,0.0</coordinates>
</Point>
</Placemark>
<Placemark id="localidades">
<name>Leitão / Vassoural [3527306004]</name>
<visibility>1</visibility>
<snippet> </snippet>
<description>&lt;center&gt;&lt;table&gt;&lt;tr&gt;&lt;th colspan='2' align='center'&gt;&lt;em&gt;Attributes&lt;/em&gt;&lt;/th&gt;&lt;/tr&gt;&lt;tr bgcolor="#E3E3F3"&gt;
&lt;th&gt;CD_UF&lt;/th&gt;
&lt;td&gt;35&lt;/td&gt;
&lt;/tr&gt;&lt;tr bgcolor=""&gt;
&lt;th&gt;NM_UF&lt;/th&gt;
&lt;td&gt;São Paulo&lt;/td&gt;
&lt;/tr&gt;&lt;tr bgcolor="#E3E3F3"&gt;
&lt;th&gt;SIGLA_UF&lt;/th&gt;
&lt;td&gt;SP&lt;/td&gt;
&lt;/tr&gt;&lt;tr bgcolor=""&gt;
&lt;th&gt;CD_MUN&lt;/th&gt;
&lt;td&gt;3527306&lt;/td&gt;
&lt;/tr&gt;&lt;tr bgcolor="#E3E3F3"&gt;
&lt;th&gt;NM_MUN&lt;/th&gt;
&lt;td&gt;Louveira&lt;/td&gt;
&lt;/tr&gt;&lt;tr bgcolor=""&gt;
&lt;th&gt;CD_RGINT&lt;/th&gt;
&lt;td&gt;3510&lt;/td&gt;
&lt;/tr&gt;&lt;tr bgcolor="#E3E3F3"&gt;
&lt;th&gt;NM_RGINT&lt;/th&gt;
&lt;td&gt;Campinas&lt;/td&gt;
&lt;/tr&gt;&lt;tr bgcolor=""&gt;
&lt;th&gt;CD_RGI&lt;/th&gt;
&lt;td&gt;350039&lt;/td&gt;
&lt;/tr&gt;&lt;tr bgcolor="#E3E3F3"&gt;
&lt;th&gt;NM_RGI&lt;/th&gt;
&lt;td&gt;Jundiaí&lt;/td&gt;
&lt;/tr&gt;&lt;tr bgcolor=""&gt;
&lt;th&gt;CT_LOCALIDADE&lt;/th&gt;
&lt;td&gt;Núcleo Urbano&lt;/td&gt;
&lt;/tr&gt;&lt;tr bgcolor="#E3E3F3"&gt;
&lt;th&gt;CD_LOCALIDADE&lt;/th&gt;
&lt;td&gt;3527306004&lt;/td&gt;
&lt;/tr&gt;&lt;tr bgcolor=""&gt;
&lt;th&gt;NM_LOCALIDADE&lt;/th&gt;
&lt;td&gt;Leitão / Vassoural&lt;/td&gt;
&lt;/tr&gt;&lt;tr bgcolor="#E3E3F3"&gt;
&lt;th&gt;LAT_LOCALIDADE&lt;/th&gt;
&lt;td&gt;-23.1052&lt;/td&gt;
&lt;/tr&gt;&lt;tr bgcolor=""&gt;
&lt;th&gt;LONG_LOCALIDADE&lt;/th&gt;
&lt;td&gt;-46.948&lt;/td&gt;
&lt;/tr&gt;&lt;/table&gt;&lt;/center&gt;</description>
<Style>
<IconStyle>
<color>ff0000ff</color>
<scale>0.9</scale>
<Icon>
<href>http://maps.google.com/mapfiles/kml/shapes/placemark_circle.png</href>
</Icon>
</IconStyle>
<LabelStyle>
<scale>0.9</scale>
</LabelStyle>
<LineStyle>
<color>72ffffff</color>
<width>1.0</width>
<gx:labelVisibility>1</gx:labelVisibility>
</LineStyle>
<PolyStyle>
<color>66ff54ff</color>
</PolyStyle>
</Style>
<ExtendedData>
<SchemaData schemaUrl="#kml_schema_ft_Núcleos_Urbanos">
<SimpleData name="CD_UF">35</SimpleData>
<SimpleData name="NM_UF">São Paulo</SimpleData>
<SimpleData name="SIGLA_UF">SP</SimpleData>
<SimpleData name="CD_MUN">3527306</SimpleData>
<SimpleData name="NM_MUN">Louveira</SimpleData>
<SimpleData name="CD_RGINT">3510</SimpleData>
<SimpleData name="NM_RGINT">Campinas</SimpleData>
<SimpleData name="CD_RGI">350039</SimpleData>
<SimpleData name="NM_RGI">Jundiaí</SimpleData>
<SimpleData name="CT_LOCALIDADE">Núcleo Urbano</SimpleData>
<SimpleData name="CD_LOCALIDADE">3527306004</SimpleData>
<SimpleData name="NM_LOCALIDADE">Leitão / Vassoural</SimpleData>
<SimpleData name="LAT_LOCALIDADE">-23.1052</SimpleData>
<SimpleData name="LONG_LOCALIDADE">-46.948</SimpleData>
</SchemaData>
</ExtendedData>
<Point>
<extrude>0</extrude>
<coordinates>-46.947981,-23.1052259993174,0.0</coordinates>
</Point>
</Placemark>
<Placemark id="localidades">
<name>Jardim Vista Alegre [3527306005]</name>
<visibility>1</visibility>
<snippet> </snippet>
<description>&lt;center&gt;&lt;table&gt;&lt;tr&gt;&lt;th colspan='2' align='center'&gt;&lt;em&gt;Attributes&lt;/em&gt;&lt;/th&gt;&lt;/tr&gt;&lt;tr bgcolor="#E3E3F3"&gt;
&lt;th&gt;CD_UF&lt;/th&gt;
&lt;td&gt;35&lt;/td&gt;
&lt;/tr&gt;&lt;tr bgcolor=""&gt;
&lt;th&gt;NM_UF&lt;/th&gt;
&lt;td&gt;São Paulo&lt;/td&gt;
&lt;/tr&gt;&lt;tr bgcolor="#E3E3F3"&gt;
&lt;th&gt;SIGLA_UF&lt;/th&gt;
&lt;td&gt;SP&lt;/td&gt;
&lt;/tr&gt;&lt;tr bgcolor=""&gt;
&lt;th&gt;CD_MUN&lt;/th&gt;
&lt;td&gt;3527306&lt;/td&gt;
&lt;/tr&gt;&lt;tr bgcolor="#E3E3F3"&gt;
&lt;th&gt;NM_MUN&lt;/th&gt;
&lt;td&gt;Louveira&lt;/td&gt;
&lt;/tr&gt;&lt;tr bgcolor=""&gt;
&lt;th&gt;CD_RGINT&lt;/th&gt;
&lt;td&gt;3510&lt;/td&gt;
&lt;/tr&gt;&lt;tr bgcolor="#E3E3F3"&gt;
&lt;th&gt;NM_RGINT&lt;/th&gt;
&lt;td&gt;Campinas&lt;/td&gt;
&lt;/tr&gt;&lt;tr bgcolor=""&gt;
&lt;th&gt;CD_RGI&lt;/th&gt;
&lt;td&gt;350039&lt;/td&gt;
&lt;/tr&gt;&lt;tr bgcolor="#E3E3F3"&gt;
&lt;th&gt;NM_RGI&lt;/th&gt;
&lt;td&gt;Jundiaí&lt;/td&gt;
&lt;/tr&gt;&lt;tr bgcolor=""&gt;
&lt;th&gt;CT_LOCALIDADE&lt;/th&gt;
&lt;td&gt;Núcleo Urbano&lt;/td&gt;
&lt;/tr&gt;&lt;tr bgcolor="#E3E3F3"&gt;
&lt;th&gt;CD_LOCALIDADE&lt;/th&gt;
&lt;td&gt;3527306005&lt;/td&gt;
&lt;/tr&gt;&lt;tr bgcolor=""&gt;
&lt;th&gt;NM_LOCALIDADE&lt;/th&gt;
&lt;td&gt;Jardim Vista Alegre&lt;/td&gt;
&lt;/tr&gt;&lt;tr bgcolor="#E3E3F3"&gt;
&lt;th&gt;LAT_LOCALIDADE&lt;/th&gt;
&lt;td&gt;-23.0986&lt;/td&gt;
&lt;/tr&gt;&lt;tr bgcolor=""&gt;
&lt;th&gt;LONG_LOCALIDADE&lt;/th&gt;
&lt;td&gt;-46.997&lt;/td&gt;
&lt;/tr&gt;&lt;/table&gt;&lt;/center&gt;</description>
<Style>
<IconStyle>
<color>ff0000ff</color>
<scale>0.9</scale>
<Icon>
<href>http://maps.google.com/mapfiles/kml/shapes/placemark_circle.png</href>
</Icon>
</IconStyle>
<LabelStyle>
<scale>0.9</scale>
</LabelStyle>
<LineStyle>
<color>72ffffff</color>
<width>1.0</width>
<gx:labelVisibility>1</gx:labelVisibility>
</LineStyle>
<PolyStyle>
<color>66ff54ff</color>
</PolyStyle>
</Style>
<ExtendedData>
<SchemaData schemaUrl="#kml_schema_ft_Núcleos_Urbanos">
<SimpleData name="CD_UF">35</SimpleData>
<SimpleData name="NM_UF">São Paulo</SimpleData>
<SimpleData name="SIGLA_UF">SP</SimpleData>
<SimpleData name="CD_MUN">3527306</SimpleData>
<SimpleData name="NM_MUN">Louveira</SimpleData>
<SimpleData name="CD_RGINT">3510</SimpleData>
<SimpleData name="NM_RGINT">Campinas</SimpleData>
<SimpleData name="CD_RGI">350039</SimpleData>
<SimpleData name="NM_RGI">Jundiaí</SimpleData>
<SimpleData name="CT_LOCALIDADE">Núcleo Urbano</SimpleData>
<SimpleData name="CD_LOCALIDADE">3527306005</SimpleData>
<SimpleData name="NM_LOCALIDADE">Jardim Vista Alegre</SimpleData>
<SimpleData name="LAT_LOCALIDADE">-23.0986</SimpleData>
<SimpleData name="LONG_LOCALIDADE">-46.997</SimpleData>
</SchemaData>
</ExtendedData>
<Point>
<extrude>0</extrude>
<coordinates>-46.9970095,-23.0986036993176,0.0</coordinates>
</Point>
</Placemark>
<Placemark id="localidades">
<name>Estrada da Cruz Grande [3527306006]</name>
<visibility>1</visibility>
<snippet> </snippet>
<description>&lt;center&gt;&lt;table&gt;&lt;tr&gt;&lt;th colspan='2' align='center'&gt;&lt;em&gt;Attributes&lt;/em&gt;&lt;/th&gt;&lt;/tr&gt;&lt;tr bgcolor="#E3E3F3"&gt;
&lt;th&gt;CD_UF&lt;/th&gt;
&lt;td&gt;35&lt;/td&gt;
&lt;/tr&gt;&lt;tr bgcolor=""&gt;
&lt;th&gt;NM_UF&lt;/th&gt;
&lt;td&gt;São Paulo&lt;/td&gt;
&lt;/tr&gt;&lt;tr bgcolor="#E3E3F3"&gt;
&lt;th&gt;SIGLA_UF&lt;/th&gt;
&lt;td&gt;SP&lt;/td&gt;
&lt;/tr&gt;&lt;tr bgcolor=""&gt;
&lt;th&gt;CD_MUN&lt;/th&gt;
&lt;td&gt;3527306&lt;/td&gt;
&lt;/tr&gt;&lt;tr bgcolor="#E3E3F3"&gt;
&lt;th&gt;NM_MUN&lt;/th&gt;
&lt;td&gt;Louveira&lt;/td&gt;
&lt;/tr&gt;&lt;tr bgcolor=""&gt;
&lt;th&gt;CD_RGINT&lt;/th&gt;
&lt;td&gt;3510&lt;/td&gt;
&lt;/tr&gt;&lt;tr bgcolor="#E3E3F3"&gt;
&lt;th&gt;NM_RGINT&lt;/th&gt;
&lt;td&gt;Campinas&lt;/td&gt;
&lt;/tr&gt;&lt;tr bgcolor=""&gt;
&lt;th&gt;CD_RGI&lt;/th&gt;
&lt;td&gt;350039&lt;/td&gt;
&lt;/tr&gt;&lt;tr bgcolor="#E3E3F3"&gt;
&lt;th&gt;NM_RGI&lt;/th&gt;
&lt;td&gt;Jundiaí&lt;/td&gt;
&lt;/tr&gt;&lt;tr bgcolor=""&gt;
&lt;th&gt;CT_LOCALIDADE&lt;/th&gt;
&lt;td&gt;Núcleo Urbano&lt;/td&gt;
&lt;/tr&gt;&lt;tr bgcolor="#E3E3F3"&gt;
&lt;th&gt;CD_LOCALIDADE&lt;/th&gt;
&lt;td&gt;3527306006&lt;/td&gt;
&lt;/tr&gt;&lt;tr bgcolor=""&gt;
&lt;th&gt;NM_LOCALIDADE&lt;/th&gt;
&lt;td&gt;Estrada da Cruz Grande&lt;/td&gt;
&lt;/tr&gt;&lt;tr bgcolor="#E3E3F3"&gt;
&lt;th&gt;LAT_LOCALIDADE&lt;/th&gt;
&lt;td&gt;-23.1066&lt;/td&gt;
&lt;/tr&gt;&lt;tr bgcolor=""&gt;
&lt;th&gt;LONG_LOCALIDADE&lt;/th&gt;
&lt;td&gt;-46.9685&lt;/td&gt;
&lt;/tr&gt;&lt;/table&gt;&lt;/center&gt;</description>
<Style>
<IconStyle>
<color>ff0000ff</color>
<scale>0.9</scale>
<Icon>
<href>http://maps.google.com/mapfiles/kml/shapes/placemark_circle.png</href>
</Icon>
</IconStyle>
<LabelStyle>
<scale>0.9</scale>
</LabelStyle>
<LineStyle>
<color>72ffffff</color>
<width>1.0</width>
<gx:labelVisibility>1</gx:labelVisibility>
</LineStyle>
<PolyStyle>
<color>66ff54ff</color>
</PolyStyle>
</Style>
<ExtendedData>
<SchemaData schemaUrl="#kml_schema_ft_Núcleos_Urbanos">
<SimpleData name="CD_UF">35</SimpleData>
<SimpleData name="NM_UF">São Paulo</SimpleData>
<SimpleData name="SIGLA_UF">SP</SimpleData>
<SimpleData name="CD_MUN">3527306</SimpleData>
<SimpleData name="NM_MUN">Louveira</SimpleData>
<SimpleData name="CD_RGINT">3510</SimpleData>
<SimpleData name="NM_RGINT">Campinas</SimpleData>
<SimpleData name="CD_RGI">350039</SimpleData>
<SimpleData name="NM_RGI">Jundiaí</SimpleData>
<SimpleData name="CT_LOCALIDADE">Núcleo Urbano</SimpleData>
<SimpleData name="CD_LOCALIDADE">3527306006</SimpleData>
<SimpleData name="NM_LOCALIDADE">Estrada da Cruz Grande</SimpleData>
<SimpleData name="LAT_LOCALIDADE">-23.1066</SimpleData>
<SimpleData name="LONG_LOCALIDADE">-46.9685</SimpleData>
</SchemaData>
</ExtendedData>
<Point>
<extrude>0</extrude>
<coordinates>-46.9685465625,-23.1066027701507,0.0</coordinates>
</Point>
</Placemark>
<Placemark id="localidades">
<name>Reserva Santa Isabel [3527306007]</name>
<visibility>1</visibility>
<snippet> </snippet>
<description>&lt;center&gt;&lt;table&gt;&lt;tr&gt;&lt;th colspan='2' align='center'&gt;&lt;em&gt;Attributes&lt;/em&gt;&lt;/th&gt;&lt;/tr&gt;&lt;tr bgcolor="#E3E3F3"&gt;
&lt;th&gt;CD_UF&lt;/th&gt;
&lt;td&gt;35&lt;/td&gt;
&lt;/tr&gt;&lt;tr bgcolor=""&gt;
&lt;th&gt;NM_UF&lt;/th&gt;
&lt;td&gt;São Paulo&lt;/td&gt;
&lt;/tr&gt;&lt;tr bgcolor="#E3E3F3"&gt;
&lt;th&gt;SIGLA_UF&lt;/th&gt;
&lt;td&gt;SP&lt;/td&gt;
&lt;/tr&gt;&lt;tr bgcolor=""&gt;
&lt;th&gt;CD_MUN&lt;/th&gt;
&lt;td&gt;3527306&lt;/td&gt;
&lt;/tr&gt;&lt;tr bgcolor="#E3E3F3"&gt;
&lt;th&gt;NM_MUN&lt;/th&gt;
&lt;td&gt;Louveira&lt;/td&gt;
&lt;/tr&gt;&lt;tr bgcolor=""&gt;
&lt;th&gt;CD_RGINT&lt;/th&gt;
&lt;td&gt;3510&lt;/td&gt;
&lt;/tr&gt;&lt;tr bgcolor="#E3E3F3"&gt;
&lt;th&gt;NM_RGINT&lt;/th&gt;
&lt;td&gt;Campinas&lt;/td&gt;
&lt;/tr&gt;&lt;tr bgcolor=""&gt;
&lt;th&gt;CD_RGI&lt;/th&gt;
&lt;td&gt;350039&lt;/td&gt;
&lt;/tr&gt;&lt;tr bgcolor="#E3E3F3"&gt;
&lt;th&gt;NM_RGI&lt;/th&gt;
&lt;td&gt;Jundiaí&lt;/td&gt;
&lt;/tr&gt;&lt;tr bgcolor=""&gt;
&lt;th&gt;CT_LOCALIDADE&lt;/th&gt;
&lt;td&gt;Núcleo Urbano&lt;/td&gt;
&lt;/tr&gt;&lt;tr bgcolor="#E3E3F3"&gt;
&lt;th&gt;CD_LOCALIDADE&lt;/th&gt;
&lt;td&gt;3527306007&lt;/td&gt;
&lt;/tr&gt;&lt;tr bgcolor=""&gt;
&lt;th&gt;NM_LOCALIDADE&lt;/th&gt;
&lt;td&gt;Reserva Santa Isabel&lt;/td&gt;
&lt;/tr&gt;&lt;tr bgcolor="#E3E3F3"&gt;
&lt;th&gt;LAT_LOCALIDADE&lt;/th&gt;
&lt;td&gt;-23.0826&lt;/td&gt;
&lt;/tr&gt;&lt;tr bgcolor=""&gt;
&lt;th&gt;LONG_LOCALIDADE&lt;/th&gt;
&lt;td&gt;-46.9361&lt;/td&gt;
&lt;/tr&gt;&lt;/table&gt;&lt;/center&gt;</description>
<Style>
<IconStyle>
<color>ff0000ff</color>
<scale>0.9</scale>
<Icon>
<href>http://maps.google.com/mapfiles/kml/shapes/placemark_circle.png</href>
</Icon>
</IconStyle>
<LabelStyle>
<scale>0.9</scale>
</LabelStyle>
<LineStyle>
<color>72ffffff</color>
<width>1.0</width>
<gx:labelVisibility>1</gx:labelVisibility>
</LineStyle>
<PolyStyle>
<color>66ff54ff</color>
</PolyStyle>
</Style>
<ExtendedData>
<SchemaData schemaUrl="#kml_schema_ft_Núcleos_Urbanos">
<SimpleData name="CD_UF">35</SimpleData>
<SimpleData name="NM_UF">São Paulo</SimpleData>
<SimpleData name="SIGLA_UF">SP</SimpleData>
<SimpleData name="CD_MUN">3527306</SimpleData>
<SimpleData name="NM_MUN">Louveira</SimpleData>
<SimpleData name="CD_RGINT">3510</SimpleData>
<SimpleData name="NM_RGINT">Campinas</SimpleData>
<SimpleData name="CD_RGI">350039</SimpleData>
<SimpleData name="NM_RGI">Jundiaí</SimpleData>
<SimpleData name="CT_LOCALIDADE">Núcleo Urbano</SimpleData>
<SimpleData name="CD_LOCALIDADE">3527306007</SimpleData>
<SimpleData name="NM_LOCALIDADE">Reserva Santa Isabel</SimpleData>
<SimpleData name="LAT_LOCALIDADE">-23.0826</SimpleData>
<SimpleData name="LONG_LOCALIDADE">-46.9361</SimpleData>
</SchemaData>
</ExtendedData>
<Point>
<extrude>0</extrude>
<coordinates>-46.936089,-23.082621999318,0.0</coordinates>
</Point>
</Placemark>
<Placemark id="localidades">
<name>Parque dos Estados [3527306008]</name>
<visibility>1</visibility>
<snippet> </snippet>
<description>&lt;center&gt;&lt;table&gt;&lt;tr&gt;&lt;th colspan='2' align='center'&gt;&lt;em&gt;Attributes&lt;/em&gt;&lt;/th&gt;&lt;/tr&gt;&lt;tr bgcolor="#E3E3F3"&gt;
&lt;th&gt;CD_UF&lt;/th&gt;
&lt;td&gt;35&lt;/td&gt;
&lt;/tr&gt;&lt;tr bgcolor=""&gt;
&lt;th&gt;NM_UF&lt;/th&gt;
&lt;td&gt;São Paulo&lt;/td&gt;
&lt;/tr&gt;&lt;tr bgcolor="#E3E3F3"&gt;
&lt;th&gt;SIGLA_UF&lt;/th&gt;
&lt;td&gt;SP&lt;/td&gt;
&lt;/tr&gt;&lt;tr bgcolor=""&gt;
&lt;th&gt;CD_MUN&lt;/th&gt;
&lt;td&gt;3527306&lt;/td&gt;
&lt;/tr&gt;&lt;tr bgcolor="#E3E3F3"&gt;
&lt;th&gt;NM_MUN&lt;/th&gt;
&lt;td&gt;Louveira&lt;/td&gt;
&lt;/tr&gt;&lt;tr bgcolor=""&gt;
&lt;th&gt;CD_RGINT&lt;/th&gt;
&lt;td&gt;3510&lt;/td&gt;
&lt;/tr&gt;&lt;tr bgcolor="#E3E3F3"&gt;
&lt;th&gt;NM_RGINT&lt;/th&gt;
&lt;td&gt;Campinas&lt;/td&gt;
&lt;/tr&gt;&lt;tr bgcolor=""&gt;
&lt;th&gt;CD_RGI&lt;/th&gt;
&lt;td&gt;350039&lt;/td&gt;
&lt;/tr&gt;&lt;tr bgcolor="#E3E3F3"&gt;
&lt;th&gt;NM_RGI&lt;/th&gt;
&lt;td&gt;Jundiaí&lt;/td&gt;
&lt;/tr&gt;&lt;tr bgcolor=""&gt;
&lt;th&gt;CT_LOCALIDADE&lt;/th&gt;
&lt;td&gt;Núcleo Urbano&lt;/td&gt;
&lt;/tr&gt;&lt;tr bgcolor="#E3E3F3"&gt;
&lt;th&gt;CD_LOCALIDADE&lt;/th&gt;
&lt;td&gt;3527306008&lt;/td&gt;
&lt;/tr&gt;&lt;tr bgcolor=""&gt;
&lt;th&gt;NM_LOCALIDADE&lt;/th&gt;
&lt;td&gt;Parque dos Estados&lt;/td&gt;
&lt;/tr&gt;&lt;tr bgcolor="#E3E3F3"&gt;
&lt;th&gt;LAT_LOCALIDADE&lt;/th&gt;
&lt;td&gt;-23.0869&lt;/td&gt;
&lt;/tr&gt;&lt;tr bgcolor=""&gt;
&lt;th&gt;LONG_LOCALIDADE&lt;/th&gt;
&lt;td&gt;-46.9625&lt;/td&gt;
&lt;/tr&gt;&lt;/table&gt;&lt;/center&gt;</description>
<Style>
<IconStyle>
<color>ff0000ff</color>
<scale>0.9</scale>
<Icon>
<href>http://maps.google.com/mapfiles/kml/shapes/placemark_circle.png</href>
</Icon>
</IconStyle>
<LabelStyle>
<scale>0.9</scale>
</LabelStyle>
<LineStyle>
<color>72ffffff</color>
<width>1.0</width>
<gx:labelVisibility>1</gx:labelVisibility>
</LineStyle>
<PolyStyle>
<color>66ff54ff</color>
</PolyStyle>
</Style>
<ExtendedData>
<SchemaData schemaUrl="#kml_schema_ft_Núcleos_Urbanos">
<SimpleData name="CD_UF">35</SimpleData>
<SimpleData name="NM_UF">São Paulo</SimpleData>
<SimpleData name="SIGLA_UF">SP</SimpleData>
<SimpleData name="CD_MUN">3527306</SimpleData>
<SimpleData name="NM_MUN">Louveira</SimpleData>
<SimpleData name="CD_RGINT">3510</SimpleData>
<SimpleData name="NM_RGINT">Campinas</SimpleData>
<SimpleData name="CD_RGI">350039</SimpleData>
<SimpleData name="NM_RGI">Jundiaí</SimpleData>
<SimpleData name="CT_LOCALIDADE">Núcleo Urbano</SimpleData>
<SimpleData name="CD_LOCALIDADE">3527306008</SimpleData>
<SimpleData name="NM_LOCALIDADE">Parque dos Estados</SimpleData>
<SimpleData name="LAT_LOCALIDADE">-23.0869</SimpleData>
<SimpleData name="LONG_LOCALIDADE">-46.9625</SimpleData>
</SchemaData>
</ExtendedData>
<Point>
<extrude>0</extrude>
<coordinates>-46.962496,-23.0868939993179,0.0</coordinates>
</Point>
</Placemark>
<Placemark id="localidades">
<name>Faixa Azul [3527306009]</name>
<visibility>1</visibility>
<snippet> </snippet>
<description>&lt;center&gt;&lt;table&gt;&lt;tr&gt;&lt;th colspan='2' align='center'&gt;&lt;em&gt;Attributes&lt;/em&gt;&lt;/th&gt;&lt;/tr&gt;&lt;tr bgcolor="#E3E3F3"&gt;
&lt;th&gt;CD_UF&lt;/th&gt;
&lt;td&gt;35&lt;/td&gt;
&lt;/tr&gt;&lt;tr bgcolor=""&gt;
&lt;th&gt;NM_UF&lt;/th&gt;
&lt;td&gt;São Paulo&lt;/td&gt;
&lt;/tr&gt;&lt;tr bgcolor="#E3E3F3"&gt;
&lt;th&gt;SIGLA_UF&lt;/th&gt;
&lt;td&gt;SP&lt;/td&gt;
&lt;/tr&gt;&lt;tr bgcolor=""&gt;
&lt;th&gt;CD_MUN&lt;/th&gt;
&lt;td&gt;3527306&lt;/td&gt;
&lt;/tr&gt;&lt;tr bgcolor="#E3E3F3"&gt;
&lt;th&gt;NM_MUN&lt;/th&gt;
&lt;td&gt;Louveira&lt;/td&gt;
&lt;/tr&gt;&lt;tr bgcolor=""&gt;
&lt;th&gt;CD_RGINT&lt;/th&gt;
&lt;td&gt;3510&lt;/td&gt;
&lt;/tr&gt;&lt;tr bgcolor="#E3E3F3"&gt;
&lt;th&gt;NM_RGINT&lt;/th&gt;
&lt;td&gt;Campinas&lt;/td&gt;
&lt;/tr&gt;&lt;tr bgcolor=""&gt;
&lt;th&gt;CD_RGI&lt;/th&gt;
&lt;td&gt;350039&lt;/td&gt;
&lt;/tr&gt;&lt;tr bgcolor="#E3E3F3"&gt;
&lt;th&gt;NM_RGI&lt;/th&gt;
&lt;td&gt;Jundiaí&lt;/td&gt;
&lt;/tr&gt;&lt;tr bgcolor=""&gt;
&lt;th&gt;CT_LOCALIDADE&lt;/th&gt;
&lt;td&gt;Núcleo Urbano&lt;/td&gt;
&lt;/tr&gt;&lt;tr bgcolor="#E3E3F3"&gt;
&lt;th&gt;CD_LOCALIDADE&lt;/th&gt;
&lt;td&gt;3527306009&lt;/td&gt;
&lt;/tr&gt;&lt;tr bgcolor=""&gt;
&lt;th&gt;NM_LOCALIDADE&lt;/th&gt;
&lt;td&gt;Faixa Azul&lt;/td&gt;
&lt;/tr&gt;&lt;tr bgcolor="#E3E3F3"&gt;
&lt;th&gt;LAT_LOCALIDADE&lt;/th&gt;
&lt;td&gt;-23.0761&lt;/td&gt;
&lt;/tr&gt;&lt;tr bgcolor=""&gt;
&lt;th&gt;LONG_LOCALIDADE&lt;/th&gt;
&lt;td&gt;-46.9692&lt;/td&gt;
&lt;/tr&gt;&lt;/table&gt;&lt;/center&gt;</description>
<Style>
<IconStyle>
<color>ff0000ff</color>
<scale>0.9</scale>
<Icon>
<href>http://maps.google.com/mapfiles/kml/shapes/placemark_circle.png</href>
</Icon>
</IconStyle>
<LabelStyle>
<scale>0.9</scale>
</LabelStyle>
<LineStyle>
<color>72ffffff</color>
<width>1.0</width>
<gx:labelVisibility>1</gx:labelVisibility>
</LineStyle>
<PolyStyle>
<color>66ff54ff</color>
</PolyStyle>
</Style>
<ExtendedData>
<SchemaData schemaUrl="#kml_schema_ft_Núcleos_Urbanos">
<SimpleData name="CD_UF">35</SimpleData>
<SimpleData name="NM_UF">São Paulo</SimpleData>
<SimpleData name="SIGLA_UF">SP</SimpleData>
<SimpleData name="CD_MUN">3527306</SimpleData>
<SimpleData name="NM_MUN">Louveira</SimpleData>
<SimpleData name="CD_RGINT">3510</SimpleData>
<SimpleData name="NM_RGINT">Campinas</SimpleData>
<SimpleData name="CD_RGI">350039</SimpleData>
<SimpleData name="NM_RGI">Jundiaí</SimpleData>
<SimpleData name="CT_LOCALIDADE">Núcleo Urbano</SimpleData>
<SimpleData name="CD_LOCALIDADE">3527306009</SimpleData>
<SimpleData name="NM_LOCALIDADE">Faixa Azul</SimpleData>
<SimpleData name="LAT_LOCALIDADE">-23.0761</SimpleData>
<SimpleData name="LONG_LOCALIDADE">-46.9692</SimpleData>
</SchemaData>
</ExtendedData>
<Point>
<extrude>0</extrude>
<coordinates>-46.969206,-23.0760509993181,0.0</coordinates>
</Point>
</Placemark>
</Folder>
<Folder id="13. Referência">
<name>13. Referência</name>
<Placemark id="13. Referência">
<name>Louveira [3527306]</name>
<visibility>1</visibility>
<snippet> </snippet>
<description>&lt;center&gt;&lt;table&gt;&lt;tr&gt;&lt;th colspan='2' align='center'&gt;&lt;em&gt;Attributes&lt;/em&gt;&lt;/th&gt;&lt;/tr&gt;&lt;tr bgcolor="#E3E3F3"&gt;
&lt;th&gt;CD_UF&lt;/th&gt;
&lt;td&gt;35&lt;/td&gt;
&lt;/tr&gt;&lt;tr bgcolor=""&gt;
&lt;th&gt;NM_UF&lt;/th&gt;
&lt;td&gt;São Paulo&lt;/td&gt;
&lt;/tr&gt;&lt;tr bgcolor="#E3E3F3"&gt;
&lt;th&gt;CD_MUN&lt;/th&gt;
&lt;td&gt;3527306&lt;/td&gt;
&lt;/tr&gt;&lt;tr bgcolor=""&gt;
&lt;th&gt;NM_MUN&lt;/th&gt;
&lt;td&gt;Louveira&lt;/td&gt;
&lt;/tr&gt;&lt;tr bgcolor="#E3E3F3"&gt;
&lt;th&gt;CD_RGINT&lt;/th&gt;
&lt;td&gt;3510&lt;/td&gt;
&lt;/tr&gt;&lt;tr bgcolor=""&gt;
&lt;th&gt;NM_RGINT&lt;/th&gt;
&lt;td&gt;Campinas&lt;/td&gt;
&lt;/tr&gt;&lt;tr bgcolor="#E3E3F3"&gt;
&lt;th&gt;CD_RGI&lt;/th&gt;
&lt;td&gt;350039&lt;/td&gt;
&lt;/tr&gt;&lt;tr bgcolor=""&gt;
&lt;th&gt;NM_RGI&lt;/th&gt;
&lt;td&gt;Jundiaí&lt;/td&gt;
&lt;/tr&gt;&lt;/table&gt;&lt;/center&gt;</description>
<Style>
<IconStyle>
<scale>0.7</scale>
</IconStyle>
<LabelStyle>
<scale>0.7</scale>
</LabelStyle>
<LineStyle>
<color>ffffffff</color>
<width>3</width>
<gx:labelVisibility>1</gx:labelVisibility>
</LineStyle>
<PolyStyle>
<color>00ffffff</color>
</PolyStyle>
</Style>
<ExtendedData>
<SchemaData schemaUrl="#kml_schema_ft_Município">
<SimpleData name="CD_UF">35</SimpleData>
<SimpleData name="NM_UF">São Paulo</SimpleData>
<SimpleData name="CD_MUN">3527306</SimpleData>
<SimpleData name="NM_MUN">Louveira</SimpleData>
<SimpleData name="CD_RGINT">3510</SimpleData>
<SimpleData name="NM_RGINT">Campinas</SimpleData>
<SimpleData name="CD_RGI">350039</SimpleData>
<SimpleData name="NM_RGI">Jundiaí</SimpleData>
</SchemaData>
</ExtendedData>
<MultiGeometry>
<Polygon>
<extrude>0</extrude>
<tessellate>1</tessellate>
<outerBoundaryIs>
<LinearRing>
<coordinates>-46.8715842,-23.081579199318,0.0 -46.8723124,-23.082072599318,0.0 -46.8733773,-23.0834594993179,0.0 -46.8735721,-23.0838443993179,0.0 -46.8742238,-23.0851319993179,0.0 -46.8753204,-23.0867142993179,0.0 -46.8753282,-23.0868338993179,0.0 -46.8754246,-23.0883077993178,0.0 -46.8758501,-23.0888899993178,0.0 -46.877115,-23.0893616993178,0.0 -46.8772993,-23.0895257993178,0.0 -46.8774836,-23.0896898993178,0.0 -46.8778987,-23.0904503993178,0.0 -46.8779941,-23.0914087993178,0.0 -46.8780256,-23.0917259993177,0.0 -46.8782074,-23.0920031993177,0.0 -46.8783891,-23.0922802993177,0.0 -46.8789034,-23.0924784993177,0.0 -46.8795127,-23.0925237993177,0.0 -46.8801868,-23.0927299993177,0.0 -46.8813852,-23.0936099993177,0.0 -46.8818053,-23.0936117993177,0.0 -46.8820288,-23.0934340993177,0.0 -46.8822028,-23.0928363993177,0.0 -46.882239,-23.0927123993177,0.0 -46.8825728,-23.0925342993177,0.0 -46.8833816,-23.0925956993177,0.0 -46.883764,-23.0928195993177,0.0 -46.8851636,-23.0936391993177,0.0 -46.8861054,-23.0936616993177,0.0 -46.8875492,-23.0945040993177,0.0 -46.8879044,-23.0945693993177,0.0 -46.888036,-23.0944827993177,0.0 -46.888175,-23.0936842993177,0.0 -46.8886375,-23.0932909993177,0.0 -46.889101,-23.0931751993177,0.0 -46.8894803,-23.0931988993177,0.0 -46.8898597,-23.0932225993177,0.0 -46.8902173,-23.0935061993177,0.0 -46.8902453,-23.0935283993177,0.0 -46.8902733,-23.0935506993177,0.0 -46.8905078,-23.0937366993177,0.0 -46.8912373,-23.0940045993177,0.0 -46.8922078,-23.0951303993177,0.0 -46.8923965,-23.0953498993177,0.0 -46.8924378,-23.0955235993177,0.0 -46.8924701,-23.0956593993177,0.0 -46.8923851,-23.0975983993176,0.0 -46.8923639,-23.0980733993176,0.0 -46.8925038,-23.0985332993176,0.0 -46.8928348,-23.0988533993176,0.0 -46.8934023,-23.0989874993176,0.0 -46.8946289,-23.0989857993176,0.0 -46.8968209,-23.0998167993176,0.0 -46.8979119,-23.0998296993176,0.0 -46.8983749,-23.0996662993176,0.0 -46.8987301,-23.0991764993176,0.0 -46.8989212,-23.0973176993176,0.0 -46.8993019,-23.0967329993176,0.0 -46.8997404,-23.0962208993176,0.0 -46.900044,-23.0960044993176,0.0 -46.9008259,-23.0957996993177,0.0 -46.9043119,-23.0959437993177,0.0 -46.9046644,-23.0958193993177,0.0 -46.9052733,-23.0953732993177,0.0 -46.9056641,-23.0952281993177,0.0 -46.9062368,-23.0952447993177,0.0 -46.9070504,-23.0954759993177,0.0 -46.9081038,-23.0953658993177,0.0 -46.9086144,-23.0953940993177,0.0 -46.9090623,-23.0955362993177,0.0 -46.9092441,-23.0957015993177,0.0 -46.9098239,-23.0967145993176,0.0 -46.9100027,-23.0981981993176,0.0 -46.9102049,-23.0987362993176,0.0 -46.9103704,-23.0990454993176,0.0 -46.9112209,-23.1000220993176,0.0 -46.9122391,-23.1007662993175,0.0 -46.9127516,-23.1008690993175,0.0 -46.9131371,-23.1008553993175,0.0 -46.9132882,-23.1008499993175,0.0 -46.9138624,-23.1010048993175,0.0 -46.9160441,-23.1020165993175,0.0 -46.9165117,-23.1019907993175,0.0 -46.9171372,-23.1016737993175,0.0 -46.9183166,-23.1004527993175,0.0 -46.9190626,-23.0999461993176,0.0 -46.9199286,-23.0995725993176,0.0 -46.9218742,-23.0989991993176,0.0 -46.9226825,-23.0986066993176,0.0 -46.9230732,-23.0982765993176,0.0 -46.9235461,-23.0976481993176,0.0 -46.9238741,-23.0975235993176,0.0 -46.9243857,-23.0976829993176,0.0 -46.9249178,-23.0981736993176,0.0 -46.9255385,-23.0983764993176,0.0 -46.9261882,-23.0984719993176,0.0 -46.9273617,-23.0981604993176,0.0 -46.9286334,-23.0974661993176,0.0 -46.929192,-23.0973446993176,0.0 -46.9312991,-23.0973962993176,0.0 -46.9325646,-23.0975262993176,0.0 -46.9356141,-23.0961600993176,0.0 -46.9376557,-23.0960272993177,0.0 -46.9383292,-23.0960607993176,0.0 -46.9385875,-23.0962025993176,0.0 -46.9395077,-23.0977731993176,0.0 -46.9414456,-23.0992245993176,0.0 -46.9417234,-23.0996285993176,0.0 -46.9420152,-23.1004553993175,0.0 -46.9420662,-23.1011393993175,0.0 -46.9421609,-23.1014742993175,0.0 -46.9422174,-23.1016739993175,0.0 -46.9422195,-23.1016815993175,0.0 -46.9424292,-23.1023427993175,0.0 -46.9425985,-23.1028768993175,0.0 -46.943077,-23.1041115993175,0.0 -46.9436612,-23.1075023993174,0.0 -46.9449633,-23.1100285993173,0.0 -46.945472,-23.1105954993173,0.0 -46.9464866,-23.1110780993173,0.0 -46.9477878,-23.1112382993173,0.0 -46.9487863,-23.1111137993173,0.0 -46.950247,-23.1107304993173,0.0 -46.9509053,-23.1104407993173,0.0 -46.9511689,-23.1102234993173,0.0 -46.9519949,-23.1092145993174,0.0 -46.9527855,-23.1085077993174,0.0 -46.9544985,-23.1078032993174,0.0 -46.9550802,-23.1077427993174,0.0 -46.95577,-23.1079144993174,0.0 -46.9567404,-23.1084012993174,0.0 -46.9586371,-23.1090593993173,0.0 -46.9592536,-23.1094532993173,0.0 -46.9596215,-23.1095395993173,0.0 -46.9600989,-23.1094736993173,0.0 -46.9601754,-23.1094630993173,0.0 -46.9602776,-23.1094489993173,0.0 -46.9614082,-23.1092927993173,0.0 -46.9617692,-23.1093231993173,0.0 -46.9626748,-23.1097405993173,0.0 -46.9629881,-23.1098420993173,0.0 -46.9633014,-23.1099435993173,0.0 -46.9643466,-23.1099736993173,0.0 -46.9662131,-23.1096971993173,0.0 -46.967114,-23.1097370993173,0.0 -46.968278,-23.1099988993173,0.0 -46.9695448,-23.1105373993173,0.0 -46.9707777,-23.1112745993173,0.0 -46.9736956,-23.1118733993173,0.0 -46.9738122,-23.1119685993173,0.0 -46.9739811,-23.1121422993173,0.0 -46.9741453,-23.1122707993173,0.0 -46.9742405,-23.1124087993173,0.0 -46.9742857,-23.1125348993173,0.0 -46.9743,-23.1126014993173,0.0 -46.9743428,-23.1127799993173,0.0 -46.974338,-23.1128417993173,0.0 -46.9742976,-23.1130107993173,0.0 -46.9743142,-23.1131177993173,0.0 -46.9744094,-23.1133081993173,0.0 -46.9745403,-23.1134866993172,0.0 -46.9746355,-23.1136531993173,0.0 -46.9746759,-23.1137983993172,0.0 -46.9747045,-23.1139910993172,0.0 -46.9747735,-23.1141766993172,0.0 -46.9748544,-23.1142932993172,0.0 -46.9750114,-23.1144598993172,0.0 -46.9751851,-23.1145859993172,0.0 -46.975404,-23.1147215993172,0.0 -46.9755468,-23.1148619993172,0.0 -46.9756372,-23.1150641993172,0.0 -46.9756991,-23.1152664993172,0.0 -46.9757895,-23.1156661993172,0.0 -46.9758633,-23.1159136993172,0.0 -46.9758942,-23.1160469993172,0.0 -46.9759228,-23.1161658993172,0.0 -46.9759299,-23.1162824993172,0.0 -46.9759109,-23.1164442993172,0.0 -46.9758371,-23.1166798993172,0.0 -46.9757276,-23.1168797993172,0.0 -46.9756206,-23.1170534993172,0.0 -46.9755159,-23.1175816993172,0.0 -46.9755254,-23.1178219993172,0.0 -46.9755301,-23.1179338993171,0.0 -46.975504,-23.1181384993172,0.0 -46.9754968,-23.1183502993171,0.0 -46.9754945,-23.1186119993171,0.0 -46.9754945,-23.1187880993171,0.0 -46.9755135,-23.1189593993171,0.0 -46.9755468,-23.1190355993171,0.0 -46.9756206,-23.1191425993171,0.0 -46.9757467,-23.1191854993171,0.0 -46.9759656,-23.1191616993171,0.0 -46.9761774,-23.1191663993171,0.0 -46.9764248,-23.1192044993171,0.0 -46.9766961,-23.1192782993171,0.0 -46.9768745,-23.1193305993171,0.0 -46.976984,-23.1193757993171,0.0 -46.9771551,-23.1194956993171,0.0 -46.9772765,-23.1195527993171,0.0 -46.977374,-23.1195813993171,0.0 -46.9774526,-23.1196431993171,0.0 -46.9775501,-23.1197002993171,0.0 -46.9776477,-23.1197359993171,0.0 -46.9777,-23.1197407993171,0.0 -46.9777286,-23.1197431993171,0.0 -46.9777666,-23.1197407993171,0.0 -46.9778023,-23.1197240993171,0.0 -46.977838,-23.1197074993171,0.0 -46.977888,-23.1196860993171,0.0 -46.9780262,-23.1196232993171,0.0 -46.9781309,-23.1195661993171,0.0 -46.9782808,-23.1195494993171,0.0 -46.9785473,-23.1194566993171,0.0 -46.9786829,-23.1193971993171,0.0 -46.9788447,-23.1193876993171,0.0 -46.978928,-23.1194162993171,0.0 -46.9790851,-23.1194590993171,0.0 -46.979323,-23.1195780993171,0.0 -46.9795491,-23.1196898993171,0.0 -46.9797394,-23.1198159993171,0.0 -46.9798465,-23.1198802993171,0.0 -46.9799845,-23.1199135993171,0.0 -46.9802248,-23.1199753993171,0.0 -46.9803938,-23.1200586993171,0.0 -46.980477,-23.1201038993171,0.0 -46.9808411,-23.1202633993171,0.0 -46.9809101,-23.1202752993171,0.0 -46.9811314,-23.1203132993171,0.0 -46.9813265,-23.1203894993171,0.0 -46.981524,-23.1205131993171,0.0 -46.9817048,-23.1206487993171,0.0 -46.9818881,-23.1207630993171,0.0 -46.9819951,-23.1208486993171,0.0 -46.9822735,-23.1210818993171,0.0 -46.9824472,-23.1211365993171,0.0 -46.9826424,-23.1211675993171,0.0 -46.9828089,-23.1211936993171,0.0 -46.9829541,-23.1212103993171,0.0 -46.9832824,-23.1212008993171,0.0 -46.983518,-23.1212436993171,0.0 -46.9838249,-23.1213174993171,0.0 -46.9840819,-23.1213721993171,0.0 -46.9842271,-23.1213745993171,0.0 -46.9844198,-23.1213531993171,0.0 -46.9846268,-23.1212603993171,0.0 -46.9846935,-23.1211984993171,0.0 -46.9847934,-23.1209509993171,0.0 -46.9848957,-23.1207487993171,0.0 -46.9849956,-23.1205131993171,0.0 -46.9850932,-23.1203370993171,0.0 -46.9851432,-23.1202347993171,0.0 -46.9852003,-23.1201324993171,0.0 -46.985274,-23.1200967993171,0.0 -46.9854287,-23.1200729993171,0.0 -46.9855382,-23.1200539993171,0.0 -46.9857452,-23.1199872993171,0.0 -46.9860497,-23.1198683993171,0.0 -46.9862163,-23.1198445993171,0.0 -46.9864376,-23.1198207993171,0.0 -46.9866803,-23.1198064993171,0.0 -46.9868659,-23.1198040993171,0.0 -46.9870134,-23.1198278993171,0.0 -46.9871633,-23.1198207993171,0.0 -46.9873703,-23.1197279993171,0.0 -46.9875821,-23.1195827993171,0.0 -46.9876725,-23.1194424993171,0.0 -46.987832,-23.1192877993171,0.0 -46.9880913,-23.1191758993171,0.0 -46.9883126,-23.1191259993171,0.0 -46.9884459,-23.1190831993171,0.0 -46.988591,-23.1189403993171,0.0 -46.9887195,-23.1187856993171,0.0 -46.9887956,-23.1186857993171,0.0 -46.9889313,-23.1185358993171,0.0 -46.9890836,-23.1184620993171,0.0 -46.9892406,-23.1184477993171,0.0 -46.9893429,-23.1184715993171,0.0 -46.9894238,-23.1185144993171,0.0 -46.9895238,-23.1185857993171,0.0 -46.9896023,-23.1186405993171,0.0 -46.9897736,-23.1186738993171,0.0 -46.989845,-23.1186762993171,0.0 -46.9899925,-23.1186857993171,0.0 -46.9900948,-23.1187499993171,0.0 -46.9902233,-23.1188332993171,0.0 -46.9903637,-23.1189117993171,0.0 -46.9905231,-23.1189760993171,0.0 -46.9906611,-23.1189903993171,0.0 -46.9908705,-23.1189807993171,0.0 -46.9910109,-23.1189688993171,0.0 -46.9919989,-23.1196003993171,0.0 -46.9922659,-23.1197670993171,0.0 -46.9927791,-23.1199334993171,0.0 -46.9929575,-23.1199053993171,0.0 -46.9935469,-23.1194175993171,0.0 -46.9944418,-23.1174574993172,0.0 -46.9946839,-23.1171250993172,0.0 -46.9955364,-23.1164835993172,0.0 -46.9954914,-23.1155457993172,0.0 -46.9953915,-23.1154636993172,0.0 -46.9951773,-23.1153529993172,0.0 -46.995056,-23.1153065993172,0.0 -46.9949953,-23.1152780993172,0.0 -46.994849,-23.1151531993172,0.0 -46.9947562,-23.1150317993172,0.0 -46.9947347,-23.1148818993172,0.0 -46.9948097,-23.1146998993172,0.0 -46.995006,-23.1145070993172,0.0 -46.9952023,-23.1142679993172,0.0 -46.9952451,-23.1141751993172,0.0 -46.9953451,-23.1139217993172,0.0 -46.9953986,-23.1137111993172,0.0 -46.99542,-23.1134541993172,0.0 -46.9953915,-23.1132043993173,0.0 -46.9953629,-23.1130151993173,0.0 -46.9952558,-23.1127760993173,0.0 -46.9950988,-23.1124762993173,0.0 -46.9950203,-23.1123584993173,0.0 -46.9949739,-23.1122335993173,0.0 -46.9950096,-23.1120443993173,0.0 -46.9950453,-23.1119336993173,0.0 -46.9950667,-23.1118480993173,0.0 -46.9951131,-23.1117980993173,0.0 -46.9952666,-23.1117338993173,0.0 -46.9954379,-23.1116517993173,0.0 -46.9955175,-23.1116091993173,0.0 -46.9955821,-23.1115830993173,0.0 -46.9956142,-23.1115623993173,0.0 -46.9956527,-23.1115202993173,0.0 -46.9956649,-23.1114416993173,0.0 -46.9956378,-23.1114059993173,0.0 -46.9955806,-23.1113860993173,0.0 -46.99554,-23.1113788993173,0.0 -46.9954579,-23.1113717993173,0.0 -46.9953843,-23.1113446993173,0.0 -46.9953058,-23.1112632993173,0.0 -46.9952359,-23.1111547993173,0.0 -46.9951759,-23.1109634993173,0.0 -46.9951274,-23.1107235993173,0.0 -46.9950603,-23.1105708993173,0.0 -46.9950217,-23.1105165993173,0.0 -46.9947676,-23.1102995993173,0.0 -46.9946562,-23.1102181993173,0.0 -46.994572,-23.1101267993173,0.0 -46.9944378,-23.1099269993173,0.0 -46.9943536,-23.1097713993173,0.0 -46.9943281,-23.1096654993173,0.0 -46.9943311,-23.1095434993173,0.0 -46.9943965,-23.1093203993174,0.0 -46.9944768,-23.1090973993173,0.0 -46.9945541,-23.1089723993173,0.0 -46.9946434,-23.1089158993174,0.0 -46.9947029,-23.1088861993174,0.0 -46.9947148,-23.1088385993174,0.0 -46.9947029,-23.1087433993174,0.0 -46.9946731,-23.1086690993174,0.0 -46.9946345,-23.1085678993174,0.0 -46.9945274,-23.1084846993174,0.0 -46.9944203,-23.1084221993174,0.0 -46.9942537,-23.1083596993174,0.0 -46.9940991,-23.1082526993174,0.0 -46.993989,-23.1081514993174,0.0 -46.9938314,-23.1080592993174,0.0 -46.9936559,-23.1080027993174,0.0 -46.9934774,-23.1079551993174,0.0 -46.9932157,-23.1079462993174,0.0 -46.9930581,-23.1079522993174,0.0 -46.9929659,-23.1079373993174,0.0 -46.9929391,-23.1078718993174,0.0 -46.9929569,-23.1077648993174,0.0 -46.9930491,-23.1076280993174,0.0 -46.9931919,-23.1075030993174,0.0 -46.9933257,-23.1073841993174,0.0 -46.9935399,-23.1072621993174,0.0 -46.9938819,-23.1070628993174,0.0 -46.9940277,-23.1068844993174,0.0 -46.9941169,-23.1067148993174,0.0 -46.9942121,-23.1066048993174,0.0 -46.994227,-23.1065185993174,0.0 -46.994227,-23.1063579993174,0.0 -46.9942805,-23.1061081993174,0.0 -46.9944025,-23.1058909993174,0.0 -46.9945601,-23.1056708993174,0.0 -46.9946047,-23.1055370993174,0.0 -46.9946017,-23.1054448993174,0.0 -46.9946047,-23.1052515993174,0.0 -46.994682,-23.1050135993174,0.0 -46.9949289,-23.1046923993174,0.0 -46.9951133,-23.1046090993175,0.0 -46.9953929,-23.1045793993175,0.0 -46.9955446,-23.1045852993175,0.0 -46.9956874,-23.1046774993175,0.0 -46.995848,-23.1047577993174,0.0 -46.9959313,-23.1047429993174,0.0 -46.9960383,-23.1047131993174,0.0 -46.9961186,-23.1046239993175,0.0 -46.9961157,-23.1044068993175,0.0 -46.9960859,-23.1041212993175,0.0 -46.9960383,-23.1038535993175,0.0 -46.9960413,-23.1034996993175,0.0 -46.9960294,-23.1033033993175,0.0 -46.9960264,-23.1031367993175,0.0 -46.9959907,-23.1029850993175,0.0 -46.9959934,-23.1029198993175,0.0 -46.9959946,-23.1028833993175,0.0 -46.9960317,-23.1027762993175,0.0 -46.9960845,-23.1024864993175,0.0 -46.9960702,-23.1023065993175,0.0 -46.9960688,-23.1022094993175,0.0 -46.9961142,-23.1020469993175,0.0 -46.9962421,-23.1018566993175,0.0 -46.996257,-23.1016989993175,0.0 -46.9962897,-23.1014431993175,0.0 -46.9962986,-23.1012677993175,0.0 -46.9963849,-23.1010386993175,0.0 -46.9964712,-23.1009672993175,0.0 -46.9965574,-23.1008929993175,0.0 -46.9966675,-23.1007204993175,0.0 -46.9967121,-23.1005479993175,0.0 -46.996728,-23.1004602993176,0.0 -46.9967951,-23.1003717993175,0.0 -46.9969193,-23.1002860993176,0.0 -46.9969921,-23.1001761993175,0.0 -46.9970464,-23.1000147993176,0.0 -46.9970207,-23.0998548993176,0.0 -46.9970621,-23.0997478993176,0.0 -46.9971349,-23.0996436993176,0.0 -46.9972762,-23.0995479993176,0.0 -46.9973633,-23.0994679993176,0.0 -46.997399,-23.0993966993176,0.0 -46.9974661,-23.0992624993176,0.0 -46.9975247,-23.0991796993176,0.0 -46.9976489,-23.0990953993176,0.0 -46.9977531,-23.0990868993176,0.0 -46.9978901,-23.0991139993176,0.0 -46.9980401,-23.0990910993176,0.0 -46.9982428,-23.0990768993176,0.0 -46.9983756,-23.0990282993176,0.0 -46.9984255,-23.0989597993176,0.0 -46.9985083,-23.0987827993176,0.0 -46.9985312,-23.0986542993176,0.0 -46.9985854,-23.0984814993176,0.0 -46.9987453,-23.0983015993176,0.0 -46.9989652,-23.0981259993176,0.0 -46.999098,-23.0979575993176,0.0 -46.9991222,-23.0978433993176,0.0 -46.9991137,-23.0977776993176,0.0 -46.9990423,-23.0976562993176,0.0 -46.998998,-23.0976120993176,0.0 -46.9989422,-23.0975658993176,0.0 -46.9988824,-23.0975163993176,0.0 -46.9987782,-23.0973621993176,0.0 -46.9987168,-23.0972408993176,0.0 -46.9986354,-23.0970409993176,0.0 -46.9985911,-23.0968624993176,0.0 -46.9986197,-23.0967168993176,0.0 -46.9987039,-23.0966012993176,0.0 -46.998851,-23.0964655993176,0.0 -46.9989609,-23.0963542993176,0.0 -46.9990566,-23.0961786993176,0.0 -46.9991008,-23.0960330993177,0.0 -46.999195,-23.0958559993177,0.0 -46.9992664,-23.0957945993177,0.0 -46.9994006,-23.0956503993177,0.0 -46.9993963,-23.0956061993177,0.0 -46.9993178,-23.0955376993177,0.0 -46.9991793,-23.0954919993177,0.0 -46.9991022,-23.0954862993177,0.0 -46.9989895,-23.0955447993177,0.0 -46.998851,-23.0956075993177,0.0 -46.9987682,-23.0956218993177,0.0 -46.998604,-23.0956146993177,0.0 -46.998407,-23.0955804993177,0.0 -46.9982385,-23.0955418993177,0.0 -46.9981371,-23.0955104993177,0.0 -46.9980458,-23.0954505993177,0.0 -46.9978616,-23.0952592993177,0.0 -46.9977231,-23.0951335993177,0.0 -46.9976305,-23.0950924993177,0.0 -46.9975116,-23.0950507993177,0.0 -46.9973599,-23.0950210993177,0.0 -46.9971755,-23.0949912993177,0.0 -46.9971249,-23.0949288993177,0.0 -46.9970922,-23.0947890993177,0.0 -46.9971398,-23.0947235993177,0.0 -46.9971903,-23.0947057993177,0.0 -46.9973986,-23.0946194993177,0.0 -46.9975383,-23.0945391993177,0.0 -46.9977317,-23.0944083993177,0.0 -46.9979637,-23.0941941993177,0.0 -46.9980916,-23.0940662993177,0.0 -46.9981808,-23.0939383993177,0.0 -46.99827,-23.0937480993177,0.0 -46.9983801,-23.0934803993177,0.0 -46.9984544,-23.0932631993177,0.0 -46.9984842,-23.0931412993177,0.0 -46.9984872,-23.0930044993177,0.0 -46.9984634,-23.0928557993177,0.0 -46.9983533,-23.0926653993177,0.0 -46.998276,-23.0924750993177,0.0 -46.9982462,-23.0922400993177,0.0 -46.9982462,-23.0921270993177,0.0 -46.9982433,-23.0919872993177,0.0 -46.9982016,-23.0918414993177,0.0 -46.9980886,-23.0917076993178,0.0 -46.9979131,-23.0915380993178,0.0 -46.9978409,-23.0914781993178,0.0 -46.9977228,-23.0913685993178,0.0 -46.9975443,-23.0912257993178,0.0 -46.9974075,-23.0910978993178,0.0 -46.9972915,-23.0909729993178,0.0 -46.9970803,-23.0908242993178,0.0 -46.9969197,-23.0907409993178,0.0 -46.9967204,-23.0906755993178,0.0 -46.9965122,-23.0906190993178,0.0 -46.9963724,-23.0905744993178,0.0 -46.9962475,-23.0905863993178,0.0 -46.9961374,-23.0906219993178,0.0 -46.9960571,-23.0906428993178,0.0 -46.9959084,-23.0906666993178,0.0 -46.9957508,-23.0906814993178,0.0 -46.9955294,-23.0906614993178,0.0 -46.9953658,-23.0906197993178,0.0 -46.9952588,-23.0905454993178,0.0 -46.9951844,-23.0904353993178,0.0 -46.9951814,-23.0902598993178,0.0 -46.9952171,-23.0900546993178,0.0 -46.9951814,-23.0899416993178,0.0 -46.995116,-23.0897988993178,0.0 -46.9950892,-23.0896679993178,0.0 -46.9951041,-23.0894835993178,0.0 -46.9951041,-23.0892604993178,0.0 -46.995119,-23.0890493993178,0.0 -46.9951309,-23.0888768993178,0.0 -46.9951041,-23.0886567993178,0.0 -46.9950506,-23.0885288993178,0.0 -46.9949584,-23.0883087993178,0.0 -46.9949227,-23.0881510993178,0.0 -46.9949346,-23.0880737993178,0.0 -46.9949524,-23.0879607993178,0.0 -46.9949375,-23.0878863993178,0.0 -46.9947799,-23.0877316993178,0.0 -46.994655,-23.0875859993178,0.0 -46.9946223,-23.0875026993178,0.0 -46.9945985,-23.0873926993178,0.0 -46.9945895,-23.0872974993178,0.0 -46.9945568,-23.0871189993178,0.0 -46.9945182,-23.0869345993178,0.0 -46.9944695,-23.0868470993179,0.0 -46.9943446,-23.0867637993179,0.0 -46.9938687,-23.0867470993179,0.0 -46.9933452,-23.0867209993179,0.0 -46.993269,-23.0866780993179,0.0 -46.9930953,-23.0865971993179,0.0 -46.9929645,-23.0865353993179,0.0 -46.9928717,-23.0865186993179,0.0 -46.9927598,-23.0865710993179,0.0 -46.9926789,-23.0866304993179,0.0 -46.9925219,-23.0867780993179,0.0 -46.9924791,-23.0867946993179,0.0 -46.9923506,-23.0868436993179,0.0 -46.992244,-23.0868551993179,0.0 -46.9921812,-23.0868969993179,0.0 -46.9920251,-23.0869864993179,0.0 -46.991888,-23.0870416993179,0.0 -46.9917015,-23.0870778993179,0.0 -46.9916234,-23.0871254993178,0.0 -46.9914254,-23.0871711993178,0.0 -46.991296,-23.0871901993179,0.0 -46.9911532,-23.0871882993179,0.0 -46.9910333,-23.0871730993179,0.0 -46.9909058,-23.0871159993179,0.0 -46.9908563,-23.0870549993179,0.0 -46.9907459,-23.0869046993179,0.0 -46.9906945,-23.0867599993179,0.0 -46.9906888,-23.0866647993179,0.0 -46.9906564,-23.0865600993179,0.0 -46.9905879,-23.0864401993179,0.0 -46.9905441,-23.0863849993179,0.0 -46.990487,-23.0863278993179,0.0 -46.990388,-23.0862535993179,0.0 -46.99027,-23.0861469993179,0.0 -46.9902357,-23.0860594993179,0.0 -46.9901405,-23.0858823993179,0.0 -46.9900682,-23.0857415993179,0.0 -46.989994,-23.0855778993179,0.0 -46.9899616,-23.0854788993179,0.0 -46.989815,-23.0851457993179,0.0 -46.9897294,-23.0849249993179,0.0 -46.9896627,-23.0847821993179,0.0 -46.9896133,-23.0846772993179,0.0 -46.9895828,-23.0846127993179,0.0 -46.9895657,-23.0840302993179,0.0 -46.9895866,-23.0836950993179,0.0 -46.9895918,-23.0836121993179,0.0 -46.9896228,-23.0833670993179,0.0 -46.9896513,-23.0830053993179,0.0 -46.9896608,-23.082900699318,0.0 -46.9896894,-23.0827722993179,0.0 -46.9897013,-23.082593799318,0.0 -46.9896704,-23.082379599318,0.0 -46.9896085,-23.082220199318,0.0 -46.9895347,-23.082075099318,0.0 -46.9894633,-23.081934699318,0.0 -46.9894015,-23.081818099318,0.0 -46.9893658,-23.081768099318,0.0 -46.9893598,-23.081762899318,0.0 -46.9892563,-23.081672899318,0.0 -46.9891492,-23.081611099318,0.0 -46.9889773,-23.081537899318,0.0 -46.9888185,-23.081484999318,0.0 -46.9887019,-23.081470699318,0.0 -46.9885687,-23.081453999318,0.0 -46.9884497,-23.081463499318,0.0 -46.9883188,-23.081477799318,0.0 -46.9880595,-23.081537299318,0.0 -46.9878144,-23.081613499318,0.0 -46.9877113,-23.081667499318,0.0 -46.9876193,-23.081715799318,0.0 -46.9873837,-23.081853799318,0.0 -46.9871243,-23.082010799318,0.0 -46.9869601,-23.082101199318,0.0 -46.9868531,-23.082167899318,0.0 -46.9867484,-23.082205899318,0.0 -46.9866698,-23.082210699318,0.0 -46.9865913,-23.082196399318,0.0 -46.9865176,-23.082177399318,0.0 -46.9864676,-23.082141699318,0.0 -46.9864343,-23.082094099318,0.0 -46.9864105,-23.082015599318,0.0 -46.9863748,-23.081932299318,0.0 -46.9863367,-23.081889499318,0.0 -46.9862106,-23.081789499318,0.0 -46.9861511,-23.081744299318,0.0 -46.9860558,-23.081673599318,0.0 -46.9860417,-23.081663399318,0.0 -46.9857704,-23.081539699318,0.0 -46.9855372,-23.081444499318,0.0 -46.985373,-23.081363599318,0.0 -46.9852541,-23.081282699318,0.0 -46.9844403,-23.081020999318,0.0 -46.984357,-23.080932899318,0.0 -46.9843156,-23.080879699318,0.0 -46.9842904,-23.080847299318,0.0 -46.9842499,-23.080768699318,0.0 -46.9842452,-23.080640299318,0.0 -46.9842333,-23.080404699318,0.0 -46.9842095,-23.080288099318,0.0 -46.9841286,-23.080157199318,0.0 -46.984012,-23.080047799318,0.0 -46.9838978,-23.079981099318,0.0 -46.9837598,-23.079957399318,0.0 -46.9836551,-23.079904999318,0.0 -46.9836146,-23.079790799318,0.0 -46.9835813,-23.079664699318,0.0 -46.9836075,-23.079557599318,0.0 -46.9836527,-23.079343399318,0.0 -46.9836717,-23.079134099318,0.0 -46.9836836,-23.078893699318,0.0 -46.9836931,-23.078708099318,0.0 -46.9836979,-23.078565399318,0.0 -46.9836741,-23.0783963993181,0.0 -46.9835884,-23.0782892993181,0.0 -46.9834671,-23.0781893993181,0.0 -46.9832863,-23.0781108993181,0.0 -46.9830888,-23.0780870993181,0.0 -46.9828461,-23.0780561993181,0.0 -46.9826581,-23.0780275993181,0.0 -46.982482,-23.0780037993181,0.0 -46.9823725,-23.0779942993181,0.0 -46.9820775,-23.0781251993181,0.0 -46.9819847,-23.0781631993181,0.0 -46.9818681,-23.0781679993181,0.0 -46.9817586,-23.0780870993181,0.0 -46.9816016,-23.0779609993181,0.0 -46.981466,-23.0778514993181,0.0 -46.9814036,-23.0777905993181,0.0 -46.9813947,-23.0777818993181,0.0 -46.981391,-23.0777782993181,0.0 -46.9813637,-23.0777515993181,0.0 -46.9813618,-23.0777492993181,0.0 -46.9813496,-23.0777339993181,0.0 -46.98114,-23.0774731993181,0.0 -46.9810734,-23.0773256993181,0.0 -46.981071,-23.0772114993181,0.0 -46.9810946,-23.0770192993181,0.0 -46.9811281,-23.0767426993181,0.0 -46.9811495,-23.0765832993181,0.0 -46.9811852,-23.0763738993181,0.0 -46.9812352,-23.0762101993181,0.0 -46.9812566,-23.0760002993181,0.0 -46.9813051,-23.0754677993181,0.0 -46.9813023,-23.0752707993181,0.0 -46.9812851,-23.0750851993181,0.0 -46.9812709,-23.0749152993181,0.0 -46.9812494,-23.0747510993181,0.0 -46.9812452,-23.0746511993181,0.0 -46.9812551,-23.0745097993181,0.0 -46.981308,-23.0743527993181,0.0 -46.9813108,-23.0742413993181,0.0 -46.9812894,-23.0741499993181,0.0 -46.9812623,-23.0740843993181,0.0 -46.9811852,-23.0739943993182,0.0 -46.9810681,-23.0739358993181,0.0 -46.9808383,-23.0738458993182,0.0 -46.9806684,-23.0737973993182,0.0 -46.9805085,-23.0737502993182,0.0 -46.9804028,-23.0737373993182,0.0 -46.9802615,-23.0736959993182,0.0 -46.9801687,-23.0736574993182,0.0 -46.9800873,-23.0735674993182,0.0 -46.9800445,-23.0734975993182,0.0 -46.9800259,-23.0733747993182,0.0 -46.980063,-23.0732148993182,0.0 -46.9801298,-23.0729917993182,0.0 -46.9802071,-23.0728252993182,0.0 -46.9803112,-23.0726170993182,0.0 -46.9804153,-23.0724504993182,0.0 -46.9805045,-23.0722838993182,0.0 -46.9805521,-23.0721441993182,0.0 -46.9805521,-23.0720221993182,0.0 -46.9805432,-23.0719031993182,0.0 -46.9804897,-23.0717752993182,0.0 -46.9803201,-23.0715194993182,0.0 -46.9800971,-23.0711923993182,0.0 -46.9799127,-23.0709543993182,0.0 -46.9797967,-23.0707937993182,0.0 -46.9796896,-23.0706420993182,0.0 -46.9795914,-23.0705409993182,0.0 -46.9794754,-23.0704576993182,0.0 -46.9793089,-23.0703089993182,0.0 -46.9791929,-23.0701721993182,0.0 -46.9790233,-23.0700055993182,0.0 -46.9788716,-23.0698389993182,0.0 -46.9787497,-23.0696962993182,0.0 -46.9786248,-23.0695415993183,0.0 -46.9784999,-23.0693928993183,0.0 -46.9784255,-23.0693006993183,0.0 -46.9783749,-23.0692233993183,0.0 -46.9783601,-23.0691281993183,0.0 -46.9783184,-23.0689050993183,0.0 -46.9782946,-23.0687176993183,0.0 -46.9782262,-23.0684202993183,0.0 -46.9781905,-23.0682804993183,0.0 -46.9781162,-23.0680633993183,0.0 -46.9780805,-23.0678908993183,0.0 -46.9780507,-23.0677569993183,0.0 -46.9779407,-23.0674744993183,0.0 -46.9778961,-23.0673465993183,0.0 -46.9778574,-23.0672632993183,0.0 -46.977789,-23.0671412993183,0.0 -46.9776819,-23.0669776993183,0.0 -46.977551,-23.0668260993183,0.0 -46.9774707,-23.0667486993183,0.0 -46.9773904,-23.0666356993183,0.0 -46.977325,-23.0665345993183,0.0 -46.9772744,-23.0664304993183,0.0 -46.977212,-23.0662876993183,0.0 -46.9770781,-23.0661121993183,0.0 -46.9768669,-23.0659366993183,0.0 -46.9766468,-23.0658058993183,0.0 -46.9764148,-23.0656957993183,0.0 -46.9762185,-23.0656333993183,0.0 -46.9759955,-23.0655619993183,0.0 -46.975823,-23.0654935993183,0.0 -46.9756237,-23.0654072993183,0.0 -46.9754988,-23.0653358993183,0.0 -46.9754125,-23.0653001993183,0.0 -46.9752935,-23.0652466993183,0.0 -46.9751865,-23.0652287993184,0.0 -46.9749904,-23.0652248993184,0.0 -46.9748167,-23.0652200993183,0.0 -46.9746025,-23.0651867993184,0.0 -46.9742242,-23.0650820993184,0.0 -46.9735912,-23.0648964993184,0.0 -46.9734318,-23.0648012993184,0.0 -46.9732462,-23.0646656993184,0.0 -46.9731368,-23.0645704993184,0.0 -46.9729702,-23.0644086993184,0.0 -46.9728988,-23.0643253993184,0.0 -46.9727727,-23.0642040993184,0.0 -46.9726252,-23.0640493993184,0.0 -46.972442,-23.0638637993184,0.0 -46.9724343,-23.0638568993184,0.0 -46.972204,-23.0636472993184,0.0 -46.9719851,-23.0634759993184,0.0 -46.9718709,-23.0633426993184,0.0 -46.9717852,-23.0632617993184,0.0 -46.9714473,-23.0629881993184,0.0 -46.9713902,-23.0629214993184,0.0 -46.9712546,-23.0628025993184,0.0 -46.9711261,-23.0626859993184,0.0 -46.9709381,-23.0624360993184,0.0 -46.9708239,-23.0622171993184,0.0 -46.9707218,-23.0620102993184,0.0 -46.9706597,-23.0618816993184,0.0 -46.9705955,-23.0617055993184,0.0 -46.970517,-23.0615628993184,0.0 -46.9704503,-23.0614819993184,0.0 -46.9703989,-23.0614262993184,0.0 -46.9703661,-23.0614119993184,0.0 -46.9703247,-23.0614162993184,0.0 -46.970279,-23.0614305993184,0.0 -46.9702465,-23.0614441993184,0.0 -46.9702176,-23.0614562993184,0.0 -46.9701334,-23.0615090993184,0.0 -46.9701106,-23.0615475993184,0.0 -46.9700949,-23.0616546993184,0.0 -46.9700392,-23.0619459993184,0.0 -46.9700097,-23.0621235993184,0.0 -46.969971,-23.0622662993184,0.0 -46.9698788,-23.0623614993184,0.0 -46.9698074,-23.0624060993184,0.0 -46.969742,-23.0624625993184,0.0 -46.9696706,-23.0625726993184,0.0 -46.9696706,-23.0626559993184,0.0 -46.969739,-23.0627570993184,0.0 -46.969855,-23.0628403993184,0.0 -46.9699829,-23.0629265993184,0.0 -46.9700275,-23.0629860993184,0.0 -46.9700305,-23.0630366993184,0.0 -46.9700156,-23.0632299993184,0.0 -46.9700037,-23.0633370993184,0.0 -46.9700097,-23.0634649993184,0.0 -46.9700216,-23.0635482993184,0.0 -46.9699859,-23.0637028993184,0.0 -46.9699323,-23.0638248993184,0.0 -46.9698609,-23.0638724993184,0.0 -46.9697806,-23.0639824993184,0.0 -46.9697122,-23.0641282993184,0.0 -46.9696409,-23.0641936993184,0.0 -46.9695367,-23.0642412993184,0.0 -46.9694386,-23.0642293993184,0.0 -46.9693732,-23.0641728993184,0.0 -46.9692691,-23.0641430993184,0.0 -46.9691233,-23.0641252993184,0.0 -46.9690252,-23.0641163993184,0.0 -46.9689359,-23.0641371993184,0.0 -46.9688324,-23.0641895993184,0.0 -46.9687456,-23.0642352993184,0.0 -46.968585,-23.0642888993184,0.0 -46.9683589,-23.0643631993184,0.0 -46.9681537,-23.0644434993184,0.0 -46.9680228,-23.0644791993184,0.0 -46.9678622,-23.0645059993184,0.0 -46.9677551,-23.0645475993184,0.0 -46.9677016,-23.0645951993184,0.0 -46.9676302,-23.0647022993184,0.0 -46.9675737,-23.0647974993184,0.0 -46.967535,-23.0648628993184,0.0 -46.9675023,-23.0649788993184,0.0 -46.9674577,-23.0650621993184,0.0 -46.9674012,-23.0650740993184,0.0 -46.9673476,-23.0650353993184,0.0 -46.9673298,-23.0650086993184,0.0 -46.9671662,-23.0647974993184,0.0 -46.9671067,-23.0646278993184,0.0 -46.9670621,-23.0645386993184,0.0 -46.9669705,-23.0644156993184,0.0 -46.966872,-23.0642885993184,0.0 -46.9667763,-23.0642214993184,0.0 -46.9666264,-23.0641343993184,0.0 -46.9664722,-23.0640601993184,0.0 -46.9663823,-23.0640073993184,0.0 -46.9662452,-23.0639616993184,0.0 -46.966151,-23.0639445993184,0.0 -46.965984,-23.0639545993184,0.0 -46.9658698,-23.0639959993184,0.0 -46.9657313,-23.0640744993184,0.0 -46.9655842,-23.0641600993184,0.0 -46.9655214,-23.0641829993184,0.0 -46.9654572,-23.0642171993184,0.0 -46.9653958,-23.0642557993184,0.0 -46.9653044,-23.0643085993184,0.0 -46.9652573,-23.0643242993184,0.0 -46.9651374,-23.0643499993184,0.0 -46.9650303,-23.0643999993184,0.0 -46.9649161,-23.0644541993184,0.0 -46.964779,-23.0644684993184,0.0 -46.9646919,-23.0644656993184,0.0 -46.9645592,-23.0644656993184,0.0 -46.9644692,-23.0644470993184,0.0 -46.9643864,-23.0644156993184,0.0 -46.9642636,-23.0643813993184,0.0 -46.9641894,-23.0643785993184,0.0 -46.9641037,-23.0643913993184,0.0 -46.9639867,-23.0644427993184,0.0 -46.9638896,-23.0645084993184,0.0 -46.9637325,-23.0646269993184,0.0 -46.9636083,-23.0647111993184,0.0 -46.9635369,-23.0647440993184,0.0 -46.9634456,-23.0648182993184,0.0 -46.9633999,-23.0648824993184,0.0 -46.9633585,-23.0650138993184,0.0 -46.9632928,-23.0651109993184,0.0 -46.9631629,-23.0651994993183,0.0 -46.9630701,-23.0652679993184,0.0 -46.9629744,-23.0653721993183,0.0 -46.9629245,-23.0654221993183,0.0 -46.9628145,-23.0655306993183,0.0 -46.9627646,-23.0655991993183,0.0 -46.9626304,-23.0657690993183,0.0 -46.9625133,-23.0659132993183,0.0 -46.9624419,-23.0659846993183,0.0 -46.9623605,-23.0660189993183,0.0 -46.9622349,-23.0660203993183,0.0 -46.9620864,-23.0660089993183,0.0 -46.9619779,-23.0660203993183,0.0 -46.961798,-23.0660674993183,0.0 -46.9616624,-23.0661202993183,0.0 -46.9615463,-23.0661898993183,0.0 -46.9614005,-23.0663445993183,0.0 -46.9612637,-23.0664902993183,0.0 -46.9611239,-23.0666657993183,0.0 -46.9610585,-23.0668025993183,0.0 -46.9610347,-23.0669870993183,0.0 -46.9610258,-23.0671059993183,0.0 -46.9609387,-23.0672291993183,0.0 -46.9608911,-23.0672910993183,0.0 -46.9608364,-23.0673933993183,0.0 -46.9607983,-23.0674670993183,0.0 -46.9607626,-23.0675194993183,0.0 -46.9607079,-23.0675551993183,0.0 -46.9606341,-23.0676027993183,0.0 -46.9605437,-23.0676598993183,0.0 -46.9604688,-23.0676895993183,0.0 -46.9603831,-23.0677038993183,0.0 -46.9602475,-23.0677538993183,0.0 -46.9601047,-23.0677895993183,0.0 -46.9599405,-23.0678180993183,0.0 -46.9598122,-23.0679120993183,0.0 -46.9597052,-23.0679358993183,0.0 -46.9596427,-23.0679804993183,0.0 -46.9595535,-23.0680518993183,0.0 -46.9594821,-23.0680845993183,0.0 -46.9594345,-23.0680964993183,0.0 -46.9593096,-23.0681023993183,0.0 -46.9591668,-23.0680666993183,0.0 -46.9590449,-23.0680428993183,0.0 -46.9589872,-23.0680103993183,0.0 -46.9589677,-23.0679840993183,0.0 -46.9589301,-23.0679342993183,0.0 -46.9589015,-23.0678747993183,0.0 -46.9588515,-23.0677629993183,0.0 -46.9588325,-23.0676891993183,0.0 -46.9587897,-23.0675558993183,0.0 -46.9587492,-23.0674845993183,0.0 -46.9586826,-23.0674178993183,0.0 -46.9585946,-23.0673726993183,0.0 -46.9584803,-23.0673298993183,0.0 -46.9583638,-23.0672941993183,0.0 -46.9582162,-23.0672775993183,0.0 -46.9581306,-23.0672846993183,0.0 -46.9579688,-23.0672917993183,0.0 -46.9578355,-23.0672727993183,0.0 -46.9577165,-23.0672299993183,0.0 -46.9575785,-23.0671561993183,0.0 -46.9574929,-23.0671085993183,0.0 -46.9573668,-23.0669967993183,0.0 -46.9572597,-23.0669110993183,0.0 -46.9572264,-23.0668111993183,0.0 -46.9571621,-23.0666445993183,0.0 -46.9570384,-23.0664494993183,0.0 -46.9569385,-23.0663209993183,0.0 -46.9567195,-23.0661020993183,0.0 -46.9565863,-23.0659592993183,0.0 -46.9564591,-23.0658587993183,0.0 -46.9564388,-23.0658426993183,0.0 -46.956384,-23.0657784993183,0.0 -46.9562817,-23.0656903993183,0.0 -46.9562008,-23.0656071993183,0.0 -46.9560961,-23.0655571993183,0.0 -46.9559534,-23.0655000993183,0.0 -46.9556155,-23.0654215993183,0.0 -46.9554917,-23.0653977993184,0.0 -46.9549397,-23.0654357993183,0.0 -46.954747,-23.0654833993183,0.0 -46.9545875,-23.0655238993183,0.0 -46.9544043,-23.0655381993183,0.0 -46.9543163,-23.0655095993183,0.0 -46.9542282,-23.0654595993183,0.0 -46.9541854,-23.0653644993184,0.0 -46.9541236,-23.0652311993184,0.0 -46.954095,-23.0650812993183,0.0 -46.9540617,-23.0648528993184,0.0 -46.9540641,-23.0646862993184,0.0 -46.9540736,-23.0645197993184,0.0 -46.9541354,-23.0642651993184,0.0 -46.9541521,-23.0641128993184,0.0 -46.9541307,-23.0639391993184,0.0 -46.9540902,-23.0638510993184,0.0 -46.9540189,-23.0637725993184,0.0 -46.953957,-23.0637392993184,0.0 -46.9538666,-23.0637035993184,0.0 -46.9537952,-23.0637083993184,0.0 -46.9536715,-23.0637535993184,0.0 -46.953562,-23.0638605993184,0.0 -46.9534882,-23.0639486993184,0.0 -46.953374,-23.0640271993184,0.0 -46.9532907,-23.0640771993184,0.0 -46.9531123,-23.0641627993184,0.0 -46.9529124,-23.0642317993184,0.0 -46.9527815,-23.0642532993184,0.0 -46.9526602,-23.0642555993184,0.0 -46.9525436,-23.0642460993184,0.0 -46.9524151,-23.0642246993184,0.0 -46.9522033,-23.0642032993184,0.0 -46.9520487,-23.0641770993184,0.0 -46.9518083,-23.0641151993184,0.0 -46.951637,-23.0640485993184,0.0 -46.951518,-23.0640105993184,0.0 -46.9512515,-23.0638772993184,0.0 -46.9510088,-23.0638201993184,0.0 -46.9508566,-23.0638082993184,0.0 -46.9506591,-23.0637939993184,0.0 -46.9503973,-23.0638177993184,0.0 -46.9502189,-23.0638605993184,0.0 -46.9498881,-23.0639058993184,0.0 -46.9496573,-23.0638820993184,0.0 -46.9494003,-23.0637773993184,0.0 -46.9492504,-23.0636868993184,0.0 -46.9491678,-23.0636143993184,0.0 -46.9491155,-23.0635929993184,0.0 -46.9490108,-23.0635952993184,0.0 -46.9489477,-23.0636345993184,0.0 -46.9488989,-23.0636904993184,0.0 -46.9488418,-23.0638106993184,0.0 -46.9487264,-23.0640105993184,0.0 -46.9486301,-23.0642008993184,0.0 -46.9485105,-23.0643034993184,0.0 -46.9483915,-23.0643391993184,0.0 -46.9482297,-23.0643677993184,0.0 -46.9481274,-23.0643962993184,0.0 -46.9480132,-23.0644747993184,0.0 -46.9479014,-23.0645794993184,0.0 -46.9478133,-23.0647293993184,0.0 -46.9477324,-23.0648602993184,0.0 -46.9476182,-23.0650482993184,0.0 -46.9475349,-23.0651600993184,0.0 -46.9474159,-23.0652267993184,0.0 -46.9473327,-23.0652481993183,0.0 -46.9471685,-23.0652742993183,0.0 -46.9470339,-23.0652850993183,0.0 -46.9468673,-23.0652861993183,0.0 -46.9467103,-23.0652381993184,0.0 -46.9465212,-23.0651932993184,0.0 -46.9461271,-23.0651515993183,0.0 -46.9458451,-23.0651387993184,0.0 -46.9456368,-23.0651612993184,0.0 -46.9455375,-23.0652060993184,0.0 -46.945326,-23.0653919993183,0.0 -46.9452235,-23.0655617993183,0.0 -46.9451498,-23.0656418993183,0.0 -46.9450921,-23.0656578993183,0.0 -46.9448483,-23.0656784993183,0.0 -46.9447268,-23.0656931993183,0.0 -46.9445826,-23.0657315993183,0.0 -46.9445345,-23.0657796993183,0.0 -46.9444544,-23.0658725993183,0.0 -46.9443279,-23.0659783993183,0.0 -46.9442221,-23.0660231993183,0.0 -46.9441035,-23.0660456993183,0.0 -46.944017,-23.0660744993183,0.0 -46.9439145,-23.0661930993183,0.0 -46.9437158,-23.0664173993183,0.0 -46.9435332,-23.0665967993183,0.0 -46.9433634,-23.0667249993183,0.0 -46.9431711,-23.0668146993183,0.0 -46.9430205,-23.0668370993183,0.0 -46.9429115,-23.0668338993183,0.0 -46.9427449,-23.0667537993183,0.0 -46.9425495,-23.0666191993183,0.0 -46.9421874,-23.0662987993183,0.0 -46.9419422,-23.0660456993183,0.0 -46.9417179,-23.0657892993183,0.0 -46.9415513,-23.0656386993183,0.0 -46.9414296,-23.0655329993183,0.0 -46.9412245,-23.0654047993183,0.0 -46.9410482,-23.0653662993183,0.0 -46.9408848,-23.0653502993183,0.0 -46.9407118,-23.0653214993183,0.0 -46.9404843,-23.0652701993184,0.0 -46.9401991,-23.0651515993183,0.0 -46.9400245,-23.0651035993184,0.0 -46.9398322,-23.0650650993184,0.0 -46.9397265,-23.0649817993184,0.0 -46.9395759,-23.0648952993184,0.0 -46.939499,-23.0648343993184,0.0 -46.9394253,-23.0646517993184,0.0 -46.9393708,-23.0644242993184,0.0 -46.9393996,-23.0642447993184,0.0 -46.939414,-23.0641646993184,0.0 -46.9394172,-23.0640493993184,0.0 -46.9394525,-23.0639243993184,0.0 -46.9394493,-23.0637833993184,0.0 -46.9394076,-23.0636359993184,0.0 -46.9393179,-23.0635686993184,0.0 -46.9391929,-23.0635302993184,0.0 -46.939052,-23.0635206993184,0.0 -46.9387411,-23.0635334993184,0.0 -46.9385329,-23.0635206993184,0.0 -46.9383374,-23.0634501993184,0.0 -46.9381467,-23.0633700993184,0.0 -46.9380218,-23.0632642993184,0.0 -46.9379224,-23.0632065993184,0.0 -46.9377975,-23.0631457993184,0.0 -46.93757,-23.0630944993184,0.0 -46.9374546,-23.0630527993184,0.0 -46.9373072,-23.0629726993184,0.0 -46.9371342,-23.0629438993184,0.0 -46.9369227,-23.0628989993184,0.0 -46.9368362,-23.0628605993184,0.0 -46.9367464,-23.0627900993184,0.0 -46.9367016,-23.0626746993184,0.0 -46.9366471,-23.0624663993184,0.0 -46.9366119,-23.0622677993184,0.0 -46.9365702,-23.0621235993184,0.0 -46.9365286,-23.0619985993184,0.0 -46.9364613,-23.0619408993184,0.0 -46.9363139,-23.0618255993184,0.0 -46.936144,-23.0617390993184,0.0 -46.9359774,-23.0616268993184,0.0 -46.9358621,-23.0615275993184,0.0 -46.9357627,-23.0613416993184,0.0 -46.9356954,-23.0611205993184,0.0 -46.9356858,-23.0610020993185,0.0 -46.9356858,-23.0608417993184,0.0 -46.9357339,-23.0607104993185,0.0 -46.9357467,-23.0605694993185,0.0 -46.9357371,-23.0604765993185,0.0 -46.935657,-23.0603194993185,0.0 -46.935516,-23.0601048993185,0.0 -46.9354006,-23.0599285993185,0.0 -46.9353173,-23.0597907993185,0.0 -46.9352436,-23.0596017993185,0.0 -46.9352084,-23.0594511993185,0.0 -46.9351859,-23.0592108993185,0.0 -46.9352212,-23.0590569993185,0.0 -46.9352244,-23.0589736993185,0.0 -46.9352084,-23.0589128993185,0.0 -46.9351626,-23.0588289993185,0.0 -46.9351251,-23.0587654993185,0.0 -46.9350321,-23.0586564993185,0.0 -46.9348175,-23.0584706993185,0.0 -46.9346028,-23.0581694993185,0.0 -46.9344233,-23.0579066993185,0.0 -46.9342759,-23.0577368993185,0.0 -46.9340196,-23.0575445993185,0.0 -46.9336415,-23.0572786993185,0.0 -46.9334652,-23.0570030993185,0.0 -46.9333947,-23.0568588993185,0.0 -46.9333883,-23.0567915993185,0.0 -46.9333787,-23.0567018993185,0.0 -46.9333178,-23.0566185993185,0.0 -46.9332441,-23.0565960993186,0.0 -46.9329365,-23.0564903993186,0.0 -46.932717,-23.0563749993186,0.0 -46.9325568,-23.0562884993186,0.0 -46.9324094,-23.0562307993186,0.0 -46.9321755,-23.0561474993186,0.0 -46.9319544,-23.0560545993186,0.0 -46.9315763,-23.0558110993186,0.0 -46.9310348,-23.0554425993186,0.0 -46.930788,-23.0553464993186,0.0 -46.9304836,-23.0552791993186,0.0 -46.9303106,-23.0552791993186,0.0 -46.9300062,-23.0552855993186,0.0 -46.9296889,-23.0552919993186,0.0 -46.9294454,-23.0553464993186,0.0 -46.9291795,-23.0554201993186,0.0 -46.9290032,-23.0554104993186,0.0 -46.9288526,-23.0553912993186,0.0 -46.9287982,-23.0553688993186,0.0 -46.928702,-23.0552759993186,0.0 -46.9285546,-23.0551156993186,0.0 -46.9284457,-23.0550035993186,0.0 -46.9283688,-23.0549714993186,0.0 -46.9282406,-23.0549682993186,0.0 -46.9281188,-23.0549843993186,0.0 -46.9277119,-23.0550804993186,0.0 -46.9271864,-23.0551733993186,0.0 -46.9265872,-23.0552919993186,0.0 -46.9264141,-23.0553079993186,0.0 -46.9261738,-23.0552598993186,0.0 -46.9257348,-23.0551092993186,0.0 -46.9254304,-23.0550003993186,0.0 -46.9250811,-23.0549394993186,0.0 -46.9247575,-23.0549458993186,0.0 -46.9244787,-23.0549618993186,0.0 -46.924232,-23.0549266993186,0.0 -46.9238251,-23.0548112993186,0.0 -46.9235367,-23.0546702993186,0.0 -46.9232899,-23.0545260993186,0.0 -46.9231073,-23.0544652993186,0.0 -46.9227965,-23.0543658993186,0.0 -46.9223286,-23.0542889993186,0.0 -46.9221556,-23.0542409993186,0.0 -46.9220563,-23.0541479993186,0.0 -46.9219185,-23.0539012993186,0.0 -46.9218127,-23.0536481993186,0.0 -46.9217455,-23.0535263993186,0.0 -46.9216109,-23.0533661993186,0.0 -46.9213257,-23.0530777993186,0.0 -46.9211895,-23.0528214993186,0.0 -46.9211639,-23.0526547993186,0.0 -46.921135,-23.0524913993186,0.0 -46.9211639,-23.0522638993186,0.0 -46.9211991,-23.0520940993187,0.0 -46.9212472,-23.0519113993187,0.0 -46.9212664,-23.0517030993187,0.0 -46.9212824,-23.0516197993187,0.0 -46.9213209,-23.0515108993187,0.0 -46.9213722,-23.0513890993187,0.0 -46.9213914,-23.0512384993187,0.0 -46.9213962,-23.0510782993187,0.0 -46.9213898,-23.0507898993187,0.0 -46.9213289,-23.0505303993187,0.0 -46.9212504,-23.0502547993187,0.0 -46.9211927,-23.0499663993187,0.0 -46.9210742,-23.0495209993187,0.0 -46.9209748,-23.0492005993187,0.0 -46.92068,-23.0487775993187,0.0 -46.9206159,-23.0486173993187,0.0 -46.920523,-23.0483065993187,0.0 -46.9204942,-23.0480694993187,0.0 -46.9204782,-23.0476304993188,0.0 -46.9203448,-23.0471991993188,0.0 -46.9202484,-23.0467886993188,0.0 -46.920202,-23.0465994993188,0.0 -46.9201449,-23.0464245993188,0.0 -46.9201088,-23.0463747993188,0.0 -46.9201067,-23.0463753993188,0.0 -46.9201092,-23.0463710993188,0.0 -46.9199094,-23.0462497993188,0.0 -46.9197916,-23.0462175993188,0.0 -46.919399,-23.0464008993188,0.0 -46.919192,-23.0464614993188,0.0 -46.9189957,-23.0464462993188,0.0 -46.9188172,-23.0463296993188,0.0 -46.9186744,-23.0462392993188,0.0 -46.9185602,-23.0461497993188,0.0 -46.9184424,-23.0460248993188,0.0 -46.9182925,-23.0458356993188,0.0 -46.9181533,-23.0456072993188,0.0 -46.9180855,-23.0454787993188,0.0 -46.9180284,-23.0453538993188,0.0 -46.9179784,-23.0452717993188,0.0 -46.9178285,-23.0451289993188,0.0 -46.917725,-23.0449755993188,0.0 -46.917568,-23.0447934993188,0.0 -46.917468,-23.0447399993188,0.0 -46.9173253,-23.0447756993188,0.0 -46.9171611,-23.0448827993188,0.0 -46.917029,-23.0449755993188,0.0 -46.9168756,-23.0450932993188,0.0 -46.9168751,-23.0450989993188,0.0 -46.916578,-23.0452142993188,0.0 -46.9164346,-23.0452366993188,0.0 -46.9162106,-23.0452904993188,0.0 -46.9159937,-23.0457481993188,0.0 -46.9159914,-23.0461998993188,0.0 -46.915533,-23.0467812993188,0.0 -46.9153749,-23.0473912993188,0.0 -46.9150668,-23.0476407993187,0.0 -46.9147896,-23.0477280993187,0.0 -46.9141203,-23.0483637993187,0.0 -46.9132518,-23.0497190993187,0.0 -46.9128342,-23.0501369993187,0.0 -46.9123145,-23.0503493993187,0.0 -46.911718,-23.0505929993187,0.0 -46.9112596,-23.0512667993187,0.0 -46.9105807,-23.0519703993186,0.0 -46.9101715,-23.0529338993186,0.0 -46.9101129,-23.0534907993186,0.0 -46.910163,-23.0540049993186,0.0 -46.9104448,-23.0549794993186,0.0 -46.9104344,-23.0558089993186,0.0 -46.9103304,-23.0560342993186,0.0 -46.910268,-23.0561681993186,0.0 -46.9101151,-23.0563902993186,0.0 -46.9099783,-23.0566639993185,0.0 -46.9098772,-23.0569137993185,0.0 -46.9098754,-23.0570604993185,0.0 -46.9097891,-23.0572180993185,0.0 -46.9097564,-23.0574054993185,0.0 -46.9097058,-23.0575363993185,0.0 -46.9096315,-23.0576404993185,0.0 -46.9095423,-23.0576731993185,0.0 -46.9094233,-23.0576523993185,0.0 -46.9093192,-23.0576136993185,0.0 -46.9091615,-23.0576106993185,0.0 -46.9090842,-23.0576612993185,0.0 -46.9089266,-23.0577861993185,0.0 -46.9089272,-23.0578819993185,0.0 -46.907811,-23.0580218993185,0.0 -46.9072705,-23.0583057993185,0.0 -46.9066441,-23.0588284993185,0.0 -46.9058785,-23.0597858993185,0.0 -46.9051697,-23.0612406993184,0.0 -46.9048483,-23.0621317993184,0.0 -46.9044298,-23.0624345993184,0.0 -46.9041283,-23.0624274993184,0.0 -46.9036703,-23.0622372993184,0.0 -46.9019044,-23.0608581993184,0.0 -46.9015513,-23.0606408993184,0.0 -46.9012902,-23.0607208993185,0.0 -46.8999786,-23.0623238993184,0.0 -46.8987977,-23.0633543993184,0.0 -46.8977237,-23.0646760993184,0.0 -46.8975032,-23.0647802993184,0.0 -46.8972691,-23.0647724993184,0.0 -46.8966854,-23.0644104993184,0.0 -46.8958829,-23.0634917993184,0.0 -46.8953946,-23.0614517993184,0.0 -46.8948146,-23.0605941993185,0.0 -46.8945959,-23.0600715993185,0.0 -46.8940692,-23.0597587993185,0.0 -46.8934572,-23.0597861993185,0.0 -46.8930495,-23.0600697993185,0.0 -46.892742,-23.0603613993185,0.0 -46.8925485,-23.0608053993185,0.0 -46.8917391,-23.0618146993184,0.0 -46.8912836,-23.0626143993184,0.0 -46.8907665,-23.0630824993184,0.0 -46.8904132,-23.0632220993184,0.0 -46.8900677,-23.0632155993184,0.0 -46.8897113,-23.0630451993184,0.0 -46.8895357,-23.0628563993184,0.0 -46.88936,-23.0626674993184,0.0 -46.8889963,-23.0617656993184,0.0 -46.8885203,-23.0612153993184,0.0 -46.8882533,-23.0611459993184,0.0 -46.8879876,-23.0612014993184,0.0 -46.8872256,-23.0622917993184,0.0 -46.8857846,-23.0627518993184,0.0 -46.8856636,-23.0628475993184,0.0 -46.8849842,-23.0633851993184,0.0 -46.8846028,-23.0639455993184,0.0 -46.8841446,-23.0654249993183,0.0 -46.8839324,-23.0668327993183,0.0 -46.8835744,-23.0675055993183,0.0 -46.8831247,-23.0680476993183,0.0 -46.8822983,-23.0686349993183,0.0 -46.881787,-23.0686596993183,0.0 -46.8813494,-23.0683984993183,0.0 -46.8808423,-23.0678996993183,0.0 -46.880168,-23.0668671993183,0.0 -46.8798413,-23.0665417993183,0.0 -46.8794039,-23.0662787993183,0.0 -46.878577,-23.0660621993183,0.0 -46.8781434,-23.0660777993183,0.0 -46.8776141,-23.0662381993183,0.0 -46.8768452,-23.0670506993183,0.0 -46.8764804,-23.0672614993183,0.0 -46.8763172,-23.0675191993183,0.0 -46.8761177,-23.0684092993183,0.0 -46.8759447,-23.0687607993183,0.0 -46.8752128,-23.0697589993182,0.0 -46.8748053,-23.0700379993182,0.0 -46.8735649,-23.0704538993182,0.0 -46.8731502,-23.0710154993182,0.0 -46.8724414,-23.0736242993182,0.0 -46.8721456,-23.0739881993181,0.0 -46.8717145,-23.0742508993181,0.0 -46.8711949,-23.0744314993181,0.0 -46.8707963,-23.0744674993181,0.0 -46.8701262,-23.0743520993181,0.0 -46.868756,-23.0739348993182,0.0 -46.8681664,-23.0739425993182,0.0 -46.8671018,-23.0741929993181,0.0 -46.8666071,-23.0745479993181,0.0 -46.8660023,-23.0754138993181,0.0 -46.8653298,-23.0763766993181,0.0 -46.8666874,-23.0764250993181,0.0 -46.8671267,-23.0765426993181,0.0 -46.8683471,-23.0784601993181,0.0 -46.8687023,-23.078929699318,0.0 -46.8691229,-23.079235099318,0.0 -46.8699242,-23.079554599318,0.0 -46.870252,-23.079685399318,0.0 -46.8704244,-23.079815699318,0.0 -46.8705968,-23.079946099318,0.0 -46.8709426,-23.080428599318,0.0 -46.8715842,-23.081579199318,0.0</coordinates>
</LinearRing>
</outerBoundaryIs>
</Polygon>
</MultiGeometry>
</Placemark>
</Folder>
</Document></kml>
