<?xml version='1.0' encoding='UTF-8'?>
<kml xmlns:xsd="http://www.w3.org/2001/XMLSchema" xmlns:gx="http://www.google.com/kml/ext/2.2" xmlns:atom="http://www.w3.org/2005/Atom" xmlns="http://www.opengis.net/kml/2.2">
<Document>
<name>macedonia_3528205_localidades_2022</name>
<visibility>1</visibility>
<Schema name="01. Cidade" id="kml_schema_ft_01._Cidade">
<SimpleField type="xsd:string" name="CD_UF">
<displayName>CD_UF</displayName>
</SimpleField>
<SimpleField type="xsd:string" name="NM_UF">
<displayName>NM_UF</displayName>
</SimpleField>
<SimpleField type="xsd:string" name="SIGLA_UF">
<displayName>SIGLA_UF</displayName>
</SimpleField>
<SimpleField type="xsd:string" name="CD_MUN">
<displayName>CD_MUN</displayName>
</SimpleField>
<SimpleField type="xsd:string" name="NM_MUN">
<displayName>NM_MUN</displayName>
</SimpleField>
<SimpleField type="xsd:string" name="CD_RGINT">
<displayName>CD_RGINT</displayName>
</SimpleField>
<SimpleField type="xsd:string" name="NM_RGINT">
<displayName>NM_RGINT</displayName>
</SimpleField>
<SimpleField type="xsd:string" name="CD_RGI">
<displayName>CD_RGI</displayName>
</SimpleField>
<SimpleField type="xsd:string" name="NM_RGI">
<displayName>NM_RGI</displayName>
</SimpleField>
<SimpleField type="xsd:string" name="CT_LOCALIDADE">
<displayName>CT_LOCALIDADE</displayName>
</SimpleField>
<SimpleField type="xsd:string" name="SCT_LOCALIDADE">
<displayName>SCT_LOCALIDADE</displayName>
</SimpleField>
<SimpleField type="xsd:string" name="CD_LOCALIDADE">
<displayName>CD_LOCALIDADE</displayName>
</SimpleField>
<SimpleField type="xsd:string" name="NM_LOCALIDADE">
<displayName>NM_LOCALIDADE</displayName>
</SimpleField>
<SimpleField type="xsd:string" name="LAT_LOCALIDADE">
<displayName>LAT_LOCALIDADE</displayName>
</SimpleField>
<SimpleField type="xsd:string" name="LONG_LOCALIDADE">
<displayName>LONG_LOCALIDADE</displayName>
</SimpleField>
</Schema>
<Schema name="Município" id="kml_schema_ft_Município">
<SimpleField type="xsd:string" name="CD_UF">
<displayName>CD_UF</displayName>
</SimpleField>
<SimpleField type="xsd:string" name="NM_UF">
<displayName>NM_UF</displayName>
</SimpleField>
<SimpleField type="xsd:string" name="CD_MUN">
<displayName>CD_MUN</displayName>
</SimpleField>
<SimpleField type="xsd:string" name="NM_MUN">
<displayName>NM_MUN</displayName>
</SimpleField>
<SimpleField type="xsd:string" name="CD_RGINT">
<displayName>CD_RGINT</displayName>
</SimpleField>
<SimpleField type="xsd:string" name="NM_RGINT">
<displayName>NM_RGINT</displayName>
</SimpleField>
<SimpleField type="xsd:string" name="CD_RGI">
<displayName>CD_RGI</displayName>
</SimpleField>
<SimpleField type="xsd:string" name="NM_RGI">
<displayName>NM_RGI</displayName>
</SimpleField>
</Schema>
<Folder id="01. Cidade">
<name>01. Cidade</name>
<Folder id="01.03. Sede Municipal">
<name>01.03. Sede Municipal</name>
<Placemark id="01.03. Sede Municipal">
<name>Macedônia [3528205]</name>
<visibility>1</visibility>
<snippet> </snippet>
<description>&lt;center&gt;&lt;table&gt;&lt;tr&gt;&lt;th colspan='2' align='center'&gt;&lt;em&gt;Atributos&lt;/em&gt;&lt;/th&gt;&lt;/tr&gt;&lt;tr bgcolor="#E3E3F3"&gt;
&lt;th&gt;CD_UF&lt;/th&gt;
&lt;td&gt;35&lt;/td&gt;
&lt;/tr&gt;&lt;tr bgcolor=""&gt;
&lt;th&gt;NM_UF&lt;/th&gt;
&lt;td&gt;São Paulo&lt;/td&gt;
&lt;/tr&gt;&lt;tr bgcolor="#E3E3F3"&gt;
&lt;th&gt;SIGLA_UF&lt;/th&gt;
&lt;td&gt;SP&lt;/td&gt;
&lt;/tr&gt;&lt;tr bgcolor=""&gt;
&lt;th&gt;CD_MUN&lt;/th&gt;
&lt;td&gt;3528205&lt;/td&gt;
&lt;/tr&gt;&lt;tr bgcolor="#E3E3F3"&gt;
&lt;th&gt;NM_MUN&lt;/th&gt;
&lt;td&gt;Macedônia&lt;/td&gt;
&lt;/tr&gt;&lt;tr bgcolor=""&gt;
&lt;th&gt;CD_RGINT&lt;/th&gt;
&lt;td&gt;3507&lt;/td&gt;
&lt;/tr&gt;&lt;tr bgcolor="#E3E3F3"&gt;
&lt;th&gt;NM_RGINT&lt;/th&gt;
&lt;td&gt;São José do Rio Preto&lt;/td&gt;
&lt;/tr&gt;&lt;tr bgcolor=""&gt;
&lt;th&gt;CD_RGI&lt;/th&gt;
&lt;td&gt;350029&lt;/td&gt;
&lt;/tr&gt;&lt;tr bgcolor="#E3E3F3"&gt;
&lt;th&gt;NM_RGI&lt;/th&gt;
&lt;td&gt;Fernandópolis&lt;/td&gt;
&lt;/tr&gt;&lt;tr bgcolor=""&gt;
&lt;th&gt;CT_LOCALIDADE&lt;/th&gt;
&lt;td&gt;Cidade&lt;/td&gt;
&lt;/tr&gt;&lt;tr bgcolor="#E3E3F3"&gt;
&lt;th&gt;SCT_LOCALIDADE&lt;/th&gt;
&lt;td&gt;Sede Municipal&lt;/td&gt;
&lt;/tr&gt;&lt;tr bgcolor=""&gt;
&lt;th&gt;CD_LOCALIDADE&lt;/th&gt;
&lt;td&gt;3528205&lt;/td&gt;
&lt;/tr&gt;&lt;tr bgcolor="#E3E3F3"&gt;
&lt;th&gt;NM_LOCALIDADE&lt;/th&gt;
&lt;td&gt;Macedônia&lt;/td&gt;
&lt;/tr&gt;&lt;tr bgcolor=""&gt;
&lt;th&gt;LAT_LOCALIDADE&lt;/th&gt;
&lt;td&gt;-20.1457&lt;/td&gt;
&lt;/tr&gt;&lt;tr bgcolor="#E3E3F3"&gt;
&lt;th&gt;LONG_LOCALIDADE&lt;/th&gt;
&lt;td&gt;-50.1946&lt;/td&gt;
&lt;/tr&gt;&lt;/table&gt;&lt;/center&gt;</description>
<Style>
<IconStyle>
<color>ff00aaff</color>
<scale>1.0</scale>
<Icon>
<href>http://maps.google.com/mapfiles/kml/shapes/placemark_circle.png</href>
</Icon>
</IconStyle>
<LabelStyle>
<scale>1.0</scale>
</LabelStyle>
<LineStyle>
<color>ffffffff</color>
<width>3</width>
<gx:labelVisibility>1</gx:labelVisibility>
</LineStyle>
<PolyStyle>
<color>00ffffff</color>
</PolyStyle>
</Style>
<ExtendedData>
<SchemaData schemaUrl="#kml_schema_ft_01._Cidade">
<SimpleData name="CD_UF">35</SimpleData>
<SimpleData name="NM_UF">São Paulo</SimpleData>
<SimpleData name="SIGLA_UF">SP</SimpleData>
<SimpleData name="CD_MUN">3528205</SimpleData>
<SimpleData name="NM_MUN">Macedônia</SimpleData>
<SimpleData name="CD_RGINT">3507</SimpleData>
<SimpleData name="NM_RGINT">São José do Rio Preto</SimpleData>
<SimpleData name="CD_RGI">350029</SimpleData>
<SimpleData name="NM_RGI">Fernandópolis</SimpleData>
<SimpleData name="CT_LOCALIDADE">Cidade</SimpleData>
<SimpleData name="SCT_LOCALIDADE">Sede Municipal</SimpleData>
<SimpleData name="CD_LOCALIDADE">3528205</SimpleData>
<SimpleData name="NM_LOCALIDADE">Macedônia</SimpleData>
<SimpleData name="LAT_LOCALIDADE">-20.1457</SimpleData>
<SimpleData name="LONG_LOCALIDADE">-50.1946</SimpleData>
</SchemaData>
</ExtendedData>
<Point>
<extrude>0</extrude>
<coordinates>-50.194575,-20.1456999993883,0.0</coordinates>
</Point>
</Placemark>
</Folder>
</Folder>
<Folder id="13. Referência">
<name>13. Referência</name>
<Placemark id="13. Referência">
<name>Macedônia [3528205]</name>
<visibility>1</visibility>
<snippet> </snippet>
<description>&lt;center&gt;&lt;table&gt;&lt;tr&gt;&lt;th colspan='2' align='center'&gt;&lt;em&gt;Attributes&lt;/em&gt;&lt;/th&gt;&lt;/tr&gt;&lt;tr bgcolor="#E3E3F3"&gt;
&lt;th&gt;CD_UF&lt;/th&gt;
&lt;td&gt;35&lt;/td&gt;
&lt;/tr&gt;&lt;tr bgcolor=""&gt;
&lt;th&gt;NM_UF&lt;/th&gt;
&lt;td&gt;São Paulo&lt;/td&gt;
&lt;/tr&gt;&lt;tr bgcolor="#E3E3F3"&gt;
&lt;th&gt;CD_MUN&lt;/th&gt;
&lt;td&gt;3528205&lt;/td&gt;
&lt;/tr&gt;&lt;tr bgcolor=""&gt;
&lt;th&gt;NM_MUN&lt;/th&gt;
&lt;td&gt;Macedônia&lt;/td&gt;
&lt;/tr&gt;&lt;tr bgcolor="#E3E3F3"&gt;
&lt;th&gt;CD_RGINT&lt;/th&gt;
&lt;td&gt;3507&lt;/td&gt;
&lt;/tr&gt;&lt;tr bgcolor=""&gt;
&lt;th&gt;NM_RGINT&lt;/th&gt;
&lt;td&gt;São José do Rio Preto&lt;/td&gt;
&lt;/tr&gt;&lt;tr bgcolor="#E3E3F3"&gt;
&lt;th&gt;CD_RGI&lt;/th&gt;
&lt;td&gt;350029&lt;/td&gt;
&lt;/tr&gt;&lt;tr bgcolor=""&gt;
&lt;th&gt;NM_RGI&lt;/th&gt;
&lt;td&gt;Fernandópolis&lt;/td&gt;
&lt;/tr&gt;&lt;/table&gt;&lt;/center&gt;</description>
<Style>
<IconStyle>
<scale>0.7</scale>
</IconStyle>
<LabelStyle>
<scale>0.7</scale>
</LabelStyle>
<LineStyle>
<color>ffffffff</color>
<width>3</width>
<gx:labelVisibility>1</gx:labelVisibility>
</LineStyle>
<PolyStyle>
<color>00ffffff</color>
</PolyStyle>
</Style>
<ExtendedData>
<SchemaData schemaUrl="#kml_schema_ft_Município">
<SimpleData name="CD_UF">35</SimpleData>
<SimpleData name="NM_UF">São Paulo</SimpleData>
<SimpleData name="CD_MUN">3528205</SimpleData>
<SimpleData name="NM_MUN">Macedônia</SimpleData>
<SimpleData name="CD_RGINT">3507</SimpleData>
<SimpleData name="NM_RGINT">São José do Rio Preto</SimpleData>
<SimpleData name="CD_RGI">350029</SimpleData>
<SimpleData name="NM_RGI">Fernandópolis</SimpleData>
</SchemaData>
</ExtendedData>
<MultiGeometry>
<Polygon>
<extrude>0</extrude>
<tessellate>1</tessellate>
<outerBoundaryIs>
<LinearRing>
<coordinates>-50.2209257,-20.2057279993868,0.0 -50.2220342,-20.2053648993868,0.0 -50.2215562,-20.2048261993868,0.0 -50.2206388,-20.2030678993869,0.0 -50.2198352,-20.2021018993869,0.0 -50.2202115,-20.198689499387,0.0 -50.2202109,-20.197289099387,0.0 -50.220625,-20.1953996993871,0.0 -50.2210339,-20.1943966993871,0.0 -50.2212355,-20.1930257993871,0.0 -50.2222679,-20.1902180993872,0.0 -50.2226769,-20.1874276993873,0.0 -50.2226695,-20.1861488993873,0.0 -50.2230368,-20.1846894993873,0.0 -50.2239017,-20.1826329993874,0.0 -50.2243036,-20.1788613993875,0.0 -50.2247891,-20.1778157993875,0.0 -50.2248765,-20.1766119993875,0.0 -50.2251932,-20.1758981993876,0.0 -50.2258405,-20.1752068993876,0.0 -50.2278753,-20.1739193993876,0.0 -50.2285016,-20.1738587993876,0.0 -50.229167,-20.1740398993876,0.0 -50.2298236,-20.1740349993876,0.0 -50.2312393,-20.1736170993876,0.0 -50.2316898,-20.1733083993876,0.0 -50.2322075,-20.1731462993876,0.0 -50.2326724,-20.1728369993876,0.0 -50.2331864,-20.1722311993876,0.0 -50.2345335,-20.1700892993877,0.0 -50.2354602,-20.1688772993877,0.0 -50.2361523,-20.1683852993878,0.0 -50.23643,-20.1680601993878,0.0 -50.2362642,-20.1667562993878,0.0 -50.2363693,-20.1665249993878,0.0 -50.2377633,-20.1654923993878,0.0 -50.2389346,-20.1653270993878,0.0 -50.2392979,-20.1651823993878,0.0 -50.2417601,-20.1637721993879,0.0 -50.2423091,-20.1632653993879,0.0 -50.2428132,-20.1626303993879,0.0 -50.2434432,-20.1610178993879,0.0 -50.2440606,-20.1604069993879,0.0 -50.2444366,-20.159530299388,0.0 -50.2446417,-20.159276799388,0.0 -50.2463788,-20.158334399388,0.0 -50.2475192,-20.157580399388,0.0 -50.2498336,-20.1557439993881,0.0 -50.2519683,-20.1533381993881,0.0 -50.2535078,-20.1511334993882,0.0 -50.2548179,-20.1498780993882,0.0 -50.2570645,-20.1482672993883,0.0 -50.2576442,-20.1473858993883,0.0 -50.2583633,-20.1471206993883,0.0 -50.260178,-20.1475739993883,0.0 -50.2621721,-20.1468766993883,0.0 -50.2641972,-20.1458860993883,0.0 -50.2655139,-20.1458346993883,0.0 -50.2665306,-20.1454034993883,0.0 -50.2671558,-20.1443380993884,0.0 -50.2672328,-20.1426316993884,0.0 -50.2674762,-20.1419315993884,0.0 -50.2686425,-20.1405989993884,0.0 -50.2693118,-20.1391647993885,0.0 -50.2700506,-20.1365001993885,0.0 -50.2701315,-20.1352672993886,0.0 -50.2698051,-20.1345930993886,0.0 -50.2685457,-20.1332028993886,0.0 -50.2672665,-20.1321206993887,0.0 -50.2667027,-20.1308101993887,0.0 -50.2665322,-20.1291291993887,0.0 -50.2661315,-20.1281998993888,0.0 -50.2655559,-20.1261946993888,0.0 -50.2649804,-20.1241894993889,0.0 -50.2649855,-20.1233689993889,0.0 -50.2652358,-20.1224201993889,0.0 -50.2652477,-20.1217954993889,0.0 -50.2646234,-20.1208190993889,0.0 -50.2641929,-20.119130799389,0.0 -50.264051,-20.118981699389,0.0 -50.2629524,-20.117869199389,0.0 -50.2609008,-20.1163546993891,0.0 -50.2599136,-20.1145752993891,0.0 -50.2593902,-20.1141394993891,0.0 -50.2586862,-20.1133334993891,0.0 -50.2564454,-20.1125783993892,0.0 -50.2549925,-20.1121628993892,0.0 -50.2538044,-20.1113683993892,0.0 -50.253313,-20.1105475993892,0.0 -50.2529948,-20.1096481993892,0.0 -50.2526311,-20.1088540993892,0.0 -50.2533619,-20.1091744993892,0.0 -50.2545142,-20.1093079993892,0.0 -50.255902,-20.1089513993892,0.0 -50.2579566,-20.1072043993893,0.0 -50.2598159,-20.1067882993893,0.0 -50.2622616,-20.1067253993893,0.0 -50.2646944,-20.1061360993893,0.0 -50.2675271,-20.1060601993893,0.0 -50.2696333,-20.1057910993893,0.0 -50.2707663,-20.1050939993893,0.0 -50.2718987,-20.1045430993893,0.0 -50.2725875,-20.1045325993894,0.0 -50.2749744,-20.1049579993893,0.0 -50.2760464,-20.1046039993893,0.0 -50.2776277,-20.1040256993894,0.0 -50.2792941,-20.1023146993894,0.0 -50.2815761,-20.1002568993895,0.0 -50.2828497,-20.0992806993895,0.0 -50.2842118,-20.0992422993895,0.0 -50.2857573,-20.0997310993895,0.0 -50.2876636,-20.1001042993895,0.0 -50.2885884,-20.0998251993895,0.0 -50.2908767,-20.0997631993895,0.0 -50.2929454,-20.0998444993895,0.0 -50.2940912,-20.0995203993895,0.0 -50.2960076,-20.0986388993895,0.0 -50.2973347,-20.0981715993895,0.0 -50.2984448,-20.0978980993895,0.0 -50.2995123,-20.0978536993895,0.0 -50.3014389,-20.0974719993895,0.0 -50.3019186,-20.0972853993895,0.0 -50.3023414,-20.0970001993895,0.0 -50.3025895,-20.0966554993895,0.0 -50.3027499,-20.0956929993896,0.0 -50.3029983,-20.0951335993896,0.0 -50.3037077,-20.0942889993896,0.0 -50.3042057,-20.0934885993896,0.0 -50.3052272,-20.0923429993897,0.0 -50.3068809,-20.0909930993897,0.0 -50.3082316,-20.0905739993897,0.0 -50.3088099,-20.0885902993898,0.0 -50.3059655,-20.0869670993898,0.0 -50.303459,-20.0853724993898,0.0 -50.3006869,-20.0820633993899,0.0 -50.2978059,-20.07809899939,0.0 -50.2966793,-20.07712579939,0.0 -50.2947392,-20.0758974993901,0.0 -50.2927578,-20.0753716993901,0.0 -50.2920596,-20.0750476993901,0.0 -50.290858,-20.0741783993901,0.0 -50.2901424,-20.0735013993901,0.0 -50.2887656,-20.0719475993902,0.0 -50.2882828,-20.0712123993902,0.0 -50.2871172,-20.0690198993902,0.0 -50.2865437,-20.0681537993903,0.0 -50.2860334,-20.0666820993903,0.0 -50.2849211,-20.0640956993904,0.0 -50.2846641,-20.0631523993904,0.0 -50.2846037,-20.0614556993904,0.0 -50.2849879,-20.0593552993905,0.0 -50.2850449,-20.0581506993905,0.0 -50.2849645,-20.0562090993906,0.0 -50.285088,-20.0549824993906,0.0 -50.2850544,-20.0540979993906,0.0 -50.2854684,-20.0495496993907,0.0 -50.2855453,-20.0455127993908,0.0 -50.2854345,-20.0434371993909,0.0 -50.2854548,-20.040181899391,0.0 -50.2852959,-20.037589399391,0.0 -50.2845034,-20.0324701993912,0.0 -50.2841123,-20.0307664993912,0.0 -50.2837566,-20.0280675993913,0.0 -50.2837525,-20.0280367993913,0.0 -50.2837497,-20.0280154993913,0.0 -50.2837936,-20.0268006993913,0.0 -50.2840434,-20.0250824993914,0.0 -50.2841552,-20.0247601993914,0.0 -50.2844718,-20.0243447993914,0.0 -50.2855476,-20.0231930993914,0.0 -50.2895303,-20.0205844993915,0.0 -50.2907364,-20.0202705993915,0.0 -50.2927098,-20.0195263993915,0.0 -50.2936096,-20.0190265993915,0.0 -50.2947104,-20.0185562993915,0.0 -50.2951804,-20.0182440993915,0.0 -50.2953613,-20.0179899993915,0.0 -50.2955437,-20.0176717993915,0.0 -50.2955018,-20.0173787993915,0.0 -50.2863157,-20.0104056993917,0.0 -50.2862304,-20.0103409993917,0.0 -50.2820192,-20.0071430993918,0.0 -50.279065,-20.0080190993918,0.0 -50.2752187,-20.0097185993917,0.0 -50.2740152,-20.0104499993917,0.0 -50.2730531,-20.0112404993917,0.0 -50.2718657,-20.0124203993917,0.0 -50.2685967,-20.0159770993916,0.0 -50.268063,-20.0186162993915,0.0 -50.2673775,-20.0210088993915,0.0 -50.2648582,-20.0246190993914,0.0 -50.2648182,-20.0270801993913,0.0 -50.2642155,-20.0314197993912,0.0 -50.2637636,-20.0323354993912,0.0 -50.2630831,-20.0330552993912,0.0 -50.2607665,-20.0349597993911,0.0 -50.2592044,-20.0358024993911,0.0 -50.2579283,-20.0359964993911,0.0 -50.257291,-20.0359369993911,0.0 -50.2557931,-20.0354833993911,0.0 -50.2527679,-20.0348521993911,0.0 -50.2524828,-20.0349020993911,0.0 -50.2516928,-20.0355580993911,0.0 -50.2513166,-20.0360587993911,0.0 -50.250839,-20.0368873993911,0.0 -50.2504066,-20.037903599391,0.0 -50.2497925,-20.038358699391,0.0 -50.2488459,-20.039248599391,0.0 -50.2477171,-20.040079599391,0.0 -50.2460924,-20.0410984993909,0.0 -50.2452586,-20.0414649993909,0.0 -50.2440458,-20.0422860993909,0.0 -50.2430303,-20.0431753993909,0.0 -50.2417338,-20.0439396993909,0.0 -50.2400451,-20.0451519993909,0.0 -50.2391126,-20.0455641993908,0.0 -50.2384037,-20.0456257993908,0.0 -50.2374322,-20.0450252993909,0.0 -50.235941,-20.0446923993909,0.0 -50.2351262,-20.0447021993909,0.0 -50.2334953,-20.0452121993908,0.0 -50.2325438,-20.0453010993908,0.0 -50.23116,-20.0449117993909,0.0 -50.2301783,-20.0449423993909,0.0 -50.2292435,-20.0448105993909,0.0 -50.2281392,-20.0451324993909,0.0 -50.226425,-20.0454440993908,0.0 -50.2259517,-20.0454069993908,0.0 -50.2247658,-20.0451012993909,0.0 -50.2234744,-20.0449682993909,0.0 -50.222138,-20.0448405993909,0.0 -50.2208987,-20.0448844993909,0.0 -50.2202917,-20.0450797993908,0.0 -50.2201094,-20.0452283993908,0.0 -50.220004,-20.0454334993908,0.0 -50.2199523,-20.0466750993908,0.0 -50.2197871,-20.0470268993908,0.0 -50.2193497,-20.0472438993908,0.0 -50.218659,-20.0473409993908,0.0 -50.2178822,-20.0474271993908,0.0 -50.2173483,-20.0473345993908,0.0 -50.2166522,-20.0470564993908,0.0 -50.2156731,-20.0467594993908,0.0 -50.2152129,-20.0460346993908,0.0 -50.2151762,-20.0455306993908,0.0 -50.2150287,-20.0450621993908,0.0 -50.2150505,-20.0436756993909,0.0 -50.2153417,-20.0424193993909,0.0 -50.2152999,-20.0418079993909,0.0 -50.214992,-20.040601199391,0.0 -50.2140865,-20.039981199391,0.0 -50.2130549,-20.039584099391,0.0 -50.2127119,-20.039176299391,0.0 -50.212858,-20.038624899391,0.0 -50.2130532,-20.038298999391,0.0 -50.2130557,-20.037914899391,0.0 -50.2128907,-20.037660599391,0.0 -50.2128129,-20.0370240993911,0.0 -50.2119805,-20.0364355993911,0.0 -50.2117743,-20.0360973993911,0.0 -50.2114914,-20.0356134993911,0.0 -50.2111921,-20.0354978993911,0.0 -50.2105472,-20.0353326993911,0.0 -50.2103796,-20.0348123993911,0.0 -50.2097817,-20.0345109993911,0.0 -50.2096865,-20.0343745993911,0.0 -50.2096219,-20.0323675993912,0.0 -50.2095378,-20.0320077993912,0.0 -50.2093438,-20.0317249993912,0.0 -50.2089262,-20.0315679993912,0.0 -50.2085478,-20.0317503993912,0.0 -50.2074045,-20.0316240993912,0.0 -50.2064538,-20.0312438993912,0.0 -50.2061328,-20.0309962993912,0.0 -50.2057028,-20.0296235993912,0.0 -50.205237,-20.0280137993913,0.0 -50.2052305,-20.0275690993913,0.0 -50.2051676,-20.0266830993913,0.0 -50.2050438,-20.0259103993913,0.0 -50.2048516,-20.0254751993913,0.0 -50.2045358,-20.0252898993913,0.0 -50.2041714,-20.0252153993913,0.0 -50.2038778,-20.0252577993913,0.0 -50.2030984,-20.0249515993914,0.0 -50.2022015,-20.0245052993914,0.0 -50.2013988,-20.0235165993914,0.0 -50.2011264,-20.0226368993914,0.0 -50.201482,-20.0215262993914,0.0 -50.2021444,-20.0199397993915,0.0 -50.2029354,-20.0178564993915,0.0 -50.2029044,-20.0165184993916,0.0 -50.2026542,-20.0156735993916,0.0 -50.2024603,-20.0153880993916,0.0 -50.2022601,-20.0148499993916,0.0 -50.2021201,-20.0144284993916,0.0 -50.2019947,-20.0139181993916,0.0 -50.2017444,-20.0133554993916,0.0 -50.2014261,-20.0124802993917,0.0 -50.2010478,-20.0117552993917,0.0 -50.2005945,-20.0107679993917,0.0 -50.2004085,-20.0103942993917,0.0 -50.2001477,-20.0100315993917,0.0 -50.1998773,-20.0085531993918,0.0 -50.1998459,-20.0079537993918,0.0 -50.1996789,-20.0069870993918,0.0 -50.1995307,-20.0065907993918,0.0 -50.1984959,-20.0020010993919,0.0 -50.198269,-20.000865399392,0.0 -50.1981933,-19.999759099392,0.0 -50.1983553,-19.998865299392,0.0 -50.1982236,-19.998456699392,0.0 -50.1970273,-19.9968898993921,0.0 -50.1965348,-19.9952723993921,0.0 -50.1955649,-19.9941117993921,0.0 -50.1943252,-19.9918073993922,0.0 -50.1937849,-19.9903862993922,0.0 -50.1922914,-19.9891792993923,0.0 -50.1916061,-19.9883484993923,0.0 -50.19139,-19.9880344993923,0.0 -50.1912396,-19.9869365993923,0.0 -50.1910072,-19.9865455993923,0.0 -50.1908145,-19.9864106993923,0.0 -50.1901529,-19.9862991993923,0.0 -50.1899463,-19.9870999993923,0.0 -50.189921,-19.9875980993923,0.0 -50.1900084,-19.9884503993923,0.0 -50.1905576,-19.9900564993922,0.0 -50.1905485,-19.9911474993922,0.0 -50.1901881,-19.9918250993922,0.0 -50.1897146,-19.9921205993922,0.0 -50.189141,-19.9927566993922,0.0 -50.1886329,-19.9936547993921,0.0 -50.1875952,-19.9945161993921,0.0 -50.1871759,-19.9955748993921,0.0 -50.1870181,-19.9956950993921,0.0 -50.1867529,-19.9961897993921,0.0 -50.1862542,-19.998320799392,0.0 -50.1857157,-20.0037631993919,0.0 -50.1855865,-20.0041679993919,0.0 -50.1847756,-20.0054860993918,0.0 -50.1835729,-20.0069994993918,0.0 -50.182189,-20.0082971993918,0.0 -50.1787897,-20.0100031993917,0.0 -50.1783611,-20.0103356993917,0.0 -50.1764946,-20.0126481993917,0.0 -50.1760575,-20.0132916993916,0.0 -50.1739649,-20.0171222993916,0.0 -50.172831,-20.0185090993915,0.0 -50.1719766,-20.0198811993915,0.0 -50.1711232,-20.0229052993914,0.0 -50.170836,-20.0235149993914,0.0 -50.1697991,-20.0249605993914,0.0 -50.1685545,-20.0262556993913,0.0 -50.1679285,-20.0266794993913,0.0 -50.167097,-20.0276182993913,0.0 -50.1662969,-20.0281654993913,0.0 -50.1652304,-20.0290910993913,0.0 -50.1634994,-20.0300202993912,0.0 -50.1626993,-20.0305665993912,0.0 -50.161945,-20.0316296993912,0.0 -50.1609075,-20.0335242993911,0.0 -50.159684,-20.0349288993911,0.0 -50.1569953,-20.037060099391,0.0 -50.1566933,-20.037171599391,0.0 -50.1563633,-20.0369435993911,0.0 -50.1555898,-20.0360024993911,0.0 -50.1556883,-20.0343562993911,0.0 -50.1541542,-20.0345745993911,0.0 -50.153036,-20.0358929993911,0.0 -50.1519446,-20.037562799391,0.0 -50.1515709,-20.038054499391,0.0 -50.1508264,-20.039034499391,0.0 -50.1505958,-20.039589499391,0.0 -50.1503692,-20.040137299391,0.0 -50.150031,-20.040404099391,0.0 -50.1492339,-20.040666299391,0.0 -50.1486676,-20.040637799391,0.0 -50.1457103,-20.040092899391,0.0 -50.1450374,-20.040087199391,0.0 -50.1441634,-20.040168299391,0.0 -50.1410856,-20.040725299391,0.0 -50.1397923,-20.0412192993909,0.0 -50.1363651,-20.0432708993909,0.0 -50.1343769,-20.0445773993909,0.0 -50.1330047,-20.0460271993908,0.0 -50.1321035,-20.0476098993908,0.0 -50.1313985,-20.0483239993908,0.0 -50.1309262,-20.0485543993908,0.0 -50.1293284,-20.0475862993908,0.0 -50.128051,-20.0464960993908,0.0 -50.1262462,-20.0457388993908,0.0 -50.1257119,-20.0453836993908,0.0 -50.1255541,-20.0451502993908,0.0 -50.1250641,-20.0424452993909,0.0 -50.1248498,-20.0421772993909,0.0 -50.1240215,-20.0415279993909,0.0 -50.1235792,-20.040736499391,0.0 -50.1229712,-20.040149699391,0.0 -50.1195142,-20.038737699391,0.0 -50.1193359,-20.038721199391,0.0 -50.118458,-20.038999499391,0.0 -50.116953,-20.039081999391,0.0 -50.1155885,-20.038894299391,0.0 -50.1135039,-20.038946899391,0.0 -50.1117997,-20.038159199391,0.0 -50.1110659,-20.037807899391,0.0 -50.1080058,-20.037516399391,0.0 -50.1064952,-20.0367929993911,0.0 -50.1055602,-20.0369168993911,0.0 -50.1050386,-20.0369378993911,0.0 -50.1028453,-20.037560499391,0.0 -50.0998367,-20.038015499391,0.0 -50.0993281,-20.038189899391,0.0 -50.0986208,-20.038432399391,0.0 -50.0975852,-20.038787399391,0.0 -50.0963241,-20.039674899391,0.0 -50.0955908,-20.039867899391,0.0 -50.0950147,-20.040392599391,0.0 -50.0934175,-20.0413366993909,0.0 -50.0927978,-20.0415357993909,0.0 -50.0915649,-20.0422903993909,0.0 -50.0905098,-20.0427720993909,0.0 -50.0902518,-20.0432289993909,0.0 -50.0904483,-20.0447147993909,0.0 -50.0899793,-20.0450064993909,0.0 -50.0899077,-20.0452338993908,0.0 -50.0899654,-20.0470691993908,0.0 -50.0899022,-20.0473437993908,0.0 -50.0895424,-20.0479344993908,0.0 -50.0884955,-20.0487769993908,0.0 -50.0882041,-20.0491150993908,0.0 -50.0879286,-20.0505092993907,0.0 -50.0879172,-20.0510454993907,0.0 -50.0880618,-20.0518060993907,0.0 -50.0880127,-20.0522820993907,0.0 -50.0886151,-20.0541347993906,0.0 -50.0884874,-20.0552337993906,0.0 -50.0886761,-20.0561450993906,0.0 -50.0885145,-20.0564922993906,0.0 -50.0885167,-20.0570973993905,0.0 -50.0890323,-20.0580897993905,0.0 -50.0892515,-20.0588528993905,0.0 -50.0892399,-20.0608994993904,0.0 -50.0884282,-20.0633602993904,0.0 -50.0873795,-20.0641179993904,0.0 -50.086114,-20.0658662993903,0.0 -50.085839,-20.0661180993903,0.0 -50.0849247,-20.0665865993903,0.0 -50.0843716,-20.0672930993903,0.0 -50.0841239,-20.0674110993903,0.0 -50.0835579,-20.0674436993903,0.0 -50.0821691,-20.0670693993903,0.0 -50.0811172,-20.0670704993903,0.0 -50.0805495,-20.0672877993903,0.0 -50.0796577,-20.0679668993903,0.0 -50.0790143,-20.0682663993903,0.0 -50.0783052,-20.0689774993902,0.0 -50.0777856,-20.0696818993902,0.0 -50.0773423,-20.0708955993902,0.0 -50.0772446,-20.0709790993902,0.0 -50.0764238,-20.0711448993902,0.0 -50.0752996,-20.0717024993902,0.0 -50.0748172,-20.0717214993902,0.0 -50.0740858,-20.0715618993902,0.0 -50.0725524,-20.0704675993902,0.0 -50.0715959,-20.0693273993902,0.0 -50.0708125,-20.0685678993903,0.0 -50.0698455,-20.0681171993903,0.0 -50.0685487,-20.0678494993903,0.0 -50.0672107,-20.0678206993903,0.0 -50.0661169,-20.0680821993903,0.0 -50.0654993,-20.0684192993903,0.0 -50.0641217,-20.0699340993902,0.0 -50.0637178,-20.0701972993902,0.0 -50.0635637,-20.0702976993902,0.0 -50.0630492,-20.0702600993902,0.0 -50.0627097,-20.0701091993902,0.0 -50.0623455,-20.0697971993902,0.0 -50.061418,-20.0686079993903,0.0 -50.0596792,-20.0673583993903,0.0 -50.0580373,-20.0649125993903,0.0 -50.0571917,-20.0633194993904,0.0 -50.0565784,-20.0627188993904,0.0 -50.0545436,-20.0619161993904,0.0 -50.0522482,-20.0615872993904,0.0 -50.0499206,-20.0614406993904,0.0 -50.0486098,-20.0612437993904,0.0 -50.0473582,-20.0608569993904,0.0 -50.0455715,-20.0600759993905,0.0 -50.0452793,-20.0603884993905,0.0 -50.0446838,-20.0608874993905,0.0 -50.0445123,-20.0611685993904,0.0 -50.0441786,-20.0616810993904,0.0 -50.0437528,-20.0623024993904,0.0 -50.0435558,-20.0626694993904,0.0 -50.0432831,-20.0630360993904,0.0 -50.043259,-20.0636317993904,0.0 -50.0432991,-20.0639665993904,0.0 -50.0433758,-20.0643502993904,0.0 -50.0434935,-20.0645756993904,0.0 -50.043575,-20.0648575993903,0.0 -50.0437647,-20.0651984993903,0.0 -50.0437841,-20.0655288993903,0.0 -50.0440059,-20.0660639993903,0.0 -50.0439902,-20.0661970993903,0.0 -50.0440567,-20.0674311993903,0.0 -50.0440769,-20.0678841993903,0.0 -50.0437974,-20.0683152993903,0.0 -50.04335,-20.0690819993902,0.0 -50.0430819,-20.0695417993902,0.0 -50.0421642,-20.0704399993902,0.0 -50.0419919,-20.0705244993902,0.0 -50.0418856,-20.0707935993902,0.0 -50.0420702,-20.0711754993902,0.0 -50.0424117,-20.0714364993902,0.0 -50.0427523,-20.0720409993902,0.0 -50.0432821,-20.0725333993902,0.0 -50.0440536,-20.0732646993901,0.0 -50.0441605,-20.0741506993901,0.0 -50.0433514,-20.0759782993901,0.0 -50.0431602,-20.0765104993901,0.0 -50.0421723,-20.07711959939,0.0 -50.0418437,-20.07721679939,0.0 -50.0414972,-20.07749579939,0.0 -50.0401429,-20.07852679939,0.0 -50.0399165,-20.07859469939,0.0 -50.0393019,-20.07888289939,0.0 -50.0384771,-20.07901509939,0.0 -50.0360596,-20.07878249939,0.0 -50.0342771,-20.07821059939,0.0 -50.0320856,-20.07781339939,0.0 -50.0302491,-20.07737369939,0.0 -50.0295906,-20.07746989939,0.0 -50.0283168,-20.07822479939,0.0 -50.0280219,-20.07880879939,0.0 -50.0283256,-20.07938519939,0.0 -50.0291203,-20.08007769939,0.0 -50.029893,-20.08034199939,0.0 -50.0300874,-20.08037249939,0.0 -50.0309522,-20.08047579939,0.0 -50.0323115,-20.0812969993899,0.0 -50.0332026,-20.0822546993899,0.0 -50.0346544,-20.0835034993899,0.0 -50.0354105,-20.0843932993899,0.0 -50.0376162,-20.0855191993898,0.0 -50.0385587,-20.0863382993898,0.0 -50.03912,-20.0871036993898,0.0 -50.0395706,-20.0883129993898,0.0 -50.0397253,-20.0884345993898,0.0 -50.0399125,-20.0898137993897,0.0 -50.0403292,-20.0910420993897,0.0 -50.0412327,-20.0920405993897,0.0 -50.0416919,-20.0926847993896,0.0 -50.0423571,-20.0933091993896,0.0 -50.0424898,-20.0935492993896,0.0 -50.0430731,-20.0936298993896,0.0 -50.0446491,-20.0942845993896,0.0 -50.0452085,-20.0954674993896,0.0 -50.0465227,-20.0968366993895,0.0 -50.0473876,-20.0981561993895,0.0 -50.0486824,-20.0989298993895,0.0 -50.048927,-20.0991652993895,0.0 -50.0494935,-20.1000696993895,0.0 -50.0497976,-20.1003387993895,0.0 -50.0502765,-20.1004261993895,0.0 -50.0520375,-20.1003446993895,0.0 -50.0531455,-20.1000814993895,0.0 -50.0558774,-20.1011594993894,0.0 -50.0595994,-20.1040811993894,0.0 -50.0599557,-20.1045218993894,0.0 -50.0603887,-20.1059065993893,0.0 -50.0611609,-20.1064278993893,0.0 -50.06423,-20.1074338993893,0.0 -50.067445,-20.1080419993893,0.0 -50.0683763,-20.1084350993893,0.0 -50.0692741,-20.1089296993892,0.0 -50.0699335,-20.1090762993892,0.0 -50.0729182,-20.1095316993892,0.0 -50.0751352,-20.1098500993892,0.0 -50.0767977,-20.1106051993892,0.0 -50.0782657,-20.1113080993892,0.0 -50.0821425,-20.1128619993891,0.0 -50.086188,-20.1151937993891,0.0 -50.0877211,-20.1158866993891,0.0 -50.0887747,-20.116632199389,0.0 -50.0908799,-20.117291899389,0.0 -50.0943461,-20.117679499389,0.0 -50.0967676,-20.118244099389,0.0 -50.097858,-20.118750599389,0.0 -50.0991842,-20.119667399389,0.0 -50.1010844,-20.1212701993889,0.0 -50.1019374,-20.1220905993889,0.0 -50.1028392,-20.1233737993889,0.0 -50.1034784,-20.1240992993889,0.0 -50.1058071,-20.1261289993888,0.0 -50.1068613,-20.1274028993888,0.0 -50.1079049,-20.1293744993887,0.0 -50.1080484,-20.1314586993887,0.0 -50.1073365,-20.1345123993886,0.0 -50.1056287,-20.1367920993885,0.0 -50.1056328,-20.1395594993885,0.0 -50.1061686,-20.1426018993884,0.0 -50.1074095,-20.1456481993883,0.0 -50.112895,-20.1457040993883,0.0 -50.1192871,-20.1520376993882,0.0 -50.1196413,-20.1529220993881,0.0 -50.1197079,-20.1530884993881,0.0 -50.1210142,-20.1555535993881,0.0 -50.1232886,-20.1562076993881,0.0 -50.1252947,-20.1554834993881,0.0 -50.1265893,-20.1552098993881,0.0 -50.1280563,-20.1559003993881,0.0 -50.1289474,-20.156779199388,0.0 -50.1326259,-20.159042999388,0.0 -50.1339214,-20.159237299388,0.0 -50.1399802,-20.1607053993879,0.0 -50.1427351,-20.1606195993879,0.0 -50.1439567,-20.1610989993879,0.0 -50.1452705,-20.1614072993879,0.0 -50.1452988,-20.1614127993879,0.0 -50.1476958,-20.1618840993879,0.0 -50.1483641,-20.1634243993879,0.0 -50.1484367,-20.1650255993878,0.0 -50.1476822,-20.1691327993877,0.0 -50.1470397,-20.1703558993877,0.0 -50.147459,-20.1729556993876,0.0 -50.1485112,-20.1747622993876,0.0 -50.1500229,-20.1755879993876,0.0 -50.153466,-20.1767911993875,0.0 -50.1547781,-20.1775636993875,0.0 -50.1560564,-20.1786998993875,0.0 -50.1574084,-20.1809313993874,0.0 -50.1581853,-20.1837436993874,0.0 -50.1578047,-20.1851745993873,0.0 -50.1577164,-20.1876018993873,0.0 -50.1581318,-20.1911466993872,0.0 -50.1586923,-20.1911985993872,0.0 -50.1589237,-20.1914821993872,0.0 -50.1602285,-20.1920111993872,0.0 -50.1614265,-20.1926801993871,0.0 -50.162315,-20.1928609993871,0.0 -50.1626666,-20.1930399993871,0.0 -50.1629611,-20.1932465993871,0.0 -50.1641874,-20.1946754993871,0.0 -50.1651263,-20.1952215993871,0.0 -50.1659044,-20.1954161993871,0.0 -50.1663747,-20.1956311993871,0.0 -50.1673492,-20.1956234993871,0.0 -50.1681866,-20.1958977993871,0.0 -50.1688198,-20.1959494993871,0.0 -50.1692302,-20.196269499387,0.0 -50.1698114,-20.196999899387,0.0 -50.1703817,-20.197398299387,0.0 -50.1719154,-20.198116999387,0.0 -50.1740291,-20.198722899387,0.0 -50.1757816,-20.199776299387,0.0 -50.1761935,-20.199915999387,0.0 -50.178341,-20.200159199387,0.0 -50.1789427,-20.199935099387,0.0 -50.1813608,-20.198341899387,0.0 -50.1818108,-20.198218199387,0.0 -50.1825315,-20.198333899387,0.0 -50.1833011,-20.198288399387,0.0 -50.1849694,-20.197931299387,0.0 -50.1853287,-20.197677599387,0.0 -50.1867265,-20.196281299387,0.0 -50.1872796,-20.1959298993871,0.0 -50.187768,-20.1958394993871,0.0 -50.1882984,-20.1955947993871,0.0 -50.1888352,-20.1949336993871,0.0 -50.1892374,-20.1946466993871,0.0 -50.1896421,-20.1944569993871,0.0 -50.1910061,-20.1941708993871,0.0 -50.1918555,-20.1934425993871,0.0 -50.1964392,-20.1904657993872,0.0 -50.1972917,-20.1901991993872,0.0 -50.1988488,-20.1898810993872,0.0 -50.2006734,-20.1898564993872,0.0 -50.2023202,-20.1896691993872,0.0 -50.2028211,-20.1897701993872,0.0 -50.2035451,-20.1901834993872,0.0 -50.204176,-20.1909410993872,0.0 -50.2043458,-20.1911448993872,0.0 -50.2046658,-20.1913645993872,0.0 -50.2058753,-20.1917648993872,0.0 -50.206309,-20.1920366993871,0.0 -50.2073058,-20.1928796993871,0.0 -50.2079069,-20.1935463993871,0.0 -50.2083244,-20.1942082993871,0.0 -50.2088788,-20.1953843993871,0.0 -50.2104206,-20.199096799387,0.0 -50.2139669,-20.2014094993869,0.0 -50.2158795,-20.2024632993869,0.0 -50.2189192,-20.2055874993868,0.0 -50.2192107,-20.2056807993868,0.0 -50.2194957,-20.2057720993868,0.0 -50.2209257,-20.2057279993868,0.0</coordinates>
</LinearRing>
</outerBoundaryIs>
</Polygon>
</MultiGeometry>
</Placemark>
</Folder>
</Document></kml>
