<?xml version='1.0' encoding='UTF-8'?>
<kml xmlns:xsd="http://www.w3.org/2001/XMLSchema" xmlns:gx="http://www.google.com/kml/ext/2.2" xmlns:atom="http://www.w3.org/2005/Atom" xmlns="http://www.opengis.net/kml/2.2">
<Document>
<name>monte_alegre_do_sul_3531209_localidades_2022</name>
<visibility>1</visibility>
<Schema name="Vilas" id="kml_schema_ft_Vilas">
<SimpleField type="xsd:string" name="CD_UF">
<displayName>CD_UF</displayName>
</SimpleField>
<SimpleField type="xsd:string" name="NM_UF">
<displayName>NM_UF</displayName>
</SimpleField>
<SimpleField type="xsd:string" name="SIGLA_UF">
<displayName>SIGLA_UF</displayName>
</SimpleField>
<SimpleField type="xsd:string" name="CD_MUN">
<displayName>CD_MUN</displayName>
</SimpleField>
<SimpleField type="xsd:string" name="NM_MUN">
<displayName>NM_MUN</displayName>
</SimpleField>
<SimpleField type="xsd:string" name="CD_RGINT">
<displayName>CD_RGINT</displayName>
</SimpleField>
<SimpleField type="xsd:string" name="NM_RGINT">
<displayName>NM_RGINT</displayName>
</SimpleField>
<SimpleField type="xsd:string" name="CD_RGI">
<displayName>CD_RGI</displayName>
</SimpleField>
<SimpleField type="xsd:string" name="NM_RGI">
<displayName>NM_RGI</displayName>
</SimpleField>
<SimpleField type="xsd:string" name="CT_LOCALIDADE">
<displayName>CT_LOCALIDADE</displayName>
</SimpleField>
<SimpleField type="xsd:string" name="CD_LOCALIDADE">
<displayName>CD_LOCALIDADE</displayName>
</SimpleField>
<SimpleField type="xsd:string" name="NM_LOCALIDADE">
<displayName>NM_LOCALIDADE</displayName>
</SimpleField>
<SimpleField type="xsd:string" name="LAT_LOCALIDADE">
<displayName>LAT_LOCALIDADE</displayName>
</SimpleField>
<SimpleField type="xsd:string" name="LONG_LOCALIDADE">
<displayName>LONG_LOCALIDADE</displayName>
</SimpleField>
</Schema>
<Schema name="Localidades" id="kml_schema_ft_Localidades">
<SimpleField type="xsd:string" name="CD_UF">
<displayName>CD_UF</displayName>
</SimpleField>
<SimpleField type="xsd:string" name="NM_UF">
<displayName>NM_UF</displayName>
</SimpleField>
<SimpleField type="xsd:string" name="SIGLA_UF">
<displayName>SIGLA_UF</displayName>
</SimpleField>
<SimpleField type="xsd:string" name="CD_MUN">
<displayName>CD_MUN</displayName>
</SimpleField>
<SimpleField type="xsd:string" name="NM_MUN">
<displayName>NM_MUN</displayName>
</SimpleField>
<SimpleField type="xsd:string" name="CD_RGINT">
<displayName>CD_RGINT</displayName>
</SimpleField>
<SimpleField type="xsd:string" name="NM_RGINT">
<displayName>NM_RGINT</displayName>
</SimpleField>
<SimpleField type="xsd:string" name="CD_RGI">
<displayName>CD_RGI</displayName>
</SimpleField>
<SimpleField type="xsd:string" name="NM_RGI">
<displayName>NM_RGI</displayName>
</SimpleField>
<SimpleField type="xsd:string" name="CT_LOCALIDADE">
<displayName>CT_LOCALIDADE</displayName>
</SimpleField>
<SimpleField type="xsd:string" name="SCT_LOCALIDADE">
<displayName>SCT_LOCALIDADE</displayName>
</SimpleField>
<SimpleField type="xsd:string" name="CD_LOCALIDADE">
<displayName>CD_LOCALIDADE</displayName>
</SimpleField>
<SimpleField type="xsd:string" name="NM_LOCALIDADE">
<displayName>NM_LOCALIDADE</displayName>
</SimpleField>
</Schema>
<Schema name="Núcleos Urbanos" id="kml_schema_ft_Núcleos_Urbanos">
<SimpleField type="xsd:string" name="CD_UF">
<displayName>CD_UF</displayName>
</SimpleField>
<SimpleField type="xsd:string" name="NM_UF">
<displayName>NM_UF</displayName>
</SimpleField>
<SimpleField type="xsd:string" name="SIGLA_UF">
<displayName>SIGLA_UF</displayName>
</SimpleField>
<SimpleField type="xsd:string" name="CD_MUN">
<displayName>CD_MUN</displayName>
</SimpleField>
<SimpleField type="xsd:string" name="NM_MUN">
<displayName>NM_MUN</displayName>
</SimpleField>
<SimpleField type="xsd:string" name="CD_RGINT">
<displayName>CD_RGINT</displayName>
</SimpleField>
<SimpleField type="xsd:string" name="NM_RGINT">
<displayName>NM_RGINT</displayName>
</SimpleField>
<SimpleField type="xsd:string" name="CD_RGI">
<displayName>CD_RGI</displayName>
</SimpleField>
<SimpleField type="xsd:string" name="NM_RGI">
<displayName>NM_RGI</displayName>
</SimpleField>
<SimpleField type="xsd:string" name="CT_LOCALIDADE">
<displayName>CT_LOCALIDADE</displayName>
</SimpleField>
<SimpleField type="xsd:string" name="CD_LOCALIDADE">
<displayName>CD_LOCALIDADE</displayName>
</SimpleField>
<SimpleField type="xsd:string" name="NM_LOCALIDADE">
<displayName>NM_LOCALIDADE</displayName>
</SimpleField>
<SimpleField type="xsd:string" name="LAT_LOCALIDADE">
<displayName>LAT_LOCALIDADE</displayName>
</SimpleField>
<SimpleField type="xsd:string" name="LONG_LOCALIDADE">
<displayName>LONG_LOCALIDADE</displayName>
</SimpleField>
</Schema>
<Schema name="01. Cidade" id="kml_schema_ft_01._Cidade">
<SimpleField type="xsd:string" name="CD_UF">
<displayName>CD_UF</displayName>
</SimpleField>
<SimpleField type="xsd:string" name="NM_UF">
<displayName>NM_UF</displayName>
</SimpleField>
<SimpleField type="xsd:string" name="SIGLA_UF">
<displayName>SIGLA_UF</displayName>
</SimpleField>
<SimpleField type="xsd:string" name="CD_MUN">
<displayName>CD_MUN</displayName>
</SimpleField>
<SimpleField type="xsd:string" name="NM_MUN">
<displayName>NM_MUN</displayName>
</SimpleField>
<SimpleField type="xsd:string" name="CD_RGINT">
<displayName>CD_RGINT</displayName>
</SimpleField>
<SimpleField type="xsd:string" name="NM_RGINT">
<displayName>NM_RGINT</displayName>
</SimpleField>
<SimpleField type="xsd:string" name="CD_RGI">
<displayName>CD_RGI</displayName>
</SimpleField>
<SimpleField type="xsd:string" name="NM_RGI">
<displayName>NM_RGI</displayName>
</SimpleField>
<SimpleField type="xsd:string" name="CT_LOCALIDADE">
<displayName>CT_LOCALIDADE</displayName>
</SimpleField>
<SimpleField type="xsd:string" name="SCT_LOCALIDADE">
<displayName>SCT_LOCALIDADE</displayName>
</SimpleField>
<SimpleField type="xsd:string" name="CD_LOCALIDADE">
<displayName>CD_LOCALIDADE</displayName>
</SimpleField>
<SimpleField type="xsd:string" name="NM_LOCALIDADE">
<displayName>NM_LOCALIDADE</displayName>
</SimpleField>
<SimpleField type="xsd:string" name="LAT_LOCALIDADE">
<displayName>LAT_LOCALIDADE</displayName>
</SimpleField>
<SimpleField type="xsd:string" name="LONG_LOCALIDADE">
<displayName>LONG_LOCALIDADE</displayName>
</SimpleField>
</Schema>
<Schema name="Município" id="kml_schema_ft_Município">
<SimpleField type="xsd:string" name="CD_UF">
<displayName>CD_UF</displayName>
</SimpleField>
<SimpleField type="xsd:string" name="NM_UF">
<displayName>NM_UF</displayName>
</SimpleField>
<SimpleField type="xsd:string" name="CD_MUN">
<displayName>CD_MUN</displayName>
</SimpleField>
<SimpleField type="xsd:string" name="NM_MUN">
<displayName>NM_MUN</displayName>
</SimpleField>
<SimpleField type="xsd:string" name="CD_RGINT">
<displayName>CD_RGINT</displayName>
</SimpleField>
<SimpleField type="xsd:string" name="NM_RGINT">
<displayName>NM_RGINT</displayName>
</SimpleField>
<SimpleField type="xsd:string" name="CD_RGI">
<displayName>CD_RGI</displayName>
</SimpleField>
<SimpleField type="xsd:string" name="NM_RGI">
<displayName>NM_RGI</displayName>
</SimpleField>
</Schema>
<Folder id="01. Cidade">
<name>01. Cidade</name>
<Folder id="01.03. Sede Municipal">
<name>01.03. Sede Municipal</name>
<Placemark id="01.03. Sede Municipal">
<name>Monte Alegre do Sul [3531209]</name>
<visibility>1</visibility>
<snippet> </snippet>
<description>&lt;center&gt;&lt;table&gt;&lt;tr&gt;&lt;th colspan='2' align='center'&gt;&lt;em&gt;Atributos&lt;/em&gt;&lt;/th&gt;&lt;/tr&gt;&lt;tr bgcolor="#E3E3F3"&gt;
&lt;th&gt;CD_UF&lt;/th&gt;
&lt;td&gt;35&lt;/td&gt;
&lt;/tr&gt;&lt;tr bgcolor=""&gt;
&lt;th&gt;NM_UF&lt;/th&gt;
&lt;td&gt;São Paulo&lt;/td&gt;
&lt;/tr&gt;&lt;tr bgcolor="#E3E3F3"&gt;
&lt;th&gt;SIGLA_UF&lt;/th&gt;
&lt;td&gt;SP&lt;/td&gt;
&lt;/tr&gt;&lt;tr bgcolor=""&gt;
&lt;th&gt;CD_MUN&lt;/th&gt;
&lt;td&gt;3531209&lt;/td&gt;
&lt;/tr&gt;&lt;tr bgcolor="#E3E3F3"&gt;
&lt;th&gt;NM_MUN&lt;/th&gt;
&lt;td&gt;Monte Alegre do Sul&lt;/td&gt;
&lt;/tr&gt;&lt;tr bgcolor=""&gt;
&lt;th&gt;CD_RGINT&lt;/th&gt;
&lt;td&gt;3510&lt;/td&gt;
&lt;/tr&gt;&lt;tr bgcolor="#E3E3F3"&gt;
&lt;th&gt;NM_RGINT&lt;/th&gt;
&lt;td&gt;Campinas&lt;/td&gt;
&lt;/tr&gt;&lt;tr bgcolor=""&gt;
&lt;th&gt;CD_RGI&lt;/th&gt;
&lt;td&gt;350048&lt;/td&gt;
&lt;/tr&gt;&lt;tr bgcolor="#E3E3F3"&gt;
&lt;th&gt;NM_RGI&lt;/th&gt;
&lt;td&gt;Amparo&lt;/td&gt;
&lt;/tr&gt;&lt;tr bgcolor=""&gt;
&lt;th&gt;CT_LOCALIDADE&lt;/th&gt;
&lt;td&gt;Cidade&lt;/td&gt;
&lt;/tr&gt;&lt;tr bgcolor="#E3E3F3"&gt;
&lt;th&gt;SCT_LOCALIDADE&lt;/th&gt;
&lt;td&gt;Sede Municipal&lt;/td&gt;
&lt;/tr&gt;&lt;tr bgcolor=""&gt;
&lt;th&gt;CD_LOCALIDADE&lt;/th&gt;
&lt;td&gt;3531209&lt;/td&gt;
&lt;/tr&gt;&lt;tr bgcolor="#E3E3F3"&gt;
&lt;th&gt;NM_LOCALIDADE&lt;/th&gt;
&lt;td&gt;Monte Alegre do Sul&lt;/td&gt;
&lt;/tr&gt;&lt;tr bgcolor=""&gt;
&lt;th&gt;LAT_LOCALIDADE&lt;/th&gt;
&lt;td&gt;-22.6885&lt;/td&gt;
&lt;/tr&gt;&lt;tr bgcolor="#E3E3F3"&gt;
&lt;th&gt;LONG_LOCALIDADE&lt;/th&gt;
&lt;td&gt;-46.6786&lt;/td&gt;
&lt;/tr&gt;&lt;/table&gt;&lt;/center&gt;</description>
<Style>
<IconStyle>
<color>ff00aaff</color>
<scale>1.0</scale>
<Icon>
<href>http://maps.google.com/mapfiles/kml/shapes/placemark_circle.png</href>
</Icon>
</IconStyle>
<LabelStyle>
<scale>1.0</scale>
</LabelStyle>
<LineStyle>
<color>ffffffff</color>
<width>3</width>
<gx:labelVisibility>1</gx:labelVisibility>
</LineStyle>
<PolyStyle>
<color>00ffffff</color>
</PolyStyle>
</Style>
<ExtendedData>
<SchemaData schemaUrl="#kml_schema_ft_01._Cidade">
<SimpleData name="CD_UF">35</SimpleData>
<SimpleData name="NM_UF">São Paulo</SimpleData>
<SimpleData name="SIGLA_UF">SP</SimpleData>
<SimpleData name="CD_MUN">3531209</SimpleData>
<SimpleData name="NM_MUN">Monte Alegre do Sul</SimpleData>
<SimpleData name="CD_RGINT">3510</SimpleData>
<SimpleData name="NM_RGINT">Campinas</SimpleData>
<SimpleData name="CD_RGI">350048</SimpleData>
<SimpleData name="NM_RGI">Amparo</SimpleData>
<SimpleData name="CT_LOCALIDADE">Cidade</SimpleData>
<SimpleData name="SCT_LOCALIDADE">Sede Municipal</SimpleData>
<SimpleData name="CD_LOCALIDADE">3531209</SimpleData>
<SimpleData name="NM_LOCALIDADE">Monte Alegre do Sul</SimpleData>
<SimpleData name="LAT_LOCALIDADE">-22.6885</SimpleData>
<SimpleData name="LONG_LOCALIDADE">-46.6786</SimpleData>
</SchemaData>
</ExtendedData>
<Point>
<extrude>0</extrude>
<coordinates>-46.6786,-22.688549999327,0.0</coordinates>
</Point>
</Placemark>
</Folder>
</Folder>
<Folder id="04. Vilas">
<name>04. Vilas</name>
<Placemark id="04. Vilas">
<name>Mostardas [353120910]</name>
<visibility>1</visibility>
<snippet> </snippet>
<description>&lt;center&gt;&lt;table&gt;&lt;tr&gt;&lt;th colspan='2' align='center'&gt;&lt;em&gt;Atributos&lt;/em&gt;&lt;/th&gt;&lt;/tr&gt;&lt;tr bgcolor="#E3E3F3"&gt;
&lt;th&gt;CD_UF&lt;/th&gt;
&lt;td&gt;35&lt;/td&gt;
&lt;/tr&gt;&lt;tr bgcolor=""&gt;
&lt;th&gt;NM_UF&lt;/th&gt;
&lt;td&gt;São Paulo&lt;/td&gt;
&lt;/tr&gt;&lt;tr bgcolor="#E3E3F3"&gt;
&lt;th&gt;SIGLA_UF&lt;/th&gt;
&lt;td&gt;SP&lt;/td&gt;
&lt;/tr&gt;&lt;tr bgcolor=""&gt;
&lt;th&gt;CD_MUN&lt;/th&gt;
&lt;td&gt;3531209&lt;/td&gt;
&lt;/tr&gt;&lt;tr bgcolor="#E3E3F3"&gt;
&lt;th&gt;NM_MUN&lt;/th&gt;
&lt;td&gt;Monte Alegre do Sul&lt;/td&gt;
&lt;/tr&gt;&lt;tr bgcolor=""&gt;
&lt;th&gt;CD_RGINT&lt;/th&gt;
&lt;td&gt;3510&lt;/td&gt;
&lt;/tr&gt;&lt;tr bgcolor="#E3E3F3"&gt;
&lt;th&gt;NM_RGINT&lt;/th&gt;
&lt;td&gt;Campinas&lt;/td&gt;
&lt;/tr&gt;&lt;tr bgcolor=""&gt;
&lt;th&gt;CD_RGI&lt;/th&gt;
&lt;td&gt;350048&lt;/td&gt;
&lt;/tr&gt;&lt;tr bgcolor="#E3E3F3"&gt;
&lt;th&gt;NM_RGI&lt;/th&gt;
&lt;td&gt;Amparo&lt;/td&gt;
&lt;/tr&gt;&lt;tr bgcolor=""&gt;
&lt;th&gt;CT_LOCALIDADE&lt;/th&gt;
&lt;td&gt;Vila&lt;/td&gt;
&lt;/tr&gt;&lt;tr bgcolor="#E3E3F3"&gt;
&lt;th&gt;CD_LOCALIDADE&lt;/th&gt;
&lt;td&gt;353120910&lt;/td&gt;
&lt;/tr&gt;&lt;tr bgcolor=""&gt;
&lt;th&gt;NM_LOCALIDADE&lt;/th&gt;
&lt;td&gt;Mostardas&lt;/td&gt;
&lt;/tr&gt;&lt;tr bgcolor="#E3E3F3"&gt;
&lt;th&gt;LAT_LOCALIDADE&lt;/th&gt;
&lt;td&gt;-22.7245&lt;/td&gt;
&lt;/tr&gt;&lt;tr bgcolor=""&gt;
&lt;th&gt;LONG_LOCALIDADE&lt;/th&gt;
&lt;td&gt;-46.6296&lt;/td&gt;
&lt;/tr&gt;&lt;/table&gt;&lt;/center&gt;</description>
<Style>
<IconStyle>
<color>ffff5400</color>
<scale>1.0</scale>
<Icon>
<href>http://maps.google.com/mapfiles/kml/shapes/placemark_circle.png</href>
</Icon>
</IconStyle>
<LabelStyle>
<scale>0.9</scale>
</LabelStyle>
<LineStyle>
<color>72ffffff</color>
<width>1.0</width>
<gx:labelVisibility>1</gx:labelVisibility>
</LineStyle>
<PolyStyle>
<color>660054ff</color>
</PolyStyle>
</Style>
<ExtendedData>
<SchemaData schemaUrl="#kml_schema_ft_Vilas">
<SimpleData name="CD_UF">35</SimpleData>
<SimpleData name="NM_UF">São Paulo</SimpleData>
<SimpleData name="SIGLA_UF">SP</SimpleData>
<SimpleData name="CD_MUN">3531209</SimpleData>
<SimpleData name="NM_MUN">Monte Alegre do Sul</SimpleData>
<SimpleData name="CD_RGINT">3510</SimpleData>
<SimpleData name="NM_RGINT">Campinas</SimpleData>
<SimpleData name="CD_RGI">350048</SimpleData>
<SimpleData name="NM_RGI">Amparo</SimpleData>
<SimpleData name="CT_LOCALIDADE">Vila</SimpleData>
<SimpleData name="CD_LOCALIDADE">353120910</SimpleData>
<SimpleData name="NM_LOCALIDADE">Mostardas</SimpleData>
<SimpleData name="LAT_LOCALIDADE">-22.7245</SimpleData>
<SimpleData name="LONG_LOCALIDADE">-46.6296</SimpleData>
</SchemaData>
</ExtendedData>
<Point>
<extrude>0</extrude>
<coordinates>-46.629578,-22.7245429993262,0.0</coordinates>
</Point>
</Placemark>
</Folder>
<Folder id="05. Núcleos Urbanos">
<name>05. Núcleos Urbanos</name>
<Placemark id="localidades">
<name>Condomínio Orypaba [3531209001]</name>
<visibility>1</visibility>
<snippet> </snippet>
<description>&lt;center&gt;&lt;table&gt;&lt;tr&gt;&lt;th colspan='2' align='center'&gt;&lt;em&gt;Attributes&lt;/em&gt;&lt;/th&gt;&lt;/tr&gt;&lt;tr bgcolor="#E3E3F3"&gt;
&lt;th&gt;CD_UF&lt;/th&gt;
&lt;td&gt;35&lt;/td&gt;
&lt;/tr&gt;&lt;tr bgcolor=""&gt;
&lt;th&gt;NM_UF&lt;/th&gt;
&lt;td&gt;São Paulo&lt;/td&gt;
&lt;/tr&gt;&lt;tr bgcolor="#E3E3F3"&gt;
&lt;th&gt;SIGLA_UF&lt;/th&gt;
&lt;td&gt;SP&lt;/td&gt;
&lt;/tr&gt;&lt;tr bgcolor=""&gt;
&lt;th&gt;CD_MUN&lt;/th&gt;
&lt;td&gt;3531209&lt;/td&gt;
&lt;/tr&gt;&lt;tr bgcolor="#E3E3F3"&gt;
&lt;th&gt;NM_MUN&lt;/th&gt;
&lt;td&gt;Monte Alegre do Sul&lt;/td&gt;
&lt;/tr&gt;&lt;tr bgcolor=""&gt;
&lt;th&gt;CD_RGINT&lt;/th&gt;
&lt;td&gt;3510&lt;/td&gt;
&lt;/tr&gt;&lt;tr bgcolor="#E3E3F3"&gt;
&lt;th&gt;NM_RGINT&lt;/th&gt;
&lt;td&gt;Campinas&lt;/td&gt;
&lt;/tr&gt;&lt;tr bgcolor=""&gt;
&lt;th&gt;CD_RGI&lt;/th&gt;
&lt;td&gt;350048&lt;/td&gt;
&lt;/tr&gt;&lt;tr bgcolor="#E3E3F3"&gt;
&lt;th&gt;NM_RGI&lt;/th&gt;
&lt;td&gt;Amparo&lt;/td&gt;
&lt;/tr&gt;&lt;tr bgcolor=""&gt;
&lt;th&gt;CT_LOCALIDADE&lt;/th&gt;
&lt;td&gt;Núcleo Urbano&lt;/td&gt;
&lt;/tr&gt;&lt;tr bgcolor="#E3E3F3"&gt;
&lt;th&gt;CD_LOCALIDADE&lt;/th&gt;
&lt;td&gt;3531209001&lt;/td&gt;
&lt;/tr&gt;&lt;tr bgcolor=""&gt;
&lt;th&gt;NM_LOCALIDADE&lt;/th&gt;
&lt;td&gt;Condomínio Orypaba&lt;/td&gt;
&lt;/tr&gt;&lt;tr bgcolor="#E3E3F3"&gt;
&lt;th&gt;LAT_LOCALIDADE&lt;/th&gt;
&lt;td&gt;-22.6963&lt;/td&gt;
&lt;/tr&gt;&lt;tr bgcolor=""&gt;
&lt;th&gt;LONG_LOCALIDADE&lt;/th&gt;
&lt;td&gt;-46.7081&lt;/td&gt;
&lt;/tr&gt;&lt;/table&gt;&lt;/center&gt;</description>
<Style>
<IconStyle>
<color>ff0000ff</color>
<scale>0.9</scale>
<Icon>
<href>http://maps.google.com/mapfiles/kml/shapes/placemark_circle.png</href>
</Icon>
</IconStyle>
<LabelStyle>
<scale>0.9</scale>
</LabelStyle>
<LineStyle>
<color>72ffffff</color>
<width>1.0</width>
<gx:labelVisibility>1</gx:labelVisibility>
</LineStyle>
<PolyStyle>
<color>66ff54ff</color>
</PolyStyle>
</Style>
<ExtendedData>
<SchemaData schemaUrl="#kml_schema_ft_Núcleos_Urbanos">
<SimpleData name="CD_UF">35</SimpleData>
<SimpleData name="NM_UF">São Paulo</SimpleData>
<SimpleData name="SIGLA_UF">SP</SimpleData>
<SimpleData name="CD_MUN">3531209</SimpleData>
<SimpleData name="NM_MUN">Monte Alegre do Sul</SimpleData>
<SimpleData name="CD_RGINT">3510</SimpleData>
<SimpleData name="NM_RGINT">Campinas</SimpleData>
<SimpleData name="CD_RGI">350048</SimpleData>
<SimpleData name="NM_RGI">Amparo</SimpleData>
<SimpleData name="CT_LOCALIDADE">Núcleo Urbano</SimpleData>
<SimpleData name="CD_LOCALIDADE">3531209001</SimpleData>
<SimpleData name="NM_LOCALIDADE">Condomínio Orypaba</SimpleData>
<SimpleData name="LAT_LOCALIDADE">-22.6963</SimpleData>
<SimpleData name="LONG_LOCALIDADE">-46.7081</SimpleData>
</SchemaData>
</ExtendedData>
<Point>
<extrude>0</extrude>
<coordinates>-46.708125084788,-22.6962977973317,0.0</coordinates>
</Point>
</Placemark>
<Placemark id="localidades">
<name>Bairro do Falcão [3531209003]</name>
<visibility>1</visibility>
<snippet> </snippet>
<description>&lt;center&gt;&lt;table&gt;&lt;tr&gt;&lt;th colspan='2' align='center'&gt;&lt;em&gt;Attributes&lt;/em&gt;&lt;/th&gt;&lt;/tr&gt;&lt;tr bgcolor="#E3E3F3"&gt;
&lt;th&gt;CD_UF&lt;/th&gt;
&lt;td&gt;35&lt;/td&gt;
&lt;/tr&gt;&lt;tr bgcolor=""&gt;
&lt;th&gt;NM_UF&lt;/th&gt;
&lt;td&gt;São Paulo&lt;/td&gt;
&lt;/tr&gt;&lt;tr bgcolor="#E3E3F3"&gt;
&lt;th&gt;SIGLA_UF&lt;/th&gt;
&lt;td&gt;SP&lt;/td&gt;
&lt;/tr&gt;&lt;tr bgcolor=""&gt;
&lt;th&gt;CD_MUN&lt;/th&gt;
&lt;td&gt;3531209&lt;/td&gt;
&lt;/tr&gt;&lt;tr bgcolor="#E3E3F3"&gt;
&lt;th&gt;NM_MUN&lt;/th&gt;
&lt;td&gt;Monte Alegre do Sul&lt;/td&gt;
&lt;/tr&gt;&lt;tr bgcolor=""&gt;
&lt;th&gt;CD_RGINT&lt;/th&gt;
&lt;td&gt;3510&lt;/td&gt;
&lt;/tr&gt;&lt;tr bgcolor="#E3E3F3"&gt;
&lt;th&gt;NM_RGINT&lt;/th&gt;
&lt;td&gt;Campinas&lt;/td&gt;
&lt;/tr&gt;&lt;tr bgcolor=""&gt;
&lt;th&gt;CD_RGI&lt;/th&gt;
&lt;td&gt;350048&lt;/td&gt;
&lt;/tr&gt;&lt;tr bgcolor="#E3E3F3"&gt;
&lt;th&gt;NM_RGI&lt;/th&gt;
&lt;td&gt;Amparo&lt;/td&gt;
&lt;/tr&gt;&lt;tr bgcolor=""&gt;
&lt;th&gt;CT_LOCALIDADE&lt;/th&gt;
&lt;td&gt;Núcleo Urbano&lt;/td&gt;
&lt;/tr&gt;&lt;tr bgcolor="#E3E3F3"&gt;
&lt;th&gt;CD_LOCALIDADE&lt;/th&gt;
&lt;td&gt;3531209003&lt;/td&gt;
&lt;/tr&gt;&lt;tr bgcolor=""&gt;
&lt;th&gt;NM_LOCALIDADE&lt;/th&gt;
&lt;td&gt;Bairro do Falcão&lt;/td&gt;
&lt;/tr&gt;&lt;tr bgcolor="#E3E3F3"&gt;
&lt;th&gt;LAT_LOCALIDADE&lt;/th&gt;
&lt;td&gt;-22.708&lt;/td&gt;
&lt;/tr&gt;&lt;tr bgcolor=""&gt;
&lt;th&gt;LONG_LOCALIDADE&lt;/th&gt;
&lt;td&gt;-46.6409&lt;/td&gt;
&lt;/tr&gt;&lt;/table&gt;&lt;/center&gt;</description>
<Style>
<IconStyle>
<color>ff0000ff</color>
<scale>0.9</scale>
<Icon>
<href>http://maps.google.com/mapfiles/kml/shapes/placemark_circle.png</href>
</Icon>
</IconStyle>
<LabelStyle>
<scale>0.9</scale>
</LabelStyle>
<LineStyle>
<color>72ffffff</color>
<width>1.0</width>
<gx:labelVisibility>1</gx:labelVisibility>
</LineStyle>
<PolyStyle>
<color>66ff54ff</color>
</PolyStyle>
</Style>
<ExtendedData>
<SchemaData schemaUrl="#kml_schema_ft_Núcleos_Urbanos">
<SimpleData name="CD_UF">35</SimpleData>
<SimpleData name="NM_UF">São Paulo</SimpleData>
<SimpleData name="SIGLA_UF">SP</SimpleData>
<SimpleData name="CD_MUN">3531209</SimpleData>
<SimpleData name="NM_MUN">Monte Alegre do Sul</SimpleData>
<SimpleData name="CD_RGINT">3510</SimpleData>
<SimpleData name="NM_RGINT">Campinas</SimpleData>
<SimpleData name="CD_RGI">350048</SimpleData>
<SimpleData name="NM_RGI">Amparo</SimpleData>
<SimpleData name="CT_LOCALIDADE">Núcleo Urbano</SimpleData>
<SimpleData name="CD_LOCALIDADE">3531209003</SimpleData>
<SimpleData name="NM_LOCALIDADE">Bairro do Falcão</SimpleData>
<SimpleData name="LAT_LOCALIDADE">-22.708</SimpleData>
<SimpleData name="LONG_LOCALIDADE">-46.6409</SimpleData>
</SchemaData>
</ExtendedData>
<Point>
<extrude>0</extrude>
<coordinates>-46.6409477906976,-22.7080297900241,0.0</coordinates>
</Point>
</Placemark>
<Placemark id="localidades">
<name>Expansão Urbana de Mostardas (Eco VW Empreendimento) [3531209013]</name>
<visibility>1</visibility>
<snippet> </snippet>
<description>&lt;center&gt;&lt;table&gt;&lt;tr&gt;&lt;th colspan='2' align='center'&gt;&lt;em&gt;Attributes&lt;/em&gt;&lt;/th&gt;&lt;/tr&gt;&lt;tr bgcolor="#E3E3F3"&gt;
&lt;th&gt;CD_UF&lt;/th&gt;
&lt;td&gt;35&lt;/td&gt;
&lt;/tr&gt;&lt;tr bgcolor=""&gt;
&lt;th&gt;NM_UF&lt;/th&gt;
&lt;td&gt;São Paulo&lt;/td&gt;
&lt;/tr&gt;&lt;tr bgcolor="#E3E3F3"&gt;
&lt;th&gt;SIGLA_UF&lt;/th&gt;
&lt;td&gt;SP&lt;/td&gt;
&lt;/tr&gt;&lt;tr bgcolor=""&gt;
&lt;th&gt;CD_MUN&lt;/th&gt;
&lt;td&gt;3531209&lt;/td&gt;
&lt;/tr&gt;&lt;tr bgcolor="#E3E3F3"&gt;
&lt;th&gt;NM_MUN&lt;/th&gt;
&lt;td&gt;Monte Alegre do Sul&lt;/td&gt;
&lt;/tr&gt;&lt;tr bgcolor=""&gt;
&lt;th&gt;CD_RGINT&lt;/th&gt;
&lt;td&gt;3510&lt;/td&gt;
&lt;/tr&gt;&lt;tr bgcolor="#E3E3F3"&gt;
&lt;th&gt;NM_RGINT&lt;/th&gt;
&lt;td&gt;Campinas&lt;/td&gt;
&lt;/tr&gt;&lt;tr bgcolor=""&gt;
&lt;th&gt;CD_RGI&lt;/th&gt;
&lt;td&gt;350048&lt;/td&gt;
&lt;/tr&gt;&lt;tr bgcolor="#E3E3F3"&gt;
&lt;th&gt;NM_RGI&lt;/th&gt;
&lt;td&gt;Amparo&lt;/td&gt;
&lt;/tr&gt;&lt;tr bgcolor=""&gt;
&lt;th&gt;CT_LOCALIDADE&lt;/th&gt;
&lt;td&gt;Núcleo Urbano&lt;/td&gt;
&lt;/tr&gt;&lt;tr bgcolor="#E3E3F3"&gt;
&lt;th&gt;CD_LOCALIDADE&lt;/th&gt;
&lt;td&gt;3531209013&lt;/td&gt;
&lt;/tr&gt;&lt;tr bgcolor=""&gt;
&lt;th&gt;NM_LOCALIDADE&lt;/th&gt;
&lt;td&gt;Expansão Urbana de Mostardas (Eco VW Empreendimento)&lt;/td&gt;
&lt;/tr&gt;&lt;tr bgcolor="#E3E3F3"&gt;
&lt;th&gt;LAT_LOCALIDADE&lt;/th&gt;
&lt;td&gt;-22.7354&lt;/td&gt;
&lt;/tr&gt;&lt;tr bgcolor=""&gt;
&lt;th&gt;LONG_LOCALIDADE&lt;/th&gt;
&lt;td&gt;-46.6234&lt;/td&gt;
&lt;/tr&gt;&lt;/table&gt;&lt;/center&gt;</description>
<Style>
<IconStyle>
<color>ff0000ff</color>
<scale>0.9</scale>
<Icon>
<href>http://maps.google.com/mapfiles/kml/shapes/placemark_circle.png</href>
</Icon>
</IconStyle>
<LabelStyle>
<scale>0.9</scale>
</LabelStyle>
<LineStyle>
<color>72ffffff</color>
<width>1.0</width>
<gx:labelVisibility>1</gx:labelVisibility>
</LineStyle>
<PolyStyle>
<color>66ff54ff</color>
</PolyStyle>
</Style>
<ExtendedData>
<SchemaData schemaUrl="#kml_schema_ft_Núcleos_Urbanos">
<SimpleData name="CD_UF">35</SimpleData>
<SimpleData name="NM_UF">São Paulo</SimpleData>
<SimpleData name="SIGLA_UF">SP</SimpleData>
<SimpleData name="CD_MUN">3531209</SimpleData>
<SimpleData name="NM_MUN">Monte Alegre do Sul</SimpleData>
<SimpleData name="CD_RGINT">3510</SimpleData>
<SimpleData name="NM_RGINT">Campinas</SimpleData>
<SimpleData name="CD_RGI">350048</SimpleData>
<SimpleData name="NM_RGI">Amparo</SimpleData>
<SimpleData name="CT_LOCALIDADE">Núcleo Urbano</SimpleData>
<SimpleData name="CD_LOCALIDADE">3531209013</SimpleData>
<SimpleData name="NM_LOCALIDADE">Expansão Urbana de Mostardas (Eco VW Empreendimento)</SimpleData>
<SimpleData name="LAT_LOCALIDADE">-22.7354</SimpleData>
<SimpleData name="LONG_LOCALIDADE">-46.6234</SimpleData>
</SchemaData>
</ExtendedData>
<Point>
<extrude>0</extrude>
<coordinates>-46.6233826428571,-22.7353599993258,0.0</coordinates>
</Point>
</Placemark>
<Placemark id="localidades">
<name>Bairro da Barra [3531209016]</name>
<visibility>1</visibility>
<snippet> </snippet>
<description>&lt;center&gt;&lt;table&gt;&lt;tr&gt;&lt;th colspan='2' align='center'&gt;&lt;em&gt;Attributes&lt;/em&gt;&lt;/th&gt;&lt;/tr&gt;&lt;tr bgcolor="#E3E3F3"&gt;
&lt;th&gt;CD_UF&lt;/th&gt;
&lt;td&gt;35&lt;/td&gt;
&lt;/tr&gt;&lt;tr bgcolor=""&gt;
&lt;th&gt;NM_UF&lt;/th&gt;
&lt;td&gt;São Paulo&lt;/td&gt;
&lt;/tr&gt;&lt;tr bgcolor="#E3E3F3"&gt;
&lt;th&gt;SIGLA_UF&lt;/th&gt;
&lt;td&gt;SP&lt;/td&gt;
&lt;/tr&gt;&lt;tr bgcolor=""&gt;
&lt;th&gt;CD_MUN&lt;/th&gt;
&lt;td&gt;3531209&lt;/td&gt;
&lt;/tr&gt;&lt;tr bgcolor="#E3E3F3"&gt;
&lt;th&gt;NM_MUN&lt;/th&gt;
&lt;td&gt;Monte Alegre do Sul&lt;/td&gt;
&lt;/tr&gt;&lt;tr bgcolor=""&gt;
&lt;th&gt;CD_RGINT&lt;/th&gt;
&lt;td&gt;3510&lt;/td&gt;
&lt;/tr&gt;&lt;tr bgcolor="#E3E3F3"&gt;
&lt;th&gt;NM_RGINT&lt;/th&gt;
&lt;td&gt;Campinas&lt;/td&gt;
&lt;/tr&gt;&lt;tr bgcolor=""&gt;
&lt;th&gt;CD_RGI&lt;/th&gt;
&lt;td&gt;350048&lt;/td&gt;
&lt;/tr&gt;&lt;tr bgcolor="#E3E3F3"&gt;
&lt;th&gt;NM_RGI&lt;/th&gt;
&lt;td&gt;Amparo&lt;/td&gt;
&lt;/tr&gt;&lt;tr bgcolor=""&gt;
&lt;th&gt;CT_LOCALIDADE&lt;/th&gt;
&lt;td&gt;Núcleo Urbano&lt;/td&gt;
&lt;/tr&gt;&lt;tr bgcolor="#E3E3F3"&gt;
&lt;th&gt;CD_LOCALIDADE&lt;/th&gt;
&lt;td&gt;3531209016&lt;/td&gt;
&lt;/tr&gt;&lt;tr bgcolor=""&gt;
&lt;th&gt;NM_LOCALIDADE&lt;/th&gt;
&lt;td&gt;Bairro da Barra&lt;/td&gt;
&lt;/tr&gt;&lt;tr bgcolor="#E3E3F3"&gt;
&lt;th&gt;LAT_LOCALIDADE&lt;/th&gt;
&lt;td&gt;-22.7223&lt;/td&gt;
&lt;/tr&gt;&lt;tr bgcolor=""&gt;
&lt;th&gt;LONG_LOCALIDADE&lt;/th&gt;
&lt;td&gt;-46.6923&lt;/td&gt;
&lt;/tr&gt;&lt;/table&gt;&lt;/center&gt;</description>
<Style>
<IconStyle>
<color>ff0000ff</color>
<scale>0.9</scale>
<Icon>
<href>http://maps.google.com/mapfiles/kml/shapes/placemark_circle.png</href>
</Icon>
</IconStyle>
<LabelStyle>
<scale>0.9</scale>
</LabelStyle>
<LineStyle>
<color>72ffffff</color>
<width>1.0</width>
<gx:labelVisibility>1</gx:labelVisibility>
</LineStyle>
<PolyStyle>
<color>66ff54ff</color>
</PolyStyle>
</Style>
<ExtendedData>
<SchemaData schemaUrl="#kml_schema_ft_Núcleos_Urbanos">
<SimpleData name="CD_UF">35</SimpleData>
<SimpleData name="NM_UF">São Paulo</SimpleData>
<SimpleData name="SIGLA_UF">SP</SimpleData>
<SimpleData name="CD_MUN">3531209</SimpleData>
<SimpleData name="NM_MUN">Monte Alegre do Sul</SimpleData>
<SimpleData name="CD_RGINT">3510</SimpleData>
<SimpleData name="NM_RGINT">Campinas</SimpleData>
<SimpleData name="CD_RGI">350048</SimpleData>
<SimpleData name="NM_RGI">Amparo</SimpleData>
<SimpleData name="CT_LOCALIDADE">Núcleo Urbano</SimpleData>
<SimpleData name="CD_LOCALIDADE">3531209016</SimpleData>
<SimpleData name="NM_LOCALIDADE">Bairro da Barra</SimpleData>
<SimpleData name="LAT_LOCALIDADE">-22.7223</SimpleData>
<SimpleData name="LONG_LOCALIDADE">-46.6923</SimpleData>
</SchemaData>
</ExtendedData>
<Point>
<extrude>0</extrude>
<coordinates>-46.6922701958762,-22.7223101539653,0.0</coordinates>
</Point>
</Placemark>
<Placemark id="localidades">
<name>Ribeirão dos Limas [3531209017]</name>
<visibility>1</visibility>
<snippet> </snippet>
<description>&lt;center&gt;&lt;table&gt;&lt;tr&gt;&lt;th colspan='2' align='center'&gt;&lt;em&gt;Attributes&lt;/em&gt;&lt;/th&gt;&lt;/tr&gt;&lt;tr bgcolor="#E3E3F3"&gt;
&lt;th&gt;CD_UF&lt;/th&gt;
&lt;td&gt;35&lt;/td&gt;
&lt;/tr&gt;&lt;tr bgcolor=""&gt;
&lt;th&gt;NM_UF&lt;/th&gt;
&lt;td&gt;São Paulo&lt;/td&gt;
&lt;/tr&gt;&lt;tr bgcolor="#E3E3F3"&gt;
&lt;th&gt;SIGLA_UF&lt;/th&gt;
&lt;td&gt;SP&lt;/td&gt;
&lt;/tr&gt;&lt;tr bgcolor=""&gt;
&lt;th&gt;CD_MUN&lt;/th&gt;
&lt;td&gt;3531209&lt;/td&gt;
&lt;/tr&gt;&lt;tr bgcolor="#E3E3F3"&gt;
&lt;th&gt;NM_MUN&lt;/th&gt;
&lt;td&gt;Monte Alegre do Sul&lt;/td&gt;
&lt;/tr&gt;&lt;tr bgcolor=""&gt;
&lt;th&gt;CD_RGINT&lt;/th&gt;
&lt;td&gt;3510&lt;/td&gt;
&lt;/tr&gt;&lt;tr bgcolor="#E3E3F3"&gt;
&lt;th&gt;NM_RGINT&lt;/th&gt;
&lt;td&gt;Campinas&lt;/td&gt;
&lt;/tr&gt;&lt;tr bgcolor=""&gt;
&lt;th&gt;CD_RGI&lt;/th&gt;
&lt;td&gt;350048&lt;/td&gt;
&lt;/tr&gt;&lt;tr bgcolor="#E3E3F3"&gt;
&lt;th&gt;NM_RGI&lt;/th&gt;
&lt;td&gt;Amparo&lt;/td&gt;
&lt;/tr&gt;&lt;tr bgcolor=""&gt;
&lt;th&gt;CT_LOCALIDADE&lt;/th&gt;
&lt;td&gt;Núcleo Urbano&lt;/td&gt;
&lt;/tr&gt;&lt;tr bgcolor="#E3E3F3"&gt;
&lt;th&gt;CD_LOCALIDADE&lt;/th&gt;
&lt;td&gt;3531209017&lt;/td&gt;
&lt;/tr&gt;&lt;tr bgcolor=""&gt;
&lt;th&gt;NM_LOCALIDADE&lt;/th&gt;
&lt;td&gt;Ribeirão dos Limas&lt;/td&gt;
&lt;/tr&gt;&lt;tr bgcolor="#E3E3F3"&gt;
&lt;th&gt;LAT_LOCALIDADE&lt;/th&gt;
&lt;td&gt;-22.7547&lt;/td&gt;
&lt;/tr&gt;&lt;tr bgcolor=""&gt;
&lt;th&gt;LONG_LOCALIDADE&lt;/th&gt;
&lt;td&gt;-46.6454&lt;/td&gt;
&lt;/tr&gt;&lt;/table&gt;&lt;/center&gt;</description>
<Style>
<IconStyle>
<color>ff0000ff</color>
<scale>0.9</scale>
<Icon>
<href>http://maps.google.com/mapfiles/kml/shapes/placemark_circle.png</href>
</Icon>
</IconStyle>
<LabelStyle>
<scale>0.9</scale>
</LabelStyle>
<LineStyle>
<color>72ffffff</color>
<width>1.0</width>
<gx:labelVisibility>1</gx:labelVisibility>
</LineStyle>
<PolyStyle>
<color>66ff54ff</color>
</PolyStyle>
</Style>
<ExtendedData>
<SchemaData schemaUrl="#kml_schema_ft_Núcleos_Urbanos">
<SimpleData name="CD_UF">35</SimpleData>
<SimpleData name="NM_UF">São Paulo</SimpleData>
<SimpleData name="SIGLA_UF">SP</SimpleData>
<SimpleData name="CD_MUN">3531209</SimpleData>
<SimpleData name="NM_MUN">Monte Alegre do Sul</SimpleData>
<SimpleData name="CD_RGINT">3510</SimpleData>
<SimpleData name="NM_RGINT">Campinas</SimpleData>
<SimpleData name="CD_RGI">350048</SimpleData>
<SimpleData name="NM_RGI">Amparo</SimpleData>
<SimpleData name="CT_LOCALIDADE">Núcleo Urbano</SimpleData>
<SimpleData name="CD_LOCALIDADE">3531209017</SimpleData>
<SimpleData name="NM_LOCALIDADE">Ribeirão dos Limas</SimpleData>
<SimpleData name="LAT_LOCALIDADE">-22.7547</SimpleData>
<SimpleData name="LONG_LOCALIDADE">-46.6454</SimpleData>
</SchemaData>
</ExtendedData>
<Point>
<extrude>0</extrude>
<coordinates>-46.6454336458333,-22.7547185305755,0.0</coordinates>
</Point>
</Placemark>
</Folder>
<Folder id="12. Outras Localidades">
<name>12. Outras Localidades</name>
<Placemark id="12. Outras Localidades">
<name>Moenda [353120900001]</name>
<visibility>1</visibility>
<snippet> </snippet>
<description>&lt;center&gt;&lt;table&gt;&lt;tr&gt;&lt;th colspan='2' align='center'&gt;&lt;em&gt;Attributes&lt;/em&gt;&lt;/th&gt;&lt;/tr&gt;&lt;tr bgcolor="#E3E3F3"&gt;
&lt;th&gt;CD_UF&lt;/th&gt;
&lt;td&gt;35&lt;/td&gt;
&lt;/tr&gt;&lt;tr bgcolor=""&gt;
&lt;th&gt;NM_UF&lt;/th&gt;
&lt;td&gt;São Paulo&lt;/td&gt;
&lt;/tr&gt;&lt;tr bgcolor="#E3E3F3"&gt;
&lt;th&gt;SIGLA_UF&lt;/th&gt;
&lt;td&gt;SP&lt;/td&gt;
&lt;/tr&gt;&lt;tr bgcolor=""&gt;
&lt;th&gt;CD_MUN&lt;/th&gt;
&lt;td&gt;3531209&lt;/td&gt;
&lt;/tr&gt;&lt;tr bgcolor="#E3E3F3"&gt;
&lt;th&gt;NM_MUN&lt;/th&gt;
&lt;td&gt;Monte Alegre do Sul&lt;/td&gt;
&lt;/tr&gt;&lt;tr bgcolor=""&gt;
&lt;th&gt;CD_RGINT&lt;/th&gt;
&lt;td&gt;3510&lt;/td&gt;
&lt;/tr&gt;&lt;tr bgcolor="#E3E3F3"&gt;
&lt;th&gt;NM_RGINT&lt;/th&gt;
&lt;td&gt;Campinas&lt;/td&gt;
&lt;/tr&gt;&lt;tr bgcolor=""&gt;
&lt;th&gt;CD_RGI&lt;/th&gt;
&lt;td&gt;350048&lt;/td&gt;
&lt;/tr&gt;&lt;tr bgcolor="#E3E3F3"&gt;
&lt;th&gt;NM_RGI&lt;/th&gt;
&lt;td&gt;Amparo&lt;/td&gt;
&lt;/tr&gt;&lt;tr bgcolor=""&gt;
&lt;th&gt;CT_LOCALIDADE&lt;/th&gt;
&lt;td&gt;Outras Localidades&lt;/td&gt;
&lt;/tr&gt;&lt;tr bgcolor="#E3E3F3"&gt;
&lt;th&gt;SCT_LOCALIDADE&lt;/th&gt;
&lt;td&gt;&lt;/td&gt;
&lt;/tr&gt;&lt;tr bgcolor=""&gt;
&lt;th&gt;CD_LOCALIDADE&lt;/th&gt;
&lt;td&gt;353120900001&lt;/td&gt;
&lt;/tr&gt;&lt;tr bgcolor="#E3E3F3"&gt;
&lt;th&gt;NM_LOCALIDADE&lt;/th&gt;
&lt;td&gt;Moenda&lt;/td&gt;
&lt;/tr&gt;&lt;/table&gt;&lt;/center&gt;</description>
<Style>
<IconStyle>
<color>ff0069d3</color>
<scale>0.6</scale>
<Icon>
<href>http://maps.google.com/mapfiles/kml/shapes/placemark_circle.png</href>
</Icon>
</IconStyle>
<LabelStyle>
<scale>0.6</scale>
</LabelStyle>
<LineStyle>
<width>1.0</width>
<gx:labelVisibility>1</gx:labelVisibility>
</LineStyle>
</Style>
<ExtendedData>
<SchemaData schemaUrl="#kml_schema_ft_Localidades">
<SimpleData name="CD_UF">35</SimpleData>
<SimpleData name="NM_UF">São Paulo</SimpleData>
<SimpleData name="SIGLA_UF">SP</SimpleData>
<SimpleData name="CD_MUN">3531209</SimpleData>
<SimpleData name="NM_MUN">Monte Alegre do Sul</SimpleData>
<SimpleData name="CD_RGINT">3510</SimpleData>
<SimpleData name="NM_RGINT">Campinas</SimpleData>
<SimpleData name="CD_RGI">350048</SimpleData>
<SimpleData name="NM_RGI">Amparo</SimpleData>
<SimpleData name="CT_LOCALIDADE">Outras Localidades</SimpleData>
<SimpleData name="CD_LOCALIDADE">353120900001</SimpleData>
<SimpleData name="NM_LOCALIDADE">Moenda</SimpleData>
</SchemaData>
</ExtendedData>
<Point>
<extrude>0</extrude>
<coordinates>-46.659807,-22.7288649993261,0.0</coordinates>
</Point>
</Placemark>
<Placemark id="12. Outras Localidades">
<name>Três Pontes [353120999002]</name>
<visibility>1</visibility>
<snippet> </snippet>
<description>&lt;center&gt;&lt;table&gt;&lt;tr&gt;&lt;th colspan='2' align='center'&gt;&lt;em&gt;Attributes&lt;/em&gt;&lt;/th&gt;&lt;/tr&gt;&lt;tr bgcolor="#E3E3F3"&gt;
&lt;th&gt;CD_UF&lt;/th&gt;
&lt;td&gt;35&lt;/td&gt;
&lt;/tr&gt;&lt;tr bgcolor=""&gt;
&lt;th&gt;NM_UF&lt;/th&gt;
&lt;td&gt;São Paulo&lt;/td&gt;
&lt;/tr&gt;&lt;tr bgcolor="#E3E3F3"&gt;
&lt;th&gt;SIGLA_UF&lt;/th&gt;
&lt;td&gt;SP&lt;/td&gt;
&lt;/tr&gt;&lt;tr bgcolor=""&gt;
&lt;th&gt;CD_MUN&lt;/th&gt;
&lt;td&gt;3531209&lt;/td&gt;
&lt;/tr&gt;&lt;tr bgcolor="#E3E3F3"&gt;
&lt;th&gt;NM_MUN&lt;/th&gt;
&lt;td&gt;Monte Alegre do Sul&lt;/td&gt;
&lt;/tr&gt;&lt;tr bgcolor=""&gt;
&lt;th&gt;CD_RGINT&lt;/th&gt;
&lt;td&gt;3510&lt;/td&gt;
&lt;/tr&gt;&lt;tr bgcolor="#E3E3F3"&gt;
&lt;th&gt;NM_RGINT&lt;/th&gt;
&lt;td&gt;Campinas&lt;/td&gt;
&lt;/tr&gt;&lt;tr bgcolor=""&gt;
&lt;th&gt;CD_RGI&lt;/th&gt;
&lt;td&gt;350048&lt;/td&gt;
&lt;/tr&gt;&lt;tr bgcolor="#E3E3F3"&gt;
&lt;th&gt;NM_RGI&lt;/th&gt;
&lt;td&gt;Amparo&lt;/td&gt;
&lt;/tr&gt;&lt;tr bgcolor=""&gt;
&lt;th&gt;CT_LOCALIDADE&lt;/th&gt;
&lt;td&gt;Outras Localidades&lt;/td&gt;
&lt;/tr&gt;&lt;tr bgcolor="#E3E3F3"&gt;
&lt;th&gt;SCT_LOCALIDADE&lt;/th&gt;
&lt;td&gt;&lt;/td&gt;
&lt;/tr&gt;&lt;tr bgcolor=""&gt;
&lt;th&gt;CD_LOCALIDADE&lt;/th&gt;
&lt;td&gt;353120999002&lt;/td&gt;
&lt;/tr&gt;&lt;tr bgcolor="#E3E3F3"&gt;
&lt;th&gt;NM_LOCALIDADE&lt;/th&gt;
&lt;td&gt;Três Pontes&lt;/td&gt;
&lt;/tr&gt;&lt;/table&gt;&lt;/center&gt;</description>
<Style>
<IconStyle>
<color>ff0069d3</color>
<scale>0.6</scale>
<Icon>
<href>http://maps.google.com/mapfiles/kml/shapes/placemark_circle.png</href>
</Icon>
</IconStyle>
<LabelStyle>
<scale>0.6</scale>
</LabelStyle>
<LineStyle>
<width>1.0</width>
<gx:labelVisibility>1</gx:labelVisibility>
</LineStyle>
</Style>
<ExtendedData>
<SchemaData schemaUrl="#kml_schema_ft_Localidades">
<SimpleData name="CD_UF">35</SimpleData>
<SimpleData name="NM_UF">São Paulo</SimpleData>
<SimpleData name="SIGLA_UF">SP</SimpleData>
<SimpleData name="CD_MUN">3531209</SimpleData>
<SimpleData name="NM_MUN">Monte Alegre do Sul</SimpleData>
<SimpleData name="CD_RGINT">3510</SimpleData>
<SimpleData name="NM_RGINT">Campinas</SimpleData>
<SimpleData name="CD_RGI">350048</SimpleData>
<SimpleData name="NM_RGI">Amparo</SimpleData>
<SimpleData name="CT_LOCALIDADE">Outras Localidades</SimpleData>
<SimpleData name="CD_LOCALIDADE">353120999002</SimpleData>
<SimpleData name="NM_LOCALIDADE">Três Pontes</SimpleData>
</SchemaData>
</ExtendedData>
<Point>
<extrude>0</extrude>
<coordinates>-46.708051,-22.6738989993273,0.0</coordinates>
</Point>
</Placemark>
<Placemark id="12. Outras Localidades">
<name>Expansão Urbana de Mostardas (Sítio São Pedro) [353120999012]</name>
<visibility>1</visibility>
<snippet> </snippet>
<description>&lt;center&gt;&lt;table&gt;&lt;tr&gt;&lt;th colspan='2' align='center'&gt;&lt;em&gt;Attributes&lt;/em&gt;&lt;/th&gt;&lt;/tr&gt;&lt;tr bgcolor="#E3E3F3"&gt;
&lt;th&gt;CD_UF&lt;/th&gt;
&lt;td&gt;35&lt;/td&gt;
&lt;/tr&gt;&lt;tr bgcolor=""&gt;
&lt;th&gt;NM_UF&lt;/th&gt;
&lt;td&gt;São Paulo&lt;/td&gt;
&lt;/tr&gt;&lt;tr bgcolor="#E3E3F3"&gt;
&lt;th&gt;SIGLA_UF&lt;/th&gt;
&lt;td&gt;SP&lt;/td&gt;
&lt;/tr&gt;&lt;tr bgcolor=""&gt;
&lt;th&gt;CD_MUN&lt;/th&gt;
&lt;td&gt;3531209&lt;/td&gt;
&lt;/tr&gt;&lt;tr bgcolor="#E3E3F3"&gt;
&lt;th&gt;NM_MUN&lt;/th&gt;
&lt;td&gt;Monte Alegre do Sul&lt;/td&gt;
&lt;/tr&gt;&lt;tr bgcolor=""&gt;
&lt;th&gt;CD_RGINT&lt;/th&gt;
&lt;td&gt;3510&lt;/td&gt;
&lt;/tr&gt;&lt;tr bgcolor="#E3E3F3"&gt;
&lt;th&gt;NM_RGINT&lt;/th&gt;
&lt;td&gt;Campinas&lt;/td&gt;
&lt;/tr&gt;&lt;tr bgcolor=""&gt;
&lt;th&gt;CD_RGI&lt;/th&gt;
&lt;td&gt;350048&lt;/td&gt;
&lt;/tr&gt;&lt;tr bgcolor="#E3E3F3"&gt;
&lt;th&gt;NM_RGI&lt;/th&gt;
&lt;td&gt;Amparo&lt;/td&gt;
&lt;/tr&gt;&lt;tr bgcolor=""&gt;
&lt;th&gt;CT_LOCALIDADE&lt;/th&gt;
&lt;td&gt;Outras Localidades&lt;/td&gt;
&lt;/tr&gt;&lt;tr bgcolor="#E3E3F3"&gt;
&lt;th&gt;SCT_LOCALIDADE&lt;/th&gt;
&lt;td&gt;&lt;/td&gt;
&lt;/tr&gt;&lt;tr bgcolor=""&gt;
&lt;th&gt;CD_LOCALIDADE&lt;/th&gt;
&lt;td&gt;353120999012&lt;/td&gt;
&lt;/tr&gt;&lt;tr bgcolor="#E3E3F3"&gt;
&lt;th&gt;NM_LOCALIDADE&lt;/th&gt;
&lt;td&gt;Expansão Urbana de Mostardas (Sítio São Pedro)&lt;/td&gt;
&lt;/tr&gt;&lt;/table&gt;&lt;/center&gt;</description>
<Style>
<IconStyle>
<color>ff0069d3</color>
<scale>0.6</scale>
<Icon>
<href>http://maps.google.com/mapfiles/kml/shapes/placemark_circle.png</href>
</Icon>
</IconStyle>
<LabelStyle>
<scale>0.6</scale>
</LabelStyle>
<LineStyle>
<width>1.0</width>
<gx:labelVisibility>1</gx:labelVisibility>
</LineStyle>
</Style>
<ExtendedData>
<SchemaData schemaUrl="#kml_schema_ft_Localidades">
<SimpleData name="CD_UF">35</SimpleData>
<SimpleData name="NM_UF">São Paulo</SimpleData>
<SimpleData name="SIGLA_UF">SP</SimpleData>
<SimpleData name="CD_MUN">3531209</SimpleData>
<SimpleData name="NM_MUN">Monte Alegre do Sul</SimpleData>
<SimpleData name="CD_RGINT">3510</SimpleData>
<SimpleData name="NM_RGINT">Campinas</SimpleData>
<SimpleData name="CD_RGI">350048</SimpleData>
<SimpleData name="NM_RGI">Amparo</SimpleData>
<SimpleData name="CT_LOCALIDADE">Outras Localidades</SimpleData>
<SimpleData name="CD_LOCALIDADE">353120999012</SimpleData>
<SimpleData name="NM_LOCALIDADE">Expansão Urbana de Mostardas (Sítio São Pedro)</SimpleData>
</SchemaData>
</ExtendedData>
<Point>
<extrude>0</extrude>
<coordinates>-46.6462707693357,-22.751518683111,0.0</coordinates>
</Point>
</Placemark>
</Folder>
<Folder id="13. Referência">
<name>13. Referência</name>
<Placemark id="13. Referência">
<name>Monte Alegre do Sul [3531209]</name>
<visibility>1</visibility>
<snippet> </snippet>
<description>&lt;center&gt;&lt;table&gt;&lt;tr&gt;&lt;th colspan='2' align='center'&gt;&lt;em&gt;Attributes&lt;/em&gt;&lt;/th&gt;&lt;/tr&gt;&lt;tr bgcolor="#E3E3F3"&gt;
&lt;th&gt;CD_UF&lt;/th&gt;
&lt;td&gt;35&lt;/td&gt;
&lt;/tr&gt;&lt;tr bgcolor=""&gt;
&lt;th&gt;NM_UF&lt;/th&gt;
&lt;td&gt;São Paulo&lt;/td&gt;
&lt;/tr&gt;&lt;tr bgcolor="#E3E3F3"&gt;
&lt;th&gt;CD_MUN&lt;/th&gt;
&lt;td&gt;3531209&lt;/td&gt;
&lt;/tr&gt;&lt;tr bgcolor=""&gt;
&lt;th&gt;NM_MUN&lt;/th&gt;
&lt;td&gt;Monte Alegre do Sul&lt;/td&gt;
&lt;/tr&gt;&lt;tr bgcolor="#E3E3F3"&gt;
&lt;th&gt;CD_RGINT&lt;/th&gt;
&lt;td&gt;3510&lt;/td&gt;
&lt;/tr&gt;&lt;tr bgcolor=""&gt;
&lt;th&gt;NM_RGINT&lt;/th&gt;
&lt;td&gt;Campinas&lt;/td&gt;
&lt;/tr&gt;&lt;tr bgcolor="#E3E3F3"&gt;
&lt;th&gt;CD_RGI&lt;/th&gt;
&lt;td&gt;350048&lt;/td&gt;
&lt;/tr&gt;&lt;tr bgcolor=""&gt;
&lt;th&gt;NM_RGI&lt;/th&gt;
&lt;td&gt;Amparo&lt;/td&gt;
&lt;/tr&gt;&lt;/table&gt;&lt;/center&gt;</description>
<Style>
<IconStyle>
<scale>0.7</scale>
</IconStyle>
<LabelStyle>
<scale>0.7</scale>
</LabelStyle>
<LineStyle>
<color>ffffffff</color>
<width>3</width>
<gx:labelVisibility>1</gx:labelVisibility>
</LineStyle>
<PolyStyle>
<color>00ffffff</color>
</PolyStyle>
</Style>
<ExtendedData>
<SchemaData schemaUrl="#kml_schema_ft_Município">
<SimpleData name="CD_UF">35</SimpleData>
<SimpleData name="NM_UF">São Paulo</SimpleData>
<SimpleData name="CD_MUN">3531209</SimpleData>
<SimpleData name="NM_MUN">Monte Alegre do Sul</SimpleData>
<SimpleData name="CD_RGINT">3510</SimpleData>
<SimpleData name="NM_RGINT">Campinas</SimpleData>
<SimpleData name="CD_RGI">350048</SimpleData>
<SimpleData name="NM_RGI">Amparo</SimpleData>
</SchemaData>
</ExtendedData>
<MultiGeometry>
<Polygon>
<extrude>0</extrude>
<tessellate>1</tessellate>
<outerBoundaryIs>
<LinearRing>
<coordinates>-46.6211684,-22.7245313993262,0.0 -46.6210649,-22.7269030993261,0.0 -46.6209379,-22.7284619993261,0.0 -46.6207613,-22.7291891993261,0.0 -46.6205273,-22.729606699326,0.0 -46.6200714,-22.730124399326,0.0 -46.619116,-22.730923599326,0.0 -46.6175214,-22.731372799326,0.0 -46.6174691,-22.731387599326,0.0 -46.6168215,-22.731665799326,0.0 -46.6163007,-22.732140999326,0.0 -46.6162453,-22.732482299326,0.0 -46.6163892,-22.7349442993259,0.0 -46.6169867,-22.7359546993259,0.0 -46.6172771,-22.7362086993259,0.0 -46.6173201,-22.7369108993259,0.0 -46.6168407,-22.7381537993258,0.0 -46.6168339,-22.7386220993258,0.0 -46.6163812,-22.7401633993258,0.0 -46.6152196,-22.7421075993258,0.0 -46.6150425,-22.7434002993257,0.0 -46.6149915,-22.7450856993257,0.0 -46.614742,-22.7463822993257,0.0 -46.6145093,-22.7470996993256,0.0 -46.6144097,-22.7473118993256,0.0 -46.6141281,-22.7479116993256,0.0 -46.6127973,-22.7500975993256,0.0 -46.6127178,-22.7504950993256,0.0 -46.6125542,-22.7513127993255,0.0 -46.6125602,-22.7518328993255,0.0 -46.6128247,-22.7529096993255,0.0 -46.6146856,-22.7548759993255,0.0 -46.6149588,-22.7555573993254,0.0 -46.615066,-22.7573604993254,0.0 -46.6153289,-22.7577451993254,0.0 -46.61603,-22.7582127993254,0.0 -46.6170112,-22.7583117993254,0.0 -46.6189299,-22.7583091993254,0.0 -46.6204247,-22.7593492993254,0.0 -46.6214018,-22.7593806993254,0.0 -46.6235518,-22.7580392993254,0.0 -46.6242128,-22.7578038993254,0.0 -46.6248893,-22.7578412993254,0.0 -46.6254993,-22.7585856993254,0.0 -46.6261995,-22.7585998993254,0.0 -46.6269363,-22.7579540993254,0.0 -46.6272446,-22.7573890993254,0.0 -46.6273563,-22.7569983993254,0.0 -46.6274141,-22.7559272993254,0.0 -46.6275617,-22.7556673993254,0.0 -46.6278394,-22.7554170993254,0.0 -46.6297681,-22.7544883993255,0.0 -46.6311644,-22.7544096993255,0.0 -46.6323588,-22.7538987993255,0.0 -46.6333276,-22.7540302993255,0.0 -46.6343812,-22.7539977993255,0.0 -46.6347376,-22.7541666993255,0.0 -46.6352857,-22.7548319993255,0.0 -46.635646,-22.7549480993255,0.0 -46.6360317,-22.7549002993255,0.0 -46.6364866,-22.7546903993255,0.0 -46.6367493,-22.7544276993255,0.0 -46.6369973,-22.7537333993255,0.0 -46.6375409,-22.7534144993255,0.0 -46.6392758,-22.7533295993255,0.0 -46.6395798,-22.7534045993255,0.0 -46.6397676,-22.7535558993255,0.0 -46.6399129,-22.7539521993255,0.0 -46.6401511,-22.7542539993255,0.0 -46.6407958,-22.7547548993255,0.0 -46.6407856,-22.7549815993255,0.0 -46.6410824,-22.7553892993255,0.0 -46.641284,-22.7555008993254,0.0 -46.6426888,-22.7553922993255,0.0 -46.6428963,-22.7553762993254,0.0 -46.6433638,-22.7554200993254,0.0 -46.6441187,-22.7558837993254,0.0 -46.6445541,-22.7562179993254,0.0 -46.6451206,-22.7568489993254,0.0 -46.6456521,-22.7577504993254,0.0 -46.6458256,-22.7583661993254,0.0 -46.6459434,-22.7604526993253,0.0 -46.6461446,-22.7606800993253,0.0 -46.6466123,-22.7609564993253,0.0 -46.6473335,-22.7612695993253,0.0 -46.6478272,-22.7616961993253,0.0 -46.6482088,-22.7623950993253,0.0 -46.6494876,-22.7640480993253,0.0 -46.6495424,-22.7640827993252,0.0 -46.6498751,-22.7642937993252,0.0 -46.6505641,-22.7644258993252,0.0 -46.6511872,-22.7648027993252,0.0 -46.6522483,-22.7658828993252,0.0 -46.6525928,-22.7664211993252,0.0 -46.6543054,-22.7669878993252,0.0 -46.6553441,-22.7671089993252,0.0 -46.65595,-22.7670998993252,0.0 -46.6572389,-22.7667188993252,0.0 -46.6583871,-22.7667228993252,0.0 -46.6594314,-22.7673729993252,0.0 -46.6603091,-22.7676761993252,0.0 -46.6608885,-22.7684154993252,0.0 -46.6609268,-22.7687907993251,0.0 -46.662724,-22.7685478993251,0.0 -46.6642911,-22.7686310993251,0.0 -46.6655028,-22.7685436993251,0.0 -46.6697518,-22.7678496993252,0.0 -46.6717862,-22.7678107993252,0.0 -46.6728455,-22.7677905993252,0.0 -46.6749499,-22.7676171993252,0.0 -46.6763137,-22.7682019993252,0.0 -46.677761,-22.7690840993251,0.0 -46.6790605,-22.7695212993251,0.0 -46.6803683,-22.7696787993251,0.0 -46.681952,-22.7696161993251,0.0 -46.6844758,-22.7690757993251,0.0 -46.6856976,-22.7686537993251,0.0 -46.6868958,-22.7688716993251,0.0 -46.6886444,-22.7689521993251,0.0 -46.6898703,-22.7688176993251,0.0 -46.6914762,-22.7692327993251,0.0 -46.6932318,-22.7701251993251,0.0 -46.6939829,-22.7705068993251,0.0 -46.6949808,-22.7711879993251,0.0 -46.6964282,-22.7707778993251,0.0 -46.6985324,-22.7685121993252,0.0 -46.6999539,-22.7693130993251,0.0 -46.7011426,-22.7696723993251,0.0 -46.7023969,-22.7699358993251,0.0 -46.703501,-22.7708210993251,0.0 -46.704175,-22.7720197993251,0.0 -46.7044952,-22.7723917993251,0.0 -46.7062331,-22.774410999325,0.0 -46.7069293,-22.775432099325,0.0 -46.7080576,-22.7794968993249,0.0 -46.7089238,-22.7781569993249,0.0 -46.7093121,-22.7773117993249,0.0 -46.7093093,-22.776488299325,0.0 -46.7089935,-22.775701799325,0.0 -46.7091267,-22.775052399325,0.0 -46.710256,-22.774207599325,0.0 -46.7105416,-22.773568699325,0.0 -46.7103692,-22.772962799325,0.0 -46.7100628,-22.7726202993251,0.0 -46.7095575,-22.7722606993251,0.0 -46.7090609,-22.7715745993251,0.0 -46.7089978,-22.7704178993251,0.0 -46.7085243,-22.7698836993251,0.0 -46.708449,-22.7695040993251,0.0 -46.7078898,-22.7691491993251,0.0 -46.7079636,-22.7686065993251,0.0 -46.7088454,-22.7683072993251,0.0 -46.7088652,-22.7680261993252,0.0 -46.7074032,-22.7666866993252,0.0 -46.7061552,-22.7658676993252,0.0 -46.7055327,-22.7653114993252,0.0 -46.705177,-22.7648714993252,0.0 -46.7048062,-22.7637269993253,0.0 -46.7031679,-22.7623496993253,0.0 -46.7029663,-22.7620163993253,0.0 -46.7028798,-22.7616281993253,0.0 -46.7025507,-22.7612190993253,0.0 -46.7017997,-22.7609892993253,0.0 -46.7011274,-22.7604343993253,0.0 -46.6995774,-22.7603432993253,0.0 -46.6990186,-22.7599991993253,0.0 -46.6989554,-22.7596855993253,0.0 -46.6990287,-22.7589176993254,0.0 -46.6985798,-22.7585973993254,0.0 -46.6983472,-22.7585346993254,0.0 -46.6979746,-22.7585931993254,0.0 -46.6976046,-22.7588232993254,0.0 -46.6967958,-22.7596008993254,0.0 -46.6962518,-22.7597476993253,0.0 -46.6959251,-22.7596753993254,0.0 -46.6952316,-22.7592263993254,0.0 -46.6935585,-22.7573365993254,0.0 -46.6935629,-22.7565250993254,0.0 -46.6934658,-22.7562988993254,0.0 -46.6932547,-22.7561070993254,0.0 -46.6925974,-22.7558401993254,0.0 -46.6921665,-22.7549280993255,0.0 -46.6917904,-22.7547053993255,0.0 -46.691304,-22.7547972993255,0.0 -46.6907887,-22.7547711993255,0.0 -46.6906582,-22.7545676993255,0.0 -46.6905345,-22.7539290993255,0.0 -46.690391,-22.7537132993255,0.0 -46.6899193,-22.7534009993255,0.0 -46.6897308,-22.7530987993255,0.0 -46.6896303,-22.7527000993255,0.0 -46.6890454,-22.7523169993255,0.0 -46.6888511,-22.7517568993255,0.0 -46.6885304,-22.7512286993255,0.0 -46.6878742,-22.7510309993256,0.0 -46.6860935,-22.7511348993255,0.0 -46.685645,-22.7510650993255,0.0 -46.685292,-22.7508299993255,0.0 -46.6848541,-22.7502515993256,0.0 -46.6839536,-22.7500103993256,0.0 -46.6835745,-22.7495163993256,0.0 -46.6828693,-22.7490694993256,0.0 -46.682888,-22.7486473993256,0.0 -46.6827559,-22.7483477993256,0.0 -46.6828223,-22.7481074993256,0.0 -46.6837957,-22.7475888993256,0.0 -46.6839995,-22.7471321993256,0.0 -46.6830348,-22.7455950993257,0.0 -46.6831125,-22.7450536993257,0.0 -46.6834477,-22.7448013993257,0.0 -46.6838306,-22.7447325993257,0.0 -46.6840542,-22.7448154993257,0.0 -46.6846196,-22.7454714993257,0.0 -46.6851115,-22.7455863993257,0.0 -46.6862414,-22.7464584993257,0.0 -46.6867217,-22.7466275993257,0.0 -46.6873427,-22.7471181993256,0.0 -46.6877146,-22.7472006993256,0.0 -46.6880209,-22.7470681993256,0.0 -46.6882373,-22.7468499993256,0.0 -46.688774,-22.7458373993257,0.0 -46.6887932,-22.7454773993257,0.0 -46.6886349,-22.7449206993257,0.0 -46.6883659,-22.7448464993257,0.0 -46.6880321,-22.7451634993257,0.0 -46.6876824,-22.7451771993257,0.0 -46.6874437,-22.7446285993257,0.0 -46.6874597,-22.7440932993257,0.0 -46.6873055,-22.7439326993257,0.0 -46.6869815,-22.7440678993257,0.0 -46.6864329,-22.7440635993257,0.0 -46.6859264,-22.7436562993257,0.0 -46.6856296,-22.7431731993257,0.0 -46.6853818,-22.7429589993257,0.0 -46.6848445,-22.7427800993257,0.0 -46.6843866,-22.7423749993257,0.0 -46.6840711,-22.7415130993258,0.0 -46.6832221,-22.7411125993258,0.0 -46.6827951,-22.7405661993258,0.0 -46.6826001,-22.7399296993258,0.0 -46.6817591,-22.7396902993258,0.0 -46.6812654,-22.7393167993258,0.0 -46.6812178,-22.7391673993258,0.0 -46.6812956,-22.7389706993258,0.0 -46.6814583,-22.7388819993258,0.0 -46.6815598,-22.7386423993258,0.0 -46.6810226,-22.7385712993258,0.0 -46.6808817,-22.7383996993258,0.0 -46.6808283,-22.7379581993259,0.0 -46.6810467,-22.7377391993259,0.0 -46.6815376,-22.7378000993259,0.0 -46.6822882,-22.7372533993259,0.0 -46.6830314,-22.7370061993259,0.0 -46.683248,-22.7366020993259,0.0 -46.6832216,-22.7362390993259,0.0 -46.6835339,-22.7361051993259,0.0 -46.6836338,-22.7357487993259,0.0 -46.6845809,-22.7351534993259,0.0 -46.6847181,-22.7348481993259,0.0 -46.6849729,-22.7346954993259,0.0 -46.6851557,-22.7343921993259,0.0 -46.6855914,-22.7342835993259,0.0 -46.6857406,-22.7340632993259,0.0 -46.6857125,-22.733640899326,0.0 -46.6857912,-22.733445199326,0.0 -46.6859877,-22.733270899326,0.0 -46.6864852,-22.733060999326,0.0 -46.6870514,-22.732479799326,0.0 -46.6871399,-22.732155199326,0.0 -46.686638,-22.730148999326,0.0 -46.6870142,-22.729547499326,0.0 -46.6872819,-22.729498599326,0.0 -46.6879134,-22.729664699326,0.0 -46.6883915,-22.729637099326,0.0 -46.6889076,-22.7291891993261,0.0 -46.6892003,-22.7290560993261,0.0 -46.6900388,-22.7290690993261,0.0 -46.6911502,-22.7280780993261,0.0 -46.6912982,-22.7277516993261,0.0 -46.6912987,-22.7269400993261,0.0 -46.6915383,-22.7265603993261,0.0 -46.692103,-22.7260768993261,0.0 -46.6921947,-22.7257838993261,0.0 -46.6921443,-22.7254829993261,0.0 -46.6920573,-22.7249632993261,0.0 -46.6921121,-22.7247026993262,0.0 -46.6927275,-22.7244029993262,0.0 -46.6931046,-22.7240214993262,0.0 -46.6935815,-22.7238868993262,0.0 -46.6944007,-22.7231653993262,0.0 -46.6950867,-22.7230591993262,0.0 -46.6953985,-22.7227859993262,0.0 -46.6956337,-22.7229798993262,0.0 -46.6956594,-22.7231937993262,0.0 -46.6957742,-22.7232142993262,0.0 -46.6959399,-22.7231050993262,0.0 -46.695957,-22.7226928993262,0.0 -46.6961188,-22.7226390993262,0.0 -46.6961714,-22.7227032993262,0.0 -46.6962505,-22.7227995993262,0.0 -46.6962676,-22.7232842993262,0.0 -46.6963607,-22.7234015993262,0.0 -46.6965505,-22.7234434993262,0.0 -46.697596,-22.7229719993262,0.0 -46.6977737,-22.7230024993262,0.0 -46.6979022,-22.7231528993262,0.0 -46.6977702,-22.7237816993262,0.0 -46.6978887,-22.7240069993262,0.0 -46.6982759,-22.7241861993262,0.0 -46.6988353,-22.7240939993262,0.0 -46.6991695,-22.7241504993262,0.0 -46.7000485,-22.7242989993262,0.0 -46.700421,-22.7242404993262,0.0 -46.7005588,-22.7240329993262,0.0 -46.7004944,-22.7235595993262,0.0 -46.7002918,-22.7233546993262,0.0 -46.700082,-22.7233244993262,0.0 -46.6998779,-22.7234768993262,0.0 -46.6996998,-22.7234364993262,0.0 -46.6995206,-22.7231786993262,0.0 -46.6994003,-22.7226928993262,0.0 -46.6988833,-22.7224278993262,0.0 -46.6987504,-22.7219953993262,0.0 -46.6988431,-22.7208790993262,0.0 -46.6984809,-22.7203930993263,0.0 -46.6984597,-22.7203646993263,0.0 -46.6981537,-22.7199543993263,0.0 -46.6980479,-22.7189601993263,0.0 -46.6981021,-22.7186554993263,0.0 -46.6983567,-22.7184497993263,0.0 -46.6983842,-22.7179167993263,0.0 -46.6989648,-22.7176845993263,0.0 -46.6989869,-22.7174889993263,0.0 -46.6992628,-22.7171943993263,0.0 -46.6992014,-22.7170119993263,0.0 -46.6987783,-22.7167764993263,0.0 -46.6987501,-22.7164097993263,0.0 -46.7002985,-22.7150792993264,0.0 -46.7005777,-22.7151125993264,0.0 -46.7008824,-22.7151488993264,0.0 -46.7012919,-22.7154924993264,0.0 -46.7017584,-22.7154983993264,0.0 -46.7018972,-22.7153627993264,0.0 -46.7018722,-22.7152476993264,0.0 -46.701599,-22.7148697993264,0.0 -46.7018627,-22.7144022993264,0.0 -46.7017536,-22.7141441993264,0.0 -46.7019382,-22.7139900993264,0.0 -46.7032953,-22.7142365993264,0.0 -46.7037685,-22.7147383993264,0.0 -46.7041426,-22.7148316993264,0.0 -46.7049288,-22.7144883993264,0.0 -46.7052335,-22.7144410993264,0.0 -46.7060432,-22.7148450993264,0.0 -46.7063436,-22.7147320993264,0.0 -46.7067733,-22.7144031993264,0.0 -46.7073422,-22.7143535993264,0.0 -46.7083804,-22.7144203993264,0.0 -46.7090836,-22.7140427993264,0.0 -46.7099834,-22.7139470993264,0.0 -46.7101415,-22.7137772993264,0.0 -46.7104195,-22.7134792993264,0.0 -46.7103587,-22.7132304993264,0.0 -46.709627,-22.7134648993264,0.0 -46.7093802,-22.7133603993264,0.0 -46.7091221,-22.7131016993264,0.0 -46.7091224,-22.7122352993264,0.0 -46.709392,-22.7114178993265,0.0 -46.7094841,-22.7102924993265,0.0 -46.7102165,-22.7083601993265,0.0 -46.7106376,-22.7079168993265,0.0 -46.7115135,-22.7072256993266,0.0 -46.7118838,-22.7067665993266,0.0 -46.7121372,-22.7058881993266,0.0 -46.7120653,-22.7054997993266,0.0 -46.7118979,-22.7052748993266,0.0 -46.7110439,-22.7049156993266,0.0 -46.7110384,-22.7038101993266,0.0 -46.7104161,-22.7034550993266,0.0 -46.7101145,-22.7031352993267,0.0 -46.7097248,-22.7024747993267,0.0 -46.7097333,-22.7022587993267,0.0 -46.7099646,-22.7020150993267,0.0 -46.7103931,-22.7018728993267,0.0 -46.7107531,-22.7016081993267,0.0 -46.7109083,-22.7011087993267,0.0 -46.7109147,-22.7006592993267,0.0 -46.7109394,-22.6989121993267,0.0 -46.7110203,-22.6988574993268,0.0 -46.7113946,-22.6989291993267,0.0 -46.7118188,-22.6992159993267,0.0 -46.7122974,-22.6993956993267,0.0 -46.7132903,-22.6995788993267,0.0 -46.7135256,-22.6994790993267,0.0 -46.7136042,-22.6993500993267,0.0 -46.7139228,-22.6988272993268,0.0 -46.7140782,-22.6987439993268,0.0 -46.7142337,-22.6986607993268,0.0 -46.7145671,-22.6988304993268,0.0 -46.71545,-22.6992797993267,0.0 -46.7156726,-22.6993804993267,0.0 -46.7163134,-22.7003055993267,0.0 -46.7164546,-22.7003792993267,0.0 -46.7166299,-22.7003718993267,0.0 -46.7167926,-22.7003649993267,0.0 -46.7170754,-22.7002587993267,0.0 -46.7173583,-22.7001525993267,0.0 -46.7181266,-22.6992339993268,0.0 -46.7182091,-22.6991352993267,0.0 -46.7182917,-22.6990365993267,0.0 -46.7183075,-22.6984823993268,0.0 -46.7184291,-22.6980272993268,0.0 -46.7187821,-22.6978564993268,0.0 -46.7199682,-22.6972851993268,0.0 -46.7200845,-22.6971314993268,0.0 -46.7201471,-22.6966871993268,0.0 -46.7206378,-22.6961437993268,0.0 -46.7207396,-22.6960310993268,0.0 -46.7207834,-22.6959825993268,0.0 -46.7208272,-22.6959340993268,0.0 -46.7208496,-22.6956937993268,0.0 -46.720856,-22.6956249993268,0.0 -46.720852,-22.6952789993268,0.0 -46.720838,-22.6951379993268,0.0 -46.720719,-22.6949559993268,0.0 -46.720329,-22.6945029993269,0.0 -46.72001,-22.6940629993269,0.0 -46.7198525,-22.6937562993269,0.0 -46.719783,-22.6936209993269,0.0 -46.7197809,-22.6934987993269,0.0 -46.7200352,-22.6931793993269,0.0 -46.7203897,-22.6931011993269,0.0 -46.7206998,-22.6930326993269,0.0 -46.7207441,-22.6930228993269,0.0 -46.7208364,-22.6928910993269,0.0 -46.7209286,-22.6927591993269,0.0 -46.720899,-22.6922522993269,0.0 -46.720689,-22.6920784993269,0.0 -46.7202175,-22.6919117993269,0.0 -46.719052,-22.6918599993269,0.0 -46.7185099,-22.6914439993269,0.0 -46.7181941,-22.6913174993269,0.0 -46.7171837,-22.6914468993269,0.0 -46.7167368,-22.6912568993269,0.0 -46.7167027,-22.6905415993269,0.0 -46.7168624,-22.690260599327,0.0 -46.7168745,-22.690239199327,0.0 -46.717421,-22.689277399327,0.0 -46.718287,-22.687753399327,0.0 -46.7189444,-22.6859612993271,0.0 -46.7191458,-22.6859111993271,0.0 -46.7193992,-22.6856702993271,0.0 -46.7198992,-22.6855572993271,0.0 -46.7207602,-22.6854175993271,0.0 -46.7212862,-22.6855849993271,0.0 -46.7214283,-22.6855500993271,0.0 -46.7217955,-22.6852766993271,0.0 -46.7225521,-22.6851940993271,0.0 -46.7232463,-22.6847630993271,0.0 -46.7235365,-22.6846728993271,0.0 -46.7240034,-22.6847433993271,0.0 -46.7255584,-22.6842299993271,0.0 -46.7268106,-22.6829387993271,0.0 -46.7276784,-22.6825962993271,0.0 -46.728049,-22.6822215993271,0.0 -46.7283314,-22.6816371993271,0.0 -46.7282043,-22.6807074993272,0.0 -46.727873,-22.6803226993272,0.0 -46.7272396,-22.6798836993272,0.0 -46.7267124,-22.6786925993272,0.0 -46.7262481,-22.6780044993272,0.0 -46.7260525,-22.6769522993273,0.0 -46.7258959,-22.6765995993273,0.0 -46.7252091,-22.6758268993273,0.0 -46.7242915,-22.6750886993273,0.0 -46.7240431,-22.6744076993273,0.0 -46.7239293,-22.6734857993273,0.0 -46.7255269,-22.6726617993274,0.0 -46.7264204,-22.6723285993274,0.0 -46.7271245,-22.6718556993274,0.0 -46.7274598,-22.6714299993274,0.0 -46.7279348,-22.6702059993274,0.0 -46.7278068,-22.6695151993274,0.0 -46.7271233,-22.6679632993275,0.0 -46.7268622,-22.6666764993275,0.0 -46.7268687,-22.6644768993275,0.0 -46.7270642,-22.6640412993276,0.0 -46.7271816,-22.6632599993276,0.0 -46.7271822,-22.6623485993276,0.0 -46.7269354,-22.6621327993276,0.0 -46.726396,-22.6619449993276,0.0 -46.7262416,-22.6617521993276,0.0 -46.726204,-22.6615241993276,0.0 -46.7263909,-22.6606993993276,0.0 -46.7266521,-22.6601993993276,0.0 -46.7267084,-22.6590453993277,0.0 -46.7265372,-22.6564849993277,0.0 -46.7267282,-22.6559305993277,0.0 -46.7276796,-22.6549444993278,0.0 -46.7260635,-22.6550188993278,0.0 -46.7236326,-22.6549908993278,0.0 -46.7221001,-22.6546101993278,0.0 -46.7216133,-22.6546043993278,0.0 -46.7208847,-22.6547307993278,0.0 -46.7200649,-22.6548729993278,0.0 -46.7199765,-22.6548801993278,0.0 -46.7188097,-22.6549751993278,0.0 -46.7176812,-22.6547540993278,0.0 -46.7175663,-22.6547315993278,0.0 -46.7171071,-22.6546414993278,0.0 -46.7161247,-22.6542180993278,0.0 -46.7157062,-22.6540376993278,0.0 -46.7147445,-22.6539511993278,0.0 -46.7146799,-22.6539701993278,0.0 -46.7146289,-22.6539850993278,0.0 -46.7145811,-22.6539991993278,0.0 -46.7142834,-22.6540865993278,0.0 -46.7138144,-22.6543885993278,0.0 -46.7133477,-22.6548855993278,0.0 -46.7133429,-22.6548999993278,0.0 -46.7123532,-22.6578584993277,0.0 -46.7120859,-22.6582683993277,0.0 -46.7118038,-22.6584827993277,0.0 -46.7105447,-22.6582525993277,0.0 -46.7101613,-22.6580251993277,0.0 -46.7096565,-22.6572588993277,0.0 -46.7094288,-22.6565652993277,0.0 -46.7094137,-22.6565193993277,0.0 -46.709404,-22.6564897993277,0.0 -46.7093471,-22.6563164993277,0.0 -46.7090701,-22.6560112993277,0.0 -46.7088859,-22.6559110993277,0.0 -46.7088505,-22.6558917993277,0.0 -46.7088209,-22.6558756993277,0.0 -46.7084421,-22.6556696993277,0.0 -46.7083751,-22.6556332993278,0.0 -46.7078999,-22.6552265993278,0.0 -46.7069391,-22.6548302993278,0.0 -46.7067585,-22.6544521993278,0.0 -46.7067359,-22.6544351993278,0.0 -46.7063547,-22.6541492993278,0.0 -46.7061414,-22.6537463993278,0.0 -46.7053003,-22.6532593993278,0.0 -46.7039865,-22.6534746993278,0.0 -46.7035109,-22.6536991993278,0.0 -46.7031506,-22.6536774993278,0.0 -46.7029707,-22.6535813993278,0.0 -46.702709,-22.6532862993278,0.0 -46.7026598,-22.6532307993278,0.0 -46.7011041,-22.6514766993278,0.0 -46.699965,-22.6508971993279,0.0 -46.6974479,-22.6503127993279,0.0 -46.6970862,-22.6499165993279,0.0 -46.6968397,-22.6491116993279,0.0 -46.6963418,-22.6485827993279,0.0 -46.6959611,-22.6484089993279,0.0 -46.6957151,-22.6482966993279,0.0 -46.6943182,-22.6481140993279,0.0 -46.6934958,-22.6482491993279,0.0 -46.6923451,-22.6486198993279,0.0 -46.6910743,-22.6491997993279,0.0 -46.6908081,-22.6492415993279,0.0 -46.690083,-22.6490650993279,0.0 -46.6896221,-22.6491779993279,0.0 -46.6886792,-22.6491415993279,0.0 -46.6878869,-22.6493507993279,0.0 -46.6876325,-22.6493355993279,0.0 -46.6870601,-22.6490717993279,0.0 -46.6855427,-22.6481176993279,0.0 -46.6851374,-22.6479906993279,0.0 -46.6836076,-22.6479634993279,0.0 -46.6823582,-22.6477747993279,0.0 -46.6813889,-22.6475206993279,0.0 -46.6799443,-22.646753999328,0.0 -46.6788403,-22.645682099328,0.0 -46.6786546,-22.645365799328,0.0 -46.6782681,-22.644356099328,0.0 -46.67797,-22.643187099328,0.0 -46.6779092,-22.6415510993281,0.0 -46.6778408,-22.6411170993281,0.0 -46.67759,-22.6406854993281,0.0 -46.6765467,-22.6394817993281,0.0 -46.6757441,-22.6388248993281,0.0 -46.6746811,-22.6381741993282,0.0 -46.673153,-22.6370758993282,0.0 -46.6725822,-22.6363281993282,0.0 -46.6725014,-22.6360467993282,0.0 -46.6724932,-22.6360180993282,0.0 -46.6724854,-22.6359909993282,0.0 -46.6722142,-22.6350454993282,0.0 -46.6720361,-22.6348784993282,0.0 -46.6715913,-22.6348726993282,0.0 -46.67131,-22.6350708993282,0.0 -46.6705653,-22.6362688993282,0.0 -46.669654,-22.6374664993282,0.0 -46.6693291,-22.6380972993282,0.0 -46.6692571,-22.6389549993281,0.0 -46.6690745,-22.6395661993281,0.0 -46.6688964,-22.6397088993281,0.0 -46.6682136,-22.6397233993281,0.0 -46.6687098,-22.6412904993281,0.0 -46.6686507,-22.6417223993281,0.0 -46.668037,-22.642945999328,0.0 -46.667786,-22.643742699328,0.0 -46.6672601,-22.644252099328,0.0 -46.6665776,-22.644374599328,0.0 -46.6661534,-22.644620999328,0.0 -46.6658255,-22.644943699328,0.0 -46.6653131,-22.645709599328,0.0 -46.6644908,-22.646389599328,0.0 -46.6638435,-22.646727299328,0.0 -46.6633168,-22.6473048993279,0.0 -46.6632021,-22.6476480993279,0.0 -46.6632343,-22.6481208993279,0.0 -46.6626285,-22.6492128993279,0.0 -46.6624358,-22.6497562993279,0.0 -46.6622819,-22.6508687993279,0.0 -46.6622384,-22.6521022993278,0.0 -46.662135,-22.6524323993278,0.0 -46.6619002,-22.6528332993278,0.0 -46.6618995,-22.6528344993278,0.0 -46.6607308,-22.6548293993278,0.0 -46.660503,-22.6557015993278,0.0 -46.660593,-22.6570065993277,0.0 -46.6604967,-22.6573146993277,0.0 -46.6604665,-22.6573694993277,0.0 -46.6592588,-22.6595513993277,0.0 -46.658477,-22.6625484993276,0.0 -46.6578211,-22.6641921993276,0.0 -46.6568025,-22.6653128993275,0.0 -46.6562846,-22.6656152993275,0.0 -46.6547176,-22.6660061993275,0.0 -46.6541119,-22.6660207993275,0.0 -46.6534365,-22.6658975993275,0.0 -46.6527778,-22.6655550993275,0.0 -46.6516647,-22.6646379993275,0.0 -46.6501105,-22.6622795993276,0.0 -46.6493344,-22.6600723993277,0.0 -46.6489497,-22.6584873993277,0.0 -46.6482557,-22.6569294993277,0.0 -46.6461146,-22.6541276993278,0.0 -46.6430172,-22.6516314993278,0.0 -46.6426137,-22.6515807993279,0.0 -46.6397537,-22.6524351993278,0.0 -46.6384383,-22.6526058993278,0.0 -46.6374985,-22.6526015993278,0.0 -46.635464,-22.6522483993278,0.0 -46.635015,-22.6522646993278,0.0 -46.6347683,-22.6523969993278,0.0 -46.6341247,-22.6531531993278,0.0 -46.6331952,-22.6539016993278,0.0 -46.6328706,-22.6543331993278,0.0 -46.6327872,-22.6544441993278,0.0 -46.6323574,-22.6552647993278,0.0 -46.6321703,-22.6554645993278,0.0 -46.6319692,-22.6555100993278,0.0 -46.630992,-22.6554205993278,0.0 -46.6303016,-22.6548898993278,0.0 -46.6296401,-22.6539474993278,0.0 -46.6290308,-22.6535749993278,0.0 -46.6292744,-22.6543365993278,0.0 -46.6298179,-22.6549718993278,0.0 -46.6294266,-22.6557099993278,0.0 -46.6286837,-22.6567191993277,0.0 -46.6274395,-22.6575214993277,0.0 -46.6259291,-22.6588906993277,0.0 -46.6264884,-22.6620987993276,0.0 -46.6265152,-22.6644287993275,0.0 -46.6266696,-22.6649269993275,0.0 -46.627985,-22.6663202993275,0.0 -46.6293837,-22.6671778993275,0.0 -46.6300691,-22.6677846993275,0.0 -46.6302139,-22.6682616993275,0.0 -46.6301457,-22.6685709993275,0.0 -46.6299678,-22.6689803993274,0.0 -46.6293431,-22.6695837993274,0.0 -46.6290991,-22.6702450993274,0.0 -46.6291258,-22.6706727993274,0.0 -46.6293264,-22.6711639993274,0.0 -46.6301975,-22.6719229993274,0.0 -46.6320483,-22.6745222993273,0.0 -46.6321245,-22.6751173993273,0.0 -46.6318446,-22.6758667993273,0.0 -46.6309596,-22.6765794993273,0.0 -46.6295886,-22.6773077993272,0.0 -46.6287779,-22.6776351993272,0.0 -46.627702,-22.6779127993272,0.0 -46.6260671,-22.6780946993272,0.0 -46.6249863,-22.6787526993272,0.0 -46.623562,-22.6797100993272,0.0 -46.6208408,-22.6820255993271,0.0 -46.62066,-22.6820899993271,0.0 -46.620163,-22.6820196993271,0.0 -46.6194239,-22.6818133993272,0.0 -46.6191401,-22.6818910993272,0.0 -46.6189498,-22.6823303993271,0.0 -46.6190213,-22.6824682993271,0.0 -46.6197943,-22.6828780993271,0.0 -46.6203642,-22.6834769993271,0.0 -46.6211582,-22.6855969993271,0.0 -46.6215463,-22.686189299327,0.0 -46.6236303,-22.688220399327,0.0 -46.6239957,-22.689070199327,0.0 -46.6239358,-22.689785699327,0.0 -46.6237132,-22.6903724993269,0.0 -46.6232507,-22.6910721993269,0.0 -46.6223196,-22.6920233993269,0.0 -46.6204709,-22.6929692993269,0.0 -46.6199936,-22.6933469993269,0.0 -46.6196684,-22.6938302993269,0.0 -46.6188164,-22.6964197993268,0.0 -46.6182208,-22.6977849993268,0.0 -46.6180601,-22.6985056993268,0.0 -46.6179639,-22.7000202993267,0.0 -46.6181143,-22.7010092993267,0.0 -46.6183733,-22.7016648993267,0.0 -46.6191311,-22.7026108993267,0.0 -46.6197788,-22.7038102993266,0.0 -46.620103,-22.7041788993266,0.0 -46.620636,-22.7045579993266,0.0 -46.6209614,-22.7050127993266,0.0 -46.6217418,-22.7066258993266,0.0 -46.6224502,-22.7074223993266,0.0 -46.6240334,-22.7087499993265,0.0 -46.6259789,-22.7110601993265,0.0 -46.6267788,-22.7126920993264,0.0 -46.627088,-22.7135205993264,0.0 -46.6274139,-22.7148704993264,0.0 -46.6275142,-22.7157772993264,0.0 -46.6274675,-22.7164816993263,0.0 -46.6271184,-22.7179865993263,0.0 -46.6267694,-22.7184939993263,0.0 -46.626006,-22.7192049993263,0.0 -46.6229923,-22.7216506993262,0.0 -46.622366,-22.7223311993262,0.0 -46.6218327,-22.7231421993262,0.0 -46.6211684,-22.7245313993262,0.0</coordinates>
</LinearRing>
</outerBoundaryIs>
</Polygon>
</MultiGeometry>
</Placemark>
</Folder>
</Document></kml>
