<?xml version='1.0' encoding='UTF-8'?>
<kml xmlns:xsd="http://www.w3.org/2001/XMLSchema" xmlns:gx="http://www.google.com/kml/ext/2.2" xmlns:atom="http://www.w3.org/2005/Atom" xmlns="http://www.opengis.net/kml/2.2">
<Document>
<name>sales_3544806_localidades_2022</name>
<visibility>1</visibility>
<Schema name="Localidades" id="kml_schema_ft_Localidades">
<SimpleField type="xsd:string" name="CD_UF">
<displayName>CD_UF</displayName>
</SimpleField>
<SimpleField type="xsd:string" name="NM_UF">
<displayName>NM_UF</displayName>
</SimpleField>
<SimpleField type="xsd:string" name="SIGLA_UF">
<displayName>SIGLA_UF</displayName>
</SimpleField>
<SimpleField type="xsd:string" name="CD_MUN">
<displayName>CD_MUN</displayName>
</SimpleField>
<SimpleField type="xsd:string" name="NM_MUN">
<displayName>NM_MUN</displayName>
</SimpleField>
<SimpleField type="xsd:string" name="CD_RGINT">
<displayName>CD_RGINT</displayName>
</SimpleField>
<SimpleField type="xsd:string" name="NM_RGINT">
<displayName>NM_RGINT</displayName>
</SimpleField>
<SimpleField type="xsd:string" name="CD_RGI">
<displayName>CD_RGI</displayName>
</SimpleField>
<SimpleField type="xsd:string" name="NM_RGI">
<displayName>NM_RGI</displayName>
</SimpleField>
<SimpleField type="xsd:string" name="CT_LOCALIDADE">
<displayName>CT_LOCALIDADE</displayName>
</SimpleField>
<SimpleField type="xsd:string" name="SCT_LOCALIDADE">
<displayName>SCT_LOCALIDADE</displayName>
</SimpleField>
<SimpleField type="xsd:string" name="CD_LOCALIDADE">
<displayName>CD_LOCALIDADE</displayName>
</SimpleField>
<SimpleField type="xsd:string" name="NM_LOCALIDADE">
<displayName>NM_LOCALIDADE</displayName>
</SimpleField>
</Schema>
<Schema name="Núcleos Urbanos" id="kml_schema_ft_Núcleos_Urbanos">
<SimpleField type="xsd:string" name="CD_UF">
<displayName>CD_UF</displayName>
</SimpleField>
<SimpleField type="xsd:string" name="NM_UF">
<displayName>NM_UF</displayName>
</SimpleField>
<SimpleField type="xsd:string" name="SIGLA_UF">
<displayName>SIGLA_UF</displayName>
</SimpleField>
<SimpleField type="xsd:string" name="CD_MUN">
<displayName>CD_MUN</displayName>
</SimpleField>
<SimpleField type="xsd:string" name="NM_MUN">
<displayName>NM_MUN</displayName>
</SimpleField>
<SimpleField type="xsd:string" name="CD_RGINT">
<displayName>CD_RGINT</displayName>
</SimpleField>
<SimpleField type="xsd:string" name="NM_RGINT">
<displayName>NM_RGINT</displayName>
</SimpleField>
<SimpleField type="xsd:string" name="CD_RGI">
<displayName>CD_RGI</displayName>
</SimpleField>
<SimpleField type="xsd:string" name="NM_RGI">
<displayName>NM_RGI</displayName>
</SimpleField>
<SimpleField type="xsd:string" name="CT_LOCALIDADE">
<displayName>CT_LOCALIDADE</displayName>
</SimpleField>
<SimpleField type="xsd:string" name="CD_LOCALIDADE">
<displayName>CD_LOCALIDADE</displayName>
</SimpleField>
<SimpleField type="xsd:string" name="NM_LOCALIDADE">
<displayName>NM_LOCALIDADE</displayName>
</SimpleField>
<SimpleField type="xsd:string" name="LAT_LOCALIDADE">
<displayName>LAT_LOCALIDADE</displayName>
</SimpleField>
<SimpleField type="xsd:string" name="LONG_LOCALIDADE">
<displayName>LONG_LOCALIDADE</displayName>
</SimpleField>
</Schema>
<Schema name="01. Cidade" id="kml_schema_ft_01._Cidade">
<SimpleField type="xsd:string" name="CD_UF">
<displayName>CD_UF</displayName>
</SimpleField>
<SimpleField type="xsd:string" name="NM_UF">
<displayName>NM_UF</displayName>
</SimpleField>
<SimpleField type="xsd:string" name="SIGLA_UF">
<displayName>SIGLA_UF</displayName>
</SimpleField>
<SimpleField type="xsd:string" name="CD_MUN">
<displayName>CD_MUN</displayName>
</SimpleField>
<SimpleField type="xsd:string" name="NM_MUN">
<displayName>NM_MUN</displayName>
</SimpleField>
<SimpleField type="xsd:string" name="CD_RGINT">
<displayName>CD_RGINT</displayName>
</SimpleField>
<SimpleField type="xsd:string" name="NM_RGINT">
<displayName>NM_RGINT</displayName>
</SimpleField>
<SimpleField type="xsd:string" name="CD_RGI">
<displayName>CD_RGI</displayName>
</SimpleField>
<SimpleField type="xsd:string" name="NM_RGI">
<displayName>NM_RGI</displayName>
</SimpleField>
<SimpleField type="xsd:string" name="CT_LOCALIDADE">
<displayName>CT_LOCALIDADE</displayName>
</SimpleField>
<SimpleField type="xsd:string" name="SCT_LOCALIDADE">
<displayName>SCT_LOCALIDADE</displayName>
</SimpleField>
<SimpleField type="xsd:string" name="CD_LOCALIDADE">
<displayName>CD_LOCALIDADE</displayName>
</SimpleField>
<SimpleField type="xsd:string" name="NM_LOCALIDADE">
<displayName>NM_LOCALIDADE</displayName>
</SimpleField>
<SimpleField type="xsd:string" name="LAT_LOCALIDADE">
<displayName>LAT_LOCALIDADE</displayName>
</SimpleField>
<SimpleField type="xsd:string" name="LONG_LOCALIDADE">
<displayName>LONG_LOCALIDADE</displayName>
</SimpleField>
</Schema>
<Schema name="Município" id="kml_schema_ft_Município">
<SimpleField type="xsd:string" name="CD_UF">
<displayName>CD_UF</displayName>
</SimpleField>
<SimpleField type="xsd:string" name="NM_UF">
<displayName>NM_UF</displayName>
</SimpleField>
<SimpleField type="xsd:string" name="CD_MUN">
<displayName>CD_MUN</displayName>
</SimpleField>
<SimpleField type="xsd:string" name="NM_MUN">
<displayName>NM_MUN</displayName>
</SimpleField>
<SimpleField type="xsd:string" name="CD_RGINT">
<displayName>CD_RGINT</displayName>
</SimpleField>
<SimpleField type="xsd:string" name="NM_RGINT">
<displayName>NM_RGINT</displayName>
</SimpleField>
<SimpleField type="xsd:string" name="CD_RGI">
<displayName>CD_RGI</displayName>
</SimpleField>
<SimpleField type="xsd:string" name="NM_RGI">
<displayName>NM_RGI</displayName>
</SimpleField>
</Schema>
<Folder id="01. Cidade">
<name>01. Cidade</name>
<Folder id="01.03. Sede Municipal">
<name>01.03. Sede Municipal</name>
<Placemark id="01.03. Sede Municipal">
<name>Sales [3544806]</name>
<visibility>1</visibility>
<snippet> </snippet>
<description>&lt;center&gt;&lt;table&gt;&lt;tr&gt;&lt;th colspan='2' align='center'&gt;&lt;em&gt;Atributos&lt;/em&gt;&lt;/th&gt;&lt;/tr&gt;&lt;tr bgcolor="#E3E3F3"&gt;
&lt;th&gt;CD_UF&lt;/th&gt;
&lt;td&gt;35&lt;/td&gt;
&lt;/tr&gt;&lt;tr bgcolor=""&gt;
&lt;th&gt;NM_UF&lt;/th&gt;
&lt;td&gt;São Paulo&lt;/td&gt;
&lt;/tr&gt;&lt;tr bgcolor="#E3E3F3"&gt;
&lt;th&gt;SIGLA_UF&lt;/th&gt;
&lt;td&gt;SP&lt;/td&gt;
&lt;/tr&gt;&lt;tr bgcolor=""&gt;
&lt;th&gt;CD_MUN&lt;/th&gt;
&lt;td&gt;3544806&lt;/td&gt;
&lt;/tr&gt;&lt;tr bgcolor="#E3E3F3"&gt;
&lt;th&gt;NM_MUN&lt;/th&gt;
&lt;td&gt;Sales&lt;/td&gt;
&lt;/tr&gt;&lt;tr bgcolor=""&gt;
&lt;th&gt;CD_RGINT&lt;/th&gt;
&lt;td&gt;3507&lt;/td&gt;
&lt;/tr&gt;&lt;tr bgcolor="#E3E3F3"&gt;
&lt;th&gt;NM_RGINT&lt;/th&gt;
&lt;td&gt;São José do Rio Preto&lt;/td&gt;
&lt;/tr&gt;&lt;tr bgcolor=""&gt;
&lt;th&gt;CD_RGI&lt;/th&gt;
&lt;td&gt;350025&lt;/td&gt;
&lt;/tr&gt;&lt;tr bgcolor="#E3E3F3"&gt;
&lt;th&gt;NM_RGI&lt;/th&gt;
&lt;td&gt;São José do Rio Preto&lt;/td&gt;
&lt;/tr&gt;&lt;tr bgcolor=""&gt;
&lt;th&gt;CT_LOCALIDADE&lt;/th&gt;
&lt;td&gt;Cidade&lt;/td&gt;
&lt;/tr&gt;&lt;tr bgcolor="#E3E3F3"&gt;
&lt;th&gt;SCT_LOCALIDADE&lt;/th&gt;
&lt;td&gt;Sede Municipal&lt;/td&gt;
&lt;/tr&gt;&lt;tr bgcolor=""&gt;
&lt;th&gt;CD_LOCALIDADE&lt;/th&gt;
&lt;td&gt;3544806&lt;/td&gt;
&lt;/tr&gt;&lt;tr bgcolor="#E3E3F3"&gt;
&lt;th&gt;NM_LOCALIDADE&lt;/th&gt;
&lt;td&gt;Sales&lt;/td&gt;
&lt;/tr&gt;&lt;tr bgcolor=""&gt;
&lt;th&gt;LAT_LOCALIDADE&lt;/th&gt;
&lt;td&gt;-21.3411&lt;/td&gt;
&lt;/tr&gt;&lt;tr bgcolor="#E3E3F3"&gt;
&lt;th&gt;LONG_LOCALIDADE&lt;/th&gt;
&lt;td&gt;-49.4986&lt;/td&gt;
&lt;/tr&gt;&lt;/table&gt;&lt;/center&gt;</description>
<Style>
<IconStyle>
<color>ff00aaff</color>
<scale>1.0</scale>
<Icon>
<href>http://maps.google.com/mapfiles/kml/shapes/placemark_circle.png</href>
</Icon>
</IconStyle>
<LabelStyle>
<scale>1.0</scale>
</LabelStyle>
<LineStyle>
<color>ffffffff</color>
<width>3</width>
<gx:labelVisibility>1</gx:labelVisibility>
</LineStyle>
<PolyStyle>
<color>00ffffff</color>
</PolyStyle>
</Style>
<ExtendedData>
<SchemaData schemaUrl="#kml_schema_ft_01._Cidade">
<SimpleData name="CD_UF">35</SimpleData>
<SimpleData name="NM_UF">São Paulo</SimpleData>
<SimpleData name="SIGLA_UF">SP</SimpleData>
<SimpleData name="CD_MUN">3544806</SimpleData>
<SimpleData name="NM_MUN">Sales</SimpleData>
<SimpleData name="CD_RGINT">3507</SimpleData>
<SimpleData name="NM_RGINT">São José do Rio Preto</SimpleData>
<SimpleData name="CD_RGI">350025</SimpleData>
<SimpleData name="NM_RGI">São José do Rio Preto</SimpleData>
<SimpleData name="CT_LOCALIDADE">Cidade</SimpleData>
<SimpleData name="SCT_LOCALIDADE">Sede Municipal</SimpleData>
<SimpleData name="CD_LOCALIDADE">3544806</SimpleData>
<SimpleData name="NM_LOCALIDADE">Sales</SimpleData>
<SimpleData name="LAT_LOCALIDADE">-21.3411</SimpleData>
<SimpleData name="LONG_LOCALIDADE">-49.4986</SimpleData>
</SchemaData>
</ExtendedData>
<Point>
<extrude>0</extrude>
<coordinates>-49.498572,-21.3411259993588,0.0</coordinates>
</Point>
</Placemark>
</Folder>
</Folder>
<Folder id="05. Núcleos Urbanos">
<name>05. Núcleos Urbanos</name>
<Placemark id="localidades">
<name>Jardim Beira Rio [3544806001]</name>
<visibility>1</visibility>
<snippet> </snippet>
<description>&lt;center&gt;&lt;table&gt;&lt;tr&gt;&lt;th colspan='2' align='center'&gt;&lt;em&gt;Attributes&lt;/em&gt;&lt;/th&gt;&lt;/tr&gt;&lt;tr bgcolor="#E3E3F3"&gt;
&lt;th&gt;CD_UF&lt;/th&gt;
&lt;td&gt;35&lt;/td&gt;
&lt;/tr&gt;&lt;tr bgcolor=""&gt;
&lt;th&gt;NM_UF&lt;/th&gt;
&lt;td&gt;São Paulo&lt;/td&gt;
&lt;/tr&gt;&lt;tr bgcolor="#E3E3F3"&gt;
&lt;th&gt;SIGLA_UF&lt;/th&gt;
&lt;td&gt;SP&lt;/td&gt;
&lt;/tr&gt;&lt;tr bgcolor=""&gt;
&lt;th&gt;CD_MUN&lt;/th&gt;
&lt;td&gt;3544806&lt;/td&gt;
&lt;/tr&gt;&lt;tr bgcolor="#E3E3F3"&gt;
&lt;th&gt;NM_MUN&lt;/th&gt;
&lt;td&gt;Sales&lt;/td&gt;
&lt;/tr&gt;&lt;tr bgcolor=""&gt;
&lt;th&gt;CD_RGINT&lt;/th&gt;
&lt;td&gt;3507&lt;/td&gt;
&lt;/tr&gt;&lt;tr bgcolor="#E3E3F3"&gt;
&lt;th&gt;NM_RGINT&lt;/th&gt;
&lt;td&gt;São José do Rio Preto&lt;/td&gt;
&lt;/tr&gt;&lt;tr bgcolor=""&gt;
&lt;th&gt;CD_RGI&lt;/th&gt;
&lt;td&gt;350025&lt;/td&gt;
&lt;/tr&gt;&lt;tr bgcolor="#E3E3F3"&gt;
&lt;th&gt;NM_RGI&lt;/th&gt;
&lt;td&gt;São José do Rio Preto&lt;/td&gt;
&lt;/tr&gt;&lt;tr bgcolor=""&gt;
&lt;th&gt;CT_LOCALIDADE&lt;/th&gt;
&lt;td&gt;Núcleo Urbano&lt;/td&gt;
&lt;/tr&gt;&lt;tr bgcolor="#E3E3F3"&gt;
&lt;th&gt;CD_LOCALIDADE&lt;/th&gt;
&lt;td&gt;3544806001&lt;/td&gt;
&lt;/tr&gt;&lt;tr bgcolor=""&gt;
&lt;th&gt;NM_LOCALIDADE&lt;/th&gt;
&lt;td&gt;Jardim Beira Rio&lt;/td&gt;
&lt;/tr&gt;&lt;tr bgcolor="#E3E3F3"&gt;
&lt;th&gt;LAT_LOCALIDADE&lt;/th&gt;
&lt;td&gt;-21.3619&lt;/td&gt;
&lt;/tr&gt;&lt;tr bgcolor=""&gt;
&lt;th&gt;LONG_LOCALIDADE&lt;/th&gt;
&lt;td&gt;-49.4799&lt;/td&gt;
&lt;/tr&gt;&lt;/table&gt;&lt;/center&gt;</description>
<Style>
<IconStyle>
<color>ff0000ff</color>
<scale>0.9</scale>
<Icon>
<href>http://maps.google.com/mapfiles/kml/shapes/placemark_circle.png</href>
</Icon>
</IconStyle>
<LabelStyle>
<scale>0.9</scale>
</LabelStyle>
<LineStyle>
<color>72ffffff</color>
<width>1.0</width>
<gx:labelVisibility>1</gx:labelVisibility>
</LineStyle>
<PolyStyle>
<color>66ff54ff</color>
</PolyStyle>
</Style>
<ExtendedData>
<SchemaData schemaUrl="#kml_schema_ft_Núcleos_Urbanos">
<SimpleData name="CD_UF">35</SimpleData>
<SimpleData name="NM_UF">São Paulo</SimpleData>
<SimpleData name="SIGLA_UF">SP</SimpleData>
<SimpleData name="CD_MUN">3544806</SimpleData>
<SimpleData name="NM_MUN">Sales</SimpleData>
<SimpleData name="CD_RGINT">3507</SimpleData>
<SimpleData name="NM_RGINT">São José do Rio Preto</SimpleData>
<SimpleData name="CD_RGI">350025</SimpleData>
<SimpleData name="NM_RGI">São José do Rio Preto</SimpleData>
<SimpleData name="CT_LOCALIDADE">Núcleo Urbano</SimpleData>
<SimpleData name="CD_LOCALIDADE">3544806001</SimpleData>
<SimpleData name="NM_LOCALIDADE">Jardim Beira Rio</SimpleData>
<SimpleData name="LAT_LOCALIDADE">-21.3619</SimpleData>
<SimpleData name="LONG_LOCALIDADE">-49.4799</SimpleData>
</SchemaData>
</ExtendedData>
<Point>
<extrude>0</extrude>
<coordinates>-49.4798946056911,-21.3619130298461,0.0</coordinates>
</Point>
</Placemark>
<Placemark id="localidades">
<name>Jardim Itália [3544806002]</name>
<visibility>1</visibility>
<snippet> </snippet>
<description>&lt;center&gt;&lt;table&gt;&lt;tr&gt;&lt;th colspan='2' align='center'&gt;&lt;em&gt;Attributes&lt;/em&gt;&lt;/th&gt;&lt;/tr&gt;&lt;tr bgcolor="#E3E3F3"&gt;
&lt;th&gt;CD_UF&lt;/th&gt;
&lt;td&gt;35&lt;/td&gt;
&lt;/tr&gt;&lt;tr bgcolor=""&gt;
&lt;th&gt;NM_UF&lt;/th&gt;
&lt;td&gt;São Paulo&lt;/td&gt;
&lt;/tr&gt;&lt;tr bgcolor="#E3E3F3"&gt;
&lt;th&gt;SIGLA_UF&lt;/th&gt;
&lt;td&gt;SP&lt;/td&gt;
&lt;/tr&gt;&lt;tr bgcolor=""&gt;
&lt;th&gt;CD_MUN&lt;/th&gt;
&lt;td&gt;3544806&lt;/td&gt;
&lt;/tr&gt;&lt;tr bgcolor="#E3E3F3"&gt;
&lt;th&gt;NM_MUN&lt;/th&gt;
&lt;td&gt;Sales&lt;/td&gt;
&lt;/tr&gt;&lt;tr bgcolor=""&gt;
&lt;th&gt;CD_RGINT&lt;/th&gt;
&lt;td&gt;3507&lt;/td&gt;
&lt;/tr&gt;&lt;tr bgcolor="#E3E3F3"&gt;
&lt;th&gt;NM_RGINT&lt;/th&gt;
&lt;td&gt;São José do Rio Preto&lt;/td&gt;
&lt;/tr&gt;&lt;tr bgcolor=""&gt;
&lt;th&gt;CD_RGI&lt;/th&gt;
&lt;td&gt;350025&lt;/td&gt;
&lt;/tr&gt;&lt;tr bgcolor="#E3E3F3"&gt;
&lt;th&gt;NM_RGI&lt;/th&gt;
&lt;td&gt;São José do Rio Preto&lt;/td&gt;
&lt;/tr&gt;&lt;tr bgcolor=""&gt;
&lt;th&gt;CT_LOCALIDADE&lt;/th&gt;
&lt;td&gt;Núcleo Urbano&lt;/td&gt;
&lt;/tr&gt;&lt;tr bgcolor="#E3E3F3"&gt;
&lt;th&gt;CD_LOCALIDADE&lt;/th&gt;
&lt;td&gt;3544806002&lt;/td&gt;
&lt;/tr&gt;&lt;tr bgcolor=""&gt;
&lt;th&gt;NM_LOCALIDADE&lt;/th&gt;
&lt;td&gt;Jardim Itália&lt;/td&gt;
&lt;/tr&gt;&lt;tr bgcolor="#E3E3F3"&gt;
&lt;th&gt;LAT_LOCALIDADE&lt;/th&gt;
&lt;td&gt;-21.3647&lt;/td&gt;
&lt;/tr&gt;&lt;tr bgcolor=""&gt;
&lt;th&gt;LONG_LOCALIDADE&lt;/th&gt;
&lt;td&gt;-49.4802&lt;/td&gt;
&lt;/tr&gt;&lt;/table&gt;&lt;/center&gt;</description>
<Style>
<IconStyle>
<color>ff0000ff</color>
<scale>0.9</scale>
<Icon>
<href>http://maps.google.com/mapfiles/kml/shapes/placemark_circle.png</href>
</Icon>
</IconStyle>
<LabelStyle>
<scale>0.9</scale>
</LabelStyle>
<LineStyle>
<color>72ffffff</color>
<width>1.0</width>
<gx:labelVisibility>1</gx:labelVisibility>
</LineStyle>
<PolyStyle>
<color>66ff54ff</color>
</PolyStyle>
</Style>
<ExtendedData>
<SchemaData schemaUrl="#kml_schema_ft_Núcleos_Urbanos">
<SimpleData name="CD_UF">35</SimpleData>
<SimpleData name="NM_UF">São Paulo</SimpleData>
<SimpleData name="SIGLA_UF">SP</SimpleData>
<SimpleData name="CD_MUN">3544806</SimpleData>
<SimpleData name="NM_MUN">Sales</SimpleData>
<SimpleData name="CD_RGINT">3507</SimpleData>
<SimpleData name="NM_RGINT">São José do Rio Preto</SimpleData>
<SimpleData name="CD_RGI">350025</SimpleData>
<SimpleData name="NM_RGI">São José do Rio Preto</SimpleData>
<SimpleData name="CT_LOCALIDADE">Núcleo Urbano</SimpleData>
<SimpleData name="CD_LOCALIDADE">3544806002</SimpleData>
<SimpleData name="NM_LOCALIDADE">Jardim Itália</SimpleData>
<SimpleData name="LAT_LOCALIDADE">-21.3647</SimpleData>
<SimpleData name="LONG_LOCALIDADE">-49.4802</SimpleData>
</SchemaData>
</ExtendedData>
<Point>
<extrude>0</extrude>
<coordinates>-49.4801928928571,-21.3646750513063,0.0</coordinates>
</Point>
</Placemark>
<Placemark id="localidades">
<name>Riviera Náutica [3544806003]</name>
<visibility>1</visibility>
<snippet> </snippet>
<description>&lt;center&gt;&lt;table&gt;&lt;tr&gt;&lt;th colspan='2' align='center'&gt;&lt;em&gt;Attributes&lt;/em&gt;&lt;/th&gt;&lt;/tr&gt;&lt;tr bgcolor="#E3E3F3"&gt;
&lt;th&gt;CD_UF&lt;/th&gt;
&lt;td&gt;35&lt;/td&gt;
&lt;/tr&gt;&lt;tr bgcolor=""&gt;
&lt;th&gt;NM_UF&lt;/th&gt;
&lt;td&gt;São Paulo&lt;/td&gt;
&lt;/tr&gt;&lt;tr bgcolor="#E3E3F3"&gt;
&lt;th&gt;SIGLA_UF&lt;/th&gt;
&lt;td&gt;SP&lt;/td&gt;
&lt;/tr&gt;&lt;tr bgcolor=""&gt;
&lt;th&gt;CD_MUN&lt;/th&gt;
&lt;td&gt;3544806&lt;/td&gt;
&lt;/tr&gt;&lt;tr bgcolor="#E3E3F3"&gt;
&lt;th&gt;NM_MUN&lt;/th&gt;
&lt;td&gt;Sales&lt;/td&gt;
&lt;/tr&gt;&lt;tr bgcolor=""&gt;
&lt;th&gt;CD_RGINT&lt;/th&gt;
&lt;td&gt;3507&lt;/td&gt;
&lt;/tr&gt;&lt;tr bgcolor="#E3E3F3"&gt;
&lt;th&gt;NM_RGINT&lt;/th&gt;
&lt;td&gt;São José do Rio Preto&lt;/td&gt;
&lt;/tr&gt;&lt;tr bgcolor=""&gt;
&lt;th&gt;CD_RGI&lt;/th&gt;
&lt;td&gt;350025&lt;/td&gt;
&lt;/tr&gt;&lt;tr bgcolor="#E3E3F3"&gt;
&lt;th&gt;NM_RGI&lt;/th&gt;
&lt;td&gt;São José do Rio Preto&lt;/td&gt;
&lt;/tr&gt;&lt;tr bgcolor=""&gt;
&lt;th&gt;CT_LOCALIDADE&lt;/th&gt;
&lt;td&gt;Núcleo Urbano&lt;/td&gt;
&lt;/tr&gt;&lt;tr bgcolor="#E3E3F3"&gt;
&lt;th&gt;CD_LOCALIDADE&lt;/th&gt;
&lt;td&gt;3544806003&lt;/td&gt;
&lt;/tr&gt;&lt;tr bgcolor=""&gt;
&lt;th&gt;NM_LOCALIDADE&lt;/th&gt;
&lt;td&gt;Riviera Náutica&lt;/td&gt;
&lt;/tr&gt;&lt;tr bgcolor="#E3E3F3"&gt;
&lt;th&gt;LAT_LOCALIDADE&lt;/th&gt;
&lt;td&gt;-21.3895&lt;/td&gt;
&lt;/tr&gt;&lt;tr bgcolor=""&gt;
&lt;th&gt;LONG_LOCALIDADE&lt;/th&gt;
&lt;td&gt;-49.5127&lt;/td&gt;
&lt;/tr&gt;&lt;/table&gt;&lt;/center&gt;</description>
<Style>
<IconStyle>
<color>ff0000ff</color>
<scale>0.9</scale>
<Icon>
<href>http://maps.google.com/mapfiles/kml/shapes/placemark_circle.png</href>
</Icon>
</IconStyle>
<LabelStyle>
<scale>0.9</scale>
</LabelStyle>
<LineStyle>
<color>72ffffff</color>
<width>1.0</width>
<gx:labelVisibility>1</gx:labelVisibility>
</LineStyle>
<PolyStyle>
<color>66ff54ff</color>
</PolyStyle>
</Style>
<ExtendedData>
<SchemaData schemaUrl="#kml_schema_ft_Núcleos_Urbanos">
<SimpleData name="CD_UF">35</SimpleData>
<SimpleData name="NM_UF">São Paulo</SimpleData>
<SimpleData name="SIGLA_UF">SP</SimpleData>
<SimpleData name="CD_MUN">3544806</SimpleData>
<SimpleData name="NM_MUN">Sales</SimpleData>
<SimpleData name="CD_RGINT">3507</SimpleData>
<SimpleData name="NM_RGINT">São José do Rio Preto</SimpleData>
<SimpleData name="CD_RGI">350025</SimpleData>
<SimpleData name="NM_RGI">São José do Rio Preto</SimpleData>
<SimpleData name="CT_LOCALIDADE">Núcleo Urbano</SimpleData>
<SimpleData name="CD_LOCALIDADE">3544806003</SimpleData>
<SimpleData name="NM_LOCALIDADE">Riviera Náutica</SimpleData>
<SimpleData name="LAT_LOCALIDADE">-21.3895</SimpleData>
<SimpleData name="LONG_LOCALIDADE">-49.5127</SimpleData>
</SchemaData>
</ExtendedData>
<Point>
<extrude>0</extrude>
<coordinates>-49.5127111878668,-21.3894655629584,0.0</coordinates>
</Point>
</Placemark>
<Placemark id="localidades">
<name>Chácara Lopes [3544806004]</name>
<visibility>1</visibility>
<snippet> </snippet>
<description>&lt;center&gt;&lt;table&gt;&lt;tr&gt;&lt;th colspan='2' align='center'&gt;&lt;em&gt;Attributes&lt;/em&gt;&lt;/th&gt;&lt;/tr&gt;&lt;tr bgcolor="#E3E3F3"&gt;
&lt;th&gt;CD_UF&lt;/th&gt;
&lt;td&gt;35&lt;/td&gt;
&lt;/tr&gt;&lt;tr bgcolor=""&gt;
&lt;th&gt;NM_UF&lt;/th&gt;
&lt;td&gt;São Paulo&lt;/td&gt;
&lt;/tr&gt;&lt;tr bgcolor="#E3E3F3"&gt;
&lt;th&gt;SIGLA_UF&lt;/th&gt;
&lt;td&gt;SP&lt;/td&gt;
&lt;/tr&gt;&lt;tr bgcolor=""&gt;
&lt;th&gt;CD_MUN&lt;/th&gt;
&lt;td&gt;3544806&lt;/td&gt;
&lt;/tr&gt;&lt;tr bgcolor="#E3E3F3"&gt;
&lt;th&gt;NM_MUN&lt;/th&gt;
&lt;td&gt;Sales&lt;/td&gt;
&lt;/tr&gt;&lt;tr bgcolor=""&gt;
&lt;th&gt;CD_RGINT&lt;/th&gt;
&lt;td&gt;3507&lt;/td&gt;
&lt;/tr&gt;&lt;tr bgcolor="#E3E3F3"&gt;
&lt;th&gt;NM_RGINT&lt;/th&gt;
&lt;td&gt;São José do Rio Preto&lt;/td&gt;
&lt;/tr&gt;&lt;tr bgcolor=""&gt;
&lt;th&gt;CD_RGI&lt;/th&gt;
&lt;td&gt;350025&lt;/td&gt;
&lt;/tr&gt;&lt;tr bgcolor="#E3E3F3"&gt;
&lt;th&gt;NM_RGI&lt;/th&gt;
&lt;td&gt;São José do Rio Preto&lt;/td&gt;
&lt;/tr&gt;&lt;tr bgcolor=""&gt;
&lt;th&gt;CT_LOCALIDADE&lt;/th&gt;
&lt;td&gt;Núcleo Urbano&lt;/td&gt;
&lt;/tr&gt;&lt;tr bgcolor="#E3E3F3"&gt;
&lt;th&gt;CD_LOCALIDADE&lt;/th&gt;
&lt;td&gt;3544806004&lt;/td&gt;
&lt;/tr&gt;&lt;tr bgcolor=""&gt;
&lt;th&gt;NM_LOCALIDADE&lt;/th&gt;
&lt;td&gt;Chácara Lopes&lt;/td&gt;
&lt;/tr&gt;&lt;tr bgcolor="#E3E3F3"&gt;
&lt;th&gt;LAT_LOCALIDADE&lt;/th&gt;
&lt;td&gt;-21.3748&lt;/td&gt;
&lt;/tr&gt;&lt;tr bgcolor=""&gt;
&lt;th&gt;LONG_LOCALIDADE&lt;/th&gt;
&lt;td&gt;-49.5136&lt;/td&gt;
&lt;/tr&gt;&lt;/table&gt;&lt;/center&gt;</description>
<Style>
<IconStyle>
<color>ff0000ff</color>
<scale>0.9</scale>
<Icon>
<href>http://maps.google.com/mapfiles/kml/shapes/placemark_circle.png</href>
</Icon>
</IconStyle>
<LabelStyle>
<scale>0.9</scale>
</LabelStyle>
<LineStyle>
<color>72ffffff</color>
<width>1.0</width>
<gx:labelVisibility>1</gx:labelVisibility>
</LineStyle>
<PolyStyle>
<color>66ff54ff</color>
</PolyStyle>
</Style>
<ExtendedData>
<SchemaData schemaUrl="#kml_schema_ft_Núcleos_Urbanos">
<SimpleData name="CD_UF">35</SimpleData>
<SimpleData name="NM_UF">São Paulo</SimpleData>
<SimpleData name="SIGLA_UF">SP</SimpleData>
<SimpleData name="CD_MUN">3544806</SimpleData>
<SimpleData name="NM_MUN">Sales</SimpleData>
<SimpleData name="CD_RGINT">3507</SimpleData>
<SimpleData name="NM_RGINT">São José do Rio Preto</SimpleData>
<SimpleData name="CD_RGI">350025</SimpleData>
<SimpleData name="NM_RGI">São José do Rio Preto</SimpleData>
<SimpleData name="CT_LOCALIDADE">Núcleo Urbano</SimpleData>
<SimpleData name="CD_LOCALIDADE">3544806004</SimpleData>
<SimpleData name="NM_LOCALIDADE">Chácara Lopes</SimpleData>
<SimpleData name="LAT_LOCALIDADE">-21.3748</SimpleData>
<SimpleData name="LONG_LOCALIDADE">-49.5136</SimpleData>
</SchemaData>
</ExtendedData>
<Point>
<extrude>0</extrude>
<coordinates>-49.5136268333333,-21.3748038326913,0.0</coordinates>
</Point>
</Placemark>
<Placemark id="localidades">
<name>Praias Richelieu [3544806005]</name>
<visibility>1</visibility>
<snippet> </snippet>
<description>&lt;center&gt;&lt;table&gt;&lt;tr&gt;&lt;th colspan='2' align='center'&gt;&lt;em&gt;Attributes&lt;/em&gt;&lt;/th&gt;&lt;/tr&gt;&lt;tr bgcolor="#E3E3F3"&gt;
&lt;th&gt;CD_UF&lt;/th&gt;
&lt;td&gt;35&lt;/td&gt;
&lt;/tr&gt;&lt;tr bgcolor=""&gt;
&lt;th&gt;NM_UF&lt;/th&gt;
&lt;td&gt;São Paulo&lt;/td&gt;
&lt;/tr&gt;&lt;tr bgcolor="#E3E3F3"&gt;
&lt;th&gt;SIGLA_UF&lt;/th&gt;
&lt;td&gt;SP&lt;/td&gt;
&lt;/tr&gt;&lt;tr bgcolor=""&gt;
&lt;th&gt;CD_MUN&lt;/th&gt;
&lt;td&gt;3544806&lt;/td&gt;
&lt;/tr&gt;&lt;tr bgcolor="#E3E3F3"&gt;
&lt;th&gt;NM_MUN&lt;/th&gt;
&lt;td&gt;Sales&lt;/td&gt;
&lt;/tr&gt;&lt;tr bgcolor=""&gt;
&lt;th&gt;CD_RGINT&lt;/th&gt;
&lt;td&gt;3507&lt;/td&gt;
&lt;/tr&gt;&lt;tr bgcolor="#E3E3F3"&gt;
&lt;th&gt;NM_RGINT&lt;/th&gt;
&lt;td&gt;São José do Rio Preto&lt;/td&gt;
&lt;/tr&gt;&lt;tr bgcolor=""&gt;
&lt;th&gt;CD_RGI&lt;/th&gt;
&lt;td&gt;350025&lt;/td&gt;
&lt;/tr&gt;&lt;tr bgcolor="#E3E3F3"&gt;
&lt;th&gt;NM_RGI&lt;/th&gt;
&lt;td&gt;São José do Rio Preto&lt;/td&gt;
&lt;/tr&gt;&lt;tr bgcolor=""&gt;
&lt;th&gt;CT_LOCALIDADE&lt;/th&gt;
&lt;td&gt;Núcleo Urbano&lt;/td&gt;
&lt;/tr&gt;&lt;tr bgcolor="#E3E3F3"&gt;
&lt;th&gt;CD_LOCALIDADE&lt;/th&gt;
&lt;td&gt;3544806005&lt;/td&gt;
&lt;/tr&gt;&lt;tr bgcolor=""&gt;
&lt;th&gt;NM_LOCALIDADE&lt;/th&gt;
&lt;td&gt;Praias Richelieu&lt;/td&gt;
&lt;/tr&gt;&lt;tr bgcolor="#E3E3F3"&gt;
&lt;th&gt;LAT_LOCALIDADE&lt;/th&gt;
&lt;td&gt;-21.3766&lt;/td&gt;
&lt;/tr&gt;&lt;tr bgcolor=""&gt;
&lt;th&gt;LONG_LOCALIDADE&lt;/th&gt;
&lt;td&gt;-49.5581&lt;/td&gt;
&lt;/tr&gt;&lt;/table&gt;&lt;/center&gt;</description>
<Style>
<IconStyle>
<color>ff0000ff</color>
<scale>0.9</scale>
<Icon>
<href>http://maps.google.com/mapfiles/kml/shapes/placemark_circle.png</href>
</Icon>
</IconStyle>
<LabelStyle>
<scale>0.9</scale>
</LabelStyle>
<LineStyle>
<color>72ffffff</color>
<width>1.0</width>
<gx:labelVisibility>1</gx:labelVisibility>
</LineStyle>
<PolyStyle>
<color>66ff54ff</color>
</PolyStyle>
</Style>
<ExtendedData>
<SchemaData schemaUrl="#kml_schema_ft_Núcleos_Urbanos">
<SimpleData name="CD_UF">35</SimpleData>
<SimpleData name="NM_UF">São Paulo</SimpleData>
<SimpleData name="SIGLA_UF">SP</SimpleData>
<SimpleData name="CD_MUN">3544806</SimpleData>
<SimpleData name="NM_MUN">Sales</SimpleData>
<SimpleData name="CD_RGINT">3507</SimpleData>
<SimpleData name="NM_RGINT">São José do Rio Preto</SimpleData>
<SimpleData name="CD_RGI">350025</SimpleData>
<SimpleData name="NM_RGI">São José do Rio Preto</SimpleData>
<SimpleData name="CT_LOCALIDADE">Núcleo Urbano</SimpleData>
<SimpleData name="CD_LOCALIDADE">3544806005</SimpleData>
<SimpleData name="NM_LOCALIDADE">Praias Richelieu</SimpleData>
<SimpleData name="LAT_LOCALIDADE">-21.3766</SimpleData>
<SimpleData name="LONG_LOCALIDADE">-49.5581</SimpleData>
</SchemaData>
</ExtendedData>
<Point>
<extrude>0</extrude>
<coordinates>-49.5581149705882,-21.3765768204364,0.0</coordinates>
</Point>
</Placemark>
<Placemark id="localidades">
<name>Residencial Morumbi [3544806006]</name>
<visibility>1</visibility>
<snippet> </snippet>
<description>&lt;center&gt;&lt;table&gt;&lt;tr&gt;&lt;th colspan='2' align='center'&gt;&lt;em&gt;Attributes&lt;/em&gt;&lt;/th&gt;&lt;/tr&gt;&lt;tr bgcolor="#E3E3F3"&gt;
&lt;th&gt;CD_UF&lt;/th&gt;
&lt;td&gt;35&lt;/td&gt;
&lt;/tr&gt;&lt;tr bgcolor=""&gt;
&lt;th&gt;NM_UF&lt;/th&gt;
&lt;td&gt;São Paulo&lt;/td&gt;
&lt;/tr&gt;&lt;tr bgcolor="#E3E3F3"&gt;
&lt;th&gt;SIGLA_UF&lt;/th&gt;
&lt;td&gt;SP&lt;/td&gt;
&lt;/tr&gt;&lt;tr bgcolor=""&gt;
&lt;th&gt;CD_MUN&lt;/th&gt;
&lt;td&gt;3544806&lt;/td&gt;
&lt;/tr&gt;&lt;tr bgcolor="#E3E3F3"&gt;
&lt;th&gt;NM_MUN&lt;/th&gt;
&lt;td&gt;Sales&lt;/td&gt;
&lt;/tr&gt;&lt;tr bgcolor=""&gt;
&lt;th&gt;CD_RGINT&lt;/th&gt;
&lt;td&gt;3507&lt;/td&gt;
&lt;/tr&gt;&lt;tr bgcolor="#E3E3F3"&gt;
&lt;th&gt;NM_RGINT&lt;/th&gt;
&lt;td&gt;São José do Rio Preto&lt;/td&gt;
&lt;/tr&gt;&lt;tr bgcolor=""&gt;
&lt;th&gt;CD_RGI&lt;/th&gt;
&lt;td&gt;350025&lt;/td&gt;
&lt;/tr&gt;&lt;tr bgcolor="#E3E3F3"&gt;
&lt;th&gt;NM_RGI&lt;/th&gt;
&lt;td&gt;São José do Rio Preto&lt;/td&gt;
&lt;/tr&gt;&lt;tr bgcolor=""&gt;
&lt;th&gt;CT_LOCALIDADE&lt;/th&gt;
&lt;td&gt;Núcleo Urbano&lt;/td&gt;
&lt;/tr&gt;&lt;tr bgcolor="#E3E3F3"&gt;
&lt;th&gt;CD_LOCALIDADE&lt;/th&gt;
&lt;td&gt;3544806006&lt;/td&gt;
&lt;/tr&gt;&lt;tr bgcolor=""&gt;
&lt;th&gt;NM_LOCALIDADE&lt;/th&gt;
&lt;td&gt;Residencial Morumbi&lt;/td&gt;
&lt;/tr&gt;&lt;tr bgcolor="#E3E3F3"&gt;
&lt;th&gt;LAT_LOCALIDADE&lt;/th&gt;
&lt;td&gt;-21.2471&lt;/td&gt;
&lt;/tr&gt;&lt;tr bgcolor=""&gt;
&lt;th&gt;LONG_LOCALIDADE&lt;/th&gt;
&lt;td&gt;-49.5243&lt;/td&gt;
&lt;/tr&gt;&lt;/table&gt;&lt;/center&gt;</description>
<Style>
<IconStyle>
<color>ff0000ff</color>
<scale>0.9</scale>
<Icon>
<href>http://maps.google.com/mapfiles/kml/shapes/placemark_circle.png</href>
</Icon>
</IconStyle>
<LabelStyle>
<scale>0.9</scale>
</LabelStyle>
<LineStyle>
<color>72ffffff</color>
<width>1.0</width>
<gx:labelVisibility>1</gx:labelVisibility>
</LineStyle>
<PolyStyle>
<color>66ff54ff</color>
</PolyStyle>
</Style>
<ExtendedData>
<SchemaData schemaUrl="#kml_schema_ft_Núcleos_Urbanos">
<SimpleData name="CD_UF">35</SimpleData>
<SimpleData name="NM_UF">São Paulo</SimpleData>
<SimpleData name="SIGLA_UF">SP</SimpleData>
<SimpleData name="CD_MUN">3544806</SimpleData>
<SimpleData name="NM_MUN">Sales</SimpleData>
<SimpleData name="CD_RGINT">3507</SimpleData>
<SimpleData name="NM_RGINT">São José do Rio Preto</SimpleData>
<SimpleData name="CD_RGI">350025</SimpleData>
<SimpleData name="NM_RGI">São José do Rio Preto</SimpleData>
<SimpleData name="CT_LOCALIDADE">Núcleo Urbano</SimpleData>
<SimpleData name="CD_LOCALIDADE">3544806006</SimpleData>
<SimpleData name="NM_LOCALIDADE">Residencial Morumbi</SimpleData>
<SimpleData name="LAT_LOCALIDADE">-21.2471</SimpleData>
<SimpleData name="LONG_LOCALIDADE">-49.5243</SimpleData>
</SchemaData>
</ExtendedData>
<Point>
<extrude>0</extrude>
<coordinates>-49.5242751446281,-21.247109784485,0.0</coordinates>
</Point>
</Placemark>
<Placemark id="localidades">
<name>Recreativo Barra Mansa [3544806007]</name>
<visibility>1</visibility>
<snippet> </snippet>
<description>&lt;center&gt;&lt;table&gt;&lt;tr&gt;&lt;th colspan='2' align='center'&gt;&lt;em&gt;Attributes&lt;/em&gt;&lt;/th&gt;&lt;/tr&gt;&lt;tr bgcolor="#E3E3F3"&gt;
&lt;th&gt;CD_UF&lt;/th&gt;
&lt;td&gt;35&lt;/td&gt;
&lt;/tr&gt;&lt;tr bgcolor=""&gt;
&lt;th&gt;NM_UF&lt;/th&gt;
&lt;td&gt;São Paulo&lt;/td&gt;
&lt;/tr&gt;&lt;tr bgcolor="#E3E3F3"&gt;
&lt;th&gt;SIGLA_UF&lt;/th&gt;
&lt;td&gt;SP&lt;/td&gt;
&lt;/tr&gt;&lt;tr bgcolor=""&gt;
&lt;th&gt;CD_MUN&lt;/th&gt;
&lt;td&gt;3544806&lt;/td&gt;
&lt;/tr&gt;&lt;tr bgcolor="#E3E3F3"&gt;
&lt;th&gt;NM_MUN&lt;/th&gt;
&lt;td&gt;Sales&lt;/td&gt;
&lt;/tr&gt;&lt;tr bgcolor=""&gt;
&lt;th&gt;CD_RGINT&lt;/th&gt;
&lt;td&gt;3507&lt;/td&gt;
&lt;/tr&gt;&lt;tr bgcolor="#E3E3F3"&gt;
&lt;th&gt;NM_RGINT&lt;/th&gt;
&lt;td&gt;São José do Rio Preto&lt;/td&gt;
&lt;/tr&gt;&lt;tr bgcolor=""&gt;
&lt;th&gt;CD_RGI&lt;/th&gt;
&lt;td&gt;350025&lt;/td&gt;
&lt;/tr&gt;&lt;tr bgcolor="#E3E3F3"&gt;
&lt;th&gt;NM_RGI&lt;/th&gt;
&lt;td&gt;São José do Rio Preto&lt;/td&gt;
&lt;/tr&gt;&lt;tr bgcolor=""&gt;
&lt;th&gt;CT_LOCALIDADE&lt;/th&gt;
&lt;td&gt;Núcleo Urbano&lt;/td&gt;
&lt;/tr&gt;&lt;tr bgcolor="#E3E3F3"&gt;
&lt;th&gt;CD_LOCALIDADE&lt;/th&gt;
&lt;td&gt;3544806007&lt;/td&gt;
&lt;/tr&gt;&lt;tr bgcolor=""&gt;
&lt;th&gt;NM_LOCALIDADE&lt;/th&gt;
&lt;td&gt;Recreativo Barra Mansa&lt;/td&gt;
&lt;/tr&gt;&lt;tr bgcolor="#E3E3F3"&gt;
&lt;th&gt;LAT_LOCALIDADE&lt;/th&gt;
&lt;td&gt;-21.235&lt;/td&gt;
&lt;/tr&gt;&lt;tr bgcolor=""&gt;
&lt;th&gt;LONG_LOCALIDADE&lt;/th&gt;
&lt;td&gt;-49.5224&lt;/td&gt;
&lt;/tr&gt;&lt;/table&gt;&lt;/center&gt;</description>
<Style>
<IconStyle>
<color>ff0000ff</color>
<scale>0.9</scale>
<Icon>
<href>http://maps.google.com/mapfiles/kml/shapes/placemark_circle.png</href>
</Icon>
</IconStyle>
<LabelStyle>
<scale>0.9</scale>
</LabelStyle>
<LineStyle>
<color>72ffffff</color>
<width>1.0</width>
<gx:labelVisibility>1</gx:labelVisibility>
</LineStyle>
<PolyStyle>
<color>66ff54ff</color>
</PolyStyle>
</Style>
<ExtendedData>
<SchemaData schemaUrl="#kml_schema_ft_Núcleos_Urbanos">
<SimpleData name="CD_UF">35</SimpleData>
<SimpleData name="NM_UF">São Paulo</SimpleData>
<SimpleData name="SIGLA_UF">SP</SimpleData>
<SimpleData name="CD_MUN">3544806</SimpleData>
<SimpleData name="NM_MUN">Sales</SimpleData>
<SimpleData name="CD_RGINT">3507</SimpleData>
<SimpleData name="NM_RGINT">São José do Rio Preto</SimpleData>
<SimpleData name="CD_RGI">350025</SimpleData>
<SimpleData name="NM_RGI">São José do Rio Preto</SimpleData>
<SimpleData name="CT_LOCALIDADE">Núcleo Urbano</SimpleData>
<SimpleData name="CD_LOCALIDADE">3544806007</SimpleData>
<SimpleData name="NM_LOCALIDADE">Recreativo Barra Mansa</SimpleData>
<SimpleData name="LAT_LOCALIDADE">-21.235</SimpleData>
<SimpleData name="LONG_LOCALIDADE">-49.5224</SimpleData>
</SchemaData>
</ExtendedData>
<Point>
<extrude>0</extrude>
<coordinates>-49.52239679375,-21.2350155118614,0.0</coordinates>
</Point>
</Placemark>
<Placemark id="localidades">
<name>Condomínio Lago Azul [3544806008]</name>
<visibility>1</visibility>
<snippet> </snippet>
<description>&lt;center&gt;&lt;table&gt;&lt;tr&gt;&lt;th colspan='2' align='center'&gt;&lt;em&gt;Attributes&lt;/em&gt;&lt;/th&gt;&lt;/tr&gt;&lt;tr bgcolor="#E3E3F3"&gt;
&lt;th&gt;CD_UF&lt;/th&gt;
&lt;td&gt;35&lt;/td&gt;
&lt;/tr&gt;&lt;tr bgcolor=""&gt;
&lt;th&gt;NM_UF&lt;/th&gt;
&lt;td&gt;São Paulo&lt;/td&gt;
&lt;/tr&gt;&lt;tr bgcolor="#E3E3F3"&gt;
&lt;th&gt;SIGLA_UF&lt;/th&gt;
&lt;td&gt;SP&lt;/td&gt;
&lt;/tr&gt;&lt;tr bgcolor=""&gt;
&lt;th&gt;CD_MUN&lt;/th&gt;
&lt;td&gt;3544806&lt;/td&gt;
&lt;/tr&gt;&lt;tr bgcolor="#E3E3F3"&gt;
&lt;th&gt;NM_MUN&lt;/th&gt;
&lt;td&gt;Sales&lt;/td&gt;
&lt;/tr&gt;&lt;tr bgcolor=""&gt;
&lt;th&gt;CD_RGINT&lt;/th&gt;
&lt;td&gt;3507&lt;/td&gt;
&lt;/tr&gt;&lt;tr bgcolor="#E3E3F3"&gt;
&lt;th&gt;NM_RGINT&lt;/th&gt;
&lt;td&gt;São José do Rio Preto&lt;/td&gt;
&lt;/tr&gt;&lt;tr bgcolor=""&gt;
&lt;th&gt;CD_RGI&lt;/th&gt;
&lt;td&gt;350025&lt;/td&gt;
&lt;/tr&gt;&lt;tr bgcolor="#E3E3F3"&gt;
&lt;th&gt;NM_RGI&lt;/th&gt;
&lt;td&gt;São José do Rio Preto&lt;/td&gt;
&lt;/tr&gt;&lt;tr bgcolor=""&gt;
&lt;th&gt;CT_LOCALIDADE&lt;/th&gt;
&lt;td&gt;Núcleo Urbano&lt;/td&gt;
&lt;/tr&gt;&lt;tr bgcolor="#E3E3F3"&gt;
&lt;th&gt;CD_LOCALIDADE&lt;/th&gt;
&lt;td&gt;3544806008&lt;/td&gt;
&lt;/tr&gt;&lt;tr bgcolor=""&gt;
&lt;th&gt;NM_LOCALIDADE&lt;/th&gt;
&lt;td&gt;Condomínio Lago Azul&lt;/td&gt;
&lt;/tr&gt;&lt;tr bgcolor="#E3E3F3"&gt;
&lt;th&gt;LAT_LOCALIDADE&lt;/th&gt;
&lt;td&gt;-21.3476&lt;/td&gt;
&lt;/tr&gt;&lt;tr bgcolor=""&gt;
&lt;th&gt;LONG_LOCALIDADE&lt;/th&gt;
&lt;td&gt;-49.4785&lt;/td&gt;
&lt;/tr&gt;&lt;/table&gt;&lt;/center&gt;</description>
<Style>
<IconStyle>
<color>ff0000ff</color>
<scale>0.9</scale>
<Icon>
<href>http://maps.google.com/mapfiles/kml/shapes/placemark_circle.png</href>
</Icon>
</IconStyle>
<LabelStyle>
<scale>0.9</scale>
</LabelStyle>
<LineStyle>
<color>72ffffff</color>
<width>1.0</width>
<gx:labelVisibility>1</gx:labelVisibility>
</LineStyle>
<PolyStyle>
<color>66ff54ff</color>
</PolyStyle>
</Style>
<ExtendedData>
<SchemaData schemaUrl="#kml_schema_ft_Núcleos_Urbanos">
<SimpleData name="CD_UF">35</SimpleData>
<SimpleData name="NM_UF">São Paulo</SimpleData>
<SimpleData name="SIGLA_UF">SP</SimpleData>
<SimpleData name="CD_MUN">3544806</SimpleData>
<SimpleData name="NM_MUN">Sales</SimpleData>
<SimpleData name="CD_RGINT">3507</SimpleData>
<SimpleData name="NM_RGINT">São José do Rio Preto</SimpleData>
<SimpleData name="CD_RGI">350025</SimpleData>
<SimpleData name="NM_RGI">São José do Rio Preto</SimpleData>
<SimpleData name="CT_LOCALIDADE">Núcleo Urbano</SimpleData>
<SimpleData name="CD_LOCALIDADE">3544806008</SimpleData>
<SimpleData name="NM_LOCALIDADE">Condomínio Lago Azul</SimpleData>
<SimpleData name="LAT_LOCALIDADE">-21.3476</SimpleData>
<SimpleData name="LONG_LOCALIDADE">-49.4785</SimpleData>
</SchemaData>
</ExtendedData>
<Point>
<extrude>0</extrude>
<coordinates>-49.4785261874999,-21.3475926556086,0.0</coordinates>
</Point>
</Placemark>
<Placemark id="localidades">
<name>Praia do Torres e Jardim Areira [3544806009]</name>
<visibility>1</visibility>
<snippet> </snippet>
<description>&lt;center&gt;&lt;table&gt;&lt;tr&gt;&lt;th colspan='2' align='center'&gt;&lt;em&gt;Attributes&lt;/em&gt;&lt;/th&gt;&lt;/tr&gt;&lt;tr bgcolor="#E3E3F3"&gt;
&lt;th&gt;CD_UF&lt;/th&gt;
&lt;td&gt;35&lt;/td&gt;
&lt;/tr&gt;&lt;tr bgcolor=""&gt;
&lt;th&gt;NM_UF&lt;/th&gt;
&lt;td&gt;São Paulo&lt;/td&gt;
&lt;/tr&gt;&lt;tr bgcolor="#E3E3F3"&gt;
&lt;th&gt;SIGLA_UF&lt;/th&gt;
&lt;td&gt;SP&lt;/td&gt;
&lt;/tr&gt;&lt;tr bgcolor=""&gt;
&lt;th&gt;CD_MUN&lt;/th&gt;
&lt;td&gt;3544806&lt;/td&gt;
&lt;/tr&gt;&lt;tr bgcolor="#E3E3F3"&gt;
&lt;th&gt;NM_MUN&lt;/th&gt;
&lt;td&gt;Sales&lt;/td&gt;
&lt;/tr&gt;&lt;tr bgcolor=""&gt;
&lt;th&gt;CD_RGINT&lt;/th&gt;
&lt;td&gt;3507&lt;/td&gt;
&lt;/tr&gt;&lt;tr bgcolor="#E3E3F3"&gt;
&lt;th&gt;NM_RGINT&lt;/th&gt;
&lt;td&gt;São José do Rio Preto&lt;/td&gt;
&lt;/tr&gt;&lt;tr bgcolor=""&gt;
&lt;th&gt;CD_RGI&lt;/th&gt;
&lt;td&gt;350025&lt;/td&gt;
&lt;/tr&gt;&lt;tr bgcolor="#E3E3F3"&gt;
&lt;th&gt;NM_RGI&lt;/th&gt;
&lt;td&gt;São José do Rio Preto&lt;/td&gt;
&lt;/tr&gt;&lt;tr bgcolor=""&gt;
&lt;th&gt;CT_LOCALIDADE&lt;/th&gt;
&lt;td&gt;Núcleo Urbano&lt;/td&gt;
&lt;/tr&gt;&lt;tr bgcolor="#E3E3F3"&gt;
&lt;th&gt;CD_LOCALIDADE&lt;/th&gt;
&lt;td&gt;3544806009&lt;/td&gt;
&lt;/tr&gt;&lt;tr bgcolor=""&gt;
&lt;th&gt;NM_LOCALIDADE&lt;/th&gt;
&lt;td&gt;Praia do Torres e Jardim Areira&lt;/td&gt;
&lt;/tr&gt;&lt;tr bgcolor="#E3E3F3"&gt;
&lt;th&gt;LAT_LOCALIDADE&lt;/th&gt;
&lt;td&gt;-21.4095&lt;/td&gt;
&lt;/tr&gt;&lt;tr bgcolor=""&gt;
&lt;th&gt;LONG_LOCALIDADE&lt;/th&gt;
&lt;td&gt;-49.5281&lt;/td&gt;
&lt;/tr&gt;&lt;/table&gt;&lt;/center&gt;</description>
<Style>
<IconStyle>
<color>ff0000ff</color>
<scale>0.9</scale>
<Icon>
<href>http://maps.google.com/mapfiles/kml/shapes/placemark_circle.png</href>
</Icon>
</IconStyle>
<LabelStyle>
<scale>0.9</scale>
</LabelStyle>
<LineStyle>
<color>72ffffff</color>
<width>1.0</width>
<gx:labelVisibility>1</gx:labelVisibility>
</LineStyle>
<PolyStyle>
<color>66ff54ff</color>
</PolyStyle>
</Style>
<ExtendedData>
<SchemaData schemaUrl="#kml_schema_ft_Núcleos_Urbanos">
<SimpleData name="CD_UF">35</SimpleData>
<SimpleData name="NM_UF">São Paulo</SimpleData>
<SimpleData name="SIGLA_UF">SP</SimpleData>
<SimpleData name="CD_MUN">3544806</SimpleData>
<SimpleData name="NM_MUN">Sales</SimpleData>
<SimpleData name="CD_RGINT">3507</SimpleData>
<SimpleData name="NM_RGINT">São José do Rio Preto</SimpleData>
<SimpleData name="CD_RGI">350025</SimpleData>
<SimpleData name="NM_RGI">São José do Rio Preto</SimpleData>
<SimpleData name="CT_LOCALIDADE">Núcleo Urbano</SimpleData>
<SimpleData name="CD_LOCALIDADE">3544806009</SimpleData>
<SimpleData name="NM_LOCALIDADE">Praia do Torres e Jardim Areira</SimpleData>
<SimpleData name="LAT_LOCALIDADE">-21.4095</SimpleData>
<SimpleData name="LONG_LOCALIDADE">-49.5281</SimpleData>
</SchemaData>
</ExtendedData>
<Point>
<extrude>0</extrude>
<coordinates>-49.5281145384615,-21.4094961019213,0.0</coordinates>
</Point>
</Placemark>
<Placemark id="localidades">
<name>Estância Esplanada [3544806010]</name>
<visibility>1</visibility>
<snippet> </snippet>
<description>&lt;center&gt;&lt;table&gt;&lt;tr&gt;&lt;th colspan='2' align='center'&gt;&lt;em&gt;Attributes&lt;/em&gt;&lt;/th&gt;&lt;/tr&gt;&lt;tr bgcolor="#E3E3F3"&gt;
&lt;th&gt;CD_UF&lt;/th&gt;
&lt;td&gt;35&lt;/td&gt;
&lt;/tr&gt;&lt;tr bgcolor=""&gt;
&lt;th&gt;NM_UF&lt;/th&gt;
&lt;td&gt;São Paulo&lt;/td&gt;
&lt;/tr&gt;&lt;tr bgcolor="#E3E3F3"&gt;
&lt;th&gt;SIGLA_UF&lt;/th&gt;
&lt;td&gt;SP&lt;/td&gt;
&lt;/tr&gt;&lt;tr bgcolor=""&gt;
&lt;th&gt;CD_MUN&lt;/th&gt;
&lt;td&gt;3544806&lt;/td&gt;
&lt;/tr&gt;&lt;tr bgcolor="#E3E3F3"&gt;
&lt;th&gt;NM_MUN&lt;/th&gt;
&lt;td&gt;Sales&lt;/td&gt;
&lt;/tr&gt;&lt;tr bgcolor=""&gt;
&lt;th&gt;CD_RGINT&lt;/th&gt;
&lt;td&gt;3507&lt;/td&gt;
&lt;/tr&gt;&lt;tr bgcolor="#E3E3F3"&gt;
&lt;th&gt;NM_RGINT&lt;/th&gt;
&lt;td&gt;São José do Rio Preto&lt;/td&gt;
&lt;/tr&gt;&lt;tr bgcolor=""&gt;
&lt;th&gt;CD_RGI&lt;/th&gt;
&lt;td&gt;350025&lt;/td&gt;
&lt;/tr&gt;&lt;tr bgcolor="#E3E3F3"&gt;
&lt;th&gt;NM_RGI&lt;/th&gt;
&lt;td&gt;São José do Rio Preto&lt;/td&gt;
&lt;/tr&gt;&lt;tr bgcolor=""&gt;
&lt;th&gt;CT_LOCALIDADE&lt;/th&gt;
&lt;td&gt;Núcleo Urbano&lt;/td&gt;
&lt;/tr&gt;&lt;tr bgcolor="#E3E3F3"&gt;
&lt;th&gt;CD_LOCALIDADE&lt;/th&gt;
&lt;td&gt;3544806010&lt;/td&gt;
&lt;/tr&gt;&lt;tr bgcolor=""&gt;
&lt;th&gt;NM_LOCALIDADE&lt;/th&gt;
&lt;td&gt;Estância Esplanada&lt;/td&gt;
&lt;/tr&gt;&lt;tr bgcolor="#E3E3F3"&gt;
&lt;th&gt;LAT_LOCALIDADE&lt;/th&gt;
&lt;td&gt;-21.3729&lt;/td&gt;
&lt;/tr&gt;&lt;tr bgcolor=""&gt;
&lt;th&gt;LONG_LOCALIDADE&lt;/th&gt;
&lt;td&gt;-49.4714&lt;/td&gt;
&lt;/tr&gt;&lt;/table&gt;&lt;/center&gt;</description>
<Style>
<IconStyle>
<color>ff0000ff</color>
<scale>0.9</scale>
<Icon>
<href>http://maps.google.com/mapfiles/kml/shapes/placemark_circle.png</href>
</Icon>
</IconStyle>
<LabelStyle>
<scale>0.9</scale>
</LabelStyle>
<LineStyle>
<color>72ffffff</color>
<width>1.0</width>
<gx:labelVisibility>1</gx:labelVisibility>
</LineStyle>
<PolyStyle>
<color>66ff54ff</color>
</PolyStyle>
</Style>
<ExtendedData>
<SchemaData schemaUrl="#kml_schema_ft_Núcleos_Urbanos">
<SimpleData name="CD_UF">35</SimpleData>
<SimpleData name="NM_UF">São Paulo</SimpleData>
<SimpleData name="SIGLA_UF">SP</SimpleData>
<SimpleData name="CD_MUN">3544806</SimpleData>
<SimpleData name="NM_MUN">Sales</SimpleData>
<SimpleData name="CD_RGINT">3507</SimpleData>
<SimpleData name="NM_RGINT">São José do Rio Preto</SimpleData>
<SimpleData name="CD_RGI">350025</SimpleData>
<SimpleData name="NM_RGI">São José do Rio Preto</SimpleData>
<SimpleData name="CT_LOCALIDADE">Núcleo Urbano</SimpleData>
<SimpleData name="CD_LOCALIDADE">3544806010</SimpleData>
<SimpleData name="NM_LOCALIDADE">Estância Esplanada</SimpleData>
<SimpleData name="LAT_LOCALIDADE">-21.3729</SimpleData>
<SimpleData name="LONG_LOCALIDADE">-49.4714</SimpleData>
</SchemaData>
</ExtendedData>
<Point>
<extrude>0</extrude>
<coordinates>-49.4713902374999,-21.3728596618581,0.0</coordinates>
</Point>
</Placemark>
<Placemark id="localidades">
<name>Residencial Eco Park [3544806011]</name>
<visibility>1</visibility>
<snippet> </snippet>
<description>&lt;center&gt;&lt;table&gt;&lt;tr&gt;&lt;th colspan='2' align='center'&gt;&lt;em&gt;Attributes&lt;/em&gt;&lt;/th&gt;&lt;/tr&gt;&lt;tr bgcolor="#E3E3F3"&gt;
&lt;th&gt;CD_UF&lt;/th&gt;
&lt;td&gt;35&lt;/td&gt;
&lt;/tr&gt;&lt;tr bgcolor=""&gt;
&lt;th&gt;NM_UF&lt;/th&gt;
&lt;td&gt;São Paulo&lt;/td&gt;
&lt;/tr&gt;&lt;tr bgcolor="#E3E3F3"&gt;
&lt;th&gt;SIGLA_UF&lt;/th&gt;
&lt;td&gt;SP&lt;/td&gt;
&lt;/tr&gt;&lt;tr bgcolor=""&gt;
&lt;th&gt;CD_MUN&lt;/th&gt;
&lt;td&gt;3544806&lt;/td&gt;
&lt;/tr&gt;&lt;tr bgcolor="#E3E3F3"&gt;
&lt;th&gt;NM_MUN&lt;/th&gt;
&lt;td&gt;Sales&lt;/td&gt;
&lt;/tr&gt;&lt;tr bgcolor=""&gt;
&lt;th&gt;CD_RGINT&lt;/th&gt;
&lt;td&gt;3507&lt;/td&gt;
&lt;/tr&gt;&lt;tr bgcolor="#E3E3F3"&gt;
&lt;th&gt;NM_RGINT&lt;/th&gt;
&lt;td&gt;São José do Rio Preto&lt;/td&gt;
&lt;/tr&gt;&lt;tr bgcolor=""&gt;
&lt;th&gt;CD_RGI&lt;/th&gt;
&lt;td&gt;350025&lt;/td&gt;
&lt;/tr&gt;&lt;tr bgcolor="#E3E3F3"&gt;
&lt;th&gt;NM_RGI&lt;/th&gt;
&lt;td&gt;São José do Rio Preto&lt;/td&gt;
&lt;/tr&gt;&lt;tr bgcolor=""&gt;
&lt;th&gt;CT_LOCALIDADE&lt;/th&gt;
&lt;td&gt;Núcleo Urbano&lt;/td&gt;
&lt;/tr&gt;&lt;tr bgcolor="#E3E3F3"&gt;
&lt;th&gt;CD_LOCALIDADE&lt;/th&gt;
&lt;td&gt;3544806011&lt;/td&gt;
&lt;/tr&gt;&lt;tr bgcolor=""&gt;
&lt;th&gt;NM_LOCALIDADE&lt;/th&gt;
&lt;td&gt;Residencial Eco Park&lt;/td&gt;
&lt;/tr&gt;&lt;tr bgcolor="#E3E3F3"&gt;
&lt;th&gt;LAT_LOCALIDADE&lt;/th&gt;
&lt;td&gt;-21.4045&lt;/td&gt;
&lt;/tr&gt;&lt;tr bgcolor=""&gt;
&lt;th&gt;LONG_LOCALIDADE&lt;/th&gt;
&lt;td&gt;-49.5198&lt;/td&gt;
&lt;/tr&gt;&lt;/table&gt;&lt;/center&gt;</description>
<Style>
<IconStyle>
<color>ff0000ff</color>
<scale>0.9</scale>
<Icon>
<href>http://maps.google.com/mapfiles/kml/shapes/placemark_circle.png</href>
</Icon>
</IconStyle>
<LabelStyle>
<scale>0.9</scale>
</LabelStyle>
<LineStyle>
<color>72ffffff</color>
<width>1.0</width>
<gx:labelVisibility>1</gx:labelVisibility>
</LineStyle>
<PolyStyle>
<color>66ff54ff</color>
</PolyStyle>
</Style>
<ExtendedData>
<SchemaData schemaUrl="#kml_schema_ft_Núcleos_Urbanos">
<SimpleData name="CD_UF">35</SimpleData>
<SimpleData name="NM_UF">São Paulo</SimpleData>
<SimpleData name="SIGLA_UF">SP</SimpleData>
<SimpleData name="CD_MUN">3544806</SimpleData>
<SimpleData name="NM_MUN">Sales</SimpleData>
<SimpleData name="CD_RGINT">3507</SimpleData>
<SimpleData name="NM_RGINT">São José do Rio Preto</SimpleData>
<SimpleData name="CD_RGI">350025</SimpleData>
<SimpleData name="NM_RGI">São José do Rio Preto</SimpleData>
<SimpleData name="CT_LOCALIDADE">Núcleo Urbano</SimpleData>
<SimpleData name="CD_LOCALIDADE">3544806011</SimpleData>
<SimpleData name="NM_LOCALIDADE">Residencial Eco Park</SimpleData>
<SimpleData name="LAT_LOCALIDADE">-21.4045</SimpleData>
<SimpleData name="LONG_LOCALIDADE">-49.5198</SimpleData>
</SchemaData>
</ExtendedData>
<Point>
<extrude>0</extrude>
<coordinates>-49.5198256666666,-21.4045158326906,0.0</coordinates>
</Point>
</Placemark>
<Placemark id="localidades">
<name>Jardim Baia Bela [3544806012]</name>
<visibility>1</visibility>
<snippet> </snippet>
<description>&lt;center&gt;&lt;table&gt;&lt;tr&gt;&lt;th colspan='2' align='center'&gt;&lt;em&gt;Attributes&lt;/em&gt;&lt;/th&gt;&lt;/tr&gt;&lt;tr bgcolor="#E3E3F3"&gt;
&lt;th&gt;CD_UF&lt;/th&gt;
&lt;td&gt;35&lt;/td&gt;
&lt;/tr&gt;&lt;tr bgcolor=""&gt;
&lt;th&gt;NM_UF&lt;/th&gt;
&lt;td&gt;São Paulo&lt;/td&gt;
&lt;/tr&gt;&lt;tr bgcolor="#E3E3F3"&gt;
&lt;th&gt;SIGLA_UF&lt;/th&gt;
&lt;td&gt;SP&lt;/td&gt;
&lt;/tr&gt;&lt;tr bgcolor=""&gt;
&lt;th&gt;CD_MUN&lt;/th&gt;
&lt;td&gt;3544806&lt;/td&gt;
&lt;/tr&gt;&lt;tr bgcolor="#E3E3F3"&gt;
&lt;th&gt;NM_MUN&lt;/th&gt;
&lt;td&gt;Sales&lt;/td&gt;
&lt;/tr&gt;&lt;tr bgcolor=""&gt;
&lt;th&gt;CD_RGINT&lt;/th&gt;
&lt;td&gt;3507&lt;/td&gt;
&lt;/tr&gt;&lt;tr bgcolor="#E3E3F3"&gt;
&lt;th&gt;NM_RGINT&lt;/th&gt;
&lt;td&gt;São José do Rio Preto&lt;/td&gt;
&lt;/tr&gt;&lt;tr bgcolor=""&gt;
&lt;th&gt;CD_RGI&lt;/th&gt;
&lt;td&gt;350025&lt;/td&gt;
&lt;/tr&gt;&lt;tr bgcolor="#E3E3F3"&gt;
&lt;th&gt;NM_RGI&lt;/th&gt;
&lt;td&gt;São José do Rio Preto&lt;/td&gt;
&lt;/tr&gt;&lt;tr bgcolor=""&gt;
&lt;th&gt;CT_LOCALIDADE&lt;/th&gt;
&lt;td&gt;Núcleo Urbano&lt;/td&gt;
&lt;/tr&gt;&lt;tr bgcolor="#E3E3F3"&gt;
&lt;th&gt;CD_LOCALIDADE&lt;/th&gt;
&lt;td&gt;3544806012&lt;/td&gt;
&lt;/tr&gt;&lt;tr bgcolor=""&gt;
&lt;th&gt;NM_LOCALIDADE&lt;/th&gt;
&lt;td&gt;Jardim Baia Bela&lt;/td&gt;
&lt;/tr&gt;&lt;tr bgcolor="#E3E3F3"&gt;
&lt;th&gt;LAT_LOCALIDADE&lt;/th&gt;
&lt;td&gt;-21.4072&lt;/td&gt;
&lt;/tr&gt;&lt;tr bgcolor=""&gt;
&lt;th&gt;LONG_LOCALIDADE&lt;/th&gt;
&lt;td&gt;-49.5299&lt;/td&gt;
&lt;/tr&gt;&lt;/table&gt;&lt;/center&gt;</description>
<Style>
<IconStyle>
<color>ff0000ff</color>
<scale>0.9</scale>
<Icon>
<href>http://maps.google.com/mapfiles/kml/shapes/placemark_circle.png</href>
</Icon>
</IconStyle>
<LabelStyle>
<scale>0.9</scale>
</LabelStyle>
<LineStyle>
<color>72ffffff</color>
<width>1.0</width>
<gx:labelVisibility>1</gx:labelVisibility>
</LineStyle>
<PolyStyle>
<color>66ff54ff</color>
</PolyStyle>
</Style>
<ExtendedData>
<SchemaData schemaUrl="#kml_schema_ft_Núcleos_Urbanos">
<SimpleData name="CD_UF">35</SimpleData>
<SimpleData name="NM_UF">São Paulo</SimpleData>
<SimpleData name="SIGLA_UF">SP</SimpleData>
<SimpleData name="CD_MUN">3544806</SimpleData>
<SimpleData name="NM_MUN">Sales</SimpleData>
<SimpleData name="CD_RGINT">3507</SimpleData>
<SimpleData name="NM_RGINT">São José do Rio Preto</SimpleData>
<SimpleData name="CD_RGI">350025</SimpleData>
<SimpleData name="NM_RGI">São José do Rio Preto</SimpleData>
<SimpleData name="CT_LOCALIDADE">Núcleo Urbano</SimpleData>
<SimpleData name="CD_LOCALIDADE">3544806012</SimpleData>
<SimpleData name="NM_LOCALIDADE">Jardim Baia Bela</SimpleData>
<SimpleData name="LAT_LOCALIDADE">-21.4072</SimpleData>
<SimpleData name="LONG_LOCALIDADE">-49.5299</SimpleData>
</SchemaData>
</ExtendedData>
<Point>
<extrude>0</extrude>
<coordinates>-49.5299227403846,-21.4072281147419,0.0</coordinates>
</Point>
</Placemark>
<Placemark id="localidades">
<name>Recanto das Águas [3544806016]</name>
<visibility>1</visibility>
<snippet> </snippet>
<description>&lt;center&gt;&lt;table&gt;&lt;tr&gt;&lt;th colspan='2' align='center'&gt;&lt;em&gt;Attributes&lt;/em&gt;&lt;/th&gt;&lt;/tr&gt;&lt;tr bgcolor="#E3E3F3"&gt;
&lt;th&gt;CD_UF&lt;/th&gt;
&lt;td&gt;35&lt;/td&gt;
&lt;/tr&gt;&lt;tr bgcolor=""&gt;
&lt;th&gt;NM_UF&lt;/th&gt;
&lt;td&gt;São Paulo&lt;/td&gt;
&lt;/tr&gt;&lt;tr bgcolor="#E3E3F3"&gt;
&lt;th&gt;SIGLA_UF&lt;/th&gt;
&lt;td&gt;SP&lt;/td&gt;
&lt;/tr&gt;&lt;tr bgcolor=""&gt;
&lt;th&gt;CD_MUN&lt;/th&gt;
&lt;td&gt;3544806&lt;/td&gt;
&lt;/tr&gt;&lt;tr bgcolor="#E3E3F3"&gt;
&lt;th&gt;NM_MUN&lt;/th&gt;
&lt;td&gt;Sales&lt;/td&gt;
&lt;/tr&gt;&lt;tr bgcolor=""&gt;
&lt;th&gt;CD_RGINT&lt;/th&gt;
&lt;td&gt;3507&lt;/td&gt;
&lt;/tr&gt;&lt;tr bgcolor="#E3E3F3"&gt;
&lt;th&gt;NM_RGINT&lt;/th&gt;
&lt;td&gt;São José do Rio Preto&lt;/td&gt;
&lt;/tr&gt;&lt;tr bgcolor=""&gt;
&lt;th&gt;CD_RGI&lt;/th&gt;
&lt;td&gt;350025&lt;/td&gt;
&lt;/tr&gt;&lt;tr bgcolor="#E3E3F3"&gt;
&lt;th&gt;NM_RGI&lt;/th&gt;
&lt;td&gt;São José do Rio Preto&lt;/td&gt;
&lt;/tr&gt;&lt;tr bgcolor=""&gt;
&lt;th&gt;CT_LOCALIDADE&lt;/th&gt;
&lt;td&gt;Núcleo Urbano&lt;/td&gt;
&lt;/tr&gt;&lt;tr bgcolor="#E3E3F3"&gt;
&lt;th&gt;CD_LOCALIDADE&lt;/th&gt;
&lt;td&gt;3544806016&lt;/td&gt;
&lt;/tr&gt;&lt;tr bgcolor=""&gt;
&lt;th&gt;NM_LOCALIDADE&lt;/th&gt;
&lt;td&gt;Recanto das Águas&lt;/td&gt;
&lt;/tr&gt;&lt;tr bgcolor="#E3E3F3"&gt;
&lt;th&gt;LAT_LOCALIDADE&lt;/th&gt;
&lt;td&gt;-21.3267&lt;/td&gt;
&lt;/tr&gt;&lt;tr bgcolor=""&gt;
&lt;th&gt;LONG_LOCALIDADE&lt;/th&gt;
&lt;td&gt;-49.5598&lt;/td&gt;
&lt;/tr&gt;&lt;/table&gt;&lt;/center&gt;</description>
<Style>
<IconStyle>
<color>ff0000ff</color>
<scale>0.9</scale>
<Icon>
<href>http://maps.google.com/mapfiles/kml/shapes/placemark_circle.png</href>
</Icon>
</IconStyle>
<LabelStyle>
<scale>0.9</scale>
</LabelStyle>
<LineStyle>
<color>72ffffff</color>
<width>1.0</width>
<gx:labelVisibility>1</gx:labelVisibility>
</LineStyle>
<PolyStyle>
<color>66ff54ff</color>
</PolyStyle>
</Style>
<ExtendedData>
<SchemaData schemaUrl="#kml_schema_ft_Núcleos_Urbanos">
<SimpleData name="CD_UF">35</SimpleData>
<SimpleData name="NM_UF">São Paulo</SimpleData>
<SimpleData name="SIGLA_UF">SP</SimpleData>
<SimpleData name="CD_MUN">3544806</SimpleData>
<SimpleData name="NM_MUN">Sales</SimpleData>
<SimpleData name="CD_RGINT">3507</SimpleData>
<SimpleData name="NM_RGINT">São José do Rio Preto</SimpleData>
<SimpleData name="CD_RGI">350025</SimpleData>
<SimpleData name="NM_RGI">São José do Rio Preto</SimpleData>
<SimpleData name="CT_LOCALIDADE">Núcleo Urbano</SimpleData>
<SimpleData name="CD_LOCALIDADE">3544806016</SimpleData>
<SimpleData name="NM_LOCALIDADE">Recanto das Águas</SimpleData>
<SimpleData name="LAT_LOCALIDADE">-21.3267</SimpleData>
<SimpleData name="LONG_LOCALIDADE">-49.5598</SimpleData>
</SchemaData>
</ExtendedData>
<Point>
<extrude>0</extrude>
<coordinates>-49.559838,-21.3266529993592,0.0</coordinates>
</Point>
</Placemark>
</Folder>
<Folder id="12. Outras Localidades">
<name>12. Outras Localidades</name>
<Placemark id="12. Outras Localidades">
<name>Rancho Fundo [354480699017]</name>
<visibility>1</visibility>
<snippet> </snippet>
<description>&lt;center&gt;&lt;table&gt;&lt;tr&gt;&lt;th colspan='2' align='center'&gt;&lt;em&gt;Attributes&lt;/em&gt;&lt;/th&gt;&lt;/tr&gt;&lt;tr bgcolor="#E3E3F3"&gt;
&lt;th&gt;CD_UF&lt;/th&gt;
&lt;td&gt;35&lt;/td&gt;
&lt;/tr&gt;&lt;tr bgcolor=""&gt;
&lt;th&gt;NM_UF&lt;/th&gt;
&lt;td&gt;São Paulo&lt;/td&gt;
&lt;/tr&gt;&lt;tr bgcolor="#E3E3F3"&gt;
&lt;th&gt;SIGLA_UF&lt;/th&gt;
&lt;td&gt;SP&lt;/td&gt;
&lt;/tr&gt;&lt;tr bgcolor=""&gt;
&lt;th&gt;CD_MUN&lt;/th&gt;
&lt;td&gt;3544806&lt;/td&gt;
&lt;/tr&gt;&lt;tr bgcolor="#E3E3F3"&gt;
&lt;th&gt;NM_MUN&lt;/th&gt;
&lt;td&gt;Sales&lt;/td&gt;
&lt;/tr&gt;&lt;tr bgcolor=""&gt;
&lt;th&gt;CD_RGINT&lt;/th&gt;
&lt;td&gt;3507&lt;/td&gt;
&lt;/tr&gt;&lt;tr bgcolor="#E3E3F3"&gt;
&lt;th&gt;NM_RGINT&lt;/th&gt;
&lt;td&gt;São José do Rio Preto&lt;/td&gt;
&lt;/tr&gt;&lt;tr bgcolor=""&gt;
&lt;th&gt;CD_RGI&lt;/th&gt;
&lt;td&gt;350025&lt;/td&gt;
&lt;/tr&gt;&lt;tr bgcolor="#E3E3F3"&gt;
&lt;th&gt;NM_RGI&lt;/th&gt;
&lt;td&gt;São José do Rio Preto&lt;/td&gt;
&lt;/tr&gt;&lt;tr bgcolor=""&gt;
&lt;th&gt;CT_LOCALIDADE&lt;/th&gt;
&lt;td&gt;Outras Localidades&lt;/td&gt;
&lt;/tr&gt;&lt;tr bgcolor="#E3E3F3"&gt;
&lt;th&gt;SCT_LOCALIDADE&lt;/th&gt;
&lt;td&gt;&lt;/td&gt;
&lt;/tr&gt;&lt;tr bgcolor=""&gt;
&lt;th&gt;CD_LOCALIDADE&lt;/th&gt;
&lt;td&gt;354480699017&lt;/td&gt;
&lt;/tr&gt;&lt;tr bgcolor="#E3E3F3"&gt;
&lt;th&gt;NM_LOCALIDADE&lt;/th&gt;
&lt;td&gt;Rancho Fundo&lt;/td&gt;
&lt;/tr&gt;&lt;/table&gt;&lt;/center&gt;</description>
<Style>
<IconStyle>
<color>ff0069d3</color>
<scale>0.6</scale>
<Icon>
<href>http://maps.google.com/mapfiles/kml/shapes/placemark_circle.png</href>
</Icon>
</IconStyle>
<LabelStyle>
<scale>0.6</scale>
</LabelStyle>
<LineStyle>
<width>1.0</width>
<gx:labelVisibility>1</gx:labelVisibility>
</LineStyle>
</Style>
<ExtendedData>
<SchemaData schemaUrl="#kml_schema_ft_Localidades">
<SimpleData name="CD_UF">35</SimpleData>
<SimpleData name="NM_UF">São Paulo</SimpleData>
<SimpleData name="SIGLA_UF">SP</SimpleData>
<SimpleData name="CD_MUN">3544806</SimpleData>
<SimpleData name="NM_MUN">Sales</SimpleData>
<SimpleData name="CD_RGINT">3507</SimpleData>
<SimpleData name="NM_RGINT">São José do Rio Preto</SimpleData>
<SimpleData name="CD_RGI">350025</SimpleData>
<SimpleData name="NM_RGI">São José do Rio Preto</SimpleData>
<SimpleData name="CT_LOCALIDADE">Outras Localidades</SimpleData>
<SimpleData name="CD_LOCALIDADE">354480699017</SimpleData>
<SimpleData name="NM_LOCALIDADE">Rancho Fundo</SimpleData>
</SchemaData>
</ExtendedData>
<Point>
<extrude>0</extrude>
<coordinates>-49.5170252741922,-21.2322031807888,0.0</coordinates>
</Point>
</Placemark>
</Folder>
<Folder id="13. Referência">
<name>13. Referência</name>
<Placemark id="13. Referência">
<name>Sales [3544806]</name>
<visibility>1</visibility>
<snippet> </snippet>
<description>&lt;center&gt;&lt;table&gt;&lt;tr&gt;&lt;th colspan='2' align='center'&gt;&lt;em&gt;Attributes&lt;/em&gt;&lt;/th&gt;&lt;/tr&gt;&lt;tr bgcolor="#E3E3F3"&gt;
&lt;th&gt;CD_UF&lt;/th&gt;
&lt;td&gt;35&lt;/td&gt;
&lt;/tr&gt;&lt;tr bgcolor=""&gt;
&lt;th&gt;NM_UF&lt;/th&gt;
&lt;td&gt;São Paulo&lt;/td&gt;
&lt;/tr&gt;&lt;tr bgcolor="#E3E3F3"&gt;
&lt;th&gt;CD_MUN&lt;/th&gt;
&lt;td&gt;3544806&lt;/td&gt;
&lt;/tr&gt;&lt;tr bgcolor=""&gt;
&lt;th&gt;NM_MUN&lt;/th&gt;
&lt;td&gt;Sales&lt;/td&gt;
&lt;/tr&gt;&lt;tr bgcolor="#E3E3F3"&gt;
&lt;th&gt;CD_RGINT&lt;/th&gt;
&lt;td&gt;3507&lt;/td&gt;
&lt;/tr&gt;&lt;tr bgcolor=""&gt;
&lt;th&gt;NM_RGINT&lt;/th&gt;
&lt;td&gt;São José do Rio Preto&lt;/td&gt;
&lt;/tr&gt;&lt;tr bgcolor="#E3E3F3"&gt;
&lt;th&gt;CD_RGI&lt;/th&gt;
&lt;td&gt;350025&lt;/td&gt;
&lt;/tr&gt;&lt;tr bgcolor=""&gt;
&lt;th&gt;NM_RGI&lt;/th&gt;
&lt;td&gt;São José do Rio Preto&lt;/td&gt;
&lt;/tr&gt;&lt;/table&gt;&lt;/center&gt;</description>
<Style>
<IconStyle>
<scale>0.7</scale>
</IconStyle>
<LabelStyle>
<scale>0.7</scale>
</LabelStyle>
<LineStyle>
<color>ffffffff</color>
<width>3</width>
<gx:labelVisibility>1</gx:labelVisibility>
</LineStyle>
<PolyStyle>
<color>00ffffff</color>
</PolyStyle>
</Style>
<ExtendedData>
<SchemaData schemaUrl="#kml_schema_ft_Município">
<SimpleData name="CD_UF">35</SimpleData>
<SimpleData name="NM_UF">São Paulo</SimpleData>
<SimpleData name="CD_MUN">3544806</SimpleData>
<SimpleData name="NM_MUN">Sales</SimpleData>
<SimpleData name="CD_RGINT">3507</SimpleData>
<SimpleData name="NM_RGINT">São José do Rio Preto</SimpleData>
<SimpleData name="CD_RGI">350025</SimpleData>
<SimpleData name="NM_RGI">São José do Rio Preto</SimpleData>
</SchemaData>
</ExtendedData>
<MultiGeometry>
<Polygon>
<extrude>0</extrude>
<tessellate>1</tessellate>
<outerBoundaryIs>
<LinearRing>
<coordinates>-49.4871681,-21.2603926993608,0.0 -49.4868638,-21.2606746993608,0.0 -49.4673602,-21.2787399993604,0.0 -49.4664657,-21.2795684993603,0.0 -49.4591169,-21.2863752993602,0.0 -49.4420975,-21.3021395993598,0.0 -49.4409843,-21.3031706993598,0.0 -49.440628,-21.3029059993598,0.0 -49.4399085,-21.3026009993598,0.0 -49.4392144,-21.3025659993598,0.0 -49.4386201,-21.3028273993598,0.0 -49.4379982,-21.3035134993598,0.0 -49.4374045,-21.3038811993598,0.0 -49.4369211,-21.3044231993597,0.0 -49.4359311,-21.3061282993597,0.0 -49.4348311,-21.3071499993597,0.0 -49.4343513,-21.3086021993596,0.0 -49.4339009,-21.3096017993596,0.0 -49.4332574,-21.3107989993596,0.0 -49.432383,-21.3117889993596,0.0 -49.4310364,-21.3124571993595,0.0 -49.4299011,-21.3128120993595,0.0 -49.4231828,-21.3140390993595,0.0 -49.4215904,-21.3150464993595,0.0 -49.4205592,-21.3160213993595,0.0 -49.4195043,-21.3167351993594,0.0 -49.4180888,-21.3174454993594,0.0 -49.4164432,-21.3189811993594,0.0 -49.4146796,-21.3213956993593,0.0 -49.4134787,-21.3236696993593,0.0 -49.4129408,-21.3249326993592,0.0 -49.4124933,-21.3255242993592,0.0 -49.4117685,-21.3260081993592,0.0 -49.4108506,-21.3269310993592,0.0 -49.4103717,-21.3277550993592,0.0 -49.4102206,-21.3285752993592,0.0 -49.4097275,-21.3312515993591,0.0 -49.4095118,-21.3316132993591,0.0 -49.4088472,-21.3321421993591,0.0 -49.4081884,-21.333290099359,0.0 -49.4080057,-21.334233899359,0.0 -49.4068965,-21.3374527993589,0.0 -49.4068596,-21.3383879993589,0.0 -49.4070092,-21.3400832993589,0.0 -49.4067902,-21.3409845993588,0.0 -49.4061521,-21.3419907993588,0.0 -49.4045565,-21.3441069993588,0.0 -49.4044057,-21.3448272993588,0.0 -49.4044668,-21.3455263993587,0.0 -49.4040744,-21.3465094993587,0.0 -49.4044004,-21.3477437993587,0.0 -49.4039748,-21.3489584993587,0.0 -49.4040286,-21.3502303993586,0.0 -49.4036667,-21.3513476993586,0.0 -49.4037354,-21.3524208993586,0.0 -49.4036605,-21.3529368993586,0.0 -49.4034601,-21.3532692993586,0.0 -49.4027005,-21.3539945993585,0.0 -49.4023995,-21.3545522993585,0.0 -49.4021687,-21.3558271993585,0.0 -49.401444,-21.3570408993585,0.0 -49.4010407,-21.3586174993584,0.0 -49.399531,-21.3616766993584,0.0 -49.3994526,-21.3621159993583,0.0 -49.399455,-21.3635819993583,0.0 -49.3989414,-21.3643977993583,0.0 -49.3985545,-21.3654792993583,0.0 -49.3978017,-21.3668462993582,0.0 -49.3975309,-21.3681948993582,0.0 -49.3965609,-21.3693837993582,0.0 -49.3960551,-21.3707809993581,0.0 -49.3960324,-21.3712281993581,0.0 -49.3963005,-21.3720905993581,0.0 -49.3963488,-21.3725513993581,0.0 -49.3965991,-21.3728438993581,0.0 -49.3978884,-21.3729502993581,0.0 -49.3984752,-21.3732798993581,0.0 -49.3987088,-21.3736124993581,0.0 -49.398758,-21.3743535993581,0.0 -49.3991698,-21.374603599358,0.0 -49.4018582,-21.376176399358,0.0 -49.4025042,-21.376557099358,0.0 -49.4027037,-21.376777899358,0.0 -49.4034507,-21.377722799358,0.0 -49.4035198,-21.377828299358,0.0 -49.4039987,-21.378182799358,0.0 -49.4045409,-21.3790779993579,0.0 -49.4046866,-21.3792305993579,0.0 -49.4051871,-21.3795178993579,0.0 -49.405868,-21.3797962993579,0.0 -49.407369,-21.3805697993579,0.0 -49.4081369,-21.3811565993579,0.0 -49.4086593,-21.3812311993579,0.0 -49.4100552,-21.3805845993579,0.0 -49.4104551,-21.3803205993579,0.0 -49.4106303,-21.3800226993579,0.0 -49.410584,-21.3796825993579,0.0 -49.4109077,-21.3788958993579,0.0 -49.411009,-21.378615699358,0.0 -49.4109651,-21.377827899358,0.0 -49.4110301,-21.377725199358,0.0 -49.4111914,-21.377626799358,0.0 -49.4114238,-21.377629599358,0.0 -49.4120873,-21.377509799358,0.0 -49.4122983,-21.377490299358,0.0 -49.4124866,-21.377635999358,0.0 -49.413261,-21.378046399358,0.0 -49.4135154,-21.378210099358,0.0 -49.4136575,-21.3785103993579,0.0 -49.4136897,-21.3789617993579,0.0 -49.4141325,-21.3793937993579,0.0 -49.4149314,-21.3802228993579,0.0 -49.4159046,-21.3811855993579,0.0 -49.4166369,-21.3822029993579,0.0 -49.4166338,-21.3825497993579,0.0 -49.4169939,-21.3838705993578,0.0 -49.4173048,-21.3846367993578,0.0 -49.4179858,-21.3849166993578,0.0 -49.4191909,-21.3851909993578,0.0 -49.4204992,-21.3851842993578,0.0 -49.420868,-21.3855168993578,0.0 -49.4211926,-21.3863987993578,0.0 -49.4218502,-21.3870609993577,0.0 -49.422201,-21.3873209993577,0.0 -49.4222263,-21.3877162993577,0.0 -49.4220232,-21.3881946993577,0.0 -49.4219988,-21.3885147993577,0.0 -49.4222352,-21.3891608993577,0.0 -49.4221685,-21.3899718993577,0.0 -49.4222362,-21.3903043993577,0.0 -49.4226437,-21.3905118993577,0.0 -49.4230817,-21.3904165993577,0.0 -49.423334,-21.3904648993577,0.0 -49.4236397,-21.3910858993576,0.0 -49.4235696,-21.3916345993576,0.0 -49.4235885,-21.3919548993576,0.0 -49.4240163,-21.3926531993576,0.0 -49.4241437,-21.3928674993576,0.0 -49.4245718,-21.3935575993576,0.0 -49.4242854,-21.3945120993576,0.0 -49.4243258,-21.3952916993575,0.0 -49.4242162,-21.3955887993575,0.0 -49.4241431,-21.3965094993575,0.0 -49.4242952,-21.3972623993575,0.0 -49.4249309,-21.3978544993575,0.0 -49.4249747,-21.3988324993575,0.0 -49.4255807,-21.3997256993574,0.0 -49.425854,-21.4006476993574,0.0 -49.4261363,-21.4014644993574,0.0 -49.4261591,-21.4016623993574,0.0 -49.4266424,-21.4025603993574,0.0 -49.4267965,-21.4027870993574,0.0 -49.4268097,-21.4030136993574,0.0 -49.4265487,-21.4034948993573,0.0 -49.4265684,-21.4038206993573,0.0 -49.426965,-21.4044387993573,0.0 -49.4269856,-21.4049547993573,0.0 -49.4273719,-21.4053445993573,0.0 -49.4285346,-21.4065520993573,0.0 -49.4290546,-21.4068942993573,0.0 -49.4293374,-21.4072605993572,0.0 -49.4297824,-21.4075339993572,0.0 -49.4298774,-21.4077356993572,0.0 -49.4307702,-21.4086870993572,0.0 -49.4310666,-21.4096115993572,0.0 -49.4311007,-21.4097556993572,0.0 -49.4314339,-21.4101161993572,0.0 -49.4314986,-21.4102080993572,0.0 -49.4322221,-21.4108007993572,0.0 -49.4324116,-21.4108816993572,0.0 -49.4332002,-21.4119275993571,0.0 -49.4333668,-21.4121546993571,0.0 -49.4336318,-21.4135602993571,0.0 -49.433749,-21.4137607993571,0.0 -49.433435,-21.4145820993571,0.0 -49.4335832,-21.4149348993571,0.0 -49.4337638,-21.416321999357,0.0 -49.4340316,-21.416553599357,0.0 -49.4347784,-21.417146099357,0.0 -49.4357398,-21.418312899357,0.0 -49.4358191,-21.418400699357,0.0 -49.4365793,-21.419088099357,0.0 -49.436848,-21.419289999357,0.0 -49.4379469,-21.4197604993569,0.0 -49.4382063,-21.419881599357,0.0 -49.4384899,-21.4200797993569,0.0 -49.4387759,-21.4207479993569,0.0 -49.4392302,-21.4218415993569,0.0 -49.4395082,-21.4224879993569,0.0 -49.4406721,-21.4242532993568,0.0 -49.4421851,-21.4252773993568,0.0 -49.4422917,-21.4262569993568,0.0 -49.4419831,-21.4267766993568,0.0 -49.4419179,-21.4276641993568,0.0 -49.4420949,-21.4283254993567,0.0 -49.44242,-21.4287725993567,0.0 -49.4425779,-21.4290616993567,0.0 -49.4430473,-21.4292919993567,0.0 -49.4436104,-21.4294347993567,0.0 -49.444144,-21.4295924993567,0.0 -49.4511631,-21.4313389993567,0.0 -49.4521394,-21.4312941993567,0.0 -49.4528507,-21.4310587993567,0.0 -49.4534491,-21.4306024993567,0.0 -49.4538363,-21.4304093993567,0.0 -49.4556039,-21.4288316993567,0.0 -49.4561251,-21.4286384993567,0.0 -49.4564721,-21.4285430993567,0.0 -49.4569078,-21.4285893993567,0.0 -49.4572652,-21.4287198993567,0.0 -49.4574106,-21.4288562993567,0.0 -49.4578933,-21.4292744993567,0.0 -49.458006,-21.4300078993567,0.0 -49.458076,-21.4306457993567,0.0 -49.4581483,-21.4309900993567,0.0 -49.4582214,-21.4316210993567,0.0 -49.4585146,-21.4322182993567,0.0 -49.4588234,-21.4323813993567,0.0 -49.4592588,-21.4324557993566,0.0 -49.4597394,-21.4325306993566,0.0 -49.460272,-21.4324928993566,0.0 -49.460652,-21.4324688993566,0.0 -49.4610347,-21.4321097993567,0.0 -49.4615838,-21.4312686993567,0.0 -49.4619082,-21.4310467993567,0.0 -49.4624984,-21.4310284993567,0.0 -49.4635186,-21.4312073993567,0.0 -49.463903,-21.4313529993567,0.0 -49.465077,-21.4319604993567,0.0 -49.4652459,-21.4320532993566,0.0 -49.4653572,-21.4323842993566,0.0 -49.4658722,-21.4335804993566,0.0 -49.4659266,-21.4352209993566,0.0 -49.4659972,-21.4354652993566,0.0 -49.4663881,-21.4361182993566,0.0 -49.4669212,-21.4373202993565,0.0 -49.4672769,-21.4389869993565,0.0 -49.4672134,-21.4396664993565,0.0 -49.4673606,-21.4402055993565,0.0 -49.4676219,-21.4406875993565,0.0 -49.4682074,-21.4416017993564,0.0 -49.4691972,-21.4422385993564,0.0 -49.4702942,-21.4430632993564,0.0 -49.4716275,-21.4435964993564,0.0 -49.4724164,-21.4434031993564,0.0 -49.4726778,-21.4431281993564,0.0 -49.4732539,-21.4421623993564,0.0 -49.4735369,-21.4413103993564,0.0 -49.4737354,-21.4405173993565,0.0 -49.4738114,-21.4397363993565,0.0 -49.4740801,-21.4393165993565,0.0 -49.4745669,-21.4386799993565,0.0 -49.4752466,-21.4380143993565,0.0 -49.4757816,-21.4377512993565,0.0 -49.4766725,-21.4372626993565,0.0 -49.4778507,-21.4370302993565,0.0 -49.4784974,-21.4368004993565,0.0 -49.4792796,-21.4367614993565,0.0 -49.4797125,-21.4366487993565,0.0 -49.4800559,-21.4366859993565,0.0 -49.4805887,-21.4367630993565,0.0 -49.482479,-21.4367845993565,0.0 -49.4829648,-21.4368976993565,0.0 -49.4842066,-21.4370599993565,0.0 -49.4849535,-21.4369998993565,0.0 -49.4865107,-21.4366668993565,0.0 -49.4870002,-21.4366277993565,0.0 -49.4878787,-21.4363359993566,0.0 -49.4888423,-21.4361320993566,0.0 -49.4897841,-21.4360726993566,0.0 -49.490107,-21.4358704993566,0.0 -49.490776,-21.4354514993566,0.0 -49.4911396,-21.4353945993566,0.0 -49.4915021,-21.4354403993566,0.0 -49.4921387,-21.4355436993566,0.0 -49.492806,-21.4357177993566,0.0 -49.4929858,-21.4358649993566,0.0 -49.4936383,-21.4361735993566,0.0 -49.4941248,-21.4365452993565,0.0 -49.4942636,-21.4366462993565,0.0 -49.4947856,-21.4372135993565,0.0 -49.494988,-21.4373460993565,0.0 -49.4956682,-21.4378869993565,0.0 -49.4958277,-21.4379722993565,0.0 -49.4962417,-21.4384420993565,0.0 -49.4971483,-21.4389313993565,0.0 -49.4980453,-21.4395438993565,0.0 -49.5009063,-21.4406559993565,0.0 -49.5013047,-21.4409213993564,0.0 -49.5018877,-21.4412886993564,0.0 -49.5021124,-21.4415118993564,0.0 -49.5031886,-21.4421669993564,0.0 -49.5038429,-21.4423584993564,0.0 -49.5063324,-21.4424638993564,0.0 -49.5072866,-21.4420974993564,0.0 -49.5083244,-21.4419603993564,0.0 -49.5085684,-21.4418397993564,0.0 -49.5095543,-21.4408460993564,0.0 -49.5107796,-21.4405715993564,0.0 -49.5113707,-21.4402413993565,0.0 -49.512295,-21.4401886993565,0.0 -49.5131811,-21.4404961993565,0.0 -49.513394,-21.4404775993565,0.0 -49.5141155,-21.4401102993565,0.0 -49.5144192,-21.4401534993565,0.0 -49.5146484,-21.4406407993564,0.0 -49.515126,-21.4411473993564,0.0 -49.5150747,-21.4417533993564,0.0 -49.5155126,-21.4422030993564,0.0 -49.5155094,-21.4424624993564,0.0 -49.5150361,-21.4430454993564,0.0 -49.5151034,-21.4435257993564,0.0 -49.5157604,-21.4441956993564,0.0 -49.515833,-21.4445652993564,0.0 -49.5162208,-21.4450766993563,0.0 -49.5163303,-21.4458158993563,0.0 -49.5164863,-21.4461768993563,0.0 -49.5167871,-21.4464362993563,0.0 -49.5173821,-21.4466432993563,0.0 -49.517593,-21.4470660993563,0.0 -49.5178931,-21.4473210993563,0.0 -49.5184802,-21.4473420993563,0.0 -49.5193346,-21.4470495993563,0.0 -49.5196525,-21.4470994993563,0.0 -49.5200124,-21.4480183993563,0.0 -49.5202555,-21.4482095993563,0.0 -49.5205167,-21.4481597993563,0.0 -49.5208314,-21.4476517993563,0.0 -49.5218719,-21.4474596993563,0.0 -49.5219652,-21.4473432993563,0.0 -49.521991,-21.4470339993563,0.0 -49.521744,-21.4465587993563,0.0 -49.5217587,-21.4463626993563,0.0 -49.5219927,-21.4462229993563,0.0 -49.5227154,-21.4461332993563,0.0 -49.5228903,-21.4460324993563,0.0 -49.5232381,-21.4456722993563,0.0 -49.5242147,-21.4442240993564,0.0 -49.5244766,-21.4440535993564,0.0 -49.5253231,-21.4437661993564,0.0 -49.5255753,-21.4431537993564,0.0 -49.5257981,-21.4429695993564,0.0 -49.5264928,-21.4432268993564,0.0 -49.5269561,-21.4431932993564,0.0 -49.5272187,-21.4430335993564,0.0 -49.527395,-21.4418109993564,0.0 -49.5280317,-21.4410907993564,0.0 -49.5282974,-21.4410185993564,0.0 -49.5288988,-21.4412030993564,0.0 -49.5292545,-21.4410584993564,0.0 -49.5293019,-21.4408344993564,0.0 -49.5290711,-21.4402380993565,0.0 -49.5291935,-21.4398952993565,0.0 -49.529502,-21.4396196993565,0.0 -49.5297057,-21.4392384993565,0.0 -49.5305145,-21.4391113993565,0.0 -49.5305849,-21.4388590993565,0.0 -49.5304867,-21.4386924993565,0.0 -49.5300262,-21.4384152993565,0.0 -49.5299833,-21.4380816993565,0.0 -49.5301633,-21.4379692993565,0.0 -49.5307531,-21.4380255993565,0.0 -49.5309668,-21.4379176993565,0.0 -49.5307108,-21.4374521993565,0.0 -49.5308676,-21.4373112993565,0.0 -49.5313248,-21.4373504993565,0.0 -49.5315134,-21.4372401993565,0.0 -49.5316337,-21.4365557993566,0.0 -49.5319368,-21.4361412993566,0.0 -49.5321809,-21.4355430993566,0.0 -49.5327704,-21.4350396993566,0.0 -49.5329207,-21.4346390993566,0.0 -49.5328362,-21.4337996993566,0.0 -49.5329789,-21.4334880993566,0.0 -49.5332404,-21.4333003993566,0.0 -49.5339836,-21.4333886993566,0.0 -49.534783,-21.4330611993566,0.0 -49.5355657,-21.4330901993566,0.0 -49.5358564,-21.4330203993566,0.0 -49.535898,-21.4327006993566,0.0 -49.5357148,-21.4324722993566,0.0 -49.5356548,-21.4321913993567,0.0 -49.5357918,-21.4319714993567,0.0 -49.5361833,-21.4319810993567,0.0 -49.5366829,-21.4322754993567,0.0 -49.5370587,-21.4321989993567,0.0 -49.5371626,-21.4318934993567,0.0 -49.5369152,-21.4312407993567,0.0 -49.5369472,-21.4310136993567,0.0 -49.5371568,-21.4309110993567,0.0 -49.5377893,-21.4311820993567,0.0 -49.5380475,-21.4311014993567,0.0 -49.5379173,-21.4307168993567,0.0 -49.537951,-21.4304347993567,0.0 -49.5382009,-21.4302467993567,0.0 -49.5386967,-21.4301896993567,0.0 -49.5389897,-21.4300442993567,0.0 -49.5391072,-21.4297653993567,0.0 -49.5390762,-21.4293256993567,0.0 -49.5391667,-21.4290486993567,0.0 -49.5394249,-21.4288690993567,0.0 -49.5400518,-21.4286612993567,0.0 -49.5401507,-21.4285161993567,0.0 -49.5400373,-21.4276146993568,0.0 -49.5400732,-21.4271001993568,0.0 -49.5402213,-21.4269599993568,0.0 -49.5412767,-21.4270645993568,0.0 -49.5414552,-21.4269061993568,0.0 -49.5410911,-21.4264396993568,0.0 -49.5410783,-21.4262257993568,0.0 -49.5413656,-21.4260134993568,0.0 -49.5421733,-21.4261052993568,0.0 -49.5426103,-21.4259212993568,0.0 -49.5427161,-21.4249814993568,0.0 -49.5428639,-21.4248150993568,0.0 -49.5438372,-21.4247940993568,0.0 -49.5440552,-21.4247025993568,0.0 -49.5442169,-21.4244950993568,0.0 -49.5443459,-21.4239343993568,0.0 -49.5453986,-21.4236477993569,0.0 -49.5471205,-21.4226814993569,0.0 -49.5478646,-21.4201689993569,0.0 -49.5486076,-21.418770299357,0.0 -49.5491099,-21.418273499357,0.0 -49.5495357,-21.417853099357,0.0 -49.5509173,-21.417063399357,0.0 -49.5523774,-21.416673999357,0.0 -49.554041,-21.416638799357,0.0 -49.5559472,-21.416716199357,0.0 -49.5572379,-21.416505299357,0.0 -49.5577956,-21.416218099357,0.0 -49.5584651,-21.4158735993571,0.0 -49.5594997,-21.4150384993571,0.0 -49.5608418,-21.4136050993571,0.0 -49.5627265,-21.4113316993572,0.0 -49.5631873,-21.4108700993572,0.0 -49.5643613,-21.4096941993572,0.0 -49.5674182,-21.4060457993573,0.0 -49.5696057,-21.4030656993573,0.0 -49.5702381,-21.4020261993574,0.0 -49.5728789,-21.3969689993575,0.0 -49.5741361,-21.3948220993576,0.0 -49.5750747,-21.3930679993576,0.0 -49.5776477,-21.3882592993577,0.0 -49.5806463,-21.3832158993578,0.0 -49.5833811,-21.3794648993579,0.0 -49.5843542,-21.3785089993579,0.0 -49.5861242,-21.377238199358,0.0 -49.587236,-21.376439799358,0.0 -49.5892828,-21.375350799358,0.0 -49.5923113,-21.374273999358,0.0 -49.5932767,-21.3742793993581,0.0 -49.5978438,-21.374903699358,0.0 -49.5996015,-21.374895599358,0.0 -49.6008012,-21.374745799358,0.0 -49.6020683,-21.374435599358,0.0 -49.6030792,-21.3739230993581,0.0 -49.6041561,-21.3731680993581,0.0 -49.605173,-21.3722136993581,0.0 -49.6062442,-21.3712083993581,0.0 -49.6077145,-21.3696155993582,0.0 -49.6099389,-21.3676459993582,0.0 -49.6115341,-21.3664546993582,0.0 -49.6164377,-21.3634543993583,0.0 -49.6185071,-21.3620473993583,0.0 -49.6217023,-21.3593016993584,0.0 -49.6231624,-21.3578183993584,0.0 -49.6284218,-21.3544336993585,0.0 -49.6215454,-21.3567308993585,0.0 -49.6199634,-21.3566419993585,0.0 -49.6190052,-21.3567224993585,0.0 -49.6184909,-21.3568613993585,0.0 -49.6180298,-21.3571197993585,0.0 -49.6170615,-21.3580912993584,0.0 -49.6156644,-21.3582053993584,0.0 -49.614652,-21.3587431993584,0.0 -49.6081276,-21.3600510993584,0.0 -49.6074972,-21.3605536993584,0.0 -49.6073292,-21.3605898993584,0.0 -49.6063271,-21.3605240993584,0.0 -49.6053822,-21.3607075993584,0.0 -49.604413,-21.3605732993584,0.0 -49.6028978,-21.3602164993584,0.0 -49.6025618,-21.3602274993584,0.0 -49.6020524,-21.3603628993584,0.0 -49.6013761,-21.3611427993584,0.0 -49.6007191,-21.3613725993584,0.0 -49.5998537,-21.3610912993584,0.0 -49.5988282,-21.3610959993584,0.0 -49.5972295,-21.3613064993584,0.0 -49.5965209,-21.3616159993584,0.0 -49.5958285,-21.3615158993584,0.0 -49.5919786,-21.3616286993584,0.0 -49.5914195,-21.3617437993583,0.0 -49.5904452,-21.3622959993583,0.0 -49.5899427,-21.3624566993583,0.0 -49.5891022,-21.3624671993583,0.0 -49.5882957,-21.3617998993583,0.0 -49.5881674,-21.3617991993584,0.0 -49.5877714,-21.3621078993583,0.0 -49.587527,-21.3621500993583,0.0 -49.5870705,-21.3615171993584,0.0 -49.5862787,-21.3613549993584,0.0 -49.5861456,-21.3608404993584,0.0 -49.5854152,-21.3608167993584,0.0 -49.5851768,-21.3606609993584,0.0 -49.5851153,-21.3597518993584,0.0 -49.5849628,-21.3592422993584,0.0 -49.5850007,-21.3586872993584,0.0 -49.5851055,-21.3584737993584,0.0 -49.5859852,-21.3577001993585,0.0 -49.5860755,-21.3574880993585,0.0 -49.586077,-21.3565679993585,0.0 -49.586147,-21.3562300993585,0.0 -49.5863206,-21.3559714993585,0.0 -49.5869959,-21.3553555993585,0.0 -49.5881594,-21.3549580993585,0.0 -49.5882577,-21.3543838993585,0.0 -49.5883807,-21.3542383993585,0.0 -49.5904051,-21.3535641993586,0.0 -49.5905371,-21.3534062993586,0.0 -49.5907397,-21.3527293993586,0.0 -49.5906627,-21.3524038993586,0.0 -49.5899711,-21.3520838993586,0.0 -49.5898291,-21.3518980993586,0.0 -49.5896932,-21.3516367993586,0.0 -49.5896266,-21.3508996993586,0.0 -49.589143,-21.3503012993586,0.0 -49.588805,-21.3495750993586,0.0 -49.5879101,-21.3482529993587,0.0 -49.5877185,-21.3475972993587,0.0 -49.5878712,-21.3471389993587,0.0 -49.5883079,-21.3469196993587,0.0 -49.588558,-21.3469415993587,0.0 -49.5895214,-21.3473624993587,0.0 -49.5904832,-21.3475444993587,0.0 -49.5906794,-21.3475333993587,0.0 -49.5909523,-21.3473737993587,0.0 -49.5909261,-21.3470891993587,0.0 -49.5901593,-21.3465743993587,0.0 -49.589973,-21.3463234993587,0.0 -49.5898218,-21.3458662993587,0.0 -49.5898296,-21.3455419993587,0.0 -49.5903766,-21.3437340993588,0.0 -49.5904354,-21.3432841993588,0.0 -49.5903203,-21.3419410993588,0.0 -49.5897388,-21.3410399993588,0.0 -49.5896318,-21.3406198993589,0.0 -49.589517,-21.3401689993589,0.0 -49.588994,-21.3396335993589,0.0 -49.5888288,-21.3390298993589,0.0 -49.5884806,-21.3387098993589,0.0 -49.5879434,-21.3379387993589,0.0 -49.5875232,-21.3378971993589,0.0 -49.5866288,-21.3380746993589,0.0 -49.586063,-21.3379364993589,0.0 -49.5852277,-21.3374909993589,0.0 -49.5842592,-21.3374006993589,0.0 -49.5837959,-21.3369640993589,0.0 -49.5830995,-21.336679099359,0.0 -49.582365,-21.335994799359,0.0 -49.5819704,-21.335422099359,0.0 -49.5819477,-21.334627399359,0.0 -49.5819389,-21.334317299359,0.0 -49.5817365,-21.333702799359,0.0 -49.580753,-21.3319611993591,0.0 -49.5807869,-21.3304804993591,0.0 -49.5802095,-21.3294100993591,0.0 -49.5802153,-21.3292164993591,0.0 -49.5804453,-21.3289755993591,0.0 -49.5811362,-21.3286385993592,0.0 -49.5812891,-21.3283650993592,0.0 -49.5810292,-21.3275120993592,0.0 -49.5812786,-21.3271076993592,0.0 -49.581335,-21.3268351993592,0.0 -49.5810995,-21.3267442993592,0.0 -49.5803091,-21.3268938993592,0.0 -49.5800923,-21.3267908993592,0.0 -49.5799043,-21.3258910993592,0.0 -49.5795574,-21.3253691993592,0.0 -49.5795316,-21.3250710993592,0.0 -49.5796349,-21.3249377993592,0.0 -49.5803447,-21.3247445993592,0.0 -49.5803949,-21.3246124993593,0.0 -49.5802303,-21.3240899993593,0.0 -49.5802668,-21.3239314993593,0.0 -49.5814054,-21.3231042993593,0.0 -49.5816302,-21.3228434993593,0.0 -49.5821305,-21.3216264993593,0.0 -49.5821751,-21.3212328993593,0.0 -49.5820137,-21.3210528993593,0.0 -49.5813697,-21.3211441993593,0.0 -49.581147,-21.3210445993593,0.0 -49.5812691,-21.3203169993594,0.0 -49.5814905,-21.3200406993594,0.0 -49.5824772,-21.3193554993594,0.0 -49.5826698,-21.3190424993594,0.0 -49.582653,-21.3185742993594,0.0 -49.5822506,-21.3182618993594,0.0 -49.5821394,-21.3180173993594,0.0 -49.5822878,-21.3178275993594,0.0 -49.5826161,-21.3177478993594,0.0 -49.5828182,-21.3174701993594,0.0 -49.5828152,-21.3173132993594,0.0 -49.5825038,-21.3170536993594,0.0 -49.5824576,-21.3168244993594,0.0 -49.5831857,-21.3165001993594,0.0 -49.583433,-21.3162921993595,0.0 -49.5833971,-21.3156252993595,0.0 -49.583956,-21.3153460993595,0.0 -49.5840933,-21.3151730993595,0.0 -49.5842887,-21.3145746993595,0.0 -49.5843863,-21.3142759993595,0.0 -49.5842888,-21.3140228993595,0.0 -49.5839052,-21.3136946993595,0.0 -49.5841362,-21.3128401993595,0.0 -49.5830448,-21.3126105993595,0.0 -49.5824249,-21.3129611993595,0.0 -49.5820467,-21.3130647993595,0.0 -49.5812242,-21.3124240993595,0.0 -49.5809054,-21.3125094993595,0.0 -49.5803996,-21.3129756993595,0.0 -49.580075,-21.3130626993595,0.0 -49.5798775,-21.3129267993595,0.0 -49.5798562,-21.3124810993595,0.0 -49.5802133,-21.3119560993596,0.0 -49.5814367,-21.3110580993596,0.0 -49.5815777,-21.3107291993596,0.0 -49.5815402,-21.3105326993596,0.0 -49.5807913,-21.3102661993596,0.0 -49.5806049,-21.3100845993596,0.0 -49.5806185,-21.3099858993596,0.0 -49.5810882,-21.3096574993596,0.0 -49.581174,-21.3092388993596,0.0 -49.5814932,-21.3091417993596,0.0 -49.5823428,-21.3092019993596,0.0 -49.5826608,-21.3091102993596,0.0 -49.5830507,-21.3082615993596,0.0 -49.5830276,-21.3077148993597,0.0 -49.5833664,-21.3070892993597,0.0 -49.5835929,-21.3060615993597,0.0 -49.5839914,-21.3054727993597,0.0 -49.5840582,-21.3049148993597,0.0 -49.5839215,-21.3043290993597,0.0 -49.5835596,-21.3040816993597,0.0 -49.5832234,-21.3039975993598,0.0 -49.5827558,-21.3038803993598,0.0 -49.5825612,-21.3037464993598,0.0 -49.5822553,-21.3028525993598,0.0 -49.5820487,-21.3026669993598,0.0 -49.5816894,-21.3027548993598,0.0 -49.5812195,-21.3032498993598,0.0 -49.5808091,-21.3034941993598,0.0 -49.5803605,-21.3036320993598,0.0 -49.5793024,-21.3036484993598,0.0 -49.57834,-21.3040720993597,0.0 -49.5781093,-21.3039497993598,0.0 -49.5777199,-21.3031104993598,0.0 -49.5773323,-21.3026298993598,0.0 -49.577177,-21.3019237993598,0.0 -49.5770883,-21.3018601993598,0.0 -49.5759086,-21.3019760993598,0.0 -49.5754258,-21.3026429993598,0.0 -49.5751968,-21.3026594993598,0.0 -49.5750552,-21.3025566993598,0.0 -49.5746907,-21.3016593993598,0.0 -49.5744025,-21.3014652993598,0.0 -49.574248,-21.3011818993598,0.0 -49.5744875,-21.3005958993598,0.0 -49.574581,-21.3003669993598,0.0 -49.5743329,-21.3002171993598,0.0 -49.5741399,-21.3002535993598,0.0 -49.5737125,-21.3005522993598,0.0 -49.5735302,-21.3004592993598,0.0 -49.5735079,-21.3000134993598,0.0 -49.5740386,-21.2991333993599,0.0 -49.5739763,-21.2989299993599,0.0 -49.573848,-21.2985110993599,0.0 -49.5740283,-21.2980291993599,0.0 -49.5739602,-21.2978895993599,0.0 -49.573593,-21.2978528993599,0.0 -49.5731437,-21.2979816993599,0.0 -49.5725963,-21.2977807993599,0.0 -49.5717374,-21.2979384993599,0.0 -49.5713973,-21.2978655993599,0.0 -49.5711351,-21.2972530993599,0.0 -49.5704877,-21.2968863993599,0.0 -49.5702751,-21.29535969936,0.0 -49.5695719,-21.29469779936,0.0 -49.5692647,-21.29336859936,0.0 -49.5694481,-21.29265699936,0.0 -49.569575,-21.2913823993601,0.0 -49.5694817,-21.2912798993601,0.0 -49.5687731,-21.2910567993601,0.0 -49.5686384,-21.2907584993601,0.0 -49.5688666,-21.2905428993601,0.0 -49.5697359,-21.2904232993601,0.0 -49.5702256,-21.2901341993601,0.0 -49.5702994,-21.2898225993601,0.0 -49.570335,-21.2896720993601,0.0 -49.5701632,-21.2895503993601,0.0 -49.5694573,-21.2896201993601,0.0 -49.5687691,-21.2894236993601,0.0 -49.567896,-21.2893151993601,0.0 -49.567578,-21.2888607993601,0.0 -49.5675638,-21.2884989993601,0.0 -49.5677613,-21.2879580993601,0.0 -49.5682862,-21.2874293993601,0.0 -49.5689118,-21.2871744993602,0.0 -49.5688188,-21.2862907993602,0.0 -49.5689415,-21.2861830993602,0.0 -49.569428,-21.2860669993602,0.0 -49.5694449,-21.2858565993602,0.0 -49.5690727,-21.2856980993602,0.0 -49.5690198,-21.2855975993602,0.0 -49.5691101,-21.2853845993602,0.0 -49.5693336,-21.2853273993602,0.0 -49.569962,-21.2853961993602,0.0 -49.5703162,-21.2852846993602,0.0 -49.5703223,-21.2851451993602,0.0 -49.5701902,-21.2850172993602,0.0 -49.5696628,-21.2847646993602,0.0 -49.5695712,-21.2846054993602,0.0 -49.5696601,-21.2844680993602,0.0 -49.5698431,-21.2844422993602,0.0 -49.570533,-21.2845811993602,0.0 -49.5705819,-21.2843661993602,0.0 -49.5697385,-21.2832706993603,0.0 -49.5696963,-21.2828135993603,0.0 -49.5698541,-21.2826609993603,0.0 -49.5701184,-21.2826245993603,0.0 -49.5708421,-21.2826670993603,0.0 -49.5710345,-21.2824206993603,0.0 -49.5710364,-21.2821025993603,0.0 -49.5711332,-21.2819266993603,0.0 -49.5715226,-21.2815430993603,0.0 -49.5714877,-21.2810041993603,0.0 -49.5711624,-21.2803431993603,0.0 -49.5712668,-21.2800458993603,0.0 -49.5717706,-21.2799607993603,0.0 -49.5724721,-21.2800666993603,0.0 -49.5726361,-21.2799997993603,0.0 -49.5726909,-21.2798416993603,0.0 -49.5725574,-21.2796011993603,0.0 -49.5719933,-21.2795349993603,0.0 -49.5709753,-21.2794154993603,0.0 -49.5698739,-21.2789485993604,0.0 -49.5696982,-21.2787637993604,0.0 -49.5697195,-21.2783749993604,0.0 -49.5704261,-21.2775067993604,0.0 -49.5710307,-21.2764727993604,0.0 -49.5711423,-21.2751951993605,0.0 -49.5713956,-21.2749124993605,0.0 -49.5724035,-21.2743801993605,0.0 -49.5726797,-21.2743937993605,0.0 -49.5731687,-21.2749959993605,0.0 -49.5736474,-21.2752688993604,0.0 -49.574175,-21.2752565993604,0.0 -49.5744266,-21.2751595993604,0.0 -49.5746279,-21.2748142993605,0.0 -49.5744874,-21.2744510993605,0.0 -49.5735835,-21.2740866993605,0.0 -49.573364,-21.2738835993605,0.0 -49.5731848,-21.2733345993605,0.0 -49.5731632,-21.2724463993605,0.0 -49.5727129,-21.2718721993605,0.0 -49.5724341,-21.2711087993605,0.0 -49.5720976,-21.2692110993606,0.0 -49.5716935,-21.2679325993606,0.0 -49.5712291,-21.2673463993606,0.0 -49.5708828,-21.2672272993606,0.0 -49.5690306,-21.2674382993606,0.0 -49.5678947,-21.2680933993606,0.0 -49.5669195,-21.2683714993606,0.0 -49.5668524,-21.2686166993606,0.0 -49.5674053,-21.2692078993606,0.0 -49.5674285,-21.2694301993606,0.0 -49.5672232,-21.2695915993606,0.0 -49.5669813,-21.2695256993606,0.0 -49.5650145,-21.2683827993606,0.0 -49.564743,-21.2683701993606,0.0 -49.5643992,-21.2685522993606,0.0 -49.5643974,-21.2687747993606,0.0 -49.564783,-21.2691246993606,0.0 -49.5646672,-21.2694505993606,0.0 -49.5638963,-21.2697321993606,0.0 -49.5636876,-21.2702304993606,0.0 -49.5633823,-21.2704143993606,0.0 -49.5629217,-21.2702796993606,0.0 -49.5623151,-21.2698402993606,0.0 -49.5620462,-21.2698079993606,0.0 -49.5595416,-21.2702638993606,0.0 -49.5591308,-21.2701857993606,0.0 -49.5587941,-21.2701216993606,0.0 -49.5581761,-21.2694835993606,0.0 -49.5573968,-21.2677328993606,0.0 -49.5573755,-21.2671267993606,0.0 -49.55764,-21.2665055993607,0.0 -49.557919,-21.2661722993607,0.0 -49.5582318,-21.2658975993607,0.0 -49.5599101,-21.2648980993607,0.0 -49.560507,-21.2640567993607,0.0 -49.5607601,-21.2634280993607,0.0 -49.560785,-21.2623734993608,0.0 -49.5606369,-21.2622353993608,0.0 -49.559984,-21.2619892993608,0.0 -49.5597244,-21.2612930993608,0.0 -49.5589335,-21.2612794993608,0.0 -49.5584915,-21.2611687993608,0.0 -49.5580874,-21.2613707993608,0.0 -49.5579473,-21.2613481993608,0.0 -49.5578341,-21.2612343993608,0.0 -49.5576411,-21.2605696993608,0.0 -49.5574937,-21.2605008993608,0.0 -49.5573427,-21.2605239993608,0.0 -49.5572369,-21.2607383993608,0.0 -49.5574118,-21.2611114993608,0.0 -49.5573344,-21.2613446993608,0.0 -49.5569799,-21.2615281993608,0.0 -49.5565321,-21.2615173993608,0.0 -49.5561793,-21.2613890993608,0.0 -49.5561057,-21.2611122993608,0.0 -49.556461,-21.2607728993608,0.0 -49.5561365,-21.2606309993608,0.0 -49.5555335,-21.2608440993608,0.0 -49.5552451,-21.2613627993608,0.0 -49.5548877,-21.2615821993608,0.0 -49.5539467,-21.2616520993608,0.0 -49.5537349,-21.2617402993608,0.0 -49.553635,-21.2619547993608,0.0 -49.5539982,-21.2622815993608,0.0 -49.5539764,-21.2625576993608,0.0 -49.5527474,-21.2629758993607,0.0 -49.5519036,-21.2631464993607,0.0 -49.5502551,-21.2631219993607,0.0 -49.5493085,-21.2632520993607,0.0 -49.5491928,-21.2631904993607,0.0 -49.5491086,-21.2626565993607,0.0 -49.5490077,-21.2625826993607,0.0 -49.5482376,-21.2625497993608,0.0 -49.5480378,-21.2620795993608,0.0 -49.5481325,-21.2616566993608,0.0 -49.5480982,-21.2610979993608,0.0 -49.5469643,-21.2600551993608,0.0 -49.5468637,-21.2598749993608,0.0 -49.5469521,-21.2594024993608,0.0 -49.5483362,-21.2575167993609,0.0 -49.5486219,-21.2570231993609,0.0 -49.5487086,-21.2566704993609,0.0 -49.5487502,-21.2550332993609,0.0 -49.5486463,-21.2548042993609,0.0 -49.5480717,-21.254264699361,0.0 -49.5479508,-21.253957799361,0.0 -49.5478884,-21.253181199361,0.0 -49.5476132,-21.252717099361,0.0 -49.5460253,-21.252092199361,0.0 -49.5450904,-21.252028799361,0.0 -49.5442175,-21.252433799361,0.0 -49.5439478,-21.252652899361,0.0 -49.5433982,-21.253363799361,0.0 -49.5427807,-21.253607099361,0.0 -49.54134,-21.253888999361,0.0 -49.5406235,-21.253899799361,0.0 -49.5400765,-21.253852999361,0.0 -49.5394821,-21.253620999361,0.0 -49.539453,-21.253339099361,0.0 -49.5399876,-21.252328599361,0.0 -49.5402062,-21.250894299361,0.0 -49.5402164,-21.2498870993611,0.0 -49.5400179,-21.2492437993611,0.0 -49.5395107,-21.2487753993611,0.0 -49.5393884,-21.2483242993611,0.0 -49.5397113,-21.2479380993611,0.0 -49.5397198,-21.2476562993611,0.0 -49.5393315,-21.2466303993611,0.0 -49.5390842,-21.2463606993611,0.0 -49.5381238,-21.2459613993612,0.0 -49.5378527,-21.2455883993612,0.0 -49.5378333,-21.2454004993612,0.0 -49.5383168,-21.2445147993612,0.0 -49.5379868,-21.2436021993612,0.0 -49.5382458,-21.2427168993612,0.0 -49.5382038,-21.2420308993613,0.0 -49.5379779,-21.2416266993613,0.0 -49.5370931,-21.2409589993613,0.0 -49.5368832,-21.2410480993613,0.0 -49.536786,-21.2412031993613,0.0 -49.536626,-21.2418432993613,0.0 -49.5363234,-21.2420344993613,0.0 -49.5359241,-21.2418850993613,0.0 -49.5355294,-21.2421882993612,0.0 -49.5353912,-21.2422035993613,0.0 -49.5351277,-21.2419920993613,0.0 -49.5347749,-21.2414492993613,0.0 -49.5343729,-21.2413917993613,0.0 -49.5339545,-21.2414600993613,0.0 -49.533584,-21.2416313993613,0.0 -49.5330874,-21.2420886993613,0.0 -49.5327992,-21.2421215993613,0.0 -49.5326952,-21.2416700993613,0.0 -49.5332687,-21.2406488993613,0.0 -49.5332796,-21.2403184993613,0.0 -49.5330312,-21.2402452993613,0.0 -49.5321825,-21.2405841993613,0.0 -49.5309623,-21.2407483993613,0.0 -49.5308819,-21.2406326993613,0.0 -49.530837,-21.2399195993613,0.0 -49.5305382,-21.2391853993613,0.0 -49.5306022,-21.2391104993613,0.0 -49.5309856,-21.2391485993613,0.0 -49.5310121,-21.2390023993613,0.0 -49.5305488,-21.2380375993613,0.0 -49.5303053,-21.2378977993613,0.0 -49.5297862,-21.2381093993613,0.0 -49.5296405,-21.2380532993613,0.0 -49.529491,-21.2377365993614,0.0 -49.5291867,-21.2374437993614,0.0 -49.5293078,-21.2367206993614,0.0 -49.528777,-21.2366165993614,0.0 -49.5286906,-21.2362871993614,0.0 -49.5285454,-21.2361165993614,0.0 -49.5280978,-21.2361002993614,0.0 -49.5272436,-21.2364948993614,0.0 -49.5270723,-21.2364840993614,0.0 -49.5268587,-21.2360602993614,0.0 -49.5264272,-21.2355721993614,0.0 -49.5263502,-21.2352204993614,0.0 -49.5265945,-21.2350124993614,0.0 -49.5268418,-21.2346107993614,0.0 -49.527608,-21.2345769993614,0.0 -49.5279426,-21.2344118993614,0.0 -49.5282268,-21.2340958993614,0.0 -49.5287446,-21.2331273993615,0.0 -49.5293402,-21.2323293993615,0.0 -49.5294279,-21.2319766993615,0.0 -49.5294212,-21.2312744993615,0.0 -49.5292766,-21.2310192993615,0.0 -49.5287845,-21.2311053993615,0.0 -49.5286889,-21.2310153993615,0.0 -49.5287862,-21.2303799993615,0.0 -49.5285431,-21.2302897993615,0.0 -49.5275024,-21.2303532993615,0.0 -49.5266183,-21.2306209993615,0.0 -49.5261339,-21.2306099993615,0.0 -49.5260469,-21.2304895993615,0.0 -49.5261351,-21.2291356993616,0.0 -49.5264236,-21.2290270993616,0.0 -49.5268312,-21.2291225993616,0.0 -49.5272962,-21.2290438993616,0.0 -49.5279693,-21.2296978993616,0.0 -49.528346,-21.2297970993615,0.0 -49.5284621,-21.2297487993616,0.0 -49.5285228,-21.2295268993616,0.0 -49.5284602,-21.2292052993616,0.0 -49.5282556,-21.2288655993616,0.0 -49.5274624,-21.2284219993616,0.0 -49.5271329,-21.2283546993616,0.0 -49.5252231,-21.2285717993616,0.0 -49.5238889,-21.2284616993616,0.0 -49.5231805,-21.2281464993616,0.0 -49.5228929,-21.2281271993616,0.0 -49.5223928,-21.2282842993616,0.0 -49.5221285,-21.2286115993616,0.0 -49.5219854,-21.2286284993616,0.0 -49.5217949,-21.2284288993616,0.0 -49.5217799,-21.2275858993616,0.0 -49.5216926,-21.2274447993616,0.0 -49.5209178,-21.2270304993616,0.0 -49.5194196,-21.2269889993616,0.0 -49.5185862,-21.2272075993616,0.0 -49.5181491,-21.2275113993616,0.0 -49.5179144,-21.2279412993616,0.0 -49.5177106,-21.2280539993616,0.0 -49.517668,-21.2281861993616,0.0 -49.5171436,-21.2285741993616,0.0 -49.5158504,-21.2291445993616,0.0 -49.5148812,-21.2303786993615,0.0 -49.5144345,-21.2311748993615,0.0 -49.5138731,-21.2317708993615,0.0 -49.5123671,-21.2334230993615,0.0 -49.5116716,-21.2339854993614,0.0 -49.5113816,-21.2342066993614,0.0 -49.5110558,-21.2345160993614,0.0 -49.5107475,-21.2348281993614,0.0 -49.5101726,-21.2355384993614,0.0 -49.5099316,-21.2361344993614,0.0 -49.5097475,-21.2374434993614,0.0 -49.5081848,-21.2392667993613,0.0 -49.5075081,-21.2397816993613,0.0 -49.5066676,-21.2402541993613,0.0 -49.5056853,-21.2403559993613,0.0 -49.505413,-21.2406578993613,0.0 -49.5045762,-21.2424441993612,0.0 -49.5035362,-21.2442556993612,0.0 -49.5025881,-21.2454820993612,0.0 -49.5014997,-21.2471084993611,0.0 -49.5011595,-21.2474238993611,0.0 -49.4871681,-21.2603926993608,0.0</coordinates>
</LinearRing>
</outerBoundaryIs>
</Polygon>
</MultiGeometry>
</Placemark>
</Folder>
</Document></kml>
