<?xml version='1.0' encoding='UTF-8'?>
<kml xmlns:xsd="http://www.w3.org/2001/XMLSchema" xmlns:gx="http://www.google.com/kml/ext/2.2" xmlns:atom="http://www.w3.org/2005/Atom" xmlns="http://www.opengis.net/kml/2.2">
<Document>
<name>sao_caetano_do_sul_3548807_localidades_2022</name>
<visibility>1</visibility>
<Schema name="01. Cidade" id="kml_schema_ft_01._Cidade">
<SimpleField type="xsd:string" name="CD_UF">
<displayName>CD_UF</displayName>
</SimpleField>
<SimpleField type="xsd:string" name="NM_UF">
<displayName>NM_UF</displayName>
</SimpleField>
<SimpleField type="xsd:string" name="SIGLA_UF">
<displayName>SIGLA_UF</displayName>
</SimpleField>
<SimpleField type="xsd:string" name="CD_MUN">
<displayName>CD_MUN</displayName>
</SimpleField>
<SimpleField type="xsd:string" name="NM_MUN">
<displayName>NM_MUN</displayName>
</SimpleField>
<SimpleField type="xsd:string" name="CD_RGINT">
<displayName>CD_RGINT</displayName>
</SimpleField>
<SimpleField type="xsd:string" name="NM_RGINT">
<displayName>NM_RGINT</displayName>
</SimpleField>
<SimpleField type="xsd:string" name="CD_RGI">
<displayName>CD_RGI</displayName>
</SimpleField>
<SimpleField type="xsd:string" name="NM_RGI">
<displayName>NM_RGI</displayName>
</SimpleField>
<SimpleField type="xsd:string" name="CT_LOCALIDADE">
<displayName>CT_LOCALIDADE</displayName>
</SimpleField>
<SimpleField type="xsd:string" name="SCT_LOCALIDADE">
<displayName>SCT_LOCALIDADE</displayName>
</SimpleField>
<SimpleField type="xsd:string" name="CD_LOCALIDADE">
<displayName>CD_LOCALIDADE</displayName>
</SimpleField>
<SimpleField type="xsd:string" name="NM_LOCALIDADE">
<displayName>NM_LOCALIDADE</displayName>
</SimpleField>
<SimpleField type="xsd:string" name="LAT_LOCALIDADE">
<displayName>LAT_LOCALIDADE</displayName>
</SimpleField>
<SimpleField type="xsd:string" name="LONG_LOCALIDADE">
<displayName>LONG_LOCALIDADE</displayName>
</SimpleField>
</Schema>
<Schema name="Município" id="kml_schema_ft_Município">
<SimpleField type="xsd:string" name="CD_UF">
<displayName>CD_UF</displayName>
</SimpleField>
<SimpleField type="xsd:string" name="NM_UF">
<displayName>NM_UF</displayName>
</SimpleField>
<SimpleField type="xsd:string" name="CD_MUN">
<displayName>CD_MUN</displayName>
</SimpleField>
<SimpleField type="xsd:string" name="NM_MUN">
<displayName>NM_MUN</displayName>
</SimpleField>
<SimpleField type="xsd:string" name="CD_RGINT">
<displayName>CD_RGINT</displayName>
</SimpleField>
<SimpleField type="xsd:string" name="NM_RGINT">
<displayName>NM_RGINT</displayName>
</SimpleField>
<SimpleField type="xsd:string" name="CD_RGI">
<displayName>CD_RGI</displayName>
</SimpleField>
<SimpleField type="xsd:string" name="NM_RGI">
<displayName>NM_RGI</displayName>
</SimpleField>
</Schema>
<Folder id="01. Cidade">
<name>01. Cidade</name>
<Folder id="01.03. Sede Municipal">
<name>01.03. Sede Municipal</name>
<Placemark id="01.03. Sede Municipal">
<name>São Caetano do Sul [3548807]</name>
<visibility>1</visibility>
<snippet> </snippet>
<description>&lt;center&gt;&lt;table&gt;&lt;tr&gt;&lt;th colspan='2' align='center'&gt;&lt;em&gt;Atributos&lt;/em&gt;&lt;/th&gt;&lt;/tr&gt;&lt;tr bgcolor="#E3E3F3"&gt;
&lt;th&gt;CD_UF&lt;/th&gt;
&lt;td&gt;35&lt;/td&gt;
&lt;/tr&gt;&lt;tr bgcolor=""&gt;
&lt;th&gt;NM_UF&lt;/th&gt;
&lt;td&gt;São Paulo&lt;/td&gt;
&lt;/tr&gt;&lt;tr bgcolor="#E3E3F3"&gt;
&lt;th&gt;SIGLA_UF&lt;/th&gt;
&lt;td&gt;SP&lt;/td&gt;
&lt;/tr&gt;&lt;tr bgcolor=""&gt;
&lt;th&gt;CD_MUN&lt;/th&gt;
&lt;td&gt;3548807&lt;/td&gt;
&lt;/tr&gt;&lt;tr bgcolor="#E3E3F3"&gt;
&lt;th&gt;NM_MUN&lt;/th&gt;
&lt;td&gt;São Caetano do Sul&lt;/td&gt;
&lt;/tr&gt;&lt;tr bgcolor=""&gt;
&lt;th&gt;CD_RGINT&lt;/th&gt;
&lt;td&gt;3501&lt;/td&gt;
&lt;/tr&gt;&lt;tr bgcolor="#E3E3F3"&gt;
&lt;th&gt;NM_RGINT&lt;/th&gt;
&lt;td&gt;São Paulo&lt;/td&gt;
&lt;/tr&gt;&lt;tr bgcolor=""&gt;
&lt;th&gt;CD_RGI&lt;/th&gt;
&lt;td&gt;350001&lt;/td&gt;
&lt;/tr&gt;&lt;tr bgcolor="#E3E3F3"&gt;
&lt;th&gt;NM_RGI&lt;/th&gt;
&lt;td&gt;São Paulo&lt;/td&gt;
&lt;/tr&gt;&lt;tr bgcolor=""&gt;
&lt;th&gt;CT_LOCALIDADE&lt;/th&gt;
&lt;td&gt;Cidade&lt;/td&gt;
&lt;/tr&gt;&lt;tr bgcolor="#E3E3F3"&gt;
&lt;th&gt;SCT_LOCALIDADE&lt;/th&gt;
&lt;td&gt;Sede Municipal&lt;/td&gt;
&lt;/tr&gt;&lt;tr bgcolor=""&gt;
&lt;th&gt;CD_LOCALIDADE&lt;/th&gt;
&lt;td&gt;3548807&lt;/td&gt;
&lt;/tr&gt;&lt;tr bgcolor="#E3E3F3"&gt;
&lt;th&gt;NM_LOCALIDADE&lt;/th&gt;
&lt;td&gt;São Caetano do Sul&lt;/td&gt;
&lt;/tr&gt;&lt;tr bgcolor=""&gt;
&lt;th&gt;LAT_LOCALIDADE&lt;/th&gt;
&lt;td&gt;-23.633&lt;/td&gt;
&lt;/tr&gt;&lt;tr bgcolor="#E3E3F3"&gt;
&lt;th&gt;LONG_LOCALIDADE&lt;/th&gt;
&lt;td&gt;-46.5747&lt;/td&gt;
&lt;/tr&gt;&lt;/table&gt;&lt;/center&gt;</description>
<Style>
<IconStyle>
<color>ff00aaff</color>
<scale>1.0</scale>
<Icon>
<href>http://maps.google.com/mapfiles/kml/shapes/placemark_circle.png</href>
</Icon>
</IconStyle>
<LabelStyle>
<scale>1.0</scale>
</LabelStyle>
<LineStyle>
<color>ffffffff</color>
<width>3</width>
<gx:labelVisibility>1</gx:labelVisibility>
</LineStyle>
<PolyStyle>
<color>00ffffff</color>
</PolyStyle>
</Style>
<ExtendedData>
<SchemaData schemaUrl="#kml_schema_ft_01._Cidade">
<SimpleData name="CD_UF">35</SimpleData>
<SimpleData name="NM_UF">São Paulo</SimpleData>
<SimpleData name="SIGLA_UF">SP</SimpleData>
<SimpleData name="CD_MUN">3548807</SimpleData>
<SimpleData name="NM_MUN">São Caetano do Sul</SimpleData>
<SimpleData name="CD_RGINT">3501</SimpleData>
<SimpleData name="NM_RGINT">São Paulo</SimpleData>
<SimpleData name="CD_RGI">350001</SimpleData>
<SimpleData name="NM_RGI">São Paulo</SimpleData>
<SimpleData name="CT_LOCALIDADE">Cidade</SimpleData>
<SimpleData name="SCT_LOCALIDADE">Sede Municipal</SimpleData>
<SimpleData name="CD_LOCALIDADE">3548807</SimpleData>
<SimpleData name="NM_LOCALIDADE">São Caetano do Sul</SimpleData>
<SimpleData name="LAT_LOCALIDADE">-23.633</SimpleData>
<SimpleData name="LONG_LOCALIDADE">-46.5747</SimpleData>
</SchemaData>
</ExtendedData>
<Point>
<extrude>0</extrude>
<coordinates>-46.574672,-23.6329999993055,0.0</coordinates>
</Point>
</Placemark>
</Folder>
</Folder>
<Folder id="13. Referência">
<name>13. Referência</name>
<Placemark id="13. Referência">
<name>São Caetano do Sul [3548807]</name>
<visibility>1</visibility>
<snippet> </snippet>
<description>&lt;center&gt;&lt;table&gt;&lt;tr&gt;&lt;th colspan='2' align='center'&gt;&lt;em&gt;Attributes&lt;/em&gt;&lt;/th&gt;&lt;/tr&gt;&lt;tr bgcolor="#E3E3F3"&gt;
&lt;th&gt;CD_UF&lt;/th&gt;
&lt;td&gt;35&lt;/td&gt;
&lt;/tr&gt;&lt;tr bgcolor=""&gt;
&lt;th&gt;NM_UF&lt;/th&gt;
&lt;td&gt;São Paulo&lt;/td&gt;
&lt;/tr&gt;&lt;tr bgcolor="#E3E3F3"&gt;
&lt;th&gt;CD_MUN&lt;/th&gt;
&lt;td&gt;3548807&lt;/td&gt;
&lt;/tr&gt;&lt;tr bgcolor=""&gt;
&lt;th&gt;NM_MUN&lt;/th&gt;
&lt;td&gt;São Caetano do Sul&lt;/td&gt;
&lt;/tr&gt;&lt;tr bgcolor="#E3E3F3"&gt;
&lt;th&gt;CD_RGINT&lt;/th&gt;
&lt;td&gt;3501&lt;/td&gt;
&lt;/tr&gt;&lt;tr bgcolor=""&gt;
&lt;th&gt;NM_RGINT&lt;/th&gt;
&lt;td&gt;São Paulo&lt;/td&gt;
&lt;/tr&gt;&lt;tr bgcolor="#E3E3F3"&gt;
&lt;th&gt;CD_RGI&lt;/th&gt;
&lt;td&gt;350001&lt;/td&gt;
&lt;/tr&gt;&lt;tr bgcolor=""&gt;
&lt;th&gt;NM_RGI&lt;/th&gt;
&lt;td&gt;São Paulo&lt;/td&gt;
&lt;/tr&gt;&lt;/table&gt;&lt;/center&gt;</description>
<Style>
<IconStyle>
<scale>0.7</scale>
</IconStyle>
<LabelStyle>
<scale>0.7</scale>
</LabelStyle>
<LineStyle>
<color>ffffffff</color>
<width>3</width>
<gx:labelVisibility>1</gx:labelVisibility>
</LineStyle>
<PolyStyle>
<color>00ffffff</color>
</PolyStyle>
</Style>
<ExtendedData>
<SchemaData schemaUrl="#kml_schema_ft_Município">
<SimpleData name="CD_UF">35</SimpleData>
<SimpleData name="NM_UF">São Paulo</SimpleData>
<SimpleData name="CD_MUN">3548807</SimpleData>
<SimpleData name="NM_MUN">São Caetano do Sul</SimpleData>
<SimpleData name="CD_RGINT">3501</SimpleData>
<SimpleData name="NM_RGINT">São Paulo</SimpleData>
<SimpleData name="CD_RGI">350001</SimpleData>
<SimpleData name="NM_RGI">São Paulo</SimpleData>
</SchemaData>
</ExtendedData>
<MultiGeometry>
<Polygon>
<extrude>0</extrude>
<tessellate>1</tessellate>
<outerBoundaryIs>
<LinearRing>
<coordinates>-46.556494,-23.612013299306,0.0 -46.5564907,-23.612011999306,0.0 -46.556426,-23.611987999306,0.0 -46.5562,-23.611866999306,0.0 -46.555703,-23.611561999306,0.0 -46.555614,-23.611507999306,0.0 -46.55468,-23.610935999306,0.0 -46.554293,-23.610698999306,0.0 -46.554107,-23.610570999306,0.0 -46.553979,-23.610448999306,0.0 -46.553885,-23.6103309993061,0.0 -46.55379,-23.6101859993061,0.0 -46.553716,-23.6100389993061,0.0 -46.553534,-23.6095499993061,0.0 -46.553445,-23.6093219993061,0.0 -46.553362,-23.6091489993061,0.0 -46.553257,-23.6089689993061,0.0 -46.553104,-23.6087749993061,0.0 -46.552871,-23.6084989993061,0.0 -46.5527416,-23.6083593993061,0.0 -46.552668,-23.6082799993061,0.0 -46.552258,-23.6078379993061,0.0 -46.552173,-23.6077459993061,0.0 -46.552039,-23.6076009993061,0.0 -46.551959,-23.6075149993061,0.0 -46.551803,-23.6073469993061,0.0 -46.551309,-23.6068129993061,0.0 -46.55067,-23.6061219993062,0.0 -46.550476,-23.6059259993062,0.0 -46.5504,-23.6058684993062,0.0 -46.550324,-23.6058109993062,0.0 -46.550137,-23.6057069993062,0.0 -46.549959,-23.6056379993062,0.0 -46.549738,-23.6055759993062,0.0 -46.54947,-23.6055569993062,0.0 -46.549277,-23.6055629993062,0.0 -46.549268,-23.6055640993062,0.0 -46.54901,-23.6055969993062,0.0 -46.5488982,-23.6056272993062,0.0 -46.548733,-23.6056719993062,0.0 -46.548531,-23.6057559993062,0.0 -46.548282,-23.6058989993062,0.0 -46.548078,-23.6060529993061,0.0 -46.548043,-23.6060919993061,0.0 -46.5479317,-23.6062045993061,0.0 -46.547914,-23.6062224993061,0.0 -46.5479088,-23.6062276993061,0.0 -46.5478205,-23.6063170993061,0.0 -46.5474919,-23.6067643993061,0.0 -46.5471038,-23.6072928993061,0.0 -46.5470099,-23.6074207993061,0.0 -46.5469097,-23.6075657993061,0.0 -46.5467996,-23.6077251993061,0.0 -46.5467072,-23.6078589993061,0.0 -46.5465538,-23.6080810993061,0.0 -46.5463439,-23.6083849993061,0.0 -46.5461591,-23.6086524993061,0.0 -46.5460202,-23.6088534993061,0.0 -46.5459261,-23.6089896993061,0.0 -46.5458295,-23.6091295993061,0.0 -46.5457989,-23.6091738993061,0.0 -46.5457876,-23.6091902993061,0.0 -46.544646,-23.610842999306,0.0 -46.5446895,-23.610847699306,0.0 -46.5448376,-23.610863599306,0.0 -46.5449703,-23.610877899306,0.0 -46.545686,-23.610954999306,0.0 -46.545793,-23.610970999306,0.0 -46.545922,-23.610996999306,0.0 -46.545974,-23.611014999306,0.0 -46.5460207,-23.611042699306,0.0 -46.5460254,-23.611045499306,0.0 -46.546028,-23.611046999306,0.0 -46.546065,-23.611075999306,0.0 -46.5460835,-23.611096999306,0.0 -46.546102,-23.611117999306,0.0 -46.5461192,-23.611143799306,0.0 -46.546128,-23.611156999306,0.0 -46.546146,-23.611241999306,0.0 -46.546138,-23.611352999306,0.0 -46.5461021,-23.611709099306,0.0 -46.546081,-23.611917999306,0.0 -46.545825,-23.613917999306,0.0 -46.545789,-23.614110999306,0.0 -46.545742,-23.614374999306,0.0 -46.54568,-23.614632999306,0.0 -46.545406,-23.6158479993059,0.0 -46.548037,-23.6163899993059,0.0 -46.54814,-23.6164019993059,0.0 -46.548257,-23.6164079993059,0.0 -46.54838,-23.6163989993059,0.0 -46.548604,-23.6163659993059,0.0 -46.548854,-23.6163119993059,0.0 -46.54996,-23.6160619993059,0.0 -46.550101,-23.6160359993059,0.0 -46.550219,-23.6160259993059,0.0 -46.550315,-23.6160279993059,0.0 -46.550423,-23.6160439993059,0.0 -46.550529,-23.6160749993059,0.0 -46.55064,-23.6161129993059,0.0 -46.550757,-23.6161749993059,0.0 -46.550862,-23.6162609993059,0.0 -46.55095,-23.6163449993059,0.0 -46.55101,-23.6164169993059,0.0 -46.551159,-23.6166669993059,0.0 -46.5511314,-23.6166823993059,0.0 -46.5511219,-23.6166876993059,0.0 -46.550779,-23.6168789993059,0.0 -46.55059,-23.6169839993059,0.0 -46.550243,-23.6172069993059,0.0 -46.550033,-23.6173449993059,0.0 -46.549849,-23.6174849993059,0.0 -46.5495203,-23.6177728993059,0.0 -46.549274,-23.6179889993059,0.0 -46.548805,-23.6184719993059,0.0 -46.548571,-23.6187479993059,0.0 -46.5484528,-23.6188987993059,0.0 -46.5484,-23.6189659993059,0.0 -46.548006,-23.6195349993058,0.0 -46.547723,-23.6200209993058,0.0 -46.546787,-23.6215749993058,0.0 -46.545873,-23.6230889993058,0.0 -46.545388,-23.6238929993058,0.0 -46.545198,-23.6242169993057,0.0 -46.545033,-23.6244959993057,0.0 -46.544989,-23.6245689993057,0.0 -46.545013,-23.6245779993057,0.0 -46.545038,-23.6245959993057,0.0 -46.545068,-23.6246259993057,0.0 -46.545112,-23.6246639993057,0.0 -46.54517,-23.6246949993057,0.0 -46.545378,-23.6248099993057,0.0 -46.54544,-23.6248549993057,0.0 -46.545537,-23.6249219993057,0.0 -46.545645,-23.6250099993057,0.0 -46.545712,-23.6250539993057,0.0 -46.545831,-23.6251179993057,0.0 -46.545993,-23.6252229993057,0.0 -46.5460797,-23.6252865993057,0.0 -46.546087,-23.6252919993057,0.0 -46.5461385,-23.6253304993057,0.0 -46.546217,-23.6253889993057,0.0 -46.5462432,-23.6254141993057,0.0 -46.546272,-23.6254419993057,0.0 -46.546361,-23.6255239993057,0.0 -46.54648,-23.6256409993057,0.0 -46.546642,-23.6257739993057,0.0 -46.546722,-23.6258479993057,0.0 -46.5467947,-23.6259096993057,0.0 -46.546816,-23.6259277993057,0.0 -46.54684,-23.6259481993057,0.0 -46.5468789,-23.6259812993057,0.0 -46.5468824,-23.6259841993057,0.0 -46.547062,-23.6261369993057,0.0 -46.547314,-23.6263309993057,0.0 -46.547559,-23.6265409993057,0.0 -46.547757,-23.6267049993057,0.0 -46.547862,-23.6268119993057,0.0 -46.547972,-23.6269319993057,0.0 -46.548238,-23.6272573993057,0.0 -46.5483393,-23.6273812993057,0.0 -46.548402,-23.6274579993057,0.0 -46.548464,-23.6275599993057,0.0 -46.5484753,-23.6276143993057,0.0 -46.548482,-23.6276469993057,0.0 -46.548525,-23.6277959993057,0.0 -46.548535,-23.6279319993057,0.0 -46.548549,-23.6280029993057,0.0 -46.548568,-23.6280579993057,0.0 -46.548763,-23.6282949993057,0.0 -46.548899,-23.6284729993057,0.0 -46.549004,-23.6286439993056,0.0 -46.549067,-23.6287619993056,0.0 -46.5491219,-23.6289001993056,0.0 -46.549158,-23.6289909993056,0.0 -46.549247,-23.6292279993056,0.0 -46.549305,-23.6295194993056,0.0 -46.549331,-23.6296499993056,0.0 -46.549345,-23.6297149993056,0.0 -46.549438,-23.6301529993056,0.0 -46.5494664,-23.6302622993056,0.0 -46.549548,-23.6305769993056,0.0 -46.549615,-23.6308249993056,0.0 -46.54971,-23.6311989993056,0.0 -46.549779,-23.6315619993056,0.0 -46.549878,-23.6322629993056,0.0 -46.5499565,-23.6327005993056,0.0 -46.549981,-23.6328369993056,0.0 -46.5499944,-23.6328871993055,0.0 -46.5500068,-23.6329331993056,0.0 -46.5500244,-23.6329991993056,0.0 -46.550121,-23.6333599993055,0.0 -46.550181,-23.6335999993055,0.0 -46.550201,-23.6338569993055,0.0 -46.5502023,-23.6338857993055,0.0 -46.55023,-23.6344869993055,0.0 -46.550256,-23.6348629993055,0.0 -46.550261,-23.6351389993055,0.0 -46.550301,-23.6354449993055,0.0 -46.550375,-23.6358709993055,0.0 -46.550416,-23.6362519993055,0.0 -46.550522,-23.6369799993055,0.0 -46.550591,-23.6373759993055,0.0 -46.550656,-23.6377759993054,0.0 -46.550744,-23.6381429993054,0.0 -46.550839,-23.6383229993054,0.0 -46.550958,-23.6384959993054,0.0 -46.551139,-23.6386329993054,0.0 -46.551426,-23.6387949993054,0.0 -46.551532,-23.6388729993054,0.0 -46.551571,-23.6389209993054,0.0 -46.551613,-23.6390269993054,0.0 -46.55166,-23.6391939993054,0.0 -46.551664,-23.6393079993054,0.0 -46.551636,-23.6394209993054,0.0 -46.551597,-23.6395469993054,0.0 -46.551601,-23.6398259993054,0.0 -46.551696,-23.6402349993054,0.0 -46.55185,-23.6411479993054,0.0 -46.5518852,-23.6413041993054,0.0 -46.551929,-23.6414989993054,0.0 -46.551941,-23.6416909993054,0.0 -46.551903,-23.6419339993053,0.0 -46.551838,-23.6420909993053,0.0 -46.551734,-23.6422149993053,0.0 -46.5516809,-23.6423080993053,0.0 -46.551673,-23.6423219993053,0.0 -46.551666,-23.6423494993053,0.0 -46.551659,-23.6423769993053,0.0 -46.5516577,-23.6423908993053,0.0 -46.5516538,-23.6424346993053,0.0 -46.551653,-23.6424429993053,0.0 -46.5516701,-23.6425040993053,0.0 -46.5516786,-23.6425344993053,0.0 -46.5522839,-23.6428410993053,0.0 -46.552319,-23.6428587993053,0.0 -46.5523538,-23.6428764993053,0.0 -46.5532914,-23.6433450993053,0.0 -46.5533169,-23.6433577993053,0.0 -46.554274,-23.6438593993053,0.0 -46.554287,-23.6438661993053,0.0 -46.554683,-23.6440786993053,0.0 -46.5546903,-23.6440830993053,0.0 -46.55474,-23.6441129993053,0.0 -46.5547426,-23.6441180993053,0.0 -46.5547433,-23.6441193993053,0.0 -46.5547439,-23.6441206993053,0.0 -46.5547452,-23.6441232993053,0.0 -46.554767,-23.6441659993053,0.0 -46.5548078,-23.6443991993053,0.0 -46.554809,-23.6444059993053,0.0 -46.5548191,-23.6444772993053,0.0 -46.5548356,-23.6445936993053,0.0 -46.554906,-23.6450899993053,0.0 -46.554929,-23.6452699993053,0.0 -46.5549405,-23.6453666993053,0.0 -46.554949,-23.6454379993053,0.0 -46.554964,-23.6455669993053,0.0 -46.554972,-23.6456206993053,0.0 -46.5549893,-23.6457421993053,0.0 -46.555063,-23.6462529993053,0.0 -46.55508,-23.6463589993052,0.0 -46.5550893,-23.6464636993053,0.0 -46.555095,-23.6465279993052,0.0 -46.5551099,-23.6466470993052,0.0 -46.5551482,-23.6469541993052,0.0 -46.555179,-23.6472010993052,0.0 -46.5552048,-23.6474073993052,0.0 -46.5552541,-23.6478379993052,0.0 -46.5553085,-23.6482389993052,0.0 -46.5553343,-23.6482911993052,0.0 -46.555391,-23.6484059993052,0.0 -46.5553941,-23.6484111993052,0.0 -46.5554131,-23.6484426993052,0.0 -46.555442,-23.6484907993052,0.0 -46.555498,-23.6485839993052,0.0 -46.555569,-23.6486759993052,0.0 -46.555624,-23.6487319993052,0.0 -46.555701,-23.6487839993052,0.0 -46.555796,-23.6488319993052,0.0 -46.555891,-23.6488519993052,0.0 -46.555959,-23.6488609993052,0.0 -46.5559862,-23.6488556993052,0.0 -46.55601,-23.6488509993052,0.0 -46.556057,-23.6488449993052,0.0 -46.5560807,-23.6488351993052,0.0 -46.556164,-23.6488009993052,0.0 -46.5562725,-23.6487246993052,0.0 -46.556339,-23.6486779993052,0.0 -46.556377,-23.6486458993052,0.0 -46.556551,-23.6484989993052,0.0 -46.5566257,-23.6484168993052,0.0 -46.556652,-23.6483879993052,0.0 -46.556679,-23.6483529993052,0.0 -46.556706,-23.6483179993052,0.0 -46.556805,-23.6481709993052,0.0 -46.556898,-23.6480329993052,0.0 -46.55697,-23.6478929993052,0.0 -46.557041,-23.6477329993052,0.0 -46.557104,-23.6475579993052,0.0 -46.5571337,-23.6474719993052,0.0 -46.5571589,-23.6473991993052,0.0 -46.557169,-23.6473699993052,0.0 -46.5572382,-23.6471667993052,0.0 -46.557314,-23.6469439993052,0.0 -46.557378,-23.6467619993052,0.0 -46.5575054,-23.6463915993053,0.0 -46.557519,-23.6463519993052,0.0 -46.5575755,-23.6462263993053,0.0 -46.557591,-23.6461919993053,0.0 -46.5576349,-23.6461213993053,0.0 -46.557675,-23.6460569993053,0.0 -46.557778,-23.6458949993053,0.0 -46.5578081,-23.6458590993053,0.0 -46.557851,-23.6458079993053,0.0 -46.5579577,-23.6457063993053,0.0 -46.557977,-23.6456879993053,0.0 -46.5580175,-23.6456534993053,0.0 -46.558234,-23.6454689993053,0.0 -46.5582742,-23.6454356993053,0.0 -46.5586546,-23.6451196993053,0.0 -46.558694,-23.6450869993053,0.0 -46.558699,-23.6450830993053,0.0 -46.5587737,-23.6450247993053,0.0 -46.5589647,-23.6448756993053,0.0 -46.559336,-23.6445859993053,0.0 -46.5594977,-23.6444616993053,0.0 -46.559734,-23.6442799993053,0.0 -46.559862,-23.6441889993053,0.0 -46.560038,-23.6440639993053,0.0 -46.5601793,-23.6439681993053,0.0 -46.560215,-23.6439439993053,0.0 -46.5602519,-23.6439220993053,0.0 -46.5604371,-23.6438119993053,0.0 -46.5605325,-23.6437552993053,0.0 -46.5605988,-23.6437158993053,0.0 -46.560871,-23.6442979993053,0.0 -46.560923,-23.6444209993053,0.0 -46.560977,-23.6445159993053,0.0 -46.561382,-23.6450619993053,0.0 -46.561718,-23.6454919993053,0.0 -46.561814,-23.6456159993053,0.0 -46.561861,-23.6456569993053,0.0 -46.561892,-23.6456799993053,0.0 -46.5619126,-23.6456902993053,0.0 -46.5619278,-23.6456977993053,0.0 -46.5619661,-23.6457168993053,0.0 -46.5621997,-23.6458330993053,0.0 -46.562987,-23.6462249993052,0.0 -46.563109,-23.6460159993053,0.0 -46.5632033,-23.6460573993053,0.0 -46.5632549,-23.6460800993053,0.0 -46.5642333,-23.6465102993052,0.0 -46.5643365,-23.6465555993052,0.0 -46.5645856,-23.6466650993052,0.0 -46.5646204,-23.6466803993052,0.0 -46.5646383,-23.6466882993052,0.0 -46.564649,-23.6466929993052,0.0 -46.564726,-23.6467369993052,0.0 -46.564812,-23.6468099993052,0.0 -46.565784,-23.6479452993052,0.0 -46.565836,-23.6480059993052,0.0 -46.56597,-23.6481749993052,0.0 -46.566102,-23.6483619993052,0.0 -46.5661511,-23.6484419993052,0.0 -46.5662434,-23.6485923993052,0.0 -46.5662791,-23.6486504993052,0.0 -46.5662951,-23.6486763993052,0.0 -46.5664081,-23.6488592993052,0.0 -46.5664909,-23.6489931993052,0.0 -46.5671276,-23.6500232993052,0.0 -46.5671304,-23.6500277993052,0.0 -46.5671331,-23.6500321993052,0.0 -46.567187,-23.6501193993052,0.0 -46.5672136,-23.6501625993052,0.0 -46.567471,-23.6500969993052,0.0 -46.5675793,-23.6500661993052,0.0 -46.56771,-23.6500289993052,0.0 -46.567851,-23.6499929993052,0.0 -46.568069,-23.6499383993052,0.0 -46.568394,-23.6498569993052,0.0 -46.569189,-23.6496464993052,0.0 -46.5697785,-23.6494903993052,0.0 -46.5705111,-23.6492962993052,0.0 -46.570535,-23.6492899993052,0.0 -46.5705485,-23.6492868993052,0.0 -46.5706001,-23.6492747993052,0.0 -46.5706925,-23.6492531993052,0.0 -46.5706969,-23.6492521993052,0.0 -46.570702,-23.6492509993052,0.0 -46.570857,-23.6492369993052,0.0 -46.5710883,-23.6492385993052,0.0 -46.5711195,-23.6492388993052,0.0 -46.571299,-23.6492929993052,0.0 -46.571475,-23.6493859993052,0.0 -46.5716969,-23.6495173993052,0.0 -46.5718474,-23.6496676993052,0.0 -46.572097,-23.6498879993052,0.0 -46.572543,-23.6503429993052,0.0 -46.572726,-23.6504729993052,0.0 -46.572919,-23.6505159993052,0.0 -46.573142,-23.6505699993052,0.0 -46.57335,-23.6505559993052,0.0 -46.573544,-23.6505299993052,0.0 -46.573809,-23.6504499993052,0.0 -46.57408,-23.6503419993052,0.0 -46.574228,-23.6502509993052,0.0 -46.574389,-23.6501569993052,0.0 -46.574568,-23.6499939993052,0.0 -46.574932,-23.6495269993052,0.0 -46.575034,-23.6493979993052,0.0 -46.575552,-23.6487539993052,0.0 -46.57605,-23.6480979993052,0.0 -46.5761271,-23.6480051993052,0.0 -46.576261,-23.6478439993052,0.0 -46.576512,-23.6475769993052,0.0 -46.5766491,-23.6474372993052,0.0 -46.5766961,-23.6473894993052,0.0 -46.5767771,-23.6473069993052,0.0 -46.576887,-23.6471949993052,0.0 -46.577754,-23.6463199993053,0.0 -46.578172,-23.6458749993053,0.0 -46.5786386,-23.6453748993053,0.0 -46.57904,-23.6449446993053,0.0 -46.5790541,-23.6449295993053,0.0 -46.579579,-23.6443669993053,0.0 -46.5799131,-23.6440283993053,0.0 -46.580026,-23.6439139993053,0.0 -46.580238,-23.6436779993053,0.0 -46.580524,-23.6433779993053,0.0 -46.580777,-23.6431479993053,0.0 -46.581014,-23.6429519993053,0.0 -46.581227,-23.6427799993053,0.0 -46.5813549,-23.6426884993053,0.0 -46.581452,-23.6426189993053,0.0 -46.581777,-23.6424019993053,0.0 -46.582406,-23.6420009993053,0.0 -46.582702,-23.6417979993054,0.0 -46.582842,-23.6416909993054,0.0 -46.582979,-23.6415679993054,0.0 -46.583128,-23.6414099993054,0.0 -46.583251,-23.6412789993054,0.0 -46.58332,-23.6411718993054,0.0 -46.583345,-23.6411329993054,0.0 -46.583385,-23.6410359993054,0.0 -46.58341,-23.6409759993054,0.0 -46.5834287,-23.6409044993054,0.0 -46.583501,-23.6406289993054,0.0 -46.583674,-23.6399959993054,0.0 -46.5839372,-23.6390328993054,0.0 -46.584096,-23.6384519993054,0.0 -46.584289,-23.6378449993054,0.0 -46.584392,-23.6374819993054,0.0 -46.5844943,-23.6370844993055,0.0 -46.584717,-23.6362189993055,0.0 -46.584799,-23.6358659993055,0.0 -46.5848078,-23.6358323993055,0.0 -46.5848511,-23.6356659993055,0.0 -46.584936,-23.6353399993055,0.0 -46.584958,-23.6351609993055,0.0 -46.584943,-23.6349429993055,0.0 -46.584905,-23.6347699993055,0.0 -46.584789,-23.6344379993055,0.0 -46.584698,-23.6342479993055,0.0 -46.584598,-23.6340569993055,0.0 -46.584483,-23.6339079993055,0.0 -46.5842,-23.6336249993055,0.0 -46.583872,-23.6333509993055,0.0 -46.583284,-23.6329799993056,0.0 -46.5831116,-23.6328920993056,0.0 -46.5829342,-23.6328015993056,0.0 -46.582692,-23.6326779993056,0.0 -46.582434,-23.6325189993056,0.0 -46.582347,-23.6324339993056,0.0 -46.58226,-23.6323099993056,0.0 -46.582195,-23.6321869993056,0.0 -46.582145,-23.6320909993056,0.0 -46.582016,-23.6317639993056,0.0 -46.581849,-23.6311709993056,0.0 -46.5817982,-23.6309385993056,0.0 -46.581705,-23.6305129993056,0.0 -46.581496,-23.6296319993056,0.0 -46.581479,-23.6295429993056,0.0 -46.581414,-23.6292229993056,0.0 -46.581391,-23.6290359993056,0.0 -46.581393,-23.6287919993056,0.0 -46.581431,-23.6285949993057,0.0 -46.581488,-23.6283989993057,0.0 -46.581539,-23.6282549993056,0.0 -46.581644,-23.6280489993057,0.0 -46.5816605,-23.6280285993057,0.0 -46.58175,-23.6279179993057,0.0 -46.581951,-23.6277179993057,0.0 -46.582278,-23.6274149993057,0.0 -46.5823076,-23.6273875993057,0.0 -46.582637,-23.6270829993057,0.0 -46.582767,-23.6269409993057,0.0 -46.5827792,-23.6269204993057,0.0 -46.582846,-23.6268079993057,0.0 -46.5828845,-23.6267262993057,0.0 -46.582942,-23.6266039993057,0.0 -46.582999,-23.6264069993057,0.0 -46.583037,-23.6261709993057,0.0 -46.583054,-23.6259709993057,0.0 -46.5830523,-23.6258388993057,0.0 -46.58305,-23.6256599993057,0.0 -46.5830163,-23.6254089993057,0.0 -46.5828932,-23.6249118993057,0.0 -46.582795,-23.6245149993057,0.0 -46.582584,-23.6232789993058,0.0 -46.582431,-23.6223029993058,0.0 -46.5823997,-23.6220659993058,0.0 -46.5823932,-23.6220167993058,0.0 -46.5823913,-23.6220024993058,0.0 -46.5823875,-23.6219738993058,0.0 -46.582385,-23.6219549993058,0.0 -46.582371,-23.6218449993058,0.0 -46.582327,-23.6215629993058,0.0 -46.5822,-23.6207719993058,0.0 -46.581979,-23.6197029993058,0.0 -46.5819289,-23.6194224993059,0.0 -46.5818526,-23.6189957993059,0.0 -46.581792,-23.6186569993059,0.0 -46.5817383,-23.6183382993059,0.0 -46.581486,-23.6168399993059,0.0 -46.5814605,-23.6166950993059,0.0 -46.58115,-23.614926999306,0.0 -46.580872,-23.613305999306,0.0 -46.580687,-23.612274999306,0.0 -46.5806386,-23.612056099306,0.0 -46.580636,-23.612044399306,0.0 -46.5806302,-23.612018199306,0.0 -46.5806283,-23.612009599306,0.0 -46.580624,-23.611989999306,0.0 -46.5806232,-23.611986199306,0.0 -46.580617,-23.611955999306,0.0 -46.5806042,-23.611894499306,0.0 -46.5805947,-23.611848899306,0.0 -46.5805849,-23.611801399306,0.0 -46.580533,-23.611551999306,0.0 -46.580354,-23.6105669993061,0.0 -46.580107,-23.6091199993061,0.0 -46.579876,-23.6077759993061,0.0 -46.5797655,-23.6071790993061,0.0 -46.5797536,-23.6071147993061,0.0 -46.579751,-23.6071009993061,0.0 -46.579746,-23.6070699993061,0.0 -46.5797387,-23.6070302993061,0.0 -46.579722,-23.6069389993061,0.0 -46.579707,-23.6068789993061,0.0 -46.579673,-23.6068029993061,0.0 -46.579624,-23.6067189993061,0.0 -46.579599,-23.6066379993061,0.0 -46.579591,-23.6065479993061,0.0 -46.579599,-23.6063959993061,0.0 -46.579599,-23.6062659993061,0.0 -46.579593,-23.6061669993061,0.0 -46.579556,-23.6060419993062,0.0 -46.579427,-23.6056529993062,0.0 -46.579386,-23.6054129993062,0.0 -46.579356,-23.6050899993062,0.0 -46.5793026,-23.6047123993062,0.0 -46.579296,-23.6046659993062,0.0 -46.5792863,-23.6045964993062,0.0 -46.579272,-23.6044939993062,0.0 -46.5792669,-23.6044132993062,0.0 -46.579255,-23.6042269993062,0.0 -46.579247,-23.6039829993062,0.0 -46.579276,-23.6036209993062,0.0 -46.579327,-23.6032549993062,0.0 -46.579418,-23.6027209993062,0.0 -46.579434,-23.6024719993062,0.0 -46.579448,-23.6021629993062,0.0 -46.579429,-23.6020419993062,0.0 -46.579395,-23.6019439993062,0.0 -46.579275,-23.6017509993062,0.0 -46.578951,-23.6012279993063,0.0 -46.578879,-23.6010279993063,0.0 -46.578822,-23.6008499993063,0.0 -46.578799,-23.6006899993063,0.0 -46.578792,-23.6005269993063,0.0 -46.578827,-23.6002659993063,0.0 -46.578907,-23.5999309993063,0.0 -46.578931,-23.5998259993063,0.0 -46.5789415,-23.5997807993063,0.0 -46.578958,-23.5997099993063,0.0 -46.578978,-23.5996209993063,0.0 -46.5789944,-23.5995488993063,0.0 -46.579,-23.5995239993063,0.0 -46.578787,-23.5996379993063,0.0 -46.578491,-23.5997959993063,0.0 -46.5778804,-23.6001224993063,0.0 -46.577498,-23.6003269993063,0.0 -46.577283,-23.6004299993063,0.0 -46.5771321,-23.6004870993063,0.0 -46.577106,-23.6004969993063,0.0 -46.577014,-23.6005209993063,0.0 -46.5769618,-23.6005346993063,0.0 -46.576896,-23.6005519993063,0.0 -46.576847,-23.6005649993063,0.0 -46.576566,-23.6006169993063,0.0 -46.576149,-23.6006639993063,0.0 -46.575668,-23.6007289993063,0.0 -46.575519,-23.6007639993063,0.0 -46.575363,-23.6008049993063,0.0 -46.575147,-23.6008829993063,0.0 -46.575021,-23.6009459993063,0.0 -46.574995,-23.6009599993063,0.0 -46.574803,-23.6010669993063,0.0 -46.574293,-23.6013829993063,0.0 -46.573436,-23.6019139993062,0.0 -46.5725907,-23.6024383993062,0.0 -46.5725818,-23.6024438993062,0.0 -46.5725437,-23.6024674993062,0.0 -46.571953,-23.6028339993062,0.0 -46.571223,-23.6032869993062,0.0 -46.570908,-23.6034819993062,0.0 -46.570709,-23.6036049993062,0.0 -46.570658,-23.6036369993062,0.0 -46.570579,-23.6036859993062,0.0 -46.5704742,-23.6037509993062,0.0 -46.569694,-23.6042349993062,0.0 -46.569545,-23.6043269993062,0.0 -46.569407,-23.6044129993062,0.0 -46.56933,-23.6044609993062,0.0 -46.568852,-23.6047576993062,0.0 -46.568339,-23.6050759993062,0.0 -46.568007,-23.6052909993062,0.0 -46.567976,-23.6053129993062,0.0 -46.5678,-23.6054429993062,0.0 -46.567639,-23.6055699993062,0.0 -46.567454,-23.6057449993062,0.0 -46.5672063,-23.6059725993062,0.0 -46.567195,-23.6059829993061,0.0 -46.567182,-23.6059933993062,0.0 -46.566937,-23.6061889993062,0.0 -46.566859,-23.6062469993061,0.0 -46.566293,-23.6066669993061,0.0 -46.566105,-23.6067949993061,0.0 -46.566029,-23.6068469993061,0.0 -46.565848,-23.6069709993061,0.0 -46.565353,-23.6072909993061,0.0 -46.5647024,-23.6076916993061,0.0 -46.563908,-23.6081809993061,0.0 -46.562857,-23.6088289993061,0.0 -46.562794,-23.6088679993061,0.0 -46.561979,-23.6093699993061,0.0 -46.561143,-23.6098849993061,0.0 -46.5610648,-23.6099332993061,0.0 -46.559837,-23.610690999306,0.0 -46.559439,-23.610935999306,0.0 -46.5590541,-23.611172699306,0.0 -46.559026,-23.611189999306,0.0 -46.55828,-23.611649999306,0.0 -46.557997,-23.611823999306,0.0 -46.5579142,-23.611868899306,0.0 -46.557796,-23.611932999306,0.0 -46.55766,-23.611990999306,0.0 -46.557491,-23.612043999306,0.0 -46.557345,-23.612066999306,0.0 -46.557157,-23.612088999306,0.0 -46.5569837,-23.612093799306,0.0 -46.556942,-23.612094999306,0.0 -46.5568626,-23.612086199306,0.0 -46.5568333,-23.612082999306,0.0 -46.556779,-23.612076999306,0.0 -46.556582,-23.612045999306,0.0 -46.556494,-23.612013299306,0.0</coordinates>
</LinearRing>
</outerBoundaryIs>
</Polygon>
</MultiGeometry>
</Placemark>
</Folder>
</Document></kml>
