<?xml version='1.0' encoding='UTF-8'?>
<kml xmlns:xsd="http://www.w3.org/2001/XMLSchema" xmlns:gx="http://www.google.com/kml/ext/2.2" xmlns:atom="http://www.w3.org/2005/Atom" xmlns="http://www.opengis.net/kml/2.2">
<Document>
<name>antonio_olinto_4101309_localidades_2022</name>
<visibility>1</visibility>
<Schema name="Povoados" id="kml_schema_ft_Povoados">
<SimpleField type="xsd:string" name="CD_UF">
<displayName>CD_UF</displayName>
</SimpleField>
<SimpleField type="xsd:string" name="NM_UF">
<displayName>NM_UF</displayName>
</SimpleField>
<SimpleField type="xsd:string" name="SIGLA_UF">
<displayName>SIGLA_UF</displayName>
</SimpleField>
<SimpleField type="xsd:string" name="CD_MUN">
<displayName>CD_MUN</displayName>
</SimpleField>
<SimpleField type="xsd:string" name="NM_MUN">
<displayName>NM_MUN</displayName>
</SimpleField>
<SimpleField type="xsd:string" name="CD_RGINT">
<displayName>CD_RGINT</displayName>
</SimpleField>
<SimpleField type="xsd:string" name="NM_RGINT">
<displayName>NM_RGINT</displayName>
</SimpleField>
<SimpleField type="xsd:string" name="CD_RGI">
<displayName>CD_RGI</displayName>
</SimpleField>
<SimpleField type="xsd:string" name="NM_RGI">
<displayName>NM_RGI</displayName>
</SimpleField>
<SimpleField type="xsd:string" name="CT_LOCALIDADE">
<displayName>CT_LOCALIDADE</displayName>
</SimpleField>
<SimpleField type="xsd:string" name="CD_LOCALIDADE">
<displayName>CD_LOCALIDADE</displayName>
</SimpleField>
<SimpleField type="xsd:string" name="NM_LOCALIDADE">
<displayName>NM_LOCALIDADE</displayName>
</SimpleField>
<SimpleField type="xsd:string" name="LAT_LOCALIDADE">
<displayName>LAT_LOCALIDADE</displayName>
</SimpleField>
<SimpleField type="xsd:string" name="LONG_LOCALIDADE">
<displayName>LONG_LOCALIDADE</displayName>
</SimpleField>
</Schema>
<Schema name="Localidades" id="kml_schema_ft_Localidades">
<SimpleField type="xsd:string" name="CD_UF">
<displayName>CD_UF</displayName>
</SimpleField>
<SimpleField type="xsd:string" name="NM_UF">
<displayName>NM_UF</displayName>
</SimpleField>
<SimpleField type="xsd:string" name="SIGLA_UF">
<displayName>SIGLA_UF</displayName>
</SimpleField>
<SimpleField type="xsd:string" name="CD_MUN">
<displayName>CD_MUN</displayName>
</SimpleField>
<SimpleField type="xsd:string" name="NM_MUN">
<displayName>NM_MUN</displayName>
</SimpleField>
<SimpleField type="xsd:string" name="CD_RGINT">
<displayName>CD_RGINT</displayName>
</SimpleField>
<SimpleField type="xsd:string" name="NM_RGINT">
<displayName>NM_RGINT</displayName>
</SimpleField>
<SimpleField type="xsd:string" name="CD_RGI">
<displayName>CD_RGI</displayName>
</SimpleField>
<SimpleField type="xsd:string" name="NM_RGI">
<displayName>NM_RGI</displayName>
</SimpleField>
<SimpleField type="xsd:string" name="CT_LOCALIDADE">
<displayName>CT_LOCALIDADE</displayName>
</SimpleField>
<SimpleField type="xsd:string" name="SCT_LOCALIDADE">
<displayName>SCT_LOCALIDADE</displayName>
</SimpleField>
<SimpleField type="xsd:string" name="CD_LOCALIDADE">
<displayName>CD_LOCALIDADE</displayName>
</SimpleField>
<SimpleField type="xsd:string" name="NM_LOCALIDADE">
<displayName>NM_LOCALIDADE</displayName>
</SimpleField>
</Schema>
<Schema name="01. Cidade" id="kml_schema_ft_01._Cidade">
<SimpleField type="xsd:string" name="CD_UF">
<displayName>CD_UF</displayName>
</SimpleField>
<SimpleField type="xsd:string" name="NM_UF">
<displayName>NM_UF</displayName>
</SimpleField>
<SimpleField type="xsd:string" name="SIGLA_UF">
<displayName>SIGLA_UF</displayName>
</SimpleField>
<SimpleField type="xsd:string" name="CD_MUN">
<displayName>CD_MUN</displayName>
</SimpleField>
<SimpleField type="xsd:string" name="NM_MUN">
<displayName>NM_MUN</displayName>
</SimpleField>
<SimpleField type="xsd:string" name="CD_RGINT">
<displayName>CD_RGINT</displayName>
</SimpleField>
<SimpleField type="xsd:string" name="NM_RGINT">
<displayName>NM_RGINT</displayName>
</SimpleField>
<SimpleField type="xsd:string" name="CD_RGI">
<displayName>CD_RGI</displayName>
</SimpleField>
<SimpleField type="xsd:string" name="NM_RGI">
<displayName>NM_RGI</displayName>
</SimpleField>
<SimpleField type="xsd:string" name="CT_LOCALIDADE">
<displayName>CT_LOCALIDADE</displayName>
</SimpleField>
<SimpleField type="xsd:string" name="SCT_LOCALIDADE">
<displayName>SCT_LOCALIDADE</displayName>
</SimpleField>
<SimpleField type="xsd:string" name="CD_LOCALIDADE">
<displayName>CD_LOCALIDADE</displayName>
</SimpleField>
<SimpleField type="xsd:string" name="NM_LOCALIDADE">
<displayName>NM_LOCALIDADE</displayName>
</SimpleField>
<SimpleField type="xsd:string" name="LAT_LOCALIDADE">
<displayName>LAT_LOCALIDADE</displayName>
</SimpleField>
<SimpleField type="xsd:string" name="LONG_LOCALIDADE">
<displayName>LONG_LOCALIDADE</displayName>
</SimpleField>
</Schema>
<Schema name="Município" id="kml_schema_ft_Município">
<SimpleField type="xsd:string" name="CD_UF">
<displayName>CD_UF</displayName>
</SimpleField>
<SimpleField type="xsd:string" name="NM_UF">
<displayName>NM_UF</displayName>
</SimpleField>
<SimpleField type="xsd:string" name="CD_MUN">
<displayName>CD_MUN</displayName>
</SimpleField>
<SimpleField type="xsd:string" name="NM_MUN">
<displayName>NM_MUN</displayName>
</SimpleField>
<SimpleField type="xsd:string" name="CD_RGINT">
<displayName>CD_RGINT</displayName>
</SimpleField>
<SimpleField type="xsd:string" name="NM_RGINT">
<displayName>NM_RGINT</displayName>
</SimpleField>
<SimpleField type="xsd:string" name="CD_RGI">
<displayName>CD_RGI</displayName>
</SimpleField>
<SimpleField type="xsd:string" name="NM_RGI">
<displayName>NM_RGI</displayName>
</SimpleField>
</Schema>
<Folder id="01. Cidade">
<name>01. Cidade</name>
<Folder id="01.03. Sede Municipal">
<name>01.03. Sede Municipal</name>
<Placemark id="01.03. Sede Municipal">
<name>Antônio Olinto [4101309]</name>
<visibility>1</visibility>
<snippet> </snippet>
<description>&lt;center&gt;&lt;table&gt;&lt;tr&gt;&lt;th colspan='2' align='center'&gt;&lt;em&gt;Atributos&lt;/em&gt;&lt;/th&gt;&lt;/tr&gt;&lt;tr bgcolor="#E3E3F3"&gt;
&lt;th&gt;CD_UF&lt;/th&gt;
&lt;td&gt;41&lt;/td&gt;
&lt;/tr&gt;&lt;tr bgcolor=""&gt;
&lt;th&gt;NM_UF&lt;/th&gt;
&lt;td&gt;Paraná&lt;/td&gt;
&lt;/tr&gt;&lt;tr bgcolor="#E3E3F3"&gt;
&lt;th&gt;SIGLA_UF&lt;/th&gt;
&lt;td&gt;PR&lt;/td&gt;
&lt;/tr&gt;&lt;tr bgcolor=""&gt;
&lt;th&gt;CD_MUN&lt;/th&gt;
&lt;td&gt;4101309&lt;/td&gt;
&lt;/tr&gt;&lt;tr bgcolor="#E3E3F3"&gt;
&lt;th&gt;NM_MUN&lt;/th&gt;
&lt;td&gt;Antônio Olinto&lt;/td&gt;
&lt;/tr&gt;&lt;tr bgcolor=""&gt;
&lt;th&gt;CD_RGINT&lt;/th&gt;
&lt;td&gt;4101&lt;/td&gt;
&lt;/tr&gt;&lt;tr bgcolor="#E3E3F3"&gt;
&lt;th&gt;NM_RGINT&lt;/th&gt;
&lt;td&gt;Curitiba&lt;/td&gt;
&lt;/tr&gt;&lt;tr bgcolor=""&gt;
&lt;th&gt;CD_RGI&lt;/th&gt;
&lt;td&gt;410003&lt;/td&gt;
&lt;/tr&gt;&lt;tr bgcolor="#E3E3F3"&gt;
&lt;th&gt;NM_RGI&lt;/th&gt;
&lt;td&gt;União da Vitória&lt;/td&gt;
&lt;/tr&gt;&lt;tr bgcolor=""&gt;
&lt;th&gt;CT_LOCALIDADE&lt;/th&gt;
&lt;td&gt;Cidade&lt;/td&gt;
&lt;/tr&gt;&lt;tr bgcolor="#E3E3F3"&gt;
&lt;th&gt;SCT_LOCALIDADE&lt;/th&gt;
&lt;td&gt;Sede Municipal&lt;/td&gt;
&lt;/tr&gt;&lt;tr bgcolor=""&gt;
&lt;th&gt;CD_LOCALIDADE&lt;/th&gt;
&lt;td&gt;4101309&lt;/td&gt;
&lt;/tr&gt;&lt;tr bgcolor="#E3E3F3"&gt;
&lt;th&gt;NM_LOCALIDADE&lt;/th&gt;
&lt;td&gt;Antônio Olinto&lt;/td&gt;
&lt;/tr&gt;&lt;tr bgcolor=""&gt;
&lt;th&gt;LAT_LOCALIDADE&lt;/th&gt;
&lt;td&gt;-25.9872&lt;/td&gt;
&lt;/tr&gt;&lt;tr bgcolor="#E3E3F3"&gt;
&lt;th&gt;LONG_LOCALIDADE&lt;/th&gt;
&lt;td&gt;-50.1971&lt;/td&gt;
&lt;/tr&gt;&lt;/table&gt;&lt;/center&gt;</description>
<Style>
<IconStyle>
<color>ff00aaff</color>
<scale>1.0</scale>
<Icon>
<href>http://maps.google.com/mapfiles/kml/shapes/placemark_circle.png</href>
</Icon>
</IconStyle>
<LabelStyle>
<scale>1.0</scale>
</LabelStyle>
<LineStyle>
<color>ffffffff</color>
<width>3</width>
<gx:labelVisibility>1</gx:labelVisibility>
</LineStyle>
<PolyStyle>
<color>00ffffff</color>
</PolyStyle>
</Style>
<ExtendedData>
<SchemaData schemaUrl="#kml_schema_ft_01._Cidade">
<SimpleData name="CD_UF">41</SimpleData>
<SimpleData name="NM_UF">Paraná</SimpleData>
<SimpleData name="SIGLA_UF">PR</SimpleData>
<SimpleData name="CD_MUN">4101309</SimpleData>
<SimpleData name="NM_MUN">Antônio Olinto</SimpleData>
<SimpleData name="CD_RGINT">4101</SimpleData>
<SimpleData name="NM_RGINT">Curitiba</SimpleData>
<SimpleData name="CD_RGI">410003</SimpleData>
<SimpleData name="NM_RGI">União da Vitória</SimpleData>
<SimpleData name="CT_LOCALIDADE">Cidade</SimpleData>
<SimpleData name="SCT_LOCALIDADE">Sede Municipal</SimpleData>
<SimpleData name="CD_LOCALIDADE">4101309</SimpleData>
<SimpleData name="NM_LOCALIDADE">Antônio Olinto</SimpleData>
<SimpleData name="LAT_LOCALIDADE">-25.9872</SimpleData>
<SimpleData name="LONG_LOCALIDADE">-50.1971</SimpleData>
</SchemaData>
</ExtendedData>
<Point>
<extrude>0</extrude>
<coordinates>-50.197148,-25.9871849992555,0.0</coordinates>
</Point>
</Placemark>
</Folder>
</Folder>
<Folder id="06. Povoados">
<name>06. Povoados</name>
<Placemark id="06. Povoados">
<name>Lagoa da Cruz [410130900001]</name>
<visibility>1</visibility>
<snippet> </snippet>
<description>&lt;center&gt;&lt;table&gt;&lt;tr&gt;&lt;th colspan='2' align='center'&gt;&lt;em&gt;Atributos&lt;/em&gt;&lt;/th&gt;&lt;/tr&gt;&lt;tr bgcolor="#E3E3F3"&gt;
&lt;th&gt;CD_UF&lt;/th&gt;
&lt;td&gt;41&lt;/td&gt;
&lt;/tr&gt;&lt;tr bgcolor=""&gt;
&lt;th&gt;NM_UF&lt;/th&gt;
&lt;td&gt;Paraná&lt;/td&gt;
&lt;/tr&gt;&lt;tr bgcolor="#E3E3F3"&gt;
&lt;th&gt;SIGLA_UF&lt;/th&gt;
&lt;td&gt;PR&lt;/td&gt;
&lt;/tr&gt;&lt;tr bgcolor=""&gt;
&lt;th&gt;CD_MUN&lt;/th&gt;
&lt;td&gt;4101309&lt;/td&gt;
&lt;/tr&gt;&lt;tr bgcolor="#E3E3F3"&gt;
&lt;th&gt;NM_MUN&lt;/th&gt;
&lt;td&gt;Antônio Olinto&lt;/td&gt;
&lt;/tr&gt;&lt;tr bgcolor=""&gt;
&lt;th&gt;CD_RGINT&lt;/th&gt;
&lt;td&gt;4101&lt;/td&gt;
&lt;/tr&gt;&lt;tr bgcolor="#E3E3F3"&gt;
&lt;th&gt;NM_RGINT&lt;/th&gt;
&lt;td&gt;Curitiba&lt;/td&gt;
&lt;/tr&gt;&lt;tr bgcolor=""&gt;
&lt;th&gt;CD_RGI&lt;/th&gt;
&lt;td&gt;410003&lt;/td&gt;
&lt;/tr&gt;&lt;tr bgcolor="#E3E3F3"&gt;
&lt;th&gt;NM_RGI&lt;/th&gt;
&lt;td&gt;União da Vitória&lt;/td&gt;
&lt;/tr&gt;&lt;tr bgcolor=""&gt;
&lt;th&gt;CT_LOCALIDADE&lt;/th&gt;
&lt;td&gt;Povoado&lt;/td&gt;
&lt;/tr&gt;&lt;tr bgcolor="#E3E3F3"&gt;
&lt;th&gt;CD_LOCALIDADE&lt;/th&gt;
&lt;td&gt;410130900001&lt;/td&gt;
&lt;/tr&gt;&lt;tr bgcolor=""&gt;
&lt;th&gt;NM_LOCALIDADE&lt;/th&gt;
&lt;td&gt;Lagoa da Cruz&lt;/td&gt;
&lt;/tr&gt;&lt;tr bgcolor="#E3E3F3"&gt;
&lt;th&gt;LAT_LOCALIDADE&lt;/th&gt;
&lt;td&gt;-25.8915&lt;/td&gt;
&lt;/tr&gt;&lt;tr bgcolor=""&gt;
&lt;th&gt;LONG_LOCALIDADE&lt;/th&gt;
&lt;td&gt;-50.2187&lt;/td&gt;
&lt;/tr&gt;&lt;/table&gt;&lt;/center&gt;</description>
<Style>
<IconStyle>
<color>ff00ff54</color>
<scale>0.8</scale>
<Icon>
<href>http://maps.google.com/mapfiles/kml/shapes/placemark_circle.png</href>
</Icon>
</IconStyle>
<LabelStyle>
<scale>0.8</scale>
</LabelStyle>
<LineStyle>
<color>72ff54ff</color>
<width>1.0</width>
<gx:labelVisibility>1</gx:labelVisibility>
</LineStyle>
<PolyStyle>
<color>66ff54ff</color>
</PolyStyle>
</Style>
<ExtendedData>
<SchemaData schemaUrl="#kml_schema_ft_Povoados">
<SimpleData name="CD_UF">41</SimpleData>
<SimpleData name="NM_UF">Paraná</SimpleData>
<SimpleData name="SIGLA_UF">PR</SimpleData>
<SimpleData name="CD_MUN">4101309</SimpleData>
<SimpleData name="NM_MUN">Antônio Olinto</SimpleData>
<SimpleData name="CD_RGINT">4101</SimpleData>
<SimpleData name="NM_RGINT">Curitiba</SimpleData>
<SimpleData name="CD_RGI">410003</SimpleData>
<SimpleData name="NM_RGI">União da Vitória</SimpleData>
<SimpleData name="CT_LOCALIDADE">Povoado</SimpleData>
<SimpleData name="CD_LOCALIDADE">410130900001</SimpleData>
<SimpleData name="NM_LOCALIDADE">Lagoa da Cruz</SimpleData>
<SimpleData name="LAT_LOCALIDADE">-25.8915</SimpleData>
<SimpleData name="LONG_LOCALIDADE">-50.2187</SimpleData>
</SchemaData>
</ExtendedData>
<Point>
<extrude>0</extrude>
<coordinates>-50.218736,-25.8915099992574,0.0</coordinates>
</Point>
</Placemark>
</Folder>
<Folder id="12. Outras Localidades">
<name>12. Outras Localidades</name>
<Placemark id="12. Outras Localidades">
<name>Água Amarela do Meio [410130900002]</name>
<visibility>1</visibility>
<snippet> </snippet>
<description>&lt;center&gt;&lt;table&gt;&lt;tr&gt;&lt;th colspan='2' align='center'&gt;&lt;em&gt;Attributes&lt;/em&gt;&lt;/th&gt;&lt;/tr&gt;&lt;tr bgcolor="#E3E3F3"&gt;
&lt;th&gt;CD_UF&lt;/th&gt;
&lt;td&gt;41&lt;/td&gt;
&lt;/tr&gt;&lt;tr bgcolor=""&gt;
&lt;th&gt;NM_UF&lt;/th&gt;
&lt;td&gt;Paraná&lt;/td&gt;
&lt;/tr&gt;&lt;tr bgcolor="#E3E3F3"&gt;
&lt;th&gt;SIGLA_UF&lt;/th&gt;
&lt;td&gt;PR&lt;/td&gt;
&lt;/tr&gt;&lt;tr bgcolor=""&gt;
&lt;th&gt;CD_MUN&lt;/th&gt;
&lt;td&gt;4101309&lt;/td&gt;
&lt;/tr&gt;&lt;tr bgcolor="#E3E3F3"&gt;
&lt;th&gt;NM_MUN&lt;/th&gt;
&lt;td&gt;Antônio Olinto&lt;/td&gt;
&lt;/tr&gt;&lt;tr bgcolor=""&gt;
&lt;th&gt;CD_RGINT&lt;/th&gt;
&lt;td&gt;4101&lt;/td&gt;
&lt;/tr&gt;&lt;tr bgcolor="#E3E3F3"&gt;
&lt;th&gt;NM_RGINT&lt;/th&gt;
&lt;td&gt;Curitiba&lt;/td&gt;
&lt;/tr&gt;&lt;tr bgcolor=""&gt;
&lt;th&gt;CD_RGI&lt;/th&gt;
&lt;td&gt;410003&lt;/td&gt;
&lt;/tr&gt;&lt;tr bgcolor="#E3E3F3"&gt;
&lt;th&gt;NM_RGI&lt;/th&gt;
&lt;td&gt;União da Vitória&lt;/td&gt;
&lt;/tr&gt;&lt;tr bgcolor=""&gt;
&lt;th&gt;CT_LOCALIDADE&lt;/th&gt;
&lt;td&gt;Outras Localidades&lt;/td&gt;
&lt;/tr&gt;&lt;tr bgcolor="#E3E3F3"&gt;
&lt;th&gt;SCT_LOCALIDADE&lt;/th&gt;
&lt;td&gt;&lt;/td&gt;
&lt;/tr&gt;&lt;tr bgcolor=""&gt;
&lt;th&gt;CD_LOCALIDADE&lt;/th&gt;
&lt;td&gt;410130900002&lt;/td&gt;
&lt;/tr&gt;&lt;tr bgcolor="#E3E3F3"&gt;
&lt;th&gt;NM_LOCALIDADE&lt;/th&gt;
&lt;td&gt;Água Amarela do Meio&lt;/td&gt;
&lt;/tr&gt;&lt;/table&gt;&lt;/center&gt;</description>
<Style>
<IconStyle>
<color>ff0069d3</color>
<scale>0.6</scale>
<Icon>
<href>http://maps.google.com/mapfiles/kml/shapes/placemark_circle.png</href>
</Icon>
</IconStyle>
<LabelStyle>
<scale>0.6</scale>
</LabelStyle>
<LineStyle>
<width>1.0</width>
<gx:labelVisibility>1</gx:labelVisibility>
</LineStyle>
</Style>
<ExtendedData>
<SchemaData schemaUrl="#kml_schema_ft_Localidades">
<SimpleData name="CD_UF">41</SimpleData>
<SimpleData name="NM_UF">Paraná</SimpleData>
<SimpleData name="SIGLA_UF">PR</SimpleData>
<SimpleData name="CD_MUN">4101309</SimpleData>
<SimpleData name="NM_MUN">Antônio Olinto</SimpleData>
<SimpleData name="CD_RGINT">4101</SimpleData>
<SimpleData name="NM_RGINT">Curitiba</SimpleData>
<SimpleData name="CD_RGI">410003</SimpleData>
<SimpleData name="NM_RGI">União da Vitória</SimpleData>
<SimpleData name="CT_LOCALIDADE">Outras Localidades</SimpleData>
<SimpleData name="CD_LOCALIDADE">410130900002</SimpleData>
<SimpleData name="NM_LOCALIDADE">Água Amarela do Meio</SimpleData>
</SchemaData>
</ExtendedData>
<Point>
<extrude>0</extrude>
<coordinates>-50.123381,-25.8856339992575,0.0</coordinates>
</Point>
</Placemark>
<Placemark id="12. Outras Localidades">
<name>Comunidade de Ilhéus Água Amarela de Baixo [410130900003]</name>
<visibility>1</visibility>
<snippet> </snippet>
<description>&lt;center&gt;&lt;table&gt;&lt;tr&gt;&lt;th colspan='2' align='center'&gt;&lt;em&gt;Attributes&lt;/em&gt;&lt;/th&gt;&lt;/tr&gt;&lt;tr bgcolor="#E3E3F3"&gt;
&lt;th&gt;CD_UF&lt;/th&gt;
&lt;td&gt;41&lt;/td&gt;
&lt;/tr&gt;&lt;tr bgcolor=""&gt;
&lt;th&gt;NM_UF&lt;/th&gt;
&lt;td&gt;Paraná&lt;/td&gt;
&lt;/tr&gt;&lt;tr bgcolor="#E3E3F3"&gt;
&lt;th&gt;SIGLA_UF&lt;/th&gt;
&lt;td&gt;PR&lt;/td&gt;
&lt;/tr&gt;&lt;tr bgcolor=""&gt;
&lt;th&gt;CD_MUN&lt;/th&gt;
&lt;td&gt;4101309&lt;/td&gt;
&lt;/tr&gt;&lt;tr bgcolor="#E3E3F3"&gt;
&lt;th&gt;NM_MUN&lt;/th&gt;
&lt;td&gt;Antônio Olinto&lt;/td&gt;
&lt;/tr&gt;&lt;tr bgcolor=""&gt;
&lt;th&gt;CD_RGINT&lt;/th&gt;
&lt;td&gt;4101&lt;/td&gt;
&lt;/tr&gt;&lt;tr bgcolor="#E3E3F3"&gt;
&lt;th&gt;NM_RGINT&lt;/th&gt;
&lt;td&gt;Curitiba&lt;/td&gt;
&lt;/tr&gt;&lt;tr bgcolor=""&gt;
&lt;th&gt;CD_RGI&lt;/th&gt;
&lt;td&gt;410003&lt;/td&gt;
&lt;/tr&gt;&lt;tr bgcolor="#E3E3F3"&gt;
&lt;th&gt;NM_RGI&lt;/th&gt;
&lt;td&gt;União da Vitória&lt;/td&gt;
&lt;/tr&gt;&lt;tr bgcolor=""&gt;
&lt;th&gt;CT_LOCALIDADE&lt;/th&gt;
&lt;td&gt;Outras Localidades&lt;/td&gt;
&lt;/tr&gt;&lt;tr bgcolor="#E3E3F3"&gt;
&lt;th&gt;SCT_LOCALIDADE&lt;/th&gt;
&lt;td&gt;&lt;/td&gt;
&lt;/tr&gt;&lt;tr bgcolor=""&gt;
&lt;th&gt;CD_LOCALIDADE&lt;/th&gt;
&lt;td&gt;410130900003&lt;/td&gt;
&lt;/tr&gt;&lt;tr bgcolor="#E3E3F3"&gt;
&lt;th&gt;NM_LOCALIDADE&lt;/th&gt;
&lt;td&gt;Comunidade de Ilhéus Água Amarela de Baixo&lt;/td&gt;
&lt;/tr&gt;&lt;/table&gt;&lt;/center&gt;</description>
<Style>
<IconStyle>
<color>ff0069d3</color>
<scale>0.6</scale>
<Icon>
<href>http://maps.google.com/mapfiles/kml/shapes/placemark_circle.png</href>
</Icon>
</IconStyle>
<LabelStyle>
<scale>0.6</scale>
</LabelStyle>
<LineStyle>
<width>1.0</width>
<gx:labelVisibility>1</gx:labelVisibility>
</LineStyle>
</Style>
<ExtendedData>
<SchemaData schemaUrl="#kml_schema_ft_Localidades">
<SimpleData name="CD_UF">41</SimpleData>
<SimpleData name="NM_UF">Paraná</SimpleData>
<SimpleData name="SIGLA_UF">PR</SimpleData>
<SimpleData name="CD_MUN">4101309</SimpleData>
<SimpleData name="NM_MUN">Antônio Olinto</SimpleData>
<SimpleData name="CD_RGINT">4101</SimpleData>
<SimpleData name="NM_RGINT">Curitiba</SimpleData>
<SimpleData name="CD_RGI">410003</SimpleData>
<SimpleData name="NM_RGI">União da Vitória</SimpleData>
<SimpleData name="CT_LOCALIDADE">Outras Localidades</SimpleData>
<SimpleData name="CD_LOCALIDADE">410130900003</SimpleData>
<SimpleData name="NM_LOCALIDADE">Comunidade de Ilhéus Água Amarela de Baixo</SimpleData>
</SchemaData>
</ExtendedData>
<Point>
<extrude>0</extrude>
<coordinates>-50.184967,-25.8898369992574,0.0</coordinates>
</Point>
</Placemark>
<Placemark id="12. Outras Localidades">
<name>Imbuial [410130900004]</name>
<visibility>1</visibility>
<snippet> </snippet>
<description>&lt;center&gt;&lt;table&gt;&lt;tr&gt;&lt;th colspan='2' align='center'&gt;&lt;em&gt;Attributes&lt;/em&gt;&lt;/th&gt;&lt;/tr&gt;&lt;tr bgcolor="#E3E3F3"&gt;
&lt;th&gt;CD_UF&lt;/th&gt;
&lt;td&gt;41&lt;/td&gt;
&lt;/tr&gt;&lt;tr bgcolor=""&gt;
&lt;th&gt;NM_UF&lt;/th&gt;
&lt;td&gt;Paraná&lt;/td&gt;
&lt;/tr&gt;&lt;tr bgcolor="#E3E3F3"&gt;
&lt;th&gt;SIGLA_UF&lt;/th&gt;
&lt;td&gt;PR&lt;/td&gt;
&lt;/tr&gt;&lt;tr bgcolor=""&gt;
&lt;th&gt;CD_MUN&lt;/th&gt;
&lt;td&gt;4101309&lt;/td&gt;
&lt;/tr&gt;&lt;tr bgcolor="#E3E3F3"&gt;
&lt;th&gt;NM_MUN&lt;/th&gt;
&lt;td&gt;Antônio Olinto&lt;/td&gt;
&lt;/tr&gt;&lt;tr bgcolor=""&gt;
&lt;th&gt;CD_RGINT&lt;/th&gt;
&lt;td&gt;4101&lt;/td&gt;
&lt;/tr&gt;&lt;tr bgcolor="#E3E3F3"&gt;
&lt;th&gt;NM_RGINT&lt;/th&gt;
&lt;td&gt;Curitiba&lt;/td&gt;
&lt;/tr&gt;&lt;tr bgcolor=""&gt;
&lt;th&gt;CD_RGI&lt;/th&gt;
&lt;td&gt;410003&lt;/td&gt;
&lt;/tr&gt;&lt;tr bgcolor="#E3E3F3"&gt;
&lt;th&gt;NM_RGI&lt;/th&gt;
&lt;td&gt;União da Vitória&lt;/td&gt;
&lt;/tr&gt;&lt;tr bgcolor=""&gt;
&lt;th&gt;CT_LOCALIDADE&lt;/th&gt;
&lt;td&gt;Outras Localidades&lt;/td&gt;
&lt;/tr&gt;&lt;tr bgcolor="#E3E3F3"&gt;
&lt;th&gt;SCT_LOCALIDADE&lt;/th&gt;
&lt;td&gt;&lt;/td&gt;
&lt;/tr&gt;&lt;tr bgcolor=""&gt;
&lt;th&gt;CD_LOCALIDADE&lt;/th&gt;
&lt;td&gt;410130900004&lt;/td&gt;
&lt;/tr&gt;&lt;tr bgcolor="#E3E3F3"&gt;
&lt;th&gt;NM_LOCALIDADE&lt;/th&gt;
&lt;td&gt;Imbuial&lt;/td&gt;
&lt;/tr&gt;&lt;/table&gt;&lt;/center&gt;</description>
<Style>
<IconStyle>
<color>ff0069d3</color>
<scale>0.6</scale>
<Icon>
<href>http://maps.google.com/mapfiles/kml/shapes/placemark_circle.png</href>
</Icon>
</IconStyle>
<LabelStyle>
<scale>0.6</scale>
</LabelStyle>
<LineStyle>
<width>1.0</width>
<gx:labelVisibility>1</gx:labelVisibility>
</LineStyle>
</Style>
<ExtendedData>
<SchemaData schemaUrl="#kml_schema_ft_Localidades">
<SimpleData name="CD_UF">41</SimpleData>
<SimpleData name="NM_UF">Paraná</SimpleData>
<SimpleData name="SIGLA_UF">PR</SimpleData>
<SimpleData name="CD_MUN">4101309</SimpleData>
<SimpleData name="NM_MUN">Antônio Olinto</SimpleData>
<SimpleData name="CD_RGINT">4101</SimpleData>
<SimpleData name="NM_RGINT">Curitiba</SimpleData>
<SimpleData name="CD_RGI">410003</SimpleData>
<SimpleData name="NM_RGI">União da Vitória</SimpleData>
<SimpleData name="CT_LOCALIDADE">Outras Localidades</SimpleData>
<SimpleData name="CD_LOCALIDADE">410130900004</SimpleData>
<SimpleData name="NM_LOCALIDADE">Imbuial</SimpleData>
</SchemaData>
</ExtendedData>
<Point>
<extrude>0</extrude>
<coordinates>-50.171431,-25.8772919992577,0.0</coordinates>
</Point>
</Placemark>
<Placemark id="12. Outras Localidades">
<name>Água Amarela de Baixo [410130900005]</name>
<visibility>1</visibility>
<snippet> </snippet>
<description>&lt;center&gt;&lt;table&gt;&lt;tr&gt;&lt;th colspan='2' align='center'&gt;&lt;em&gt;Attributes&lt;/em&gt;&lt;/th&gt;&lt;/tr&gt;&lt;tr bgcolor="#E3E3F3"&gt;
&lt;th&gt;CD_UF&lt;/th&gt;
&lt;td&gt;41&lt;/td&gt;
&lt;/tr&gt;&lt;tr bgcolor=""&gt;
&lt;th&gt;NM_UF&lt;/th&gt;
&lt;td&gt;Paraná&lt;/td&gt;
&lt;/tr&gt;&lt;tr bgcolor="#E3E3F3"&gt;
&lt;th&gt;SIGLA_UF&lt;/th&gt;
&lt;td&gt;PR&lt;/td&gt;
&lt;/tr&gt;&lt;tr bgcolor=""&gt;
&lt;th&gt;CD_MUN&lt;/th&gt;
&lt;td&gt;4101309&lt;/td&gt;
&lt;/tr&gt;&lt;tr bgcolor="#E3E3F3"&gt;
&lt;th&gt;NM_MUN&lt;/th&gt;
&lt;td&gt;Antônio Olinto&lt;/td&gt;
&lt;/tr&gt;&lt;tr bgcolor=""&gt;
&lt;th&gt;CD_RGINT&lt;/th&gt;
&lt;td&gt;4101&lt;/td&gt;
&lt;/tr&gt;&lt;tr bgcolor="#E3E3F3"&gt;
&lt;th&gt;NM_RGINT&lt;/th&gt;
&lt;td&gt;Curitiba&lt;/td&gt;
&lt;/tr&gt;&lt;tr bgcolor=""&gt;
&lt;th&gt;CD_RGI&lt;/th&gt;
&lt;td&gt;410003&lt;/td&gt;
&lt;/tr&gt;&lt;tr bgcolor="#E3E3F3"&gt;
&lt;th&gt;NM_RGI&lt;/th&gt;
&lt;td&gt;União da Vitória&lt;/td&gt;
&lt;/tr&gt;&lt;tr bgcolor=""&gt;
&lt;th&gt;CT_LOCALIDADE&lt;/th&gt;
&lt;td&gt;Outras Localidades&lt;/td&gt;
&lt;/tr&gt;&lt;tr bgcolor="#E3E3F3"&gt;
&lt;th&gt;SCT_LOCALIDADE&lt;/th&gt;
&lt;td&gt;&lt;/td&gt;
&lt;/tr&gt;&lt;tr bgcolor=""&gt;
&lt;th&gt;CD_LOCALIDADE&lt;/th&gt;
&lt;td&gt;410130900005&lt;/td&gt;
&lt;/tr&gt;&lt;tr bgcolor="#E3E3F3"&gt;
&lt;th&gt;NM_LOCALIDADE&lt;/th&gt;
&lt;td&gt;Água Amarela de Baixo&lt;/td&gt;
&lt;/tr&gt;&lt;/table&gt;&lt;/center&gt;</description>
<Style>
<IconStyle>
<color>ff0069d3</color>
<scale>0.6</scale>
<Icon>
<href>http://maps.google.com/mapfiles/kml/shapes/placemark_circle.png</href>
</Icon>
</IconStyle>
<LabelStyle>
<scale>0.6</scale>
</LabelStyle>
<LineStyle>
<width>1.0</width>
<gx:labelVisibility>1</gx:labelVisibility>
</LineStyle>
</Style>
<ExtendedData>
<SchemaData schemaUrl="#kml_schema_ft_Localidades">
<SimpleData name="CD_UF">41</SimpleData>
<SimpleData name="NM_UF">Paraná</SimpleData>
<SimpleData name="SIGLA_UF">PR</SimpleData>
<SimpleData name="CD_MUN">4101309</SimpleData>
<SimpleData name="NM_MUN">Antônio Olinto</SimpleData>
<SimpleData name="CD_RGINT">4101</SimpleData>
<SimpleData name="NM_RGINT">Curitiba</SimpleData>
<SimpleData name="CD_RGI">410003</SimpleData>
<SimpleData name="NM_RGI">União da Vitória</SimpleData>
<SimpleData name="CT_LOCALIDADE">Outras Localidades</SimpleData>
<SimpleData name="CD_LOCALIDADE">410130900005</SimpleData>
<SimpleData name="NM_LOCALIDADE">Água Amarela de Baixo</SimpleData>
</SchemaData>
</ExtendedData>
<Point>
<extrude>0</extrude>
<coordinates>-50.180259,-25.8860309992575,0.0</coordinates>
</Point>
</Placemark>
<Placemark id="12. Outras Localidades">
<name>Vila Rural [410130900006]</name>
<visibility>1</visibility>
<snippet> </snippet>
<description>&lt;center&gt;&lt;table&gt;&lt;tr&gt;&lt;th colspan='2' align='center'&gt;&lt;em&gt;Attributes&lt;/em&gt;&lt;/th&gt;&lt;/tr&gt;&lt;tr bgcolor="#E3E3F3"&gt;
&lt;th&gt;CD_UF&lt;/th&gt;
&lt;td&gt;41&lt;/td&gt;
&lt;/tr&gt;&lt;tr bgcolor=""&gt;
&lt;th&gt;NM_UF&lt;/th&gt;
&lt;td&gt;Paraná&lt;/td&gt;
&lt;/tr&gt;&lt;tr bgcolor="#E3E3F3"&gt;
&lt;th&gt;SIGLA_UF&lt;/th&gt;
&lt;td&gt;PR&lt;/td&gt;
&lt;/tr&gt;&lt;tr bgcolor=""&gt;
&lt;th&gt;CD_MUN&lt;/th&gt;
&lt;td&gt;4101309&lt;/td&gt;
&lt;/tr&gt;&lt;tr bgcolor="#E3E3F3"&gt;
&lt;th&gt;NM_MUN&lt;/th&gt;
&lt;td&gt;Antônio Olinto&lt;/td&gt;
&lt;/tr&gt;&lt;tr bgcolor=""&gt;
&lt;th&gt;CD_RGINT&lt;/th&gt;
&lt;td&gt;4101&lt;/td&gt;
&lt;/tr&gt;&lt;tr bgcolor="#E3E3F3"&gt;
&lt;th&gt;NM_RGINT&lt;/th&gt;
&lt;td&gt;Curitiba&lt;/td&gt;
&lt;/tr&gt;&lt;tr bgcolor=""&gt;
&lt;th&gt;CD_RGI&lt;/th&gt;
&lt;td&gt;410003&lt;/td&gt;
&lt;/tr&gt;&lt;tr bgcolor="#E3E3F3"&gt;
&lt;th&gt;NM_RGI&lt;/th&gt;
&lt;td&gt;União da Vitória&lt;/td&gt;
&lt;/tr&gt;&lt;tr bgcolor=""&gt;
&lt;th&gt;CT_LOCALIDADE&lt;/th&gt;
&lt;td&gt;Outras Localidades&lt;/td&gt;
&lt;/tr&gt;&lt;tr bgcolor="#E3E3F3"&gt;
&lt;th&gt;SCT_LOCALIDADE&lt;/th&gt;
&lt;td&gt;&lt;/td&gt;
&lt;/tr&gt;&lt;tr bgcolor=""&gt;
&lt;th&gt;CD_LOCALIDADE&lt;/th&gt;
&lt;td&gt;410130900006&lt;/td&gt;
&lt;/tr&gt;&lt;tr bgcolor="#E3E3F3"&gt;
&lt;th&gt;NM_LOCALIDADE&lt;/th&gt;
&lt;td&gt;Vila Rural&lt;/td&gt;
&lt;/tr&gt;&lt;/table&gt;&lt;/center&gt;</description>
<Style>
<IconStyle>
<color>ff0069d3</color>
<scale>0.6</scale>
<Icon>
<href>http://maps.google.com/mapfiles/kml/shapes/placemark_circle.png</href>
</Icon>
</IconStyle>
<LabelStyle>
<scale>0.6</scale>
</LabelStyle>
<LineStyle>
<width>1.0</width>
<gx:labelVisibility>1</gx:labelVisibility>
</LineStyle>
</Style>
<ExtendedData>
<SchemaData schemaUrl="#kml_schema_ft_Localidades">
<SimpleData name="CD_UF">41</SimpleData>
<SimpleData name="NM_UF">Paraná</SimpleData>
<SimpleData name="SIGLA_UF">PR</SimpleData>
<SimpleData name="CD_MUN">4101309</SimpleData>
<SimpleData name="NM_MUN">Antônio Olinto</SimpleData>
<SimpleData name="CD_RGINT">4101</SimpleData>
<SimpleData name="NM_RGINT">Curitiba</SimpleData>
<SimpleData name="CD_RGI">410003</SimpleData>
<SimpleData name="NM_RGI">União da Vitória</SimpleData>
<SimpleData name="CT_LOCALIDADE">Outras Localidades</SimpleData>
<SimpleData name="CD_LOCALIDADE">410130900006</SimpleData>
<SimpleData name="NM_LOCALIDADE">Vila Rural</SimpleData>
</SchemaData>
</ExtendedData>
<Point>
<extrude>0</extrude>
<coordinates>-50.209597,-25.9531989992561,0.0</coordinates>
</Point>
</Placemark>
</Folder>
<Folder id="13. Referência">
<name>13. Referência</name>
<Placemark id="13. Referência">
<name>Antônio Olinto [4101309]</name>
<visibility>1</visibility>
<snippet> </snippet>
<description>&lt;center&gt;&lt;table&gt;&lt;tr&gt;&lt;th colspan='2' align='center'&gt;&lt;em&gt;Attributes&lt;/em&gt;&lt;/th&gt;&lt;/tr&gt;&lt;tr bgcolor="#E3E3F3"&gt;
&lt;th&gt;CD_UF&lt;/th&gt;
&lt;td&gt;41&lt;/td&gt;
&lt;/tr&gt;&lt;tr bgcolor=""&gt;
&lt;th&gt;NM_UF&lt;/th&gt;
&lt;td&gt;Paraná&lt;/td&gt;
&lt;/tr&gt;&lt;tr bgcolor="#E3E3F3"&gt;
&lt;th&gt;CD_MUN&lt;/th&gt;
&lt;td&gt;4101309&lt;/td&gt;
&lt;/tr&gt;&lt;tr bgcolor=""&gt;
&lt;th&gt;NM_MUN&lt;/th&gt;
&lt;td&gt;Antônio Olinto&lt;/td&gt;
&lt;/tr&gt;&lt;tr bgcolor="#E3E3F3"&gt;
&lt;th&gt;CD_RGINT&lt;/th&gt;
&lt;td&gt;4101&lt;/td&gt;
&lt;/tr&gt;&lt;tr bgcolor=""&gt;
&lt;th&gt;NM_RGINT&lt;/th&gt;
&lt;td&gt;Curitiba&lt;/td&gt;
&lt;/tr&gt;&lt;tr bgcolor="#E3E3F3"&gt;
&lt;th&gt;CD_RGI&lt;/th&gt;
&lt;td&gt;410003&lt;/td&gt;
&lt;/tr&gt;&lt;tr bgcolor=""&gt;
&lt;th&gt;NM_RGI&lt;/th&gt;
&lt;td&gt;União da Vitória&lt;/td&gt;
&lt;/tr&gt;&lt;/table&gt;&lt;/center&gt;</description>
<Style>
<IconStyle>
<scale>0.7</scale>
</IconStyle>
<LabelStyle>
<scale>0.7</scale>
</LabelStyle>
<LineStyle>
<color>ffffffff</color>
<width>3</width>
<gx:labelVisibility>1</gx:labelVisibility>
</LineStyle>
<PolyStyle>
<color>00ffffff</color>
</PolyStyle>
</Style>
<ExtendedData>
<SchemaData schemaUrl="#kml_schema_ft_Município">
<SimpleData name="CD_UF">41</SimpleData>
<SimpleData name="NM_UF">Paraná</SimpleData>
<SimpleData name="CD_MUN">4101309</SimpleData>
<SimpleData name="NM_MUN">Antônio Olinto</SimpleData>
<SimpleData name="CD_RGINT">4101</SimpleData>
<SimpleData name="NM_RGINT">Curitiba</SimpleData>
<SimpleData name="CD_RGI">410003</SimpleData>
<SimpleData name="NM_RGI">União da Vitória</SimpleData>
</SchemaData>
</ExtendedData>
<MultiGeometry>
<Polygon>
<extrude>0</extrude>
<tessellate>1</tessellate>
<outerBoundaryIs>
<LinearRing>
<coordinates>-50.0460465,-25.8845392992575,0.0 -50.0449734,-25.8843567992575,0.0 -50.0416463,-25.8821986992576,0.0 -50.0409913,-25.8807369992576,0.0 -50.0400645,-25.8790154992577,0.0 -50.0388482,-25.8787875992576,0.0 -50.0374097,-25.8806402992576,0.0 -50.0358204,-25.8814765992576,0.0 -50.0336701,-25.8815665992576,0.0 -50.0325628,-25.8824971992576,0.0 -50.032274,-25.8826429992576,0.0 -50.0286594,-25.8844679992575,0.0 -50.0259535,-25.8874295992575,0.0 -50.0232885,-25.8892881992574,0.0 -50.0227684,-25.8910413992574,0.0 -50.0130515,-25.8946541992573,0.0 -50.0209832,-25.9022530992572,0.0 -50.0207967,-25.9033439992572,0.0 -50.0200056,-25.9042758992571,0.0 -50.0199126,-25.9066256992571,0.0 -50.0191356,-25.9077913992571,0.0 -50.0165692,-25.908450099257,0.0 -50.0149221,-25.909535099257,0.0 -50.0153178,-25.9347330992565,0.0 -50.0123329,-25.9316723992566,0.0 -50.0111624,-25.9310210992566,0.0 -50.0091596,-25.9311516992566,0.0 -50.0072742,-25.9318271992566,0.0 -50.0049337,-25.9313391992566,0.0 -50.0044035,-25.9318391992566,0.0 -50.0027131,-25.9316502992566,0.0 -50.0023845,-25.9322125992566,0.0 -50.0009804,-25.9322667992566,0.0 -50.0009627,-25.9325249992566,0.0 -50.0008071,-25.9326368992566,0.0 -50.0003984,-25.9335025992565,0.0 -49.9992035,-25.9329243992566,0.0 -49.9965645,-25.9330823992565,0.0 -49.9959016,-25.9347845992565,0.0 -49.9922511,-25.9384122992564,0.0 -49.99242,-25.9395588992564,0.0 -49.9879442,-25.9397434992564,0.0 -49.986614,-25.9404447992564,0.0 -49.9842537,-25.9465350992563,0.0 -49.9850809,-25.9490003992562,0.0 -49.9835919,-25.9521378992562,0.0 -49.9836573,-25.9534149992561,0.0 -49.9833955,-25.9535356992561,0.0 -49.98315,-25.9535009992561,0.0 -49.982072,-25.9536819992561,0.0 -49.9813857,-25.9548868992561,0.0 -49.9753773,-25.957905299256,0.0 -49.9746125,-25.958508699256,0.0 -49.9732943,-25.959084899256,0.0 -49.9715713,-25.9626510992559,0.0 -49.9713903,-25.9655282992559,0.0 -49.9696105,-25.9679724992558,0.0 -49.9680696,-25.9731063992557,0.0 -49.967372,-25.9768568992557,0.0 -49.9672302,-25.9771476992557,0.0 -49.9671302,-25.9782020992556,0.0 -49.9658268,-25.9784532992556,0.0 -49.9652188,-25.9800180992556,0.0 -49.9651614,-25.9823380992555,0.0 -49.9652339,-25.9827311992556,0.0 -49.9652614,-25.9878302992554,0.0 -49.9643119,-25.9892394992554,0.0 -49.9667807,-25.9897146992554,0.0 -49.9671113,-25.9902745992554,0.0 -49.967644,-25.9915565992554,0.0 -49.9669944,-25.9929632992553,0.0 -49.9664001,-25.9988859992552,0.0 -49.9665677,-26.0013473992552,0.0 -49.967745,-26.0018127992552,0.0 -49.9679996,-26.0026390992551,0.0 -49.9677643,-26.0050766992551,0.0 -49.971172,-26.0046685992551,0.0 -49.9724968,-26.0037726992551,0.0 -49.9723652,-26.0027100992551,0.0 -49.9751113,-26.0046131992551,0.0 -49.9776112,-26.0039228992551,0.0 -49.9792252,-26.0025148992552,0.0 -49.9793063,-26.0018637992552,0.0 -49.9798405,-26.0005302992552,0.0 -49.9812527,-25.9986191992552,0.0 -49.9813673,-25.9961627992553,0.0 -49.9818164,-25.9955633992553,0.0 -49.9824941,-25.9951188992553,0.0 -49.9836132,-25.9955599992553,0.0 -49.9869297,-25.9951813992553,0.0 -49.9882625,-25.9936293992553,0.0 -49.9899257,-25.9928814992553,0.0 -49.9914236,-25.9927615992553,0.0 -49.9922138,-25.9916802992554,0.0 -49.9926839,-25.9915184992554,0.0 -49.9931586,-25.9915756992554,0.0 -49.9952498,-25.9932882992553,0.0 -49.9955276,-25.9942575992553,0.0 -49.9951977,-25.9953822992553,0.0 -49.9964287,-25.9992402992552,0.0 -49.9959166,-26.0010187992552,0.0 -49.994831,-26.0025893992551,0.0 -49.9950974,-26.0046588992551,0.0 -49.9943094,-26.0057644992551,0.0 -49.9933486,-26.007365599255,0.0 -49.9929805,-26.010372899255,0.0 -49.9934323,-26.011349999255,0.0 -49.9937483,-26.011340799255,0.0 -49.9943211,-26.011371799255,0.0 -49.9949163,-26.011430099255,0.0 -49.9953225,-26.011554799255,0.0 -49.9957359,-26.011706699255,0.0 -49.9961861,-26.0119739992549,0.0 -49.9964939,-26.012131899255,0.0 -49.996726,-26.0123299992549,0.0 -49.9969427,-26.0125753992549,0.0 -49.9971729,-26.0129970992549,0.0 -49.9974264,-26.0133444992549,0.0 -49.9975741,-26.0137113992549,0.0 -49.9977063,-26.0141323992549,0.0 -49.9978965,-26.0145554992549,0.0 -49.9979991,-26.0149085992549,0.0 -49.9981779,-26.0151672992549,0.0 -49.9984849,-26.0154335992549,0.0 -49.9988908,-26.0155853992549,0.0 -49.9991922,-26.0156213992549,0.0 -49.9996755,-26.0155296992549,0.0 -50.0000177,-26.0154616992549,0.0 -50.0000381,-26.0154575992549,0.0 -50.000355,-26.0154393992549,0.0 -50.000786,-26.0152932992549,0.0 -50.00098,-26.0152035992549,0.0 -50.0011039,-26.0151462992549,0.0 -50.0014599,-26.0149589992549,0.0 -50.0019221,-26.0146909992549,0.0 -50.0023184,-26.0145648992549,0.0 -50.0027563,-26.0145000992549,0.0 -50.0031185,-26.0144685992549,0.0 -50.0035788,-26.0144310992549,0.0 -50.0039565,-26.0143522992549,0.0 -50.0045609,-26.0142207992549,0.0 -50.0048851,-26.0141560992549,0.0 -50.005218,-26.0140896992549,0.0 -50.0059512,-26.0138709992549,0.0 -50.0060347,-26.0138476992549,0.0 -50.0065937,-26.0136922992549,0.0 -50.0072588,-26.0135001992549,0.0 -50.0081429,-26.0132756992549,0.0 -50.0081809,-26.0132720992549,0.0 -50.0084189,-26.0132490992549,0.0 -50.0086032,-26.0132313992549,0.0 -50.0092144,-26.0131811992549,0.0 -50.0095996,-26.0131091992549,0.0 -50.0100896,-26.0131192992549,0.0 -50.0104213,-26.0131349992549,0.0 -50.0107449,-26.0132184992549,0.0 -50.01094,-26.0133281992549,0.0 -50.0109456,-26.0133412992549,0.0 -50.011051,-26.0135864992549,0.0 -50.0110769,-26.0141016992549,0.0 -50.0110048,-26.0146161992549,0.0 -50.0110014,-26.0150295992549,0.0 -50.01111,-26.0155767992549,0.0 -50.0111208,-26.0160986992549,0.0 -50.0111616,-26.0166410992549,0.0 -50.0111724,-26.0171493992548,0.0 -50.0112067,-26.0175629992548,0.0 -50.0111893,-26.0178474992548,0.0 -50.0112466,-26.0182205992548,0.0 -50.0112896,-26.0184919992548,0.0 -50.0113386,-26.0189462992548,0.0 -50.0114036,-26.0192923992548,0.0 -50.0114226,-26.0197396992548,0.0 -50.0114107,-26.0202681992548,0.0 -50.0114221,-26.0207155992548,0.0 -50.0114409,-26.0211832992548,0.0 -50.0114219,-26.0216536992548,0.0 -50.0113574,-26.0221546992547,0.0 -50.0113244,-26.0225000992547,0.0 -50.0112766,-26.0228182992547,0.0 -50.0112576,-26.0232924992547,0.0 -50.0112021,-26.0236173992547,0.0 -50.0111977,-26.0241459992547,0.0 -50.0112175,-26.0244916992547,0.0 -50.0112198,-26.0251287992547,0.0 -50.0111915,-26.0258197992547,0.0 -50.0111495,-26.0263344992547,0.0 -50.0110633,-26.0267337992547,0.0 -50.01091,-26.0270376992547,0.0 -50.0106585,-26.0273502992546,0.0 -50.0104749,-26.0276675992546,0.0 -50.0101859,-26.0279637992546,0.0 -50.0098062,-26.0282797992546,0.0 -50.0094566,-26.0285959992546,0.0 -50.0090609,-26.0290270992546,0.0 -50.0087947,-26.0292962992546,0.0 -50.008468,-26.0295922992546,0.0 -50.0081703,-26.0300239992546,0.0 -50.007917,-26.0305576992546,0.0 -50.0076655,-26.0308812992546,0.0 -50.0074741,-26.0312255992546,0.0 -50.0072669,-26.0316578992546,0.0 -50.007037,-26.0320968992545,0.0 -50.0069294,-26.0323978992545,0.0 -50.0065091,-26.0330524992545,0.0 -50.0062714,-26.0335252992545,0.0 -50.0060637,-26.0340117992545,0.0 -50.0058338,-26.0344506992545,0.0 -50.0055136,-26.0348619992545,0.0 -50.0052615,-26.0352600992545,0.0 -50.0048435,-26.0356401992545,0.0 -50.0044488,-26.0359492992545,0.0 -50.0038345,-26.0363517992545,0.0 -50.0034854,-26.0366068992545,0.0 -50.0030908,-26.0369023992545,0.0 -50.0027335,-26.0372456992544,0.0 -50.002512,-26.0375761992544,0.0 -50.002403,-26.0379888992544,0.0 -50.0023317,-26.0383933992544,0.0 -50.0022376,-26.0388332992544,0.0 -50.002121,-26.0392458992544,0.0 -50.0020338,-26.0397602992544,0.0 -50.0019167,-26.0402338992544,0.0 -50.0018816,-26.0408231992544,0.0 -50.0018711,-26.0411822992544,0.0 -50.001915,-26.0416378992544,0.0 -50.001963,-26.0422209992543,0.0 -50.00208,-26.0426554992543,0.0 -50.0021448,-26.0430285992543,0.0 -50.0023526,-26.0434433992543,0.0 -50.0025382,-26.0437969992543,0.0 -50.0027689,-26.0441712992543,0.0 -50.0030672,-26.0445730992543,0.0 -50.0033661,-26.0449139992543,0.0 -50.0035452,-26.0451455992543,0.0 -50.004206,-26.0455023992543,0.0 -50.0047766,-26.0458246992543,0.0 -50.0052879,-26.0460178992543,0.0 -50.0055738,-26.0460942992543,0.0 -50.0058607,-26.0460623992543,0.0 -50.0063064,-26.0459839992543,0.0 -50.0065475,-26.0459045992543,0.0 -50.0066694,-26.0458644992543,0.0 -50.0069947,-26.0457446992543,0.0 -50.0074264,-26.0455306992543,0.0 -50.0079648,-26.0451886992543,0.0 -50.0084726,-26.0448870992543,0.0 -50.0086931,-26.0446784992543,0.0 -50.0090334,-26.0443607992543,0.0 -50.0093913,-26.0439429992543,0.0 -50.0098853,-26.0434989992543,0.0 -50.010273,-26.0431220992543,0.0 -50.0107599,-26.0426170992543,0.0 -50.0111784,-26.0421726992543,0.0 -50.0116416,-26.0417961992544,0.0 -50.0121653,-26.0413998992544,0.0 -50.0127946,-26.0409906992544,0.0 -50.0133559,-26.0406149992544,0.0 -50.0138259,-26.0403266992544,0.0 -50.0142051,-26.0400716992544,0.0 -50.0146605,-26.0397155992544,0.0 -50.0150936,-26.0393388992544,0.0 -50.0156252,-26.0388951992544,0.0 -50.0161036,-26.0384984992544,0.0 -50.0163971,-26.0382099992544,0.0 -50.0168311,-26.0377113992544,0.0 -50.0174162,-26.0371798992544,0.0 -50.0179717,-26.0365804992545,0.0 -50.0184584,-26.0360889992545,0.0 -50.0188101,-26.0356871992545,0.0 -50.0191842,-26.0351271992545,0.0 -50.0195741,-26.0344859992545,0.0 -50.0199628,-26.0339870992545,0.0 -50.0204132,-26.0333258992545,0.0 -50.0208777,-26.0327732992545,0.0 -50.021243,-26.0323690992545,0.0 -50.0216078,-26.0320326992545,0.0 -50.0220623,-26.0317781992545,0.0 -50.0226077,-26.0314835992546,0.0 -50.0232517,-26.0311218992546,0.0 -50.023736,-26.0309217992546,0.0 -50.0243189,-26.0306544992546,0.0 -50.024842,-26.0303258992546,0.0 -50.0252589,-26.0300710992546,0.0 -50.0256566,-26.0297717992546,0.0 -50.0261696,-26.0294460992546,0.0 -50.0266822,-26.0291810992546,0.0 -50.0272242,-26.0288555992546,0.0 -50.0280942,-26.0284715992546,0.0 -50.0288574,-26.0281821992546,0.0 -50.0295526,-26.0279614992546,0.0 -50.0303921,-26.0277763992546,0.0 -50.0310725,-26.0276670992546,0.0 -50.0312216,-26.0276431992546,0.0 -50.0318871,-26.0275347992546,0.0 -50.0328513,-26.0274110992546,0.0 -50.0337119,-26.0272866992546,0.0 -50.033819,-26.0272729992546,0.0 -50.0345508,-26.0271793992546,0.0 -50.0353898,-26.0270634992546,0.0 -50.03618,-26.0270165992546,0.0 -50.0368252,-26.0270379992547,0.0 -50.0374221,-26.0270762992546,0.0 -50.0379126,-26.0271832992546,0.0 -50.0385853,-26.0273865992546,0.0 -50.0391902,-26.0276240992546,0.0 -50.0397267,-26.0279995992546,0.0 -50.0400715,-26.0282527992546,0.0 -50.0404526,-26.0288003992546,0.0 -50.0407384,-26.0292089992546,0.0 -50.0409456,-26.0298161992546,0.0 -50.041212,-26.0302505992546,0.0 -50.0413719,-26.0307449992546,0.0 -50.0416284,-26.0312052992546,0.0 -50.0419346,-26.0314755992546,0.0 -50.0421358,-26.0316152992546,0.0 -50.0426458,-26.0316877992546,0.0 -50.0433776,-26.0317182992546,0.0 -50.0440423,-26.0317137992546,0.0 -50.0445526,-26.0317428992546,0.0 -50.0448346,-26.0317018992546,0.0 -50.0452373,-26.0316432992546,0.0 -50.0459318,-26.0315350992546,0.0 -50.0467241,-26.0315249992546,0.0 -50.0475915,-26.0314784992546,0.0 -50.048333,-26.0315089992546,0.0 -50.0489684,-26.0315648992546,0.0 -50.0491977,-26.0316696992546,0.0 -50.0494292,-26.0317754992546,0.0 -50.0498899,-26.0319946992545,0.0 -50.0502924,-26.0322655992545,0.0 -50.0506175,-26.0325791992545,0.0 -50.0509712,-26.0329275992545,0.0 -50.0512863,-26.0332929992545,0.0 -50.0518694,-26.0338851992545,0.0 -50.0523003,-26.0342167992545,0.0 -50.0527594,-26.0346523992545,0.0 -50.0531809,-26.0349578992545,0.0 -50.0537276,-26.0352641992545,0.0 -50.0540436,-26.0355084992545,0.0 -50.0546767,-26.0358672992545,0.0 -50.0551478,-26.0359826992545,0.0 -50.0556471,-26.0361934992545,0.0 -50.0556749,-26.0361926992545,0.0 -50.0561385,-26.0361792992545,0.0 -50.0565639,-26.0359827992545,0.0 -50.0570577,-26.0356568992545,0.0 -50.0574835,-26.0353911992545,0.0 -50.0580162,-26.0350136992545,0.0 -50.0586743,-26.0346108992545,0.0 -50.0592942,-26.0341731992545,0.0 -50.0600778,-26.0337365992545,0.0 -50.0604392,-26.0335679992545,0.0 -50.061299,-26.0332529992545,0.0 -50.0622261,-26.0329383992545,0.0 -50.062892,-26.0327865992545,0.0 -50.063827,-26.0327057992545,0.0 -50.0645209,-26.0326580992545,0.0 -50.0654069,-26.0326807992545,0.0 -50.0662152,-26.0327981992545,0.0 -50.066888,-26.0330013992545,0.0 -50.067387,-26.0332467992545,0.0 -50.0679336,-26.0335789992545,0.0 -50.0684903,-26.0338419992545,0.0 -50.0690276,-26.0341222992545,0.0 -50.0695077,-26.0343328992545,0.0 -50.0701226,-26.0345443992545,0.0 -50.0705169,-26.0346332992545,0.0 -50.0708628,-26.0347565992545,0.0 -50.0713435,-26.0348892992545,0.0 -50.0717466,-26.0350907992545,0.0 -50.0721205,-26.0353267992545,0.0 -50.0724558,-26.0355710992545,0.0 -50.0726927,-26.0361005992545,0.0 -50.0727756,-26.0366117992545,0.0 -50.072858,-26.0371921992544,0.0 -50.0729403,-26.0377898992544,0.0 -50.0729398,-26.0383784992544,0.0 -50.07296,-26.0387902992544,0.0 -50.072973,-26.0396212992544,0.0 -50.0729867,-26.0403743992544,0.0 -50.0730042,-26.0418977992544,0.0 -50.0730761,-26.0425906992543,0.0 -50.0733395,-26.0434404992543,0.0 -50.0735841,-26.0442209992543,0.0 -50.0739069,-26.0448633992543,0.0 -50.0742405,-26.0453327992543,0.0 -50.074537,-26.0456202992543,0.0 -50.0749487,-26.0459689992543,0.0 -50.0755343,-26.0462494992543,0.0 -50.0758896,-26.0464073992543,0.0 -50.0761978,-26.0464092992543,0.0 -50.0766437,-26.0462716992543,0.0 -50.0767482,-26.0462394992543,0.0 -50.0772026,-26.0460344992543,0.0 -50.0775803,-26.0457597992543,0.0 -50.0779498,-26.0453118992543,0.0 -50.0781741,-26.0449409992543,0.0 -50.0782931,-26.0444829992543,0.0 -50.0785671,-26.0439133992543,0.0 -50.0787843,-26.0432048992543,0.0 -50.0790345,-26.0426063992543,0.0 -50.0792215,-26.0420707992543,0.0 -50.0794285,-26.0414401992544,0.0 -50.0796956,-26.0404983992544,0.0 -50.079854,-26.0399193992544,0.0 -50.0799365,-26.0391927992544,0.0 -50.0799601,-26.0386043992544,0.0 -50.079927,-26.0378684992544,0.0 -50.0798445,-26.0373056992544,0.0 -50.079751,-26.0369155992545,0.0 -50.0796107,-26.0363520992545,0.0 -50.0795192,-26.0357023992545,0.0 -50.0794361,-26.0352171992545,0.0 -50.0794122,-26.0345505992545,0.0 -50.0793345,-26.0333296992545,0.0 -50.0793689,-26.0325855992545,0.0 -50.0793761,-26.0316247992546,0.0 -50.0794487,-26.0309157992546,0.0 -50.0793679,-26.0301275992546,0.0 -50.0793537,-26.0294437992546,0.0 -50.0792813,-26.0288114992546,0.0 -50.0792843,-26.0284046992546,0.0 -50.0792303,-26.0278936992546,0.0 -50.0791277,-26.0274429992546,0.0 -50.0789696,-26.0266889992547,0.0 -50.0789268,-26.0259616992547,0.0 -50.0788817,-26.0255545992547,0.0 -50.0789236,-26.0250960992547,0.0 -50.0791193,-26.0246817992547,0.0 -50.0792855,-26.0243538992547,0.0 -50.0796628,-26.0241310992547,0.0 -50.0802321,-26.0239873992547,0.0 -50.0807148,-26.0238517992547,0.0 -50.0811099,-26.0238195992547,0.0 -50.0816587,-26.0238487992547,0.0 -50.0817897,-26.0238820992547,0.0 -50.0822163,-26.0239905992547,0.0 -50.0826972,-26.0240886992547,0.0 -50.0831677,-26.0242905992547,0.0 -50.0836563,-26.0246483992547,0.0 -50.084317,-26.0251802992547,0.0 -50.0847366,-26.0257453992547,0.0 -50.0851401,-26.0262400992547,0.0 -50.0855887,-26.0268053992547,0.0 -50.0861031,-26.0275874992546,0.0 -50.0867996,-26.0285004992546,0.0 -50.0869512,-26.0288388992546,0.0 -50.0871777,-26.0294807992546,0.0 -50.0872246,-26.0296392992546,0.0 -50.0873469,-26.0300529992546,0.0 -50.0873326,-26.0306835992546,0.0 -50.0872602,-26.0313582992546,0.0 -50.087169,-26.0319722992545,0.0 -50.0871162,-26.0326037992545,0.0 -50.0871099,-26.0334606992545,0.0 -50.0870347,-26.0345248992545,0.0 -50.0871082,-26.0350099992545,0.0 -50.0871914,-26.0354864992545,0.0 -50.0873608,-26.0360241992545,0.0 -50.0875396,-26.0366051992545,0.0 -50.087738,-26.0371342992544,0.0 -50.0879927,-26.0378628992544,0.0 -50.0880581,-26.0381426992544,0.0 -50.0882656,-26.0387497992544,0.0 -50.0884431,-26.0395038992544,0.0 -50.0886599,-26.0401543992544,0.0 -50.0889053,-26.0408395992544,0.0 -50.0891696,-26.0415768992544,0.0 -50.0896448,-26.0424624992543,0.0 -50.090046,-26.0429322992543,0.0 -50.0905423,-26.0435670992543,0.0 -50.0910301,-26.0440459992543,0.0 -50.0913363,-26.0443247992543,0.0 -50.0916047,-26.0445080992543,0.0 -50.0921436,-26.0445891992543,0.0 -50.092625,-26.0446352992543,0.0 -50.0928751,-26.0446912992543,0.0 -50.0932213,-26.0447686992543,0.0 -50.0936155,-26.0448748992543,0.0 -50.0942114,-26.0450687992543,0.0 -50.0946918,-26.0452533992543,0.0 -50.0954604,-26.0455435992543,0.0 -50.0959598,-26.0457629992543,0.0 -50.0964092,-26.0459989992543,0.0 -50.0964228,-26.0460427992543,0.0 -50.0965033,-26.0463024992543,0.0 -50.0965477,-26.0468306992543,0.0 -50.0966587,-26.0474631992542,0.0 -50.0966842,-26.0479307992542,0.0 -50.0966927,-26.0480499992542,0.0 -50.0967196,-26.0483636992542,0.0 -50.096784,-26.0487569992542,0.0 -50.0967934,-26.0488142992542,0.0 -50.0970311,-26.0492397992542,0.0 -50.0972309,-26.0495957992542,0.0 -50.0974307,-26.0499344992542,0.0 -50.0976894,-26.0501350992542,0.0 -50.0980534,-26.0504228992542,0.0 -50.0983605,-26.0505804992542,0.0 -50.0986284,-26.0508503992542,0.0 -50.0990022,-26.0511121992542,0.0 -50.0992888,-26.0514427992542,0.0 -50.0997518,-26.0518107992541,0.0 -50.1002403,-26.0522117992541,0.0 -50.1006514,-26.0526469992541,0.0 -50.1012443,-26.0532649992541,0.0 -50.1016948,-26.0535878992541,0.0 -50.102087,-26.0539796992541,0.0 -50.1027661,-26.0546587992541,0.0 -50.1033021,-26.0551465992541,0.0 -50.1039144,-26.0557473992541,0.0 -50.1045456,-26.0564001992541,0.0 -50.1051294,-26.056940199254,0.0 -50.1056078,-26.057410399254,0.0 -50.1059799,-26.057923199254,0.0 -50.1066104,-26.058246199254,0.0 -50.1066806,-26.058282199254,0.0 -50.1073346,-26.058459099254,0.0 -50.1079022,-26.058574899254,0.0 -50.1082109,-26.058524799254,0.0 -50.1083435,-26.058360299254,0.0 -50.1083567,-26.058343899254,0.0 -50.1084555,-26.058006899254,0.0 -50.1085075,-26.057539799254,0.0 -50.1084941,-26.056726099254,0.0 -50.1084883,-26.0561893992541,0.0 -50.108493,-26.0555315992541,0.0 -50.1085072,-26.0548997992541,0.0 -50.1085208,-26.0543545992541,0.0 -50.1085823,-26.0538269992541,0.0 -50.1087099,-26.0534987992541,0.0 -50.1090126,-26.0529465992541,0.0 -50.1093148,-26.0524549992541,0.0 -50.1097613,-26.0519901992541,0.0 -50.1103894,-26.0517254992541,0.0 -50.1110084,-26.0513827992541,0.0 -50.1117529,-26.0510148992542,0.0 -50.1123517,-26.0508019992542,0.0 -50.1132582,-26.0506859992542,0.0 -50.1137981,-26.0506371992542,0.0 -50.1143957,-26.0505973992542,0.0 -50.1151079,-26.0506966992542,0.0 -50.1157907,-26.0508649992542,0.0 -50.1161752,-26.0509883992542,0.0 -50.1164228,-26.0513965992542,0.0 -50.1164775,-26.0516159992541,0.0 -50.1165352,-26.0518473992541,0.0 -50.1165695,-26.0524447992541,0.0 -50.116595,-26.0529209992541,0.0 -50.1166657,-26.0538301992541,0.0 -50.1167377,-26.0545403992541,0.0 -50.1168282,-26.0553631992541,0.0 -50.1169096,-26.0561166992541,0.0 -50.1170516,-26.0568637992541,0.0 -50.1170663,-26.057513099254,0.0 -50.117013,-26.058239799254,0.0 -50.1169308,-26.058957799254,0.0 -50.1168119,-26.059415799254,0.0 -50.1166143,-26.060115799254,0.0 -50.1164362,-26.060772599254,0.0 -50.1165753,-26.0615263992539,0.0 -50.1166979,-26.0619078992539,0.0 -50.1168392,-26.0623587992539,0.0 -50.1171827,-26.0628367992539,0.0 -50.1175172,-26.0632195992539,0.0 -50.1179874,-26.0634905992539,0.0 -50.1184008,-26.0636227992539,0.0 -50.1187872,-26.0634778992539,0.0 -50.1194314,-26.0630973992539,0.0 -50.1194548,-26.0630834992539,0.0 -50.1200187,-26.0623769992539,0.0 -50.120419,-26.061634899254,0.0 -50.1206921,-26.061160399254,0.0 -50.1209858,-26.060504299254,0.0 -50.1212414,-26.059781799254,0.0 -50.1213995,-26.059220099254,0.0 -50.1215673,-26.058658399254,0.0 -50.1219386,-26.057924799254,0.0 -50.1222821,-26.057035299254,0.0 -50.1226628,-26.0563363992541,0.0 -50.1228981,-26.0557577992541,0.0 -50.1230764,-26.0550576992541,0.0 -50.1232465,-26.0541757992541,0.0 -50.1233698,-26.0534631992541,0.0 -50.1234614,-26.0527711992541,0.0 -50.1235418,-26.0523042992541,0.0 -50.12366,-26.0519327992541,0.0 -50.1239536,-26.0512938992542,0.0 -50.1242366,-26.0507848992542,0.0 -50.1246545,-26.0502678992542,0.0 -50.1251198,-26.0498550992542,0.0 -50.125817,-26.0493569992542,0.0 -50.126417,-26.0489708992542,0.0 -50.1268853,-26.0486433992542,0.0 -50.1272929,-26.0482215992542,0.0 -50.1277109,-26.0476872992542,0.0 -50.1282262,-26.0470236992542,0.0 -50.1288002,-26.0462132992543,0.0 -50.1294528,-26.0452042992543,0.0 -50.1299118,-26.0443067992543,0.0 -50.1302925,-26.0435904992543,0.0 -50.1306131,-26.0432114992543,0.0 -50.1308278,-26.0428058992543,0.0 -50.1312159,-26.0424185992543,0.0 -50.1315541,-26.0422732992543,0.0 -50.1319586,-26.0422842992543,0.0 -50.1322367,-26.0424675992543,0.0 -50.1327707,-26.0427789992543,0.0 -50.133221,-26.0431363992543,0.0 -50.1337289,-26.0435113992543,0.0 -50.1340587,-26.0437031992543,0.0 -50.1341799,-26.0437735992543,0.0 -50.1347457,-26.0441489992543,0.0 -50.1354355,-26.0446894992543,0.0 -50.135991,-26.0451685992543,0.0 -50.1365281,-26.0455177992543,0.0 -50.1369021,-26.0457622992543,0.0 -50.1373812,-26.0461370992543,0.0 -50.1379174,-26.0466161992543,0.0 -50.13856,-26.0470351992542,0.0 -50.139135,-26.0474711992542,0.0 -50.1397844,-26.0478561992542,0.0 -50.1401178,-26.0480082992542,0.0 -50.1401802,-26.0480366992542,0.0 -50.1402839,-26.0480839992542,0.0 -50.1407931,-26.0482772992542,0.0 -50.141235,-26.0484614992542,0.0 -50.1415899,-26.0486971992542,0.0 -50.1419626,-26.0491319992542,0.0 -50.1423351,-26.0496014992542,0.0 -50.1425821,-26.0501134992542,0.0 -50.1426951,-26.0504949992542,0.0 -50.1428554,-26.0510065992542,0.0 -50.1430927,-26.0515184992542,0.0 -50.1432714,-26.0521513992541,0.0 -50.143432,-26.0526064992541,0.0 -50.1435257,-26.0529965992541,0.0 -50.1437435,-26.0535430992541,0.0 -50.1439228,-26.0540979992541,0.0 -50.1441014,-26.0547481992541,0.0 -50.1442787,-26.0555800992541,0.0 -50.1444662,-26.0563340992541,0.0 -50.1446253,-26.057027399254,0.0 -50.1447657,-26.057625399254,0.0 -50.1449361,-26.058059099254,0.0 -50.1452037,-26.058389499254,0.0 -50.1456242,-26.058885199254,0.0 -50.1460651,-26.059216599254,0.0 -50.1463912,-26.059434699254,0.0 -50.146776,-26.059523399254,0.0 -50.1471618,-26.059464999254,0.0 -50.1475496,-26.059120899254,0.0 -50.1476866,-26.058996199254,0.0 -50.1479277,-26.058776799254,0.0 -50.1482391,-26.058319699254,0.0 -50.1484743,-26.057741099254,0.0 -50.1487279,-26.057283799254,0.0 -50.1489527,-26.056817599254,0.0 -50.1492944,-26.0561766992541,0.0 -50.1496562,-26.0553996992541,0.0 -50.1498432,-26.0548120992541,0.0 -50.1500984,-26.0541210992541,0.0 -50.1501793,-26.0535675992541,0.0 -50.1503301,-26.0526421992541,0.0 -50.1503723,-26.0521057992541,0.0 -50.1502594,-26.0517069992542,0.0 -50.1499753,-26.0509783992542,0.0 -50.1496264,-26.0498771992542,0.0 -50.1494086,-26.0493220992542,0.0 -50.1491087,-26.0483232992542,0.0 -50.1489204,-26.0476730992542,0.0 -50.1485998,-26.0466585992543,0.0 -50.1482321,-26.0454707992543,0.0 -50.147976,-26.0448894992543,0.0 -50.1477963,-26.0444026992543,0.0 -50.1474729,-26.0437949992543,0.0 -50.1471783,-26.0432047992543,0.0 -50.1468442,-26.0427441992543,0.0 -50.1464627,-26.0421881992543,0.0 -50.1460615,-26.0416838992544,0.0 -50.14566,-26.0412315992544,0.0 -50.1453452,-26.0407884992544,0.0 -50.1449249,-26.0402581992544,0.0 -50.1447444,-26.0398849992544,0.0 -50.1445737,-26.0395031992544,0.0 -50.1444996,-26.0390613992544,0.0 -50.1444638,-26.0385407992544,0.0 -50.1444868,-26.0380042992544,0.0 -50.1444912,-26.0373550992544,0.0 -50.1444848,-26.0368876992545,0.0 -50.1444982,-26.0363337992545,0.0 -50.1444525,-26.0359786992545,0.0 -50.1443111,-26.0355277992545,0.0 -50.1440733,-26.0350850992545,0.0 -50.1438441,-26.0347941992545,0.0 -50.1434901,-26.0344459992545,0.0 -50.143184,-26.0341326992545,0.0 -50.1427342,-26.0336973992545,0.0 -50.1422458,-26.0332792992545,0.0 -50.1417094,-26.0328434992545,0.0 -50.1414811,-26.0324267992545,0.0 -50.1413397,-26.0319758992545,0.0 -50.141294,-26.0316207992546,0.0 -50.1413846,-26.0310586992546,0.0 -50.1414552,-26.0305893992546,0.0 -50.1414968,-26.0301395992546,0.0 -50.1415093,-26.0297241992546,0.0 -50.1415322,-26.0291962992546,0.0 -50.1413041,-26.0287535992546,0.0 -50.1410077,-26.0284403992546,0.0 -50.1406918,-26.0281442992546,0.0 -50.1403189,-26.0277527992546,0.0 -50.1400322,-26.0274222992546,0.0 -50.1398896,-26.0271444992546,0.0 -50.1399018,-26.0267809992547,0.0 -50.1401632,-26.0265833992547,0.0 -50.1408294,-26.0263533992547,0.0 -50.1412927,-26.0262088992547,0.0 -50.1418523,-26.0260821992547,0.0 -50.1424412,-26.0258776992547,0.0 -50.1428373,-26.0257067992547,0.0 -50.1431757,-26.0255181992547,0.0 -50.1435816,-26.0253213992547,0.0 -50.1444318,-26.0249538992547,0.0 -50.1450264,-26.0246788992547,0.0 -50.1458672,-26.0242853992547,0.0 -50.1464369,-26.0240721992547,0.0 -50.1469295,-26.0238844992547,0.0 -50.1478563,-26.0235779992547,0.0 -50.1486863,-26.0233315992547,0.0 -50.1493709,-26.0232314992547,0.0 -50.1500071,-26.0231570992547,0.0 -50.1506332,-26.0231518992547,0.0 -50.1513071,-26.0231988992547,0.0 -50.1518847,-26.0232366992547,0.0 -50.1527406,-26.0234403992547,0.0 -50.1536067,-26.0235489992547,0.0 -50.1543954,-26.0237263992547,0.0 -50.1546215,-26.0237780992547,0.0 -50.1554821,-26.0239746992547,0.0 -50.1563381,-26.0241611992547,0.0 -50.1570495,-26.0243727992547,0.0 -50.1577747,-26.0246103992547,0.0 -50.1584755,-26.0249604992547,0.0 -50.1590419,-26.0252404992547,0.0 -50.1596562,-26.0255640992547,0.0 -50.1602608,-26.0259049992547,0.0 -50.1608562,-26.0261677992547,0.0 -50.1614516,-26.0264393992547,0.0 -50.1619232,-26.0264851992547,0.0 -50.1627202,-26.0263683992547,0.0 -50.1627465,-26.0263635992547,0.0 -50.1635496,-26.0262170992547,0.0 -50.1642932,-26.0259354992547,0.0 -50.1650468,-26.0255932992547,0.0 -50.1656934,-26.0254063992547,0.0 -50.1666006,-26.0251342992547,0.0 -50.1672181,-26.0249904992547,0.0 -50.1677576,-26.0249673992547,0.0 -50.1684218,-26.0250228992547,0.0 -50.1689418,-26.0250429992547,0.0 -50.1696446,-26.0250986992547,0.0 -50.1702508,-26.0251884992547,0.0 -50.1707312,-26.0253728992547,0.0 -50.1708163,-26.0254285992547,0.0 -50.1712107,-26.0256869992547,0.0 -50.1717002,-26.0259579992547,0.0 -50.1720833,-26.0262802992547,0.0 -50.1724571,-26.0265591992547,0.0 -50.1728694,-26.0268470992547,0.0 -50.1733005,-26.0272128992546,0.0 -50.1737621,-26.0274049992546,0.0 -50.1743283,-26.0277195992546,0.0 -50.1748473,-26.0278954992546,0.0 -50.1752704,-26.0280101992546,0.0 -50.1755996,-26.0279749992546,0.0 -50.1758101,-26.0279524992546,0.0 -50.1762632,-26.0279029992546,0.0 -50.1767161,-26.0278793992546,0.0 -50.1773317,-26.0280124992546,0.0 -50.177841,-26.0281969992546,0.0 -50.1782916,-26.0285195992546,0.0 -50.1786752,-26.0287726992546,0.0 -50.1787213,-26.0288241992546,0.0 -50.1790099,-26.0291465992546,0.0 -50.1793063,-26.0294857992546,0.0 -50.1795534,-26.0299976992546,0.0 -50.1797714,-26.0305354992546,0.0 -50.1799991,-26.0310733992546,0.0 -50.180285,-26.0315509992546,0.0 -50.1803975,-26.0320102992545,0.0 -50.1804138,-26.0324690992545,0.0 -50.1803629,-26.0328842992545,0.0 -50.1801103,-26.0332205992545,0.0 -50.1797524,-26.0334349992545,0.0 -50.1793856,-26.0335542992545,0.0 -50.1789035,-26.0336122992545,0.0 -50.1782109,-26.0334700992545,0.0 -50.1776243,-26.0333198992545,0.0 -50.1770863,-26.0331005992545,0.0 -50.1764435,-26.0328029992545,0.0 -50.1761555,-26.0326369992545,0.0 -50.1757136,-26.0324614992545,0.0 -50.1750586,-26.0324406992545,0.0 -50.1743351,-26.0325925992545,0.0 -50.1736488,-26.0329524992545,0.0 -50.1732511,-26.0333744992545,0.0 -50.1729012,-26.0338486992545,0.0 -50.1725892,-26.0344095992545,0.0 -50.1724514,-26.0348502992545,0.0 -50.1724449,-26.0351871992545,0.0 -50.1723643,-26.0357147992545,0.0 -50.1721961,-26.0363803992545,0.0 -50.1720868,-26.0368904992545,0.0 -50.1720438,-26.0375653992544,0.0 -50.1719818,-26.0381968992544,0.0 -50.1719967,-26.0388460992544,0.0 -50.171897,-26.0393562992544,0.0 -50.1717018,-26.0397446992544,0.0 -50.1713428,-26.0401322992544,0.0 -50.1710135,-26.0403901992544,0.0 -50.1706263,-26.0406736992544,0.0 -50.1701043,-26.0409478992544,0.0 -50.1695731,-26.0411527992544,0.0 -50.1689263,-26.0413569992544,0.0 -50.1682127,-26.0414656992544,0.0 -50.1674991,-26.0415743992544,0.0 -50.1667182,-26.0416653992544,0.0 -50.1659282,-26.0416697992543,0.0 -50.1651173,-26.0419164992543,0.0 -50.1644523,-26.0419647992544,0.0 -50.1644135,-26.0419684992543,0.0 -50.163845,-26.0420220992543,0.0 -50.1632971,-26.0420018992544,0.0 -50.1627867,-26.0419644992544,0.0 -50.162469,-26.0419281992543,0.0 -50.1620273,-26.0417179992543,0.0 -50.1617981,-26.0414137992544,0.0 -50.1616561,-26.0410321992544,0.0 -50.1615913,-26.0406423992544,0.0 -50.1616802,-26.0403225992544,0.0 -50.1618271,-26.0399598992544,0.0 -50.1619739,-26.0396230992544,0.0 -50.1622173,-26.0392435992544,0.0 -50.1624515,-26.0387860992544,0.0 -50.1625306,-26.0384835992544,0.0 -50.1627267,-26.0379825992544,0.0 -50.1628569,-26.0372389992544,0.0 -50.1628662,-26.0370612992545,0.0 -50.162879,-26.0368148992544,0.0 -50.1628238,-26.0364337992545,0.0 -50.1627399,-26.0360178992545,0.0 -50.1625115,-26.0355924992545,0.0 -50.1619347,-26.0354248992545,0.0 -50.1613375,-26.0354043992545,0.0 -50.1608258,-26.0355747992545,0.0 -50.160449,-26.0357457992545,0.0 -50.1599659,-26.0359595992545,0.0 -50.159386,-26.0362420992545,0.0 -50.1588643,-26.0364556992545,0.0 -50.1583616,-26.0367298992545,0.0 -50.1577528,-26.0370121992545,0.0 -50.1573177,-26.0372434992544,0.0 -50.1566318,-26.0375340992544,0.0 -50.1562796,-26.0377194992544,0.0 -50.1556314,-26.0381227992544,0.0 -50.1552638,-26.0383544992544,0.0 -50.1547989,-26.0387241992544,0.0 -50.1543341,-26.0390678992544,0.0 -50.1538011,-26.0395409992544,0.0 -50.1534418,-26.0399631992544,0.0 -50.1532853,-26.0403084992544,0.0 -50.1532625,-26.0408276992544,0.0 -50.1533168,-26.0413472992544,0.0 -50.1533519,-26.0418495992544,0.0 -50.1534731,-26.0424387992543,0.0 -50.1535381,-26.0428026992543,0.0 -50.1536601,-26.0432895992543,0.0 -50.1538195,-26.0439309992543,0.0 -50.1539594,-26.0446068992543,0.0 -50.1540324,-26.0452131992543,0.0 -50.1541723,-26.0458890992543,0.0 -50.1544168,-26.0467732992542,0.0 -50.1545087,-26.0474229992542,0.0 -50.1547459,-26.0479608992542,0.0 -50.1550303,-26.0486461992542,0.0 -50.1553926,-26.0492107992542,0.0 -50.1558037,-26.0496804992542,0.0 -50.1561856,-26.0502105992542,0.0 -50.1566542,-26.0507237992542,0.0 -50.1570448,-26.0511175992542,0.0 -50.1574459,-26.0516390992541,0.0 -50.1578955,-26.0521089992541,0.0 -50.1582106,-26.0525347992541,0.0 -50.1587274,-26.0530482992541,0.0 -50.1592243,-26.0536481992541,0.0 -50.1596439,-26.0542909992541,0.0 -50.1600742,-26.0547779992541,0.0 -50.1601778,-26.0551333992541,0.0 -50.1603769,-26.0556105992541,0.0 -50.1605573,-26.0560010992541,0.0 -50.1607853,-26.0564869992541,0.0 -50.1609943,-26.0569295992541,0.0 -50.161271,-26.057337899254,0.0 -50.161577,-26.057677099254,0.0 -50.1619501,-26.058077299254,0.0 -50.1624113,-26.058270199254,0.0 -50.1627956,-26.058445399254,0.0 -50.1633067,-26.058583499254,0.0 -50.1637112,-26.058611699254,0.0 -50.1642218,-26.058614399254,0.0 -50.1644285,-26.058623299254,0.0 -50.1649153,-26.058644199254,0.0 -50.1653007,-26.058646199254,0.0 -50.1660027,-26.058849099254,0.0 -50.166656,-26.059138299254,0.0 -50.1669343,-26.059295599254,0.0 -50.1673657,-26.059626799254,0.0 -50.167643,-26.059948499254,0.0 -50.1677703,-26.060148899254,0.0 -50.1678527,-26.060278599254,0.0 -50.1679658,-26.060659999254,0.0 -50.168059,-26.061136499254,0.0 -50.1681037,-26.0616473992539,0.0 -50.1681299,-26.0620543992539,0.0 -50.1681357,-26.0626429992539,0.0 -50.1681316,-26.0632574992539,0.0 -50.1681765,-26.0637510992539,0.0 -50.1682323,-26.0640456992539,0.0 -50.1684806,-26.0643758992539,0.0 -50.1687202,-26.0645675992539,0.0 -50.1689898,-26.0646036992539,0.0 -50.169356,-26.0645969992539,0.0 -50.1697322,-26.0645297992539,0.0 -50.1700605,-26.0644276992539,0.0 -50.1704083,-26.0642823992539,0.0 -50.1706964,-26.0641329992539,0.0 -50.1708047,-26.0640767992539,0.0 -50.1711244,-26.0638188992539,0.0 -50.1714924,-26.0635437992539,0.0 -50.1718213,-26.0633464992539,0.0 -50.1721593,-26.0632357992539,0.0 -50.1726119,-26.0632641992539,0.0 -50.1729103,-26.0633090992539,0.0 -50.1732552,-26.0636224992539,0.0 -50.1735415,-26.0640394992539,0.0 -50.173751,-26.0644214992539,0.0 -50.1739,-26.0647136992539,0.0 -50.1739184,-26.0647410992539,0.0 -50.1741863,-26.0651393992539,0.0 -50.1742139,-26.0651833992539,0.0 -50.1744532,-26.0655648992539,0.0 -50.174663,-26.0659035992539,0.0 -50.1748912,-26.0663634992539,0.0 -50.1751658,-26.0671006992538,0.0 -50.1752486,-26.0676896992538,0.0 -50.1753994,-26.0682011992538,0.0 -50.1755211,-26.0687384992538,0.0 -50.1755555,-26.0693704992538,0.0 -50.175581,-26.0698899992538,0.0 -50.1755869,-26.0704525992538,0.0 -50.175554,-26.0710582992538,0.0 -50.1755316,-26.0715302992538,0.0 -50.1754701,-26.0720925992537,0.0 -50.1754274,-26.0727241992537,0.0 -50.1754721,-26.0732524992537,0.0 -50.175575,-26.0737116992537,0.0 -50.1757157,-26.0743010992537,0.0 -50.1759814,-26.0749256992537,0.0 -50.1761808,-26.0753767992537,0.0 -50.1764661,-26.0759408992537,0.0 -50.1767228,-26.0764702992536,0.0 -50.1769703,-26.0769302992536,0.0 -50.1773137,-26.0774773992536,0.0 -50.1776383,-26.0779378992536,0.0 -50.1779718,-26.0785022992536,0.0 -50.1782402,-26.0787200992536,0.0 -50.1788273,-26.0788356992536,0.0 -50.1795781,-26.0789694992536,0.0 -50.1802811,-26.0790424992536,0.0 -50.1805468,-26.0790305992536,0.0 -50.1806281,-26.0790269992536,0.0 -50.1811592,-26.0788566992536,0.0 -50.1816235,-26.0785908992536,0.0 -50.182242,-26.0783344992536,0.0 -50.1827157,-26.0780945992536,0.0 -50.1831513,-26.0777939992536,0.0 -50.1835304,-26.0773025992536,0.0 -50.1836857,-26.0768826992536,0.0 -50.1840352,-26.0764777992536,0.0 -50.1843952,-26.0759602992537,0.0 -50.1846967,-26.0755290992537,0.0 -50.1850372,-26.0750374992537,0.0 -50.1853584,-26.0745371992537,0.0 -50.185612,-26.0740797992537,0.0 -50.1858463,-26.0736049992537,0.0 -50.1860425,-26.0730693992537,0.0 -50.1862971,-26.0724474992537,0.0 -50.1864732,-26.0720416992537,0.0 -50.1867746,-26.0716190992537,0.0 -50.1869882,-26.0713778992538,0.0 -50.1874533,-26.0709821992538,0.0 -50.1877822,-26.0707761992538,0.0 -50.1881978,-26.0705878992538,0.0 -50.1886422,-26.0704171992538,0.0 -50.189251,-26.0701433992538,0.0 -50.1896951,-26.0700157992538,0.0 -50.1897596,-26.0699865992538,0.0 -50.1901106,-26.0698275992538,0.0 -50.1905646,-26.0696567992538,0.0 -50.1909296,-26.0694258992538,0.0 -50.1913069,-26.0692027992538,0.0 -50.1915022,-26.0688142992538,0.0 -50.1917373,-26.0682095992538,0.0 -50.1919723,-26.0676395992538,0.0 -50.1921304,-26.0670257992538,0.0 -50.1923857,-26.0662914992539,0.0 -50.1925536,-26.0656517992539,0.0 -50.1928356,-26.0652550992539,0.0 -50.1934543,-26.0649467992539,0.0 -50.1940613,-26.0649412992539,0.0 -50.1947649,-26.0649189992539,0.0 -50.1955265,-26.0648449992539,0.0 -50.1963942,-26.0647629992539,0.0 -50.1973008,-26.0646204992539,0.0 -50.1986313,-26.0645061992539,0.0 -50.1993646,-26.0643368992539,0.0 -50.1999344,-26.0641320992539,0.0 -50.2003795,-26.0638400992539,0.0 -50.2008638,-26.0634443992539,0.0 -50.2013687,-26.0628497992539,0.0 -50.2017672,-26.0623151992539,0.0 -50.202192,-26.0617288992539,0.0 -50.2026292,-26.061159899254,0.0 -50.2030748,-26.060789999254,0.0 -50.2035778,-26.060489599254,0.0 -50.2041176,-26.060457699254,0.0 -50.2046954,-26.060495299254,0.0 -50.2053688,-26.060663199254,0.0 -50.206042,-26.060874399254,0.0 -50.2067053,-26.061111499254,0.0 -50.2070511,-26.061277699254,0.0 -50.207523,-26.061314699254,0.0 -50.2078803,-26.061186699254,0.0 -50.2079871,-26.061047499254,0.0 -50.2081912,-26.060781499254,0.0 -50.2083089,-26.060444499254,0.0 -50.2082441,-26.060020099254,0.0 -50.2081528,-26.059231999254,0.0 -50.2081154,-26.058792899254,0.0 -50.208099,-26.058599899254,0.0 -50.2080444,-26.058088899254,0.0 -50.2080762,-26.057621699254,0.0 -50.2083097,-26.057267999254,0.0 -50.2087834,-26.057019399254,0.0 -50.209739,-26.0567299992541,0.0 -50.2106458,-26.0565441992541,0.0 -50.2115429,-26.0563755992541,0.0 -50.2124398,-26.0562502992541,0.0 -50.2132978,-26.0561680992541,0.0 -50.2142233,-26.0560775992541,0.0 -50.2149855,-26.0560408992541,0.0 -50.2158139,-26.0560709992541,0.0 -50.2165455,-26.0561698992541,0.0 -50.2172769,-26.0563034992541,0.0 -50.2178929,-26.0564103992541,0.0 -50.2185561,-26.056664799254,0.0 -50.2190364,-26.056883599254,0.0 -50.219555,-26.057154499254,0.0 -50.2199477,-26.057528699254,0.0 -50.2202061,-26.057806899254,0.0 -50.2205988,-26.058189699254,0.0 -50.2212104,-26.058989099254,0.0 -50.2215548,-26.059397599254,0.0 -50.2218801,-26.059762799254,0.0 -50.2222534,-26.060162799254,0.0 -50.2226853,-26.060424599254,0.0 -50.2231663,-26.060548199254,0.0 -50.2236671,-26.060593999254,0.0 -50.2241109,-26.060500999254,0.0 -50.2244297,-26.060364099254,0.0 -50.22474,-26.060036699254,0.0 -50.22506,-26.059718099254,0.0 -50.2251207,-26.059605899254,0.0 -50.2251769,-26.059502299254,0.0 -50.225218,-26.059086999254,0.0 -50.2251734,-26.058506899254,0.0 -50.2249929,-26.058090499254,0.0 -50.2248896,-26.057665899254,0.0 -50.2247568,-26.057362799254,0.0 -50.2247185,-26.057275499254,0.0 -50.2247162,-26.057112599254,0.0 -50.2247117,-26.056804499254,0.0 -50.2247112,-26.0567657992541,0.0 -50.2248581,-26.0563770992541,0.0 -50.2253034,-26.0560329992541,0.0 -50.2258544,-26.0557414992541,0.0 -50.2266185,-26.0554279992541,0.0 -50.2266465,-26.0554164992541,0.0 -50.227245,-26.0552290992541,0.0 -50.2277865,-26.0549027992541,0.0 -50.2282406,-26.0546973992541,0.0 -50.228638,-26.0543097992541,0.0 -50.228968,-26.0539132992541,0.0 -50.2291297,-26.0534795992541,0.0 -50.2292031,-26.0532826992541,0.0 -50.2295239,-26.0528081992541,0.0 -50.2298347,-26.0524028992541,0.0 -50.2302035,-26.0519632992541,0.0 -50.2305721,-26.0515583992542,0.0 -50.2309895,-26.0510410992542,0.0 -50.2315605,-26.0506197992542,0.0 -50.2321806,-26.0500515992542,0.0 -50.2327808,-26.0495870992542,0.0 -50.233226,-26.0492517992542,0.0 -50.2336208,-26.0488864992542,0.0 -50.2339172,-26.0484532992542,0.0 -50.2339513,-26.0484033992542,0.0 -50.234583,-26.0475459992542,0.0 -50.2345761,-26.0470561992542,0.0 -50.2345698,-26.0465021992543,0.0 -50.2345638,-26.0459049992543,0.0 -50.234567,-26.0453769992543,0.0 -50.2345901,-26.0447538992543,0.0 -50.2346129,-26.0441654992543,0.0 -50.23481,-26.0434480992543,0.0 -50.2348992,-26.0430329992543,0.0 -50.2350863,-26.0423674992543,0.0 -50.2352142,-26.0419352992543,0.0 -50.2354163,-26.0414371992544,0.0 -50.235604,-26.0406764992544,0.0 -50.2356366,-26.0400706992544,0.0 -50.2356878,-26.0395602992544,0.0 -50.235672,-26.0389975992544,0.0 -50.2356462,-26.0384867992544,0.0 -50.235737,-26.0378121992544,0.0 -50.2357216,-26.0376523992544,0.0 -50.2356826,-26.0372492992544,0.0 -50.2357634,-26.0366437992545,0.0 -50.2358426,-26.0362892992545,0.0 -50.2360275,-26.0359786992545,0.0 -50.2363389,-26.0354608992545,0.0 -50.2366488,-26.0351853992545,0.0 -50.2371712,-26.0348330992545,0.0 -50.2377605,-26.0345502992545,0.0 -50.238475,-26.0342854992545,0.0 -50.2393333,-26.0341165992545,0.0 -50.240278,-26.0340172992545,0.0 -50.2409916,-26.0338995992545,0.0 -50.2413079,-26.0339829992545,0.0 -50.2415691,-26.0339666992545,0.0 -50.2419536,-26.0339427992545,0.0 -50.2426766,-26.0338683992545,0.0 -50.243236,-26.0337499992545,0.0 -50.2435936,-26.0335525992545,0.0 -50.2439521,-26.0332081992545,0.0 -50.2443304,-26.0327771992545,0.0 -50.2448542,-26.0321651992545,0.0 -50.245271,-26.0317430992546,0.0 -50.2454063,-26.0315814992546,0.0 -50.2455523,-26.0314068992546,0.0 -50.2459591,-26.0310366992546,0.0 -50.246146,-26.0309343992546,0.0 -50.2464133,-26.0307878992546,0.0 -50.2470117,-26.0305916992546,0.0 -50.2474847,-26.0304295992546,0.0 -50.248111,-26.0303892992546,0.0 -50.2486119,-26.0303916992546,0.0 -50.2493057,-26.0303517992546,0.0 -50.2499605,-26.0303895992546,0.0 -50.2507019,-26.0304277992546,0.0 -50.2512218,-26.0304734992546,0.0 -50.251587,-26.0306223992546,0.0 -50.2519038,-26.0308056992546,0.0 -50.2521456,-26.0309896992546,0.0 -50.2522586,-26.0310756992546,0.0 -50.2525263,-26.0314058992546,0.0 -50.252611,-26.0315638992546,0.0 -50.2527169,-26.0317616992546,0.0 -50.2529168,-26.0321520992545,0.0 -50.2530204,-26.0325507992545,0.0 -50.2531807,-26.0331400992545,0.0 -50.25337,-26.0337122992545,0.0 -50.253578,-26.0343797992545,0.0 -50.2537665,-26.0350730992545,0.0 -50.2539846,-26.0356627992545,0.0 -50.2541295,-26.0360970992545,0.0 -50.2543284,-26.0366692992544,0.0 -50.2545956,-26.0370946992544,0.0 -50.2547857,-26.0375370992544,0.0 -50.2549565,-26.0379792992544,0.0 -50.2551184,-26.0382927992544,0.0 -50.2551851,-26.0384217992544,0.0 -50.2552791,-26.0388117992544,0.0 -50.2552851,-26.0394176992544,0.0 -50.255128,-26.0399188992544,0.0 -50.2549514,-26.0404719992544,0.0 -50.2546502,-26.0408946992544,0.0 -50.2544712,-26.0410839992544,0.0 -50.2542915,-26.0412737992544,0.0 -50.2539712,-26.0416790992544,0.0 -50.253621,-26.0422573992543,0.0 -50.2533479,-26.0428186992543,0.0 -50.2531036,-26.0434060992543,0.0 -50.2528598,-26.0438895992543,0.0 -50.2527813,-26.0441431992543,0.0 -50.2526533,-26.0446084992543,0.0 -50.2526434,-26.0446445992543,0.0 -50.2525239,-26.0453018992543,0.0 -50.2523571,-26.0458203992543,0.0 -50.2521229,-26.0463212992543,0.0 -50.2517717,-26.0470552992543,0.0 -50.2514207,-26.0477633992542,0.0 -50.2510503,-26.0484713992542,0.0 -50.250824,-26.0492665992542,0.0 -50.2507902,-26.0494993992542,0.0 -50.2507436,-26.0498200992542,0.0 -50.2507884,-26.0503915992542,0.0 -50.251027,-26.0507735992542,0.0 -50.2515059,-26.0512432992542,0.0 -50.2517938,-26.0514437992542,0.0 -50.2522359,-26.0516276992541,0.0 -50.2529478,-26.0518041992541,0.0 -50.2534872,-26.0518239992541,0.0 -50.2540268,-26.0518006992541,0.0 -50.2545474,-26.0517424992541,0.0 -50.255059,-26.0515891992542,0.0 -50.2556488,-26.0512284992542,0.0 -50.2562488,-26.0507811992542,0.0 -50.2569655,-26.0501354992542,0.0 -50.2574695,-26.0496185992542,0.0 -50.2580126,-26.0490152992542,0.0 -50.2586136,-26.0483862992542,0.0 -50.2588044,-26.0481853992542,0.0 -50.2592437,-26.0477227992542,0.0 -50.2599218,-26.0470855992542,0.0 -50.2604259,-26.0465599992543,0.0 -50.2609781,-26.0460345992543,0.0 -50.2616659,-26.0453972992543,0.0 -50.2620433,-26.0451047992543,0.0 -50.2625951,-26.0446572992543,0.0 -50.2628039,-26.0444999992543,0.0 -50.2630409,-26.0443213992543,0.0 -50.2631211,-26.0442609992543,0.0 -50.2638268,-26.0438488992543,0.0 -50.2644837,-26.0435489992543,0.0 -50.2651133,-26.0432933992543,0.0 -50.2654107,-26.0431725992543,0.0 -50.265855,-26.0429841992543,0.0 -50.2665886,-26.0427366992543,0.0 -50.2672829,-26.0426187992543,0.0 -50.2678799,-26.0426647992543,0.0 -50.2683707,-26.0427449992543,0.0 -50.2684658,-26.0427872992543,0.0 -50.2683199,-26.0425783992543,0.0 -50.2672949,-26.0411114992544,0.0 -50.2676633,-26.0380037992544,0.0 -50.269773,-26.0354890992545,0.0 -50.2668725,-26.0345705992545,0.0 -50.2664142,-26.0340744992545,0.0 -50.2646576,-26.0321732992545,0.0 -50.2620686,-26.0235508992547,0.0 -50.2594519,-26.0194340992548,0.0 -50.2574622,-26.0186127992548,0.0 -50.2560771,-26.0171635992548,0.0 -50.2558819,-26.0162597992549,0.0 -50.2565372,-26.0151363992549,0.0 -50.2558592,-26.012068499255,0.0 -50.2554628,-26.011616499255,0.0 -50.2542659,-26.011700099255,0.0 -50.2540702,-26.011067599255,0.0 -50.2544803,-26.009355599255,0.0 -50.2537534,-26.0059725992551,0.0 -50.253773,-26.0029965992551,0.0 -50.2521155,-26.0006297992552,0.0 -50.250133,-25.9996878992552,0.0 -50.2499598,-25.9990388992552,0.0 -50.2488268,-25.9971796992552,0.0 -50.2486378,-25.9956459992553,0.0 -50.2474481,-25.9943765992553,0.0 -50.2455031,-25.9906916992554,0.0 -50.2424704,-25.9890967992554,0.0 -50.2406716,-25.9821443992556,0.0 -50.2395029,-25.9808853992556,0.0 -50.2388409,-25.9798072992556,0.0 -50.2381112,-25.9772156992557,0.0 -50.2348728,-25.9733455992557,0.0 -50.2336717,-25.9698457992558,0.0 -50.2316867,-25.9684374992558,0.0 -50.2284819,-25.9670975992559,0.0 -50.2248277,-25.9557468992561,0.0 -50.2247032,-25.9553601992561,0.0 -50.220082,-25.9410064992564,0.0 -50.2207731,-25.9381021992564,0.0 -50.2195442,-25.9356164992565,0.0 -50.2191617,-25.9332727992565,0.0 -50.2193495,-25.9310853992566,0.0 -50.2211209,-25.9269020992567,0.0 -50.2201179,-25.9251317992567,0.0 -50.2175997,-25.9206852992568,0.0 -50.2173342,-25.9194001992568,0.0 -50.2194402,-25.9173375992569,0.0 -50.2189514,-25.9160709992569,0.0 -50.2204304,-25.9146573992569,0.0 -50.2215021,-25.910518899257,0.0 -50.2245332,-25.9078979992571,0.0 -50.2249925,-25.9061422992571,0.0 -50.2259491,-25.9048852992571,0.0 -50.2255852,-25.9031477992572,0.0 -50.2264416,-25.9016186992572,0.0 -50.2269922,-25.8975901992573,0.0 -50.2276479,-25.8959665992573,0.0 -50.2273586,-25.8947051992573,0.0 -50.2285173,-25.8927719992574,0.0 -50.2285489,-25.8916234992574,0.0 -50.2296987,-25.8909087992574,0.0 -50.22996,-25.8892866992574,0.0 -50.227823,-25.8844734992575,0.0 -50.2282997,-25.8831418992576,0.0 -50.2288279,-25.8824767992576,0.0 -50.2309561,-25.8815368992576,0.0 -50.2325737,-25.8776260992577,0.0 -50.2323294,-25.8764893992577,0.0 -50.2344643,-25.8742315992578,0.0 -50.2346215,-25.8731485992578,0.0 -50.2334354,-25.8715213992578,0.0 -50.2335152,-25.8709564992578,0.0 -50.2343683,-25.8695209992578,0.0 -50.2342317,-25.8679426992579,0.0 -50.2356292,-25.8670908992579,0.0 -50.2358357,-25.8660568992579,0.0 -50.2349806,-25.863594599258,0.0 -50.23419,-25.862779999258,0.0 -50.2341551,-25.860388499258,0.0 -50.2375875,-25.8570491992581,0.0 -50.2379918,-25.8560067992581,0.0 -50.2383898,-25.8557304992581,0.0 -50.2390333,-25.8557046992581,0.0 -50.24095,-25.8567277992581,0.0 -50.243137,-25.8571917992581,0.0 -50.2455162,-25.8550176992581,0.0 -50.2464251,-25.8530381992582,0.0 -50.247719,-25.8528632992582,0.0 -50.2486219,-25.8521482992582,0.0 -50.2509063,-25.8520827992582,0.0 -50.2547968,-25.8531466992582,0.0 -50.2564845,-25.8526137992582,0.0 -50.2568371,-25.8525023992582,0.0 -50.2606251,-25.8476022992583,0.0 -50.2626838,-25.8466824992583,0.0 -50.2607029,-25.8448142992583,0.0 -50.2601685,-25.8434997992584,0.0 -50.2616839,-25.8424966992584,0.0 -50.2640342,-25.8432195992584,0.0 -50.2654862,-25.8422967992584,0.0 -50.2654928,-25.8414225992584,0.0 -50.2643036,-25.8403021992584,0.0 -50.2635205,-25.8395645992585,0.0 -50.2582535,-25.8409336992584,0.0 -50.2550024,-25.8411844992584,0.0 -50.2532756,-25.8408524992584,0.0 -50.2480395,-25.8368755992585,0.0 -50.2435358,-25.8345526992586,0.0 -50.2377295,-25.8329413992586,0.0 -50.2361402,-25.8300355992586,0.0 -50.2348543,-25.8306242992586,0.0 -50.232683,-25.8304373992586,0.0 -50.2319518,-25.8294872992587,0.0 -50.2331107,-25.8270824992587,0.0 -50.2304165,-25.8241921992588,0.0 -50.2306543,-25.8234915992588,0.0 -50.2325609,-25.8222338992588,0.0 -50.2334095,-25.8200464992588,0.0 -50.2350065,-25.8191412992589,0.0 -50.2349433,-25.8168229992589,0.0 -50.2354891,-25.8164404992589,0.0 -50.2383095,-25.8162537992589,0.0 -50.2394321,-25.8151424992589,0.0 -50.2393616,-25.814124699259,0.0 -50.2383566,-25.813661599259,0.0 -50.235657,-25.814508499259,0.0 -50.2341062,-25.814395399259,0.0 -50.2327549,-25.813686199259,0.0 -50.2289931,-25.813454499259,0.0 -50.2281879,-25.812765699259,0.0 -50.2272915,-25.813472599259,0.0 -50.2254811,-25.813713199259,0.0 -50.2233093,-25.814934199259,0.0 -50.2219518,-25.814451899259,0.0 -50.2198971,-25.8161941992589,0.0 -50.2175593,-25.8168915992589,0.0 -50.2101951,-25.8162700992589,0.0 -50.2089515,-25.8170984992589,0.0 -50.2075669,-25.8181883992589,0.0 -50.2075186,-25.8195761992589,0.0 -50.20666,-25.8197511992589,0.0 -50.2067768,-25.8206871992588,0.0 -50.2050726,-25.8224708992588,0.0 -50.2049918,-25.8242516992588,0.0 -50.204828,-25.8245070992588,0.0 -50.2032296,-25.8243797992588,0.0 -50.2027132,-25.8246474992588,0.0 -50.2024342,-25.8240750992588,0.0 -50.1998834,-25.8227473992588,0.0 -50.1986457,-25.8230125992588,0.0 -50.1963976,-25.8265738992587,0.0 -50.1981426,-25.8298843992586,0.0 -50.19767,-25.8301847992586,0.0 -50.1970463,-25.8304361992586,0.0 -50.1975994,-25.8315800992586,0.0 -50.1960358,-25.8324830992586,0.0 -50.1940001,-25.8358523992585,0.0 -50.1917435,-25.8367389992585,0.0 -50.1902372,-25.8382462992585,0.0 -50.1898739,-25.8394013992585,0.0 -50.1882743,-25.8401761992584,0.0 -50.1878429,-25.8429222992584,0.0 -50.1879478,-25.8438507992584,0.0 -50.186193,-25.8452027992583,0.0 -50.1848472,-25.8454694992583,0.0 -50.1838186,-25.8475102992583,0.0 -50.1821967,-25.8478895992583,0.0 -50.1807744,-25.8488239992583,0.0 -50.1789521,-25.8531343992582,0.0 -50.1748198,-25.8564654992581,0.0 -50.1737512,-25.8581291992581,0.0 -50.1738682,-25.859080599258,0.0 -50.1755416,-25.859462599258,0.0 -50.1765341,-25.859790699258,0.0 -50.1773519,-25.860771299258,0.0 -50.1761571,-25.863840599258,0.0 -50.176875,-25.8663725992579,0.0 -50.175567,-25.8679958992579,0.0 -50.1758571,-25.8698666992578,0.0 -50.1755988,-25.8710965992578,0.0 -50.1751739,-25.8724482992578,0.0 -50.1715318,-25.8735250992578,0.0 -50.169916,-25.8733301992578,0.0 -50.1678291,-25.8720853992578,0.0 -50.1669486,-25.8730482992578,0.0 -50.1664773,-25.8756155992577,0.0 -50.1674735,-25.8778700992577,0.0 -50.1672297,-25.8800684992576,0.0 -50.1638566,-25.8799469992576,0.0 -50.1631521,-25.8787971992576,0.0 -50.1620472,-25.8789184992577,0.0 -50.1605577,-25.8774729992577,0.0 -50.1592729,-25.8771064992577,0.0 -50.1583255,-25.8775699992577,0.0 -50.1583175,-25.8786793992576,0.0 -50.1577722,-25.8790281992576,0.0 -50.1582615,-25.8803778992576,0.0 -50.1574419,-25.8804400992576,0.0 -50.1574201,-25.8809892992576,0.0 -50.1561208,-25.8809152992576,0.0 -50.1556506,-25.8821485992576,0.0 -50.1550422,-25.8824073992576,0.0 -50.153923,-25.8805975992576,0.0 -50.1534074,-25.8804892992576,0.0 -50.1524493,-25.8821737992576,0.0 -50.15088,-25.8826072992576,0.0 -50.1507521,-25.8836566992576,0.0 -50.150165,-25.8844279992575,0.0 -50.1455061,-25.8847948992575,0.0 -50.1448838,-25.8867694992575,0.0 -50.1433599,-25.8874600992575,0.0 -50.1412876,-25.8867487992575,0.0 -50.1386785,-25.8868588992575,0.0 -50.1377751,-25.8863048992575,0.0 -50.1373925,-25.8849651992575,0.0 -50.1356012,-25.8852519992575,0.0 -50.1330271,-25.8836736992576,0.0 -50.1310466,-25.8839184992576,0.0 -50.1302323,-25.8851325992575,0.0 -50.1304342,-25.8864394992575,0.0 -50.1287428,-25.8868153992575,0.0 -50.1269947,-25.8859917992575,0.0 -50.125979,-25.8860971992575,0.0 -50.1260727,-25.8853065992575,0.0 -50.1255765,-25.8850949992575,0.0 -50.1262591,-25.8842451992575,0.0 -50.1257975,-25.8839525992576,0.0 -50.1251558,-25.8841896992575,0.0 -50.1244966,-25.8831931992576,0.0 -50.1253238,-25.8818613992576,0.0 -50.1237029,-25.8809041992576,0.0 -50.1216365,-25.8810266992576,0.0 -50.1211992,-25.8814268992576,0.0 -50.120608,-25.8835076992576,0.0 -50.1183651,-25.8858471992575,0.0 -50.1164473,-25.8881340992575,0.0 -50.1146281,-25.8899998992574,0.0 -50.1116464,-25.8906600992574,0.0 -50.1101179,-25.8912104992574,0.0 -50.1093922,-25.8924844992574,0.0 -50.1090055,-25.8931636992574,0.0 -50.108436,-25.8929617992574,0.0 -50.1073225,-25.8917863992574,0.0 -50.1054161,-25.8911070992574,0.0 -50.104091,-25.8921765992574,0.0 -50.1006418,-25.8931764992574,0.0 -50.0974966,-25.8938536992573,0.0 -50.0941936,-25.8939847992573,0.0 -50.0914568,-25.8953560992573,0.0 -50.0894704,-25.8954954992573,0.0 -50.0858303,-25.8983636992573,0.0 -50.0853202,-25.8988745992572,0.0 -50.0831639,-25.8994103992572,0.0 -50.0820684,-25.8979702992573,0.0 -50.0822051,-25.8964921992573,0.0 -50.0806356,-25.8932636992573,0.0 -50.0801537,-25.8933741992574,0.0 -50.0798074,-25.8945157992573,0.0 -50.0788062,-25.8954180992573,0.0 -50.0740735,-25.8962095992573,0.0 -50.0692619,-25.8926102992574,0.0 -50.0671089,-25.8889836992574,0.0 -50.0661871,-25.8905892992574,0.0 -50.064098,-25.8922271992574,0.0 -50.062928,-25.8916555992574,0.0 -50.0616863,-25.8887322992574,0.0 -50.0603343,-25.8880791992575,0.0 -50.0540332,-25.8894169992574,0.0 -50.0531691,-25.8881460992575,0.0 -50.0547408,-25.8867556992575,0.0 -50.0542373,-25.8857469992575,0.0 -50.0542048,-25.8836352992576,0.0 -50.0511803,-25.8809582992576,0.0 -50.0488655,-25.8840372992575,0.0 -50.0470263,-25.8847055992575,0.0 -50.0460465,-25.8845392992575,0.0</coordinates>
</LinearRing>
</outerBoundaryIs>
</Polygon>
</MultiGeometry>
</Placemark>
</Folder>
</Document></kml>
