<?xml version='1.0' encoding='UTF-8'?>
<kml xmlns:xsd="http://www.w3.org/2001/XMLSchema" xmlns:gx="http://www.google.com/kml/ext/2.2" xmlns:atom="http://www.w3.org/2005/Atom" xmlns="http://www.opengis.net/kml/2.2">
<Document>
<name>floresta_4107900_localidades_2022</name>
<visibility>1</visibility>
<Schema name="Núcleos Urbanos" id="kml_schema_ft_Núcleos_Urbanos">
<SimpleField type="xsd:string" name="CD_UF">
<displayName>CD_UF</displayName>
</SimpleField>
<SimpleField type="xsd:string" name="NM_UF">
<displayName>NM_UF</displayName>
</SimpleField>
<SimpleField type="xsd:string" name="SIGLA_UF">
<displayName>SIGLA_UF</displayName>
</SimpleField>
<SimpleField type="xsd:string" name="CD_MUN">
<displayName>CD_MUN</displayName>
</SimpleField>
<SimpleField type="xsd:string" name="NM_MUN">
<displayName>NM_MUN</displayName>
</SimpleField>
<SimpleField type="xsd:string" name="CD_RGINT">
<displayName>CD_RGINT</displayName>
</SimpleField>
<SimpleField type="xsd:string" name="NM_RGINT">
<displayName>NM_RGINT</displayName>
</SimpleField>
<SimpleField type="xsd:string" name="CD_RGI">
<displayName>CD_RGI</displayName>
</SimpleField>
<SimpleField type="xsd:string" name="NM_RGI">
<displayName>NM_RGI</displayName>
</SimpleField>
<SimpleField type="xsd:string" name="CT_LOCALIDADE">
<displayName>CT_LOCALIDADE</displayName>
</SimpleField>
<SimpleField type="xsd:string" name="CD_LOCALIDADE">
<displayName>CD_LOCALIDADE</displayName>
</SimpleField>
<SimpleField type="xsd:string" name="NM_LOCALIDADE">
<displayName>NM_LOCALIDADE</displayName>
</SimpleField>
<SimpleField type="xsd:string" name="LAT_LOCALIDADE">
<displayName>LAT_LOCALIDADE</displayName>
</SimpleField>
<SimpleField type="xsd:string" name="LONG_LOCALIDADE">
<displayName>LONG_LOCALIDADE</displayName>
</SimpleField>
</Schema>
<Schema name="01. Cidade" id="kml_schema_ft_01._Cidade">
<SimpleField type="xsd:string" name="CD_UF">
<displayName>CD_UF</displayName>
</SimpleField>
<SimpleField type="xsd:string" name="NM_UF">
<displayName>NM_UF</displayName>
</SimpleField>
<SimpleField type="xsd:string" name="SIGLA_UF">
<displayName>SIGLA_UF</displayName>
</SimpleField>
<SimpleField type="xsd:string" name="CD_MUN">
<displayName>CD_MUN</displayName>
</SimpleField>
<SimpleField type="xsd:string" name="NM_MUN">
<displayName>NM_MUN</displayName>
</SimpleField>
<SimpleField type="xsd:string" name="CD_RGINT">
<displayName>CD_RGINT</displayName>
</SimpleField>
<SimpleField type="xsd:string" name="NM_RGINT">
<displayName>NM_RGINT</displayName>
</SimpleField>
<SimpleField type="xsd:string" name="CD_RGI">
<displayName>CD_RGI</displayName>
</SimpleField>
<SimpleField type="xsd:string" name="NM_RGI">
<displayName>NM_RGI</displayName>
</SimpleField>
<SimpleField type="xsd:string" name="CT_LOCALIDADE">
<displayName>CT_LOCALIDADE</displayName>
</SimpleField>
<SimpleField type="xsd:string" name="SCT_LOCALIDADE">
<displayName>SCT_LOCALIDADE</displayName>
</SimpleField>
<SimpleField type="xsd:string" name="CD_LOCALIDADE">
<displayName>CD_LOCALIDADE</displayName>
</SimpleField>
<SimpleField type="xsd:string" name="NM_LOCALIDADE">
<displayName>NM_LOCALIDADE</displayName>
</SimpleField>
<SimpleField type="xsd:string" name="LAT_LOCALIDADE">
<displayName>LAT_LOCALIDADE</displayName>
</SimpleField>
<SimpleField type="xsd:string" name="LONG_LOCALIDADE">
<displayName>LONG_LOCALIDADE</displayName>
</SimpleField>
</Schema>
<Schema name="Município" id="kml_schema_ft_Município">
<SimpleField type="xsd:string" name="CD_UF">
<displayName>CD_UF</displayName>
</SimpleField>
<SimpleField type="xsd:string" name="NM_UF">
<displayName>NM_UF</displayName>
</SimpleField>
<SimpleField type="xsd:string" name="CD_MUN">
<displayName>CD_MUN</displayName>
</SimpleField>
<SimpleField type="xsd:string" name="NM_MUN">
<displayName>NM_MUN</displayName>
</SimpleField>
<SimpleField type="xsd:string" name="CD_RGINT">
<displayName>CD_RGINT</displayName>
</SimpleField>
<SimpleField type="xsd:string" name="NM_RGINT">
<displayName>NM_RGINT</displayName>
</SimpleField>
<SimpleField type="xsd:string" name="CD_RGI">
<displayName>CD_RGI</displayName>
</SimpleField>
<SimpleField type="xsd:string" name="NM_RGI">
<displayName>NM_RGI</displayName>
</SimpleField>
</Schema>
<Folder id="01. Cidade">
<name>01. Cidade</name>
<Folder id="01.03. Sede Municipal">
<name>01.03. Sede Municipal</name>
<Placemark id="01.03. Sede Municipal">
<name>Floresta [4107900]</name>
<visibility>1</visibility>
<snippet> </snippet>
<description>&lt;center&gt;&lt;table&gt;&lt;tr&gt;&lt;th colspan='2' align='center'&gt;&lt;em&gt;Atributos&lt;/em&gt;&lt;/th&gt;&lt;/tr&gt;&lt;tr bgcolor="#E3E3F3"&gt;
&lt;th&gt;CD_UF&lt;/th&gt;
&lt;td&gt;41&lt;/td&gt;
&lt;/tr&gt;&lt;tr bgcolor=""&gt;
&lt;th&gt;NM_UF&lt;/th&gt;
&lt;td&gt;Paraná&lt;/td&gt;
&lt;/tr&gt;&lt;tr bgcolor="#E3E3F3"&gt;
&lt;th&gt;SIGLA_UF&lt;/th&gt;
&lt;td&gt;PR&lt;/td&gt;
&lt;/tr&gt;&lt;tr bgcolor=""&gt;
&lt;th&gt;CD_MUN&lt;/th&gt;
&lt;td&gt;4107900&lt;/td&gt;
&lt;/tr&gt;&lt;tr bgcolor="#E3E3F3"&gt;
&lt;th&gt;NM_MUN&lt;/th&gt;
&lt;td&gt;Floresta&lt;/td&gt;
&lt;/tr&gt;&lt;tr bgcolor=""&gt;
&lt;th&gt;CD_RGINT&lt;/th&gt;
&lt;td&gt;4104&lt;/td&gt;
&lt;/tr&gt;&lt;tr bgcolor="#E3E3F3"&gt;
&lt;th&gt;NM_RGINT&lt;/th&gt;
&lt;td&gt;Maringá&lt;/td&gt;
&lt;/tr&gt;&lt;tr bgcolor=""&gt;
&lt;th&gt;CD_RGI&lt;/th&gt;
&lt;td&gt;410014&lt;/td&gt;
&lt;/tr&gt;&lt;tr bgcolor="#E3E3F3"&gt;
&lt;th&gt;NM_RGI&lt;/th&gt;
&lt;td&gt;Maringá&lt;/td&gt;
&lt;/tr&gt;&lt;tr bgcolor=""&gt;
&lt;th&gt;CT_LOCALIDADE&lt;/th&gt;
&lt;td&gt;Cidade&lt;/td&gt;
&lt;/tr&gt;&lt;tr bgcolor="#E3E3F3"&gt;
&lt;th&gt;SCT_LOCALIDADE&lt;/th&gt;
&lt;td&gt;Sede Municipal&lt;/td&gt;
&lt;/tr&gt;&lt;tr bgcolor=""&gt;
&lt;th&gt;CD_LOCALIDADE&lt;/th&gt;
&lt;td&gt;4107900&lt;/td&gt;
&lt;/tr&gt;&lt;tr bgcolor="#E3E3F3"&gt;
&lt;th&gt;NM_LOCALIDADE&lt;/th&gt;
&lt;td&gt;Floresta&lt;/td&gt;
&lt;/tr&gt;&lt;tr bgcolor=""&gt;
&lt;th&gt;LAT_LOCALIDADE&lt;/th&gt;
&lt;td&gt;-23.616&lt;/td&gt;
&lt;/tr&gt;&lt;tr bgcolor="#E3E3F3"&gt;
&lt;th&gt;LONG_LOCALIDADE&lt;/th&gt;
&lt;td&gt;-52.0832&lt;/td&gt;
&lt;/tr&gt;&lt;/table&gt;&lt;/center&gt;</description>
<Style>
<IconStyle>
<color>ff00aaff</color>
<scale>1.0</scale>
<Icon>
<href>http://maps.google.com/mapfiles/kml/shapes/placemark_circle.png</href>
</Icon>
</IconStyle>
<LabelStyle>
<scale>1.0</scale>
</LabelStyle>
<LineStyle>
<color>ffffffff</color>
<width>3</width>
<gx:labelVisibility>1</gx:labelVisibility>
</LineStyle>
<PolyStyle>
<color>00ffffff</color>
</PolyStyle>
</Style>
<ExtendedData>
<SchemaData schemaUrl="#kml_schema_ft_01._Cidade">
<SimpleData name="CD_UF">41</SimpleData>
<SimpleData name="NM_UF">Paraná</SimpleData>
<SimpleData name="SIGLA_UF">PR</SimpleData>
<SimpleData name="CD_MUN">4107900</SimpleData>
<SimpleData name="NM_MUN">Floresta</SimpleData>
<SimpleData name="CD_RGINT">4104</SimpleData>
<SimpleData name="NM_RGINT">Maringá</SimpleData>
<SimpleData name="CD_RGI">410014</SimpleData>
<SimpleData name="NM_RGI">Maringá</SimpleData>
<SimpleData name="CT_LOCALIDADE">Cidade</SimpleData>
<SimpleData name="SCT_LOCALIDADE">Sede Municipal</SimpleData>
<SimpleData name="CD_LOCALIDADE">4107900</SimpleData>
<SimpleData name="NM_LOCALIDADE">Floresta</SimpleData>
<SimpleData name="LAT_LOCALIDADE">-23.616</SimpleData>
<SimpleData name="LONG_LOCALIDADE">-52.0832</SimpleData>
</SchemaData>
</ExtendedData>
<Point>
<extrude>0</extrude>
<coordinates>-52.083158,-23.6160089993059,0.0</coordinates>
</Point>
</Placemark>
</Folder>
</Folder>
<Folder id="05. Núcleos Urbanos">
<name>05. Núcleos Urbanos</name>
<Placemark id="localidades">
<name>Condomínio Monte Carlo / Água Viva [4107900001]</name>
<visibility>1</visibility>
<snippet> </snippet>
<description>&lt;center&gt;&lt;table&gt;&lt;tr&gt;&lt;th colspan='2' align='center'&gt;&lt;em&gt;Attributes&lt;/em&gt;&lt;/th&gt;&lt;/tr&gt;&lt;tr bgcolor="#E3E3F3"&gt;
&lt;th&gt;CD_UF&lt;/th&gt;
&lt;td&gt;41&lt;/td&gt;
&lt;/tr&gt;&lt;tr bgcolor=""&gt;
&lt;th&gt;NM_UF&lt;/th&gt;
&lt;td&gt;Paraná&lt;/td&gt;
&lt;/tr&gt;&lt;tr bgcolor="#E3E3F3"&gt;
&lt;th&gt;SIGLA_UF&lt;/th&gt;
&lt;td&gt;PR&lt;/td&gt;
&lt;/tr&gt;&lt;tr bgcolor=""&gt;
&lt;th&gt;CD_MUN&lt;/th&gt;
&lt;td&gt;4107900&lt;/td&gt;
&lt;/tr&gt;&lt;tr bgcolor="#E3E3F3"&gt;
&lt;th&gt;NM_MUN&lt;/th&gt;
&lt;td&gt;Floresta&lt;/td&gt;
&lt;/tr&gt;&lt;tr bgcolor=""&gt;
&lt;th&gt;CD_RGINT&lt;/th&gt;
&lt;td&gt;4104&lt;/td&gt;
&lt;/tr&gt;&lt;tr bgcolor="#E3E3F3"&gt;
&lt;th&gt;NM_RGINT&lt;/th&gt;
&lt;td&gt;Maringá&lt;/td&gt;
&lt;/tr&gt;&lt;tr bgcolor=""&gt;
&lt;th&gt;CD_RGI&lt;/th&gt;
&lt;td&gt;410014&lt;/td&gt;
&lt;/tr&gt;&lt;tr bgcolor="#E3E3F3"&gt;
&lt;th&gt;NM_RGI&lt;/th&gt;
&lt;td&gt;Maringá&lt;/td&gt;
&lt;/tr&gt;&lt;tr bgcolor=""&gt;
&lt;th&gt;CT_LOCALIDADE&lt;/th&gt;
&lt;td&gt;Núcleo Urbano&lt;/td&gt;
&lt;/tr&gt;&lt;tr bgcolor="#E3E3F3"&gt;
&lt;th&gt;CD_LOCALIDADE&lt;/th&gt;
&lt;td&gt;4107900001&lt;/td&gt;
&lt;/tr&gt;&lt;tr bgcolor=""&gt;
&lt;th&gt;NM_LOCALIDADE&lt;/th&gt;
&lt;td&gt;Condomínio Monte Carlo / Água Viva&lt;/td&gt;
&lt;/tr&gt;&lt;tr bgcolor="#E3E3F3"&gt;
&lt;th&gt;LAT_LOCALIDADE&lt;/th&gt;
&lt;td&gt;-23.6763&lt;/td&gt;
&lt;/tr&gt;&lt;tr bgcolor=""&gt;
&lt;th&gt;LONG_LOCALIDADE&lt;/th&gt;
&lt;td&gt;-52.124&lt;/td&gt;
&lt;/tr&gt;&lt;/table&gt;&lt;/center&gt;</description>
<Style>
<IconStyle>
<color>ff0000ff</color>
<scale>0.9</scale>
<Icon>
<href>http://maps.google.com/mapfiles/kml/shapes/placemark_circle.png</href>
</Icon>
</IconStyle>
<LabelStyle>
<scale>0.9</scale>
</LabelStyle>
<LineStyle>
<color>72ffffff</color>
<width>1.0</width>
<gx:labelVisibility>1</gx:labelVisibility>
</LineStyle>
<PolyStyle>
<color>66ff54ff</color>
</PolyStyle>
</Style>
<ExtendedData>
<SchemaData schemaUrl="#kml_schema_ft_Núcleos_Urbanos">
<SimpleData name="CD_UF">41</SimpleData>
<SimpleData name="NM_UF">Paraná</SimpleData>
<SimpleData name="SIGLA_UF">PR</SimpleData>
<SimpleData name="CD_MUN">4107900</SimpleData>
<SimpleData name="NM_MUN">Floresta</SimpleData>
<SimpleData name="CD_RGINT">4104</SimpleData>
<SimpleData name="NM_RGINT">Maringá</SimpleData>
<SimpleData name="CD_RGI">410014</SimpleData>
<SimpleData name="NM_RGI">Maringá</SimpleData>
<SimpleData name="CT_LOCALIDADE">Núcleo Urbano</SimpleData>
<SimpleData name="CD_LOCALIDADE">4107900001</SimpleData>
<SimpleData name="NM_LOCALIDADE">Condomínio Monte Carlo / Água Viva</SimpleData>
<SimpleData name="LAT_LOCALIDADE">-23.6763</SimpleData>
<SimpleData name="LONG_LOCALIDADE">-52.124</SimpleData>
</SchemaData>
</ExtendedData>
<Point>
<extrude>0</extrude>
<coordinates>-52.1240189193548,-23.6762515073691,0.0</coordinates>
</Point>
</Placemark>
<Placemark id="localidades">
<name>Estrada Silvestrini [4107900002]</name>
<visibility>1</visibility>
<snippet> </snippet>
<description>&lt;center&gt;&lt;table&gt;&lt;tr&gt;&lt;th colspan='2' align='center'&gt;&lt;em&gt;Attributes&lt;/em&gt;&lt;/th&gt;&lt;/tr&gt;&lt;tr bgcolor="#E3E3F3"&gt;
&lt;th&gt;CD_UF&lt;/th&gt;
&lt;td&gt;41&lt;/td&gt;
&lt;/tr&gt;&lt;tr bgcolor=""&gt;
&lt;th&gt;NM_UF&lt;/th&gt;
&lt;td&gt;Paraná&lt;/td&gt;
&lt;/tr&gt;&lt;tr bgcolor="#E3E3F3"&gt;
&lt;th&gt;SIGLA_UF&lt;/th&gt;
&lt;td&gt;PR&lt;/td&gt;
&lt;/tr&gt;&lt;tr bgcolor=""&gt;
&lt;th&gt;CD_MUN&lt;/th&gt;
&lt;td&gt;4107900&lt;/td&gt;
&lt;/tr&gt;&lt;tr bgcolor="#E3E3F3"&gt;
&lt;th&gt;NM_MUN&lt;/th&gt;
&lt;td&gt;Floresta&lt;/td&gt;
&lt;/tr&gt;&lt;tr bgcolor=""&gt;
&lt;th&gt;CD_RGINT&lt;/th&gt;
&lt;td&gt;4104&lt;/td&gt;
&lt;/tr&gt;&lt;tr bgcolor="#E3E3F3"&gt;
&lt;th&gt;NM_RGINT&lt;/th&gt;
&lt;td&gt;Maringá&lt;/td&gt;
&lt;/tr&gt;&lt;tr bgcolor=""&gt;
&lt;th&gt;CD_RGI&lt;/th&gt;
&lt;td&gt;410014&lt;/td&gt;
&lt;/tr&gt;&lt;tr bgcolor="#E3E3F3"&gt;
&lt;th&gt;NM_RGI&lt;/th&gt;
&lt;td&gt;Maringá&lt;/td&gt;
&lt;/tr&gt;&lt;tr bgcolor=""&gt;
&lt;th&gt;CT_LOCALIDADE&lt;/th&gt;
&lt;td&gt;Núcleo Urbano&lt;/td&gt;
&lt;/tr&gt;&lt;tr bgcolor="#E3E3F3"&gt;
&lt;th&gt;CD_LOCALIDADE&lt;/th&gt;
&lt;td&gt;4107900002&lt;/td&gt;
&lt;/tr&gt;&lt;tr bgcolor=""&gt;
&lt;th&gt;NM_LOCALIDADE&lt;/th&gt;
&lt;td&gt;Estrada Silvestrini&lt;/td&gt;
&lt;/tr&gt;&lt;tr bgcolor="#E3E3F3"&gt;
&lt;th&gt;LAT_LOCALIDADE&lt;/th&gt;
&lt;td&gt;-23.6256&lt;/td&gt;
&lt;/tr&gt;&lt;tr bgcolor=""&gt;
&lt;th&gt;LONG_LOCALIDADE&lt;/th&gt;
&lt;td&gt;-52.0472&lt;/td&gt;
&lt;/tr&gt;&lt;/table&gt;&lt;/center&gt;</description>
<Style>
<IconStyle>
<color>ff0000ff</color>
<scale>0.9</scale>
<Icon>
<href>http://maps.google.com/mapfiles/kml/shapes/placemark_circle.png</href>
</Icon>
</IconStyle>
<LabelStyle>
<scale>0.9</scale>
</LabelStyle>
<LineStyle>
<color>72ffffff</color>
<width>1.0</width>
<gx:labelVisibility>1</gx:labelVisibility>
</LineStyle>
<PolyStyle>
<color>66ff54ff</color>
</PolyStyle>
</Style>
<ExtendedData>
<SchemaData schemaUrl="#kml_schema_ft_Núcleos_Urbanos">
<SimpleData name="CD_UF">41</SimpleData>
<SimpleData name="NM_UF">Paraná</SimpleData>
<SimpleData name="SIGLA_UF">PR</SimpleData>
<SimpleData name="CD_MUN">4107900</SimpleData>
<SimpleData name="NM_MUN">Floresta</SimpleData>
<SimpleData name="CD_RGINT">4104</SimpleData>
<SimpleData name="NM_RGINT">Maringá</SimpleData>
<SimpleData name="CD_RGI">410014</SimpleData>
<SimpleData name="NM_RGI">Maringá</SimpleData>
<SimpleData name="CT_LOCALIDADE">Núcleo Urbano</SimpleData>
<SimpleData name="CD_LOCALIDADE">4107900002</SimpleData>
<SimpleData name="NM_LOCALIDADE">Estrada Silvestrini</SimpleData>
<SimpleData name="LAT_LOCALIDADE">-23.6256</SimpleData>
<SimpleData name="LONG_LOCALIDADE">-52.0472</SimpleData>
</SchemaData>
</ExtendedData>
<Point>
<extrude>0</extrude>
<coordinates>-52.0472017272727,-23.6255828780935,0.0</coordinates>
</Point>
</Placemark>
<Placemark id="localidades">
<name>Jardim Nova Floresta [4107900003]</name>
<visibility>1</visibility>
<snippet> </snippet>
<description>&lt;center&gt;&lt;table&gt;&lt;tr&gt;&lt;th colspan='2' align='center'&gt;&lt;em&gt;Attributes&lt;/em&gt;&lt;/th&gt;&lt;/tr&gt;&lt;tr bgcolor="#E3E3F3"&gt;
&lt;th&gt;CD_UF&lt;/th&gt;
&lt;td&gt;41&lt;/td&gt;
&lt;/tr&gt;&lt;tr bgcolor=""&gt;
&lt;th&gt;NM_UF&lt;/th&gt;
&lt;td&gt;Paraná&lt;/td&gt;
&lt;/tr&gt;&lt;tr bgcolor="#E3E3F3"&gt;
&lt;th&gt;SIGLA_UF&lt;/th&gt;
&lt;td&gt;PR&lt;/td&gt;
&lt;/tr&gt;&lt;tr bgcolor=""&gt;
&lt;th&gt;CD_MUN&lt;/th&gt;
&lt;td&gt;4107900&lt;/td&gt;
&lt;/tr&gt;&lt;tr bgcolor="#E3E3F3"&gt;
&lt;th&gt;NM_MUN&lt;/th&gt;
&lt;td&gt;Floresta&lt;/td&gt;
&lt;/tr&gt;&lt;tr bgcolor=""&gt;
&lt;th&gt;CD_RGINT&lt;/th&gt;
&lt;td&gt;4104&lt;/td&gt;
&lt;/tr&gt;&lt;tr bgcolor="#E3E3F3"&gt;
&lt;th&gt;NM_RGINT&lt;/th&gt;
&lt;td&gt;Maringá&lt;/td&gt;
&lt;/tr&gt;&lt;tr bgcolor=""&gt;
&lt;th&gt;CD_RGI&lt;/th&gt;
&lt;td&gt;410014&lt;/td&gt;
&lt;/tr&gt;&lt;tr bgcolor="#E3E3F3"&gt;
&lt;th&gt;NM_RGI&lt;/th&gt;
&lt;td&gt;Maringá&lt;/td&gt;
&lt;/tr&gt;&lt;tr bgcolor=""&gt;
&lt;th&gt;CT_LOCALIDADE&lt;/th&gt;
&lt;td&gt;Núcleo Urbano&lt;/td&gt;
&lt;/tr&gt;&lt;tr bgcolor="#E3E3F3"&gt;
&lt;th&gt;CD_LOCALIDADE&lt;/th&gt;
&lt;td&gt;4107900003&lt;/td&gt;
&lt;/tr&gt;&lt;tr bgcolor=""&gt;
&lt;th&gt;NM_LOCALIDADE&lt;/th&gt;
&lt;td&gt;Jardim Nova Floresta&lt;/td&gt;
&lt;/tr&gt;&lt;tr bgcolor="#E3E3F3"&gt;
&lt;th&gt;LAT_LOCALIDADE&lt;/th&gt;
&lt;td&gt;-23.5438&lt;/td&gt;
&lt;/tr&gt;&lt;tr bgcolor=""&gt;
&lt;th&gt;LONG_LOCALIDADE&lt;/th&gt;
&lt;td&gt;-52.051&lt;/td&gt;
&lt;/tr&gt;&lt;/table&gt;&lt;/center&gt;</description>
<Style>
<IconStyle>
<color>ff0000ff</color>
<scale>0.9</scale>
<Icon>
<href>http://maps.google.com/mapfiles/kml/shapes/placemark_circle.png</href>
</Icon>
</IconStyle>
<LabelStyle>
<scale>0.9</scale>
</LabelStyle>
<LineStyle>
<color>72ffffff</color>
<width>1.0</width>
<gx:labelVisibility>1</gx:labelVisibility>
</LineStyle>
<PolyStyle>
<color>66ff54ff</color>
</PolyStyle>
</Style>
<ExtendedData>
<SchemaData schemaUrl="#kml_schema_ft_Núcleos_Urbanos">
<SimpleData name="CD_UF">41</SimpleData>
<SimpleData name="NM_UF">Paraná</SimpleData>
<SimpleData name="SIGLA_UF">PR</SimpleData>
<SimpleData name="CD_MUN">4107900</SimpleData>
<SimpleData name="NM_MUN">Floresta</SimpleData>
<SimpleData name="CD_RGINT">4104</SimpleData>
<SimpleData name="NM_RGINT">Maringá</SimpleData>
<SimpleData name="CD_RGI">410014</SimpleData>
<SimpleData name="NM_RGI">Maringá</SimpleData>
<SimpleData name="CT_LOCALIDADE">Núcleo Urbano</SimpleData>
<SimpleData name="CD_LOCALIDADE">4107900003</SimpleData>
<SimpleData name="NM_LOCALIDADE">Jardim Nova Floresta</SimpleData>
<SimpleData name="LAT_LOCALIDADE">-23.5438</SimpleData>
<SimpleData name="LONG_LOCALIDADE">-52.051</SimpleData>
</SchemaData>
</ExtendedData>
<Point>
<extrude>0</extrude>
<coordinates>-52.050959611111,-23.5437609120058,0.0</coordinates>
</Point>
</Placemark>
</Folder>
<Folder id="13. Referência">
<name>13. Referência</name>
<Placemark id="13. Referência">
<name>Floresta [4107900]</name>
<visibility>1</visibility>
<snippet> </snippet>
<description>&lt;center&gt;&lt;table&gt;&lt;tr&gt;&lt;th colspan='2' align='center'&gt;&lt;em&gt;Attributes&lt;/em&gt;&lt;/th&gt;&lt;/tr&gt;&lt;tr bgcolor="#E3E3F3"&gt;
&lt;th&gt;CD_UF&lt;/th&gt;
&lt;td&gt;41&lt;/td&gt;
&lt;/tr&gt;&lt;tr bgcolor=""&gt;
&lt;th&gt;NM_UF&lt;/th&gt;
&lt;td&gt;Paraná&lt;/td&gt;
&lt;/tr&gt;&lt;tr bgcolor="#E3E3F3"&gt;
&lt;th&gt;CD_MUN&lt;/th&gt;
&lt;td&gt;4107900&lt;/td&gt;
&lt;/tr&gt;&lt;tr bgcolor=""&gt;
&lt;th&gt;NM_MUN&lt;/th&gt;
&lt;td&gt;Floresta&lt;/td&gt;
&lt;/tr&gt;&lt;tr bgcolor="#E3E3F3"&gt;
&lt;th&gt;CD_RGINT&lt;/th&gt;
&lt;td&gt;4104&lt;/td&gt;
&lt;/tr&gt;&lt;tr bgcolor=""&gt;
&lt;th&gt;NM_RGINT&lt;/th&gt;
&lt;td&gt;Maringá&lt;/td&gt;
&lt;/tr&gt;&lt;tr bgcolor="#E3E3F3"&gt;
&lt;th&gt;CD_RGI&lt;/th&gt;
&lt;td&gt;410014&lt;/td&gt;
&lt;/tr&gt;&lt;tr bgcolor=""&gt;
&lt;th&gt;NM_RGI&lt;/th&gt;
&lt;td&gt;Maringá&lt;/td&gt;
&lt;/tr&gt;&lt;/table&gt;&lt;/center&gt;</description>
<Style>
<IconStyle>
<scale>0.7</scale>
</IconStyle>
<LabelStyle>
<scale>0.7</scale>
</LabelStyle>
<LineStyle>
<color>ffffffff</color>
<width>3</width>
<gx:labelVisibility>1</gx:labelVisibility>
</LineStyle>
<PolyStyle>
<color>00ffffff</color>
</PolyStyle>
</Style>
<ExtendedData>
<SchemaData schemaUrl="#kml_schema_ft_Município">
<SimpleData name="CD_UF">41</SimpleData>
<SimpleData name="NM_UF">Paraná</SimpleData>
<SimpleData name="CD_MUN">4107900</SimpleData>
<SimpleData name="NM_MUN">Floresta</SimpleData>
<SimpleData name="CD_RGINT">4104</SimpleData>
<SimpleData name="NM_RGINT">Maringá</SimpleData>
<SimpleData name="CD_RGI">410014</SimpleData>
<SimpleData name="NM_RGI">Maringá</SimpleData>
</SchemaData>
</ExtendedData>
<MultiGeometry>
<Polygon>
<extrude>0</extrude>
<tessellate>1</tessellate>
<outerBoundaryIs>
<LinearRing>
<coordinates>-52.0491304,-23.5384506993077,0.0 -52.0431615,-23.5406434993076,0.0 -52.0429558,-23.5407189993076,0.0 -52.0275112,-23.5463854993075,0.0 -52.0274898,-23.5463933993075,0.0 -51.9997501,-23.5565708993073,0.0 -52.0008339,-23.5569331993072,0.0 -52.0008435,-23.5580487993072,0.0 -52.0024326,-23.5584852993072,0.0 -52.0047044,-23.5599630993072,0.0 -52.0052306,-23.5605356993072,0.0 -52.0060749,-23.5609941993072,0.0 -52.0069304,-23.5617551993071,0.0 -52.0064987,-23.5627712993071,0.0 -52.0060394,-23.5627617993071,0.0 -52.005486,-23.5623683993071,0.0 -52.0051115,-23.5623888993071,0.0 -52.0043981,-23.5629275993071,0.0 -52.0042267,-23.5635083993071,0.0 -52.0049704,-23.5651136993071,0.0 -52.0056299,-23.5654921993071,0.0 -52.0056744,-23.5659818993071,0.0 -52.0058375,-23.566011999307,0.0 -52.0060385,-23.565874699307,0.0 -52.0065109,-23.566119899307,0.0 -52.0066695,-23.5659314993071,0.0 -52.0063825,-23.5652761993071,0.0 -52.0067308,-23.5651127993071,0.0 -52.0071357,-23.5652839993071,0.0 -52.0075353,-23.5650336993071,0.0 -52.0076739,-23.5653928993071,0.0 -52.0081609,-23.5658359993071,0.0 -52.0087517,-23.5658931993071,0.0 -52.0098515,-23.567089599307,0.0 -52.0107166,-23.567532999307,0.0 -52.0114116,-23.568290099307,0.0 -52.0114501,-23.568853799307,0.0 -52.0123439,-23.569478899307,0.0 -52.0124712,-23.5701989993069,0.0 -52.0130776,-23.5707879993069,0.0 -52.0134219,-23.5714746993069,0.0 -52.0147017,-23.5720370993069,0.0 -52.0147096,-23.5730055993069,0.0 -52.0153224,-23.5740170993069,0.0 -52.0147105,-23.5747032993069,0.0 -52.0146467,-23.5752990993068,0.0 -52.0148268,-23.5759592993068,0.0 -52.0152575,-23.5760550993068,0.0 -52.0155035,-23.5764381993068,0.0 -52.0159326,-23.5764355993068,0.0 -52.0159388,-23.5768074993068,0.0 -52.0169576,-23.5768132993068,0.0 -52.0177267,-23.5772047993068,0.0 -52.0183375,-23.5779571993068,0.0 -52.018152,-23.5783050993068,0.0 -52.017523,-23.5786950993068,0.0 -52.0177971,-23.5793618993067,0.0 -52.0174786,-23.5797603993067,0.0 -52.0172171,-23.5807335993067,0.0 -52.0175434,-23.5811872993067,0.0 -52.0180491,-23.5814337993067,0.0 -52.0182324,-23.5816941993067,0.0 -52.0183999,-23.5824752993067,0.0 -52.0189704,-23.5832397993067,0.0 -52.0190279,-23.5844345993066,0.0 -52.0193258,-23.5846901993066,0.0 -52.0204415,-23.5847729993066,0.0 -52.0235893,-23.5831514993067,0.0 -52.0259282,-23.5831982993067,0.0 -52.0260392,-23.5834460993067,0.0 -52.025786,-23.5837957993066,0.0 -52.0248006,-23.5842399993066,0.0 -52.0241429,-23.5849815993066,0.0 -52.0234155,-23.5853369993066,0.0 -52.0224209,-23.5853423993066,0.0 -52.0221822,-23.5855171993066,0.0 -52.0218273,-23.5865740993066,0.0 -52.0213065,-23.5871991993066,0.0 -52.0209004,-23.5885397993065,0.0 -52.0205862,-23.5889743993065,0.0 -52.0201112,-23.5892201993065,0.0 -52.0201018,-23.5895864993065,0.0 -52.0212049,-23.5896654993065,0.0 -52.021551,-23.5899108993065,0.0 -52.0219863,-23.5897593993065,0.0 -52.0222857,-23.5887423993065,0.0 -52.0228363,-23.5885517993065,0.0 -52.0260434,-23.5885311993065,0.0 -52.0272087,-23.5887706993065,0.0 -52.0288048,-23.5899515993065,0.0 -52.0289826,-23.5904448993065,0.0 -52.0294558,-23.5907757993065,0.0 -52.0294773,-23.5916938993065,0.0 -52.0291305,-23.5920198993065,0.0 -52.0295348,-23.5923751993065,0.0 -52.0294006,-23.5927660993064,0.0 -52.0292383,-23.5928695993065,0.0 -52.0289802,-23.5925043993065,0.0 -52.0287169,-23.5924866993064,0.0 -52.0283075,-23.5934579993064,0.0 -52.028502,-23.5942131993064,0.0 -52.0275922,-23.5948361993064,0.0 -52.0274863,-23.5958880993064,0.0 -52.0278798,-23.5962468993064,0.0 -52.0288821,-23.5965104993064,0.0 -52.0289003,-23.5968681993064,0.0 -52.0293702,-23.5970275993063,0.0 -52.0293727,-23.5972522993063,0.0 -52.0289324,-23.5977367993063,0.0 -52.0291509,-23.5981294993063,0.0 -52.0296595,-23.5979932993063,0.0 -52.0297716,-23.5982997993063,0.0 -52.0302032,-23.5983982993063,0.0 -52.0304672,-23.5980387993063,0.0 -52.0306866,-23.5982463993063,0.0 -52.0303136,-23.5989447993063,0.0 -52.031087,-23.5995827993063,0.0 -52.0311544,-23.5998552993063,0.0 -52.0309167,-23.6003522993063,0.0 -52.0304751,-23.6007284993063,0.0 -52.0308579,-23.6014688993062,0.0 -52.0303352,-23.6017582993063,0.0 -52.0303123,-23.6021803993062,0.0 -52.0311371,-23.6043623993062,0.0 -52.031797,-23.6047290993062,0.0 -52.0319894,-23.6050997993062,0.0 -52.0317925,-23.6057470993062,0.0 -52.0313885,-23.6056995993062,0.0 -52.031171,-23.6054404993062,0.0 -52.0301634,-23.6053247993062,0.0 -52.0296945,-23.6041743993062,0.0 -52.0292069,-23.6037557993062,0.0 -52.0288496,-23.6037295993062,0.0 -52.0284019,-23.6039206993062,0.0 -52.0283088,-23.6041216993062,0.0 -52.0285159,-23.6047515993062,0.0 -52.0294776,-23.6055751993062,0.0 -52.0295328,-23.6058844993062,0.0 -52.0289477,-23.6066090993061,0.0 -52.0291265,-23.6071031993061,0.0 -52.0301489,-23.6078697993061,0.0 -52.0320617,-23.6083922993061,0.0 -52.0327344,-23.6083637993061,0.0 -52.0334311,-23.6080368993061,0.0 -52.0349395,-23.6084106993061,0.0 -52.03576,-23.6081953993061,0.0 -52.0372368,-23.6100308993061,0.0 -52.0388425,-23.6103932993061,0.0 -52.0392206,-23.610664299306,0.0 -52.0391704,-23.611073399306,0.0 -52.0383207,-23.610818099306,0.0 -52.0383772,-23.611103099306,0.0 -52.0395124,-23.611864699306,0.0 -52.0396279,-23.612669499306,0.0 -52.0401831,-23.613224299306,0.0 -52.039887,-23.613362299306,0.0 -52.0399174,-23.613822099306,0.0 -52.0383604,-23.614143599306,0.0 -52.0374915,-23.614778799306,0.0 -52.0379916,-23.6152851993059,0.0 -52.0377484,-23.6156854993059,0.0 -52.0380514,-23.6158725993059,0.0 -52.0380634,-23.6162526993059,0.0 -52.0374781,-23.6165286993059,0.0 -52.0367096,-23.6163474993059,0.0 -52.0363627,-23.6165434993059,0.0 -52.0362715,-23.6168094993059,0.0 -52.0371048,-23.6172495993059,0.0 -52.0361461,-23.6174622993059,0.0 -52.0357932,-23.6177961993059,0.0 -52.0358165,-23.6189328993059,0.0 -52.0357363,-23.6191195993059,0.0 -52.035146,-23.6193349993059,0.0 -52.0355554,-23.6200739993058,0.0 -52.0348737,-23.6205752993058,0.0 -52.0350534,-23.6212074993058,0.0 -52.0345961,-23.6211863993058,0.0 -52.0343432,-23.6215171993058,0.0 -52.0348195,-23.6221693993058,0.0 -52.034662,-23.6226800993058,0.0 -52.0350384,-23.6227380993058,0.0 -52.0352534,-23.6225151993058,0.0 -52.0356153,-23.6225016993058,0.0 -52.0355505,-23.6228356993058,0.0 -52.0361436,-23.6228928993058,0.0 -52.0361463,-23.6233035993058,0.0 -52.0365617,-23.6231769993058,0.0 -52.0370436,-23.6241163993057,0.0 -52.0373457,-23.6241652993058,0.0 -52.0375676,-23.6240742993057,0.0 -52.0379757,-23.6233907993058,0.0 -52.0382036,-23.6234188993058,0.0 -52.0383577,-23.6237340993058,0.0 -52.0385302,-23.6237334993058,0.0 -52.0387684,-23.6233971993058,0.0 -52.0391605,-23.6235934993058,0.0 -52.0395856,-23.6245329993057,0.0 -52.0400862,-23.6246069993057,0.0 -52.0402976,-23.6243659993057,0.0 -52.0409311,-23.6245354993057,0.0 -52.0410795,-23.6243757993057,0.0 -52.0410354,-23.6241125993058,0.0 -52.0405492,-23.6238555993057,0.0 -52.0415171,-23.6239462993058,0.0 -52.0419167,-23.6235045993058,0.0 -52.0420614,-23.6235316993058,0.0 -52.0422099,-23.6242324993057,0.0 -52.0422482,-23.6244130993057,0.0 -52.0422702,-23.6244320993057,0.0 -52.0432778,-23.6252997993057,0.0 -52.0439386,-23.6255436993057,0.0 -52.0450546,-23.6254990993057,0.0 -52.0452441,-23.6256710993057,0.0 -52.0449997,-23.6263575993057,0.0 -52.044488,-23.6265506993057,0.0 -52.0442034,-23.6266580993057,0.0 -52.0444652,-23.6273701993057,0.0 -52.0444728,-23.6273906993057,0.0 -52.0441171,-23.6277120993057,0.0 -52.0441732,-23.6278986993057,0.0 -52.0442052,-23.6279063993057,0.0 -52.0446712,-23.6280177993057,0.0 -52.0448029,-23.6278607993057,0.0 -52.0450983,-23.6275086993057,0.0 -52.0452996,-23.6274805993057,0.0 -52.0454459,-23.6275924993057,0.0 -52.0452796,-23.6277753993057,0.0 -52.0453311,-23.6280630993057,0.0 -52.0459894,-23.6277545993057,0.0 -52.0465283,-23.6280302993057,0.0 -52.0477391,-23.6280716993057,0.0 -52.0477957,-23.6281044993057,0.0 -52.0479956,-23.6282202993057,0.0 -52.0482562,-23.6288877993056,0.0 -52.0480982,-23.6292350993056,0.0 -52.0474928,-23.6294115993056,0.0 -52.0471765,-23.6293263993056,0.0 -52.0466287,-23.6288618993056,0.0 -52.0463327,-23.6289258993056,0.0 -52.0458526,-23.6294478993056,0.0 -52.0458995,-23.6301812993056,0.0 -52.0453797,-23.6308678993056,0.0 -52.0457234,-23.6317440993056,0.0 -52.0453224,-23.6320206993056,0.0 -52.0453281,-23.6322941993056,0.0 -52.0456128,-23.6325008993056,0.0 -52.0458178,-23.6326496993056,0.0 -52.0460544,-23.6328213993056,0.0 -52.0465735,-23.6327773993056,0.0 -52.046689,-23.6328546993056,0.0 -52.0464212,-23.6332032993055,0.0 -52.0449312,-23.6336114993055,0.0 -52.0447728,-23.6338476993055,0.0 -52.0448415,-23.6343070993055,0.0 -52.0456197,-23.6349694993055,0.0 -52.0470197,-23.6344166993055,0.0 -52.0472966,-23.6345753993055,0.0 -52.0473889,-23.6348951993055,0.0 -52.0468719,-23.6355203993055,0.0 -52.0469168,-23.6363260993055,0.0 -52.0467451,-23.6367363993055,0.0 -52.046049,-23.6371481993055,0.0 -52.0458385,-23.6376599993054,0.0 -52.0466894,-23.6381760993054,0.0 -52.0493474,-23.6392483993054,0.0 -52.0500093,-23.6392936993054,0.0 -52.050678,-23.6390782993054,0.0 -52.0511516,-23.6393360993054,0.0 -52.0517026,-23.6392572993054,0.0 -52.0530439,-23.6398209993054,0.0 -52.0547913,-23.6402400993054,0.0 -52.0548649,-23.6409593993054,0.0 -52.0545722,-23.6413970993054,0.0 -52.0532898,-23.6420831993053,0.0 -52.0530322,-23.6423371993053,0.0 -52.0530228,-23.6427088993053,0.0 -52.0547922,-23.6436895993053,0.0 -52.0557481,-23.6438062993053,0.0 -52.0561008,-23.6440164993053,0.0 -52.0567335,-23.6439864993053,0.0 -52.0569829,-23.6432278993053,0.0 -52.057183,-23.6431518993053,0.0 -52.0577783,-23.6435943993053,0.0 -52.0588541,-23.6435626993053,0.0 -52.0591789,-23.6437364993053,0.0 -52.0591822,-23.6443086993053,0.0 -52.0586243,-23.6450535993053,0.0 -52.0592857,-23.6451331993053,0.0 -52.059609,-23.6454079993053,0.0 -52.0600806,-23.6470627993052,0.0 -52.0598932,-23.6474756993052,0.0 -52.059481,-23.6477764993052,0.0 -52.0595549,-23.6485427993052,0.0 -52.0598155,-23.6489521993052,0.0 -52.0608679,-23.6497116993052,0.0 -52.0606577,-23.6502081993052,0.0 -52.0609297,-23.6506357993052,0.0 -52.0615253,-23.6507975993052,0.0 -52.0621865,-23.6497001993052,0.0 -52.0634615,-23.6489218993052,0.0 -52.0662077,-23.6488126993052,0.0 -52.0667365,-23.6501811993052,0.0 -52.0666287,-23.6515796993051,0.0 -52.0679066,-23.6520098993051,0.0 -52.0689596,-23.6529968993051,0.0 -52.0692466,-23.6542098993051,0.0 -52.0689885,-23.655832199305,0.0 -52.0703801,-23.658465999305,0.0 -52.0704092,-23.659822099305,0.0 -52.0700148,-23.6613135993049,0.0 -52.0709876,-23.6618951993049,0.0 -52.0731325,-23.6606943993049,0.0 -52.0736835,-23.6597535993049,0.0 -52.0747194,-23.658701399305,0.0 -52.0760165,-23.658354699305,0.0 -52.076827,-23.657363799305,0.0 -52.077158,-23.656114199305,0.0 -52.0763569,-23.6553912993051,0.0 -52.0769937,-23.6540091993051,0.0 -52.0796862,-23.655575999305,0.0 -52.080269,-23.656613099305,0.0 -52.0826292,-23.658050299305,0.0 -52.0822959,-23.659462299305,0.0 -52.0811895,-23.660035299305,0.0 -52.0786241,-23.6603671993049,0.0 -52.0770816,-23.6628111993049,0.0 -52.076738,-23.6654594993048,0.0 -52.0780194,-23.6655205993048,0.0 -52.0791044,-23.6651982993048,0.0 -52.0801327,-23.6646062993049,0.0 -52.0809319,-23.6635790993049,0.0 -52.0853753,-23.6639508993049,0.0 -52.0864413,-23.6635217993049,0.0 -52.0859886,-23.6622985993049,0.0 -52.0849585,-23.6616721993049,0.0 -52.0842707,-23.6604361993049,0.0 -52.0860488,-23.658904799305,0.0 -52.0873565,-23.658497699305,0.0 -52.0882063,-23.657361899305,0.0 -52.0895978,-23.657395299305,0.0 -52.0915149,-23.659045299305,0.0 -52.0919066,-23.6604219993049,0.0 -52.0916295,-23.6620874993049,0.0 -52.0917963,-23.6634252993049,0.0 -52.0906589,-23.6661451993048,0.0 -52.0916293,-23.6666904993048,0.0 -52.0941064,-23.6657642993048,0.0 -52.0945986,-23.6648126993048,0.0 -52.0948011,-23.6623430993049,0.0 -52.0954911,-23.6614038993049,0.0 -52.0979692,-23.6608746993049,0.0 -52.0996059,-23.6609037993049,0.0 -52.100661,-23.6612226993049,0.0 -52.1016317,-23.6617579993049,0.0 -52.1025767,-23.6628463993049,0.0 -52.1029932,-23.6639417993049,0.0 -52.1030497,-23.6655309993048,0.0 -52.1028222,-23.6669551993048,0.0 -52.1038525,-23.6696122993047,0.0 -52.10352,-23.6709169993047,0.0 -52.1042211,-23.6720627993047,0.0 -52.1051593,-23.6728765993047,0.0 -52.1065204,-23.6736071993046,0.0 -52.1077726,-23.6737939993046,0.0 -52.1092655,-23.6736126993046,0.0 -52.111685,-23.6723253993047,0.0 -52.1128297,-23.6718780993047,0.0 -52.11402,-23.6716677993047,0.0 -52.116095,-23.6727941993047,0.0 -52.1192865,-23.6745258993046,0.0 -52.1193278,-23.6745483993046,0.0 -52.1194416,-23.6746099993046,0.0 -52.1195798,-23.6746848993046,0.0 -52.1196021,-23.6746969993046,0.0 -52.1206332,-23.6760254993046,0.0 -52.1229391,-23.6814516993045,0.0 -52.1243046,-23.6841497993044,0.0 -52.124911,-23.6853484993044,0.0 -52.1259677,-23.6868402993043,0.0 -52.1259692,-23.6868424993044,0.0 -52.1274921,-23.6880693993043,0.0 -52.1288727,-23.6887525993043,0.0 -52.1316633,-23.6901333993043,0.0 -52.1331344,-23.6904570993043,0.0 -52.1372444,-23.6908324993043,0.0 -52.1393548,-23.6908839993043,0.0 -52.1408494,-23.6905859993043,0.0 -52.1429419,-23.6897552993043,0.0 -52.145552,-23.6887189993043,0.0 -52.1494909,-23.6859247993044,0.0 -52.1571432,-23.6813468993045,0.0 -52.1590799,-23.6788814993045,0.0 -52.1596873,-23.6778651993046,0.0 -52.1599974,-23.6760916993046,0.0 -52.1597946,-23.6744040993046,0.0 -52.1583589,-23.6719843993047,0.0 -52.1579911,-23.6708056993047,0.0 -52.1578563,-23.6688815993047,0.0 -52.1579954,-23.6671421993048,0.0 -52.1590497,-23.6617914993049,0.0 -52.1591124,-23.6610981993049,0.0 -52.159212,-23.6600044993049,0.0 -52.1586564,-23.657605199305,0.0 -52.1575458,-23.6543100993051,0.0 -52.1573759,-23.6532168993051,0.0 -52.1576624,-23.6516578993051,0.0 -52.1584649,-23.6503487993052,0.0 -52.1600996,-23.6490413993052,0.0 -52.1611271,-23.6485390993052,0.0 -52.1633827,-23.6478265993052,0.0 -52.1647435,-23.6478778993052,0.0 -52.1662682,-23.6482641993052,0.0 -52.1711415,-23.6483613993052,0.0 -52.1771876,-23.6489181993052,0.0 -52.1822179,-23.6480122993052,0.0 -52.1836106,-23.6473859993052,0.0 -52.1848898,-23.6464613993052,0.0 -52.1860496,-23.6460894993053,0.0 -52.1870456,-23.6455857993053,0.0 -52.1900181,-23.6446898993053,0.0 -52.1908333,-23.6445738993053,0.0 -52.189725,-23.6430518993053,0.0 -52.189337,-23.6430427993053,0.0 -52.1882207,-23.6434629993053,0.0 -52.1875426,-23.6435191993053,0.0 -52.1870028,-23.6433585993053,0.0 -52.1864447,-23.6433817993053,0.0 -52.1858807,-23.6436269993053,0.0 -52.1851735,-23.6441575993053,0.0 -52.1847773,-23.6441755993053,0.0 -52.1844134,-23.6439049993053,0.0 -52.184238,-23.6435446993053,0.0 -52.183873,-23.6427947993053,0.0 -52.1836217,-23.6425336993053,0.0 -52.1829996,-23.6421581993053,0.0 -52.1799981,-23.6418937993053,0.0 -52.1793349,-23.6416494993054,0.0 -52.1788261,-23.6413022993054,0.0 -52.1786409,-23.6409490993054,0.0 -52.1787081,-23.6405526993054,0.0 -52.1777687,-23.6379619993054,0.0 -52.1770699,-23.6372506993055,0.0 -52.1771442,-23.6364888993055,0.0 -52.1768331,-23.6358100993055,0.0 -52.1762409,-23.6353319993055,0.0 -52.1746439,-23.6342941993055,0.0 -52.1741149,-23.6337129993055,0.0 -52.1739631,-23.6334223993055,0.0 -52.1736159,-23.6323062993056,0.0 -52.1732703,-23.6318571993056,0.0 -52.173172,-23.6313153993056,0.0 -52.1709238,-23.6296822993056,0.0 -52.1705265,-23.6291432993056,0.0 -52.169874,-23.6287727993056,0.0 -52.169137,-23.6286340993056,0.0 -52.1685895,-23.6283974993056,0.0 -52.1679051,-23.6283469993056,0.0 -52.1676146,-23.6280257993057,0.0 -52.1670996,-23.6278428993057,0.0 -52.1662492,-23.6273318993057,0.0 -52.1655323,-23.6272231993057,0.0 -52.1649325,-23.6270120993057,0.0 -52.163241,-23.6268666993057,0.0 -52.1609864,-23.6261250993057,0.0 -52.1602249,-23.6261250993057,0.0 -52.1596856,-23.6259336993057,0.0 -52.1589076,-23.6254352993057,0.0 -52.1572071,-23.6253004993057,0.0 -52.1563874,-23.6250505993057,0.0 -52.1558042,-23.6247024993057,0.0 -52.1542726,-23.6232211993058,0.0 -52.1540244,-23.6226784993058,0.0 -52.1533716,-23.6222672993058,0.0 -52.1527068,-23.6215201993058,0.0 -52.1510726,-23.6207939993058,0.0 -52.1508004,-23.6205641993058,0.0 -52.1501175,-23.6196425993058,0.0 -52.1493881,-23.6191735993059,0.0 -52.1489866,-23.6186660993059,0.0 -52.148374,-23.6181839993059,0.0 -52.147741,-23.6172034993059,0.0 -52.146624,-23.6167731993059,0.0 -52.146103,-23.6164699993059,0.0 -52.1452946,-23.6155604993059,0.0 -52.1439753,-23.614744099306,0.0 -52.1431117,-23.613646199306,0.0 -52.1420202,-23.612660099306,0.0 -52.1410292,-23.6104531993061,0.0 -52.1405948,-23.6097845993061,0.0 -52.1403391,-23.6089456993061,0.0 -52.1396794,-23.6081922993061,0.0 -52.1377243,-23.6064024993061,0.0 -52.1369687,-23.6054384993062,0.0 -52.1355767,-23.6040245993062,0.0 -52.1341298,-23.6017109993063,0.0 -52.1334708,-23.6009177993063,0.0 -52.1320685,-23.5994703993063,0.0 -52.1313625,-23.5988832993063,0.0 -52.1295731,-23.5978635993063,0.0 -52.1285173,-23.5970664993064,0.0 -52.1272653,-23.5955341993064,0.0 -52.1265697,-23.5949724993064,0.0 -52.1226382,-23.5925999993065,0.0 -52.1208602,-23.5910584993065,0.0 -52.1192378,-23.5889845993065,0.0 -52.1188395,-23.5883335993065,0.0 -52.1175099,-23.5847034993066,0.0 -52.1172506,-23.5835784993066,0.0 -52.1151705,-23.5779599993068,0.0 -52.1142115,-23.5758290993068,0.0 -52.1133805,-23.5744036993069,0.0 -52.1123706,-23.5732966993069,0.0 -52.1112045,-23.5722228993069,0.0 -52.1086345,-23.569580499307,0.0 -52.1075898,-23.568102899307,0.0 -52.104701,-23.5654366993071,0.0 -52.0991096,-23.5613338993071,0.0 -52.0986774,-23.5611435993072,0.0 -52.0985032,-23.5610665993072,0.0 -52.0979376,-23.5608176993072,0.0 -52.0974209,-23.5607148993072,0.0 -52.1002707,-23.5196632993081,0.0 -52.0491304,-23.5384506993077,0.0</coordinates>
</LinearRing>
</outerBoundaryIs>
</Polygon>
</MultiGeometry>
</Placemark>
</Folder>
</Document></kml>
