<?xml version='1.0' encoding='UTF-8'?>
<kml xmlns:xsd="http://www.w3.org/2001/XMLSchema" xmlns:gx="http://www.google.com/kml/ext/2.2" xmlns:atom="http://www.w3.org/2005/Atom" xmlns="http://www.opengis.net/kml/2.2">
<Document>
<name>jesuitas_4112751_localidades_2022</name>
<visibility>1</visibility>
<Schema name="Vilas" id="kml_schema_ft_Vilas">
<SimpleField type="xsd:string" name="CD_UF">
<displayName>CD_UF</displayName>
</SimpleField>
<SimpleField type="xsd:string" name="NM_UF">
<displayName>NM_UF</displayName>
</SimpleField>
<SimpleField type="xsd:string" name="SIGLA_UF">
<displayName>SIGLA_UF</displayName>
</SimpleField>
<SimpleField type="xsd:string" name="CD_MUN">
<displayName>CD_MUN</displayName>
</SimpleField>
<SimpleField type="xsd:string" name="NM_MUN">
<displayName>NM_MUN</displayName>
</SimpleField>
<SimpleField type="xsd:string" name="CD_RGINT">
<displayName>CD_RGINT</displayName>
</SimpleField>
<SimpleField type="xsd:string" name="NM_RGINT">
<displayName>NM_RGINT</displayName>
</SimpleField>
<SimpleField type="xsd:string" name="CD_RGI">
<displayName>CD_RGI</displayName>
</SimpleField>
<SimpleField type="xsd:string" name="NM_RGI">
<displayName>NM_RGI</displayName>
</SimpleField>
<SimpleField type="xsd:string" name="CT_LOCALIDADE">
<displayName>CT_LOCALIDADE</displayName>
</SimpleField>
<SimpleField type="xsd:string" name="CD_LOCALIDADE">
<displayName>CD_LOCALIDADE</displayName>
</SimpleField>
<SimpleField type="xsd:string" name="NM_LOCALIDADE">
<displayName>NM_LOCALIDADE</displayName>
</SimpleField>
<SimpleField type="xsd:string" name="LAT_LOCALIDADE">
<displayName>LAT_LOCALIDADE</displayName>
</SimpleField>
<SimpleField type="xsd:string" name="LONG_LOCALIDADE">
<displayName>LONG_LOCALIDADE</displayName>
</SimpleField>
</Schema>
<Schema name="Localidades" id="kml_schema_ft_Localidades">
<SimpleField type="xsd:string" name="CD_UF">
<displayName>CD_UF</displayName>
</SimpleField>
<SimpleField type="xsd:string" name="NM_UF">
<displayName>NM_UF</displayName>
</SimpleField>
<SimpleField type="xsd:string" name="SIGLA_UF">
<displayName>SIGLA_UF</displayName>
</SimpleField>
<SimpleField type="xsd:string" name="CD_MUN">
<displayName>CD_MUN</displayName>
</SimpleField>
<SimpleField type="xsd:string" name="NM_MUN">
<displayName>NM_MUN</displayName>
</SimpleField>
<SimpleField type="xsd:string" name="CD_RGINT">
<displayName>CD_RGINT</displayName>
</SimpleField>
<SimpleField type="xsd:string" name="NM_RGINT">
<displayName>NM_RGINT</displayName>
</SimpleField>
<SimpleField type="xsd:string" name="CD_RGI">
<displayName>CD_RGI</displayName>
</SimpleField>
<SimpleField type="xsd:string" name="NM_RGI">
<displayName>NM_RGI</displayName>
</SimpleField>
<SimpleField type="xsd:string" name="CT_LOCALIDADE">
<displayName>CT_LOCALIDADE</displayName>
</SimpleField>
<SimpleField type="xsd:string" name="SCT_LOCALIDADE">
<displayName>SCT_LOCALIDADE</displayName>
</SimpleField>
<SimpleField type="xsd:string" name="CD_LOCALIDADE">
<displayName>CD_LOCALIDADE</displayName>
</SimpleField>
<SimpleField type="xsd:string" name="NM_LOCALIDADE">
<displayName>NM_LOCALIDADE</displayName>
</SimpleField>
</Schema>
<Schema name="Núcleos Urbanos" id="kml_schema_ft_Núcleos_Urbanos">
<SimpleField type="xsd:string" name="CD_UF">
<displayName>CD_UF</displayName>
</SimpleField>
<SimpleField type="xsd:string" name="NM_UF">
<displayName>NM_UF</displayName>
</SimpleField>
<SimpleField type="xsd:string" name="SIGLA_UF">
<displayName>SIGLA_UF</displayName>
</SimpleField>
<SimpleField type="xsd:string" name="CD_MUN">
<displayName>CD_MUN</displayName>
</SimpleField>
<SimpleField type="xsd:string" name="NM_MUN">
<displayName>NM_MUN</displayName>
</SimpleField>
<SimpleField type="xsd:string" name="CD_RGINT">
<displayName>CD_RGINT</displayName>
</SimpleField>
<SimpleField type="xsd:string" name="NM_RGINT">
<displayName>NM_RGINT</displayName>
</SimpleField>
<SimpleField type="xsd:string" name="CD_RGI">
<displayName>CD_RGI</displayName>
</SimpleField>
<SimpleField type="xsd:string" name="NM_RGI">
<displayName>NM_RGI</displayName>
</SimpleField>
<SimpleField type="xsd:string" name="CT_LOCALIDADE">
<displayName>CT_LOCALIDADE</displayName>
</SimpleField>
<SimpleField type="xsd:string" name="CD_LOCALIDADE">
<displayName>CD_LOCALIDADE</displayName>
</SimpleField>
<SimpleField type="xsd:string" name="NM_LOCALIDADE">
<displayName>NM_LOCALIDADE</displayName>
</SimpleField>
<SimpleField type="xsd:string" name="LAT_LOCALIDADE">
<displayName>LAT_LOCALIDADE</displayName>
</SimpleField>
<SimpleField type="xsd:string" name="LONG_LOCALIDADE">
<displayName>LONG_LOCALIDADE</displayName>
</SimpleField>
</Schema>
<Schema name="01. Cidade" id="kml_schema_ft_01._Cidade">
<SimpleField type="xsd:string" name="CD_UF">
<displayName>CD_UF</displayName>
</SimpleField>
<SimpleField type="xsd:string" name="NM_UF">
<displayName>NM_UF</displayName>
</SimpleField>
<SimpleField type="xsd:string" name="SIGLA_UF">
<displayName>SIGLA_UF</displayName>
</SimpleField>
<SimpleField type="xsd:string" name="CD_MUN">
<displayName>CD_MUN</displayName>
</SimpleField>
<SimpleField type="xsd:string" name="NM_MUN">
<displayName>NM_MUN</displayName>
</SimpleField>
<SimpleField type="xsd:string" name="CD_RGINT">
<displayName>CD_RGINT</displayName>
</SimpleField>
<SimpleField type="xsd:string" name="NM_RGINT">
<displayName>NM_RGINT</displayName>
</SimpleField>
<SimpleField type="xsd:string" name="CD_RGI">
<displayName>CD_RGI</displayName>
</SimpleField>
<SimpleField type="xsd:string" name="NM_RGI">
<displayName>NM_RGI</displayName>
</SimpleField>
<SimpleField type="xsd:string" name="CT_LOCALIDADE">
<displayName>CT_LOCALIDADE</displayName>
</SimpleField>
<SimpleField type="xsd:string" name="SCT_LOCALIDADE">
<displayName>SCT_LOCALIDADE</displayName>
</SimpleField>
<SimpleField type="xsd:string" name="CD_LOCALIDADE">
<displayName>CD_LOCALIDADE</displayName>
</SimpleField>
<SimpleField type="xsd:string" name="NM_LOCALIDADE">
<displayName>NM_LOCALIDADE</displayName>
</SimpleField>
<SimpleField type="xsd:string" name="LAT_LOCALIDADE">
<displayName>LAT_LOCALIDADE</displayName>
</SimpleField>
<SimpleField type="xsd:string" name="LONG_LOCALIDADE">
<displayName>LONG_LOCALIDADE</displayName>
</SimpleField>
</Schema>
<Schema name="Município" id="kml_schema_ft_Município">
<SimpleField type="xsd:string" name="CD_UF">
<displayName>CD_UF</displayName>
</SimpleField>
<SimpleField type="xsd:string" name="NM_UF">
<displayName>NM_UF</displayName>
</SimpleField>
<SimpleField type="xsd:string" name="CD_MUN">
<displayName>CD_MUN</displayName>
</SimpleField>
<SimpleField type="xsd:string" name="NM_MUN">
<displayName>NM_MUN</displayName>
</SimpleField>
<SimpleField type="xsd:string" name="CD_RGINT">
<displayName>CD_RGINT</displayName>
</SimpleField>
<SimpleField type="xsd:string" name="NM_RGINT">
<displayName>NM_RGINT</displayName>
</SimpleField>
<SimpleField type="xsd:string" name="CD_RGI">
<displayName>CD_RGI</displayName>
</SimpleField>
<SimpleField type="xsd:string" name="NM_RGI">
<displayName>NM_RGI</displayName>
</SimpleField>
</Schema>
<Folder id="01. Cidade">
<name>01. Cidade</name>
<Folder id="01.03. Sede Municipal">
<name>01.03. Sede Municipal</name>
<Placemark id="01.03. Sede Municipal">
<name>Jesuítas [4112751]</name>
<visibility>1</visibility>
<snippet> </snippet>
<description>&lt;center&gt;&lt;table&gt;&lt;tr&gt;&lt;th colspan='2' align='center'&gt;&lt;em&gt;Atributos&lt;/em&gt;&lt;/th&gt;&lt;/tr&gt;&lt;tr bgcolor="#E3E3F3"&gt;
&lt;th&gt;CD_UF&lt;/th&gt;
&lt;td&gt;41&lt;/td&gt;
&lt;/tr&gt;&lt;tr bgcolor=""&gt;
&lt;th&gt;NM_UF&lt;/th&gt;
&lt;td&gt;Paraná&lt;/td&gt;
&lt;/tr&gt;&lt;tr bgcolor="#E3E3F3"&gt;
&lt;th&gt;SIGLA_UF&lt;/th&gt;
&lt;td&gt;PR&lt;/td&gt;
&lt;/tr&gt;&lt;tr bgcolor=""&gt;
&lt;th&gt;CD_MUN&lt;/th&gt;
&lt;td&gt;4112751&lt;/td&gt;
&lt;/tr&gt;&lt;tr bgcolor="#E3E3F3"&gt;
&lt;th&gt;NM_MUN&lt;/th&gt;
&lt;td&gt;Jesuítas&lt;/td&gt;
&lt;/tr&gt;&lt;tr bgcolor=""&gt;
&lt;th&gt;CD_RGINT&lt;/th&gt;
&lt;td&gt;4103&lt;/td&gt;
&lt;/tr&gt;&lt;tr bgcolor="#E3E3F3"&gt;
&lt;th&gt;NM_RGINT&lt;/th&gt;
&lt;td&gt;Cascavel&lt;/td&gt;
&lt;/tr&gt;&lt;tr bgcolor=""&gt;
&lt;th&gt;CD_RGI&lt;/th&gt;
&lt;td&gt;410008&lt;/td&gt;
&lt;/tr&gt;&lt;tr bgcolor="#E3E3F3"&gt;
&lt;th&gt;NM_RGI&lt;/th&gt;
&lt;td&gt;Toledo&lt;/td&gt;
&lt;/tr&gt;&lt;tr bgcolor=""&gt;
&lt;th&gt;CT_LOCALIDADE&lt;/th&gt;
&lt;td&gt;Cidade&lt;/td&gt;
&lt;/tr&gt;&lt;tr bgcolor="#E3E3F3"&gt;
&lt;th&gt;SCT_LOCALIDADE&lt;/th&gt;
&lt;td&gt;Sede Municipal&lt;/td&gt;
&lt;/tr&gt;&lt;tr bgcolor=""&gt;
&lt;th&gt;CD_LOCALIDADE&lt;/th&gt;
&lt;td&gt;4112751&lt;/td&gt;
&lt;/tr&gt;&lt;tr bgcolor="#E3E3F3"&gt;
&lt;th&gt;NM_LOCALIDADE&lt;/th&gt;
&lt;td&gt;Jesuítas&lt;/td&gt;
&lt;/tr&gt;&lt;tr bgcolor=""&gt;
&lt;th&gt;LAT_LOCALIDADE&lt;/th&gt;
&lt;td&gt;-24.38&lt;/td&gt;
&lt;/tr&gt;&lt;tr bgcolor="#E3E3F3"&gt;
&lt;th&gt;LONG_LOCALIDADE&lt;/th&gt;
&lt;td&gt;-53.3838&lt;/td&gt;
&lt;/tr&gt;&lt;/table&gt;&lt;/center&gt;</description>
<Style>
<IconStyle>
<color>ff00aaff</color>
<scale>1.0</scale>
<Icon>
<href>http://maps.google.com/mapfiles/kml/shapes/placemark_circle.png</href>
</Icon>
</IconStyle>
<LabelStyle>
<scale>1.0</scale>
</LabelStyle>
<LineStyle>
<color>ffffffff</color>
<width>3</width>
<gx:labelVisibility>1</gx:labelVisibility>
</LineStyle>
<PolyStyle>
<color>00ffffff</color>
</PolyStyle>
</Style>
<ExtendedData>
<SchemaData schemaUrl="#kml_schema_ft_01._Cidade">
<SimpleData name="CD_UF">41</SimpleData>
<SimpleData name="NM_UF">Paraná</SimpleData>
<SimpleData name="SIGLA_UF">PR</SimpleData>
<SimpleData name="CD_MUN">4112751</SimpleData>
<SimpleData name="NM_MUN">Jesuítas</SimpleData>
<SimpleData name="CD_RGINT">4103</SimpleData>
<SimpleData name="NM_RGINT">Cascavel</SimpleData>
<SimpleData name="CD_RGI">410008</SimpleData>
<SimpleData name="NM_RGI">Toledo</SimpleData>
<SimpleData name="CT_LOCALIDADE">Cidade</SimpleData>
<SimpleData name="SCT_LOCALIDADE">Sede Municipal</SimpleData>
<SimpleData name="CD_LOCALIDADE">4112751</SimpleData>
<SimpleData name="NM_LOCALIDADE">Jesuítas</SimpleData>
<SimpleData name="LAT_LOCALIDADE">-24.38</SimpleData>
<SimpleData name="LONG_LOCALIDADE">-53.3838</SimpleData>
</SchemaData>
</ExtendedData>
<Point>
<extrude>0</extrude>
<coordinates>-53.383847,-24.3800449992891,0.0</coordinates>
</Point>
</Placemark>
</Folder>
</Folder>
<Folder id="04. Vilas">
<name>04. Vilas</name>
<Placemark id="04. Vilas">
<name>Carajá [411275110]</name>
<visibility>1</visibility>
<snippet> </snippet>
<description>&lt;center&gt;&lt;table&gt;&lt;tr&gt;&lt;th colspan='2' align='center'&gt;&lt;em&gt;Atributos&lt;/em&gt;&lt;/th&gt;&lt;/tr&gt;&lt;tr bgcolor="#E3E3F3"&gt;
&lt;th&gt;CD_UF&lt;/th&gt;
&lt;td&gt;41&lt;/td&gt;
&lt;/tr&gt;&lt;tr bgcolor=""&gt;
&lt;th&gt;NM_UF&lt;/th&gt;
&lt;td&gt;Paraná&lt;/td&gt;
&lt;/tr&gt;&lt;tr bgcolor="#E3E3F3"&gt;
&lt;th&gt;SIGLA_UF&lt;/th&gt;
&lt;td&gt;PR&lt;/td&gt;
&lt;/tr&gt;&lt;tr bgcolor=""&gt;
&lt;th&gt;CD_MUN&lt;/th&gt;
&lt;td&gt;4112751&lt;/td&gt;
&lt;/tr&gt;&lt;tr bgcolor="#E3E3F3"&gt;
&lt;th&gt;NM_MUN&lt;/th&gt;
&lt;td&gt;Jesuítas&lt;/td&gt;
&lt;/tr&gt;&lt;tr bgcolor=""&gt;
&lt;th&gt;CD_RGINT&lt;/th&gt;
&lt;td&gt;4103&lt;/td&gt;
&lt;/tr&gt;&lt;tr bgcolor="#E3E3F3"&gt;
&lt;th&gt;NM_RGINT&lt;/th&gt;
&lt;td&gt;Cascavel&lt;/td&gt;
&lt;/tr&gt;&lt;tr bgcolor=""&gt;
&lt;th&gt;CD_RGI&lt;/th&gt;
&lt;td&gt;410008&lt;/td&gt;
&lt;/tr&gt;&lt;tr bgcolor="#E3E3F3"&gt;
&lt;th&gt;NM_RGI&lt;/th&gt;
&lt;td&gt;Toledo&lt;/td&gt;
&lt;/tr&gt;&lt;tr bgcolor=""&gt;
&lt;th&gt;CT_LOCALIDADE&lt;/th&gt;
&lt;td&gt;Vila&lt;/td&gt;
&lt;/tr&gt;&lt;tr bgcolor="#E3E3F3"&gt;
&lt;th&gt;CD_LOCALIDADE&lt;/th&gt;
&lt;td&gt;411275110&lt;/td&gt;
&lt;/tr&gt;&lt;tr bgcolor=""&gt;
&lt;th&gt;NM_LOCALIDADE&lt;/th&gt;
&lt;td&gt;Carajá&lt;/td&gt;
&lt;/tr&gt;&lt;tr bgcolor="#E3E3F3"&gt;
&lt;th&gt;LAT_LOCALIDADE&lt;/th&gt;
&lt;td&gt;-24.4629&lt;/td&gt;
&lt;/tr&gt;&lt;tr bgcolor=""&gt;
&lt;th&gt;LONG_LOCALIDADE&lt;/th&gt;
&lt;td&gt;-53.4205&lt;/td&gt;
&lt;/tr&gt;&lt;/table&gt;&lt;/center&gt;</description>
<Style>
<IconStyle>
<color>ffff5400</color>
<scale>1.0</scale>
<Icon>
<href>http://maps.google.com/mapfiles/kml/shapes/placemark_circle.png</href>
</Icon>
</IconStyle>
<LabelStyle>
<scale>0.9</scale>
</LabelStyle>
<LineStyle>
<color>72ffffff</color>
<width>1.0</width>
<gx:labelVisibility>1</gx:labelVisibility>
</LineStyle>
<PolyStyle>
<color>660054ff</color>
</PolyStyle>
</Style>
<ExtendedData>
<SchemaData schemaUrl="#kml_schema_ft_Vilas">
<SimpleData name="CD_UF">41</SimpleData>
<SimpleData name="NM_UF">Paraná</SimpleData>
<SimpleData name="SIGLA_UF">PR</SimpleData>
<SimpleData name="CD_MUN">4112751</SimpleData>
<SimpleData name="NM_MUN">Jesuítas</SimpleData>
<SimpleData name="CD_RGINT">4103</SimpleData>
<SimpleData name="NM_RGINT">Cascavel</SimpleData>
<SimpleData name="CD_RGI">410008</SimpleData>
<SimpleData name="NM_RGI">Toledo</SimpleData>
<SimpleData name="CT_LOCALIDADE">Vila</SimpleData>
<SimpleData name="CD_LOCALIDADE">411275110</SimpleData>
<SimpleData name="NM_LOCALIDADE">Carajá</SimpleData>
<SimpleData name="LAT_LOCALIDADE">-24.4629</SimpleData>
<SimpleData name="LONG_LOCALIDADE">-53.4205</SimpleData>
</SchemaData>
</ExtendedData>
<Point>
<extrude>0</extrude>
<coordinates>-53.420523,-24.4629499992873,0.0</coordinates>
</Point>
</Placemark>
</Folder>
<Folder id="05. Núcleos Urbanos">
<name>05. Núcleos Urbanos</name>
<Placemark id="localidades">
<name>Vila São Paulo [4112751001]</name>
<visibility>1</visibility>
<snippet> </snippet>
<description>&lt;center&gt;&lt;table&gt;&lt;tr&gt;&lt;th colspan='2' align='center'&gt;&lt;em&gt;Attributes&lt;/em&gt;&lt;/th&gt;&lt;/tr&gt;&lt;tr bgcolor="#E3E3F3"&gt;
&lt;th&gt;CD_UF&lt;/th&gt;
&lt;td&gt;41&lt;/td&gt;
&lt;/tr&gt;&lt;tr bgcolor=""&gt;
&lt;th&gt;NM_UF&lt;/th&gt;
&lt;td&gt;Paraná&lt;/td&gt;
&lt;/tr&gt;&lt;tr bgcolor="#E3E3F3"&gt;
&lt;th&gt;SIGLA_UF&lt;/th&gt;
&lt;td&gt;PR&lt;/td&gt;
&lt;/tr&gt;&lt;tr bgcolor=""&gt;
&lt;th&gt;CD_MUN&lt;/th&gt;
&lt;td&gt;4112751&lt;/td&gt;
&lt;/tr&gt;&lt;tr bgcolor="#E3E3F3"&gt;
&lt;th&gt;NM_MUN&lt;/th&gt;
&lt;td&gt;Jesuítas&lt;/td&gt;
&lt;/tr&gt;&lt;tr bgcolor=""&gt;
&lt;th&gt;CD_RGINT&lt;/th&gt;
&lt;td&gt;4103&lt;/td&gt;
&lt;/tr&gt;&lt;tr bgcolor="#E3E3F3"&gt;
&lt;th&gt;NM_RGINT&lt;/th&gt;
&lt;td&gt;Cascavel&lt;/td&gt;
&lt;/tr&gt;&lt;tr bgcolor=""&gt;
&lt;th&gt;CD_RGI&lt;/th&gt;
&lt;td&gt;410008&lt;/td&gt;
&lt;/tr&gt;&lt;tr bgcolor="#E3E3F3"&gt;
&lt;th&gt;NM_RGI&lt;/th&gt;
&lt;td&gt;Toledo&lt;/td&gt;
&lt;/tr&gt;&lt;tr bgcolor=""&gt;
&lt;th&gt;CT_LOCALIDADE&lt;/th&gt;
&lt;td&gt;Núcleo Urbano&lt;/td&gt;
&lt;/tr&gt;&lt;tr bgcolor="#E3E3F3"&gt;
&lt;th&gt;CD_LOCALIDADE&lt;/th&gt;
&lt;td&gt;4112751001&lt;/td&gt;
&lt;/tr&gt;&lt;tr bgcolor=""&gt;
&lt;th&gt;NM_LOCALIDADE&lt;/th&gt;
&lt;td&gt;Vila São Paulo&lt;/td&gt;
&lt;/tr&gt;&lt;tr bgcolor="#E3E3F3"&gt;
&lt;th&gt;LAT_LOCALIDADE&lt;/th&gt;
&lt;td&gt;-24.5231&lt;/td&gt;
&lt;/tr&gt;&lt;tr bgcolor=""&gt;
&lt;th&gt;LONG_LOCALIDADE&lt;/th&gt;
&lt;td&gt;-53.3921&lt;/td&gt;
&lt;/tr&gt;&lt;/table&gt;&lt;/center&gt;</description>
<Style>
<IconStyle>
<color>ff0000ff</color>
<scale>0.9</scale>
<Icon>
<href>http://maps.google.com/mapfiles/kml/shapes/placemark_circle.png</href>
</Icon>
</IconStyle>
<LabelStyle>
<scale>0.9</scale>
</LabelStyle>
<LineStyle>
<color>72ffffff</color>
<width>1.0</width>
<gx:labelVisibility>1</gx:labelVisibility>
</LineStyle>
<PolyStyle>
<color>66ff54ff</color>
</PolyStyle>
</Style>
<ExtendedData>
<SchemaData schemaUrl="#kml_schema_ft_Núcleos_Urbanos">
<SimpleData name="CD_UF">41</SimpleData>
<SimpleData name="NM_UF">Paraná</SimpleData>
<SimpleData name="SIGLA_UF">PR</SimpleData>
<SimpleData name="CD_MUN">4112751</SimpleData>
<SimpleData name="NM_MUN">Jesuítas</SimpleData>
<SimpleData name="CD_RGINT">4103</SimpleData>
<SimpleData name="NM_RGINT">Cascavel</SimpleData>
<SimpleData name="CD_RGI">410008</SimpleData>
<SimpleData name="NM_RGI">Toledo</SimpleData>
<SimpleData name="CT_LOCALIDADE">Núcleo Urbano</SimpleData>
<SimpleData name="CD_LOCALIDADE">4112751001</SimpleData>
<SimpleData name="NM_LOCALIDADE">Vila São Paulo</SimpleData>
<SimpleData name="LAT_LOCALIDADE">-24.5231</SimpleData>
<SimpleData name="LONG_LOCALIDADE">-53.3921</SimpleData>
</SchemaData>
</ExtendedData>
<Point>
<extrude>0</extrude>
<coordinates>-53.3920811182796,-24.5230886121892,0.0</coordinates>
</Point>
</Placemark>
</Folder>
<Folder id="12. Outras Localidades">
<name>12. Outras Localidades</name>
<Placemark id="12. Outras Localidades">
<name>Verdes Campos [411275100002]</name>
<visibility>1</visibility>
<snippet> </snippet>
<description>&lt;center&gt;&lt;table&gt;&lt;tr&gt;&lt;th colspan='2' align='center'&gt;&lt;em&gt;Attributes&lt;/em&gt;&lt;/th&gt;&lt;/tr&gt;&lt;tr bgcolor="#E3E3F3"&gt;
&lt;th&gt;CD_UF&lt;/th&gt;
&lt;td&gt;41&lt;/td&gt;
&lt;/tr&gt;&lt;tr bgcolor=""&gt;
&lt;th&gt;NM_UF&lt;/th&gt;
&lt;td&gt;Paraná&lt;/td&gt;
&lt;/tr&gt;&lt;tr bgcolor="#E3E3F3"&gt;
&lt;th&gt;SIGLA_UF&lt;/th&gt;
&lt;td&gt;PR&lt;/td&gt;
&lt;/tr&gt;&lt;tr bgcolor=""&gt;
&lt;th&gt;CD_MUN&lt;/th&gt;
&lt;td&gt;4112751&lt;/td&gt;
&lt;/tr&gt;&lt;tr bgcolor="#E3E3F3"&gt;
&lt;th&gt;NM_MUN&lt;/th&gt;
&lt;td&gt;Jesuítas&lt;/td&gt;
&lt;/tr&gt;&lt;tr bgcolor=""&gt;
&lt;th&gt;CD_RGINT&lt;/th&gt;
&lt;td&gt;4103&lt;/td&gt;
&lt;/tr&gt;&lt;tr bgcolor="#E3E3F3"&gt;
&lt;th&gt;NM_RGINT&lt;/th&gt;
&lt;td&gt;Cascavel&lt;/td&gt;
&lt;/tr&gt;&lt;tr bgcolor=""&gt;
&lt;th&gt;CD_RGI&lt;/th&gt;
&lt;td&gt;410008&lt;/td&gt;
&lt;/tr&gt;&lt;tr bgcolor="#E3E3F3"&gt;
&lt;th&gt;NM_RGI&lt;/th&gt;
&lt;td&gt;Toledo&lt;/td&gt;
&lt;/tr&gt;&lt;tr bgcolor=""&gt;
&lt;th&gt;CT_LOCALIDADE&lt;/th&gt;
&lt;td&gt;Outras Localidades&lt;/td&gt;
&lt;/tr&gt;&lt;tr bgcolor="#E3E3F3"&gt;
&lt;th&gt;SCT_LOCALIDADE&lt;/th&gt;
&lt;td&gt;&lt;/td&gt;
&lt;/tr&gt;&lt;tr bgcolor=""&gt;
&lt;th&gt;CD_LOCALIDADE&lt;/th&gt;
&lt;td&gt;411275100002&lt;/td&gt;
&lt;/tr&gt;&lt;tr bgcolor="#E3E3F3"&gt;
&lt;th&gt;NM_LOCALIDADE&lt;/th&gt;
&lt;td&gt;Verdes Campos&lt;/td&gt;
&lt;/tr&gt;&lt;/table&gt;&lt;/center&gt;</description>
<Style>
<IconStyle>
<color>ff0069d3</color>
<scale>0.6</scale>
<Icon>
<href>http://maps.google.com/mapfiles/kml/shapes/placemark_circle.png</href>
</Icon>
</IconStyle>
<LabelStyle>
<scale>0.6</scale>
</LabelStyle>
<LineStyle>
<width>1.0</width>
<gx:labelVisibility>1</gx:labelVisibility>
</LineStyle>
</Style>
<ExtendedData>
<SchemaData schemaUrl="#kml_schema_ft_Localidades">
<SimpleData name="CD_UF">41</SimpleData>
<SimpleData name="NM_UF">Paraná</SimpleData>
<SimpleData name="SIGLA_UF">PR</SimpleData>
<SimpleData name="CD_MUN">4112751</SimpleData>
<SimpleData name="NM_MUN">Jesuítas</SimpleData>
<SimpleData name="CD_RGINT">4103</SimpleData>
<SimpleData name="NM_RGINT">Cascavel</SimpleData>
<SimpleData name="CD_RGI">410008</SimpleData>
<SimpleData name="NM_RGI">Toledo</SimpleData>
<SimpleData name="CT_LOCALIDADE">Outras Localidades</SimpleData>
<SimpleData name="CD_LOCALIDADE">411275100002</SimpleData>
<SimpleData name="NM_LOCALIDADE">Verdes Campos</SimpleData>
</SchemaData>
</ExtendedData>
<Point>
<extrude>0</extrude>
<coordinates>-53.4209543,-24.4417647992878,0.0</coordinates>
</Point>
</Placemark>
<Placemark id="12. Outras Localidades">
<name>Comunidade Itaguajé [411275100003]</name>
<visibility>1</visibility>
<snippet> </snippet>
<description>&lt;center&gt;&lt;table&gt;&lt;tr&gt;&lt;th colspan='2' align='center'&gt;&lt;em&gt;Attributes&lt;/em&gt;&lt;/th&gt;&lt;/tr&gt;&lt;tr bgcolor="#E3E3F3"&gt;
&lt;th&gt;CD_UF&lt;/th&gt;
&lt;td&gt;41&lt;/td&gt;
&lt;/tr&gt;&lt;tr bgcolor=""&gt;
&lt;th&gt;NM_UF&lt;/th&gt;
&lt;td&gt;Paraná&lt;/td&gt;
&lt;/tr&gt;&lt;tr bgcolor="#E3E3F3"&gt;
&lt;th&gt;SIGLA_UF&lt;/th&gt;
&lt;td&gt;PR&lt;/td&gt;
&lt;/tr&gt;&lt;tr bgcolor=""&gt;
&lt;th&gt;CD_MUN&lt;/th&gt;
&lt;td&gt;4112751&lt;/td&gt;
&lt;/tr&gt;&lt;tr bgcolor="#E3E3F3"&gt;
&lt;th&gt;NM_MUN&lt;/th&gt;
&lt;td&gt;Jesuítas&lt;/td&gt;
&lt;/tr&gt;&lt;tr bgcolor=""&gt;
&lt;th&gt;CD_RGINT&lt;/th&gt;
&lt;td&gt;4103&lt;/td&gt;
&lt;/tr&gt;&lt;tr bgcolor="#E3E3F3"&gt;
&lt;th&gt;NM_RGINT&lt;/th&gt;
&lt;td&gt;Cascavel&lt;/td&gt;
&lt;/tr&gt;&lt;tr bgcolor=""&gt;
&lt;th&gt;CD_RGI&lt;/th&gt;
&lt;td&gt;410008&lt;/td&gt;
&lt;/tr&gt;&lt;tr bgcolor="#E3E3F3"&gt;
&lt;th&gt;NM_RGI&lt;/th&gt;
&lt;td&gt;Toledo&lt;/td&gt;
&lt;/tr&gt;&lt;tr bgcolor=""&gt;
&lt;th&gt;CT_LOCALIDADE&lt;/th&gt;
&lt;td&gt;Outras Localidades&lt;/td&gt;
&lt;/tr&gt;&lt;tr bgcolor="#E3E3F3"&gt;
&lt;th&gt;SCT_LOCALIDADE&lt;/th&gt;
&lt;td&gt;&lt;/td&gt;
&lt;/tr&gt;&lt;tr bgcolor=""&gt;
&lt;th&gt;CD_LOCALIDADE&lt;/th&gt;
&lt;td&gt;411275100003&lt;/td&gt;
&lt;/tr&gt;&lt;tr bgcolor="#E3E3F3"&gt;
&lt;th&gt;NM_LOCALIDADE&lt;/th&gt;
&lt;td&gt;Comunidade Itaguajé&lt;/td&gt;
&lt;/tr&gt;&lt;/table&gt;&lt;/center&gt;</description>
<Style>
<IconStyle>
<color>ff0069d3</color>
<scale>0.6</scale>
<Icon>
<href>http://maps.google.com/mapfiles/kml/shapes/placemark_circle.png</href>
</Icon>
</IconStyle>
<LabelStyle>
<scale>0.6</scale>
</LabelStyle>
<LineStyle>
<width>1.0</width>
<gx:labelVisibility>1</gx:labelVisibility>
</LineStyle>
</Style>
<ExtendedData>
<SchemaData schemaUrl="#kml_schema_ft_Localidades">
<SimpleData name="CD_UF">41</SimpleData>
<SimpleData name="NM_UF">Paraná</SimpleData>
<SimpleData name="SIGLA_UF">PR</SimpleData>
<SimpleData name="CD_MUN">4112751</SimpleData>
<SimpleData name="NM_MUN">Jesuítas</SimpleData>
<SimpleData name="CD_RGINT">4103</SimpleData>
<SimpleData name="NM_RGINT">Cascavel</SimpleData>
<SimpleData name="CD_RGI">410008</SimpleData>
<SimpleData name="NM_RGI">Toledo</SimpleData>
<SimpleData name="CT_LOCALIDADE">Outras Localidades</SimpleData>
<SimpleData name="CD_LOCALIDADE">411275100003</SimpleData>
<SimpleData name="NM_LOCALIDADE">Comunidade Itaguajé</SimpleData>
</SchemaData>
</ExtendedData>
<Point>
<extrude>0</extrude>
<coordinates>-53.4299423,-24.3106562992906,0.0</coordinates>
</Point>
</Placemark>
</Folder>
<Folder id="13. Referência">
<name>13. Referência</name>
<Placemark id="13. Referência">
<name>Jesuítas [4112751]</name>
<visibility>1</visibility>
<snippet> </snippet>
<description>&lt;center&gt;&lt;table&gt;&lt;tr&gt;&lt;th colspan='2' align='center'&gt;&lt;em&gt;Attributes&lt;/em&gt;&lt;/th&gt;&lt;/tr&gt;&lt;tr bgcolor="#E3E3F3"&gt;
&lt;th&gt;CD_UF&lt;/th&gt;
&lt;td&gt;41&lt;/td&gt;
&lt;/tr&gt;&lt;tr bgcolor=""&gt;
&lt;th&gt;NM_UF&lt;/th&gt;
&lt;td&gt;Paraná&lt;/td&gt;
&lt;/tr&gt;&lt;tr bgcolor="#E3E3F3"&gt;
&lt;th&gt;CD_MUN&lt;/th&gt;
&lt;td&gt;4112751&lt;/td&gt;
&lt;/tr&gt;&lt;tr bgcolor=""&gt;
&lt;th&gt;NM_MUN&lt;/th&gt;
&lt;td&gt;Jesuítas&lt;/td&gt;
&lt;/tr&gt;&lt;tr bgcolor="#E3E3F3"&gt;
&lt;th&gt;CD_RGINT&lt;/th&gt;
&lt;td&gt;4103&lt;/td&gt;
&lt;/tr&gt;&lt;tr bgcolor=""&gt;
&lt;th&gt;NM_RGINT&lt;/th&gt;
&lt;td&gt;Cascavel&lt;/td&gt;
&lt;/tr&gt;&lt;tr bgcolor="#E3E3F3"&gt;
&lt;th&gt;CD_RGI&lt;/th&gt;
&lt;td&gt;410008&lt;/td&gt;
&lt;/tr&gt;&lt;tr bgcolor=""&gt;
&lt;th&gt;NM_RGI&lt;/th&gt;
&lt;td&gt;Toledo&lt;/td&gt;
&lt;/tr&gt;&lt;/table&gt;&lt;/center&gt;</description>
<Style>
<IconStyle>
<scale>0.7</scale>
</IconStyle>
<LabelStyle>
<scale>0.7</scale>
</LabelStyle>
<LineStyle>
<color>ffffffff</color>
<width>3</width>
<gx:labelVisibility>1</gx:labelVisibility>
</LineStyle>
<PolyStyle>
<color>00ffffff</color>
</PolyStyle>
</Style>
<ExtendedData>
<SchemaData schemaUrl="#kml_schema_ft_Município">
<SimpleData name="CD_UF">41</SimpleData>
<SimpleData name="NM_UF">Paraná</SimpleData>
<SimpleData name="CD_MUN">4112751</SimpleData>
<SimpleData name="NM_MUN">Jesuítas</SimpleData>
<SimpleData name="CD_RGINT">4103</SimpleData>
<SimpleData name="NM_RGINT">Cascavel</SimpleData>
<SimpleData name="CD_RGI">410008</SimpleData>
<SimpleData name="NM_RGI">Toledo</SimpleData>
</SchemaData>
</ExtendedData>
<MultiGeometry>
<Polygon>
<extrude>0</extrude>
<tessellate>1</tessellate>
<outerBoundaryIs>
<LinearRing>
<coordinates>-53.4127856,-24.5409870992857,0.0 -53.4183415,-24.5409354992857,0.0 -53.4254995,-24.5403742992857,0.0 -53.4359756,-24.5400319992857,0.0 -53.4442017,-24.5394070992857,0.0 -53.4435941,-24.5386419992857,0.0 -53.4436224,-24.5366929992857,0.0 -53.4428221,-24.5348935992858,0.0 -53.440959,-24.5343982992858,0.0 -53.4398467,-24.5337531992858,0.0 -53.438962,-24.5329454992858,0.0 -53.4410366,-24.5298033992859,0.0 -53.4413729,-24.5276262992859,0.0 -53.4410448,-24.525731899286,0.0 -53.4413211,-24.523718899286,0.0 -53.4437299,-24.523493899286,0.0 -53.4452583,-24.523547399286,0.0 -53.447344,-24.523200299286,0.0 -53.4487032,-24.5215341992861,0.0 -53.4474339,-24.5204732992861,0.0 -53.4462914,-24.5204140992861,0.0 -53.4452336,-24.5199524992861,0.0 -53.4444286,-24.5192344992861,0.0 -53.4431266,-24.5148520992862,0.0 -53.4444239,-24.5137915992862,0.0 -53.4463171,-24.5140955992862,0.0 -53.4474033,-24.5137014992862,0.0 -53.4496215,-24.5121296992863,0.0 -53.4493997,-24.5088968992863,0.0 -53.4478437,-24.5057314992864,0.0 -53.4482642,-24.5045684992864,0.0 -53.4490073,-24.5036232992865,0.0 -53.4500663,-24.5028687992865,0.0 -53.4505361,-24.5014892992865,0.0 -53.4494848,-24.5004742992865,0.0 -53.4480974,-24.4996115992865,0.0 -53.447592,-24.4980749992866,0.0 -53.4482486,-24.4975059992866,0.0 -53.4493449,-24.4965556992866,0.0 -53.4508476,-24.4956330992866,0.0 -53.4519236,-24.4954898992866,0.0 -53.4530899,-24.4947727992866,0.0 -53.4542616,-24.4935022992867,0.0 -53.4564572,-24.4920124992867,0.0 -53.4573217,-24.4905891992867,0.0 -53.4572012,-24.4887741992868,0.0 -53.4596481,-24.4887116992868,0.0 -53.4613182,-24.4905917992867,0.0 -53.4624597,-24.4887387992868,0.0 -53.4636232,-24.4858684992868,0.0 -53.4650446,-24.4842737992869,0.0 -53.4652423,-24.4832109992869,0.0 -53.4656492,-24.4810231992869,0.0 -53.4664304,-24.478253499287,0.0 -53.4678561,-24.476774399287,0.0 -53.4693433,-24.4752303992871,0.0 -53.4679882,-24.4737540992871,0.0 -53.4637865,-24.4736317992871,0.0 -53.4635089,-24.4716338992871,0.0 -53.4630409,-24.4698717992872,0.0 -53.4615935,-24.4697302992872,0.0 -53.4610149,-24.4687089992872,0.0 -53.4613971,-24.4671945992872,0.0 -53.4593141,-24.4652894992873,0.0 -53.4582341,-24.4638871992873,0.0 -53.4594313,-24.4632477992873,0.0 -53.4609893,-24.4633472992873,0.0 -53.4629571,-24.4621968992873,0.0 -53.4631231,-24.4602655992874,0.0 -53.4613736,-24.4588157992874,0.0 -53.4559369,-24.4604375992874,0.0 -53.454401,-24.4614097992874,0.0 -53.4525362,-24.4633782992873,0.0 -53.450646,-24.4647987992873,0.0 -53.4506274,-24.4668208992872,0.0 -53.4489868,-24.4673367992872,0.0 -53.4475344,-24.4658598992873,0.0 -53.4475156,-24.4633699992873,0.0 -53.4472866,-24.4629664992873,0.0 -53.446899,-24.4622843992873,0.0 -53.4457901,-24.4611969992874,0.0 -53.4453205,-24.4601028992874,0.0 -53.4451791,-24.4563629992875,0.0 -53.4469244,-24.4564614992875,0.0 -53.4481494,-24.4562393992875,0.0 -53.4486765,-24.4550134992875,0.0 -53.4494009,-24.4517119992876,0.0 -53.4474293,-24.4514970992876,0.0 -53.4492626,-24.4494905992876,0.0 -53.455395,-24.4497474992876,0.0 -53.4552631,-24.4483215992876,0.0 -53.4539545,-24.4478193992877,0.0 -53.4539248,-24.4455532992877,0.0 -53.4514019,-24.4428727992878,0.0 -53.4543991,-24.4407692992878,0.0 -53.4550344,-24.4397965992878,0.0 -53.4538671,-24.4383487992879,0.0 -53.4528439,-24.4378025992879,0.0 -53.4540652,-24.4358578992879,0.0 -53.4536772,-24.4343659992879,0.0 -53.45318,-24.433271799288,0.0 -53.4561464,-24.430925299288,0.0 -53.4570115,-24.4294730992881,0.0 -53.4599257,-24.4282574992881,0.0 -53.4590957,-24.4263324992881,0.0 -53.458093,-24.4256066992881,0.0 -53.4568406,-24.4256301992881,0.0 -53.4550137,-24.4260280992881,0.0 -53.4529886,-24.4271131992881,0.0 -53.4511246,-24.4267389992881,0.0 -53.4501822,-24.4239431992882,0.0 -53.4489812,-24.4237058992882,0.0 -53.4477632,-24.4226163992882,0.0 -53.4452047,-24.4212157992882,0.0 -53.4448492,-24.4211052992882,0.0 -53.4441511,-24.4208868992882,0.0 -53.4454855,-24.4183188992883,0.0 -53.4464026,-24.4169508992883,0.0 -53.4527586,-24.4164232992883,0.0 -53.4577095,-24.4163598992883,0.0 -53.4588744,-24.4157943992883,0.0 -53.4582283,-24.4147104992884,0.0 -53.4525714,-24.4143371992884,0.0 -53.4505419,-24.4137420992884,0.0 -53.44896,-24.4124552992884,0.0 -53.4474805,-24.4103183992885,0.0 -53.446478,-24.4093667992885,0.0 -53.4483189,-24.4079831992885,0.0 -53.4492611,-24.4089625992885,0.0 -53.4505068,-24.4081708992885,0.0 -53.4530405,-24.4079732992885,0.0 -53.4582083,-24.4055362992886,0.0 -53.4594513,-24.4028133992886,0.0 -53.4609801,-24.4005536992887,0.0 -53.4617326,-24.3974778992887,0.0 -53.4650955,-24.3948526992888,0.0 -53.4687934,-24.3945867992888,0.0 -53.4702947,-24.3939058992888,0.0 -53.4715383,-24.3911918992889,0.0 -53.4717009,-24.3900106992889,0.0 -53.470788,-24.3890857992889,0.0 -53.4699259,-24.387791799289,0.0 -53.4696174,-24.386120499289,0.0 -53.4688685,-24.384167899289,0.0 -53.4682373,-24.3830632992891,0.0 -53.4677314,-24.3821776992891,0.0 -53.4687363,-24.3801769992891,0.0 -53.4738153,-24.3793099992891,0.0 -53.4761533,-24.3786310992892,0.0 -53.4767613,-24.3774676992892,0.0 -53.4798434,-24.3779946992892,0.0 -53.4811757,-24.3773392992892,0.0 -53.4812612,-24.3757145992892,0.0 -53.4796735,-24.3754201992892,0.0 -53.4761243,-24.3739354992893,0.0 -53.4750413,-24.3736437992893,0.0 -53.4728428,-24.3737516992893,0.0 -53.4704245,-24.3719845992893,0.0 -53.4683439,-24.3724278992893,0.0 -53.4669217,-24.3731089992893,0.0 -53.464683,-24.3757552992892,0.0 -53.4630707,-24.3770866992892,0.0 -53.4626508,-24.3782668992892,0.0 -53.4618686,-24.3790874992892,0.0 -53.4575914,-24.3814555992891,0.0 -53.4562328,-24.3810625992891,0.0 -53.454926,-24.3800737992891,0.0 -53.4543996,-24.3789352992891,0.0 -53.4531285,-24.3785957992892,0.0 -53.4513452,-24.3784258992892,0.0 -53.450401,-24.3777011992892,0.0 -53.4508124,-24.3762590992892,0.0 -53.4522336,-24.3735422992893,0.0 -53.4543421,-24.3734993992893,0.0 -53.4559238,-24.3724099992893,0.0 -53.4572384,-24.3717844992893,0.0 -53.4577359,-24.3706938992893,0.0 -53.4572877,-24.3694734992894,0.0 -53.4589585,-24.3680431992894,0.0 -53.4598396,-24.3647880992894,0.0 -53.455702,-24.3620639992895,0.0 -53.4547514,-24.3617120992895,0.0 -53.4539819,-24.3614267992895,0.0 -53.4538713,-24.3594130992896,0.0 -53.451267,-24.3579312992896,0.0 -53.4502558,-24.3567999992896,0.0 -53.4490371,-24.3562538992896,0.0 -53.449456,-24.3530405992897,0.0 -53.4516201,-24.3512247992897,0.0 -53.4524532,-24.3502337992898,0.0 -53.4525688,-24.3485567992898,0.0 -53.454345,-24.3477677992898,0.0 -53.4569255,-24.3457999992899,0.0 -53.4610141,-24.3460311992899,0.0 -53.4610085,-24.3426998992899,0.0 -53.4624587,-24.33995959929,0.0 -53.4624338,-24.33887609929,0.0 -53.4608493,-24.33887049929,0.0 -53.4605816,-24.33809769929,0.0 -53.4603703,-24.33748659929,0.0 -53.4613494,-24.3366504992901,0.0 -53.4631501,-24.3325590992902,0.0 -53.4626239,-24.3314015992902,0.0 -53.4615409,-24.3311991992902,0.0 -53.4602927,-24.3325488992902,0.0 -53.4593442,-24.3331684992901,0.0 -53.4574852,-24.3323854992902,0.0 -53.4569585,-24.3308920992902,0.0 -53.4583716,-24.3304005992902,0.0 -53.4598715,-24.3294056992902,0.0 -53.4608429,-24.3282706992903,0.0 -53.4612889,-24.3255548992903,0.0 -53.463232,-24.3224741992904,0.0 -53.4634836,-24.3212210992904,0.0 -53.4636245,-24.3205254992904,0.0 -53.4643767,-24.3197173992904,0.0 -53.4669306,-24.3192009992904,0.0 -53.4682092,-24.3185400992905,0.0 -53.4697648,-24.3154904992905,0.0 -53.4725987,-24.3137226992906,0.0 -53.4732852,-24.3120918992906,0.0 -53.4736776,-24.3101043992906,0.0 -53.4736744,-24.3082463992907,0.0 -53.4732366,-24.3071605992907,0.0 -53.4721256,-24.3066321992907,0.0 -53.4706763,-24.3066740992907,0.0 -53.4695639,-24.3064697992907,0.0 -53.4680353,-24.3049747992908,0.0 -53.4657394,-24.3013284992908,0.0 -53.4643235,-24.2997796992909,0.0 -53.4645094,-24.2974971992909,0.0 -53.4649277,-24.2964052992909,0.0 -53.4662012,-24.295733599291,0.0 -53.4691749,-24.293647699291,0.0 -53.4701733,-24.292794399291,0.0 -53.4707111,-24.291613599291,0.0 -53.4688232,-24.2886963992911,0.0 -53.4672912,-24.2871237992911,0.0 -53.4667046,-24.2860653992912,0.0 -53.465595,-24.2828835992912,0.0 -53.4636487,-24.2821806992912,0.0 -53.4624546,-24.2827461992912,0.0 -53.4618155,-24.2843517992912,0.0 -53.4612234,-24.2850700992912,0.0 -53.4616209,-24.2858822992912,0.0 -53.458371,-24.2899450992911,0.0 -53.4564363,-24.291817799291,0.0 -53.4533758,-24.294117099291,0.0 -53.451439,-24.294862199291,0.0 -53.44944,-24.2960818992909,0.0 -53.4467381,-24.2969513992909,0.0 -53.4432237,-24.2984777992909,0.0 -53.4409471,-24.2991699992909,0.0 -53.438464,-24.3002107992909,0.0 -53.4386618,-24.3009310992908,0.0 -53.439886,-24.3030084992908,0.0 -53.4399207,-24.3047717992908,0.0 -53.4374306,-24.3060309992907,0.0 -53.4358672,-24.3075924992907,0.0 -53.4347312,-24.3080603992907,0.0 -53.4332191,-24.3080457992907,0.0 -53.4306941,-24.3089444992907,0.0 -53.4293479,-24.3097013992907,0.0 -53.4279519,-24.3061833992907,0.0 -53.4290073,-24.3036919992908,0.0 -53.424004,-24.3027973992908,0.0 -53.4222363,-24.3011565992908,0.0 -53.4208685,-24.3001682992909,0.0 -53.418629,-24.2998247992909,0.0 -53.4158384,-24.2985076992909,0.0 -53.4144163,-24.2971407992909,0.0 -53.4120087,-24.2973661992909,0.0 -53.410903,-24.2981121992909,0.0 -53.4102178,-24.2988750992909,0.0 -53.4097319,-24.2991458992909,0.0 -53.4090372,-24.2991927992909,0.0 -53.4078505,-24.2989136992909,0.0 -53.4068579,-24.2984042992909,0.0 -53.4031638,-24.2986308992909,0.0 -53.3985701,-24.2978417992909,0.0 -53.3971377,-24.2966091992909,0.0 -53.3966612,-24.2974008992909,0.0 -53.3945815,-24.2984704992909,0.0 -53.388965,-24.294487499291,0.0 -53.3868395,-24.293415399291,0.0 -53.3863072,-24.293275099291,0.0 -53.3849282,-24.293894299291,0.0 -53.3841121,-24.293983999291,0.0 -53.3822228,-24.293564599291,0.0 -53.3809289,-24.293076399291,0.0 -53.3794703,-24.291600699291,0.0 -53.3769214,-24.2883112992911,0.0 -53.3760648,-24.2876261992911,0.0 -53.3753535,-24.2888735992911,0.0 -53.3749688,-24.2901909992911,0.0 -53.3739721,-24.291555599291,0.0 -53.3735731,-24.293192499291,0.0 -53.3722748,-24.295796199291,0.0 -53.3722876,-24.2965870992909,0.0 -53.3717001,-24.2978675992909,0.0 -53.3719839,-24.2988590992909,0.0 -53.3715865,-24.2995399992909,0.0 -53.3712869,-24.3009687992908,0.0 -53.3710037,-24.3012717992908,0.0 -53.3696905,-24.3008808992908,0.0 -53.3692288,-24.3012111992908,0.0 -53.3683492,-24.3023820992908,0.0 -53.3684444,-24.3030568992908,0.0 -53.3693557,-24.3036393992908,0.0 -53.3695857,-24.3051397992908,0.0 -53.3692493,-24.3068293992907,0.0 -53.3681807,-24.3069693992907,0.0 -53.3679687,-24.3072049992907,0.0 -53.3681009,-24.3077652992907,0.0 -53.3679058,-24.3081806992907,0.0 -53.3680022,-24.3090044992907,0.0 -53.3669907,-24.3095445992907,0.0 -53.3671611,-24.3099542992906,0.0 -53.3668403,-24.3102589992906,0.0 -53.3657835,-24.3106129992906,0.0 -53.3658505,-24.3109924992906,0.0 -53.3666047,-24.3118938992906,0.0 -53.3664463,-24.3122326992906,0.0 -53.3656375,-24.3126201992906,0.0 -53.363802,-24.3128372992906,0.0 -53.3631558,-24.3132227992906,0.0 -53.3629663,-24.3140859992906,0.0 -53.3633803,-24.3154102992905,0.0 -53.3630712,-24.3163524992905,0.0 -53.3628715,-24.3166910992905,0.0 -53.3622182,-24.3167027992905,0.0 -53.3619761,-24.3168560992905,0.0 -53.3613432,-24.3179169992905,0.0 -53.3610563,-24.3179572992905,0.0 -53.3602309,-24.3175213992905,0.0 -53.3602065,-24.3172765992905,0.0 -53.3605644,-24.3168221992905,0.0 -53.3607182,-24.3162197992905,0.0 -53.360548,-24.3159599992905,0.0 -53.3597336,-24.3160846992905,0.0 -53.3593309,-24.3164278992905,0.0 -53.3590958,-24.3169577992905,0.0 -53.3590241,-24.3174837992905,0.0 -53.3597513,-24.3192327992904,0.0 -53.3597431,-24.3198881992904,0.0 -53.3594252,-24.3204194992904,0.0 -53.3603081,-24.3217539992904,0.0 -53.3614133,-24.3218118992904,0.0 -53.3624817,-24.3221323992904,0.0 -53.3626103,-24.3224307992904,0.0 -53.3614036,-24.3245283992903,0.0 -53.3593068,-24.3261390992903,0.0 -53.3585488,-24.3271605992903,0.0 -53.3564355,-24.3288994992902,0.0 -53.3565232,-24.3292744992902,0.0 -53.3590598,-24.3315593992902,0.0 -53.3590815,-24.3327194992901,0.0 -53.3592727,-24.3331102992901,0.0 -53.3604984,-24.3331308992901,0.0 -53.3615404,-24.3341986992901,0.0 -53.3616714,-24.3346100992901,0.0 -53.3608664,-24.3351825992901,0.0 -53.3602741,-24.3363907992901,0.0 -53.3599507,-24.3366223992901,0.0 -53.3595157,-24.3363117992901,0.0 -53.3587159,-24.3352530992901,0.0 -53.3585085,-24.3349785992901,0.0 -53.3574744,-24.3342799992901,0.0 -53.3568883,-24.3334658992901,0.0 -53.3562672,-24.3331372992901,0.0 -53.3559425,-24.3332559992901,0.0 -53.3557859,-24.3336326992901,0.0 -53.3552409,-24.3340357992901,0.0 -53.3549332,-24.3350518992901,0.0 -53.3541669,-24.3355875992901,0.0 -53.3542983,-24.3362823992901,0.0 -53.3545824,-24.33779219929,0.0 -53.3549592,-24.33868669929,0.0 -53.3548828,-24.33898789929,0.0 -53.35417,-24.33905529929,0.0 -53.3535453,-24.33846399929,0.0 -53.3532587,-24.33843209929,0.0 -53.3530577,-24.33862259929,0.0 -53.3533644,-24.33974339929,0.0 -53.3539568,-24.34085989929,0.0 -53.3539426,-24.34171839929,0.0 -53.3542398,-24.3421935992899,0.0 -53.3542523,-24.3428373992899,0.0 -53.3539492,-24.3437198992899,0.0 -53.3534779,-24.3441665992899,0.0 -53.3526426,-24.3437106992899,0.0 -53.3519848,-24.3428430992899,0.0 -53.3515501,-24.3432645992899,0.0 -53.3527894,-24.3448795992899,0.0 -53.3524151,-24.3452363992899,0.0 -53.3529283,-24.3454633992899,0.0 -53.3527834,-24.3462544992899,0.0 -53.3521664,-24.3474353992898,0.0 -53.3515888,-24.3472685992898,0.0 -53.3511878,-24.3462792992899,0.0 -53.3508014,-24.3461105992899,0.0 -53.3502994,-24.3465868992898,0.0 -53.3496617,-24.3465958992899,0.0 -53.3483666,-24.3456803992899,0.0 -53.34683,-24.3453523992899,0.0 -53.3468802,-24.3463167992899,0.0 -53.346651,-24.3477845992898,0.0 -53.3469818,-24.3484233992898,0.0 -53.3476124,-24.3480622992898,0.0 -53.3478156,-24.3485849992898,0.0 -53.3470836,-24.3504686992898,0.0 -53.3461388,-24.3511876992898,0.0 -53.3461803,-24.3517421992897,0.0 -53.3471491,-24.3523123992897,0.0 -53.3476034,-24.3528957992897,0.0 -53.3468652,-24.3542485992897,0.0 -53.3473201,-24.3547091992897,0.0 -53.3468938,-24.3557698992896,0.0 -53.3468412,-24.3564133992896,0.0 -53.3477035,-24.3564305992896,0.0 -53.3489347,-24.3573467992896,0.0 -53.348501,-24.3581140992896,0.0 -53.3472331,-24.3586042992896,0.0 -53.3464147,-24.3592597992896,0.0 -53.3459335,-24.3608475992895,0.0 -53.3453939,-24.3609435992895,0.0 -53.3442382,-24.3606686992895,0.0 -53.343355,-24.3612660992895,0.0 -53.3428623,-24.3622127992895,0.0 -53.3432153,-24.3640794992895,0.0 -53.3451567,-24.3652678992894,0.0 -53.346049,-24.3661681992894,0.0 -53.3463713,-24.3667373992894,0.0 -53.3463205,-24.3674232992894,0.0 -53.3459004,-24.3682348992894,0.0 -53.346091,-24.3687421992894,0.0 -53.3460692,-24.3689442992894,0.0 -53.3460413,-24.3692014992894,0.0 -53.3456176,-24.3699507992893,0.0 -53.345815,-24.3704634992893,0.0 -53.3464501,-24.3709672992893,0.0 -53.3468357,-24.3716974992893,0.0 -53.3480211,-24.3715734992893,0.0 -53.3500649,-24.3706839992893,0.0 -53.3507761,-24.3719301992893,0.0 -53.3522331,-24.3730513992893,0.0 -53.3528701,-24.3737862992893,0.0 -53.3532716,-24.3752639992892,0.0 -53.351057,-24.3769589992892,0.0 -53.3502955,-24.3797750992891,0.0 -53.3513236,-24.3813024992891,0.0 -53.3529377,-24.3808209992891,0.0 -53.3538525,-24.3796630992891,0.0 -53.3565309,-24.3792203992891,0.0 -53.356781,-24.3827756992891,0.0 -53.3603181,-24.385272399289,0.0 -53.3620819,-24.384809499289,0.0 -53.3623588,-24.387200299289,0.0 -53.3630736,-24.3881457992889,0.0 -53.3682219,-24.3892254992889,0.0 -53.3683521,-24.3893983992889,0.0 -53.369522,-24.3892615992889,0.0 -53.3705345,-24.3918160992889,0.0 -53.3720347,-24.3934563992888,0.0 -53.3725618,-24.3927281992889,0.0 -53.3744942,-24.3978829992887,0.0 -53.3738409,-24.3984156992887,0.0 -53.373913,-24.3989936992887,0.0 -53.3746745,-24.4009044992887,0.0 -53.3754072,-24.4010582992887,0.0 -53.3756851,-24.4023024992886,0.0 -53.3761611,-24.4025786992886,0.0 -53.3784043,-24.4038800992886,0.0 -53.3797083,-24.4061648992886,0.0 -53.3808155,-24.4069683992885,0.0 -53.3831065,-24.4080394992885,0.0 -53.3856646,-24.4077112992885,0.0 -53.3864492,-24.4073497992885,0.0 -53.3879731,-24.4086360992885,0.0 -53.3894002,-24.4093631992885,0.0 -53.3900029,-24.4111503992885,0.0 -53.3900253,-24.4155118992884,0.0 -53.3893112,-24.4163837992883,0.0 -53.3863101,-24.4167507992883,0.0 -53.3870624,-24.4179806992883,0.0 -53.3869008,-24.4195788992883,0.0 -53.3873216,-24.4200346992883,0.0 -53.3870935,-24.4213427992882,0.0 -53.3874259,-24.4223299992882,0.0 -53.3895032,-24.4232185992882,0.0 -53.3897113,-24.4234026992882,0.0 -53.3904693,-24.4240746992882,0.0 -53.388059,-24.4255906992881,0.0 -53.3876342,-24.4265820992881,0.0 -53.3880361,-24.4276787992881,0.0 -53.3889348,-24.4284181992881,0.0 -53.3909867,-24.430709599288,0.0 -53.392023,-24.432367599288,0.0 -53.3934104,-24.4365097992879,0.0 -53.3952879,-24.4375626992879,0.0 -53.3966844,-24.4392103992878,0.0 -53.3871251,-24.4409070992878,0.0 -53.3861259,-24.4442117992877,0.0 -53.3849,-24.4470613992877,0.0 -53.385165,-24.4544363992875,0.0 -53.3808407,-24.4621970992874,0.0 -53.378912,-24.4626847992873,0.0 -53.3819198,-24.4664417992873,0.0 -53.3821246,-24.4673246992872,0.0 -53.381065,-24.4691719992872,0.0 -53.3810129,-24.4699543992872,0.0 -53.3873576,-24.479711299287,0.0 -53.3855877,-24.4832109992869,0.0 -53.3801386,-24.4939854992867,0.0 -53.378213,-24.4919254992867,0.0 -53.3773087,-24.4920535992867,0.0 -53.3767616,-24.4925514992867,0.0 -53.37454,-24.4961009992866,0.0 -53.3747809,-24.4972683992866,0.0 -53.3574064,-24.5003948992865,0.0 -53.3564879,-24.4980617992866,0.0 -53.3557717,-24.4986121992866,0.0 -53.3525759,-24.4999761992865,0.0 -53.3517774,-24.4988884992866,0.0 -53.3514622,-24.4980213992866,0.0 -53.3509148,-24.5000872992865,0.0 -53.3509688,-24.5020681992865,0.0 -53.3503341,-24.5032787992865,0.0 -53.3498947,-24.5037309992865,0.0 -53.3484641,-24.5044704992864,0.0 -53.3461833,-24.5045942992864,0.0 -53.3454911,-24.5048773992864,0.0 -53.3450513,-24.5054090992864,0.0 -53.3449319,-24.5059844992864,0.0 -53.3452725,-24.5072669992864,0.0 -53.3461807,-24.5087117992863,0.0 -53.3464407,-24.5095650992863,0.0 -53.3464394,-24.5105851992863,0.0 -53.3458158,-24.5113561992863,0.0 -53.3437992,-24.5126302992863,0.0 -53.341716,-24.5145440992862,0.0 -53.3414385,-24.5153517992862,0.0 -53.341874,-24.5160352992862,0.0 -53.3425138,-24.5161616992862,0.0 -53.3428193,-24.5164329992862,0.0 -53.3422724,-24.5172304992862,0.0 -53.3422016,-24.5175587992862,0.0 -53.3423767,-24.5178637992861,0.0 -53.3444992,-24.5192018992861,0.0 -53.3448269,-24.5195616992861,0.0 -53.3470437,-24.5208116992861,0.0 -53.3487276,-24.522640799286,0.0 -53.3494454,-24.522956199286,0.0 -53.351006,-24.524406499286,0.0 -53.3511256,-24.524760899286,0.0 -53.3511072,-24.525073099286,0.0 -53.3509121,-24.525198699286,0.0 -53.3496204,-24.525201199286,0.0 -53.3492482,-24.525412699286,0.0 -53.3486988,-24.526124399286,0.0 -53.3483994,-24.526198999286,0.0 -53.3457348,-24.525089699286,0.0 -53.3453429,-24.525114099286,0.0 -53.3447178,-24.525759599286,0.0 -53.3441164,-24.5277412992859,0.0 -53.3444183,-24.5288872992859,0.0 -53.3461775,-24.5306787992859,0.0 -53.3460254,-24.5326172992858,0.0 -53.3463932,-24.5332480992858,0.0 -53.3458688,-24.5342686992858,0.0 -53.3469045,-24.5359043992858,0.0 -53.3470089,-24.5365087992857,0.0 -53.346891,-24.5367899992857,0.0 -53.3449101,-24.5371975992857,0.0 -53.3443715,-24.5375156992857,0.0 -53.3438621,-24.5383133992857,0.0 -53.3440892,-24.5394246992857,0.0 -53.3446407,-24.5402305992857,0.0 -53.345143,-24.5406290992857,0.0 -53.3471132,-24.5417145992856,0.0 -53.3478407,-24.5424580992856,0.0 -53.3486752,-24.5429454992856,0.0 -53.3503407,-24.5428497992856,0.0 -53.3511811,-24.5435223992856,0.0 -53.3739417,-24.5425839992856,0.0 -53.3815183,-24.5424572992856,0.0 -53.3837649,-24.5422154992856,0.0 -53.3920911,-24.5419784992856,0.0 -53.4127856,-24.5409870992857,0.0</coordinates>
</LinearRing>
</outerBoundaryIs>
</Polygon>
</MultiGeometry>
</Placemark>
</Folder>
</Document></kml>
