<?xml version='1.0' encoding='UTF-8'?>
<kml xmlns:xsd="http://www.w3.org/2001/XMLSchema" xmlns:gx="http://www.google.com/kml/ext/2.2" xmlns:atom="http://www.w3.org/2005/Atom" xmlns="http://www.opengis.net/kml/2.2">
<Document>
<name>sao_pedro_do_iguacu_4125753_localidades_2022</name>
<visibility>1</visibility>
<Schema name="Agrovilas do PA" id="kml_schema_ft_Agrovilas_do_PA">
<SimpleField type="xsd:string" name="CD_UF">
<displayName>CD_UF</displayName>
</SimpleField>
<SimpleField type="xsd:string" name="NM_UF">
<displayName>NM_UF</displayName>
</SimpleField>
<SimpleField type="xsd:string" name="SIGLA_UF">
<displayName>SIGLA_UF</displayName>
</SimpleField>
<SimpleField type="xsd:string" name="CD_MUN">
<displayName>CD_MUN</displayName>
</SimpleField>
<SimpleField type="xsd:string" name="NM_MUN">
<displayName>NM_MUN</displayName>
</SimpleField>
<SimpleField type="xsd:string" name="CD_RGINT">
<displayName>CD_RGINT</displayName>
</SimpleField>
<SimpleField type="xsd:string" name="NM_RGINT">
<displayName>NM_RGINT</displayName>
</SimpleField>
<SimpleField type="xsd:string" name="CD_RGI">
<displayName>CD_RGI</displayName>
</SimpleField>
<SimpleField type="xsd:string" name="NM_RGI">
<displayName>NM_RGI</displayName>
</SimpleField>
<SimpleField type="xsd:string" name="CT_LOCALIDADE">
<displayName>CT_LOCALIDADE</displayName>
</SimpleField>
<SimpleField type="xsd:string" name="CD_LOCALIDADE">
<displayName>CD_LOCALIDADE</displayName>
</SimpleField>
<SimpleField type="xsd:string" name="NM_LOCALIDADE">
<displayName>NM_LOCALIDADE</displayName>
</SimpleField>
<SimpleField type="xsd:string" name="LAT_LOCALIDADE">
<displayName>LAT_LOCALIDADE</displayName>
</SimpleField>
<SimpleField type="xsd:string" name="LONG_LOCALIDADE">
<displayName>LONG_LOCALIDADE</displayName>
</SimpleField>
</Schema>
<Schema name="Povoados" id="kml_schema_ft_Povoados">
<SimpleField type="xsd:string" name="CD_UF">
<displayName>CD_UF</displayName>
</SimpleField>
<SimpleField type="xsd:string" name="NM_UF">
<displayName>NM_UF</displayName>
</SimpleField>
<SimpleField type="xsd:string" name="SIGLA_UF">
<displayName>SIGLA_UF</displayName>
</SimpleField>
<SimpleField type="xsd:string" name="CD_MUN">
<displayName>CD_MUN</displayName>
</SimpleField>
<SimpleField type="xsd:string" name="NM_MUN">
<displayName>NM_MUN</displayName>
</SimpleField>
<SimpleField type="xsd:string" name="CD_RGINT">
<displayName>CD_RGINT</displayName>
</SimpleField>
<SimpleField type="xsd:string" name="NM_RGINT">
<displayName>NM_RGINT</displayName>
</SimpleField>
<SimpleField type="xsd:string" name="CD_RGI">
<displayName>CD_RGI</displayName>
</SimpleField>
<SimpleField type="xsd:string" name="NM_RGI">
<displayName>NM_RGI</displayName>
</SimpleField>
<SimpleField type="xsd:string" name="CT_LOCALIDADE">
<displayName>CT_LOCALIDADE</displayName>
</SimpleField>
<SimpleField type="xsd:string" name="CD_LOCALIDADE">
<displayName>CD_LOCALIDADE</displayName>
</SimpleField>
<SimpleField type="xsd:string" name="NM_LOCALIDADE">
<displayName>NM_LOCALIDADE</displayName>
</SimpleField>
<SimpleField type="xsd:string" name="LAT_LOCALIDADE">
<displayName>LAT_LOCALIDADE</displayName>
</SimpleField>
<SimpleField type="xsd:string" name="LONG_LOCALIDADE">
<displayName>LONG_LOCALIDADE</displayName>
</SimpleField>
</Schema>
<Schema name="Núcleos Urbanos" id="kml_schema_ft_Núcleos_Urbanos">
<SimpleField type="xsd:string" name="CD_UF">
<displayName>CD_UF</displayName>
</SimpleField>
<SimpleField type="xsd:string" name="NM_UF">
<displayName>NM_UF</displayName>
</SimpleField>
<SimpleField type="xsd:string" name="SIGLA_UF">
<displayName>SIGLA_UF</displayName>
</SimpleField>
<SimpleField type="xsd:string" name="CD_MUN">
<displayName>CD_MUN</displayName>
</SimpleField>
<SimpleField type="xsd:string" name="NM_MUN">
<displayName>NM_MUN</displayName>
</SimpleField>
<SimpleField type="xsd:string" name="CD_RGINT">
<displayName>CD_RGINT</displayName>
</SimpleField>
<SimpleField type="xsd:string" name="NM_RGINT">
<displayName>NM_RGINT</displayName>
</SimpleField>
<SimpleField type="xsd:string" name="CD_RGI">
<displayName>CD_RGI</displayName>
</SimpleField>
<SimpleField type="xsd:string" name="NM_RGI">
<displayName>NM_RGI</displayName>
</SimpleField>
<SimpleField type="xsd:string" name="CT_LOCALIDADE">
<displayName>CT_LOCALIDADE</displayName>
</SimpleField>
<SimpleField type="xsd:string" name="CD_LOCALIDADE">
<displayName>CD_LOCALIDADE</displayName>
</SimpleField>
<SimpleField type="xsd:string" name="NM_LOCALIDADE">
<displayName>NM_LOCALIDADE</displayName>
</SimpleField>
<SimpleField type="xsd:string" name="LAT_LOCALIDADE">
<displayName>LAT_LOCALIDADE</displayName>
</SimpleField>
<SimpleField type="xsd:string" name="LONG_LOCALIDADE">
<displayName>LONG_LOCALIDADE</displayName>
</SimpleField>
</Schema>
<Schema name="01. Cidade" id="kml_schema_ft_01._Cidade">
<SimpleField type="xsd:string" name="CD_UF">
<displayName>CD_UF</displayName>
</SimpleField>
<SimpleField type="xsd:string" name="NM_UF">
<displayName>NM_UF</displayName>
</SimpleField>
<SimpleField type="xsd:string" name="SIGLA_UF">
<displayName>SIGLA_UF</displayName>
</SimpleField>
<SimpleField type="xsd:string" name="CD_MUN">
<displayName>CD_MUN</displayName>
</SimpleField>
<SimpleField type="xsd:string" name="NM_MUN">
<displayName>NM_MUN</displayName>
</SimpleField>
<SimpleField type="xsd:string" name="CD_RGINT">
<displayName>CD_RGINT</displayName>
</SimpleField>
<SimpleField type="xsd:string" name="NM_RGINT">
<displayName>NM_RGINT</displayName>
</SimpleField>
<SimpleField type="xsd:string" name="CD_RGI">
<displayName>CD_RGI</displayName>
</SimpleField>
<SimpleField type="xsd:string" name="NM_RGI">
<displayName>NM_RGI</displayName>
</SimpleField>
<SimpleField type="xsd:string" name="CT_LOCALIDADE">
<displayName>CT_LOCALIDADE</displayName>
</SimpleField>
<SimpleField type="xsd:string" name="SCT_LOCALIDADE">
<displayName>SCT_LOCALIDADE</displayName>
</SimpleField>
<SimpleField type="xsd:string" name="CD_LOCALIDADE">
<displayName>CD_LOCALIDADE</displayName>
</SimpleField>
<SimpleField type="xsd:string" name="NM_LOCALIDADE">
<displayName>NM_LOCALIDADE</displayName>
</SimpleField>
<SimpleField type="xsd:string" name="LAT_LOCALIDADE">
<displayName>LAT_LOCALIDADE</displayName>
</SimpleField>
<SimpleField type="xsd:string" name="LONG_LOCALIDADE">
<displayName>LONG_LOCALIDADE</displayName>
</SimpleField>
</Schema>
<Schema name="Município" id="kml_schema_ft_Município">
<SimpleField type="xsd:string" name="CD_UF">
<displayName>CD_UF</displayName>
</SimpleField>
<SimpleField type="xsd:string" name="NM_UF">
<displayName>NM_UF</displayName>
</SimpleField>
<SimpleField type="xsd:string" name="CD_MUN">
<displayName>CD_MUN</displayName>
</SimpleField>
<SimpleField type="xsd:string" name="NM_MUN">
<displayName>NM_MUN</displayName>
</SimpleField>
<SimpleField type="xsd:string" name="CD_RGINT">
<displayName>CD_RGINT</displayName>
</SimpleField>
<SimpleField type="xsd:string" name="NM_RGINT">
<displayName>NM_RGINT</displayName>
</SimpleField>
<SimpleField type="xsd:string" name="CD_RGI">
<displayName>CD_RGI</displayName>
</SimpleField>
<SimpleField type="xsd:string" name="NM_RGI">
<displayName>NM_RGI</displayName>
</SimpleField>
</Schema>
<Folder id="01. Cidade">
<name>01. Cidade</name>
<Folder id="01.03. Sede Municipal">
<name>01.03. Sede Municipal</name>
<Placemark id="01.03. Sede Municipal">
<name>São Pedro do Iguaçu [4125753]</name>
<visibility>1</visibility>
<snippet> </snippet>
<description>&lt;center&gt;&lt;table&gt;&lt;tr&gt;&lt;th colspan='2' align='center'&gt;&lt;em&gt;Atributos&lt;/em&gt;&lt;/th&gt;&lt;/tr&gt;&lt;tr bgcolor="#E3E3F3"&gt;
&lt;th&gt;CD_UF&lt;/th&gt;
&lt;td&gt;41&lt;/td&gt;
&lt;/tr&gt;&lt;tr bgcolor=""&gt;
&lt;th&gt;NM_UF&lt;/th&gt;
&lt;td&gt;Paraná&lt;/td&gt;
&lt;/tr&gt;&lt;tr bgcolor="#E3E3F3"&gt;
&lt;th&gt;SIGLA_UF&lt;/th&gt;
&lt;td&gt;PR&lt;/td&gt;
&lt;/tr&gt;&lt;tr bgcolor=""&gt;
&lt;th&gt;CD_MUN&lt;/th&gt;
&lt;td&gt;4125753&lt;/td&gt;
&lt;/tr&gt;&lt;tr bgcolor="#E3E3F3"&gt;
&lt;th&gt;NM_MUN&lt;/th&gt;
&lt;td&gt;São Pedro do Iguaçu&lt;/td&gt;
&lt;/tr&gt;&lt;tr bgcolor=""&gt;
&lt;th&gt;CD_RGINT&lt;/th&gt;
&lt;td&gt;4103&lt;/td&gt;
&lt;/tr&gt;&lt;tr bgcolor="#E3E3F3"&gt;
&lt;th&gt;NM_RGINT&lt;/th&gt;
&lt;td&gt;Cascavel&lt;/td&gt;
&lt;/tr&gt;&lt;tr bgcolor=""&gt;
&lt;th&gt;CD_RGI&lt;/th&gt;
&lt;td&gt;410008&lt;/td&gt;
&lt;/tr&gt;&lt;tr bgcolor="#E3E3F3"&gt;
&lt;th&gt;NM_RGI&lt;/th&gt;
&lt;td&gt;Toledo&lt;/td&gt;
&lt;/tr&gt;&lt;tr bgcolor=""&gt;
&lt;th&gt;CT_LOCALIDADE&lt;/th&gt;
&lt;td&gt;Cidade&lt;/td&gt;
&lt;/tr&gt;&lt;tr bgcolor="#E3E3F3"&gt;
&lt;th&gt;SCT_LOCALIDADE&lt;/th&gt;
&lt;td&gt;Sede Municipal&lt;/td&gt;
&lt;/tr&gt;&lt;tr bgcolor=""&gt;
&lt;th&gt;CD_LOCALIDADE&lt;/th&gt;
&lt;td&gt;4125753&lt;/td&gt;
&lt;/tr&gt;&lt;tr bgcolor="#E3E3F3"&gt;
&lt;th&gt;NM_LOCALIDADE&lt;/th&gt;
&lt;td&gt;São Pedro do Iguaçu&lt;/td&gt;
&lt;/tr&gt;&lt;tr bgcolor=""&gt;
&lt;th&gt;LAT_LOCALIDADE&lt;/th&gt;
&lt;td&gt;-24.932&lt;/td&gt;
&lt;/tr&gt;&lt;tr bgcolor="#E3E3F3"&gt;
&lt;th&gt;LONG_LOCALIDADE&lt;/th&gt;
&lt;td&gt;-53.8631&lt;/td&gt;
&lt;/tr&gt;&lt;/table&gt;&lt;/center&gt;</description>
<Style>
<IconStyle>
<color>ff00aaff</color>
<scale>1.0</scale>
<Icon>
<href>http://maps.google.com/mapfiles/kml/shapes/placemark_circle.png</href>
</Icon>
</IconStyle>
<LabelStyle>
<scale>1.0</scale>
</LabelStyle>
<LineStyle>
<color>ffffffff</color>
<width>3</width>
<gx:labelVisibility>1</gx:labelVisibility>
</LineStyle>
<PolyStyle>
<color>00ffffff</color>
</PolyStyle>
</Style>
<ExtendedData>
<SchemaData schemaUrl="#kml_schema_ft_01._Cidade">
<SimpleData name="CD_UF">41</SimpleData>
<SimpleData name="NM_UF">Paraná</SimpleData>
<SimpleData name="SIGLA_UF">PR</SimpleData>
<SimpleData name="CD_MUN">4125753</SimpleData>
<SimpleData name="NM_MUN">São Pedro do Iguaçu</SimpleData>
<SimpleData name="CD_RGINT">4103</SimpleData>
<SimpleData name="NM_RGINT">Cascavel</SimpleData>
<SimpleData name="CD_RGI">410008</SimpleData>
<SimpleData name="NM_RGI">Toledo</SimpleData>
<SimpleData name="CT_LOCALIDADE">Cidade</SimpleData>
<SimpleData name="SCT_LOCALIDADE">Sede Municipal</SimpleData>
<SimpleData name="CD_LOCALIDADE">4125753</SimpleData>
<SimpleData name="NM_LOCALIDADE">São Pedro do Iguaçu</SimpleData>
<SimpleData name="LAT_LOCALIDADE">-24.932</SimpleData>
<SimpleData name="LONG_LOCALIDADE">-53.8631</SimpleData>
</SchemaData>
</ExtendedData>
<Point>
<extrude>0</extrude>
<coordinates>-53.863069,-24.9320409992773,0.0</coordinates>
</Point>
</Placemark>
</Folder>
</Folder>
<Folder id="05. Núcleos Urbanos">
<name>05. Núcleos Urbanos</name>
<Placemark id="localidades">
<name>Luz Marina [4125753001]</name>
<visibility>1</visibility>
<snippet> </snippet>
<description>&lt;center&gt;&lt;table&gt;&lt;tr&gt;&lt;th colspan='2' align='center'&gt;&lt;em&gt;Attributes&lt;/em&gt;&lt;/th&gt;&lt;/tr&gt;&lt;tr bgcolor="#E3E3F3"&gt;
&lt;th&gt;CD_UF&lt;/th&gt;
&lt;td&gt;41&lt;/td&gt;
&lt;/tr&gt;&lt;tr bgcolor=""&gt;
&lt;th&gt;NM_UF&lt;/th&gt;
&lt;td&gt;Paraná&lt;/td&gt;
&lt;/tr&gt;&lt;tr bgcolor="#E3E3F3"&gt;
&lt;th&gt;SIGLA_UF&lt;/th&gt;
&lt;td&gt;PR&lt;/td&gt;
&lt;/tr&gt;&lt;tr bgcolor=""&gt;
&lt;th&gt;CD_MUN&lt;/th&gt;
&lt;td&gt;4125753&lt;/td&gt;
&lt;/tr&gt;&lt;tr bgcolor="#E3E3F3"&gt;
&lt;th&gt;NM_MUN&lt;/th&gt;
&lt;td&gt;São Pedro do Iguaçu&lt;/td&gt;
&lt;/tr&gt;&lt;tr bgcolor=""&gt;
&lt;th&gt;CD_RGINT&lt;/th&gt;
&lt;td&gt;4103&lt;/td&gt;
&lt;/tr&gt;&lt;tr bgcolor="#E3E3F3"&gt;
&lt;th&gt;NM_RGINT&lt;/th&gt;
&lt;td&gt;Cascavel&lt;/td&gt;
&lt;/tr&gt;&lt;tr bgcolor=""&gt;
&lt;th&gt;CD_RGI&lt;/th&gt;
&lt;td&gt;410008&lt;/td&gt;
&lt;/tr&gt;&lt;tr bgcolor="#E3E3F3"&gt;
&lt;th&gt;NM_RGI&lt;/th&gt;
&lt;td&gt;Toledo&lt;/td&gt;
&lt;/tr&gt;&lt;tr bgcolor=""&gt;
&lt;th&gt;CT_LOCALIDADE&lt;/th&gt;
&lt;td&gt;Núcleo Urbano&lt;/td&gt;
&lt;/tr&gt;&lt;tr bgcolor="#E3E3F3"&gt;
&lt;th&gt;CD_LOCALIDADE&lt;/th&gt;
&lt;td&gt;4125753001&lt;/td&gt;
&lt;/tr&gt;&lt;tr bgcolor=""&gt;
&lt;th&gt;NM_LOCALIDADE&lt;/th&gt;
&lt;td&gt;Luz Marina&lt;/td&gt;
&lt;/tr&gt;&lt;tr bgcolor="#E3E3F3"&gt;
&lt;th&gt;LAT_LOCALIDADE&lt;/th&gt;
&lt;td&gt;-24.8332&lt;/td&gt;
&lt;/tr&gt;&lt;tr bgcolor=""&gt;
&lt;th&gt;LONG_LOCALIDADE&lt;/th&gt;
&lt;td&gt;-54.0289&lt;/td&gt;
&lt;/tr&gt;&lt;/table&gt;&lt;/center&gt;</description>
<Style>
<IconStyle>
<color>ff0000ff</color>
<scale>0.9</scale>
<Icon>
<href>http://maps.google.com/mapfiles/kml/shapes/placemark_circle.png</href>
</Icon>
</IconStyle>
<LabelStyle>
<scale>0.9</scale>
</LabelStyle>
<LineStyle>
<color>72ffffff</color>
<width>1.0</width>
<gx:labelVisibility>1</gx:labelVisibility>
</LineStyle>
<PolyStyle>
<color>66ff54ff</color>
</PolyStyle>
</Style>
<ExtendedData>
<SchemaData schemaUrl="#kml_schema_ft_Núcleos_Urbanos">
<SimpleData name="CD_UF">41</SimpleData>
<SimpleData name="NM_UF">Paraná</SimpleData>
<SimpleData name="SIGLA_UF">PR</SimpleData>
<SimpleData name="CD_MUN">4125753</SimpleData>
<SimpleData name="NM_MUN">São Pedro do Iguaçu</SimpleData>
<SimpleData name="CD_RGINT">4103</SimpleData>
<SimpleData name="NM_RGINT">Cascavel</SimpleData>
<SimpleData name="CD_RGI">410008</SimpleData>
<SimpleData name="NM_RGI">Toledo</SimpleData>
<SimpleData name="CT_LOCALIDADE">Núcleo Urbano</SimpleData>
<SimpleData name="CD_LOCALIDADE">4125753001</SimpleData>
<SimpleData name="NM_LOCALIDADE">Luz Marina</SimpleData>
<SimpleData name="LAT_LOCALIDADE">-24.8332</SimpleData>
<SimpleData name="LONG_LOCALIDADE">-54.0289</SimpleData>
</SchemaData>
</ExtendedData>
<Point>
<extrude>0</extrude>
<coordinates>-54.0288904491362,-24.8331873217362,0.0</coordinates>
</Point>
</Placemark>
<Placemark id="localidades">
<name>São Judas Tadeu [4125753002]</name>
<visibility>1</visibility>
<snippet> </snippet>
<description>&lt;center&gt;&lt;table&gt;&lt;tr&gt;&lt;th colspan='2' align='center'&gt;&lt;em&gt;Attributes&lt;/em&gt;&lt;/th&gt;&lt;/tr&gt;&lt;tr bgcolor="#E3E3F3"&gt;
&lt;th&gt;CD_UF&lt;/th&gt;
&lt;td&gt;41&lt;/td&gt;
&lt;/tr&gt;&lt;tr bgcolor=""&gt;
&lt;th&gt;NM_UF&lt;/th&gt;
&lt;td&gt;Paraná&lt;/td&gt;
&lt;/tr&gt;&lt;tr bgcolor="#E3E3F3"&gt;
&lt;th&gt;SIGLA_UF&lt;/th&gt;
&lt;td&gt;PR&lt;/td&gt;
&lt;/tr&gt;&lt;tr bgcolor=""&gt;
&lt;th&gt;CD_MUN&lt;/th&gt;
&lt;td&gt;4125753&lt;/td&gt;
&lt;/tr&gt;&lt;tr bgcolor="#E3E3F3"&gt;
&lt;th&gt;NM_MUN&lt;/th&gt;
&lt;td&gt;São Pedro do Iguaçu&lt;/td&gt;
&lt;/tr&gt;&lt;tr bgcolor=""&gt;
&lt;th&gt;CD_RGINT&lt;/th&gt;
&lt;td&gt;4103&lt;/td&gt;
&lt;/tr&gt;&lt;tr bgcolor="#E3E3F3"&gt;
&lt;th&gt;NM_RGINT&lt;/th&gt;
&lt;td&gt;Cascavel&lt;/td&gt;
&lt;/tr&gt;&lt;tr bgcolor=""&gt;
&lt;th&gt;CD_RGI&lt;/th&gt;
&lt;td&gt;410008&lt;/td&gt;
&lt;/tr&gt;&lt;tr bgcolor="#E3E3F3"&gt;
&lt;th&gt;NM_RGI&lt;/th&gt;
&lt;td&gt;Toledo&lt;/td&gt;
&lt;/tr&gt;&lt;tr bgcolor=""&gt;
&lt;th&gt;CT_LOCALIDADE&lt;/th&gt;
&lt;td&gt;Núcleo Urbano&lt;/td&gt;
&lt;/tr&gt;&lt;tr bgcolor="#E3E3F3"&gt;
&lt;th&gt;CD_LOCALIDADE&lt;/th&gt;
&lt;td&gt;4125753002&lt;/td&gt;
&lt;/tr&gt;&lt;tr bgcolor=""&gt;
&lt;th&gt;NM_LOCALIDADE&lt;/th&gt;
&lt;td&gt;São Judas Tadeu&lt;/td&gt;
&lt;/tr&gt;&lt;tr bgcolor="#E3E3F3"&gt;
&lt;th&gt;LAT_LOCALIDADE&lt;/th&gt;
&lt;td&gt;-24.9506&lt;/td&gt;
&lt;/tr&gt;&lt;tr bgcolor=""&gt;
&lt;th&gt;LONG_LOCALIDADE&lt;/th&gt;
&lt;td&gt;-53.7824&lt;/td&gt;
&lt;/tr&gt;&lt;/table&gt;&lt;/center&gt;</description>
<Style>
<IconStyle>
<color>ff0000ff</color>
<scale>0.9</scale>
<Icon>
<href>http://maps.google.com/mapfiles/kml/shapes/placemark_circle.png</href>
</Icon>
</IconStyle>
<LabelStyle>
<scale>0.9</scale>
</LabelStyle>
<LineStyle>
<color>72ffffff</color>
<width>1.0</width>
<gx:labelVisibility>1</gx:labelVisibility>
</LineStyle>
<PolyStyle>
<color>66ff54ff</color>
</PolyStyle>
</Style>
<ExtendedData>
<SchemaData schemaUrl="#kml_schema_ft_Núcleos_Urbanos">
<SimpleData name="CD_UF">41</SimpleData>
<SimpleData name="NM_UF">Paraná</SimpleData>
<SimpleData name="SIGLA_UF">PR</SimpleData>
<SimpleData name="CD_MUN">4125753</SimpleData>
<SimpleData name="NM_MUN">São Pedro do Iguaçu</SimpleData>
<SimpleData name="CD_RGINT">4103</SimpleData>
<SimpleData name="NM_RGINT">Cascavel</SimpleData>
<SimpleData name="CD_RGI">410008</SimpleData>
<SimpleData name="NM_RGI">Toledo</SimpleData>
<SimpleData name="CT_LOCALIDADE">Núcleo Urbano</SimpleData>
<SimpleData name="CD_LOCALIDADE">4125753002</SimpleData>
<SimpleData name="NM_LOCALIDADE">São Judas Tadeu</SimpleData>
<SimpleData name="LAT_LOCALIDADE">-24.9506</SimpleData>
<SimpleData name="LONG_LOCALIDADE">-53.7824</SimpleData>
</SchemaData>
</ExtendedData>
<Point>
<extrude>0</extrude>
<coordinates>-53.782382637931,-24.9505518096217,0.0</coordinates>
</Point>
</Placemark>
<Placemark id="localidades">
<name>São Francisco [4125753003]</name>
<visibility>1</visibility>
<snippet> </snippet>
<description>&lt;center&gt;&lt;table&gt;&lt;tr&gt;&lt;th colspan='2' align='center'&gt;&lt;em&gt;Attributes&lt;/em&gt;&lt;/th&gt;&lt;/tr&gt;&lt;tr bgcolor="#E3E3F3"&gt;
&lt;th&gt;CD_UF&lt;/th&gt;
&lt;td&gt;41&lt;/td&gt;
&lt;/tr&gt;&lt;tr bgcolor=""&gt;
&lt;th&gt;NM_UF&lt;/th&gt;
&lt;td&gt;Paraná&lt;/td&gt;
&lt;/tr&gt;&lt;tr bgcolor="#E3E3F3"&gt;
&lt;th&gt;SIGLA_UF&lt;/th&gt;
&lt;td&gt;PR&lt;/td&gt;
&lt;/tr&gt;&lt;tr bgcolor=""&gt;
&lt;th&gt;CD_MUN&lt;/th&gt;
&lt;td&gt;4125753&lt;/td&gt;
&lt;/tr&gt;&lt;tr bgcolor="#E3E3F3"&gt;
&lt;th&gt;NM_MUN&lt;/th&gt;
&lt;td&gt;São Pedro do Iguaçu&lt;/td&gt;
&lt;/tr&gt;&lt;tr bgcolor=""&gt;
&lt;th&gt;CD_RGINT&lt;/th&gt;
&lt;td&gt;4103&lt;/td&gt;
&lt;/tr&gt;&lt;tr bgcolor="#E3E3F3"&gt;
&lt;th&gt;NM_RGINT&lt;/th&gt;
&lt;td&gt;Cascavel&lt;/td&gt;
&lt;/tr&gt;&lt;tr bgcolor=""&gt;
&lt;th&gt;CD_RGI&lt;/th&gt;
&lt;td&gt;410008&lt;/td&gt;
&lt;/tr&gt;&lt;tr bgcolor="#E3E3F3"&gt;
&lt;th&gt;NM_RGI&lt;/th&gt;
&lt;td&gt;Toledo&lt;/td&gt;
&lt;/tr&gt;&lt;tr bgcolor=""&gt;
&lt;th&gt;CT_LOCALIDADE&lt;/th&gt;
&lt;td&gt;Núcleo Urbano&lt;/td&gt;
&lt;/tr&gt;&lt;tr bgcolor="#E3E3F3"&gt;
&lt;th&gt;CD_LOCALIDADE&lt;/th&gt;
&lt;td&gt;4125753003&lt;/td&gt;
&lt;/tr&gt;&lt;tr bgcolor=""&gt;
&lt;th&gt;NM_LOCALIDADE&lt;/th&gt;
&lt;td&gt;São Francisco&lt;/td&gt;
&lt;/tr&gt;&lt;tr bgcolor="#E3E3F3"&gt;
&lt;th&gt;LAT_LOCALIDADE&lt;/th&gt;
&lt;td&gt;-24.9733&lt;/td&gt;
&lt;/tr&gt;&lt;tr bgcolor=""&gt;
&lt;th&gt;LONG_LOCALIDADE&lt;/th&gt;
&lt;td&gt;-53.7619&lt;/td&gt;
&lt;/tr&gt;&lt;/table&gt;&lt;/center&gt;</description>
<Style>
<IconStyle>
<color>ff0000ff</color>
<scale>0.9</scale>
<Icon>
<href>http://maps.google.com/mapfiles/kml/shapes/placemark_circle.png</href>
</Icon>
</IconStyle>
<LabelStyle>
<scale>0.9</scale>
</LabelStyle>
<LineStyle>
<color>72ffffff</color>
<width>1.0</width>
<gx:labelVisibility>1</gx:labelVisibility>
</LineStyle>
<PolyStyle>
<color>66ff54ff</color>
</PolyStyle>
</Style>
<ExtendedData>
<SchemaData schemaUrl="#kml_schema_ft_Núcleos_Urbanos">
<SimpleData name="CD_UF">41</SimpleData>
<SimpleData name="NM_UF">Paraná</SimpleData>
<SimpleData name="SIGLA_UF">PR</SimpleData>
<SimpleData name="CD_MUN">4125753</SimpleData>
<SimpleData name="NM_MUN">São Pedro do Iguaçu</SimpleData>
<SimpleData name="CD_RGINT">4103</SimpleData>
<SimpleData name="NM_RGINT">Cascavel</SimpleData>
<SimpleData name="CD_RGI">410008</SimpleData>
<SimpleData name="NM_RGI">Toledo</SimpleData>
<SimpleData name="CT_LOCALIDADE">Núcleo Urbano</SimpleData>
<SimpleData name="CD_LOCALIDADE">4125753003</SimpleData>
<SimpleData name="NM_LOCALIDADE">São Francisco</SimpleData>
<SimpleData name="LAT_LOCALIDADE">-24.9733</SimpleData>
<SimpleData name="LONG_LOCALIDADE">-53.7619</SimpleData>
</SchemaData>
</ExtendedData>
<Point>
<extrude>0</extrude>
<coordinates>-53.7618777580645,-24.9733243702441,0.0</coordinates>
</Point>
</Placemark>
</Folder>
<Folder id="06. Povoados">
<name>06. Povoados</name>
<Placemark id="06. Povoados">
<name>Agrovila do PA Nova União [412575300003]</name>
<visibility>1</visibility>
<snippet> </snippet>
<description>&lt;center&gt;&lt;table&gt;&lt;tr&gt;&lt;th colspan='2' align='center'&gt;&lt;em&gt;Atributos&lt;/em&gt;&lt;/th&gt;&lt;/tr&gt;&lt;tr bgcolor="#E3E3F3"&gt;
&lt;th&gt;CD_UF&lt;/th&gt;
&lt;td&gt;41&lt;/td&gt;
&lt;/tr&gt;&lt;tr bgcolor=""&gt;
&lt;th&gt;NM_UF&lt;/th&gt;
&lt;td&gt;Paraná&lt;/td&gt;
&lt;/tr&gt;&lt;tr bgcolor="#E3E3F3"&gt;
&lt;th&gt;SIGLA_UF&lt;/th&gt;
&lt;td&gt;PR&lt;/td&gt;
&lt;/tr&gt;&lt;tr bgcolor=""&gt;
&lt;th&gt;CD_MUN&lt;/th&gt;
&lt;td&gt;4125753&lt;/td&gt;
&lt;/tr&gt;&lt;tr bgcolor="#E3E3F3"&gt;
&lt;th&gt;NM_MUN&lt;/th&gt;
&lt;td&gt;São Pedro do Iguaçu&lt;/td&gt;
&lt;/tr&gt;&lt;tr bgcolor=""&gt;
&lt;th&gt;CD_RGINT&lt;/th&gt;
&lt;td&gt;4103&lt;/td&gt;
&lt;/tr&gt;&lt;tr bgcolor="#E3E3F3"&gt;
&lt;th&gt;NM_RGINT&lt;/th&gt;
&lt;td&gt;Cascavel&lt;/td&gt;
&lt;/tr&gt;&lt;tr bgcolor=""&gt;
&lt;th&gt;CD_RGI&lt;/th&gt;
&lt;td&gt;410008&lt;/td&gt;
&lt;/tr&gt;&lt;tr bgcolor="#E3E3F3"&gt;
&lt;th&gt;NM_RGI&lt;/th&gt;
&lt;td&gt;Toledo&lt;/td&gt;
&lt;/tr&gt;&lt;tr bgcolor=""&gt;
&lt;th&gt;CT_LOCALIDADE&lt;/th&gt;
&lt;td&gt;Povoado&lt;/td&gt;
&lt;/tr&gt;&lt;tr bgcolor="#E3E3F3"&gt;
&lt;th&gt;CD_LOCALIDADE&lt;/th&gt;
&lt;td&gt;412575300003&lt;/td&gt;
&lt;/tr&gt;&lt;tr bgcolor=""&gt;
&lt;th&gt;NM_LOCALIDADE&lt;/th&gt;
&lt;td&gt;Agrovila do PA Nova União&lt;/td&gt;
&lt;/tr&gt;&lt;tr bgcolor="#E3E3F3"&gt;
&lt;th&gt;LAT_LOCALIDADE&lt;/th&gt;
&lt;td&gt;-24.9456&lt;/td&gt;
&lt;/tr&gt;&lt;tr bgcolor=""&gt;
&lt;th&gt;LONG_LOCALIDADE&lt;/th&gt;
&lt;td&gt;-53.8381&lt;/td&gt;
&lt;/tr&gt;&lt;/table&gt;&lt;/center&gt;</description>
<Style>
<IconStyle>
<color>ff00ff54</color>
<scale>0.8</scale>
<Icon>
<href>http://maps.google.com/mapfiles/kml/shapes/placemark_circle.png</href>
</Icon>
</IconStyle>
<LabelStyle>
<scale>0.8</scale>
</LabelStyle>
<LineStyle>
<color>72ff54ff</color>
<width>1.0</width>
<gx:labelVisibility>1</gx:labelVisibility>
</LineStyle>
<PolyStyle>
<color>66ff54ff</color>
</PolyStyle>
</Style>
<ExtendedData>
<SchemaData schemaUrl="#kml_schema_ft_Povoados">
<SimpleData name="CD_UF">41</SimpleData>
<SimpleData name="NM_UF">Paraná</SimpleData>
<SimpleData name="SIGLA_UF">PR</SimpleData>
<SimpleData name="CD_MUN">4125753</SimpleData>
<SimpleData name="NM_MUN">São Pedro do Iguaçu</SimpleData>
<SimpleData name="CD_RGINT">4103</SimpleData>
<SimpleData name="NM_RGINT">Cascavel</SimpleData>
<SimpleData name="CD_RGI">410008</SimpleData>
<SimpleData name="NM_RGI">Toledo</SimpleData>
<SimpleData name="CT_LOCALIDADE">Povoado</SimpleData>
<SimpleData name="CD_LOCALIDADE">412575300003</SimpleData>
<SimpleData name="NM_LOCALIDADE">Agrovila do PA Nova União</SimpleData>
<SimpleData name="LAT_LOCALIDADE">-24.9456</SimpleData>
<SimpleData name="LONG_LOCALIDADE">-53.8381</SimpleData>
</SchemaData>
</ExtendedData>
<Point>
<extrude>0</extrude>
<coordinates>-53.8381023880597,-24.9455601634561,0.0</coordinates>
</Point>
</Placemark>
</Folder>
<Folder id="11. Agrovilas do PA">
<name>11. Agrovilas do PA</name>
<Placemark id="localidades">
<name>Agrovila do PA Nova União [412575300003]</name>
<visibility>1</visibility>
<snippet> </snippet>
<description>&lt;center&gt;&lt;table&gt;&lt;tr&gt;&lt;th colspan='2' align='center'&gt;&lt;em&gt;Attributes&lt;/em&gt;&lt;/th&gt;&lt;/tr&gt;&lt;tr bgcolor="#E3E3F3"&gt;
&lt;th&gt;CD_UF&lt;/th&gt;
&lt;td&gt;41&lt;/td&gt;
&lt;/tr&gt;&lt;tr bgcolor=""&gt;
&lt;th&gt;NM_UF&lt;/th&gt;
&lt;td&gt;Paraná&lt;/td&gt;
&lt;/tr&gt;&lt;tr bgcolor="#E3E3F3"&gt;
&lt;th&gt;SIGLA_UF&lt;/th&gt;
&lt;td&gt;PR&lt;/td&gt;
&lt;/tr&gt;&lt;tr bgcolor=""&gt;
&lt;th&gt;CD_MUN&lt;/th&gt;
&lt;td&gt;4125753&lt;/td&gt;
&lt;/tr&gt;&lt;tr bgcolor="#E3E3F3"&gt;
&lt;th&gt;NM_MUN&lt;/th&gt;
&lt;td&gt;São Pedro do Iguaçu&lt;/td&gt;
&lt;/tr&gt;&lt;tr bgcolor=""&gt;
&lt;th&gt;CD_RGINT&lt;/th&gt;
&lt;td&gt;4103&lt;/td&gt;
&lt;/tr&gt;&lt;tr bgcolor="#E3E3F3"&gt;
&lt;th&gt;NM_RGINT&lt;/th&gt;
&lt;td&gt;Cascavel&lt;/td&gt;
&lt;/tr&gt;&lt;tr bgcolor=""&gt;
&lt;th&gt;CD_RGI&lt;/th&gt;
&lt;td&gt;410008&lt;/td&gt;
&lt;/tr&gt;&lt;tr bgcolor="#E3E3F3"&gt;
&lt;th&gt;NM_RGI&lt;/th&gt;
&lt;td&gt;Toledo&lt;/td&gt;
&lt;/tr&gt;&lt;tr bgcolor=""&gt;
&lt;th&gt;CT_LOCALIDADE&lt;/th&gt;
&lt;td&gt;Agrovila do PA&lt;/td&gt;
&lt;/tr&gt;&lt;tr bgcolor="#E3E3F3"&gt;
&lt;th&gt;CD_LOCALIDADE&lt;/th&gt;
&lt;td&gt;412575300003&lt;/td&gt;
&lt;/tr&gt;&lt;tr bgcolor=""&gt;
&lt;th&gt;NM_LOCALIDADE&lt;/th&gt;
&lt;td&gt;Agrovila do PA Nova União&lt;/td&gt;
&lt;/tr&gt;&lt;tr bgcolor="#E3E3F3"&gt;
&lt;th&gt;LAT_LOCALIDADE&lt;/th&gt;
&lt;td&gt;-24.9456&lt;/td&gt;
&lt;/tr&gt;&lt;tr bgcolor=""&gt;
&lt;th&gt;LONG_LOCALIDADE&lt;/th&gt;
&lt;td&gt;-53.8381&lt;/td&gt;
&lt;/tr&gt;&lt;/table&gt;&lt;/center&gt;</description>
<Style>
<IconStyle>
<color>ff00aaff</color>
<scale>0.8</scale>
<Icon>
<href>http://maps.google.com/mapfiles/kml/shapes/placemark_circle.png</href>
</Icon>
</IconStyle>
<LabelStyle>
<scale>0.8</scale>
</LabelStyle>
<LineStyle>
<color>7200ffff</color>
<width>1.0</width>
<gx:labelVisibility>1</gx:labelVisibility>
</LineStyle>
<PolyStyle>
<color>6600ffff</color>
</PolyStyle>
</Style>
<ExtendedData>
<SchemaData schemaUrl="#kml_schema_ft_Agrovilas_do_PA">
<SimpleData name="CD_UF">41</SimpleData>
<SimpleData name="NM_UF">Paraná</SimpleData>
<SimpleData name="SIGLA_UF">PR</SimpleData>
<SimpleData name="CD_MUN">4125753</SimpleData>
<SimpleData name="NM_MUN">São Pedro do Iguaçu</SimpleData>
<SimpleData name="CD_RGINT">4103</SimpleData>
<SimpleData name="NM_RGINT">Cascavel</SimpleData>
<SimpleData name="CD_RGI">410008</SimpleData>
<SimpleData name="NM_RGI">Toledo</SimpleData>
<SimpleData name="CT_LOCALIDADE">Agrovila do PA</SimpleData>
<SimpleData name="CD_LOCALIDADE">412575300003</SimpleData>
<SimpleData name="NM_LOCALIDADE">Agrovila do PA Nova União</SimpleData>
<SimpleData name="LAT_LOCALIDADE">-24.9456</SimpleData>
<SimpleData name="LONG_LOCALIDADE">-53.8381</SimpleData>
</SchemaData>
</ExtendedData>
<Point>
<extrude>0</extrude>
<coordinates>-53.8381023880597,-24.9455601634561,0.0</coordinates>
</Point>
</Placemark>
</Folder>
<Folder id="13. Referência">
<name>13. Referência</name>
<Placemark id="13. Referência">
<name>São Pedro do Iguaçu [4125753]</name>
<visibility>1</visibility>
<snippet> </snippet>
<description>&lt;center&gt;&lt;table&gt;&lt;tr&gt;&lt;th colspan='2' align='center'&gt;&lt;em&gt;Attributes&lt;/em&gt;&lt;/th&gt;&lt;/tr&gt;&lt;tr bgcolor="#E3E3F3"&gt;
&lt;th&gt;CD_UF&lt;/th&gt;
&lt;td&gt;41&lt;/td&gt;
&lt;/tr&gt;&lt;tr bgcolor=""&gt;
&lt;th&gt;NM_UF&lt;/th&gt;
&lt;td&gt;Paraná&lt;/td&gt;
&lt;/tr&gt;&lt;tr bgcolor="#E3E3F3"&gt;
&lt;th&gt;CD_MUN&lt;/th&gt;
&lt;td&gt;4125753&lt;/td&gt;
&lt;/tr&gt;&lt;tr bgcolor=""&gt;
&lt;th&gt;NM_MUN&lt;/th&gt;
&lt;td&gt;São Pedro do Iguaçu&lt;/td&gt;
&lt;/tr&gt;&lt;tr bgcolor="#E3E3F3"&gt;
&lt;th&gt;CD_RGINT&lt;/th&gt;
&lt;td&gt;4103&lt;/td&gt;
&lt;/tr&gt;&lt;tr bgcolor=""&gt;
&lt;th&gt;NM_RGINT&lt;/th&gt;
&lt;td&gt;Cascavel&lt;/td&gt;
&lt;/tr&gt;&lt;tr bgcolor="#E3E3F3"&gt;
&lt;th&gt;CD_RGI&lt;/th&gt;
&lt;td&gt;410008&lt;/td&gt;
&lt;/tr&gt;&lt;tr bgcolor=""&gt;
&lt;th&gt;NM_RGI&lt;/th&gt;
&lt;td&gt;Toledo&lt;/td&gt;
&lt;/tr&gt;&lt;/table&gt;&lt;/center&gt;</description>
<Style>
<IconStyle>
<scale>0.7</scale>
</IconStyle>
<LabelStyle>
<scale>0.7</scale>
</LabelStyle>
<LineStyle>
<color>ffffffff</color>
<width>3</width>
<gx:labelVisibility>1</gx:labelVisibility>
</LineStyle>
<PolyStyle>
<color>00ffffff</color>
</PolyStyle>
</Style>
<ExtendedData>
<SchemaData schemaUrl="#kml_schema_ft_Município">
<SimpleData name="CD_UF">41</SimpleData>
<SimpleData name="NM_UF">Paraná</SimpleData>
<SimpleData name="CD_MUN">4125753</SimpleData>
<SimpleData name="NM_MUN">São Pedro do Iguaçu</SimpleData>
<SimpleData name="CD_RGINT">4103</SimpleData>
<SimpleData name="NM_RGINT">Cascavel</SimpleData>
<SimpleData name="CD_RGI">410008</SimpleData>
<SimpleData name="NM_RGI">Toledo</SimpleData>
</SchemaData>
</ExtendedData>
<MultiGeometry>
<Polygon>
<extrude>0</extrude>
<tessellate>1</tessellate>
<outerBoundaryIs>
<LinearRing>
<coordinates>-53.7861558,-24.9724263992764,0.0 -53.7869673,-24.9716348992765,0.0 -53.787517,-24.9716040992765,0.0 -53.7895436,-24.9754995992764,0.0 -53.7893987,-24.9762631992764,0.0 -53.7896372,-24.9769423992764,0.0 -53.7902454,-24.9769124992764,0.0 -53.7915759,-24.9755322992764,0.0 -53.7926782,-24.9755283992764,0.0 -53.7929136,-24.9756637992764,0.0 -53.7930779,-24.9757582992764,0.0 -53.7941426,-24.9763681992764,0.0 -53.7964763,-24.9749278992764,0.0 -53.7981592,-24.9747848992764,0.0 -53.7987681,-24.9749011992764,0.0 -53.7988983,-24.9752335992764,0.0 -53.7981748,-24.9755422992764,0.0 -53.7979585,-24.9758217992764,0.0 -53.7980876,-24.9762110992764,0.0 -53.7994416,-24.9767427992764,0.0 -53.8003204,-24.9783598992763,0.0 -53.8010831,-24.9789603992763,0.0 -53.8014495,-24.9789545992763,0.0 -53.8016885,-24.9787625992763,0.0 -53.8013824,-24.9776012992763,0.0 -53.8016379,-24.9769687992764,0.0 -53.8019652,-24.9767073992764,0.0 -53.8026417,-24.9766595992764,0.0 -53.8030218,-24.9768116992763,0.0 -53.8034713,-24.9781456992763,0.0 -53.8036609,-24.9784753992763,0.0 -53.8039688,-24.9785443992763,0.0 -53.8045063,-24.9781262992763,0.0 -53.8052123,-24.9769463992764,0.0 -53.8049736,-24.9763402992764,0.0 -53.8053261,-24.9757413992764,0.0 -53.8056292,-24.9757543992764,0.0 -53.8064861,-24.9762763992764,0.0 -53.8065908,-24.9763400992764,0.0 -53.8072311,-24.9767296992764,0.0 -53.8089403,-24.9762560992764,0.0 -53.8099149,-24.9762004992764,0.0 -53.8102946,-24.9759517992764,0.0 -53.8102894,-24.9748233992764,0.0 -53.8104444,-24.9745229992764,0.0 -53.8112063,-24.9743604992764,0.0 -53.81128,-24.9766400992764,0.0 -53.8138528,-24.9755265992764,0.0 -53.8144625,-24.9718179992765,0.0 -53.8168796,-24.9713776992765,0.0 -53.8175459,-24.9701688992765,0.0 -53.8164281,-24.9680116992765,0.0 -53.8197455,-24.9688444992765,0.0 -53.820991,-24.9697495992765,0.0 -53.8210694,-24.9709774992765,0.0 -53.8198204,-24.9717974992765,0.0 -53.8189087,-24.9728525992764,0.0 -53.8222163,-24.9730370992764,0.0 -53.8276228,-24.9722589992765,0.0 -53.8295451,-24.9723044992765,0.0 -53.8308234,-24.9717651992765,0.0 -53.8311534,-24.9701406992765,0.0 -53.8321636,-24.9693365992765,0.0 -53.8331324,-24.9699632992765,0.0 -53.8335472,-24.9714784992765,0.0 -53.8360798,-24.9742996992764,0.0 -53.8374363,-24.9745638992764,0.0 -53.8388805,-24.9751522992764,0.0 -53.8401284,-24.9751887992764,0.0 -53.8407927,-24.9738254992764,0.0 -53.8417649,-24.9725102992764,0.0 -53.8441014,-24.9723330992765,0.0 -53.8449848,-24.9716081992765,0.0 -53.8467388,-24.9714836992765,0.0 -53.8475994,-24.9731843992764,0.0 -53.846903,-24.9749061992764,0.0 -53.8480692,-24.9752855992764,0.0 -53.8491522,-24.9740507992764,0.0 -53.8495705,-24.9721382992765,0.0 -53.850543,-24.9713520992765,0.0 -53.8520469,-24.9717164992765,0.0 -53.8521253,-24.9732602992764,0.0 -53.8513431,-24.9746930992764,0.0 -53.8514923,-24.9758378992764,0.0 -53.8524862,-24.9770422992764,0.0 -53.8526342,-24.9783242992763,0.0 -53.8516515,-24.9793361992763,0.0 -53.8507183,-24.9811407992763,0.0 -53.8519858,-24.9813577992763,0.0 -53.8555217,-24.9813793992763,0.0 -53.8561532,-24.9825968992762,0.0 -53.8553009,-24.9838435992762,0.0 -53.8551315,-24.9855947992762,0.0 -53.8572115,-24.9847301992762,0.0 -53.8589663,-24.9832422992762,0.0 -53.8596286,-24.9843713992762,0.0 -53.8597964,-24.9857879992762,0.0 -53.8611019,-24.9866295992761,0.0 -53.862021,-24.9857556992762,0.0 -53.8624418,-24.9868474992761,0.0 -53.8632995,-24.9877447992761,0.0 -53.8643304,-24.9870667992761,0.0 -53.8659346,-24.9874284992761,0.0 -53.8669375,-24.9869337992761,0.0 -53.8678575,-24.9860949992762,0.0 -53.8705417,-24.9870172992761,0.0 -53.871522,-24.9863952992762,0.0 -53.8726306,-24.9861515992762,0.0 -53.8730764,-24.9879411992761,0.0 -53.8742439,-24.9883122992761,0.0 -53.874409,-24.9895951992761,0.0 -53.8755197,-24.991859599276,0.0 -53.8756357,-24.992095999276,0.0 -53.8762687,-24.993035399276,0.0 -53.8766181,-24.993287499276,0.0 -53.8774069,-24.993858699276,0.0 -53.8774363,-24.995175899276,0.0 -53.8767111,-24.9963469992759,0.0 -53.878793,-24.9965581992759,0.0 -53.880545,-24.995882499276,0.0 -53.8815179,-24.994664599276,0.0 -53.8828262,-24.993826099276,0.0 -53.8841343,-24.992175099276,0.0 -53.8844633,-24.9910017992761,0.0 -53.8842157,-24.9898992992761,0.0 -53.8853563,-24.9882490992761,0.0 -53.8830182,-24.9877867992761,0.0 -53.8837612,-24.9865334992761,0.0 -53.8879921,-24.9870666992761,0.0 -53.8888556,-24.9861554992762,0.0 -53.8939343,-24.9878491992761,0.0 -53.8955485,-24.9881842992761,0.0 -53.8964599,-24.9868750992761,0.0 -53.8964316,-24.9852049992762,0.0 -53.8960977,-24.9841557992762,0.0 -53.894938,-24.9828107992762,0.0 -53.8938017,-24.9819712992762,0.0 -53.8923268,-24.9798487992763,0.0 -53.8907731,-24.9783652992763,0.0 -53.8894672,-24.9778497992763,0.0 -53.8893297,-24.9765153992764,0.0 -53.8927159,-24.9765178992764,0.0 -53.8938779,-24.9761936992764,0.0 -53.8985784,-24.9761599992764,0.0 -53.8992141,-24.9751511992764,0.0 -53.8987091,-24.9737415992764,0.0 -53.8977128,-24.9725095992764,0.0 -53.8995474,-24.9708163992765,0.0 -53.9012454,-24.9700763992765,0.0 -53.9056079,-24.9701260992765,0.0 -53.9074081,-24.9704151992765,0.0 -53.9081786,-24.9717607992765,0.0 -53.9096069,-24.9714736992765,0.0 -53.9114074,-24.9714828992765,0.0 -53.9122418,-24.9707972992765,0.0 -53.9123803,-24.9695515992765,0.0 -53.9117472,-24.9685310992765,0.0 -53.9116901,-24.9667436992766,0.0 -53.9103266,-24.9637284992766,0.0 -53.9098506,-24.9619127992767,0.0 -53.9112957,-24.9615344992767,0.0 -53.9152406,-24.9577434992768,0.0 -53.915519,-24.9561375992768,0.0 -53.9150247,-24.9549456992768,0.0 -53.9162725,-24.9547107992768,0.0 -53.9173026,-24.9543141992768,0.0 -53.9170163,-24.9529697992769,0.0 -53.9171858,-24.9513629992769,0.0 -53.9167401,-24.9499905992769,0.0 -53.9184952,-24.9492873992769,0.0 -53.9198806,-24.9490524992769,0.0 -53.9215761,-24.946914799277,0.0 -53.921488,-24.945442399277,0.0 -53.9206066,-24.944071499277,0.0 -53.9191324,-24.943896499277,0.0 -53.9181813,-24.9433289992771,0.0 -53.9179642,-24.9422184992771,0.0 -53.9184115,-24.9394572992771,0.0 -53.9171049,-24.9390755992772,0.0 -53.9132438,-24.9386391992772,0.0 -53.9119661,-24.9392007992771,0.0 -53.9087676,-24.9399652992771,0.0 -53.9071645,-24.9400717992771,0.0 -53.9062928,-24.9392776992771,0.0 -53.9059968,-24.9379756992772,0.0 -53.9059375,-24.9364870992772,0.0 -53.9064038,-24.9352144992772,0.0 -53.9076332,-24.9342375992773,0.0 -53.9082679,-24.9327510992773,0.0 -53.908457,-24.9314864992773,0.0 -53.9095776,-24.9303397992773,0.0 -53.9099338,-24.9292701992774,0.0 -53.9065184,-24.9289683992774,0.0 -53.9054625,-24.9284395992774,0.0 -53.9034583,-24.9289293992774,0.0 -53.9017162,-24.9297858992773,0.0 -53.899988,-24.9292087992774,0.0 -53.8984396,-24.9292519992774,0.0 -53.8980747,-24.9275093992774,0.0 -53.9000448,-24.9275296992774,0.0 -53.9013521,-24.9270051992774,0.0 -53.9023525,-24.9262646992774,0.0 -53.9046918,-24.9238602992775,0.0 -53.9066331,-24.9226012992775,0.0 -53.9068126,-24.9221292992775,0.0 -53.9071876,-24.9211418992775,0.0 -53.9039915,-24.9191880992776,0.0 -53.9027154,-24.9180226992776,0.0 -53.9017165,-24.9168836992776,0.0 -53.9010159,-24.9153042992777,0.0 -53.9024893,-24.9148177992777,0.0 -53.9082404,-24.9150561992777,0.0 -53.9088544,-24.9161217992776,0.0 -53.908517,-24.9171777992776,0.0 -53.9082183,-24.9195247992776,0.0 -53.9086155,-24.9206110992775,0.0 -53.9096029,-24.9213220992775,0.0 -53.9112159,-24.9208454992775,0.0 -53.9125257,-24.9194009992776,0.0 -53.9138517,-24.9186434992776,0.0 -53.9153773,-24.9170473992776,0.0 -53.9159918,-24.9160257992776,0.0 -53.9149919,-24.9132121992777,0.0 -53.9141355,-24.9120426992777,0.0 -53.9131043,-24.9116195992777,0.0 -53.91068,-24.9117264992777,0.0 -53.9095532,-24.9107959992777,0.0 -53.9097116,-24.9093967992778,0.0 -53.9104329,-24.9085305992778,0.0 -53.9119387,-24.9081251992778,0.0 -53.9159569,-24.9075948992778,0.0 -53.9169876,-24.9071440992778,0.0 -53.9214317,-24.9061606992778,0.0 -53.924521,-24.9061541992779,0.0 -53.925493,-24.9044655992779,0.0 -53.9257398,-24.9022909992779,0.0 -53.9250485,-24.9013787992779,0.0 -53.9241884,-24.899591799278,0.0 -53.924239,-24.897731299278,0.0 -53.9252192,-24.897235299278,0.0 -53.9267147,-24.897263999278,0.0 -53.9278024,-24.899125099278,0.0 -53.9324408,-24.9040265992779,0.0 -53.9353581,-24.9091933992778,0.0 -53.9339135,-24.9098878992778,0.0 -53.9324358,-24.9113496992777,0.0 -53.9313585,-24.9119549992777,0.0 -53.928744,-24.9140481992777,0.0 -53.9294065,-24.9154197992777,0.0 -53.9322939,-24.9174883992776,0.0 -53.9342943,-24.9179316992776,0.0 -53.9356807,-24.9171016992776,0.0 -53.9364929,-24.9160629992776,0.0 -53.9377109,-24.9153412992777,0.0 -53.9394133,-24.9158673992776,0.0 -53.940461,-24.9170684992776,0.0 -53.9418481,-24.9165986992776,0.0 -53.943017,-24.9170143992776,0.0 -53.9431044,-24.9185220992776,0.0 -53.9436296,-24.9197120992776,0.0 -53.944795,-24.9191455992776,0.0 -53.9458272,-24.9174848992776,0.0 -53.946463,-24.9124116992777,0.0 -53.9486311,-24.9117623992777,0.0 -53.9525497,-24.9127196992777,0.0 -53.9534899,-24.9132264992777,0.0 -53.9552121,-24.9137957992777,0.0 -53.9562125,-24.9147800992777,0.0 -53.957608,-24.9156109992776,0.0 -53.9592713,-24.9149072992777,0.0 -53.958856,-24.9134627992777,0.0 -53.9582724,-24.9123079992777,0.0 -53.9575807,-24.9087761992778,0.0 -53.953217,-24.9071128992778,0.0 -53.9520781,-24.9059037992779,0.0 -53.9522471,-24.9042147992779,0.0 -53.9542466,-24.9038993992779,0.0 -53.9560782,-24.9028617992779,0.0 -53.9573539,-24.9032412992779,0.0 -53.9609366,-24.9046785992779,0.0 -53.9611055,-24.9057619992779,0.0 -53.9605805,-24.9069452992778,0.0 -53.9618264,-24.9080731992778,0.0 -53.9632429,-24.9080563992778,0.0 -53.9651838,-24.9050948992779,0.0 -53.9657198,-24.9031892992779,0.0 -53.9651037,-24.901179599278,0.0 -53.965216,-24.899741599278,0.0 -53.9649878,-24.898097599278,0.0 -53.9651249,-24.8961593992781,0.0 -53.967581,-24.898054799278,0.0 -53.9698282,-24.900563199278,0.0 -53.9715494,-24.900862299278,0.0 -53.9727657,-24.901503499278,0.0 -53.9732713,-24.9025679992779,0.0 -53.9726084,-24.9054403992779,0.0 -53.9745167,-24.9061719992778,0.0 -53.9758916,-24.9061080992779,0.0 -53.9784373,-24.9070563992778,0.0 -53.9802981,-24.9074989992778,0.0 -53.9815751,-24.9072481992778,0.0 -53.9846634,-24.9070571992778,0.0 -53.9859106,-24.9073551992778,0.0 -53.9871875,-24.9072830992778,0.0 -53.9890187,-24.9069681992778,0.0 -53.9896622,-24.9059119992779,0.0 -53.9906306,-24.9015742992779,0.0 -53.9919678,-24.9021548992779,0.0 -53.9941561,-24.9055854992779,0.0 -53.9951855,-24.9064538992778,0.0 -53.9982124,-24.9081412992778,0.0 -53.9996586,-24.9084580992778,0.0 -54.0013809,-24.9076735992778,0.0 -54.0036891,-24.9037005992779,0.0 -54.0044077,-24.9028022992779,0.0 -54.0062962,-24.9015437992779,0.0 -54.0094367,-24.899451899278,0.0 -54.011239,-24.898480399278,0.0 -54.0123773,-24.898987699278,0.0 -54.0137128,-24.901622699278,0.0 -54.0149135,-24.9021281992779,0.0 -54.0188015,-24.9024788992779,0.0 -54.0198211,-24.9029941992779,0.0 -54.0201865,-24.9043302992779,0.0 -54.0191374,-24.9050652992779,0.0 -54.017163,-24.9068601992778,0.0 -54.0169919,-24.9079425992778,0.0 -54.0170999,-24.9092786992778,0.0 -54.0174664,-24.9104070992778,0.0 -54.0187424,-24.9113908992777,0.0 -54.0202994,-24.9108219992777,0.0 -54.0207721,-24.9081677992778,0.0 -54.022128,-24.9068856992778,0.0 -54.0231375,-24.9062716992778,0.0 -54.0236036,-24.9052794992779,0.0 -54.0244334,-24.9021999992779,0.0 -54.02494,-24.901187899278,0.0 -54.0257396,-24.900395199278,0.0 -54.0258779,-24.899147599278,0.0 -54.0255499,-24.897451299278,0.0 -54.0256299,-24.8963580992781,0.0 -54.026274,-24.8955002992781,0.0 -54.0289947,-24.8948127992781,0.0 -54.0297952,-24.8940190992781,0.0 -54.0300443,-24.8927100992781,0.0 -54.029766,-24.8916619992782,0.0 -54.0301319,-24.8904251992782,0.0 -54.032052,-24.8907244992782,0.0 -54.0344077,-24.8915174992782,0.0 -54.0357735,-24.8914268992782,0.0 -54.0394063,-24.8898831992782,0.0 -54.0417716,-24.8897010992782,0.0 -54.0446016,-24.8906851992782,0.0 -54.0457395,-24.8899806992782,0.0 -54.0458766,-24.8887049992782,0.0 -54.0453535,-24.8872968992783,0.0 -54.0460152,-24.8862485992783,0.0 -54.0499632,-24.8843180992783,0.0 -54.0512395,-24.8833949992783,0.0 -54.0523517,-24.8828728992783,0.0 -54.0535581,-24.8829807992783,0.0 -54.0544353,-24.8836719992783,0.0 -54.0554657,-24.8841716992783,0.0 -54.0566035,-24.8835645992783,0.0 -54.0578207,-24.8832941992783,0.0 -54.0590789,-24.8840068992783,0.0 -54.0592972,-24.8851894992783,0.0 -54.0592473,-24.8865146992783,0.0 -54.0588309,-24.8889622992782,0.0 -54.0592684,-24.8911828992782,0.0 -54.0605749,-24.8914188992782,0.0 -54.0634349,-24.8888438992782,0.0 -54.0638387,-24.8880451992782,0.0 -54.0641566,-24.8874163992783,0.0 -54.0642154,-24.8862074992783,0.0 -54.0640156,-24.8845004992783,0.0 -54.0630742,-24.8801513992784,0.0 -54.0629405,-24.8760077992785,0.0 -54.0629791,-24.8757463992785,0.0 -54.0632975,-24.8735953992785,0.0 -54.0645241,-24.8727652992786,0.0 -54.0655097,-24.8726736992786,0.0 -54.0653946,-24.8720688992786,0.0 -54.0645678,-24.8711176992786,0.0 -54.0636622,-24.8689270992786,0.0 -54.0629393,-24.8677907992787,0.0 -54.0621077,-24.8670589992787,0.0 -54.0614351,-24.8656518992787,0.0 -54.0611063,-24.8629897992788,0.0 -54.0616085,-24.8581155992789,0.0 -54.0612065,-24.8575568992789,0.0 -54.0601397,-24.8572702992789,0.0 -54.0595281,-24.8569201992789,0.0 -54.0577918,-24.8551893992789,0.0 -54.0573009,-24.8549900992789,0.0 -54.0562255,-24.8550816992789,0.0 -54.0553684,-24.8546305992789,0.0 -54.054326,-24.853330099279,0.0 -54.0535619,-24.850520099279,0.0 -54.0524732,-24.8496149992791,0.0 -54.0521333,-24.8481751992791,0.0 -54.0524001,-24.8473896992791,0.0 -54.0523442,-24.8462576992791,0.0 -54.0528382,-24.8446441992791,0.0 -54.052992,-24.8434217992792,0.0 -54.0532896,-24.8429748992792,0.0 -54.0421957,-24.8356722992793,0.0 -54.0417277,-24.8353645992794,0.0 -54.0334252,-24.8298985992795,0.0 -54.0324243,-24.8268049992795,0.0 -54.0324111,-24.8256738992796,0.0 -54.0335509,-24.8228858992796,0.0 -54.0337078,-24.8214567992796,0.0 -54.0348612,-24.8181983992797,0.0 -54.0351569,-24.8144138992798,0.0 -54.0360121,-24.8131118992798,0.0 -54.0369709,-24.8110921992799,0.0 -54.0376947,-24.8101458992799,0.0 -54.0384096,-24.8095561992799,0.0 -54.0394377,-24.8080302992799,0.0 -54.0394005,-24.80614259928,0.0 -54.0396751,-24.80499959928,0.0 -54.0388668,-24.8007585992801,0.0 -54.0390392,-24.7987633992801,0.0 -54.0388026,-24.7947424992802,0.0 -54.0385412,-24.7936438992802,0.0 -54.0375942,-24.7918150992803,0.0 -54.0356987,-24.7892697992803,0.0 -54.0349631,-24.7897691992803,0.0 -54.0330445,-24.7895357992803,0.0 -54.0315189,-24.7829449992805,0.0 -54.0310151,-24.7768946992806,0.0 -54.0301041,-24.7755424992806,0.0 -54.0275301,-24.7749381992806,0.0 -54.0258818,-24.7748652992806,0.0 -54.0234904,-24.7831540992805,0.0 -54.0232139,-24.7848061992804,0.0 -54.0221552,-24.7871616992804,0.0 -54.0213543,-24.7880383992804,0.0 -54.0195746,-24.7895011992803,0.0 -54.0180725,-24.7901142992803,0.0 -54.0155231,-24.7905894992803,0.0 -54.0103786,-24.7890506992803,0.0 -54.0078757,-24.7880857992804,0.0 -54.0067987,-24.7873698992804,0.0 -54.0049899,-24.7848891992804,0.0 -54.0037924,-24.7835702992805,0.0 -54.002576,-24.7828399992805,0.0 -54.0013004,-24.7826313992805,0.0 -53.9943829,-24.7924110992803,0.0 -53.9934394,-24.7937452992802,0.0 -53.9919955,-24.7942245992802,0.0 -53.9901066,-24.7941080992802,0.0 -53.9879894,-24.7934280992802,0.0 -53.9873483,-24.7961471992802,0.0 -53.986636,-24.7977269992802,0.0 -53.9892843,-24.8004869992801,0.0 -53.9910159,-24.8014096992801,0.0 -53.9974049,-24.8021429992801,0.0 -53.9982446,-24.80336089928,0.0 -53.9983236,-24.80511409928,0.0 -53.9969093,-24.80587959928,0.0 -53.9958807,-24.8073230992799,0.0 -53.9941014,-24.80678319928,0.0 -53.9924705,-24.80601579928,0.0 -53.9911837,-24.80642189928,0.0 -53.9892846,-24.8077082992799,0.0 -53.9884943,-24.8083698992799,0.0 -53.9836566,-24.8103672992799,0.0 -53.9807388,-24.8106007992799,0.0 -53.9793252,-24.8114672992799,0.0 -53.9791865,-24.8128935992798,0.0 -53.980323,-24.8130092992798,0.0 -53.982489,-24.8138337992798,0.0 -53.9835957,-24.8146906992798,0.0 -53.9839931,-24.8160999992798,0.0 -53.9849911,-24.8167491992798,0.0 -53.9859899,-24.8181042992797,0.0 -53.9859898,-24.8192679992797,0.0 -53.9851587,-24.8208016992797,0.0 -53.9849618,-24.8218669992796,0.0 -53.9871269,-24.8231950992796,0.0 -53.9872945,-24.8242256992796,0.0 -53.9873038,-24.8242832992796,0.0 -53.987462,-24.8252561992796,0.0 -53.9879981,-24.8264369992795,0.0 -53.9874618,-24.8279987992795,0.0 -53.9858196,-24.8280608992795,0.0 -53.9845447,-24.8270686992795,0.0 -53.980103,-24.8281432992795,0.0 -53.978797,-24.8293871992795,0.0 -53.9782141,-24.8304261992795,0.0 -53.976739,-24.8314830992794,0.0 -53.9757985,-24.8302623992795,0.0 -53.9742663,-24.8294496992795,0.0 -53.9718526,-24.8293607992795,0.0 -53.9699938,-24.8295210992795,0.0 -53.9688274,-24.8299550992795,0.0 -53.968104,-24.8310291992794,0.0 -53.9677474,-24.8327443992794,0.0 -53.9681013,-24.8339279992794,0.0 -53.969022,-24.8352353992794,0.0 -53.9717717,-24.8373041992793,0.0 -53.9716526,-24.8388659992793,0.0 -53.9705247,-24.8391545992793,0.0 -53.9689916,-24.8379788992793,0.0 -53.96721,-24.8376552992793,0.0 -53.9658259,-24.8376287992793,0.0 -53.9634119,-24.8382673992793,0.0 -53.9654105,-24.8409409992792,0.0 -53.9659138,-24.8419530992792,0.0 -53.96638,-24.8448600992791,0.0 -53.9663773,-24.8473779992791,0.0 -53.9659615,-24.8484710992791,0.0 -53.9645173,-24.8475146992791,0.0 -53.9635976,-24.8460149992791,0.0 -53.9627668,-24.8451923992791,0.0 -53.9619398,-24.8447001992792,0.0 -53.9617667,-24.8445962992792,0.0 -53.9580775,-24.8445239992792,0.0 -53.9554357,-24.8423303992792,0.0 -53.9537937,-24.8416609992792,0.0 -53.9528545,-24.8424189992792,0.0 -53.9526849,-24.8436547992792,0.0 -53.9520512,-24.8449193992792,0.0 -53.950598,-24.8446300992792,0.0 -53.9490441,-24.8435552992792,0.0 -53.9479966,-24.8430853992792,0.0 -53.946217,-24.8426333992792,0.0 -53.9446825,-24.8427953992792,0.0 -53.9446333,-24.8444293992792,0.0 -53.9452945,-24.8458387992791,0.0 -53.9452929,-24.8472281992791,0.0 -53.9446615,-24.849882099279,0.0 -53.9451618,-24.852824399279,0.0 -53.944183,-24.853438799279,0.0 -53.940679,-24.8544223992789,0.0 -53.9391268,-24.854158999279,0.0 -53.9401284,-24.851307599279,0.0 -53.9397425,-24.8494197992791,0.0 -53.9335495,-24.8484412992791,0.0 -53.9332996,-24.853190599279,0.0 -53.9334356,-24.8559810992789,0.0 -53.932852,-24.8574143992789,0.0 -53.9295192,-24.8563403992789,0.0 -53.9290735,-24.8553543992789,0.0 -53.928738,-24.853864699279,0.0 -53.9271051,-24.8544316992789,0.0 -53.9255424,-24.853466799279,0.0 -53.9241564,-24.853096899279,0.0 -53.9229616,-24.854126299279,0.0 -53.9212978,-24.8550353992789,0.0 -53.9202366,-24.8558472992789,0.0 -53.9204345,-24.8572999992789,0.0 -53.9223827,-24.8589828992788,0.0 -53.9222723,-24.8614635992788,0.0 -53.9246065,-24.8630734992788,0.0 -53.9240723,-24.8644986992787,0.0 -53.9228232,-24.8650026992787,0.0 -53.9217455,-24.8651646992787,0.0 -53.9207962,-24.8657418992787,0.0 -53.9200229,-24.8665088992787,0.0 -53.9194672,-24.8674392992787,0.0 -53.9176872,-24.8672487992787,0.0 -53.9167391,-24.8659473992787,0.0 -53.9157084,-24.8654240992787,0.0 -53.9140173,-24.8654059992787,0.0 -53.9126025,-24.8650611992787,0.0 -53.9108511,-24.8650420992787,0.0 -53.9093789,-24.8647883992787,0.0 -53.9088813,-24.8660158992787,0.0 -53.9100752,-24.8707118992786,0.0 -53.9109957,-24.8717126992786,0.0 -53.9124577,-24.8726442992786,0.0 -53.913991,-24.8748217992785,0.0 -53.9140494,-24.8762192992785,0.0 -53.9128821,-24.8755884992785,0.0 -53.9124842,-24.8770768992785,0.0 -53.912771,-24.8788473992784,0.0 -53.911514,-24.8790912992784,0.0 -53.9099388,-24.8800463992784,0.0 -53.9081892,-24.8799911992784,0.0 -53.9055005,-24.8784466992784,0.0 -53.9039642,-24.8776773992785,0.0 -53.9024098,-24.8774235992785,0.0 -53.9012727,-24.8774318992785,0.0 -53.9002626,-24.8782427992784,0.0 -53.9012713,-24.8792103992784,0.0 -53.9016859,-24.8804744992784,0.0 -53.9012394,-24.8819546992784,0.0 -53.8993475,-24.8841010992783,0.0 -53.8982188,-24.8846437992783,0.0 -53.8967455,-24.8843168992783,0.0 -53.8962704,-24.8831519992783,0.0 -53.8960444,-24.8811928992784,0.0 -53.8956616,-24.8798655992784,0.0 -53.8926808,-24.8798543992784,0.0 -53.8930987,-24.8784373992784,0.0 -53.891911,-24.8773784992785,0.0 -53.8895744,-24.8787146992784,0.0 -53.8883265,-24.8786667992784,0.0 -53.8872103,-24.8774571992785,0.0 -53.8855492,-24.8769593992785,0.0 -53.8837379,-24.8773641992785,0.0 -53.8818467,-24.8784107992784,0.0 -53.8810451,-24.8774261992785,0.0 -53.8780472,-24.8768098992785,0.0 -53.8764342,-24.8767453992785,0.0 -53.8738217,-24.8776910992785,0.0 -53.8693842,-24.8815429992784,0.0 -53.8675231,-24.8820378992784,0.0 -53.8667139,-24.8807994992784,0.0 -53.8669607,-24.8795628992784,0.0 -53.865963,-24.8787223992784,0.0 -53.8669346,-24.8780552992784,0.0 -53.8685161,-24.8779753992784,0.0 -53.869014,-24.8769195992785,0.0 -53.8685493,-24.8755018992785,0.0 -53.867741,-24.8744520992785,0.0 -53.8671565,-24.8731895992786,0.0 -53.8654346,-24.8732313992785,0.0 -53.8630412,-24.8728418992786,0.0 -53.8597633,-24.8741748992785,0.0 -53.8582072,-24.8745616992785,0.0 -53.857236,-24.8766379992785,0.0 -53.8557404,-24.8777821992785,0.0 -53.8546639,-24.8767158992785,0.0 -53.852824,-24.8761190992785,0.0 -53.8519929,-24.8751252992785,0.0 -53.8508757,-24.8750789992785,0.0 -53.8497964,-24.8764582992785,0.0 -53.8491157,-24.8763509992785,0.0 -53.8489478,-24.8768175992785,0.0 -53.8484097,-24.8783183992784,0.0 -53.8484378,-24.8787868992784,0.0 -53.8486372,-24.8791553992784,0.0 -53.8490184,-24.8798599992784,0.0 -53.8516097,-24.8794689992784,0.0 -53.8523952,-24.8796836992784,0.0 -53.853033,-24.8800887992784,0.0 -53.8534489,-24.8807508992784,0.0 -53.8531228,-24.8811224992784,0.0 -53.8525297,-24.8814089992784,0.0 -53.8517357,-24.8825212992784,0.0 -53.8505376,-24.8822429992784,0.0 -53.8496934,-24.8822574992784,0.0 -53.8433808,-24.8858854992783,0.0 -53.8427788,-24.8868697992783,0.0 -53.8436865,-24.8874935992782,0.0 -53.8440966,-24.8880049992782,0.0 -53.8443603,-24.8892772992782,0.0 -53.8446014,-24.8895763992782,0.0 -53.8474019,-24.8898626992782,0.0 -53.8478004,-24.8901339992782,0.0 -53.8479083,-24.8909636992782,0.0 -53.8473026,-24.8917231992782,0.0 -53.8466294,-24.8918506992781,0.0 -53.8441063,-24.8913406992782,0.0 -53.8439397,-24.8915851992782,0.0 -53.8437178,-24.8933534992781,0.0 -53.8433755,-24.8939777992781,0.0 -53.8396607,-24.8934836992781,0.0 -53.8374651,-24.8937087992781,0.0 -53.8346781,-24.8944315992781,0.0 -53.8332326,-24.8940308992781,0.0 -53.8312374,-24.8931954992781,0.0 -53.8308514,-24.8932319992781,0.0 -53.8301855,-24.8945393992781,0.0 -53.8299875,-24.8960105992781,0.0 -53.8300813,-24.896903599278,0.0 -53.8321812,-24.897142499278,0.0 -53.8349918,-24.898930399278,0.0 -53.8371285,-24.899808399278,0.0 -53.8375724,-24.900207899278,0.0 -53.8371865,-24.900929699278,0.0 -53.8359575,-24.901370699278,0.0 -53.8349865,-24.9021089992779,0.0 -53.8345195,-24.9027502992779,0.0 -53.8336889,-24.9028224992779,0.0 -53.8322683,-24.9023162992779,0.0 -53.8305393,-24.9021526992779,0.0 -53.8308172,-24.9030611992779,0.0 -53.8315504,-24.9039223992779,0.0 -53.8313471,-24.9064480992778,0.0 -53.8308813,-24.9075939992778,0.0 -53.8305452,-24.9079465992778,0.0 -53.8298814,-24.9077111992778,0.0 -53.8283175,-24.9076163992778,0.0 -53.8234883,-24.9060787992779,0.0 -53.8223014,-24.9061386992779,0.0 -53.8216272,-24.9068610992778,0.0 -53.8190211,-24.9087906992778,0.0 -53.8183271,-24.9102233992778,0.0 -53.8184048,-24.9105863992778,0.0 -53.8194653,-24.9109939992777,0.0 -53.8208806,-24.9111653992777,0.0 -53.8215116,-24.9115208992777,0.0 -53.821571,-24.9122151992777,0.0 -53.8213215,-24.9129163992777,0.0 -53.8192107,-24.9145676992777,0.0 -53.8175771,-24.9153699992776,0.0 -53.8162998,-24.9156022992777,0.0 -53.815458,-24.9151678992777,0.0 -53.8150233,-24.9146446992777,0.0 -53.8146589,-24.9133351992777,0.0 -53.8153753,-24.9109166992778,0.0 -53.8153293,-24.9098956992778,0.0 -53.8151596,-24.9095352992778,0.0 -53.8135957,-24.9088011992778,0.0 -53.8128556,-24.9079173992778,0.0 -53.8125795,-24.9078880992778,0.0 -53.8123445,-24.9081766992778,0.0 -53.8120211,-24.9092406992778,0.0 -53.8121582,-24.9102717992778,0.0 -53.8119081,-24.9113267992777,0.0 -53.8111271,-24.9125905992777,0.0 -53.8104635,-24.9128613992777,0.0 -53.8094043,-24.9122272992777,0.0 -53.8073535,-24.9133719992777,0.0 -53.8068485,-24.9134155992777,0.0 -53.8064342,-24.9131432992777,0.0 -53.8047938,-24.9106937992778,0.0 -53.804521,-24.9098096992778,0.0 -53.8044115,-24.9083109992778,0.0 -53.8037967,-24.9077883992778,0.0 -53.8033534,-24.9076505992778,0.0 -53.8014033,-24.9077111992778,0.0 -53.8007692,-24.9087312992778,0.0 -53.8002618,-24.9090926992778,0.0 -53.7999355,-24.9088836992778,0.0 -53.7996008,-24.9077005992778,0.0 -53.7985124,-24.9074553992778,0.0 -53.7948194,-24.9080010992778,0.0 -53.7929373,-24.9093976992778,0.0 -53.7926005,-24.9095317992778,0.0 -53.792185,-24.9093966992778,0.0 -53.7914364,-24.9078058992778,0.0 -53.7913482,-24.9066673992778,0.0 -53.7916092,-24.9056846992779,0.0 -53.792985,-24.9033520992779,0.0 -53.7930771,-24.9027165992779,0.0 -53.7928796,-24.9024283992779,0.0 -53.7920203,-24.9019297992779,0.0 -53.7910439,-24.9016114992779,0.0 -53.7890417,-24.900958699278,0.0 -53.78744,-24.901065699278,0.0 -53.7872121,-24.901235099278,0.0 -53.7870407,-24.9018685992779,0.0 -53.7874345,-24.9031239992779,0.0 -53.787404,-24.9035933992779,0.0 -53.7885715,-24.9038748992779,0.0 -53.7889856,-24.9042274992779,0.0 -53.7890157,-24.9045967992779,0.0 -53.788739,-24.9048942992779,0.0 -53.7880733,-24.9051984992779,0.0 -53.7837403,-24.9055118992779,0.0 -53.7835971,-24.9064577992778,0.0 -53.7827655,-24.9070802992778,0.0 -53.7811036,-24.9064901992778,0.0 -53.7802617,-24.9068139992778,0.0 -53.7790138,-24.9077708992778,0.0 -53.7784609,-24.9069403992778,0.0 -53.7778275,-24.9069285992778,0.0 -53.7772141,-24.9072671992778,0.0 -53.7778721,-24.9079948992778,0.0 -53.7776236,-24.9085433992778,0.0 -53.7760629,-24.9105694992778,0.0 -53.77471,-24.9115568992777,0.0 -53.7750452,-24.9123039992777,0.0 -53.7741032,-24.9131881992777,0.0 -53.7736893,-24.9132235992777,0.0 -53.7729134,-24.9125787992777,0.0 -53.7725206,-24.9119326992777,0.0 -53.7718551,-24.9115669992777,0.0 -53.7713256,-24.9115426992777,0.0 -53.7707086,-24.9122539992777,0.0 -53.7694609,-24.9129932992777,0.0 -53.7689856,-24.9130908992777,0.0 -53.7684571,-24.9140921992777,0.0 -53.7666281,-24.9138816992777,0.0 -53.7664883,-24.9150504992777,0.0 -53.7661002,-24.9156132992777,0.0 -53.7649906,-24.9161079992776,0.0 -53.7642656,-24.9168118992776,0.0 -53.7635147,-24.9171176992776,0.0 -53.7633754,-24.9174875992776,0.0 -53.7647081,-24.9183923992776,0.0 -53.764797,-24.9189991992776,0.0 -53.763291,-24.9197072992776,0.0 -53.7628246,-24.9202680992775,0.0 -53.7621022,-24.9201486992776,0.0 -53.761351,-24.9195326992776,0.0 -53.7610469,-24.9186032992776,0.0 -53.7613258,-24.9177009992776,0.0 -53.7611588,-24.9175643992776,0.0 -53.7607409,-24.9176277992776,0.0 -53.7596005,-24.9186451992776,0.0 -53.759244,-24.9192331992776,0.0 -53.759102,-24.9204688992776,0.0 -53.7585174,-24.9207395992775,0.0 -53.7584092,-24.9213975992775,0.0 -53.7580412,-24.9217562992775,0.0 -53.7575808,-24.9218258992775,0.0 -53.7568806,-24.9224783992775,0.0 -53.756209,-24.9221721992775,0.0 -53.7550404,-24.9223850992775,0.0 -53.7522961,-24.9238962992775,0.0 -53.7517116,-24.9236163992775,0.0 -53.7511568,-24.9228742992775,0.0 -53.7508787,-24.9227861992775,0.0 -53.7499845,-24.9234021992775,0.0 -53.7489171,-24.9235150992775,0.0 -53.7483962,-24.9241027992775,0.0 -53.7479297,-24.9242030992775,0.0 -53.7478706,-24.9230952992775,0.0 -53.7480709,-24.9219392992775,0.0 -53.7455771,-24.9215025992775,0.0 -53.7443506,-24.9210120992775,0.0 -53.7438444,-24.9211565992775,0.0 -53.7436868,-24.9217259992775,0.0 -53.7446039,-24.9224767992775,0.0 -53.7444944,-24.9227979992775,0.0 -53.7448024,-24.9231938992775,0.0 -53.7445714,-24.9233812992775,0.0 -53.7435011,-24.9234354992775,0.0 -53.7431576,-24.9239177992775,0.0 -53.7428789,-24.9250908992774,0.0 -53.7417831,-24.9264810992774,0.0 -53.7416375,-24.9274575992774,0.0 -53.741412,-24.9278290992774,0.0 -53.7404528,-24.9282715992774,0.0 -53.7406403,-24.9290338992774,0.0 -53.741663,-24.9294770992774,0.0 -53.7419246,-24.9298313992774,0.0 -53.7414477,-24.9301754992773,0.0 -53.7403175,-24.9304397992773,0.0 -53.7400674,-24.9312066992773,0.0 -53.7405398,-24.9330265992773,0.0 -53.7414646,-24.9339543992773,0.0 -53.7418118,-24.9345579992772,0.0 -53.7414693,-24.9349961992772,0.0 -53.7397641,-24.9356124992772,0.0 -53.7388795,-24.9363069992772,0.0 -53.737345,-24.9367104992772,0.0 -53.736771,-24.9370533992772,0.0 -53.7366429,-24.9381942992772,0.0 -53.7362729,-24.9389546992772,0.0 -53.73563,-24.9395682992771,0.0 -53.7353527,-24.9396390992771,0.0 -53.7339817,-24.9385533992772,0.0 -53.7325229,-24.9378420992772,0.0 -53.7314354,-24.9375205992772,0.0 -53.7309908,-24.9375558992772,0.0 -53.7305438,-24.9382230992772,0.0 -53.7298002,-24.9387272992772,0.0 -53.7295287,-24.9387845992772,0.0 -53.7279892,-24.9382834992772,0.0 -53.7265521,-24.9394299992771,0.0 -53.726252,-24.9394655992771,0.0 -53.7255942,-24.9391574992772,0.0 -53.7248711,-24.9393230992771,0.0 -53.724603,-24.9392359992772,0.0 -53.7245068,-24.9379448992772,0.0 -53.7242192,-24.9377501992772,0.0 -53.7238686,-24.9377567992772,0.0 -53.7233437,-24.9382992992772,0.0 -53.7236519,-24.9408211992771,0.0 -53.7231445,-24.9418954992771,0.0 -53.7221955,-24.9416815992771,0.0 -53.720946,-24.9421079992771,0.0 -53.7204865,-24.9412558992771,0.0 -53.7209752,-24.9405562992771,0.0 -53.7219624,-24.9396769992771,0.0 -53.7215762,-24.9392519992771,0.0 -53.7206941,-24.9392133992771,0.0 -53.7196319,-24.9395760992771,0.0 -53.719325,-24.9399879992771,0.0 -53.7189159,-24.9413693992771,0.0 -53.7184743,-24.9413775992771,0.0 -53.7181514,-24.9409806992771,0.0 -53.7189092,-24.9382385992772,0.0 -53.7182714,-24.9378492992772,0.0 -53.7174626,-24.9382674992772,0.0 -53.7162302,-24.9394377992771,0.0 -53.7149157,-24.9396907992771,0.0 -53.7145508,-24.9403860992771,0.0 -53.7136035,-24.9402596992771,0.0 -53.712893,-24.9366554992772,0.0 -53.7112833,-24.9349028992772,0.0 -53.710282,-24.9350660992772,0.0 -53.709671,-24.9359378992772,0.0 -53.7094605,-24.9378954992772,0.0 -53.7088353,-24.9380784992772,0.0 -53.7081959,-24.9375716992772,0.0 -53.7079318,-24.9370619992772,0.0 -53.7074262,-24.9368984992772,0.0 -53.7066091,-24.9374457992772,0.0 -53.7059304,-24.9376439992772,0.0 -53.7044749,-24.9372663992772,0.0 -53.7037828,-24.9372803992772,0.0 -53.703039,-24.9377871992772,0.0 -53.7017163,-24.9377772992772,0.0 -53.7002821,-24.9384063992772,0.0 -53.6990833,-24.9383136992772,0.0 -53.6985215,-24.9384966992772,0.0 -53.6985349,-24.9390699992771,0.0 -53.698987,-24.9396359992771,0.0 -53.6987031,-24.9399603992771,0.0 -53.6981068,-24.9396522992771,0.0 -53.6972245,-24.9396675992771,0.0 -53.696011,-24.9387434992772,0.0 -53.6955105,-24.9389229992771,0.0 -53.6954613,-24.9396134992771,0.0 -53.6941557,-24.9402688992771,0.0 -53.6929152,-24.9402383992771,0.0 -53.6926491,-24.9405257992771,0.0 -53.6938683,-24.9415944992771,0.0 -53.6936301,-24.9422023992771,0.0 -53.6930664,-24.9423267992771,0.0 -53.6924145,-24.9413061992771,0.0 -53.6919063,-24.9410270992771,0.0 -53.6909714,-24.9415026992771,0.0 -53.6902757,-24.9413441992771,0.0 -53.6899538,-24.9410049992771,0.0 -53.6897915,-24.9394004992772,0.0 -53.6862252,-24.9374249992772,0.0 -53.685723,-24.9374925992772,0.0 -53.6854249,-24.9383016992772,0.0 -53.6845046,-24.9392936992771,0.0 -53.684444,-24.9397710992771,0.0 -53.6847874,-24.9409905992771,0.0 -53.683586,-24.9434750992771,0.0 -53.6834798,-24.944336099277,0.0 -53.6827474,-24.945383499277,0.0 -53.6830059,-24.945754199277,0.0 -53.6835741,-24.945799599277,0.0 -53.6836561,-24.946660099277,0.0 -53.6831768,-24.947818199277,0.0 -53.6822009,-24.9492135992769,0.0 -53.6829784,-24.9502903992769,0.0 -53.6829276,-24.9508084992769,0.0 -53.6824377,-24.9514781992769,0.0 -53.6818801,-24.9518885992769,0.0 -53.6812441,-24.9516146992769,0.0 -53.6804907,-24.9515705992769,0.0 -53.6798651,-24.9518689992769,0.0 -53.6796235,-24.9522755992769,0.0 -53.6800299,-24.9536476992768,0.0 -53.67992,-24.9543949992768,0.0 -53.6788686,-24.9546977992768,0.0 -53.6777256,-24.9548081992768,0.0 -53.6767925,-24.9552836992768,0.0 -53.6759921,-24.9561594992768,0.0 -53.6760713,-24.9569043992768,0.0 -53.6756404,-24.9573719992768,0.0 -53.6743915,-24.9577953992768,0.0 -53.6932375,-24.9707686992765,0.0 -53.6938219,-24.9711709992765,0.0 -53.6969291,-24.9693627992765,0.0 -53.7002335,-24.9678664992765,0.0 -53.7023023,-24.9674562992765,0.0 -53.703042,-24.9674874992766,0.0 -53.7089009,-24.9784213992763,0.0 -53.7118476,-24.9778773992763,0.0 -53.7150255,-24.9763279992764,0.0 -53.7170773,-24.9751411992764,0.0 -53.7195564,-24.9733430992764,0.0 -53.7227052,-24.9705306992765,0.0 -53.7325389,-24.9995745992759,0.0 -53.7335215,-24.9991619992759,0.0 -53.7348216,-24.9980412992759,0.0 -53.7356294,-24.9963996992759,0.0 -53.7371056,-24.995851699276,0.0 -53.7387125,-24.993869399276,0.0 -53.7402696,-24.993408999276,0.0 -53.7417972,-24.992375299276,0.0 -53.7429886,-24.992455899276,0.0 -53.7431478,-24.992579899276,0.0 -53.7434232,-24.992555099276,0.0 -53.7456446,-24.991768999276,0.0 -53.7465225,-24.992100899276,0.0 -53.7468872,-24.992020299276,0.0 -53.7470977,-24.991805799276,0.0 -53.7469008,-24.9912194992761,0.0 -53.7472702,-24.9907597992761,0.0 -53.7488054,-24.9898234992761,0.0 -53.7512072,-24.9898997992761,0.0 -53.7512107,-24.9891396992761,0.0 -53.751661,-24.9888451992761,0.0 -53.7516031,-24.9881048992761,0.0 -53.752113,-24.9882067992761,0.0 -53.7527555,-24.9878792992761,0.0 -53.7532112,-24.9882970992761,0.0 -53.7534956,-24.9882533992761,0.0 -53.7537256,-24.9876398992761,0.0 -53.7546631,-24.9869182992761,0.0 -53.7548351,-24.9860916992762,0.0 -53.7556295,-24.9860767992762,0.0 -53.7559186,-24.9851356992762,0.0 -53.7579196,-24.9849790992762,0.0 -53.7589716,-24.9834316992762,0.0 -53.7591356,-24.9825824992762,0.0 -53.7600604,-24.9822264992762,0.0 -53.7612343,-24.9810936992763,0.0 -53.7621863,-24.9810193992763,0.0 -53.7621528,-24.9804090992763,0.0 -53.7618568,-24.9803002992763,0.0 -53.7620165,-24.9802029992763,0.0 -53.7611067,-24.9789764992763,0.0 -53.7611074,-24.9786045992763,0.0 -53.7615232,-24.9781529992763,0.0 -53.761674,-24.9780641992763,0.0 -53.7619311,-24.9781712992763,0.0 -53.7621223,-24.9781712992763,0.0 -53.7622738,-24.9781712992763,0.0 -53.7625523,-24.9780426992763,0.0 -53.7626594,-24.9778070992763,0.0 -53.7627665,-24.9774857992763,0.0 -53.7628736,-24.9771858992763,0.0 -53.7629807,-24.9770358992764,0.0 -53.7631735,-24.9767574992764,0.0 -53.7632146,-24.9767677992764,0.0 -53.7633449,-24.9768002992764,0.0 -53.763452,-24.9769073992764,0.0 -53.7635162,-24.9769930992764,0.0 -53.7635591,-24.9770358992764,0.0 -53.7636662,-24.9771001992764,0.0 -53.7636927,-24.9771354992763,0.0 -53.7638512,-24.9772454992763,0.0 -53.7639831,-24.9772003992763,0.0 -53.7640518,-24.9770787992763,0.0 -53.7641589,-24.9768859992764,0.0 -53.7641803,-24.9766503992764,0.0 -53.7641803,-24.9763290992764,0.0 -53.764266,-24.9759005992764,0.0 -53.7645873,-24.9755149992764,0.0 -53.76493,-24.9755578992764,0.0 -53.7650283,-24.9755616992764,0.0 -53.765452,-24.9755779992764,0.0 -53.7654828,-24.9755790992764,0.0 -53.765487,-24.9755792992764,0.0 -53.7660088,-24.9757232992764,0.0 -53.7660627,-24.9758153992764,0.0 -53.7661635,-24.9759877992764,0.0 -53.7661854,-24.9759997992764,0.0 -53.7664395,-24.9761385992764,0.0 -53.766706,-24.9760839992764,0.0 -53.7667952,-24.9755640992764,0.0 -53.7664286,-24.9750958992764,0.0 -53.7664921,-24.9745263992764,0.0 -53.7673642,-24.9742289992764,0.0 -53.7679624,-24.9736818992764,0.0 -53.767853,-24.9734063992764,0.0 -53.76716,-24.9732518992764,0.0 -53.766994,-24.9730340992764,0.0 -53.7671754,-24.9698015992765,0.0 -53.7673701,-24.9695165992765,0.0 -53.7679303,-24.9691482992765,0.0 -53.7684393,-24.9691481992765,0.0 -53.7688598,-24.9699260992765,0.0 -53.7693968,-24.9697878992765,0.0 -53.7699918,-24.9693671992765,0.0 -53.7702657,-24.9695653992765,0.0 -53.7708065,-24.9706377992765,0.0 -53.7712106,-24.9705922992765,0.0 -53.7713104,-24.9701690992765,0.0 -53.7711419,-24.9697318992765,0.0 -53.7713672,-24.9689332992765,0.0 -53.7717714,-24.9688337992765,0.0 -53.7720793,-24.9688829992765,0.0 -53.7735872,-24.9701698992765,0.0 -53.7742208,-24.9703441992765,0.0 -53.7756546,-24.9704365992765,0.0 -53.7770047,-24.9708367992765,0.0 -53.777737,-24.9700822992765,0.0 -53.7782174,-24.9700332992765,0.0 -53.7796369,-24.9703657992765,0.0 -53.781067,-24.9709465992765,0.0 -53.781485,-24.9720033992765,0.0 -53.7818571,-24.9721799992765,0.0 -53.7826465,-24.9721495992764,0.0 -53.7831074,-24.9718992992765,0.0 -53.7833438,-24.9715429992765,0.0 -53.7832577,-24.9703313992765,0.0 -53.7833683,-24.9699505992765,0.0 -53.783869,-24.9696443992765,0.0 -53.7840541,-24.9697159992765,0.0 -53.7847653,-24.9719052992765,0.0 -53.7854216,-24.9732341992764,0.0 -53.7859675,-24.9730967992764,0.0 -53.7861558,-24.9724263992764,0.0</coordinates>
</LinearRing>
</outerBoundaryIs>
</Polygon>
</MultiGeometry>
</Placemark>
</Folder>
</Document></kml>
