<?xml version='1.0' encoding='UTF-8'?>
<kml xmlns:xsd="http://www.w3.org/2001/XMLSchema" xmlns:gx="http://www.google.com/kml/ext/2.2" xmlns:atom="http://www.w3.org/2005/Atom" xmlns="http://www.opengis.net/kml/2.2">
<Document>
<name>eldorado_5003751_localidades_2022</name>
<visibility>1</visibility>
<Schema name="Vilas" id="kml_schema_ft_Vilas">
<SimpleField type="xsd:string" name="CD_UF">
<displayName>CD_UF</displayName>
</SimpleField>
<SimpleField type="xsd:string" name="NM_UF">
<displayName>NM_UF</displayName>
</SimpleField>
<SimpleField type="xsd:string" name="SIGLA_UF">
<displayName>SIGLA_UF</displayName>
</SimpleField>
<SimpleField type="xsd:string" name="CD_MUN">
<displayName>CD_MUN</displayName>
</SimpleField>
<SimpleField type="xsd:string" name="NM_MUN">
<displayName>NM_MUN</displayName>
</SimpleField>
<SimpleField type="xsd:string" name="CD_RGINT">
<displayName>CD_RGINT</displayName>
</SimpleField>
<SimpleField type="xsd:string" name="NM_RGINT">
<displayName>NM_RGINT</displayName>
</SimpleField>
<SimpleField type="xsd:string" name="CD_RGI">
<displayName>CD_RGI</displayName>
</SimpleField>
<SimpleField type="xsd:string" name="NM_RGI">
<displayName>NM_RGI</displayName>
</SimpleField>
<SimpleField type="xsd:string" name="CT_LOCALIDADE">
<displayName>CT_LOCALIDADE</displayName>
</SimpleField>
<SimpleField type="xsd:string" name="CD_LOCALIDADE">
<displayName>CD_LOCALIDADE</displayName>
</SimpleField>
<SimpleField type="xsd:string" name="NM_LOCALIDADE">
<displayName>NM_LOCALIDADE</displayName>
</SimpleField>
<SimpleField type="xsd:string" name="LAT_LOCALIDADE">
<displayName>LAT_LOCALIDADE</displayName>
</SimpleField>
<SimpleField type="xsd:string" name="LONG_LOCALIDADE">
<displayName>LONG_LOCALIDADE</displayName>
</SimpleField>
</Schema>
<Schema name="Localidades" id="kml_schema_ft_Localidades">
<SimpleField type="xsd:string" name="CD_UF">
<displayName>CD_UF</displayName>
</SimpleField>
<SimpleField type="xsd:string" name="NM_UF">
<displayName>NM_UF</displayName>
</SimpleField>
<SimpleField type="xsd:string" name="SIGLA_UF">
<displayName>SIGLA_UF</displayName>
</SimpleField>
<SimpleField type="xsd:string" name="CD_MUN">
<displayName>CD_MUN</displayName>
</SimpleField>
<SimpleField type="xsd:string" name="NM_MUN">
<displayName>NM_MUN</displayName>
</SimpleField>
<SimpleField type="xsd:string" name="CD_RGINT">
<displayName>CD_RGINT</displayName>
</SimpleField>
<SimpleField type="xsd:string" name="NM_RGINT">
<displayName>NM_RGINT</displayName>
</SimpleField>
<SimpleField type="xsd:string" name="CD_RGI">
<displayName>CD_RGI</displayName>
</SimpleField>
<SimpleField type="xsd:string" name="NM_RGI">
<displayName>NM_RGI</displayName>
</SimpleField>
<SimpleField type="xsd:string" name="CT_LOCALIDADE">
<displayName>CT_LOCALIDADE</displayName>
</SimpleField>
<SimpleField type="xsd:string" name="SCT_LOCALIDADE">
<displayName>SCT_LOCALIDADE</displayName>
</SimpleField>
<SimpleField type="xsd:string" name="CD_LOCALIDADE">
<displayName>CD_LOCALIDADE</displayName>
</SimpleField>
<SimpleField type="xsd:string" name="NM_LOCALIDADE">
<displayName>NM_LOCALIDADE</displayName>
</SimpleField>
</Schema>
<Schema name="Agrupamentos Indígenas" id="kml_schema_ft_Agrupamentos_Indígenas">
<SimpleField type="xsd:string" name="CD_UF">
<displayName>CD_UF</displayName>
</SimpleField>
<SimpleField type="xsd:string" name="NM_UF">
<displayName>NM_UF</displayName>
</SimpleField>
<SimpleField type="xsd:string" name="SIGLA_UF">
<displayName>SIGLA_UF</displayName>
</SimpleField>
<SimpleField type="xsd:string" name="CD_MUN">
<displayName>CD_MUN</displayName>
</SimpleField>
<SimpleField type="xsd:string" name="NM_MUN">
<displayName>NM_MUN</displayName>
</SimpleField>
<SimpleField type="xsd:string" name="CD_RGINT">
<displayName>CD_RGINT</displayName>
</SimpleField>
<SimpleField type="xsd:string" name="NM_RGINT">
<displayName>NM_RGINT</displayName>
</SimpleField>
<SimpleField type="xsd:string" name="CD_RGI">
<displayName>CD_RGI</displayName>
</SimpleField>
<SimpleField type="xsd:string" name="NM_RGI">
<displayName>NM_RGI</displayName>
</SimpleField>
<SimpleField type="xsd:string" name="CT_LOCALIDADE">
<displayName>CT_LOCALIDADE</displayName>
</SimpleField>
<SimpleField type="xsd:string" name="SCT_LOCALIDADE">
<displayName>SCT_LOCALIDADE</displayName>
</SimpleField>
<SimpleField type="xsd:string" name="CD_LOCALIDADE">
<displayName>CD_LOCALIDADE</displayName>
</SimpleField>
<SimpleField type="xsd:string" name="NM_LOCALIDADE">
<displayName>NM_LOCALIDADE</displayName>
</SimpleField>
<SimpleField type="xsd:string" name="LAT_LOCALIDADE">
<displayName>LAT_LOCALIDADE</displayName>
</SimpleField>
<SimpleField type="xsd:string" name="LONG_LOCALIDADE">
<displayName>LONG_LOCALIDADE</displayName>
</SimpleField>
</Schema>
<Schema name="01. Cidade" id="kml_schema_ft_01._Cidade">
<SimpleField type="xsd:string" name="CD_UF">
<displayName>CD_UF</displayName>
</SimpleField>
<SimpleField type="xsd:string" name="NM_UF">
<displayName>NM_UF</displayName>
</SimpleField>
<SimpleField type="xsd:string" name="SIGLA_UF">
<displayName>SIGLA_UF</displayName>
</SimpleField>
<SimpleField type="xsd:string" name="CD_MUN">
<displayName>CD_MUN</displayName>
</SimpleField>
<SimpleField type="xsd:string" name="NM_MUN">
<displayName>NM_MUN</displayName>
</SimpleField>
<SimpleField type="xsd:string" name="CD_RGINT">
<displayName>CD_RGINT</displayName>
</SimpleField>
<SimpleField type="xsd:string" name="NM_RGINT">
<displayName>NM_RGINT</displayName>
</SimpleField>
<SimpleField type="xsd:string" name="CD_RGI">
<displayName>CD_RGI</displayName>
</SimpleField>
<SimpleField type="xsd:string" name="NM_RGI">
<displayName>NM_RGI</displayName>
</SimpleField>
<SimpleField type="xsd:string" name="CT_LOCALIDADE">
<displayName>CT_LOCALIDADE</displayName>
</SimpleField>
<SimpleField type="xsd:string" name="SCT_LOCALIDADE">
<displayName>SCT_LOCALIDADE</displayName>
</SimpleField>
<SimpleField type="xsd:string" name="CD_LOCALIDADE">
<displayName>CD_LOCALIDADE</displayName>
</SimpleField>
<SimpleField type="xsd:string" name="NM_LOCALIDADE">
<displayName>NM_LOCALIDADE</displayName>
</SimpleField>
<SimpleField type="xsd:string" name="LAT_LOCALIDADE">
<displayName>LAT_LOCALIDADE</displayName>
</SimpleField>
<SimpleField type="xsd:string" name="LONG_LOCALIDADE">
<displayName>LONG_LOCALIDADE</displayName>
</SimpleField>
</Schema>
<Schema name="Terra Indígena" id="kml_schema_ft_Terra_Indígena">
<SimpleField type="xsd:string" name="COD_TI">
<displayName>COD_TI</displayName>
</SimpleField>
<SimpleField type="xsd:string" name="NOM_TI">
<displayName>NOM_TI</displayName>
</SimpleField>
</Schema>
<Schema name="Município" id="kml_schema_ft_Município">
<SimpleField type="xsd:string" name="CD_UF">
<displayName>CD_UF</displayName>
</SimpleField>
<SimpleField type="xsd:string" name="NM_UF">
<displayName>NM_UF</displayName>
</SimpleField>
<SimpleField type="xsd:string" name="CD_MUN">
<displayName>CD_MUN</displayName>
</SimpleField>
<SimpleField type="xsd:string" name="NM_MUN">
<displayName>NM_MUN</displayName>
</SimpleField>
<SimpleField type="xsd:string" name="CD_RGINT">
<displayName>CD_RGINT</displayName>
</SimpleField>
<SimpleField type="xsd:string" name="NM_RGINT">
<displayName>NM_RGINT</displayName>
</SimpleField>
<SimpleField type="xsd:string" name="CD_RGI">
<displayName>CD_RGI</displayName>
</SimpleField>
<SimpleField type="xsd:string" name="NM_RGI">
<displayName>NM_RGI</displayName>
</SimpleField>
</Schema>
<Folder id="01. Cidade">
<name>01. Cidade</name>
<Folder id="01.03. Sede Municipal">
<name>01.03. Sede Municipal</name>
<Placemark id="01.03. Sede Municipal">
<name>Eldorado [5003751]</name>
<visibility>1</visibility>
<snippet> </snippet>
<description>&lt;center&gt;&lt;table&gt;&lt;tr&gt;&lt;th colspan='2' align='center'&gt;&lt;em&gt;Atributos&lt;/em&gt;&lt;/th&gt;&lt;/tr&gt;&lt;tr bgcolor="#E3E3F3"&gt;
&lt;th&gt;CD_UF&lt;/th&gt;
&lt;td&gt;50&lt;/td&gt;
&lt;/tr&gt;&lt;tr bgcolor=""&gt;
&lt;th&gt;NM_UF&lt;/th&gt;
&lt;td&gt;Mato Grosso do Sul&lt;/td&gt;
&lt;/tr&gt;&lt;tr bgcolor="#E3E3F3"&gt;
&lt;th&gt;SIGLA_UF&lt;/th&gt;
&lt;td&gt;MS&lt;/td&gt;
&lt;/tr&gt;&lt;tr bgcolor=""&gt;
&lt;th&gt;CD_MUN&lt;/th&gt;
&lt;td&gt;5003751&lt;/td&gt;
&lt;/tr&gt;&lt;tr bgcolor="#E3E3F3"&gt;
&lt;th&gt;NM_MUN&lt;/th&gt;
&lt;td&gt;Eldorado&lt;/td&gt;
&lt;/tr&gt;&lt;tr bgcolor=""&gt;
&lt;th&gt;CD_RGINT&lt;/th&gt;
&lt;td&gt;5002&lt;/td&gt;
&lt;/tr&gt;&lt;tr bgcolor="#E3E3F3"&gt;
&lt;th&gt;NM_RGINT&lt;/th&gt;
&lt;td&gt;Dourados&lt;/td&gt;
&lt;/tr&gt;&lt;tr bgcolor=""&gt;
&lt;th&gt;CD_RGI&lt;/th&gt;
&lt;td&gt;500006&lt;/td&gt;
&lt;/tr&gt;&lt;tr bgcolor="#E3E3F3"&gt;
&lt;th&gt;NM_RGI&lt;/th&gt;
&lt;td&gt;Naviraí - Mundo Novo&lt;/td&gt;
&lt;/tr&gt;&lt;tr bgcolor=""&gt;
&lt;th&gt;CT_LOCALIDADE&lt;/th&gt;
&lt;td&gt;Cidade&lt;/td&gt;
&lt;/tr&gt;&lt;tr bgcolor="#E3E3F3"&gt;
&lt;th&gt;SCT_LOCALIDADE&lt;/th&gt;
&lt;td&gt;Sede Municipal&lt;/td&gt;
&lt;/tr&gt;&lt;tr bgcolor=""&gt;
&lt;th&gt;CD_LOCALIDADE&lt;/th&gt;
&lt;td&gt;5003751&lt;/td&gt;
&lt;/tr&gt;&lt;tr bgcolor="#E3E3F3"&gt;
&lt;th&gt;NM_LOCALIDADE&lt;/th&gt;
&lt;td&gt;Eldorado&lt;/td&gt;
&lt;/tr&gt;&lt;tr bgcolor=""&gt;
&lt;th&gt;LAT_LOCALIDADE&lt;/th&gt;
&lt;td&gt;-23.7862&lt;/td&gt;
&lt;/tr&gt;&lt;tr bgcolor="#E3E3F3"&gt;
&lt;th&gt;LONG_LOCALIDADE&lt;/th&gt;
&lt;td&gt;-54.2873&lt;/td&gt;
&lt;/tr&gt;&lt;/table&gt;&lt;/center&gt;</description>
<Style>
<IconStyle>
<color>ff00aaff</color>
<scale>1.0</scale>
<Icon>
<href>http://maps.google.com/mapfiles/kml/shapes/placemark_circle.png</href>
</Icon>
</IconStyle>
<LabelStyle>
<scale>1.0</scale>
</LabelStyle>
<LineStyle>
<color>ffffffff</color>
<width>3</width>
<gx:labelVisibility>1</gx:labelVisibility>
</LineStyle>
<PolyStyle>
<color>00ffffff</color>
</PolyStyle>
</Style>
<ExtendedData>
<SchemaData schemaUrl="#kml_schema_ft_01._Cidade">
<SimpleData name="CD_UF">50</SimpleData>
<SimpleData name="NM_UF">Mato Grosso do Sul</SimpleData>
<SimpleData name="SIGLA_UF">MS</SimpleData>
<SimpleData name="CD_MUN">5003751</SimpleData>
<SimpleData name="NM_MUN">Eldorado</SimpleData>
<SimpleData name="CD_RGINT">5002</SimpleData>
<SimpleData name="NM_RGINT">Dourados</SimpleData>
<SimpleData name="CD_RGI">500006</SimpleData>
<SimpleData name="NM_RGI">Naviraí - Mundo Novo</SimpleData>
<SimpleData name="CT_LOCALIDADE">Cidade</SimpleData>
<SimpleData name="SCT_LOCALIDADE">Sede Municipal</SimpleData>
<SimpleData name="CD_LOCALIDADE">5003751</SimpleData>
<SimpleData name="NM_LOCALIDADE">Eldorado</SimpleData>
<SimpleData name="LAT_LOCALIDADE">-23.7862</SimpleData>
<SimpleData name="LONG_LOCALIDADE">-54.2873</SimpleData>
</SchemaData>
</ExtendedData>
<Point>
<extrude>0</extrude>
<coordinates>-54.28734,-23.7862289993021,0.0</coordinates>
</Point>
</Placemark>
</Folder>
</Folder>
<Folder id="04. Vilas">
<name>04. Vilas</name>
<Placemark id="04. Vilas">
<name>Morumbi [500375110]</name>
<visibility>1</visibility>
<snippet> </snippet>
<description>&lt;center&gt;&lt;table&gt;&lt;tr&gt;&lt;th colspan='2' align='center'&gt;&lt;em&gt;Atributos&lt;/em&gt;&lt;/th&gt;&lt;/tr&gt;&lt;tr bgcolor="#E3E3F3"&gt;
&lt;th&gt;CD_UF&lt;/th&gt;
&lt;td&gt;50&lt;/td&gt;
&lt;/tr&gt;&lt;tr bgcolor=""&gt;
&lt;th&gt;NM_UF&lt;/th&gt;
&lt;td&gt;Mato Grosso do Sul&lt;/td&gt;
&lt;/tr&gt;&lt;tr bgcolor="#E3E3F3"&gt;
&lt;th&gt;SIGLA_UF&lt;/th&gt;
&lt;td&gt;MS&lt;/td&gt;
&lt;/tr&gt;&lt;tr bgcolor=""&gt;
&lt;th&gt;CD_MUN&lt;/th&gt;
&lt;td&gt;5003751&lt;/td&gt;
&lt;/tr&gt;&lt;tr bgcolor="#E3E3F3"&gt;
&lt;th&gt;NM_MUN&lt;/th&gt;
&lt;td&gt;Eldorado&lt;/td&gt;
&lt;/tr&gt;&lt;tr bgcolor=""&gt;
&lt;th&gt;CD_RGINT&lt;/th&gt;
&lt;td&gt;5002&lt;/td&gt;
&lt;/tr&gt;&lt;tr bgcolor="#E3E3F3"&gt;
&lt;th&gt;NM_RGINT&lt;/th&gt;
&lt;td&gt;Dourados&lt;/td&gt;
&lt;/tr&gt;&lt;tr bgcolor=""&gt;
&lt;th&gt;CD_RGI&lt;/th&gt;
&lt;td&gt;500006&lt;/td&gt;
&lt;/tr&gt;&lt;tr bgcolor="#E3E3F3"&gt;
&lt;th&gt;NM_RGI&lt;/th&gt;
&lt;td&gt;Naviraí - Mundo Novo&lt;/td&gt;
&lt;/tr&gt;&lt;tr bgcolor=""&gt;
&lt;th&gt;CT_LOCALIDADE&lt;/th&gt;
&lt;td&gt;Vila&lt;/td&gt;
&lt;/tr&gt;&lt;tr bgcolor="#E3E3F3"&gt;
&lt;th&gt;CD_LOCALIDADE&lt;/th&gt;
&lt;td&gt;500375110&lt;/td&gt;
&lt;/tr&gt;&lt;tr bgcolor=""&gt;
&lt;th&gt;NM_LOCALIDADE&lt;/th&gt;
&lt;td&gt;Morumbi&lt;/td&gt;
&lt;/tr&gt;&lt;tr bgcolor="#E3E3F3"&gt;
&lt;th&gt;LAT_LOCALIDADE&lt;/th&gt;
&lt;td&gt;-23.7988&lt;/td&gt;
&lt;/tr&gt;&lt;tr bgcolor=""&gt;
&lt;th&gt;LONG_LOCALIDADE&lt;/th&gt;
&lt;td&gt;-54.1056&lt;/td&gt;
&lt;/tr&gt;&lt;/table&gt;&lt;/center&gt;</description>
<Style>
<IconStyle>
<color>ffff5400</color>
<scale>1.0</scale>
<Icon>
<href>http://maps.google.com/mapfiles/kml/shapes/placemark_circle.png</href>
</Icon>
</IconStyle>
<LabelStyle>
<scale>0.9</scale>
</LabelStyle>
<LineStyle>
<color>72ffffff</color>
<width>1.0</width>
<gx:labelVisibility>1</gx:labelVisibility>
</LineStyle>
<PolyStyle>
<color>660054ff</color>
</PolyStyle>
</Style>
<ExtendedData>
<SchemaData schemaUrl="#kml_schema_ft_Vilas">
<SimpleData name="CD_UF">50</SimpleData>
<SimpleData name="NM_UF">Mato Grosso do Sul</SimpleData>
<SimpleData name="SIGLA_UF">MS</SimpleData>
<SimpleData name="CD_MUN">5003751</SimpleData>
<SimpleData name="NM_MUN">Eldorado</SimpleData>
<SimpleData name="CD_RGINT">5002</SimpleData>
<SimpleData name="NM_RGINT">Dourados</SimpleData>
<SimpleData name="CD_RGI">500006</SimpleData>
<SimpleData name="NM_RGI">Naviraí - Mundo Novo</SimpleData>
<SimpleData name="CT_LOCALIDADE">Vila</SimpleData>
<SimpleData name="CD_LOCALIDADE">500375110</SimpleData>
<SimpleData name="NM_LOCALIDADE">Morumbi</SimpleData>
<SimpleData name="LAT_LOCALIDADE">-23.7988</SimpleData>
<SimpleData name="LONG_LOCALIDADE">-54.1056</SimpleData>
</SchemaData>
</ExtendedData>
<Point>
<extrude>0</extrude>
<coordinates>-54.105572,-23.7988249993019,0.0</coordinates>
</Point>
</Placemark>
</Folder>
<Folder id="09. Localidades Indígenas">
<name>09. Localidades Indígenas</name>
<visibility>1</visibility>
<Style>
<IconStyle>
<color>ffffaaaa</color>
<scale>0.8</scale>
<Icon>
<href>http://maps.google.com/mapfiles/kml/shapes/placemark_circle.png</href>
</Icon>
</IconStyle>
<LabelStyle>
<scale>0.8</scale>
</LabelStyle>
<LineStyle>
<color>7a0000ff</color>
<width>1.0</width>
<gx:labelVisibility>1</gx:labelVisibility>
</LineStyle>
<PolyStyle>
<color>660000ff</color>
</PolyStyle>
</Style>
<Folder id="09.01. Agrupamentos Indígenas">
<name>09.01. Agrupamentos Indígenas</name>
<visibility>1</visibility>
<Style>
<IconStyle>
<color>ffffaaaa</color>
<scale>0.8</scale>
<Icon>
<href>http://maps.google.com/mapfiles/kml/shapes/placemark_circle.png</href>
</Icon>
</IconStyle>
<LabelStyle>
<scale>0.8</scale>
</LabelStyle>
<LineStyle>
<color>7a0000ff</color>
<width>1.0</width>
<gx:labelVisibility>1</gx:labelVisibility>
</LineStyle>
<PolyStyle>
<color>660000ff</color>
</PolyStyle>
</Style>
<Placemark id="09.01. Agrupamentos Indígenas">
<name>Aldeia Indígena Cerrito [500375100002]</name>
<visibility>1</visibility>
<snippet> </snippet>
<description>&lt;center&gt;&lt;table&gt;&lt;tr&gt;&lt;th colspan='2' align='center'&gt;&lt;em&gt;Attributes&lt;/em&gt;&lt;/th&gt;&lt;/tr&gt;&lt;tr bgcolor="#E3E3F3"&gt;
&lt;th&gt;CD_UF&lt;/th&gt;
&lt;td&gt;50&lt;/td&gt;
&lt;/tr&gt;&lt;tr bgcolor=""&gt;
&lt;th&gt;NM_UF&lt;/th&gt;
&lt;td&gt;Mato Grosso do Sul&lt;/td&gt;
&lt;/tr&gt;&lt;tr bgcolor="#E3E3F3"&gt;
&lt;th&gt;SIGLA_UF&lt;/th&gt;
&lt;td&gt;MS&lt;/td&gt;
&lt;/tr&gt;&lt;tr bgcolor=""&gt;
&lt;th&gt;CD_MUN&lt;/th&gt;
&lt;td&gt;5003751&lt;/td&gt;
&lt;/tr&gt;&lt;tr bgcolor="#E3E3F3"&gt;
&lt;th&gt;NM_MUN&lt;/th&gt;
&lt;td&gt;Eldorado&lt;/td&gt;
&lt;/tr&gt;&lt;tr bgcolor=""&gt;
&lt;th&gt;CD_RGINT&lt;/th&gt;
&lt;td&gt;5002&lt;/td&gt;
&lt;/tr&gt;&lt;tr bgcolor="#E3E3F3"&gt;
&lt;th&gt;NM_RGINT&lt;/th&gt;
&lt;td&gt;Dourados&lt;/td&gt;
&lt;/tr&gt;&lt;tr bgcolor=""&gt;
&lt;th&gt;CD_RGI&lt;/th&gt;
&lt;td&gt;500006&lt;/td&gt;
&lt;/tr&gt;&lt;tr bgcolor="#E3E3F3"&gt;
&lt;th&gt;NM_RGI&lt;/th&gt;
&lt;td&gt;Naviraí - Mundo Novo&lt;/td&gt;
&lt;/tr&gt;&lt;tr bgcolor=""&gt;
&lt;th&gt;CT_LOCALIDADE&lt;/th&gt;
&lt;td&gt;Localidade Indígena&lt;/td&gt;
&lt;/tr&gt;&lt;tr bgcolor="#E3E3F3"&gt;
&lt;th&gt;SCT_LOCALIDADE&lt;/th&gt;
&lt;td&gt;Agrupamento Indígena&lt;/td&gt;
&lt;/tr&gt;&lt;tr bgcolor=""&gt;
&lt;th&gt;CD_LOCALIDADE&lt;/th&gt;
&lt;td&gt;500375100002&lt;/td&gt;
&lt;/tr&gt;&lt;tr bgcolor="#E3E3F3"&gt;
&lt;th&gt;NM_LOCALIDADE&lt;/th&gt;
&lt;td&gt;Aldeia Indígena Cerrito&lt;/td&gt;
&lt;/tr&gt;&lt;tr bgcolor=""&gt;
&lt;th&gt;LAT_LOCALIDADE&lt;/th&gt;
&lt;td&gt;-23.5908&lt;/td&gt;
&lt;/tr&gt;&lt;tr bgcolor="#E3E3F3"&gt;
&lt;th&gt;LONG_LOCALIDADE&lt;/th&gt;
&lt;td&gt;-54.3024&lt;/td&gt;
&lt;/tr&gt;&lt;/table&gt;&lt;/center&gt;</description>
<Style>
<IconStyle>
<color>ffffaaaa</color>
<scale>0.8</scale>
<Icon>
<href>http://maps.google.com/mapfiles/kml/shapes/placemark_circle.png</href>
</Icon>
</IconStyle>
<LabelStyle>
<scale>0.8</scale>
</LabelStyle>
<LineStyle>
<color>7a0000ff</color>
<width>1.0</width>
<gx:labelVisibility>1</gx:labelVisibility>
</LineStyle>
<PolyStyle>
<color>660000ff</color>
</PolyStyle>
</Style>
<ExtendedData>
<SchemaData schemaUrl="#kml_schema_ft_Agrupamentos_Indígenas">
<SimpleData name="CD_UF">50</SimpleData>
<SimpleData name="NM_UF">Mato Grosso do Sul</SimpleData>
<SimpleData name="SIGLA_UF">MS</SimpleData>
<SimpleData name="CD_MUN">5003751</SimpleData>
<SimpleData name="NM_MUN">Eldorado</SimpleData>
<SimpleData name="CD_RGINT">5002</SimpleData>
<SimpleData name="NM_RGINT">Dourados</SimpleData>
<SimpleData name="CD_RGI">500006</SimpleData>
<SimpleData name="NM_RGI">Naviraí - Mundo Novo</SimpleData>
<SimpleData name="CT_LOCALIDADE">Localidade Indígena</SimpleData>
<SimpleData name="SCT_LOCALIDADE">Agrupamento Indígena</SimpleData>
<SimpleData name="CD_LOCALIDADE">500375100002</SimpleData>
<SimpleData name="NM_LOCALIDADE">Aldeia Indígena Cerrito</SimpleData>
<SimpleData name="LAT_LOCALIDADE">-23.5908</SimpleData>
<SimpleData name="LONG_LOCALIDADE">-54.3024</SimpleData>
</SchemaData>
</ExtendedData>
<Point>
<extrude>0</extrude>
<coordinates>-54.3023507619047,-23.5908495278779,0.0</coordinates>
</Point>
</Placemark>
</Folder>
</Folder>
<Folder id="12. Outras Localidades">
<name>12. Outras Localidades</name>
<Placemark id="12. Outras Localidades">
<name>Fazenda Junqueira [500375100003]</name>
<visibility>1</visibility>
<snippet> </snippet>
<description>&lt;center&gt;&lt;table&gt;&lt;tr&gt;&lt;th colspan='2' align='center'&gt;&lt;em&gt;Attributes&lt;/em&gt;&lt;/th&gt;&lt;/tr&gt;&lt;tr bgcolor="#E3E3F3"&gt;
&lt;th&gt;CD_UF&lt;/th&gt;
&lt;td&gt;50&lt;/td&gt;
&lt;/tr&gt;&lt;tr bgcolor=""&gt;
&lt;th&gt;NM_UF&lt;/th&gt;
&lt;td&gt;Mato Grosso do Sul&lt;/td&gt;
&lt;/tr&gt;&lt;tr bgcolor="#E3E3F3"&gt;
&lt;th&gt;SIGLA_UF&lt;/th&gt;
&lt;td&gt;MS&lt;/td&gt;
&lt;/tr&gt;&lt;tr bgcolor=""&gt;
&lt;th&gt;CD_MUN&lt;/th&gt;
&lt;td&gt;5003751&lt;/td&gt;
&lt;/tr&gt;&lt;tr bgcolor="#E3E3F3"&gt;
&lt;th&gt;NM_MUN&lt;/th&gt;
&lt;td&gt;Eldorado&lt;/td&gt;
&lt;/tr&gt;&lt;tr bgcolor=""&gt;
&lt;th&gt;CD_RGINT&lt;/th&gt;
&lt;td&gt;5002&lt;/td&gt;
&lt;/tr&gt;&lt;tr bgcolor="#E3E3F3"&gt;
&lt;th&gt;NM_RGINT&lt;/th&gt;
&lt;td&gt;Dourados&lt;/td&gt;
&lt;/tr&gt;&lt;tr bgcolor=""&gt;
&lt;th&gt;CD_RGI&lt;/th&gt;
&lt;td&gt;500006&lt;/td&gt;
&lt;/tr&gt;&lt;tr bgcolor="#E3E3F3"&gt;
&lt;th&gt;NM_RGI&lt;/th&gt;
&lt;td&gt;Naviraí - Mundo Novo&lt;/td&gt;
&lt;/tr&gt;&lt;tr bgcolor=""&gt;
&lt;th&gt;CT_LOCALIDADE&lt;/th&gt;
&lt;td&gt;Outras Localidades&lt;/td&gt;
&lt;/tr&gt;&lt;tr bgcolor="#E3E3F3"&gt;
&lt;th&gt;SCT_LOCALIDADE&lt;/th&gt;
&lt;td&gt;&lt;/td&gt;
&lt;/tr&gt;&lt;tr bgcolor=""&gt;
&lt;th&gt;CD_LOCALIDADE&lt;/th&gt;
&lt;td&gt;500375100003&lt;/td&gt;
&lt;/tr&gt;&lt;tr bgcolor="#E3E3F3"&gt;
&lt;th&gt;NM_LOCALIDADE&lt;/th&gt;
&lt;td&gt;Fazenda Junqueira&lt;/td&gt;
&lt;/tr&gt;&lt;/table&gt;&lt;/center&gt;</description>
<Style>
<IconStyle>
<color>ff0069d3</color>
<scale>0.6</scale>
<Icon>
<href>http://maps.google.com/mapfiles/kml/shapes/placemark_circle.png</href>
</Icon>
</IconStyle>
<LabelStyle>
<scale>0.6</scale>
</LabelStyle>
<LineStyle>
<width>1.0</width>
<gx:labelVisibility>1</gx:labelVisibility>
</LineStyle>
</Style>
<ExtendedData>
<SchemaData schemaUrl="#kml_schema_ft_Localidades">
<SimpleData name="CD_UF">50</SimpleData>
<SimpleData name="NM_UF">Mato Grosso do Sul</SimpleData>
<SimpleData name="SIGLA_UF">MS</SimpleData>
<SimpleData name="CD_MUN">5003751</SimpleData>
<SimpleData name="NM_MUN">Eldorado</SimpleData>
<SimpleData name="CD_RGINT">5002</SimpleData>
<SimpleData name="NM_RGINT">Dourados</SimpleData>
<SimpleData name="CD_RGI">500006</SimpleData>
<SimpleData name="NM_RGI">Naviraí - Mundo Novo</SimpleData>
<SimpleData name="CT_LOCALIDADE">Outras Localidades</SimpleData>
<SimpleData name="CD_LOCALIDADE">500375100003</SimpleData>
<SimpleData name="NM_LOCALIDADE">Fazenda Junqueira</SimpleData>
</SchemaData>
</ExtendedData>
<Point>
<extrude>0</extrude>
<coordinates>-54.1035892,-23.6625461993049,0.0</coordinates>
</Point>
</Placemark>
</Folder>
<Folder id="13. Referência">
<name>13. Referência</name>
<Placemark id="13. Referência">
<name>Eldorado [5003751]</name>
<visibility>1</visibility>
<snippet> </snippet>
<description>&lt;center&gt;&lt;table&gt;&lt;tr&gt;&lt;th colspan='2' align='center'&gt;&lt;em&gt;Attributes&lt;/em&gt;&lt;/th&gt;&lt;/tr&gt;&lt;tr bgcolor="#E3E3F3"&gt;
&lt;th&gt;CD_UF&lt;/th&gt;
&lt;td&gt;50&lt;/td&gt;
&lt;/tr&gt;&lt;tr bgcolor=""&gt;
&lt;th&gt;NM_UF&lt;/th&gt;
&lt;td&gt;Mato Grosso do Sul&lt;/td&gt;
&lt;/tr&gt;&lt;tr bgcolor="#E3E3F3"&gt;
&lt;th&gt;CD_MUN&lt;/th&gt;
&lt;td&gt;5003751&lt;/td&gt;
&lt;/tr&gt;&lt;tr bgcolor=""&gt;
&lt;th&gt;NM_MUN&lt;/th&gt;
&lt;td&gt;Eldorado&lt;/td&gt;
&lt;/tr&gt;&lt;tr bgcolor="#E3E3F3"&gt;
&lt;th&gt;CD_RGINT&lt;/th&gt;
&lt;td&gt;5002&lt;/td&gt;
&lt;/tr&gt;&lt;tr bgcolor=""&gt;
&lt;th&gt;NM_RGINT&lt;/th&gt;
&lt;td&gt;Dourados&lt;/td&gt;
&lt;/tr&gt;&lt;tr bgcolor="#E3E3F3"&gt;
&lt;th&gt;CD_RGI&lt;/th&gt;
&lt;td&gt;500006&lt;/td&gt;
&lt;/tr&gt;&lt;tr bgcolor=""&gt;
&lt;th&gt;NM_RGI&lt;/th&gt;
&lt;td&gt;Naviraí - Mundo Novo&lt;/td&gt;
&lt;/tr&gt;&lt;/table&gt;&lt;/center&gt;</description>
<Style>
<IconStyle>
<scale>0.7</scale>
</IconStyle>
<LabelStyle>
<scale>0.7</scale>
</LabelStyle>
<LineStyle>
<color>ffffffff</color>
<width>3</width>
<gx:labelVisibility>1</gx:labelVisibility>
</LineStyle>
<PolyStyle>
<color>00ffffff</color>
</PolyStyle>
</Style>
<ExtendedData>
<SchemaData schemaUrl="#kml_schema_ft_Município">
<SimpleData name="CD_UF">50</SimpleData>
<SimpleData name="NM_UF">Mato Grosso do Sul</SimpleData>
<SimpleData name="CD_MUN">5003751</SimpleData>
<SimpleData name="NM_MUN">Eldorado</SimpleData>
<SimpleData name="CD_RGINT">5002</SimpleData>
<SimpleData name="NM_RGINT">Dourados</SimpleData>
<SimpleData name="CD_RGI">500006</SimpleData>
<SimpleData name="NM_RGI">Naviraí - Mundo Novo</SimpleData>
</SchemaData>
</ExtendedData>
<MultiGeometry>
<Polygon>
<extrude>0</extrude>
<tessellate>1</tessellate>
<outerBoundaryIs>
<LinearRing>
<coordinates>-54.3704981,-23.8164455993015,0.0 -54.3710378,-23.8162890993015,0.0 -54.3714928,-23.8162080993015,0.0 -54.3724776,-23.8160324993015,0.0 -54.3734208,-23.8159256993015,0.0 -54.3740222,-23.8158526993015,0.0 -54.3749385,-23.8158425993015,0.0 -54.3758314,-23.8158560993015,0.0 -54.3778949,-23.8158861993015,0.0 -54.3783224,-23.8158679993015,0.0 -54.3793907,-23.8156807993015,0.0 -54.3796566,-23.8155952993015,0.0 -54.3803809,-23.8151975993015,0.0 -54.3812634,-23.8149381993015,0.0 -54.3817317,-23.8148695993015,0.0 -54.3820383,-23.8148110993015,0.0 -54.3829948,-23.8147626993015,0.0 -54.3846721,-23.8147320993015,0.0 -54.3850551,-23.8146770993015,0.0 -54.3864423,-23.8142309993015,0.0 -54.3887862,-23.8138543993015,0.0 -54.3895387,-23.8138671993015,0.0 -54.3900649,-23.8139454993015,0.0 -54.3900822,-23.8139480993015,0.0 -54.3905719,-23.8141234993015,0.0 -54.3910092,-23.8143219993015,0.0 -54.3914499,-23.8143532993015,0.0 -54.3917594,-23.8142992993015,0.0 -54.3920689,-23.8142453993015,0.0 -54.3924498,-23.8141648993015,0.0 -54.3930221,-23.8139381993015,0.0 -54.3935685,-23.8137167993015,0.0 -54.3937745,-23.8135644993015,0.0 -54.3944888,-23.8129162993016,0.0 -54.3952435,-23.8122626993016,0.0 -54.3960087,-23.8112398993016,0.0 -54.3973589,-23.8096794993016,0.0 -54.3980816,-23.8089520993016,0.0 -54.3989952,-23.8081973993017,0.0 -54.4000273,-23.8072287993017,0.0 -54.4011573,-23.8060171993017,0.0 -54.4016209,-23.8055399993017,0.0 -54.4024246,-23.8047125993017,0.0 -54.4032774,-23.8038916993018,0.0 -54.4033957,-23.8037330993017,0.0 -54.4038975,-23.8028521993018,0.0 -54.4041395,-23.8022452993018,0.0 -54.4043478,-23.8019010993018,0.0 -54.4046001,-23.8015537993018,0.0 -54.4050869,-23.8009719993018,0.0 -54.405108,-23.8009466993018,0.0 -54.4063958,-23.7995740993018,0.0 -54.4068381,-23.7989225993019,0.0 -54.407375,-23.7980239993019,0.0 -54.4076204,-23.7974310993019,0.0 -54.407995,-23.7968642993019,0.0 -54.4084465,-23.7963464993019,0.0 -54.4090886,-23.7958879993019,0.0 -54.4096305,-23.7955902993019,0.0 -54.4099537,-23.7953328993019,0.0 -54.4111939,-23.794150899302,0.0 -54.4123054,-23.793042699302,0.0 -54.4128445,-23.792395699302,0.0 -54.4140209,-23.790954199302,0.0 -54.4146446,-23.7899744993021,0.0 -54.4151804,-23.7891992993021,0.0 -54.415604,-23.7887764993021,0.0 -54.4161142,-23.7884899993021,0.0 -54.4161674,-23.7884713993021,0.0 -54.4163628,-23.7884028993021,0.0 -54.4163907,-23.7883958993021,0.0 -54.4164832,-23.7882436993021,0.0 -54.4166265,-23.7880079993021,0.0 -54.4170165,-23.7872104993021,0.0 -54.417074,-23.7866636993021,0.0 -54.4165885,-23.7838738993022,0.0 -54.4160889,-23.7819674993022,0.0 -54.4152402,-23.7801609993023,0.0 -54.4129888,-23.7734301993024,0.0 -54.4121897,-23.7720742993025,0.0 -54.4111162,-23.7695753993025,0.0 -54.4097102,-23.7673029993026,0.0 -54.4088496,-23.7663283993026,0.0 -54.4077234,-23.7645494993026,0.0 -54.4071835,-23.7635226993026,0.0 -54.406226,-23.7624615993027,0.0 -54.4046804,-23.7609450993027,0.0 -54.404396,-23.7605282993027,0.0 -54.404075,-23.7597524993027,0.0 -54.4039015,-23.7594776993027,0.0 -54.4023396,-23.7578595993028,0.0 -54.4002656,-23.7553983993028,0.0 -54.3993261,-23.7537503993029,0.0 -54.3988392,-23.7527665993029,0.0 -54.3978762,-23.7503202993029,0.0 -54.3971142,-23.748987699303,0.0 -54.3967832,-23.748273499303,0.0 -54.3965602,-23.747638499303,0.0 -54.3964005,-23.747183799303,0.0 -54.3960074,-23.746529499303,0.0 -54.3955002,-23.746022399303,0.0 -54.3945916,-23.745469099303,0.0 -54.3936632,-23.7447744993031,0.0 -54.3930933,-23.7442388993031,0.0 -54.3921656,-23.7431215993031,0.0 -54.3912217,-23.7423644993031,0.0 -54.3890682,-23.7406372993032,0.0 -54.3867578,-23.7392001993032,0.0 -54.3863249,-23.7389309993032,0.0 -54.3858826,-23.7385567993032,0.0 -54.3853081,-23.7378053993032,0.0 -54.3845012,-23.7363297993032,0.0 -54.3839764,-23.7351052993033,0.0 -54.3828944,-23.7317057993034,0.0 -54.3820902,-23.7302443993034,0.0 -54.3817587,-23.7297734993034,0.0 -54.381227,-23.7290182993034,0.0 -54.3808961,-23.7287251993034,0.0 -54.3797787,-23.7277354993034,0.0 -54.3794923,-23.7274817993034,0.0 -54.3777848,-23.7257982993035,0.0 -54.3775337,-23.7245484993035,0.0 -54.3775981,-23.7234170993035,0.0 -54.3780989,-23.7223390993036,0.0 -54.3794591,-23.7200828993036,0.0 -54.3796712,-23.7193472993036,0.0 -54.38007,-23.7171121993037,0.0 -54.3803189,-23.7162451993037,0.0 -54.380515,-23.7157845993037,0.0 -54.3810479,-23.7150370993037,0.0 -54.3824805,-23.7138317993038,0.0 -54.3832079,-23.7131123993038,0.0 -54.383827,-23.7123793993038,0.0 -54.3841044,-23.7114876993038,0.0 -54.3844152,-23.7097483993038,0.0 -54.3852612,-23.7087403993039,0.0 -54.3859888,-23.7078911993039,0.0 -54.3861763,-23.7074036993039,0.0 -54.3862137,-23.7073065993039,0.0 -54.3864201,-23.7066968993039,0.0 -54.3870097,-23.7058013993039,0.0 -54.3879704,-23.7054085993039,0.0 -54.3642321,-23.6392286993054,0.0 -54.3485509,-23.5960863993064,0.0 -54.3479697,-23.5955818993064,0.0 -54.3475265,-23.5952244993064,0.0 -54.3471341,-23.5949409993064,0.0 -54.3462196,-23.5934232993064,0.0 -54.3445849,-23.5912553993065,0.0 -54.3436558,-23.5893300993065,0.0 -54.3424451,-23.5876545993066,0.0 -54.341316,-23.5842229993066,0.0 -54.3403943,-23.5822037993067,0.0 -54.3396008,-23.5801593993067,0.0 -54.3382356,-23.5768975993068,0.0 -54.3371703,-23.5749621993068,0.0 -54.3362166,-23.5728560993069,0.0 -54.3349337,-23.568320199307,0.0 -54.33399,-23.5645968993071,0.0 -54.3333801,-23.5628912993071,0.0 -54.3328366,-23.5624582993071,0.0 -54.3320376,-23.5610036993072,0.0 -54.3315891,-23.5601627993072,0.0 -54.3314257,-23.5581090993072,0.0 -54.3313951,-23.5573400993072,0.0 -54.331361,-23.5564849993073,0.0 -54.3312471,-23.5559468993073,0.0 -54.3308407,-23.5554803993073,0.0 -54.330395,-23.5548982993073,0.0 -54.3301021,-23.5542771993073,0.0 -54.330385,-23.5542276993073,0.0 -54.3302422,-23.5541739993073,0.0 -54.328909,-23.5533656993073,0.0 -54.3273435,-23.5518540993074,0.0 -54.32659,-23.5512861993074,0.0 -54.3260532,-23.5511074993074,0.0 -54.3247313,-23.5511908993074,0.0 -54.3246179,-23.5515531993074,0.0 -54.3243533,-23.5519344993074,0.0 -54.3234939,-23.5528298993073,0.0 -54.322382,-23.5542399993073,0.0 -54.3214802,-23.5549338993073,0.0 -54.3206455,-23.5553043993073,0.0 -54.3199707,-23.5554630993073,0.0 -54.3183854,-23.5556648993073,0.0 -54.3175931,-23.5559111993073,0.0 -54.3160838,-23.5569457993073,0.0 -54.3143183,-23.5580363993072,0.0 -54.3131084,-23.5586250993072,0.0 -54.3124999,-23.5588206993072,0.0 -54.3108738,-23.5591318993072,0.0 -54.308891,-23.5600608993072,0.0 -54.3085868,-23.5601081993072,0.0 -54.3076776,-23.5600832993072,0.0 -54.3074108,-23.5601361993072,0.0 -54.3070854,-23.5604346993072,0.0 -54.3067357,-23.5609902993072,0.0 -54.3066473,-23.5609921993072,0.0 -54.3062881,-23.5609997993072,0.0 -54.3056537,-23.5610387993072,0.0 -54.3055175,-23.5611663993072,0.0 -54.3053799,-23.5615849993071,0.0 -54.305278,-23.5617251993071,0.0 -54.3051789,-23.5618615993071,0.0 -54.3048845,-23.5620334993071,0.0 -54.3044012,-23.5620925993071,0.0 -54.3038676,-23.5620344993071,0.0 -54.3030847,-23.5617675993071,0.0 -54.3024098,-23.5616175993071,0.0 -54.3020077,-23.5616056993071,0.0 -54.3009128,-23.5617560993071,0.0 -54.30032,-23.5615218993071,0.0 -54.2992663,-23.5615917993071,0.0 -54.2930278,-23.5616806993071,0.0 -54.2925306,-23.5617357993071,0.0 -54.2917768,-23.5619620993071,0.0 -54.2914541,-23.5620042993071,0.0 -54.2874124,-23.5617662993071,0.0 -54.2860489,-23.5619365993071,0.0 -54.2846919,-23.5619486993071,0.0 -54.2839452,-23.5618323993071,0.0 -54.28245,-23.5613631993071,0.0 -54.2816972,-23.5613964993072,0.0 -54.2781117,-23.5625630993071,0.0 -54.2775046,-23.5628545993071,0.0 -54.2765325,-23.5635838993071,0.0 -54.2756703,-23.5640283993071,0.0 -54.2753697,-23.5640837993071,0.0 -54.2748293,-23.5640679993071,0.0 -54.2744741,-23.5640575993071,0.0 -54.2741855,-23.5640490993071,0.0 -54.2726554,-23.5641177993071,0.0 -54.2719555,-23.5642992993071,0.0 -54.2710107,-23.5647089993071,0.0 -54.2707908,-23.5648043993071,0.0 -54.2690039,-23.5651095993071,0.0 -54.2685215,-23.5653474993071,0.0 -54.2669122,-23.566482399307,0.0 -54.2666567,-23.566601899307,0.0 -54.2654362,-23.566637899307,0.0 -54.2651431,-23.566721199307,0.0 -54.2646988,-23.566947199307,0.0 -54.2638841,-23.566940799307,0.0 -54.2629689,-23.567192399307,0.0 -54.2624877,-23.567052399307,0.0 -54.261799,-23.566728399307,0.0 -54.2614722,-23.566719999307,0.0 -54.2612286,-23.566821799307,0.0 -54.2605212,-23.567362899307,0.0 -54.2601749,-23.567548199307,0.0 -54.2573868,-23.568578599307,0.0 -54.2559128,-23.569273899307,0.0 -54.2549888,-23.569445699307,0.0 -54.254516,-23.569439899307,0.0 -54.2535987,-23.569311299307,0.0 -54.2529478,-23.569038599307,0.0 -54.2527855,-23.569019499307,0.0 -54.2519297,-23.569448799307,0.0 -54.2515866,-23.569423499307,0.0 -54.251222,-23.569169099307,0.0 -54.2500387,-23.567982799307,0.0 -54.2496689,-23.567781199307,0.0 -54.2492486,-23.567670699307,0.0 -54.2488986,-23.567694499307,0.0 -54.2480438,-23.567971199307,0.0 -54.2469337,-23.568721299307,0.0 -54.2465671,-23.568867699307,0.0 -54.2462719,-23.568831599307,0.0 -54.2458635,-23.568468099307,0.0 -54.2457269,-23.568409499307,0.0 -54.2446746,-23.568599799307,0.0 -54.2442928,-23.568347199307,0.0 -54.2440201,-23.568245799307,0.0 -54.2429664,-23.568161099307,0.0 -54.2425655,-23.568060599307,0.0 -54.242148,-23.567645699307,0.0 -54.2415353,-23.567510999307,0.0 -54.2396766,-23.566309299307,0.0 -54.2392956,-23.566302399307,0.0 -54.2392006,-23.566300699307,0.0 -54.2385717,-23.566604199307,0.0 -54.2364615,-23.568172599307,0.0 -54.2360552,-23.568390099307,0.0 -54.2354763,-23.568525599307,0.0 -54.2347097,-23.568593699307,0.0 -54.2339218,-23.568970899307,0.0 -54.2337236,-23.568922699307,0.0 -54.2333067,-23.568696599307,0.0 -54.2314011,-23.568748299307,0.0 -54.2306798,-23.569061499307,0.0 -54.2301395,-23.569392599307,0.0 -54.2290589,-23.569427799307,0.0 -54.2270804,-23.570171799307,0.0 -54.2258585,-23.5704664993069,0.0 -54.2251045,-23.5709701993069,0.0 -54.2245807,-23.5709844993069,0.0 -54.2240596,-23.5711096993069,0.0 -54.2236544,-23.5713584993069,0.0 -54.223106,-23.5720027993069,0.0 -54.2225258,-23.5719277993069,0.0 -54.2221036,-23.5722089993069,0.0 -54.2214444,-23.5721705993069,0.0 -54.2207309,-23.5723300993069,0.0 -54.2198551,-23.5728410993069,0.0 -54.2185333,-23.5738263993069,0.0 -54.2171414,-23.5745751993069,0.0 -54.2167916,-23.5747111993069,0.0 -54.2163781,-23.5747457993069,0.0 -54.2153266,-23.5746757993068,0.0 -54.21418,-23.5744876993069,0.0 -54.2134217,-23.5743632993069,0.0 -54.2115025,-23.5742984993069,0.0 -54.2108263,-23.5743984993069,0.0 -54.2104047,-23.5747158993069,0.0 -54.210162,-23.5748338993068,0.0 -54.2099436,-23.5749400993068,0.0 -54.2097209,-23.5751305993068,0.0 -54.2094327,-23.5755549993068,0.0 -54.2088707,-23.5759744993068,0.0 -54.2081958,-23.5762721993068,0.0 -54.2077834,-23.5766261993068,0.0 -54.2077093,-23.5767332993068,0.0 -54.2074356,-23.5771292993068,0.0 -54.2062521,-23.5793915993067,0.0 -54.203366,-23.5822105993067,0.0 -54.203128,-23.5824430993067,0.0 -54.2027204,-23.5833172993067,0.0 -54.2015364,-23.5852820993066,0.0 -54.2012575,-23.5862913993066,0.0 -54.2007891,-23.5872399993066,0.0 -54.2006564,-23.5881547993065,0.0 -54.200654,-23.5891415993065,0.0 -54.2002216,-23.5896736993065,0.0 -54.19996,-23.5901719993065,0.0 -54.1997237,-23.5917237993065,0.0 -54.1993706,-23.5920992993065,0.0 -54.1986871,-23.5924911993065,0.0 -54.1981283,-23.5933270993064,0.0 -54.1968951,-23.5944651993064,0.0 -54.1967011,-23.5948336993064,0.0 -54.1963908,-23.5959704993064,0.0 -54.1962308,-23.5961020993064,0.0 -54.1960856,-23.5961388993064,0.0 -54.1956621,-23.5957872993064,0.0 -54.195349,-23.5959641993064,0.0 -54.1950853,-23.5960017993064,0.0 -54.194815,-23.5956514993064,0.0 -54.1946342,-23.5955982993064,0.0 -54.1945134,-23.5956314993064,0.0 -54.1941063,-23.5963872993064,0.0 -54.1932117,-23.5972449993063,0.0 -54.1929566,-23.5981754993063,0.0 -54.1928058,-23.5982681993063,0.0 -54.1917971,-23.5985373993063,0.0 -54.1916283,-23.5987542993063,0.0 -54.1914068,-23.5992685993063,0.0 -54.1912439,-23.5994110993063,0.0 -54.1903697,-23.5994207993063,0.0 -54.1901765,-23.5994815993063,0.0 -54.1897689,-23.6002749993063,0.0 -54.1895056,-23.6003136993063,0.0 -54.1892552,-23.6004374993063,0.0 -54.188842,-23.6010725993063,0.0 -54.1881195,-23.6009855993063,0.0 -54.1877272,-23.6010113993063,0.0 -54.1874691,-23.6012042993063,0.0 -54.1872116,-23.6015498993062,0.0 -54.1872004,-23.6015457993062,0.0 -54.1865863,-23.6013209993063,0.0 -54.1861268,-23.6013677993063,0.0 -54.1857556,-23.6015499993063,0.0 -54.1843222,-23.6025216993062,0.0 -54.1837472,-23.6027412993062,0.0 -54.1831479,-23.6028097993062,0.0 -54.1812577,-23.6028368993062,0.0 -54.1809434,-23.6027707993062,0.0 -54.1800638,-23.6023823993062,0.0 -54.1796441,-23.6023487993062,0.0 -54.1793754,-23.6024014993062,0.0 -54.1788819,-23.6026390993062,0.0 -54.1785214,-23.6029109993062,0.0 -54.1765791,-23.6050889993062,0.0 -54.176301,-23.6052609993062,0.0 -54.1756844,-23.6054701993062,0.0 -54.1752135,-23.6054803993062,0.0 -54.1746631,-23.6049960993062,0.0 -54.1743016,-23.6048184993062,0.0 -54.1739729,-23.6048214993062,0.0 -54.173934,-23.6048218993062,0.0 -54.1736204,-23.6049980993062,0.0 -54.1733997,-23.6050460993062,0.0 -54.1731384,-23.6049971993062,0.0 -54.1727321,-23.6048229993062,0.0 -54.1726499,-23.6047876993062,0.0 -54.1723509,-23.6047499993062,0.0 -54.1720716,-23.6048726993062,0.0 -54.1719632,-23.6054153993062,0.0 -54.1716897,-23.6056525993062,0.0 -54.1713624,-23.6056255993062,0.0 -54.1707047,-23.6053067993062,0.0 -54.1702721,-23.6053245993062,0.0 -54.169689,-23.6055136993062,0.0 -54.1678256,-23.6064260993061,0.0 -54.166507,-23.6066189993061,0.0 -54.1657117,-23.6066791993061,0.0 -54.1649164,-23.6067394993061,0.0 -54.1646541,-23.6068990993061,0.0 -54.16419,-23.6074353993061,0.0 -54.1637919,-23.6071978993061,0.0 -54.1632394,-23.6072352993061,0.0 -54.1629264,-23.6073995993061,0.0 -54.1624463,-23.6078444993061,0.0 -54.1622121,-23.6078910993061,0.0 -54.1616,-23.6078308993061,0.0 -54.1614085,-23.6078760993061,0.0 -54.1609037,-23.6085212993061,0.0 -54.1602657,-23.6087079993061,0.0 -54.1601193,-23.6095658993061,0.0 -54.1596496,-23.6101124993061,0.0 -54.1595264,-23.6105883993061,0.0 -54.1583571,-23.611487899306,0.0 -54.157893,-23.611769599306,0.0 -54.1570813,-23.612062599306,0.0 -54.1566661,-23.611610599306,0.0 -54.1563882,-23.611461499306,0.0 -54.1551621,-23.611420699306,0.0 -54.1546823,-23.611564599306,0.0 -54.1538384,-23.612084999306,0.0 -54.1527596,-23.612332599306,0.0 -54.1521818,-23.612706099306,0.0 -54.151941,-23.612970599306,0.0 -54.151864,-23.613192199306,0.0 -54.1518907,-23.613247099306,0.0 -54.1521975,-23.613878599306,0.0 -54.1522009,-23.614083199306,0.0 -54.1520731,-23.614498499306,0.0 -54.1522228,-23.6151271993059,0.0 -54.1520972,-23.6153677993059,0.0 -54.1519192,-23.6155473993059,0.0 -54.1514032,-23.6156555993059,0.0 -54.1511353,-23.6158365993059,0.0 -54.1511458,-23.6161712993059,0.0 -54.1513642,-23.6163708993059,0.0 -54.1514051,-23.6164934993059,0.0 -54.1512776,-23.6168269993059,0.0 -54.1510349,-23.6172015993059,0.0 -54.1507063,-23.6174574993059,0.0 -54.1501376,-23.6175647993059,0.0 -54.1498275,-23.6176896993059,0.0 -54.1489461,-23.6185648993059,0.0 -54.1486661,-23.6187314993059,0.0 -54.148246,-23.6187739993059,0.0 -54.1472508,-23.6186506993059,0.0 -54.1468674,-23.6187919993059,0.0 -54.1455233,-23.6208022993058,0.0 -54.1446234,-23.6216644993058,0.0 -54.1446124,-23.6217814993058,0.0 -54.1448905,-23.6221731993058,0.0 -54.1448436,-23.6225194993058,0.0 -54.1447022,-23.6228265993058,0.0 -54.1442793,-23.6232373993058,0.0 -54.1442274,-23.6234051993058,0.0 -54.144047,-23.6239887993057,0.0 -54.1437287,-23.6242874993057,0.0 -54.1429129,-23.6247046993057,0.0 -54.1426092,-23.6247337993057,0.0 -54.1423675,-23.6248394993057,0.0 -54.1423821,-23.6249959993057,0.0 -54.1426452,-23.6254189993057,0.0 -54.1426424,-23.6256218993057,0.0 -54.1423721,-23.6260363993057,0.0 -54.1419649,-23.6263189993057,0.0 -54.1414729,-23.6264507993057,0.0 -54.1407351,-23.6262226993057,0.0 -54.1392432,-23.6260780993057,0.0 -54.1388282,-23.6260862993057,0.0 -54.1385003,-23.6261853993057,0.0 -54.1377153,-23.6267514993057,0.0 -54.1373911,-23.6268695993057,0.0 -54.1369733,-23.6268008993057,0.0 -54.1363591,-23.6263455993057,0.0 -54.1360989,-23.6262652993057,0.0 -54.1353478,-23.6262228993057,0.0 -54.1330027,-23.6262558993057,0.0 -54.1325436,-23.6260198993057,0.0 -54.1320411,-23.6259490993057,0.0 -54.1316783,-23.6260847993057,0.0 -54.1314236,-23.6260609993057,0.0 -54.1308193,-23.6257472993057,0.0 -54.1304505,-23.6256488993057,0.0 -54.1299067,-23.6258160993057,0.0 -54.1293132,-23.6257171993057,0.0 -54.1286343,-23.6257569993057,0.0 -54.1281716,-23.6259555993057,0.0 -54.1278438,-23.6260111993057,0.0 -54.1260558,-23.6259048993057,0.0 -54.1243679,-23.6259760993057,0.0 -54.1227121,-23.6257966993057,0.0 -54.1222649,-23.6257986993057,0.0 -54.1217562,-23.6259814993057,0.0 -54.1215169,-23.6264250993057,0.0 -54.1213161,-23.6265612993057,0.0 -54.1201288,-23.6266521993057,0.0 -54.1198802,-23.6269501993057,0.0 -54.1192358,-23.6277227993057,0.0 -54.1188889,-23.6280537993057,0.0 -54.1184363,-23.6283428993057,0.0 -54.1174134,-23.6288427993056,0.0 -54.1154897,-23.6291736993056,0.0 -54.115037,-23.6293403993056,0.0 -54.1138578,-23.6302348993056,0.0 -54.1129577,-23.6311166993056,0.0 -54.1118037,-23.6318309993056,0.0 -54.1116508,-23.6321658993056,0.0 -54.1115674,-23.6327820993056,0.0 -54.1114525,-23.6329622993056,0.0 -54.1112036,-23.6330550993055,0.0 -54.1106704,-23.6330640993055,0.0 -54.110477,-23.6331638993055,0.0 -54.1104078,-23.6333924993055,0.0 -54.1105002,-23.6343403993055,0.0 -54.1104723,-23.6349348993055,0.0 -54.1100855,-23.6358804993055,0.0 -54.1104399,-23.6364804993055,0.0 -54.1104409,-23.6366835993055,0.0 -54.1102759,-23.6368525993055,0.0 -54.1098224,-23.6369361993055,0.0 -54.1096328,-23.6370266993055,0.0 -54.1095797,-23.6371684993055,0.0 -54.1096625,-23.6375265993054,0.0 -54.1095292,-23.6377603993054,0.0 -54.1085921,-23.6383386993054,0.0 -54.1082233,-23.6389001993054,0.0 -54.1066953,-23.6400720993054,0.0 -54.1066315,-23.6402784993054,0.0 -54.1068272,-23.6406453993054,0.0 -54.106849,-23.6408137993054,0.0 -54.1068181,-23.6408957993054,0.0 -54.1067063,-23.6411922993054,0.0 -54.1064935,-23.6413567993054,0.0 -54.1062676,-23.6413339993054,0.0 -54.1061001,-23.6411851993054,0.0 -54.1055734,-23.6401360993054,0.0 -54.1050428,-23.6400431993054,0.0 -54.1047409,-23.6399093993054,0.0 -54.1045904,-23.6397620993054,0.0 -54.1043968,-23.6393381993054,0.0 -54.1041926,-23.6391851993054,0.0 -54.103807,-23.6391448993054,0.0 -54.1032201,-23.6394186993054,0.0 -54.1027501,-23.6391117993054,0.0 -54.1013923,-23.6390189993054,0.0 -54.1009991,-23.6388805993054,0.0 -54.1003047,-23.6385152993054,0.0 -54.0988137,-23.6382647993054,0.0 -54.0982546,-23.6378044993054,0.0 -54.0977551,-23.6376525993054,0.0 -54.0975868,-23.6376923993054,0.0 -54.0973856,-23.6378327993054,0.0 -54.0972351,-23.6383810993054,0.0 -54.0970105,-23.6386580993054,0.0 -54.0967738,-23.6387506993054,0.0 -54.0963361,-23.6387908993054,0.0 -54.095499,-23.6387199993054,0.0 -54.0943813,-23.6385328993054,0.0 -54.0935099,-23.6385560993054,0.0 -54.0923697,-23.6384011993054,0.0 -54.0916336,-23.6381244993054,0.0 -54.0912763,-23.6380669993054,0.0 -54.090334,-23.6381418993054,0.0 -54.0892464,-23.6383845993054,0.0 -54.0888652,-23.6383953993054,0.0 -54.0882233,-23.6382308993054,0.0 -54.087125,-23.6376984993054,0.0 -54.0865949,-23.6375912993054,0.0 -54.0861375,-23.6375845993054,0.0 -54.0858271,-23.6376687993054,0.0 -54.0853373,-23.6379491993054,0.0 -54.0847825,-23.6383941993054,0.0 -54.0839584,-23.6392130993054,0.0 -54.0832913,-23.6395007993054,0.0 -54.0829775,-23.6394820993054,0.0 -54.0820204,-23.6392713993054,0.0 -54.0799218,-23.6392415993054,0.0 -54.0772346,-23.6389687993054,0.0 -54.0764343,-23.6392063993054,0.0 -54.0760685,-23.6394555993054,0.0 -54.0751664,-23.6404172993054,0.0 -54.0748202,-23.6406843993054,0.0 -54.074382,-23.6408910993054,0.0 -54.0738345,-23.6409279993054,0.0 -54.0734483,-23.6411429993054,0.0 -54.0731001,-23.6412488993054,0.0 -54.0726211,-23.6411983993054,0.0 -54.0718117,-23.6409776993054,0.0 -54.0709937,-23.6405809993054,0.0 -54.0705988,-23.6407343993054,0.0 -54.0704046,-23.6407418993054,0.0 -54.0698898,-23.6404499993054,0.0 -54.0693595,-23.6403266993054,0.0 -54.069113,-23.6403753993054,0.0 -54.0688397,-23.6409382993054,0.0 -54.0687286,-23.6409474993054,0.0 -54.0679553,-23.6404732993054,0.0 -54.0677137,-23.6404801993054,0.0 -54.0673399,-23.6406100993054,0.0 -54.0671559,-23.6405961993054,0.0 -54.0665054,-23.6401686993054,0.0 -54.0658144,-23.6398958993054,0.0 -54.0652341,-23.6395628993054,0.0 -54.0644709,-23.6393639993054,0.0 -54.0640959,-23.6393620993054,0.0 -54.0623591,-23.6395663993054,0.0 -54.061648,-23.6397515993054,0.0 -54.0610765,-23.6400082993054,0.0 -54.0603833,-23.6407282993054,0.0 -54.0598025,-23.6410931993054,0.0 -54.0590352,-23.6419213993053,0.0 -54.058372,-23.6422509993053,0.0 -54.0581688,-23.6424448993053,0.0 -54.0580976,-23.6425127993053,0.0 -54.0580968,-23.6425216993053,0.0 -54.0580847,-23.6426419993053,0.0 -54.0582579,-23.6430847993053,0.0 -54.0582891,-23.6433483993053,0.0 -54.0581607,-23.6437805993053,0.0 -54.0579995,-23.6440381993053,0.0 -54.0575905,-23.6442045993053,0.0 -54.0567969,-23.6442558993053,0.0 -54.0567632,-23.6442580993053,0.0 -54.0566099,-23.6443246993053,0.0 -54.0565935,-23.6447498993053,0.0 -54.0561725,-23.6450558993053,0.0 -54.0559296,-23.6456333993053,0.0 -54.0558233,-23.6462201993053,0.0 -54.0558709,-23.6464217993053,0.0 -54.0559004,-23.6464625993052,0.0 -54.0560021,-23.6466025993052,0.0 -54.0566236,-23.6469156993052,0.0 -54.0566961,-23.6470660993052,0.0 -54.0564079,-23.6473738993052,0.0 -54.055697,-23.6477681993052,0.0 -54.0554367,-23.6484136993052,0.0 -54.0552585,-23.6485312993052,0.0 -54.0549618,-23.6487270993052,0.0 -54.0548671,-23.6489549993052,0.0 -54.0550308,-23.6492831993052,0.0 -54.0556116,-23.6497229993052,0.0 -54.0557495,-23.6499068993052,0.0 -54.0557645,-23.6506186993052,0.0 -54.056048,-23.6509680993051,0.0 -54.0560907,-23.6511050993051,0.0 -54.0558576,-23.6523503993051,0.0 -54.0561994,-23.6529117993051,0.0 -54.0563303,-23.6535284993051,0.0 -54.0567784,-23.6541390993051,0.0 -54.0569765,-23.6547160993051,0.0 -54.0574809,-23.6553135993051,0.0 -54.0574673,-23.655689899305,0.0 -54.0572878,-23.656161699305,0.0 -54.0572683,-23.656212999305,0.0 -54.0573047,-23.656358699305,0.0 -54.0575767,-23.656526199305,0.0 -54.0576079,-23.656545399305,0.0 -54.0581841,-23.656576299305,0.0 -54.0583899,-23.656661899305,0.0 -54.0585562,-23.656917299305,0.0 -54.0586877,-23.657798199305,0.0 -54.0589159,-23.658146399305,0.0 -54.0592139,-23.658365099305,0.0 -54.0598613,-23.658449899305,0.0 -54.060244,-23.658678599305,0.0 -54.0603089,-23.658899199305,0.0 -54.0600888,-23.659477799305,0.0 -54.0601746,-23.659753999305,0.0 -54.0605752,-23.6600916993049,0.0 -54.0617038,-23.6606526993049,0.0 -54.0622869,-23.6611436993049,0.0 -54.0624762,-23.6614499993049,0.0 -54.0625626,-23.6619413993049,0.0 -54.0626765,-23.6622264993049,0.0 -54.0637091,-23.6635656993049,0.0 -54.0637654,-23.6641093993049,0.0 -54.0635578,-23.6658170993048,0.0 -54.0636147,-23.6659824993048,0.0 -54.0636704,-23.6661445993048,0.0 -54.0640448,-23.6665547993048,0.0 -54.0640905,-23.6666784993048,0.0 -54.0639384,-23.6669773993048,0.0 -54.0637864,-23.6672762993048,0.0 -54.0636956,-23.6675887993048,0.0 -54.0636647,-23.6676953993048,0.0 -54.0636938,-23.6691438993047,0.0 -54.063177,-23.6710012993047,0.0 -54.062984,-23.6716948993047,0.0 -54.0627053,-23.6726964993047,0.0 -54.0627183,-23.6740616993046,0.0 -54.0626112,-23.6774024993046,0.0 -54.06248,-23.6789221993045,0.0 -54.0623283,-23.6799042993045,0.0 -54.0623076,-23.6799493993045,0.0 -54.0622868,-23.6799944993045,0.0 -54.0620899,-23.6804220993045,0.0 -54.0618515,-23.6809398993045,0.0 -54.0585438,-23.6836502993044,0.0 -54.0511225,-23.6871714993043,0.0 -54.0518817,-23.6903792993043,0.0 -54.0535148,-23.701678599304,0.0 -54.0518997,-23.7211366993036,0.0 -54.0526388,-23.7250675993035,0.0 -54.0536795,-23.7279844993034,0.0 -54.0549271,-23.7306024993034,0.0 -54.0574339,-23.7348997993033,0.0 -54.0619654,-23.7417803993031,0.0 -54.0658802,-23.746131699303,0.0 -54.0685493,-23.7502928993029,0.0 -54.0705151,-23.7540109993029,0.0 -54.0723808,-23.7592297993027,0.0 -54.0757093,-23.7644848993026,0.0 -54.0780685,-23.7725473993024,0.0 -54.0789632,-23.7773963993023,0.0 -54.0804586,-23.7808970993023,0.0 -54.081072,-23.7891689993021,0.0 -54.0820437,-23.792706999302,0.0 -54.0830717,-23.8030200993018,0.0 -54.0836061,-23.8054928993017,0.0 -54.0839222,-23.8069553993017,0.0 -54.0853532,-23.8135763993015,0.0 -54.0850579,-23.8181929993014,0.0 -54.0860616,-23.8251608993013,0.0 -54.0852961,-23.8282257993012,0.0 -54.0832956,-23.8294186993012,0.0 -54.0830994,-23.8310999993011,0.0 -54.0863528,-23.838132599301,0.0 -54.0864331,-23.8407228993009,0.0 -54.087042,-23.8426998993009,0.0 -54.0881053,-23.8445302993008,0.0 -54.0862068,-23.8562715993006,0.0 -54.0850237,-23.8605338993005,0.0 -54.0839341,-23.8622209993005,0.0 -54.0839859,-23.8649846993004,0.0 -54.0864299,-23.8655268993004,0.0 -54.0928534,-23.8708058993003,0.0 -54.1037061,-23.8891410992999,0.0 -54.1151782,-23.9035065992995,0.0 -54.1153349,-23.9036625992995,0.0 -54.1180189,-23.9049041992995,0.0 -54.1184093,-23.9050961992995,0.0 -54.1205112,-23.9058805992995,0.0 -54.1225,-23.9061470992995,0.0 -54.1242383,-23.9064661992995,0.0 -54.1261483,-23.9074761992995,0.0 -54.1289078,-23.9095334992994,0.0 -54.1322245,-23.9117730992994,0.0 -54.1345607,-23.9132493992993,0.0 -54.1359699,-23.9143644992993,0.0 -54.1400118,-23.9176489992992,0.0 -54.1422733,-23.9196968992992,0.0 -54.1434957,-23.9208083992992,0.0 -54.1455269,-23.9219923992991,0.0 -54.1507175,-23.9240944992991,0.0 -54.1541047,-23.925991199299,0.0 -54.1553889,-23.9241856992991,0.0 -54.1558479,-23.9238363992991,0.0 -54.1564,-23.9235361992991,0.0 -54.1571068,-23.9232865992991,0.0 -54.1580198,-23.9231124992991,0.0 -54.1587229,-23.9230299992991,0.0 -54.1598405,-23.9230028992991,0.0 -54.1606953,-23.9231141992991,0.0 -54.1609771,-23.9231631992991,0.0 -54.1613883,-23.9232347992991,0.0 -54.1619933,-23.9234250992991,0.0 -54.1623563,-23.9235660992991,0.0 -54.1630718,-23.9239299992991,0.0 -54.1632855,-23.9240689992991,0.0 -54.1647292,-23.9251467992991,0.0 -54.1656457,-23.925999399299,0.0 -54.1663867,-23.926562299299,0.0 -54.1672711,-23.927127299299,0.0 -54.1684038,-23.927595199299,0.0 -54.1690005,-23.927777799299,0.0 -54.1694657,-23.927879399299,0.0 -54.1702031,-23.927962899299,0.0 -54.1705382,-23.927998299299,0.0 -54.1713138,-23.928010199299,0.0 -54.1723046,-23.928034599299,0.0 -54.1728758,-23.927995199299,0.0 -54.1734923,-23.928015899299,0.0 -54.1754452,-23.928178699299,0.0 -54.1759166,-23.928177499299,0.0 -54.1764899,-23.928181099299,0.0 -54.1767067,-23.928149099299,0.0 -54.1771064,-23.928092899299,0.0 -54.1773577,-23.927971399299,0.0 -54.1776355,-23.927854699299,0.0 -54.1778159,-23.927644399299,0.0 -54.1779618,-23.927525099299,0.0 -54.1780527,-23.927379699299,0.0 -54.1782451,-23.926914899299,0.0 -54.1787353,-23.9260388992991,0.0 -54.1788982,-23.9258066992991,0.0 -54.1792599,-23.9253831992991,0.0 -54.1796496,-23.9251593992991,0.0 -54.180031,-23.9250967992991,0.0 -54.1804907,-23.9250607992991,0.0 -54.1808674,-23.9250756992991,0.0 -54.1814313,-23.9251914992991,0.0 -54.1818924,-23.9253668992991,0.0 -54.1821266,-23.9254942992991,0.0 -54.1823134,-23.9256205992991,0.0 -54.1824707,-23.9257626992991,0.0 -54.1826588,-23.9260088992991,0.0 -54.1831919,-23.926714099299,0.0 -54.1835636,-23.927381999299,0.0 -54.1837593,-23.927665799299,0.0 -54.1840208,-23.927939599299,0.0 -54.1841203,-23.928035099299,0.0 -54.184437,-23.928160699299,0.0 -54.1845874,-23.928229899299,0.0 -54.1847635,-23.928245999299,0.0 -54.1851644,-23.928277199299,0.0 -54.1861789,-23.928018699299,0.0 -54.1875465,-23.927700499299,0.0 -54.1881235,-23.927448399299,0.0 -54.1886781,-23.927028699299,0.0 -54.1890011,-23.926509299299,0.0 -54.1891861,-23.9257634992991,0.0 -54.1892159,-23.9249849992991,0.0 -54.189099,-23.9243858992991,0.0 -54.1887759,-23.9237113992991,0.0 -54.1883438,-23.9232735992991,0.0 -54.1879605,-23.9229800992991,0.0 -54.1873955,-23.9226831992991,0.0 -54.1864819,-23.9225030992991,0.0 -54.1858995,-23.9224366992991,0.0 -54.1848565,-23.9223729992991,0.0 -54.1846256,-23.9222374992991,0.0 -54.1845165,-23.9220419992991,0.0 -54.1845709,-23.9218648992991,0.0 -54.1846505,-23.9216886992991,0.0 -54.1848004,-23.9215382992991,0.0 -54.1849538,-23.9214358992992,0.0 -54.1852078,-23.9212843992992,0.0 -54.1857373,-23.9209782992992,0.0 -54.1862606,-23.9205667992992,0.0 -54.1864568,-23.9204065992992,0.0 -54.1865555,-23.9202844992992,0.0 -54.1867534,-23.9199492992992,0.0 -54.1869149,-23.9195021992992,0.0 -54.18714,-23.9185827992992,0.0 -54.1874111,-23.9177971992992,0.0 -54.1875928,-23.9174696992992,0.0 -54.1878632,-23.9169272992992,0.0 -54.1882197,-23.9165587992993,0.0 -54.1883817,-23.9163387992993,0.0 -54.188728,-23.9159156992993,0.0 -54.18904,-23.9156061992993,0.0 -54.189204,-23.9154597992993,0.0 -54.1897272,-23.9151228992993,0.0 -54.1899174,-23.9150075992993,0.0 -54.1901696,-23.9149636992993,0.0 -54.1903497,-23.9149327992993,0.0 -54.1907553,-23.9149381992993,0.0 -54.1912615,-23.9150444992993,0.0 -54.1915837,-23.9151452992993,0.0 -54.1917335,-23.9152301992993,0.0 -54.1919677,-23.9153597992993,0.0 -54.1925821,-23.9158770992993,0.0 -54.1929821,-23.9166007992993,0.0 -54.1930929,-23.9174462992992,0.0 -54.1929205,-23.9182472992992,0.0 -54.1925728,-23.9194866992992,0.0 -54.1923265,-23.9202382992992,0.0 -54.191997,-23.9209915992992,0.0 -54.1916907,-23.9217847992991,0.0 -54.1916388,-23.9220557992991,0.0 -54.1915753,-23.9223061992991,0.0 -54.1915966,-23.9225305992991,0.0 -54.191598,-23.9229154992991,0.0 -54.1916492,-23.9230457992991,0.0 -54.1917681,-23.9233283992991,0.0 -54.1919464,-23.9235560992991,0.0 -54.1920754,-23.9236715992991,0.0 -54.1924845,-23.9239940992991,0.0 -54.1931041,-23.9241725992991,0.0 -54.1938581,-23.9241385992991,0.0 -54.1943826,-23.9239093992991,0.0 -54.1948334,-23.9234877992991,0.0 -54.1951309,-23.9229440992991,0.0 -54.1953249,-23.9224430992991,0.0 -54.1953828,-23.9221993992991,0.0 -54.1953928,-23.9219954992991,0.0 -54.1953852,-23.9214613992991,0.0 -54.19516,-23.9202389992992,0.0 -54.1951185,-23.9197064992992,0.0 -54.194971,-23.9189717992992,0.0 -54.1948241,-23.9178268992992,0.0 -54.1948876,-23.9172538992992,0.0 -54.1950367,-23.9167928992993,0.0 -54.1951218,-23.9164477992993,0.0 -54.1953339,-23.9159512992993,0.0 -54.1956317,-23.9154244992993,0.0 -54.1958488,-23.9151362992993,0.0 -54.1961911,-23.9148138992993,0.0 -54.1964108,-23.9146689992993,0.0 -54.1967238,-23.9145403992993,0.0 -54.1967627,-23.9145243992993,0.0 -54.197269,-23.9144344992993,0.0 -54.1978062,-23.9144846992993,0.0 -54.1982038,-23.9145278992993,0.0 -54.1986034,-23.9146844992993,0.0 -54.1987803,-23.9147528992993,0.0 -54.1989765,-23.9149205992993,0.0 -54.1991574,-23.9150890992993,0.0 -54.1993362,-23.9153747992993,0.0 -54.1994305,-23.9155486992993,0.0 -54.1995581,-23.9159616992993,0.0 -54.1995779,-23.9164401992993,0.0 -54.199549,-23.9166705992993,0.0 -54.1988714,-23.9181231992992,0.0 -54.1986058,-23.9185694992992,0.0 -54.1985078,-23.9188663992992,0.0 -54.1984044,-23.9192116992992,0.0 -54.1984568,-23.9197850992992,0.0 -54.1985229,-23.9199344992992,0.0 -54.1987292,-23.9201992992992,0.0 -54.1990674,-23.9204746992992,0.0 -54.1992503,-23.9205544992992,0.0 -54.199553,-23.9207316992992,0.0 -54.1999862,-23.9208518992992,0.0 -54.200349,-23.9209472992992,0.0 -54.2005143,-23.9209514992992,0.0 -54.201304,-23.9210872992992,0.0 -54.2022211,-23.9211732992992,0.0 -54.2028124,-23.9212063992992,0.0 -54.203147,-23.9213121992991,0.0 -54.2033598,-23.9214524992991,0.0 -54.2043095,-23.9221614992991,0.0 -54.2058702,-23.9233975992991,0.0 -54.206315,-23.9236595992991,0.0 -54.2067561,-23.9238761992991,0.0 -54.2070364,-23.9239979992991,0.0 -54.2074178,-23.9240861992991,0.0 -54.2077355,-23.9240950992991,0.0 -54.2082666,-23.9240381992991,0.0 -54.208829,-23.9239866992991,0.0 -54.2091719,-23.9238982992991,0.0 -54.2094378,-23.9238118992991,0.0 -54.209616,-23.9237246992991,0.0 -54.2098206,-23.9236066992991,0.0 -54.210026,-23.9234141992991,0.0 -54.2101412,-23.9232226992991,0.0 -54.2102427,-23.9231191992991,0.0 -54.2103214,-23.9228632992991,0.0 -54.2103827,-23.9227408992991,0.0 -54.2103928,-23.9225480992991,0.0 -54.2104075,-23.9224078992991,0.0 -54.2103544,-23.9221611992991,0.0 -54.2102604,-23.9218096992991,0.0 -54.2100994,-23.9213405992992,0.0 -54.2098185,-23.9207656992992,0.0 -54.2095592,-23.9201574992992,0.0 -54.2089784,-23.9191064992992,0.0 -54.2083745,-23.9184985992992,0.0 -54.2078986,-23.9180298992992,0.0 -54.207352,-23.9176460992992,0.0 -54.2065497,-23.9172186992992,0.0 -54.2057972,-23.9168271992993,0.0 -54.2053399,-23.9164810992993,0.0 -54.2052552,-23.9163945992993,0.0 -54.2051435,-23.9161793992993,0.0 -54.2051274,-23.9159817992993,0.0 -54.2051338,-23.9158983992993,0.0 -54.2051588,-23.9157840992993,0.0 -54.2052426,-23.9156442992993,0.0 -54.2053242,-23.9155487992993,0.0 -54.2054534,-23.9154405992993,0.0 -54.2057541,-23.9153486992993,0.0 -54.205858,-23.9153137992993,0.0 -54.2064901,-23.9153450992993,0.0 -54.207481,-23.9154405992993,0.0 -54.2081948,-23.9155524992993,0.0 -54.2084744,-23.9155793992993,0.0 -54.2086814,-23.9155690992993,0.0 -54.2092364,-23.9155129992993,0.0 -54.2094768,-23.9154436992993,0.0 -54.2097355,-23.9153605992993,0.0 -54.2098673,-23.9152777992993,0.0 -54.2099624,-23.9151726992993,0.0 -54.210257,-23.9149519992993,0.0 -54.2104461,-23.9147266992993,0.0 -54.2108072,-23.9139995992993,0.0 -54.2110858,-23.9134356992993,0.0 -54.2114934,-23.9127687992993,0.0 -54.2118569,-23.9121885992994,0.0 -54.2121859,-23.9119381992994,0.0 -54.2124346,-23.9117611992994,0.0 -54.2129232,-23.9116168992994,0.0 -54.2132136,-23.9115712992994,0.0 -54.2135434,-23.9115841992994,0.0 -54.2137771,-23.9116366992994,0.0 -54.2140027,-23.9117123992994,0.0 -54.2141516,-23.9117957992994,0.0 -54.2143661,-23.9119362992994,0.0 -54.2146148,-23.9121789992994,0.0 -54.2147152,-23.9123099992993,0.0 -54.2148234,-23.9126182992993,0.0 -54.2148633,-23.9128008992993,0.0 -54.2148454,-23.9131744992993,0.0 -54.2147593,-23.9136251992993,0.0 -54.2144748,-23.9140688992993,0.0 -54.2141871,-23.9146347992993,0.0 -54.2139975,-23.9150716992993,0.0 -54.2137,-23.9158006992993,0.0 -54.2133548,-23.9171755992992,0.0 -54.2131439,-23.9177425992992,0.0 -54.2131285,-23.9179470992992,0.0 -54.2131686,-23.9182186992992,0.0 -54.2131765,-23.9184003992992,0.0 -54.2132543,-23.9186102992992,0.0 -54.2134162,-23.9189469992992,0.0 -54.2135423,-23.9191223992992,0.0 -54.2136897,-23.9192818992992,0.0 -54.2138826,-23.9194478992992,0.0 -54.2140628,-23.9195340992992,0.0 -54.2142936,-23.9196250992992,0.0 -54.2145025,-23.9196313992992,0.0 -54.214671,-23.9196524992992,0.0 -54.2149294,-23.9195913992992,0.0 -54.2150385,-23.9195578992992,0.0 -54.2159585,-23.9189376992992,0.0 -54.2169712,-23.9181715992992,0.0 -54.217642,-23.9178976992992,0.0 -54.2181118,-23.9176510992992,0.0 -54.2186228,-23.9173848992992,0.0 -54.2192195,-23.9171238992992,0.0 -54.2194728,-23.9169183992992,0.0 -54.2197335,-23.9167021992993,0.0 -54.22004,-23.9162701992993,0.0 -54.2202197,-23.9158239992993,0.0 -54.2203114,-23.9154244992993,0.0 -54.2203469,-23.9147373992993,0.0 -54.2202782,-23.9130932992993,0.0 -54.2203507,-23.9126169992993,0.0 -54.2205545,-23.9118373992994,0.0 -54.2207716,-23.9114019992994,0.0 -54.2211817,-23.9110886992994,0.0 -54.2214351,-23.9110075992994,0.0 -54.2217193,-23.9109621992994,0.0 -54.2219513,-23.9109989992994,0.0 -54.2221137,-23.9110175992994,0.0 -54.2223206,-23.9111325992994,0.0 -54.2224532,-23.9111865992994,0.0 -54.222621,-23.9113705992994,0.0 -54.2226768,-23.9114986992994,0.0 -54.2227786,-23.9116342992994,0.0 -54.2228137,-23.9118601992994,0.0 -54.2227256,-23.9123905992993,0.0 -54.2227326,-23.9131455992993,0.0 -54.2227735,-23.9136993992993,0.0 -54.2227883,-23.9142657992993,0.0 -54.2229003,-23.9148599992993,0.0 -54.2230998,-23.9152456992993,0.0 -54.2233625,-23.9155942992993,0.0 -54.2238103,-23.9159097992993,0.0 -54.2240287,-23.9160438992993,0.0 -54.224246,-23.9161316992993,0.0 -54.2246015,-23.9162563992993,0.0 -54.2249807,-23.9163240992993,0.0 -54.2255398,-23.9164113992993,0.0 -54.2262814,-23.9163783992993,0.0 -54.2265937,-23.9163497992993,0.0 -54.2273095,-23.9161393992993,0.0 -54.227443,-23.9160875992993,0.0 -54.2276744,-23.9159979992993,0.0 -54.227956,-23.9158461992993,0.0 -54.2283415,-23.9156143992993,0.0 -54.2285865,-23.9154368992993,0.0 -54.2287333,-23.9152952992993,0.0 -54.2288402,-23.9151624992993,0.0 -54.2288777,-23.9150131992993,0.0 -54.2289951,-23.9148429992993,0.0 -54.2290068,-23.9147824992993,0.0 -54.2290303,-23.9146615992993,0.0 -54.229045,-23.9138753992993,0.0 -54.228982,-23.9134704992993,0.0 -54.2289222,-23.9131873992993,0.0 -54.228829,-23.9129771992993,0.0 -54.2287261,-23.9128481992993,0.0 -54.2285037,-23.9125096992993,0.0 -54.2274566,-23.9117380992994,0.0 -54.2264109,-23.9109478992994,0.0 -54.2260809,-23.9105292992994,0.0 -54.2257395,-23.9102185992994,0.0 -54.225602,-23.9099731992994,0.0 -54.2255263,-23.9098462992994,0.0 -54.2255043,-23.9097294992994,0.0 -54.225407,-23.9094517992994,0.0 -54.2254312,-23.9092783992994,0.0 -54.2254524,-23.9090534992994,0.0 -54.2255063,-23.9089719992994,0.0 -54.2256041,-23.9087744992994,0.0 -54.2257544,-23.9086399992994,0.0 -54.2259657,-23.9085376992994,0.0 -54.2261495,-23.9084377992994,0.0 -54.2262943,-23.9084084992994,0.0 -54.2263342,-23.9084138992994,0.0 -54.2264066,-23.9084236992994,0.0 -54.226599,-23.9084286992994,0.0 -54.2269844,-23.9086062992994,0.0 -54.2274234,-23.9088179992994,0.0 -54.2282028,-23.9093169992994,0.0 -54.2288208,-23.9096848992994,0.0 -54.229007,-23.9097398992994,0.0 -54.2292179,-23.9098228992994,0.0 -54.2294694,-23.9098729992994,0.0 -54.2298712,-23.9099298992994,0.0 -54.2301275,-23.9099189992994,0.0 -54.2303477,-23.9098724992994,0.0 -54.2305857,-23.9098189992994,0.0 -54.2308521,-23.9097144992994,0.0 -54.2313803,-23.9094156992994,0.0 -54.2320219,-23.9089634992994,0.0 -54.2321574,-23.9088377992994,0.0 -54.2322816,-23.9086487992994,0.0 -54.2324609,-23.9083967992994,0.0 -54.2326274,-23.9080039992994,0.0 -54.2327144,-23.9069506992995,0.0 -54.2327793,-23.9066683992995,0.0 -54.2328429,-23.9060981992995,0.0 -54.2329248,-23.9056112992995,0.0 -54.232943,-23.9049613992995,0.0 -54.2330587,-23.9046723992995,0.0 -54.2331197,-23.9045070992995,0.0 -54.233341,-23.9042125992995,0.0 -54.2334272,-23.9040950992995,0.0 -54.2336791,-23.9038978992995,0.0 -54.2338245,-23.9037742992995,0.0 -54.2341109,-23.9036557992995,0.0 -54.2343029,-23.9035730992995,0.0 -54.2345857,-23.9035209992995,0.0 -54.2352129,-23.9035275992995,0.0 -54.235934,-23.9035091992995,0.0 -54.2361444,-23.9034851992995,0.0 -54.2367026,-23.9033994992995,0.0 -54.2375319,-23.9031120992996,0.0 -54.2381515,-23.9029468992996,0.0 -54.23836,-23.9028336992996,0.0 -54.2387045,-23.9026376992996,0.0 -54.2391734,-23.9021732992996,0.0 -54.239413,-23.9018904992996,0.0 -54.2405604,-23.9004181992996,0.0 -54.2415766,-23.8986903992997,0.0 -54.2418401,-23.8981001992997,0.0 -54.2419332,-23.8979628992997,0.0 -54.2425571,-23.8974149992997,0.0 -54.2431666,-23.8967198992997,0.0 -54.2435642,-23.8962268992997,0.0 -54.2441277,-23.8958061992997,0.0 -54.2445187,-23.8955147992997,0.0 -54.2448478,-23.8954150992997,0.0 -54.2456954,-23.8951607992997,0.0 -54.2460133,-23.8951731992997,0.0 -54.2462739,-23.8952462992997,0.0 -54.2474878,-23.8957004992997,0.0 -54.2479007,-23.8959086992997,0.0 -54.2483292,-23.8960664992997,0.0 -54.2486598,-23.8961101992997,0.0 -54.2488613,-23.8961490992997,0.0 -54.2491543,-23.8961604992997,0.0 -54.2493014,-23.8961660992997,0.0 -54.2499103,-23.8961835992997,0.0 -54.2502313,-23.8961364992997,0.0 -54.2513426,-23.8959407992997,0.0 -54.2515238,-23.8958746992997,0.0 -54.2517068,-23.8957887992997,0.0 -54.2520737,-23.8955558992997,0.0 -54.2524226,-23.8953104992997,0.0 -54.2527732,-23.8949970992997,0.0 -54.2530659,-23.8946032992997,0.0 -54.2542245,-23.8926938992998,0.0 -54.2553973,-23.8907912992998,0.0 -54.2559294,-23.8896956992998,0.0 -54.2565683,-23.8884187992999,0.0 -54.2567576,-23.8879538992999,0.0 -54.2569423,-23.8874217992999,0.0 -54.2569146,-23.8868599992999,0.0 -54.2570425,-23.8860303992999,0.0 -54.2571029,-23.8857991992999,0.0 -54.2572149,-23.8854915993,0.0 -54.257256,-23.8854435992999,0.0 -54.2573424,-23.8853423992999,0.0 -54.2574953,-23.8852340993,0.0 -54.25766,-23.8851163993,0.0 -54.258306,-23.8849018993,0.0 -54.2588014,-23.8848936993,0.0 -54.2592026,-23.8847839993,0.0 -54.2595653,-23.8846298993,0.0 -54.2599535,-23.8843917993,0.0 -54.2601268,-23.8842843993,0.0 -54.2603162,-23.8841151993,0.0 -54.2603295,-23.8841009993,0.0 -54.2604481,-23.8839738993,0.0 -54.2606251,-23.8836943993,0.0 -54.2610692,-23.8829995993,0.0 -54.261432,-23.8822943993,0.0 -54.2617974,-23.8813249993,0.0 -54.2622922,-23.8801422993001,0.0 -54.263269,-23.8779166993001,0.0 -54.2640092,-23.8767647993001,0.0 -54.2647332,-23.8758660993002,0.0 -54.2649453,-23.8756037993002,0.0 -54.2652132,-23.8751517993002,0.0 -54.265689,-23.8746844993002,0.0 -54.2661648,-23.8742172993002,0.0 -54.2663356,-23.8739898993002,0.0 -54.2664,-23.8739041993002,0.0 -54.2669911,-23.8733594993002,0.0 -54.2673675,-23.8728659993002,0.0 -54.2687393,-23.8712218993003,0.0 -54.2692854,-23.8707262993003,0.0 -54.269739,-23.8701619993003,0.0 -54.2701373,-23.8694192993003,0.0 -54.2705143,-23.8686450993003,0.0 -54.2705924,-23.8683468993003,0.0 -54.2706933,-23.8679615993003,0.0 -54.2709009,-23.8673327993003,0.0 -54.2713694,-23.8663118993004,0.0 -54.2723573,-23.8643549993004,0.0 -54.2728393,-23.8627649993004,0.0 -54.2730825,-23.8621224993005,0.0 -54.2732405,-23.8613653993005,0.0 -54.2734801,-23.8608391993005,0.0 -54.273577,-23.8606337993005,0.0 -54.2738123,-23.8603337993005,0.0 -54.2738865,-23.8602667993005,0.0 -54.2739971,-23.8601843993005,0.0 -54.2741455,-23.8601248993005,0.0 -54.2742963,-23.8600704993005,0.0 -54.2747279,-23.8599740993005,0.0 -54.2754092,-23.8599550993005,0.0 -54.2758002,-23.8599204993005,0.0 -54.2760602,-23.8598973993005,0.0 -54.276256,-23.8598666993005,0.0 -54.2764096,-23.8598047993005,0.0 -54.276807,-23.8595652993005,0.0 -54.2772181,-23.8593828993005,0.0 -54.2776027,-23.8590827993005,0.0 -54.2777804,-23.8588932993005,0.0 -54.2782557,-23.8580956993006,0.0 -54.2788374,-23.8571334993006,0.0 -54.2789983,-23.8569530993006,0.0 -54.2791318,-23.8568774993006,0.0 -54.2794296,-23.8566051993006,0.0 -54.2796631,-23.8564791993006,0.0 -54.2797637,-23.8564547993006,0.0 -54.280056,-23.8563836993006,0.0 -54.280256,-23.8563370993006,0.0 -54.2804533,-23.8563346993006,0.0 -54.280703,-23.8563077993006,0.0 -54.2816253,-23.8565061993006,0.0 -54.2820042,-23.8565273993006,0.0 -54.2825928,-23.8566080993006,0.0 -54.2830589,-23.8566320993006,0.0 -54.2834371,-23.8566139993006,0.0 -54.2837618,-23.8565720993006,0.0 -54.2842766,-23.8563507993006,0.0 -54.2845597,-23.8562071993006,0.0 -54.2849436,-23.8558993993006,0.0 -54.2851092,-23.8557291993006,0.0 -54.2852972,-23.8553326993006,0.0 -54.2856038,-23.8547931993006,0.0 -54.2857136,-23.8546616993006,0.0 -54.2859699,-23.8543840993006,0.0 -54.2861731,-23.8542817993006,0.0 -54.2865388,-23.8543082993006,0.0 -54.2874393,-23.8539269993006,0.0 -54.2875273,-23.8539046993006,0.0 -54.2875887,-23.8538501993006,0.0 -54.2877057,-23.8537602993006,0.0 -54.2877517,-23.8536168993007,0.0 -54.2879576,-23.8533749993007,0.0 -54.2880243,-23.8531854993007,0.0 -54.2880299,-23.8529840993007,0.0 -54.2879851,-23.8524517993007,0.0 -54.2878497,-23.8518249993007,0.0 -54.287881,-23.8515293993007,0.0 -54.2878857,-23.8511275993007,0.0 -54.2880083,-23.8508784993007,0.0 -54.2881017,-23.8506771993007,0.0 -54.2883387,-23.8504810993007,0.0 -54.2885488,-23.8504075993007,0.0 -54.2887055,-23.8503527993007,0.0 -54.2888724,-23.8502008993007,0.0 -54.2889714,-23.8501679993007,0.0 -54.2894658,-23.8501099993007,0.0 -54.2895961,-23.8501134993007,0.0 -54.2902417,-23.8501394993007,0.0 -54.2910433,-23.8503543993007,0.0 -54.2915175,-23.8504706993007,0.0 -54.2921283,-23.8505111993007,0.0 -54.2926075,-23.8505586993007,0.0 -54.2928547,-23.8505470993007,0.0 -54.2935738,-23.8504541993007,0.0 -54.2938908,-23.8503898993007,0.0 -54.2945256,-23.8502219993007,0.0 -54.2947848,-23.8501016993007,0.0 -54.2950536,-23.8499193993007,0.0 -54.2952859,-23.8498093993007,0.0 -54.295607,-23.8495650993007,0.0 -54.2959369,-23.8492682993007,0.0 -54.296325,-23.8485472993008,0.0 -54.2967745,-23.8480169993008,0.0 -54.2969093,-23.8478647993008,0.0 -54.2971974,-23.8476445993008,0.0 -54.2974337,-23.8475376993008,0.0 -54.2977243,-23.8473754993008,0.0 -54.2982294,-23.8472451993008,0.0 -54.2989607,-23.8472200993008,0.0 -54.2990782,-23.8471925993008,0.0 -54.2997348,-23.8469367993008,0.0 -54.2999482,-23.8467672993008,0.0 -54.3001058,-23.8466632993008,0.0 -54.3002285,-23.8465184993008,0.0 -54.3003597,-23.8463123993008,0.0 -54.3004795,-23.8460594993008,0.0 -54.3005665,-23.8457525993008,0.0 -54.3008064,-23.8451343993008,0.0 -54.3008655,-23.8447329993008,0.0 -54.3009076,-23.8445071993008,0.0 -54.3009119,-23.8439826993009,0.0 -54.300862,-23.8436100993009,0.0 -54.3006879,-23.8427353993009,0.0 -54.3003823,-23.8418432993009,0.0 -54.3003423,-23.8413080993009,0.0 -54.3002764,-23.8409445993009,0.0 -54.3002946,-23.8405849993009,0.0 -54.3003101,-23.8403070993009,0.0 -54.3003626,-23.8400653993009,0.0 -54.3004441,-23.839858199301,0.0 -54.3005124,-23.839704699301,0.0 -54.3008136,-23.839369399301,0.0 -54.3013002,-23.838911099301,0.0 -54.3019117,-23.838402999301,0.0 -54.3030118,-23.837577499301,0.0 -54.3045529,-23.836633699301,0.0 -54.3047266,-23.836539599301,0.0 -54.3051588,-23.836409699301,0.0 -54.3054301,-23.836364799301,0.0 -54.3057169,-23.836346199301,0.0 -54.3061212,-23.836378099301,0.0 -54.3064067,-23.836470199301,0.0 -54.3065895,-23.836562099301,0.0 -54.3067779,-23.836718199301,0.0 -54.306844,-23.836876499301,0.0 -54.3068455,-23.837120499301,0.0 -54.3069186,-23.837395299301,0.0 -54.3066936,-23.838024399301,0.0 -54.3066137,-23.838687299301,0.0 -54.3065776,-23.838932099301,0.0 -54.3066196,-23.839140399301,0.0 -54.3066552,-23.839573199301,0.0 -54.3068347,-23.839831599301,0.0 -54.3069644,-23.8401164993009,0.0 -54.3072203,-23.8403665993009,0.0 -54.3074756,-23.8405476993009,0.0 -54.3076727,-23.8406153993009,0.0 -54.30794,-23.8407081993009,0.0 -54.308899,-23.8408621993009,0.0 -54.3092002,-23.8408964993009,0.0 -54.3097065,-23.8408947993009,0.0 -54.3103612,-23.8408366993009,0.0 -54.3108663,-23.8407743993009,0.0 -54.3114594,-23.8406315993009,0.0 -54.3116927,-23.8405546993009,0.0 -54.3119907,-23.8403928993009,0.0 -54.3122394,-23.8402888993009,0.0 -54.3126166,-23.840033499301,0.0 -54.3129802,-23.8397607993009,0.0 -54.3134138,-23.839503899301,0.0 -54.3140008,-23.839029199301,0.0 -54.3141727,-23.838878199301,0.0 -54.3143297,-23.838712599301,0.0 -54.3144178,-23.838514899301,0.0 -54.3145415,-23.838293399301,0.0 -54.3145649,-23.838050799301,0.0 -54.3145901,-23.837851499301,0.0 -54.3145201,-23.837511799301,0.0 -54.3143533,-23.836397499301,0.0 -54.3141062,-23.835866599301,0.0 -54.3140828,-23.835674599301,0.0 -54.3140927,-23.8353988993011,0.0 -54.3141238,-23.8351859993011,0.0 -54.3142489,-23.8349372993011,0.0 -54.3143564,-23.8348051993011,0.0 -54.3145341,-23.8346334993011,0.0 -54.3147884,-23.8344973993011,0.0 -54.3149363,-23.8344285993011,0.0 -54.3153411,-23.8342724993011,0.0 -54.3156214,-23.8342516993011,0.0 -54.3157884,-23.8342393993011,0.0 -54.3161197,-23.8342214993011,0.0 -54.3163865,-23.8342617993011,0.0 -54.3165524,-23.8343371993011,0.0 -54.3168507,-23.8344558993011,0.0 -54.317055,-23.8346332993011,0.0 -54.31741,-23.8349892993011,0.0 -54.3176165,-23.8352711993011,0.0 -54.3177349,-23.835498699301,0.0 -54.3178712,-23.836056599301,0.0 -54.3185721,-23.837139099301,0.0 -54.3188287,-23.837858199301,0.0 -54.3190624,-23.838218999301,0.0 -54.3191804,-23.838403199301,0.0 -54.3194266,-23.838681699301,0.0 -54.3196212,-23.838895699301,0.0 -54.319901,-23.839106799301,0.0 -54.3201347,-23.839186599301,0.0 -54.3203805,-23.839302199301,0.0 -54.3215094,-23.839423899301,0.0 -54.3224057,-23.839617699301,0.0 -54.3233499,-23.839612199301,0.0 -54.3246556,-23.839545799301,0.0 -54.3249041,-23.839483299301,0.0 -54.325632,-23.839212799301,0.0 -54.3263065,-23.839006199301,0.0 -54.3271638,-23.838800199301,0.0 -54.3278318,-23.838531799301,0.0 -54.328455,-23.838248599301,0.0 -54.329316,-23.838194399301,0.0 -54.329932,-23.838141899301,0.0 -54.3307512,-23.837922899301,0.0 -54.3332472,-23.837550499301,0.0 -54.3342366,-23.837224699301,0.0 -54.3344423,-23.837201799301,0.0 -54.3347786,-23.837231299301,0.0 -54.3348775,-23.837209499301,0.0 -54.3349957,-23.837097299301,0.0 -54.3351272,-23.836981399301,0.0 -54.3352724,-23.836437999301,0.0 -54.335503,-23.835972899301,0.0 -54.3356227,-23.835765899301,0.0 -54.3358215,-23.835495499301,0.0 -54.3360039,-23.835352199301,0.0 -54.3361325,-23.8352569993011,0.0 -54.3364783,-23.8351464993011,0.0 -54.3370613,-23.8348528993011,0.0 -54.3373738,-23.8346886993011,0.0 -54.3377317,-23.8343340993011,0.0 -54.3381565,-23.8339510993011,0.0 -54.3384996,-23.8337138993011,0.0 -54.3388113,-23.8332508993011,0.0 -54.3391315,-23.8329199993011,0.0 -54.3392705,-23.8326540993011,0.0 -54.3395384,-23.8321592993011,0.0 -54.3396847,-23.8313873993011,0.0 -54.3397399,-23.8309265993012,0.0 -54.3397483,-23.8304639993012,0.0 -54.3397446,-23.8298983993012,0.0 -54.339853,-23.8296617993012,0.0 -54.3398858,-23.8295136993012,0.0 -54.3399666,-23.8293746993012,0.0 -54.3401658,-23.8292136993012,0.0 -54.3402899,-23.8290930993012,0.0 -54.3408785,-23.8287744993012,0.0 -54.3414192,-23.8284392993012,0.0 -54.3416223,-23.8282953993012,0.0 -54.341913,-23.8280773993012,0.0 -54.3421594,-23.8278418993012,0.0 -54.3427501,-23.8271654993012,0.0 -54.3430612,-23.8267739993012,0.0 -54.3436575,-23.8265407993013,0.0 -54.3439514,-23.8263839993013,0.0 -54.3441554,-23.8263544993013,0.0 -54.3443409,-23.8263826993013,0.0 -54.3445252,-23.8264150993013,0.0 -54.3446475,-23.8264783993012,0.0 -54.3448104,-23.8266226993012,0.0 -54.3450126,-23.8267740993012,0.0 -54.3451841,-23.8270073993012,0.0 -54.3454023,-23.8275723993012,0.0 -54.3460107,-23.8286604993012,0.0 -54.3463231,-23.8292355993012,0.0 -54.3464776,-23.8294526993012,0.0 -54.3465686,-23.8295764993012,0.0 -54.3466657,-23.8297085993012,0.0 -54.3469462,-23.8299851993012,0.0 -54.3472198,-23.8301279993012,0.0 -54.3473888,-23.8302300993012,0.0 -54.3478215,-23.8303856993012,0.0 -54.348681,-23.8306621993012,0.0 -54.3489158,-23.8307130993012,0.0 -54.3491546,-23.8307304993012,0.0 -54.3492508,-23.8306947993012,0.0 -54.3494892,-23.8306207993012,0.0 -54.3496246,-23.8304753993012,0.0 -54.3498136,-23.8302975993012,0.0 -54.3499418,-23.8300574993012,0.0 -54.3500462,-23.8297850993012,0.0 -54.350127,-23.8295229993012,0.0 -54.3502064,-23.8290399993012,0.0 -54.3503541,-23.8279098993012,0.0 -54.3505261,-23.8273997993012,0.0 -54.350664,-23.8270978993012,0.0 -54.3507764,-23.8268579993012,0.0 -54.3510241,-23.8264936993012,0.0 -54.3512106,-23.8262356993013,0.0 -54.3513715,-23.8261251993013,0.0 -54.3514793,-23.8260441993013,0.0 -54.3517088,-23.8259571993013,0.0 -54.3524308,-23.8257963993013,0.0 -54.3537846,-23.8255264993013,0.0 -54.3541199,-23.8254215993013,0.0 -54.3546856,-23.8251747993013,0.0 -54.3551395,-23.8250360993013,0.0 -54.3553223,-23.8249364993013,0.0 -54.355661,-23.8247288993013,0.0 -54.3559994,-23.8243821993013,0.0 -54.356243,-23.8241630993013,0.0 -54.3563618,-23.8240108993013,0.0 -54.3570559,-23.8228320993013,0.0 -54.3571721,-23.8225686993013,0.0 -54.3572987,-23.8220970993013,0.0 -54.3575174,-23.8218219993013,0.0 -54.3580409,-23.8211613993014,0.0 -54.3585849,-23.8205967993014,0.0 -54.359111,-23.8201190993014,0.0 -54.359802,-23.8195226993014,0.0 -54.3601462,-23.8192257993014,0.0 -54.3606757,-23.8189589993014,0.0 -54.360731,-23.8189288993014,0.0 -54.3609204,-23.8188262993014,0.0 -54.3619088,-23.8185551993014,0.0 -54.3633367,-23.8181842993014,0.0 -54.3642312,-23.8180094993014,0.0 -54.3657916,-23.8173823993014,0.0 -54.3667902,-23.8169393993015,0.0 -54.3669442,-23.8169034993015,0.0 -54.367282,-23.8168248993015,0.0 -54.3680251,-23.8166980993015,0.0 -54.3687143,-23.8165973993015,0.0 -54.3693922,-23.8165478993015,0.0 -54.3704981,-23.8164455993015,0.0</coordinates>
</LinearRing>
</outerBoundaryIs>
</Polygon>
</MultiGeometry>
</Placemark>
<Placemark id="13. Referência">
<name>TI - Cerrito [43007]</name>
<visibility>0</visibility>
<snippet> </snippet>
<description>&lt;center&gt;&lt;table&gt;&lt;tr&gt;&lt;th colspan='2' align='center'&gt;&lt;em&gt;Attributes&lt;/em&gt;&lt;/th&gt;&lt;/tr&gt;&lt;tr bgcolor="#E3E3F3"&gt;
&lt;th&gt;COD_TI&lt;/th&gt;
&lt;td&gt;43007&lt;/td&gt;
&lt;/tr&gt;&lt;tr bgcolor=""&gt;
&lt;th&gt;NOM_TI&lt;/th&gt;
&lt;td&gt;Cerrito&lt;/td&gt;
&lt;/tr&gt;&lt;/table&gt;&lt;/center&gt;</description>
<Style>
<IconStyle>
<scale>0.7</scale>
</IconStyle>
<LabelStyle>
<scale>0.7</scale>
</LabelStyle>
<LineStyle>
<color>ff00aaaa</color>
<width>3</width>
<gx:labelVisibility>1</gx:labelVisibility>
</LineStyle>
<PolyStyle>
<color>3300aaaa</color>
</PolyStyle>
</Style>
<ExtendedData>
<SchemaData schemaUrl="#kml_schema_ft_Terra_Indígena">
<SimpleData name="COD_TI">43007</SimpleData>
<SimpleData name="NOM_TI">Cerrito</SimpleData>
</SchemaData>
</ExtendedData>
<Polygon>
<extrude>0</extrude>
<tessellate>1</tessellate>
<outerBoundaryIs>
<LinearRing>
<coordinates>-54.3051427087181,-23.5618827313769,0.0 -54.3048845,-23.5620334993071,0.0 -54.3044012,-23.5620925993071,0.0 -54.3038676,-23.5620344993071,0.0 -54.3032782189063,-23.5618335722233,0.0 -54.303116247331,-23.5619955437981,0.0 -54.302971076257,-23.5621407148731,0.0 -54.302773115701,-23.5622462938361,0.0 -54.302476174866,-23.5622330964651,0.0 -54.302192431402,-23.5621011227611,0.0 -54.301809707661,-23.5621737082991,0.0 -54.301433582604,-23.5622462938361,0.0 -54.300945279899,-23.5622198990951,0.0 -54.300562556157,-23.5618701687792,0.0 -54.300384391656,-23.5616788069082,0.0 -54.3000808521371,-23.5616788069082,0.0 -54.29985649684,-23.5619889451132,0.0 -54.299533161265,-23.5620747280202,0.0 -54.29929890794,-23.5621506129001,0.0 -54.298955776309,-23.5619790470852,0.0 -54.298856796031,-23.5617414944181,0.0 -54.298612644678,-23.5617019023061,0.0 -54.298282710418,-23.5618206786401,0.0 -54.298058355121,-23.5619196589182,0.0 -54.297906585361,-23.5618866654921,0.0 -54.297754815602,-23.5617150996771,0.0 -54.2976544839648,-23.5616147680409,0.0 -54.2973243074199,-23.5616194731294,0.0 -54.297273111582,-23.5616491128252,0.0 -54.296916782581,-23.5618470733811,0.0 -54.296534058839,-23.5618008825841,0.0 -54.296131539041,-23.5619592510292,0.0 -54.295834598207,-23.5621968036971,0.0 -54.295583848169,-23.5621902050121,0.0 -54.295234117853,-23.5620582313071,0.0 -54.294884387537,-23.5618272773251,0.0 -54.294567650647,-23.5618140799552,0.0 -54.294336696665,-23.5618272773251,0.0 -54.294257512443,-23.5619724484001,0.0 -54.29415193348,-23.5622363958081,0.0 -54.293868190016,-23.5622627905491,0.0 -54.293544854441,-23.5621242181601,0.0 -54.293439275477,-23.5619064615481,0.0 -54.293267709662,-23.5618338760101,0.0 -54.293030156995,-23.5617942838992,0.0 -54.292838795124,-23.5618536720662,0.0 -54.292746413531,-23.5621176194741,0.0 -54.292673827993,-23.5623089813452,0.0 -54.292535255604,-23.5624211589941,0.0 -54.292258110826,-23.5624277576791,0.0 -54.291822597602,-23.5625531326982,0.0 -54.291529463759,-23.5626804100552,0.0 -54.290911979044,-23.5625993234941,0.0 -54.290456669764,-23.5625201392721,0.0 -54.290126735504,-23.5624409550491,0.0 -54.290080544708,-23.5622363958081,0.0 -54.290093742078,-23.5620252378812,0.0 -54.2900767343642,-23.5619231915997,0.0 -54.2897921198182,-23.5619064317555,0.0 -54.289763807818,-23.5619328562892,0.0 -54.289651630169,-23.5620252378812,0.0 -54.289447070928,-23.5620450339371,0.0 -54.28919632089,-23.5619856457701,0.0 -54.289057748501,-23.5620120405111,0.0 -54.2888531892591,-23.5621176194741,0.0 -54.28856284711,-23.5621308168451,0.0 -54.288345090499,-23.5621638102712,0.0 -54.288114136516,-23.5622891852901,0.0 -54.287922774645,-23.5623155800311,0.0 -54.287810596997,-23.5621902050121,0.0 -54.287579643015,-23.5621242181601,0.0 -54.287401478514,-23.5620582313071,0.0 -54.287210116643,-23.5622561918641,0.0 -54.287144129791,-23.5623221787161,0.0 -54.286860386327,-23.5622100010671,0.0 -54.286721813938,-23.5620912247341,0.0 -54.286576642864,-23.5621440142152,0.0 -54.286312695455,-23.5622231984382,0.0 -54.286035550677,-23.5622495931782,0.0 -54.285758405898,-23.5623089813452,0.0 -54.285534050601,-23.5623881655682,0.0 -54.285322892675,-23.5624079616231,0.0 -54.285072142637,-23.5622627905491,0.0 -54.285072142637,-23.5621242181601,0.0 -54.285171122915,-23.5619658497151,0.0 -54.2851782853731,-23.561944362341,0.0 -54.2850699382921,-23.5619453284425,0.0 -54.284966563673,-23.5621176194741,0.0 -54.284799474135,-23.5623372228672,0.0 -54.284735609691,-23.5624211589941,0.0 -54.284313293838,-23.5624475537352,0.0 -54.283917372726,-23.5624673497901,0.0 -54.283730540714,-23.5623194411141,0.0 -54.283600635836,-23.5622165997521,0.0 -54.283481859502,-23.5619196589182,0.0 -54.283277300261,-23.5617810865291,0.0 -54.283033148908,-23.5618074812701,0.0 -54.282795596241,-23.5617810865291,0.0 -54.282657023851,-23.5615831259731,0.0 -54.2826289486816,-23.5614193541503,0.0 -54.28245,-23.5613631993071,0.0 -54.2824351504789,-23.5613638561736,0.0 -54.282379879073,-23.5614643496392,0.0 -54.282432668554,-23.5618008825842,0.0 -54.282267701424,-23.5619328562892,0.0 -54.28197076059,-23.5621374155301,0.0 -54.281726609237,-23.5621836063262,0.0 -54.281363681551,-23.5619790470852,0.0 -54.280954563068,-23.5617480931031,0.0 -54.280644424864,-23.5617414944181,0.0 -54.280334286659,-23.5618470733811,0.0 -54.2803022926255,-23.5618503548205,0.0 -54.2797705323909,-23.5620233715517,0.0 -54.27971401025,-23.5620516326221,0.0 -54.279502852323,-23.5622034023822,0.0 -54.279291694397,-23.5623089813452,0.0 -54.2790673391,-23.5623089813452,0.0 -54.278895773284,-23.5623419747711,0.0 -54.278796793006,-23.5624343563641,0.0 -54.278724207469,-23.5625993234941,0.0 -54.278605431135,-23.5628566722171,0.0 -54.27842066795,-23.5629226590691,0.0 -54.278176516597,-23.5629490538101,0.0 -54.277919167874,-23.5629622511811,0.0 -54.277708009947,-23.5629424551252,0.0 -54.27762222704,-23.5631602117371,0.0 -54.277516648076,-23.5633713696631,0.0 -54.277259299353,-23.5635957249601,0.0 -54.277021746686,-23.5637804881461,0.0 -54.276599430833,-23.5637606920911,0.0 -54.276540042666,-23.5640378368691,0.0 -54.276368476851,-23.5642555934811,0.0 -54.276137522868,-23.564400764555,0.0 -54.275827384664,-23.5645393369451,0.0 -54.275348611117,-23.5647466243031,0.0 -54.274995950328,-23.5648032843531,0.0 -54.27456703579,-23.5648956659461,0.0 -54.274289891011,-23.5650012449091,0.0 -54.274019344917,-23.564948455428,0.0 -54.273808186991,-23.5648758698901,0.0 -54.273760561979,-23.564829178702,0.0 -54.273471654045,-23.5645459356301,0.0 -54.273306686915,-23.5645129422041,0.0 -54.273009746081,-23.564664711964,0.0 -54.2725940289129,-23.564750494871,0.0 -54.272204706486,-23.564915462001,0.0 -54.2720199433,-23.5650606330761,0.0 -54.271759860894,-23.5650801392561,0.0 -54.271399666891,-23.564948455428,0.0 -54.271313883983,-23.564809883038,0.0 -54.271010344464,-23.5647966856681,0.0 -54.27056163387,-23.564849475149,0.0 -54.2705177013771,-23.5648510441667,0.0 -54.2690039,-23.5651095993071,0.0 -54.2687058473084,-23.5652565867352,0.0 -54.268628219105,-23.5653113831141,0.0 -54.268432607818,-23.5654246317531,0.0 -54.2683973290805,-23.5654350663092,0.0 -54.2683011879038,-23.5655028663598,0.0 -54.268093725603,-23.565911863468,0.0 -54.267981547954,-23.566182409561,0.0 -54.267704403176,-23.566340778006,0.0 -54.267480047879,-23.566426560914,0.0 -54.267295284693,-23.566690508322,0.0 -54.266859771469,-23.567086429434,0.0 -54.266800383303,-23.567310784731,0.0 -54.26683229226,-23.567381693526,0.0 -54.266780587247,-23.567386669611,0.0 -54.275477654348,-23.5978527992044,0.0 -54.280792895281,-23.6166623513819,0.0 -54.303297711174,-23.6198165229108,0.0 -54.307748524346,-23.61474543333,0.0 -54.3051427087181,-23.5618827313769,0.0</coordinates>
</LinearRing>
</outerBoundaryIs>
</Polygon>
</Placemark>
</Folder>
</Document></kml>
