<?xml version='1.0' encoding='UTF-8'?>
<kml xmlns:xsd="http://www.w3.org/2001/XMLSchema" xmlns:gx="http://www.google.com/kml/ext/2.2" xmlns:atom="http://www.w3.org/2005/Atom" xmlns="http://www.opengis.net/kml/2.2">
<Document>
<name>guatapara_3518859_localidades_2022</name>
<visibility>1</visibility>
<Schema name="Localidades" id="kml_schema_ft_Localidades">
<SimpleField type="xsd:string" name="CD_UF">
<displayName>CD_UF</displayName>
</SimpleField>
<SimpleField type="xsd:string" name="NM_UF">
<displayName>NM_UF</displayName>
</SimpleField>
<SimpleField type="xsd:string" name="SIGLA_UF">
<displayName>SIGLA_UF</displayName>
</SimpleField>
<SimpleField type="xsd:string" name="CD_MUN">
<displayName>CD_MUN</displayName>
</SimpleField>
<SimpleField type="xsd:string" name="NM_MUN">
<displayName>NM_MUN</displayName>
</SimpleField>
<SimpleField type="xsd:string" name="CD_RGINT">
<displayName>CD_RGINT</displayName>
</SimpleField>
<SimpleField type="xsd:string" name="NM_RGINT">
<displayName>NM_RGINT</displayName>
</SimpleField>
<SimpleField type="xsd:string" name="CD_RGI">
<displayName>CD_RGI</displayName>
</SimpleField>
<SimpleField type="xsd:string" name="NM_RGI">
<displayName>NM_RGI</displayName>
</SimpleField>
<SimpleField type="xsd:string" name="CT_LOCALIDADE">
<displayName>CT_LOCALIDADE</displayName>
</SimpleField>
<SimpleField type="xsd:string" name="SCT_LOCALIDADE">
<displayName>SCT_LOCALIDADE</displayName>
</SimpleField>
<SimpleField type="xsd:string" name="CD_LOCALIDADE">
<displayName>CD_LOCALIDADE</displayName>
</SimpleField>
<SimpleField type="xsd:string" name="NM_LOCALIDADE">
<displayName>NM_LOCALIDADE</displayName>
</SimpleField>
</Schema>
<Schema name="Núcleos Urbanos" id="kml_schema_ft_Núcleos_Urbanos">
<SimpleField type="xsd:string" name="CD_UF">
<displayName>CD_UF</displayName>
</SimpleField>
<SimpleField type="xsd:string" name="NM_UF">
<displayName>NM_UF</displayName>
</SimpleField>
<SimpleField type="xsd:string" name="SIGLA_UF">
<displayName>SIGLA_UF</displayName>
</SimpleField>
<SimpleField type="xsd:string" name="CD_MUN">
<displayName>CD_MUN</displayName>
</SimpleField>
<SimpleField type="xsd:string" name="NM_MUN">
<displayName>NM_MUN</displayName>
</SimpleField>
<SimpleField type="xsd:string" name="CD_RGINT">
<displayName>CD_RGINT</displayName>
</SimpleField>
<SimpleField type="xsd:string" name="NM_RGINT">
<displayName>NM_RGINT</displayName>
</SimpleField>
<SimpleField type="xsd:string" name="CD_RGI">
<displayName>CD_RGI</displayName>
</SimpleField>
<SimpleField type="xsd:string" name="NM_RGI">
<displayName>NM_RGI</displayName>
</SimpleField>
<SimpleField type="xsd:string" name="CT_LOCALIDADE">
<displayName>CT_LOCALIDADE</displayName>
</SimpleField>
<SimpleField type="xsd:string" name="CD_LOCALIDADE">
<displayName>CD_LOCALIDADE</displayName>
</SimpleField>
<SimpleField type="xsd:string" name="NM_LOCALIDADE">
<displayName>NM_LOCALIDADE</displayName>
</SimpleField>
<SimpleField type="xsd:string" name="LAT_LOCALIDADE">
<displayName>LAT_LOCALIDADE</displayName>
</SimpleField>
<SimpleField type="xsd:string" name="LONG_LOCALIDADE">
<displayName>LONG_LOCALIDADE</displayName>
</SimpleField>
</Schema>
<Schema name="01. Cidade" id="kml_schema_ft_01._Cidade">
<SimpleField type="xsd:string" name="CD_UF">
<displayName>CD_UF</displayName>
</SimpleField>
<SimpleField type="xsd:string" name="NM_UF">
<displayName>NM_UF</displayName>
</SimpleField>
<SimpleField type="xsd:string" name="SIGLA_UF">
<displayName>SIGLA_UF</displayName>
</SimpleField>
<SimpleField type="xsd:string" name="CD_MUN">
<displayName>CD_MUN</displayName>
</SimpleField>
<SimpleField type="xsd:string" name="NM_MUN">
<displayName>NM_MUN</displayName>
</SimpleField>
<SimpleField type="xsd:string" name="CD_RGINT">
<displayName>CD_RGINT</displayName>
</SimpleField>
<SimpleField type="xsd:string" name="NM_RGINT">
<displayName>NM_RGINT</displayName>
</SimpleField>
<SimpleField type="xsd:string" name="CD_RGI">
<displayName>CD_RGI</displayName>
</SimpleField>
<SimpleField type="xsd:string" name="NM_RGI">
<displayName>NM_RGI</displayName>
</SimpleField>
<SimpleField type="xsd:string" name="CT_LOCALIDADE">
<displayName>CT_LOCALIDADE</displayName>
</SimpleField>
<SimpleField type="xsd:string" name="SCT_LOCALIDADE">
<displayName>SCT_LOCALIDADE</displayName>
</SimpleField>
<SimpleField type="xsd:string" name="CD_LOCALIDADE">
<displayName>CD_LOCALIDADE</displayName>
</SimpleField>
<SimpleField type="xsd:string" name="NM_LOCALIDADE">
<displayName>NM_LOCALIDADE</displayName>
</SimpleField>
<SimpleField type="xsd:string" name="LAT_LOCALIDADE">
<displayName>LAT_LOCALIDADE</displayName>
</SimpleField>
<SimpleField type="xsd:string" name="LONG_LOCALIDADE">
<displayName>LONG_LOCALIDADE</displayName>
</SimpleField>
</Schema>
<Schema name="Município" id="kml_schema_ft_Município">
<SimpleField type="xsd:string" name="CD_UF">
<displayName>CD_UF</displayName>
</SimpleField>
<SimpleField type="xsd:string" name="NM_UF">
<displayName>NM_UF</displayName>
</SimpleField>
<SimpleField type="xsd:string" name="CD_MUN">
<displayName>CD_MUN</displayName>
</SimpleField>
<SimpleField type="xsd:string" name="NM_MUN">
<displayName>NM_MUN</displayName>
</SimpleField>
<SimpleField type="xsd:string" name="CD_RGINT">
<displayName>CD_RGINT</displayName>
</SimpleField>
<SimpleField type="xsd:string" name="NM_RGINT">
<displayName>NM_RGINT</displayName>
</SimpleField>
<SimpleField type="xsd:string" name="CD_RGI">
<displayName>CD_RGI</displayName>
</SimpleField>
<SimpleField type="xsd:string" name="NM_RGI">
<displayName>NM_RGI</displayName>
</SimpleField>
</Schema>
<Folder id="01. Cidade">
<name>01. Cidade</name>
<Folder id="01.03. Sede Municipal">
<name>01.03. Sede Municipal</name>
<Placemark id="01.03. Sede Municipal">
<name>Guatapará [3518859]</name>
<visibility>1</visibility>
<snippet> </snippet>
<description>&lt;center&gt;&lt;table&gt;&lt;tr&gt;&lt;th colspan='2' align='center'&gt;&lt;em&gt;Atributos&lt;/em&gt;&lt;/th&gt;&lt;/tr&gt;&lt;tr bgcolor="#E3E3F3"&gt;
&lt;th&gt;CD_UF&lt;/th&gt;
&lt;td&gt;35&lt;/td&gt;
&lt;/tr&gt;&lt;tr bgcolor=""&gt;
&lt;th&gt;NM_UF&lt;/th&gt;
&lt;td&gt;São Paulo&lt;/td&gt;
&lt;/tr&gt;&lt;tr bgcolor="#E3E3F3"&gt;
&lt;th&gt;SIGLA_UF&lt;/th&gt;
&lt;td&gt;SP&lt;/td&gt;
&lt;/tr&gt;&lt;tr bgcolor=""&gt;
&lt;th&gt;CD_MUN&lt;/th&gt;
&lt;td&gt;3518859&lt;/td&gt;
&lt;/tr&gt;&lt;tr bgcolor="#E3E3F3"&gt;
&lt;th&gt;NM_MUN&lt;/th&gt;
&lt;td&gt;Guatapará&lt;/td&gt;
&lt;/tr&gt;&lt;tr bgcolor=""&gt;
&lt;th&gt;CD_RGINT&lt;/th&gt;
&lt;td&gt;3508&lt;/td&gt;
&lt;/tr&gt;&lt;tr bgcolor="#E3E3F3"&gt;
&lt;th&gt;NM_RGINT&lt;/th&gt;
&lt;td&gt;Ribeirão Preto&lt;/td&gt;
&lt;/tr&gt;&lt;tr bgcolor=""&gt;
&lt;th&gt;CD_RGI&lt;/th&gt;
&lt;td&gt;350031&lt;/td&gt;
&lt;/tr&gt;&lt;tr bgcolor="#E3E3F3"&gt;
&lt;th&gt;NM_RGI&lt;/th&gt;
&lt;td&gt;Ribeirão Preto&lt;/td&gt;
&lt;/tr&gt;&lt;tr bgcolor=""&gt;
&lt;th&gt;CT_LOCALIDADE&lt;/th&gt;
&lt;td&gt;Cidade&lt;/td&gt;
&lt;/tr&gt;&lt;tr bgcolor="#E3E3F3"&gt;
&lt;th&gt;SCT_LOCALIDADE&lt;/th&gt;
&lt;td&gt;Sede Municipal&lt;/td&gt;
&lt;/tr&gt;&lt;tr bgcolor=""&gt;
&lt;th&gt;CD_LOCALIDADE&lt;/th&gt;
&lt;td&gt;3518859&lt;/td&gt;
&lt;/tr&gt;&lt;tr bgcolor="#E3E3F3"&gt;
&lt;th&gt;NM_LOCALIDADE&lt;/th&gt;
&lt;td&gt;Guatapará&lt;/td&gt;
&lt;/tr&gt;&lt;tr bgcolor=""&gt;
&lt;th&gt;LAT_LOCALIDADE&lt;/th&gt;
&lt;td&gt;-21.4956&lt;/td&gt;
&lt;/tr&gt;&lt;tr bgcolor="#E3E3F3"&gt;
&lt;th&gt;LONG_LOCALIDADE&lt;/th&gt;
&lt;td&gt;-48.0393&lt;/td&gt;
&lt;/tr&gt;&lt;/table&gt;&lt;/center&gt;</description>
<Style>
<IconStyle>
<color>ff00aaff</color>
<scale>1.0</scale>
<Icon>
<href>http://maps.google.com/mapfiles/kml/shapes/placemark_circle.png</href>
</Icon>
</IconStyle>
<LabelStyle>
<scale>1.0</scale>
</LabelStyle>
<LineStyle>
<color>ffffffff</color>
<width>3</width>
<gx:labelVisibility>1</gx:labelVisibility>
</LineStyle>
<PolyStyle>
<color>00ffffff</color>
</PolyStyle>
</Style>
<ExtendedData>
<SchemaData schemaUrl="#kml_schema_ft_01._Cidade">
<SimpleData name="CD_UF">35</SimpleData>
<SimpleData name="NM_UF">São Paulo</SimpleData>
<SimpleData name="SIGLA_UF">SP</SimpleData>
<SimpleData name="CD_MUN">3518859</SimpleData>
<SimpleData name="NM_MUN">Guatapará</SimpleData>
<SimpleData name="CD_RGINT">3508</SimpleData>
<SimpleData name="NM_RGINT">Ribeirão Preto</SimpleData>
<SimpleData name="CD_RGI">350031</SimpleData>
<SimpleData name="NM_RGI">Ribeirão Preto</SimpleData>
<SimpleData name="CT_LOCALIDADE">Cidade</SimpleData>
<SimpleData name="SCT_LOCALIDADE">Sede Municipal</SimpleData>
<SimpleData name="CD_LOCALIDADE">3518859</SimpleData>
<SimpleData name="NM_LOCALIDADE">Guatapará</SimpleData>
<SimpleData name="LAT_LOCALIDADE">-21.4956</SimpleData>
<SimpleData name="LONG_LOCALIDADE">-48.0393</SimpleData>
</SchemaData>
</ExtendedData>
<Point>
<extrude>0</extrude>
<coordinates>-48.0393,-21.4955999993551,0.0</coordinates>
</Point>
</Placemark>
</Folder>
</Folder>
<Folder id="05. Núcleos Urbanos">
<name>05. Núcleos Urbanos</name>
<Placemark id="localidades">
<name>Núcleo Colonial Mombuca [3518859001]</name>
<visibility>1</visibility>
<snippet> </snippet>
<description>&lt;center&gt;&lt;table&gt;&lt;tr&gt;&lt;th colspan='2' align='center'&gt;&lt;em&gt;Attributes&lt;/em&gt;&lt;/th&gt;&lt;/tr&gt;&lt;tr bgcolor="#E3E3F3"&gt;
&lt;th&gt;CD_UF&lt;/th&gt;
&lt;td&gt;35&lt;/td&gt;
&lt;/tr&gt;&lt;tr bgcolor=""&gt;
&lt;th&gt;NM_UF&lt;/th&gt;
&lt;td&gt;São Paulo&lt;/td&gt;
&lt;/tr&gt;&lt;tr bgcolor="#E3E3F3"&gt;
&lt;th&gt;SIGLA_UF&lt;/th&gt;
&lt;td&gt;SP&lt;/td&gt;
&lt;/tr&gt;&lt;tr bgcolor=""&gt;
&lt;th&gt;CD_MUN&lt;/th&gt;
&lt;td&gt;3518859&lt;/td&gt;
&lt;/tr&gt;&lt;tr bgcolor="#E3E3F3"&gt;
&lt;th&gt;NM_MUN&lt;/th&gt;
&lt;td&gt;Guatapará&lt;/td&gt;
&lt;/tr&gt;&lt;tr bgcolor=""&gt;
&lt;th&gt;CD_RGINT&lt;/th&gt;
&lt;td&gt;3508&lt;/td&gt;
&lt;/tr&gt;&lt;tr bgcolor="#E3E3F3"&gt;
&lt;th&gt;NM_RGINT&lt;/th&gt;
&lt;td&gt;Ribeirão Preto&lt;/td&gt;
&lt;/tr&gt;&lt;tr bgcolor=""&gt;
&lt;th&gt;CD_RGI&lt;/th&gt;
&lt;td&gt;350031&lt;/td&gt;
&lt;/tr&gt;&lt;tr bgcolor="#E3E3F3"&gt;
&lt;th&gt;NM_RGI&lt;/th&gt;
&lt;td&gt;Ribeirão Preto&lt;/td&gt;
&lt;/tr&gt;&lt;tr bgcolor=""&gt;
&lt;th&gt;CT_LOCALIDADE&lt;/th&gt;
&lt;td&gt;Núcleo Urbano&lt;/td&gt;
&lt;/tr&gt;&lt;tr bgcolor="#E3E3F3"&gt;
&lt;th&gt;CD_LOCALIDADE&lt;/th&gt;
&lt;td&gt;3518859001&lt;/td&gt;
&lt;/tr&gt;&lt;tr bgcolor=""&gt;
&lt;th&gt;NM_LOCALIDADE&lt;/th&gt;
&lt;td&gt;Núcleo Colonial Mombuca&lt;/td&gt;
&lt;/tr&gt;&lt;tr bgcolor="#E3E3F3"&gt;
&lt;th&gt;LAT_LOCALIDADE&lt;/th&gt;
&lt;td&gt;-21.5462&lt;/td&gt;
&lt;/tr&gt;&lt;tr bgcolor=""&gt;
&lt;th&gt;LONG_LOCALIDADE&lt;/th&gt;
&lt;td&gt;-47.9575&lt;/td&gt;
&lt;/tr&gt;&lt;/table&gt;&lt;/center&gt;</description>
<Style>
<IconStyle>
<color>ff0000ff</color>
<scale>0.9</scale>
<Icon>
<href>http://maps.google.com/mapfiles/kml/shapes/placemark_circle.png</href>
</Icon>
</IconStyle>
<LabelStyle>
<scale>0.9</scale>
</LabelStyle>
<LineStyle>
<color>72ffffff</color>
<width>1.0</width>
<gx:labelVisibility>1</gx:labelVisibility>
</LineStyle>
<PolyStyle>
<color>66ff54ff</color>
</PolyStyle>
</Style>
<ExtendedData>
<SchemaData schemaUrl="#kml_schema_ft_Núcleos_Urbanos">
<SimpleData name="CD_UF">35</SimpleData>
<SimpleData name="NM_UF">São Paulo</SimpleData>
<SimpleData name="SIGLA_UF">SP</SimpleData>
<SimpleData name="CD_MUN">3518859</SimpleData>
<SimpleData name="NM_MUN">Guatapará</SimpleData>
<SimpleData name="CD_RGINT">3508</SimpleData>
<SimpleData name="NM_RGINT">Ribeirão Preto</SimpleData>
<SimpleData name="CD_RGI">350031</SimpleData>
<SimpleData name="NM_RGI">Ribeirão Preto</SimpleData>
<SimpleData name="CT_LOCALIDADE">Núcleo Urbano</SimpleData>
<SimpleData name="CD_LOCALIDADE">3518859001</SimpleData>
<SimpleData name="NM_LOCALIDADE">Núcleo Colonial Mombuca</SimpleData>
<SimpleData name="LAT_LOCALIDADE">-21.5462</SimpleData>
<SimpleData name="LONG_LOCALIDADE">-47.9575</SimpleData>
</SchemaData>
</ExtendedData>
<Point>
<extrude>0</extrude>
<coordinates>-47.9574586249999,-21.5462330282,0.0</coordinates>
</Point>
</Placemark>
</Folder>
<Folder id="12. Outras Localidades">
<name>12. Outras Localidades</name>
<Placemark id="12. Outras Localidades">
<name>Fazenda Aparecida [351885900001]</name>
<visibility>1</visibility>
<snippet> </snippet>
<description>&lt;center&gt;&lt;table&gt;&lt;tr&gt;&lt;th colspan='2' align='center'&gt;&lt;em&gt;Attributes&lt;/em&gt;&lt;/th&gt;&lt;/tr&gt;&lt;tr bgcolor="#E3E3F3"&gt;
&lt;th&gt;CD_UF&lt;/th&gt;
&lt;td&gt;35&lt;/td&gt;
&lt;/tr&gt;&lt;tr bgcolor=""&gt;
&lt;th&gt;NM_UF&lt;/th&gt;
&lt;td&gt;São Paulo&lt;/td&gt;
&lt;/tr&gt;&lt;tr bgcolor="#E3E3F3"&gt;
&lt;th&gt;SIGLA_UF&lt;/th&gt;
&lt;td&gt;SP&lt;/td&gt;
&lt;/tr&gt;&lt;tr bgcolor=""&gt;
&lt;th&gt;CD_MUN&lt;/th&gt;
&lt;td&gt;3518859&lt;/td&gt;
&lt;/tr&gt;&lt;tr bgcolor="#E3E3F3"&gt;
&lt;th&gt;NM_MUN&lt;/th&gt;
&lt;td&gt;Guatapará&lt;/td&gt;
&lt;/tr&gt;&lt;tr bgcolor=""&gt;
&lt;th&gt;CD_RGINT&lt;/th&gt;
&lt;td&gt;3508&lt;/td&gt;
&lt;/tr&gt;&lt;tr bgcolor="#E3E3F3"&gt;
&lt;th&gt;NM_RGINT&lt;/th&gt;
&lt;td&gt;Ribeirão Preto&lt;/td&gt;
&lt;/tr&gt;&lt;tr bgcolor=""&gt;
&lt;th&gt;CD_RGI&lt;/th&gt;
&lt;td&gt;350031&lt;/td&gt;
&lt;/tr&gt;&lt;tr bgcolor="#E3E3F3"&gt;
&lt;th&gt;NM_RGI&lt;/th&gt;
&lt;td&gt;Ribeirão Preto&lt;/td&gt;
&lt;/tr&gt;&lt;tr bgcolor=""&gt;
&lt;th&gt;CT_LOCALIDADE&lt;/th&gt;
&lt;td&gt;Outras Localidades&lt;/td&gt;
&lt;/tr&gt;&lt;tr bgcolor="#E3E3F3"&gt;
&lt;th&gt;SCT_LOCALIDADE&lt;/th&gt;
&lt;td&gt;&lt;/td&gt;
&lt;/tr&gt;&lt;tr bgcolor=""&gt;
&lt;th&gt;CD_LOCALIDADE&lt;/th&gt;
&lt;td&gt;351885900001&lt;/td&gt;
&lt;/tr&gt;&lt;tr bgcolor="#E3E3F3"&gt;
&lt;th&gt;NM_LOCALIDADE&lt;/th&gt;
&lt;td&gt;Fazenda Aparecida&lt;/td&gt;
&lt;/tr&gt;&lt;/table&gt;&lt;/center&gt;</description>
<Style>
<IconStyle>
<color>ff0069d3</color>
<scale>0.6</scale>
<Icon>
<href>http://maps.google.com/mapfiles/kml/shapes/placemark_circle.png</href>
</Icon>
</IconStyle>
<LabelStyle>
<scale>0.6</scale>
</LabelStyle>
<LineStyle>
<width>1.0</width>
<gx:labelVisibility>1</gx:labelVisibility>
</LineStyle>
</Style>
<ExtendedData>
<SchemaData schemaUrl="#kml_schema_ft_Localidades">
<SimpleData name="CD_UF">35</SimpleData>
<SimpleData name="NM_UF">São Paulo</SimpleData>
<SimpleData name="SIGLA_UF">SP</SimpleData>
<SimpleData name="CD_MUN">3518859</SimpleData>
<SimpleData name="NM_MUN">Guatapará</SimpleData>
<SimpleData name="CD_RGINT">3508</SimpleData>
<SimpleData name="NM_RGINT">Ribeirão Preto</SimpleData>
<SimpleData name="CD_RGI">350031</SimpleData>
<SimpleData name="NM_RGI">Ribeirão Preto</SimpleData>
<SimpleData name="CT_LOCALIDADE">Outras Localidades</SimpleData>
<SimpleData name="CD_LOCALIDADE">351885900001</SimpleData>
<SimpleData name="NM_LOCALIDADE">Fazenda Aparecida</SimpleData>
</SchemaData>
</ExtendedData>
<Point>
<extrude>0</extrude>
<coordinates>-47.985462,-21.3735159993581,0.0</coordinates>
</Point>
</Placemark>
<Placemark id="12. Outras Localidades">
<name>Fazenda Barreiro [351885900002]</name>
<visibility>1</visibility>
<snippet> </snippet>
<description>&lt;center&gt;&lt;table&gt;&lt;tr&gt;&lt;th colspan='2' align='center'&gt;&lt;em&gt;Attributes&lt;/em&gt;&lt;/th&gt;&lt;/tr&gt;&lt;tr bgcolor="#E3E3F3"&gt;
&lt;th&gt;CD_UF&lt;/th&gt;
&lt;td&gt;35&lt;/td&gt;
&lt;/tr&gt;&lt;tr bgcolor=""&gt;
&lt;th&gt;NM_UF&lt;/th&gt;
&lt;td&gt;São Paulo&lt;/td&gt;
&lt;/tr&gt;&lt;tr bgcolor="#E3E3F3"&gt;
&lt;th&gt;SIGLA_UF&lt;/th&gt;
&lt;td&gt;SP&lt;/td&gt;
&lt;/tr&gt;&lt;tr bgcolor=""&gt;
&lt;th&gt;CD_MUN&lt;/th&gt;
&lt;td&gt;3518859&lt;/td&gt;
&lt;/tr&gt;&lt;tr bgcolor="#E3E3F3"&gt;
&lt;th&gt;NM_MUN&lt;/th&gt;
&lt;td&gt;Guatapará&lt;/td&gt;
&lt;/tr&gt;&lt;tr bgcolor=""&gt;
&lt;th&gt;CD_RGINT&lt;/th&gt;
&lt;td&gt;3508&lt;/td&gt;
&lt;/tr&gt;&lt;tr bgcolor="#E3E3F3"&gt;
&lt;th&gt;NM_RGINT&lt;/th&gt;
&lt;td&gt;Ribeirão Preto&lt;/td&gt;
&lt;/tr&gt;&lt;tr bgcolor=""&gt;
&lt;th&gt;CD_RGI&lt;/th&gt;
&lt;td&gt;350031&lt;/td&gt;
&lt;/tr&gt;&lt;tr bgcolor="#E3E3F3"&gt;
&lt;th&gt;NM_RGI&lt;/th&gt;
&lt;td&gt;Ribeirão Preto&lt;/td&gt;
&lt;/tr&gt;&lt;tr bgcolor=""&gt;
&lt;th&gt;CT_LOCALIDADE&lt;/th&gt;
&lt;td&gt;Outras Localidades&lt;/td&gt;
&lt;/tr&gt;&lt;tr bgcolor="#E3E3F3"&gt;
&lt;th&gt;SCT_LOCALIDADE&lt;/th&gt;
&lt;td&gt;&lt;/td&gt;
&lt;/tr&gt;&lt;tr bgcolor=""&gt;
&lt;th&gt;CD_LOCALIDADE&lt;/th&gt;
&lt;td&gt;351885900002&lt;/td&gt;
&lt;/tr&gt;&lt;tr bgcolor="#E3E3F3"&gt;
&lt;th&gt;NM_LOCALIDADE&lt;/th&gt;
&lt;td&gt;Fazenda Barreiro&lt;/td&gt;
&lt;/tr&gt;&lt;/table&gt;&lt;/center&gt;</description>
<Style>
<IconStyle>
<color>ff0069d3</color>
<scale>0.6</scale>
<Icon>
<href>http://maps.google.com/mapfiles/kml/shapes/placemark_circle.png</href>
</Icon>
</IconStyle>
<LabelStyle>
<scale>0.6</scale>
</LabelStyle>
<LineStyle>
<width>1.0</width>
<gx:labelVisibility>1</gx:labelVisibility>
</LineStyle>
</Style>
<ExtendedData>
<SchemaData schemaUrl="#kml_schema_ft_Localidades">
<SimpleData name="CD_UF">35</SimpleData>
<SimpleData name="NM_UF">São Paulo</SimpleData>
<SimpleData name="SIGLA_UF">SP</SimpleData>
<SimpleData name="CD_MUN">3518859</SimpleData>
<SimpleData name="NM_MUN">Guatapará</SimpleData>
<SimpleData name="CD_RGINT">3508</SimpleData>
<SimpleData name="NM_RGINT">Ribeirão Preto</SimpleData>
<SimpleData name="CD_RGI">350031</SimpleData>
<SimpleData name="NM_RGI">Ribeirão Preto</SimpleData>
<SimpleData name="CT_LOCALIDADE">Outras Localidades</SimpleData>
<SimpleData name="CD_LOCALIDADE">351885900002</SimpleData>
<SimpleData name="NM_LOCALIDADE">Fazenda Barreiro</SimpleData>
</SchemaData>
</ExtendedData>
<Point>
<extrude>0</extrude>
<coordinates>-48.004462,-21.4626919993559,0.0</coordinates>
</Point>
</Placemark>
</Folder>
<Folder id="13. Referência">
<name>13. Referência</name>
<Placemark id="13. Referência">
<name>Guatapará [3518859]</name>
<visibility>1</visibility>
<snippet> </snippet>
<description>&lt;center&gt;&lt;table&gt;&lt;tr&gt;&lt;th colspan='2' align='center'&gt;&lt;em&gt;Attributes&lt;/em&gt;&lt;/th&gt;&lt;/tr&gt;&lt;tr bgcolor="#E3E3F3"&gt;
&lt;th&gt;CD_UF&lt;/th&gt;
&lt;td&gt;35&lt;/td&gt;
&lt;/tr&gt;&lt;tr bgcolor=""&gt;
&lt;th&gt;NM_UF&lt;/th&gt;
&lt;td&gt;São Paulo&lt;/td&gt;
&lt;/tr&gt;&lt;tr bgcolor="#E3E3F3"&gt;
&lt;th&gt;CD_MUN&lt;/th&gt;
&lt;td&gt;3518859&lt;/td&gt;
&lt;/tr&gt;&lt;tr bgcolor=""&gt;
&lt;th&gt;NM_MUN&lt;/th&gt;
&lt;td&gt;Guatapará&lt;/td&gt;
&lt;/tr&gt;&lt;tr bgcolor="#E3E3F3"&gt;
&lt;th&gt;CD_RGINT&lt;/th&gt;
&lt;td&gt;3508&lt;/td&gt;
&lt;/tr&gt;&lt;tr bgcolor=""&gt;
&lt;th&gt;NM_RGINT&lt;/th&gt;
&lt;td&gt;Ribeirão Preto&lt;/td&gt;
&lt;/tr&gt;&lt;tr bgcolor="#E3E3F3"&gt;
&lt;th&gt;CD_RGI&lt;/th&gt;
&lt;td&gt;350031&lt;/td&gt;
&lt;/tr&gt;&lt;tr bgcolor=""&gt;
&lt;th&gt;NM_RGI&lt;/th&gt;
&lt;td&gt;Ribeirão Preto&lt;/td&gt;
&lt;/tr&gt;&lt;/table&gt;&lt;/center&gt;</description>
<Style>
<IconStyle>
<scale>0.7</scale>
</IconStyle>
<LabelStyle>
<scale>0.7</scale>
</LabelStyle>
<LineStyle>
<color>ffffffff</color>
<width>3</width>
<gx:labelVisibility>1</gx:labelVisibility>
</LineStyle>
<PolyStyle>
<color>00ffffff</color>
</PolyStyle>
</Style>
<ExtendedData>
<SchemaData schemaUrl="#kml_schema_ft_Município">
<SimpleData name="CD_UF">35</SimpleData>
<SimpleData name="NM_UF">São Paulo</SimpleData>
<SimpleData name="CD_MUN">3518859</SimpleData>
<SimpleData name="NM_MUN">Guatapará</SimpleData>
<SimpleData name="CD_RGINT">3508</SimpleData>
<SimpleData name="NM_RGINT">Ribeirão Preto</SimpleData>
<SimpleData name="CD_RGI">350031</SimpleData>
<SimpleData name="NM_RGI">Ribeirão Preto</SimpleData>
</SchemaData>
</ExtendedData>
<MultiGeometry>
<Polygon>
<extrude>0</extrude>
<tessellate>1</tessellate>
<outerBoundaryIs>
<LinearRing>
<coordinates>-47.8898535,-21.4921058993552,0.0 -47.8891365,-21.4934828993552,0.0 -47.8885323,-21.4944171993552,0.0 -47.8880652,-21.4953776993551,0.0 -47.8880569,-21.4963554993551,0.0 -47.8881439,-21.4972283993551,0.0 -47.8883963,-21.4980029993551,0.0 -47.8884019,-21.4983080993551,0.0 -47.8883498,-21.4986532993551,0.0 -47.8876162,-21.500093499355,0.0 -47.887428,-21.501033699355,0.0 -47.8875054,-21.501537499355,0.0 -47.8880178,-21.502816199355,0.0 -47.8882334,-21.5037305993549,0.0 -47.8887766,-21.5043673993549,0.0 -47.8891252,-21.5052095993549,0.0 -47.8894942,-21.5061157993549,0.0 -47.8895476,-21.5068462993549,0.0 -47.8897591,-21.5074925993548,0.0 -47.8898724,-21.5087072993548,0.0 -47.8904015,-21.5099784993548,0.0 -47.8904018,-21.5109147993548,0.0 -47.8906139,-21.5116608993547,0.0 -47.8906789,-21.5129205993547,0.0 -47.891067,-21.5143988993547,0.0 -47.8920167,-21.5156928993546,0.0 -47.8931403,-21.5175054993546,0.0 -47.89658,-21.5218392993545,0.0 -47.8980336,-21.5238325993544,0.0 -47.8992865,-21.5257615993544,0.0 -47.9000989,-21.5274098993544,0.0 -47.9002832,-21.5289781993543,0.0 -47.9004765,-21.5307290993543,0.0 -47.90093,-21.5316396993543,0.0 -47.9022978,-21.5332318993542,0.0 -47.9028479,-21.5340271993542,0.0 -47.9048615,-21.5365081993541,0.0 -47.9062056,-21.5372778993541,0.0 -47.908987,-21.5387114993541,0.0 -47.9119271,-21.5396260993541,0.0 -47.9132761,-21.540240799354,0.0 -47.9156586,-21.541966999354,0.0 -47.9170121,-21.542933899354,0.0 -47.9176156,-21.543228299354,0.0 -47.9185357,-21.543390099354,0.0 -47.9193331,-21.543528699354,0.0 -47.9198866,-21.543696899354,0.0 -47.9203345,-21.544019399354,0.0 -47.9208881,-21.5448738993539,0.0 -47.9211785,-21.5458090993539,0.0 -47.9213086,-21.5468806993539,0.0 -47.921271,-21.5473768993539,0.0 -47.9212258,-21.5485086993539,0.0 -47.9212163,-21.5496429993538,0.0 -47.9209926,-21.5507683993538,0.0 -47.9203375,-21.5525406993538,0.0 -47.9203355,-21.5525463993538,0.0 -47.9196569,-21.5539369993537,0.0 -47.9193252,-21.5546671993537,0.0 -47.9191846,-21.5551080993537,0.0 -47.9191649,-21.5554832993537,0.0 -47.9191635,-21.5558517993537,0.0 -47.9193285,-21.5562013993537,0.0 -47.9194269,-21.5563555993537,0.0 -47.9195145,-21.5565597993537,0.0 -47.9195723,-21.5570259993536,0.0 -47.9197312,-21.5573032993536,0.0 -47.9200487,-21.5575559993536,0.0 -47.920528,-21.5578062993536,0.0 -47.9207473,-21.5581876993536,0.0 -47.9208741,-21.5587509993536,0.0 -47.9211025,-21.5596862993536,0.0 -47.9218528,-21.5604747993536,0.0 -47.9223457,-21.5613107993535,0.0 -47.9224308,-21.5615873993535,0.0 -47.9223468,-21.5624167993535,0.0 -47.9225415,-21.5626420993535,0.0 -47.9227693,-21.5628223993535,0.0 -47.9228647,-21.5629944993535,0.0 -47.922937,-21.5631131993535,0.0 -47.9229478,-21.5632576993535,0.0 -47.9229035,-21.5634172993535,0.0 -47.9228371,-21.5635142993535,0.0 -47.9228078,-21.5636624993535,0.0 -47.9229369,-21.5640647993535,0.0 -47.9230621,-21.5644182993535,0.0 -47.92346,-21.5650460993535,0.0 -47.9236302,-21.5651073993535,0.0 -47.9238478,-21.5651162993535,0.0 -47.9242618,-21.5651025993535,0.0 -47.9246484,-21.5650244993535,0.0 -47.924818,-21.5650594993535,0.0 -47.9250477,-21.5653365993535,0.0 -47.925387,-21.5656610993534,0.0 -47.9255491,-21.5659504993534,0.0 -47.9257617,-21.5663914993534,0.0 -47.9260119,-21.5666730993534,0.0 -47.9263324,-21.5670740993534,0.0 -47.9266132,-21.5674630993534,0.0 -47.926807,-21.5677074993534,0.0 -47.926949,-21.5680099993534,0.0 -47.9271616,-21.5684509993534,0.0 -47.9273212,-21.5687416993534,0.0 -47.9274872,-21.5691060993534,0.0 -47.9275967,-21.5694853993534,0.0 -47.9277425,-21.5699783993533,0.0 -47.9277905,-21.5703201993533,0.0 -47.9278526,-21.5705688993533,0.0 -47.9277701,-21.5708770993533,0.0 -47.9278067,-21.5711805993533,0.0 -47.9278683,-21.5715074993533,0.0 -47.9279312,-21.5719320993533,0.0 -47.9279966,-21.5723009993533,0.0 -47.9281245,-21.5727319993533,0.0 -47.9280731,-21.5732447993533,0.0 -47.9278234,-21.5736621993533,0.0 -47.9274648,-21.5740751993532,0.0 -47.9272392,-21.5743396993532,0.0 -47.9271906,-21.5745454993532,0.0 -47.9274616,-21.5749266993532,0.0 -47.9275921,-21.5753875993532,0.0 -47.9274428,-21.5756830993532,0.0 -47.9271768,-21.5759672993532,0.0 -47.9276541,-21.5763909993532,0.0 -47.9282676,-21.5768515993532,0.0 -47.929753,-21.5776740993532,0.0 -47.931363,-21.5784345993531,0.0 -47.9322051,-21.5790350993531,0.0 -47.9327923,-21.5795453993531,0.0 -47.9334895,-21.5799875993531,0.0 -47.9341431,-21.5802789993531,0.0 -47.9348105,-21.5802482993531,0.0 -47.9355352,-21.5800460993531,0.0 -47.9365493,-21.5796400993531,0.0 -47.9371764,-21.5793553993531,0.0 -47.9378982,-21.5792754993531,0.0 -47.9384189,-21.5795029993531,0.0 -47.9387645,-21.5800742993531,0.0 -47.938686,-21.5807004993531,0.0 -47.9382426,-21.5812952993531,0.0 -47.9375091,-21.5815638993531,0.0 -47.936648,-21.582023999353,0.0 -47.9356795,-21.583186599353,0.0 -47.9345829,-21.585023599353,0.0 -47.9341489,-21.5860914993529,0.0 -47.9341461,-21.5869529993529,0.0 -47.9344836,-21.5876286993529,0.0 -47.935396,-21.5881994993529,0.0 -47.936311,-21.5884010993529,0.0 -47.9372198,-21.5882903993529,0.0 -47.9382582,-21.5878340993529,0.0 -47.939218,-21.5869959993529,0.0 -47.9398098,-21.5867299993529,0.0 -47.9402944,-21.5866645993529,0.0 -47.9407927,-21.5867788993529,0.0 -47.9412528,-21.5870073993529,0.0 -47.9415666,-21.5875130993529,0.0 -47.9417242,-21.5882959993529,0.0 -47.9415988,-21.5891028993529,0.0 -47.9412687,-21.5897997993529,0.0 -47.940671,-21.5902742993529,0.0 -47.94007,-21.5905877993528,0.0 -47.9392443,-21.5907867993528,0.0 -47.9379409,-21.5909188993528,0.0 -47.9369357,-21.5912679993528,0.0 -47.9366152,-21.5919363993528,0.0 -47.9367164,-21.5924362993528,0.0 -47.9371093,-21.5928458993528,0.0 -47.9377332,-21.5931661993528,0.0 -47.938515,-21.5932848993528,0.0 -47.9392821,-21.5931766993528,0.0 -47.9401002,-21.5925663993528,0.0 -47.9416617,-21.5917145993528,0.0 -47.9426942,-21.5912135993528,0.0 -47.9434274,-21.5909354993528,0.0 -47.9440529,-21.5908297993528,0.0 -47.9448242,-21.5909296993528,0.0 -47.9453775,-21.5912606993528,0.0 -47.9459342,-21.5917620993528,0.0 -47.9461703,-21.5929222993528,0.0 -47.9460392,-21.5939470993528,0.0 -47.9455829,-21.5944094993528,0.0 -47.9444225,-21.5945909993527,0.0 -47.9428156,-21.5952158993527,0.0 -47.941984,-21.5956376993527,0.0 -47.9414309,-21.5963195993527,0.0 -47.9412148,-21.5971469993527,0.0 -47.9414405,-21.5977961993527,0.0 -47.9422669,-21.5981128993527,0.0 -47.9436072,-21.5983163993527,0.0 -47.9455141,-21.5978056993527,0.0 -47.9461579,-21.5978073993527,0.0 -47.9469607,-21.5979635993527,0.0 -47.9477365,-21.5982810993527,0.0 -47.9485231,-21.5986363993526,0.0 -47.9495177,-21.5987607993526,0.0 -47.950138,-21.5983994993527,0.0 -47.9504219,-21.5974288993527,0.0 -47.950683,-21.5965464993527,0.0 -47.9513788,-21.5956983993527,0.0 -47.9521692,-21.5952393993527,0.0 -47.953139,-21.5946446993528,0.0 -47.9533549,-21.5943095993527,0.0 -47.953136,-21.5934992993528,0.0 -47.9528942,-21.5925568993528,0.0 -47.9527965,-21.5917350993528,0.0 -47.9529833,-21.5909649993528,0.0 -47.9532538,-21.5908275993528,0.0 -47.9542721,-21.5906296993528,0.0 -47.9551815,-21.5905471993528,0.0 -47.9561973,-21.5907279993528,0.0 -47.9573078,-21.5915791993528,0.0 -47.9585454,-21.5932043993528,0.0 -47.959129,-21.5940270993528,0.0 -47.9598212,-21.5947152993527,0.0 -47.9604595,-21.5952434993527,0.0 -47.9611488,-21.5957897993527,0.0 -47.9617637,-21.5961574993527,0.0 -47.9620738,-21.5964737993527,0.0 -47.9625229,-21.5971568993527,0.0 -47.9629431,-21.5979067993527,0.0 -47.9634869,-21.5982662993527,0.0 -47.964246,-21.5982621993527,0.0 -47.9650205,-21.5975194993527,0.0 -47.9655938,-21.5968465993527,0.0 -47.9665949,-21.5962985993527,0.0 -47.9678214,-21.5955686993527,0.0 -47.9688738,-21.5948757993527,0.0 -47.9700787,-21.5943998993528,0.0 -47.9713681,-21.5940928993528,0.0 -47.972717,-21.5942201993527,0.0 -47.9735957,-21.5946209993527,0.0 -47.9742718,-21.5945900993528,0.0 -47.9749321,-21.5941803993528,0.0 -47.9760967,-21.5926239993528,0.0 -47.9769923,-21.5916277993528,0.0 -47.9776233,-21.5912753993528,0.0 -47.9782287,-21.5911507993528,0.0 -47.9788059,-21.5911404993528,0.0 -47.9793613,-21.5915426993528,0.0 -47.9798903,-21.5921443993528,0.0 -47.9804485,-21.5926886993528,0.0 -47.9810311,-21.5929340993528,0.0 -47.9817123,-21.5928081993528,0.0 -47.9823267,-21.5923849993528,0.0 -47.9827194,-21.5915251993528,0.0 -47.9823742,-21.5902521993529,0.0 -47.9816067,-21.5891632993529,0.0 -47.9810218,-21.5880307993529,0.0 -47.9813566,-21.5873141993529,0.0 -47.9818191,-21.5868936993529,0.0 -47.9824212,-21.5866128993529,0.0 -47.9831512,-21.5866423993529,0.0 -47.9838269,-21.5869855993529,0.0 -47.9844769,-21.5875566993529,0.0 -47.9847655,-21.5882905993529,0.0 -47.9846763,-21.5891306993529,0.0 -47.9844464,-21.5897743993529,0.0 -47.9836788,-21.5916216993528,0.0 -47.9834175,-21.5937014993528,0.0 -47.9836676,-21.5947771993527,0.0 -47.9841829,-21.5954500993527,0.0 -47.9851616,-21.5958747993527,0.0 -47.9859723,-21.5960006993527,0.0 -47.9886162,-21.5961752993527,0.0 -47.9895908,-21.5960778993527,0.0 -47.9902706,-21.5958808993527,0.0 -47.9907509,-21.5955879993527,0.0 -47.9909841,-21.5951004993527,0.0 -47.9909721,-21.5945179993527,0.0 -47.9907956,-21.5940663993528,0.0 -47.9903583,-21.5934914993528,0.0 -47.9895508,-21.5926532993528,0.0 -47.9889733,-21.5919103993528,0.0 -47.9885655,-21.5912922993528,0.0 -47.9879903,-21.5906630993528,0.0 -47.9878226,-21.5898985993529,0.0 -47.9882982,-21.5893783993529,0.0 -47.9892608,-21.5892615993529,0.0 -47.9899824,-21.5893033993529,0.0 -47.9911322,-21.5893700993529,0.0 -47.9916849,-21.5892748993529,0.0 -47.9921896,-21.5889960993529,0.0 -47.9923887,-21.5883951993529,0.0 -47.9921915,-21.5876738993529,0.0 -47.9917238,-21.5870995993529,0.0 -47.9908784,-21.5866315993529,0.0 -47.9902453,-21.586145499353,0.0 -47.989777,-21.585599999353,0.0 -47.9897362,-21.585031899353,0.0 -47.9901355,-21.584498799353,0.0 -47.9906625,-21.584261899353,0.0 -47.9912701,-21.584250999353,0.0 -47.9920182,-21.584422299353,0.0 -47.9926633,-21.584751799353,0.0 -47.993288,-21.584816899353,0.0 -47.9937681,-21.584532999353,0.0 -47.9939997,-21.583974499353,0.0 -47.9940906,-21.583219599353,0.0 -47.9937961,-21.582201599353,0.0 -47.9933083,-21.5813859993531,0.0 -47.992894,-21.5804553993531,0.0 -47.9931853,-21.5798389993531,0.0 -47.9936792,-21.5794747993531,0.0 -47.9945424,-21.5793312993531,0.0 -47.9952298,-21.5795036993531,0.0 -47.9961362,-21.5799848993531,0.0 -47.9978957,-21.5813033993531,0.0 -47.9986691,-21.581704299353,0.0 -47.9993329,-21.5817322993531,0.0 -47.9998905,-21.5815090993531,0.0 -48.0003176,-21.5808475993531,0.0 -48.00018,-21.5800683993531,0.0 -47.9993722,-21.5792158993531,0.0 -47.9975544,-21.5780121993532,0.0 -47.9960985,-21.5774129993532,0.0 -47.9950708,-21.5769482993532,0.0 -47.9935761,-21.5766766993532,0.0 -47.9924708,-21.5768671993532,0.0 -47.9905872,-21.5776400993532,0.0 -47.9895549,-21.5776870993532,0.0 -47.9891022,-21.5770981993532,0.0 -47.9889658,-21.5763757993532,0.0 -47.9890581,-21.5756919993532,0.0 -47.9896791,-21.5748564993532,0.0 -47.9906013,-21.5738875993532,0.0 -47.9912057,-21.5725877993533,0.0 -47.99161,-21.5704725993533,0.0 -47.9913209,-21.5682321993534,0.0 -47.9909407,-21.5672207993534,0.0 -47.9909643,-21.5656660993534,0.0 -47.9914983,-21.5650310993535,0.0 -47.992322,-21.5644477993535,0.0 -47.9930782,-21.5642778993535,0.0 -47.9938694,-21.5643346993535,0.0 -47.9947416,-21.5646316993535,0.0 -47.995928,-21.5654346993534,0.0 -47.9965143,-21.5666037993534,0.0 -47.9969875,-21.5674480993534,0.0 -47.9975167,-21.5680638993534,0.0 -47.9981077,-21.5684710993534,0.0 -47.9984681,-21.5685157993534,0.0 -47.9987543,-21.5683968993534,0.0 -47.9991151,-21.5682056993534,0.0 -47.9992862,-21.5676624993534,0.0 -47.9991346,-21.5669403993534,0.0 -47.9982525,-21.5660664993534,0.0 -47.9967356,-21.5644513993535,0.0 -47.9960051,-21.5634473993535,0.0 -47.9958469,-21.5631367993535,0.0 -47.9956444,-21.5627250993535,0.0 -47.9955556,-21.5621013993535,0.0 -47.9956646,-21.5614882993535,0.0 -47.996431,-21.5610764993536,0.0 -47.9971831,-21.5607076993536,0.0 -47.9983963,-21.5606004993536,0.0 -47.9995054,-21.5605947993536,0.0 -48.0005346,-21.5604056993536,0.0 -48.0015496,-21.5602594993536,0.0 -48.0023925,-21.5598747993536,0.0 -48.0032659,-21.5593773993536,0.0 -48.0036694,-21.5591525993536,0.0 -48.0045512,-21.5590906993536,0.0 -48.0050665,-21.5591765993536,0.0 -48.0067608,-21.5600989993536,0.0 -48.0078557,-21.5603495993536,0.0 -48.0088129,-21.5601463993536,0.0 -48.0091346,-21.5598888993536,0.0 -48.0094647,-21.5593114993536,0.0 -48.0098602,-21.5582021993536,0.0 -48.0100789,-21.5567868993536,0.0 -48.0099039,-21.5556184993537,0.0 -48.0096352,-21.5551266993537,0.0 -48.0090715,-21.5545523993537,0.0 -48.007185,-21.5532552993538,0.0 -48.0067362,-21.5527741993538,0.0 -48.0064886,-21.5522426993538,0.0 -48.0063832,-21.5516577993538,0.0 -48.0064659,-21.5511515993538,0.0 -48.007488,-21.5487396993538,0.0 -48.0072593,-21.5479119993539,0.0 -48.0061223,-21.5460821993539,0.0 -48.0058098,-21.5452973993539,0.0 -48.0058357,-21.5445282993539,0.0 -48.0060058,-21.544174599354,0.0 -48.0063546,-21.543798499354,0.0 -48.0070139,-21.543458699354,0.0 -48.0084734,-21.543135799354,0.0 -48.0118341,-21.543140799354,0.0 -48.0127764,-21.543036899354,0.0 -48.013687,-21.542789699354,0.0 -48.0143014,-21.542459899354,0.0 -48.0147212,-21.542049399354,0.0 -48.0150149,-21.541460799354,0.0 -48.015222,-21.540583999354,0.0 -48.0152478,-21.5398382993541,0.0 -48.0150983,-21.5391294993541,0.0 -48.0148422,-21.5384726993541,0.0 -48.0138098,-21.5366834993541,0.0 -48.0123002,-21.5352901993542,0.0 -48.0119824,-21.5348451993542,0.0 -48.0118248,-21.5344239993542,0.0 -48.01182,-21.5335557993542,0.0 -48.012026,-21.5331745993542,0.0 -48.0125861,-21.5327555993542,0.0 -48.0133912,-21.5324397993542,0.0 -48.0142287,-21.5323221993542,0.0 -48.0151299,-21.5323939993542,0.0 -48.0161579,-21.5327194993542,0.0 -48.0169254,-21.5331300993542,0.0 -48.0172938,-21.5334985993542,0.0 -48.0176925,-21.5346074993542,0.0 -48.0177141,-21.5352334993542,0.0 -48.0175804,-21.5358070993542,0.0 -48.0170772,-21.5369081993541,0.0 -48.0167642,-21.5378486993541,0.0 -48.0166685,-21.5384857993541,0.0 -48.0167419,-21.5389785993541,0.0 -48.0169581,-21.5393587993541,0.0 -48.0172817,-21.5396167993541,0.0 -48.0191545,-21.5398617993541,0.0 -48.0203537,-21.5397597993541,0.0 -48.0210984,-21.5394327993541,0.0 -48.0217682,-21.5389295993541,0.0 -48.0224227,-21.5382134993541,0.0 -48.0229343,-21.5378710993541,0.0 -48.0234782,-21.5377042993541,0.0 -48.024018,-21.5376614993541,0.0 -48.0247799,-21.5377389993541,0.0 -48.0255003,-21.5380048993541,0.0 -48.0272708,-21.5389045993541,0.0 -48.0276,-21.5389099993541,0.0 -48.027869,-21.5388053993541,0.0 -48.0281143,-21.5385010993541,0.0 -48.0282017,-21.5380651993541,0.0 -48.0280784,-21.5373033993541,0.0 -48.0272442,-21.5361392993541,0.0 -48.0270219,-21.5355304993542,0.0 -48.0267981,-21.5331944993542,0.0 -48.0262746,-21.5311913993543,0.0 -48.0262759,-21.5306192993543,0.0 -48.026405,-21.5300391993543,0.0 -48.0267576,-21.5294508993543,0.0 -48.0276963,-21.5287493993543,0.0 -48.0283924,-21.5284755993543,0.0 -48.0317991,-21.5278439993543,0.0 -48.032368,-21.5276564993544,0.0 -48.0329139,-21.5273250993544,0.0 -48.0330727,-21.5270311993544,0.0 -48.0331044,-21.5266130993544,0.0 -48.0330309,-21.5262146993544,0.0 -48.0328281,-21.5258340993544,0.0 -48.032346,-21.5251548993544,0.0 -48.0317132,-21.5244738993544,0.0 -48.0308102,-21.5239523993544,0.0 -48.028752,-21.5234985993545,0.0 -48.0282584,-21.5230752993545,0.0 -48.0280289,-21.5226424993545,0.0 -48.0279174,-21.5222984993545,0.0 -48.0279836,-21.5220039993545,0.0 -48.0282487,-21.5217120993545,0.0 -48.028877,-21.5213710993545,0.0 -48.0303347,-21.5208247993545,0.0 -48.0310938,-21.5203552993545,0.0 -48.0315763,-21.5197543993546,0.0 -48.0318472,-21.5191541993546,0.0 -48.0318354,-21.5185707993546,0.0 -48.0313052,-21.5174832993546,0.0 -48.0302113,-21.5164358993546,0.0 -48.0284847,-21.5152967993547,0.0 -48.0281658,-21.5148284993547,0.0 -48.0281044,-21.5144187993547,0.0 -48.0283103,-21.5135426993547,0.0 -48.028806,-21.5134191993547,0.0 -48.029284,-21.5135620993547,0.0 -48.0300182,-21.5139588993547,0.0 -48.0307783,-21.5146209993547,0.0 -48.0312177,-21.5148813993547,0.0 -48.0318256,-21.5150135993547,0.0 -48.0357102,-21.5153245993546,0.0 -48.0379454,-21.5156730993546,0.0 -48.0401877,-21.5162510993546,0.0 -48.0413057,-21.5162152993546,0.0 -48.0418234,-21.5160267993546,0.0 -48.0422279,-21.5156525993546,0.0 -48.0425787,-21.5151531993547,0.0 -48.0428236,-21.5145960993547,0.0 -48.0430916,-21.5135467993547,0.0 -48.0432444,-21.5123602993547,0.0 -48.0432388,-21.5114334993547,0.0 -48.0430701,-21.5100340993548,0.0 -48.0423672,-21.5088225993548,0.0 -48.0412679,-21.5075987993548,0.0 -48.0403452,-21.5067806993549,0.0 -48.0390467,-21.5059194993549,0.0 -48.0388643,-21.5057978993549,0.0 -48.0386353,-21.5053759993549,0.0 -48.0385563,-21.5050159993549,0.0 -48.0386583,-21.5046246993549,0.0 -48.0389232,-21.5043093993549,0.0 -48.0393353,-21.5040363993549,0.0 -48.0394027,-21.5039917993549,0.0 -48.0406911,-21.5034465993549,0.0 -48.0411289,-21.5033465993549,0.0 -48.0411629,-21.5033387993549,0.0 -48.0411921,-21.5033321993549,0.0 -48.041627,-21.5032327993549,0.0 -48.041976,-21.5031530993549,0.0 -48.0442264,-21.502352799355,0.0 -48.0454581,-21.501914799355,0.0 -48.0470626,-21.501652799355,0.0 -48.047178,-21.501633999355,0.0 -48.0500896,-21.501520499355,0.0 -48.0502915,-21.501447599355,0.0 -48.0504935,-21.501374699355,0.0 -48.0507914,-21.501148699355,0.0 -48.0509424,-21.500769399355,0.0 -48.0510934,-21.500390199355,0.0 -48.0511519,-21.500242999355,0.0 -48.051161,-21.500122699355,0.0 -48.051333,-21.500057099355,0.0 -48.0519956,-21.499563699355,0.0 -48.052262,-21.4985623993551,0.0 -48.052213,-21.4973767993551,0.0 -48.0516055,-21.4960486993551,0.0 -48.0510604,-21.4955505993551,0.0 -48.0502898,-21.4951887993551,0.0 -48.0495708,-21.4949302993551,0.0 -48.048328,-21.4949629993551,0.0 -48.0478045,-21.4950879993551,0.0 -48.047281,-21.4952129993551,0.0 -48.0453931,-21.4957492993551,0.0 -48.0448661,-21.4957524993551,0.0 -48.0446087,-21.4953770993551,0.0 -48.0444441,-21.4947244993552,0.0 -48.0444692,-21.4940866993552,0.0 -48.0446594,-21.4933782993552,0.0 -48.0450724,-21.4927244993552,0.0 -48.0457977,-21.4920143993552,0.0 -48.0468932,-21.4913182993552,0.0 -48.0467955,-21.4910609993552,0.0 -48.047343,-21.4907859993552,0.0 -48.04881,-21.4905679993552,0.0 -48.050628,-21.4904889993553,0.0 -48.05217,-21.4904279993553,0.0 -48.053435,-21.4903609993553,0.0 -48.05474,-21.4898579993553,0.0 -48.055355,-21.4892259993553,0.0 -48.055886,-21.4883479993553,0.0 -48.056146,-21.4872049993553,0.0 -48.05619,-21.4857699993554,0.0 -48.055802,-21.4846829993554,0.0 -48.055224,-21.4839349993554,0.0 -48.054726,-21.4831849993554,0.0 -48.054148,-21.4824719993554,0.0 -48.054159,-21.4819169993555,0.0 -48.054209,-21.4813639993555,0.0 -48.054456,-21.4809239993555,0.0 -48.054817,-21.4805969993555,0.0 -48.055297,-21.4803099993555,0.0 -48.056169,-21.4801769993555,0.0 -48.05712,-21.4800459993555,0.0 -48.057759,-21.4797239993555,0.0 -48.05812,-21.4793979993555,0.0 -48.058165,-21.4791399993555,0.0 -48.058293,-21.4786789993555,0.0 -48.058259,-21.4783819993555,0.0 -48.057918,-21.4776729993556,0.0 -48.057575,-21.4770389993556,0.0 -48.057221,-21.4761869993556,0.0 -48.057164,-21.4758849993556,0.0 -48.057218,-21.4754929993556,0.0 -48.057302,-21.4752719993556,0.0 -48.057494,-21.4751509993556,0.0 -48.058185,-21.4750499993556,0.0 -48.059153,-21.4750939993556,0.0 -48.060206,-21.4753049993556,0.0 -48.061944,-21.4759309993556,0.0 -48.063549,-21.4766259993556,0.0 -48.064562,-21.4772729993556,0.0 -48.065571,-21.4782149993555,0.0 -48.066307,-21.4788939993555,0.0 -48.06732,-21.4796149993555,0.0 -48.067933,-21.4797869993555,0.0 -48.068725,-21.4798559993555,0.0 -48.069176,-21.4796479993555,0.0 -48.069497,-21.4793939993555,0.0 -48.069822,-21.4789189993555,0.0 -48.070195,-21.4781109993555,0.0 -48.070212,-21.4772609993556,0.0 -48.06999,-21.4765169993556,0.0 -48.06986,-21.4750729993556,0.0 -48.0701093,-21.4745541993556,0.0 -48.0702528,-21.4744204993556,0.0 -48.071045,-21.4740292993556,0.0 -48.0715161,-21.4739829993556,0.0 -48.0720532,-21.4740486993556,0.0 -48.0723925,-21.4741820993556,0.0 -48.0727625,-21.4745099993556,0.0 -48.0729668,-21.4748536993556,0.0 -48.0730385,-21.4752754993556,0.0 -48.0729566,-21.4757951993556,0.0 -48.071802,-21.4778100993556,0.0 -48.0717646,-21.4784915993555,0.0 -48.0719573,-21.4788356993555,0.0 -48.0723148,-21.4791397993555,0.0 -48.072955,-21.4794484993555,0.0 -48.0736935,-21.4795014993555,0.0 -48.07427,-21.4792384993555,0.0 -48.0747972,-21.4787640993555,0.0 -48.0755794,-21.4778102993556,0.0 -48.0761138,-21.4768970993556,0.0 -48.0764826,-21.4754230993556,0.0 -48.0767129,-21.4722222993557,0.0 -48.0771017,-21.4709207993557,0.0 -48.0774152,-21.4704531993557,0.0 -48.0778564,-21.4701205993557,0.0 -48.0786938,-21.4697336993557,0.0 -48.0797797,-21.4694327993558,0.0 -48.0804962,-21.4693365993558,0.0 -48.0839713,-21.4694050993558,0.0 -48.0844883,-21.4692513993558,0.0 -48.0850397,-21.4687247993558,0.0 -48.0850953,-21.4677830993558,0.0 -48.0844967,-21.4665429993558,0.0 -48.0839568,-21.4659490993558,0.0 -48.082361,-21.4647998993559,0.0 -48.0819346,-21.4643628993559,0.0 -48.0815954,-21.4637499993559,0.0 -48.081466,-21.4631318993559,0.0 -48.0815004,-21.4625933993559,0.0 -48.0816981,-21.4620497993559,0.0 -48.0820824,-21.461572099356,0.0 -48.0825105,-21.461349699356,0.0 -48.0829709,-21.4612803993559,0.0 -48.0839992,-21.4614956993559,0.0 -48.0847146,-21.4614965993559,0.0 -48.0850281,-21.461288999356,0.0 -48.0859398,-21.460016699356,0.0 -48.0865379,-21.459433199356,0.0 -48.0873225,-21.459013699356,0.0 -48.0886471,-21.458488099356,0.0 -48.09112,-21.457883299356,0.0 -48.0932358,-21.4568232993561,0.0 -48.0960773,-21.4557427993561,0.0 -48.1022168,-21.4540178993561,0.0 -48.1030204,-21.4534819993561,0.0 -48.1033106,-21.4530864993561,0.0 -48.1035961,-21.4524235993562,0.0 -48.1036405,-21.4518007993562,0.0 -48.1032899,-21.4494115993562,0.0 -48.1037043,-21.4485426993563,0.0 -48.1042706,-21.4480029993563,0.0 -48.105069,-21.4475721993563,0.0 -48.1061504,-21.4471377993563,0.0 -48.1071731,-21.4465780993563,0.0 -48.107962,-21.4459984993563,0.0 -48.1086261,-21.4452812993563,0.0 -48.1090686,-21.4444583993564,0.0 -48.1093944,-21.4433217993564,0.0 -48.1094221,-21.4404051993565,0.0 -48.1089037,-21.4368352993565,0.0 -48.1087642,-21.4350976993566,0.0 -48.1088334,-21.4338810993566,0.0 -48.1087882,-21.4324147993566,0.0 -48.1089832,-21.4303542993567,0.0 -48.1089469,-21.4293381993567,0.0 -48.1077927,-21.4293543993567,0.0 -48.1073693,-21.4294898993567,0.0 -48.1065485,-21.4300251993567,0.0 -48.1058772,-21.4301779993567,0.0 -48.1043668,-21.4300530993567,0.0 -48.103959,-21.4298722993567,0.0 -48.1037169,-21.4295804993567,0.0 -48.1036005,-21.4288980993567,0.0 -48.1032945,-21.4285634993567,0.0 -48.1019558,-21.4273379993568,0.0 -48.1004265,-21.4261012993568,0.0 -48.0982003,-21.4247439993568,0.0 -48.0973904,-21.4243880993568,0.0 -48.095487,-21.4238830993569,0.0 -48.0925768,-21.4223532993569,0.0 -48.0916021,-21.4217261993569,0.0 -48.0886051,-21.419430299357,0.0 -48.0849217,-21.416064899357,0.0 -48.0827391,-21.4136590993571,0.0 -48.0821886,-21.4123775993571,0.0 -48.0796828,-21.4099476993572,0.0 -48.0784205,-21.4090135993572,0.0 -48.0775369,-21.4077617993572,0.0 -48.0771665,-21.4073735993573,0.0 -48.075229,-21.4058812993573,0.0 -48.074672,-21.4055504993573,0.0 -48.0737381,-21.4052323993573,0.0 -48.0726115,-21.4050253993573,0.0 -48.0718425,-21.4046861993573,0.0 -48.068124,-21.4022755993574,0.0 -48.0678568,-21.4019368993574,0.0 -48.0674331,-21.4011051993574,0.0 -48.0672677,-21.4004704993574,0.0 -48.0671309,-21.3991279993575,0.0 -48.0669968,-21.3989136993575,0.0 -48.0659923,-21.3984320993575,0.0 -48.0632727,-21.3967411993575,0.0 -48.0613698,-21.3963295993575,0.0 -48.0607932,-21.3962948993575,0.0 -48.0605113,-21.3963667993575,0.0 -48.0600475,-21.3969045993575,0.0 -48.0597366,-21.3970294993575,0.0 -48.0591896,-21.3970002993575,0.0 -48.0582797,-21.3967585993575,0.0 -48.0576721,-21.3964384993575,0.0 -48.0572589,-21.3960846993575,0.0 -48.0566161,-21.3952289993575,0.0 -48.0546871,-21.3939653993576,0.0 -48.0520187,-21.3905642993577,0.0 -48.0510429,-21.3894962993577,0.0 -48.0502238,-21.3888978993577,0.0 -48.0451581,-21.418275299357,0.0 -48.044557,-21.417820399357,0.0 -48.0443057,-21.417399499357,0.0 -48.0434294,-21.4151204993571,0.0 -48.0417455,-21.4120040993571,0.0 -48.0417216,-21.4105513993572,0.0 -48.0415704,-21.4102590993572,0.0 -48.0410841,-21.4100420993572,0.0 -48.0407804,-21.4094403993572,0.0 -48.0400578,-21.4086734993572,0.0 -48.0395438,-21.4075713993572,0.0 -48.0392868,-21.4061310993573,0.0 -48.0365685,-21.4003342993574,0.0 -48.03593,-21.3993769993574,0.0 -48.0346231,-21.3978400993575,0.0 -48.0341722,-21.3971791993575,0.0 -48.0336778,-21.3969025993575,0.0 -48.0333898,-21.3964380993575,0.0 -48.0332346,-21.3963399993575,0.0 -48.0327146,-21.3963115993575,0.0 -48.0321656,-21.3960483993575,0.0 -48.0310994,-21.3960663993575,0.0 -48.0304703,-21.3956824993575,0.0 -48.0299883,-21.3955511993575,0.0 -48.0297184,-21.3953778993575,0.0 -48.0287191,-21.3940398993576,0.0 -48.0280898,-21.3933779993576,0.0 -48.0276117,-21.3926305993576,0.0 -48.0264086,-21.3914859993576,0.0 -48.0258673,-21.3907722993576,0.0 -48.0253492,-21.3903203993577,0.0 -48.0221097,-21.3885403993577,0.0 -48.0205269,-21.3870781993577,0.0 -48.019131,-21.3865455993578,0.0 -48.0179408,-21.3850397993578,0.0 -48.017254,-21.3838028993578,0.0 -48.0167147,-21.3833491993578,0.0 -48.0157725,-21.3828623993578,0.0 -48.0154073,-21.3824940993579,0.0 -48.0152589,-21.3821343993579,0.0 -48.0152597,-21.3811458993579,0.0 -48.0153566,-21.3809459993579,0.0 -48.0271449,-21.3807768993579,0.0 -48.0288506,-21.3805736993579,0.0 -48.0299092,-21.3796954993579,0.0 -48.0303744,-21.376872099358,0.0 -48.0304663,-21.374304399358,0.0 -48.0306184,-21.3729755993581,0.0 -48.0306206,-21.3729564993581,0.0 -48.0306714,-21.3725125993581,0.0 -48.0311065,-21.3702133993581,0.0 -48.032294,-21.3661408993582,0.0 -48.031754,-21.3651259993583,0.0 -48.032186,-21.3628549993583,0.0 -48.032598,-21.3616199993584,0.0 -48.032737,-21.3602759993584,0.0 -48.032862,-21.3595009993584,0.0 -48.032822,-21.3584089993584,0.0 -48.032679,-21.3580109993584,0.0 -48.032564,-21.3577839993584,0.0 -48.032317,-21.3574299993585,0.0 -48.032034,-21.3571929993585,0.0 -48.031372,-21.3568159993585,0.0 -48.030885,-21.3564409993585,0.0 -48.03018,-21.3558309993585,0.0 -48.029592,-21.3553809993585,0.0 -48.029302,-21.3551149993585,0.0 -48.02913,-21.3549389993585,0.0 -48.028727,-21.3544019993585,0.0 -48.02842,-21.3537999993585,0.0 -48.028114,-21.3528379993586,0.0 -48.028022,-21.3522549993586,0.0 -48.028026,-21.3508359993586,0.0 -48.027938,-21.3492819993587,0.0 -48.027986,-21.3484459993587,0.0 -48.027979,-21.3480879993587,0.0 -48.027966,-21.3475049993587,0.0 -48.027864,-21.3470259993587,0.0 -48.02767,-21.3467609993587,0.0 -48.027583,-21.3467379993587,0.0 -48.027309,-21.3465019993587,0.0 -48.027202,-21.3462899993587,0.0 -48.027199,-21.3460729993587,0.0 -48.027104,-21.3455939993587,0.0 -48.026957,-21.3453529993587,0.0 -48.026467,-21.3447619993588,0.0 -48.026282,-21.3444749993588,0.0 -48.026182,-21.3442569993588,0.0 -48.026192,-21.3441609993588,0.0 -48.026137,-21.3441589993588,0.0 -48.025672,-21.3431199993588,0.0 -48.02519,-21.3421559993588,0.0 -48.025039,-21.3416749993588,0.0 -48.024948,-21.3410769993589,0.0 -48.025056,-21.3401009993589,0.0 -48.024877,-21.3394929993589,0.0 -48.024814,-21.3394169993589,0.0 -48.024502,-21.3387099993589,0.0 -48.024245,-21.3379879993589,0.0 -48.023821,-21.336546999359,0.0 -48.023681,-21.335947999359,0.0 -48.023654,-21.335708999359,0.0 -48.023448,-21.334882999359,0.0 -48.023148,-21.333922999359,0.0 -48.022946,-21.333337999359,0.0 -48.022785,-21.332975999359,0.0 -48.0227,-21.3328539993591,0.0 -48.022206,-21.3316659993591,0.0 -48.022067,-21.3314249993591,0.0 -48.021767,-21.3309419993591,0.0 -48.021386,-21.3304809993591,0.0 -48.020759,-21.3299299993591,0.0 -48.020401,-21.3295219993591,0.0 -48.019619,-21.3287469993592,0.0 -48.018988,-21.3280259993592,0.0 -48.018677,-21.3277229993592,0.0 -48.018034,-21.3271799993592,0.0 -48.017679,-21.3265839993592,0.0 -48.017546,-21.3264169993592,0.0 -48.017507,-21.3264169993592,0.0 -48.017295,-21.3262709993592,0.0 -48.016993,-21.3262219993592,0.0 -48.015655,-21.3261979993592,0.0 -48.015369,-21.3261409993592,0.0 -48.015053,-21.3259999993592,0.0 -48.013874,-21.3251949993592,0.0 -48.012362,-21.3239739993593,0.0 -48.010873,-21.3227149993593,0.0 -48.009493,-21.3216319993593,0.0 -48.009118,-21.3212809993593,0.0 -48.008862,-21.3209699993593,0.0 -48.008622,-21.3206309993593,0.0 -48.008375,-21.3201929993594,0.0 -48.007731,-21.3193449993594,0.0 -48.007056,-21.3182709993594,0.0 -48.007044,-21.3181579993594,0.0 -48.006412,-21.3164249993595,0.0 -48.006273,-21.3161769993595,0.0 -48.005957,-21.3157229993595,0.0 -48.005826,-21.3154429993595,0.0 -48.00573,-21.3150689993595,0.0 -48.005562,-21.3135139993595,0.0 -48.005461,-21.3130339993595,0.0 -48.005333,-21.3126729993595,0.0 -48.004821,-21.3115889993596,0.0 -48.004656,-21.3110929993596,0.0 -48.004587,-21.3109729993596,0.0 -48.004493,-21.3108739993596,0.0 -48.004115,-21.3107029993596,0.0 -48.003903,-21.3105499993596,0.0 -48.003724,-21.3103079993596,0.0 -48.003362,-21.3096519993596,0.0 -48.002805,-21.3088509993596,0.0 -48.002534,-21.3084959993596,0.0 -48.00233,-21.3083119993596,0.0 -48.002008,-21.3080969993597,0.0 -48.000642,-21.3074759993597,0.0 -48.0004031,-21.3071499993597,0.0 -47.9999105,-21.3069204993597,0.0 -47.9992154,-21.3066101993597,0.0 -47.9986438,-21.3063245993597,0.0 -47.9982761,-21.3061850993597,0.0 -47.998032,-21.3060780993597,0.0 -47.997537,-21.3058579993597,0.0 -47.9973861,-21.3057667993597,0.0 -47.997157,-21.3056739993597,0.0 -47.996322,-21.3054099993597,0.0 -47.995614,-21.3052509993597,0.0 -47.995233,-21.3051649993597,0.0 -47.995104,-21.3051049993597,0.0 -47.994994,-21.3050089993597,0.0 -47.994759,-21.3047769993597,0.0 -47.99466,-21.3046999993597,0.0 -47.993943,-21.3056489993597,0.0 -47.993825,-21.3058509993597,0.0 -47.993793,-21.3060069993597,0.0 -47.993779,-21.3065089993597,0.0 -47.993692,-21.3065909993597,0.0 -47.993614,-21.3065839993597,0.0 -47.993276,-21.3063049993597,0.0 -47.992958,-21.3063499993597,0.0 -47.99259,-21.3066799993597,0.0 -47.992438,-21.3069459993597,0.0 -47.992391,-21.3069469993597,0.0 -47.992346,-21.3069919993597,0.0 -47.992346,-21.3070509993597,0.0 -47.992285,-21.3071099993597,0.0 -47.992194,-21.3075559993597,0.0 -47.99219,-21.3078679993597,0.0 -47.992318,-21.3086789993596,0.0 -47.992314,-21.3089469993596,0.0 -47.992241,-21.3091789993596,0.0 -47.992145,-21.3092959993596,0.0 -47.992058,-21.3093519993596,0.0 -47.991951,-21.3093709993596,0.0 -47.991831,-21.3092669993596,0.0 -47.991813,-21.3088219993596,0.0 -47.991635,-21.3087369993596,0.0 -47.991556,-21.3087379993596,0.0 -47.991431,-21.3088119993596,0.0 -47.991414,-21.3089449993596,0.0 -47.991459,-21.3095279993596,0.0 -47.991415,-21.3097419993596,0.0 -47.99133,-21.3099129993596,0.0 -47.991195,-21.3100489993596,0.0 -47.99109,-21.3100949993596,0.0 -47.991011,-21.3100869993596,0.0 -47.99089,-21.3099299993596,0.0 -47.990867,-21.3097699993596,0.0 -47.990956,-21.3093409993596,0.0 -47.990944,-21.3092429993596,0.0 -47.990845,-21.3091649993596,0.0 -47.990756,-21.3091399993596,0.0 -47.990551,-21.3091529993596,0.0 -47.990219,-21.3094209993596,0.0 -47.990044,-21.3094859993596,0.0 -47.9896,-21.3093609993596,0.0 -47.989316,-21.3093379993596,0.0 -47.989154,-21.3093719993596,0.0 -47.9891476,-21.3093771993596,0.0 -47.988547,-21.3098639993596,0.0 -47.988385,-21.3100449993596,0.0 -47.98808,-21.3106779993596,0.0 -47.987951,-21.3111329993596,0.0 -47.987933,-21.3123909993595,0.0 -47.987845,-21.3126819993595,0.0 -47.987645,-21.3129699993595,0.0 -47.987577,-21.3130159993595,0.0 -47.98747,-21.3130179993595,0.0 -47.987142,-21.3127649993595,0.0 -47.986993,-21.3126879993595,0.0 -47.986835,-21.3126459993595,0.0 -47.986529,-21.3127359993595,0.0 -47.986039,-21.3132249993595,0.0 -47.985821,-21.3135939993595,0.0 -47.98544,-21.3139429993595,0.0 -47.984882,-21.3143449993595,0.0 -47.984648,-21.3144379993595,0.0 -47.984075,-21.3144439993595,0.0 -47.983909,-21.3144739993595,0.0 -47.983363,-21.3148169993595,0.0 -47.98309,-21.3148839993595,0.0 -47.982413,-21.3147799993595,0.0 -47.982202,-21.3147799993595,0.0 -47.981647,-21.3149229993595,0.0 -47.981293,-21.3151469993595,0.0 -47.981178,-21.3152559993595,0.0 -47.981085,-21.3154529993595,0.0 -47.981034,-21.3158629993595,0.0 -47.980987,-21.3159529993595,0.0 -47.980456,-21.3165459993594,0.0 -47.98041,-21.3166969993594,0.0 -47.980415,-21.3170169993594,0.0 -47.980486,-21.3170969993594,0.0 -47.981012,-21.3171889993594,0.0 -47.981062,-21.3172679993594,0.0 -47.981076,-21.3174559993594,0.0 -47.980972,-21.3176169993594,0.0 -47.980711,-21.3177989993594,0.0 -47.980458,-21.3179099993594,0.0 -47.980072,-21.3181929993594,0.0 -47.979933,-21.3183509993594,0.0 -47.979896,-21.3184849993594,0.0 -47.979942,-21.3188139993594,0.0 -47.980155,-21.3191649993594,0.0 -47.980157,-21.3192549993594,0.0 -47.979975,-21.3196629993594,0.0 -47.979913,-21.3200109993594,0.0 -47.979586,-21.3203279993594,0.0 -47.979547,-21.3205919993593,0.0 -47.979591,-21.3208309993593,0.0 -47.979756,-21.3212189993593,0.0 -47.979806,-21.3215429993593,0.0 -47.979779,-21.3216679993593,0.0 -47.979674,-21.3217869993593,0.0 -47.979529,-21.3218769993593,0.0 -47.979474,-21.3220919993593,0.0 -47.979488,-21.3222519993593,0.0 -47.97944,-21.3223239993593,0.0 -47.97892,-21.3224979993593,0.0 -47.978726,-21.3226069993593,0.0 -47.978611,-21.3227159993593,0.0 -47.978538,-21.3229929993593,0.0 -47.978577,-21.3235179993593,0.0 -47.978556,-21.3236729993593,0.0 -47.97849,-21.3238069993593,0.0 -47.978374,-21.3238809993593,0.0 -47.977838,-21.3240329993593,0.0 -47.977531,-21.3242879993593,0.0 -47.9772,-21.3246889993593,0.0 -47.976968,-21.3248539993592,0.0 -47.976527,-21.3247989993592,0.0 -47.976289,-21.3248519993592,0.0 -47.976115,-21.3250239993592,0.0 -47.976157,-21.3256639993592,0.0 -47.976129,-21.3257089993592,0.0 -47.976012,-21.3257379993592,0.0 -47.975705,-21.3255289993592,0.0 -47.975616,-21.3255309993592,0.0 -47.975416,-21.3256099993592,0.0 -47.975379,-21.3256919993592,0.0 -47.97537,-21.3261799993592,0.0 -47.975225,-21.3263259993592,0.0 -47.974952,-21.3264019993592,0.0 -47.974512,-21.3263559993592,0.0 -47.973975,-21.3262179993592,0.0 -47.973837,-21.3261499993592,0.0 -47.973657,-21.3259579993592,0.0 -47.973615,-21.3258599993592,0.0 -47.973587,-21.3251629993592,0.0 -47.973516,-21.3250569993592,0.0 -47.973397,-21.3249969993592,0.0 -47.973152,-21.3249469993592,0.0 -47.973014,-21.3249579993592,0.0 -47.972773,-21.3251499993592,0.0 -47.972692,-21.3254709993592,0.0 -47.972707,-21.3257209993592,0.0 -47.972641,-21.3258719993592,0.0 -47.972526,-21.3259819993592,0.0 -47.97216,-21.3260459993592,0.0 -47.971839,-21.3261589993592,0.0 -47.971527,-21.3261999993592,0.0 -47.970806,-21.3261279993592,0.0 -47.970808,-21.3260979993592,0.0 -47.969079,-21.3257469993592,0.0 -47.968699,-21.3256209993592,0.0 -47.96848,-21.3255959993592,0.0 -47.968105,-21.3256609993592,0.0 -47.967919,-21.3257229993592,0.0 -47.967732,-21.3258289993592,0.0 -47.967436,-21.3258779993592,0.0 -47.967301,-21.3255709993592,0.0 -47.967283,-21.3251439993592,0.0 -47.967242,-21.3250469993592,0.0 -47.967153,-21.3250129993592,0.0 -47.966977,-21.3250339993592,0.0 -47.966862,-21.3251599993592,0.0 -47.966736,-21.3256959993592,0.0 -47.966679,-21.3258039993592,0.0 -47.966468,-21.3259859993592,0.0 -47.966173,-21.3261499993592,0.0 -47.965629,-21.3266039993592,0.0 -47.965528,-21.3267489993592,0.0 -47.965466,-21.3280689993592,0.0 -47.96535,-21.3284219993592,0.0 -47.965114,-21.3288269993592,0.0 -47.965032,-21.3294019993591,0.0 -47.964956,-21.3295269993591,0.0 -47.964783,-21.3296639993591,0.0 -47.96427,-21.3299489993591,0.0 -47.963994,-21.3301449993591,0.0 -47.963938,-21.3302789993591,0.0 -47.963922,-21.3304829993591,0.0 -47.963954,-21.3306529993591,0.0 -47.964149,-21.3310319993591,0.0 -47.964141,-21.3311559993591,0.0 -47.963859,-21.3314949993591,0.0 -47.963813,-21.3316469993591,0.0 -47.963816,-21.3317989993591,0.0 -47.964185,-21.3321389993591,0.0 -47.964227,-21.3322619993591,0.0 -47.964238,-21.3325959993591,0.0 -47.964479,-21.333374999359,0.0 -47.964578,-21.334150999359,0.0 -47.964641,-21.334371999359,0.0 -47.964758,-21.334587999359,0.0 -47.964824,-21.334924999359,0.0 -47.964786,-21.335041999359,0.0 -47.964624,-21.335203999359,0.0 -47.964537,-21.335249999359,0.0 -47.964359,-21.335226999359,0.0 -47.963903,-21.334958999359,0.0 -47.963758,-21.335005999359,0.0 -47.963711,-21.335113999359,0.0 -47.963713,-21.335211999359,0.0 -47.963813,-21.335550999359,0.0 -47.963804,-21.335631999359,0.0 -47.963535,-21.335876999359,0.0 -47.963481,-21.336090999359,0.0 -47.963493,-21.336197999359,0.0 -47.963593,-21.336310999359,0.0 -47.963919,-21.336439999359,0.0 -47.964053,-21.336565999359,0.0 -47.964135,-21.336688999359,0.0 -47.964252,-21.337166999359,0.0 -47.964364,-21.3373869993589,0.0 -47.964641,-21.3377429993589,0.0 -47.964657,-21.3380719993589,0.0 -47.964569,-21.3381269993589,0.0 -47.964129,-21.3381439993589,0.0 -47.964062,-21.3382249993589,0.0 -47.964045,-21.3383319993589,0.0 -47.964257,-21.3386739993589,0.0 -47.96429,-21.3390519993589,0.0 -47.964386,-21.3394959993589,0.0 -47.96438,-21.3396289993589,0.0 -47.96424,-21.3397689993589,0.0 -47.964181,-21.3397699993589,0.0 -47.963923,-21.3395699993589,0.0 -47.963765,-21.3395369993589,0.0 -47.963678,-21.3395919993589,0.0 -47.963621,-21.3396819993589,0.0 -47.963622,-21.3397889993589,0.0 -47.963752,-21.3403209993589,0.0 -47.963715,-21.3404279993589,0.0 -47.96358,-21.3405549993589,0.0 -47.963363,-21.3404429993589,0.0 -47.963224,-21.3404189993589,0.0 -47.963132,-21.3404689993589,0.0 -47.963124,-21.3405499993589,0.0 -47.963374,-21.3408659993589,0.0 -47.963416,-21.3409809993589,0.0 -47.9634,-21.3410779993589,0.0 -47.963314,-21.3411549993589,0.0 -47.962724,-21.3411439993589,0.0 -47.96255,-21.3412089993588,0.0 -47.962501,-21.3412629993589,0.0 -47.962484,-21.3413879993588,0.0 -47.962537,-21.3415479993588,0.0 -47.962566,-21.3417919993588,0.0 -47.962509,-21.3419169993588,0.0 -47.962251,-21.3421709993588,0.0 -47.961666,-21.3423059993588,0.0 -47.961182,-21.3423369993588,0.0 -47.960828,-21.3422989993588,0.0 -47.960136,-21.3421329993588,0.0 -47.959977,-21.3420629993588,0.0 -47.959632,-21.3420389993588,0.0 -47.959477,-21.3420709993588,0.0 -47.959353,-21.3421319993588,0.0 -47.959184,-21.3422969993588,0.0 -47.959044,-21.3423439993588,0.0 -47.958887,-21.3423319993588,0.0 -47.958709,-21.3422429993588,0.0 -47.958591,-21.3422179993588,0.0 -47.958414,-21.3422299993588,0.0 -47.958298,-21.3423039993588,0.0 -47.95806,-21.3426019993588,0.0 -47.957952,-21.3426299993588,0.0 -47.957864,-21.3426039993588,0.0 -47.957739,-21.3425049993588,0.0 -47.957529,-21.3422599993588,0.0 -47.957352,-21.3422269993588,0.0 -47.957284,-21.3422729993588,0.0 -47.957142,-21.3424619993588,0.0 -47.956895,-21.3428939993588,0.0 -47.956659,-21.3431069993588,0.0 -47.9566411,-21.3431127993588,0.0 -47.956454,-21.3431729993588,0.0 -47.956416,-21.3431597993588,0.0 -47.956356,-21.3431389993588,0.0 -47.956026,-21.3428239993588,0.0 -47.955918,-21.3427899993588,0.0 -47.955766,-21.3428159993588,0.0 -47.955612,-21.3428809993588,0.0 -47.955505,-21.3429619993588,0.0 -47.955439,-21.3430709993588,0.0 -47.955384,-21.3432839993588,0.0 -47.955271,-21.3434919993588,0.0 -47.955156,-21.3435999993588,0.0 -47.955018,-21.3436469993588,0.0 -47.954901,-21.3436399993588,0.0 -47.954521,-21.3434549993588,0.0 -47.954451,-21.3434569993588,0.0 -47.954132,-21.3436309993588,0.0 -47.953957,-21.3436789993588,0.0 -47.953687,-21.3436619993588,0.0 -47.953528,-21.3435929993588,0.0 -47.953386,-21.3434791993588,0.0 -47.95317,-21.3433059993588,0.0 -47.953022,-21.3432279993588,0.0 -47.952894,-21.3432039993588,0.0 -47.952233,-21.3432379993588,0.0 -47.951696,-21.3433629993588,0.0 -47.951424,-21.3434559993588,0.0 -47.95115,-21.3434519993588,0.0 -47.950585,-21.3431149993588,0.0 -47.950447,-21.3430739993588,0.0 -47.94989,-21.3430859993588,0.0 -47.949824,-21.3431499993588,0.0 -47.949204,-21.3436199993588,0.0 -47.949189,-21.3436369993588,0.0 -47.949148,-21.3436859993588,0.0 -47.948787,-21.3440509993588,0.0 -47.948401,-21.3443209993588,0.0 -47.947994,-21.3443419993588,0.0 -47.947962,-21.3443139993588,0.0 -47.947711,-21.3442739993588,0.0 -47.947648,-21.3442319993588,0.0 -47.947302,-21.3441499993588,0.0 -47.946926,-21.3441559993588,0.0 -47.94677,-21.3442179993588,0.0 -47.946583,-21.3442499993588,0.0 -47.946242,-21.3444459993588,0.0 -47.945932,-21.3445689993588,0.0 -47.945174,-21.3444729993588,0.0 -47.945022,-21.3444529993588,0.0 -47.944754,-21.3445699993588,0.0 -47.94461,-21.3446959993588,0.0 -47.944498,-21.3449639993588,0.0 -47.944436,-21.3452859993588,0.0 -47.944359,-21.3453949993587,0.0 -47.944046,-21.3456259993587,0.0 -47.943998,-21.3457159993587,0.0 -47.943965,-21.3459839993587,0.0 -47.943971,-21.3463389993587,0.0 -47.944056,-21.3469119993587,0.0 -47.944138,-21.3470429993587,0.0 -47.944368,-21.3472889993587,0.0 -47.944636,-21.3474609993587,0.0 -47.944756,-21.3475929993587,0.0 -47.944837,-21.3477519993587,0.0 -47.944851,-21.3479209993587,0.0 -47.94479,-21.3480689993587,0.0 -47.944693,-21.3481239993587,0.0 -47.944526,-21.3481269993587,0.0 -47.94423,-21.3480159993587,0.0 -47.944162,-21.3480349993587,0.0 -47.943942,-21.3482879993587,0.0 -47.943877,-21.3484669993587,0.0 -47.943822,-21.3493709993586,0.0 -47.943644,-21.3499929993586,0.0 -47.943408,-21.3505389993586,0.0 -47.943361,-21.3508109993586,0.0 -47.943402,-21.3509169993586,0.0 -47.943663,-21.3512229993586,0.0 -47.943647,-21.3514289993586,0.0 -47.943267,-21.3518219993586,0.0 -47.943214,-21.3520899993586,0.0 -47.943275,-21.3521949993586,0.0 -47.94334,-21.3524879993586,0.0 -47.943254,-21.3528409993586,0.0 -47.943316,-21.3530619993586,0.0 -47.943418,-21.3532379993586,0.0 -47.943424,-21.3535409993586,0.0 -47.943319,-21.3536579993585,0.0 -47.943126,-21.3537949993585,0.0 -47.943035,-21.3539159993585,0.0 -47.943008,-21.3540059993585,0.0 -47.942912,-21.3541239993585,0.0 -47.942835,-21.3541689993585,0.0 -47.94247,-21.3540419993585,0.0 -47.942332,-21.3540449993585,0.0 -47.942236,-21.3540989993585,0.0 -47.942159,-21.3542079993585,0.0 -47.942179,-21.3549319993585,0.0 -47.942105,-21.3551479993585,0.0 -47.941996,-21.3551489993585,0.0 -47.94195,-21.3547939993585,0.0 -47.941871,-21.3547329993585,0.0 -47.941754,-21.3547529993585,0.0 -47.941725,-21.3547979993585,0.0 -47.941674,-21.3551999993585,0.0 -47.941607,-21.3552809993585,0.0 -47.941486,-21.3553059993585,0.0 -47.941425,-21.3552539993585,0.0 -47.941294,-21.3550329993585,0.0 -47.941176,-21.3550169993585,0.0 -47.941069,-21.3550729993585,0.0 -47.941004,-21.3552429993585,0.0 -47.941006,-21.3553399993585,0.0 -47.941179,-21.3556849993585,0.0 -47.941248,-21.3561459993585,0.0 -47.941309,-21.3562279993585,0.0 -47.941559,-21.3561949993585,0.0 -47.94159,-21.3561509993585,0.0 -47.941933,-21.3561159993585,0.0 -47.942075,-21.3561709993585,0.0 -47.942236,-21.3563449993585,0.0 -47.942207,-21.3565209993585,0.0 -47.941994,-21.3568039993585,0.0 -47.941143,-21.3573759993585,0.0 -47.940616,-21.3576199993585,0.0 -47.940022,-21.3576749993585,0.0 -47.939807,-21.3578839993584,0.0 -47.939858,-21.3581319993584,0.0 -47.940061,-21.3583809993584,0.0 -47.940103,-21.3585139993584,0.0 -47.940075,-21.3586209993584,0.0 -47.939989,-21.3586939993584,0.0 -47.939872,-21.3587299993584,0.0 -47.939369,-21.3585709993584,0.0 -47.939193,-21.3585919993584,0.0 -47.939107,-21.3586649993584,0.0 -47.939012,-21.3588529993584,0.0 -47.938833,-21.3589319993584,0.0 -47.938734,-21.3589249993584,0.0 -47.938506,-21.3587769993584,0.0 -47.938366,-21.3586379993584,0.0 -47.938198,-21.3585419993584,0.0 -47.93808,-21.3585179993584,0.0 -47.937281,-21.3585019993584,0.0 -47.937104,-21.3584509993584,0.0 -47.936563,-21.3581439993584,0.0 -47.93629,-21.3581309993584,0.0 -47.936202,-21.3581859993584,0.0 -47.935866,-21.3585659993584,0.0 -47.935513,-21.3587549993584,0.0 -47.935121,-21.3587889993584,0.0 -47.934428,-21.3586619993584,0.0 -47.933726,-21.3583819993584,0.0 -47.93358,-21.3583569993584,0.0 -47.933349,-21.3583659993584,0.0 -47.932988,-21.3584339993584,0.0 -47.932792,-21.3584189993584,0.0 -47.932623,-21.3583069993584,0.0 -47.932443,-21.3581229993584,0.0 -47.931489,-21.3574769993585,0.0 -47.931139,-21.3570909993585,0.0 -47.93096,-21.3569799993585,0.0 -47.930812,-21.3569369993585,0.0 -47.930306,-21.3569059993585,0.0 -47.930119,-21.3568639993585,0.0 -47.930041,-21.3568119993585,0.0 -47.929999,-21.3567329993585,0.0 -47.929997,-21.3566259993585,0.0 -47.930099,-21.3563669993585,0.0 -47.930076,-21.3561349993585,0.0 -47.929987,-21.3560839993585,0.0 -47.929879,-21.3561299993585,0.0 -47.929656,-21.3564409993585,0.0 -47.92954,-21.3565409993585,0.0 -47.929423,-21.3565429993585,0.0 -47.929196,-21.3564579993585,0.0 -47.928813,-21.3564649993585,0.0 -47.928391,-21.3566279993585,0.0 -47.927891,-21.3566099993585,0.0 -47.927745,-21.3566479993585,0.0 -47.927479,-21.3568619993585,0.0 -47.927294,-21.3569449993585,0.0 -47.927128,-21.3569659993585,0.0 -47.92701,-21.3569149993585,0.0 -47.92689,-21.3567929993585,0.0 -47.926804,-21.3564469993585,0.0 -47.926735,-21.3563409993585,0.0 -47.926621,-21.3562849993585,0.0 -47.926395,-21.3562889993585,0.0 -47.926308,-21.3563179993585,0.0 -47.926192,-21.3564079993585,0.0 -47.926,-21.3566419993585,0.0 -47.92571,-21.3568339993585,0.0 -47.92556,-21.3568939993585,0.0 -47.925254,-21.3568289993585,0.0 -47.92502,-21.3568329993585,0.0 -47.92465,-21.3569639993585,0.0 -47.924284,-21.3570279993585,0.0 -47.924178,-21.3571009993585,0.0 -47.924007,-21.3573529993585,0.0 -47.923891,-21.3574529993585,0.0 -47.923803,-21.3574729993585,0.0 -47.923733,-21.3574549993585,0.0 -47.923673,-21.3573769993585,0.0 -47.923662,-21.3570439993585,0.0 -47.923593,-21.3569909993585,0.0 -47.923514,-21.3569759993585,0.0 -47.923397,-21.3570129993585,0.0 -47.923226,-21.3573089993585,0.0 -47.923139,-21.3573549993585,0.0 -47.92307,-21.3573479993585,0.0 -47.92298,-21.3572689993585,0.0 -47.922897,-21.3570119993585,0.0 -47.92268,-21.3569099993585,0.0 -47.922527,-21.3569079993585,0.0 -47.922338,-21.3567519993585,0.0 -47.922163,-21.3563179993585,0.0 -47.922043,-21.3562219993585,0.0 -47.921925,-21.3561709993585,0.0 -47.921827,-21.3561729993585,0.0 -47.921711,-21.3562279993585,0.0 -47.921689,-21.3563659993585,0.0 -47.921949,-21.3566459993585,0.0 -47.92198,-21.3567349993585,0.0 -47.921953,-21.3568429993585,0.0 -47.921875,-21.3568869993585,0.0 -47.921777,-21.3568719993585,0.0 -47.921271,-21.3565609993585,0.0 -47.920996,-21.3565379993585,0.0 -47.920626,-21.3566069993585,0.0 -47.920473,-21.3565789993585,0.0 -47.920185,-21.3563519993585,0.0 -47.919989,-21.3563739993585,0.0 -47.919875,-21.3565439993585,0.0 -47.919808,-21.3570969993585,0.0 -47.919743,-21.3572849993585,0.0 -47.919638,-21.3574559993585,0.0 -47.919572,-21.3577989993585,0.0 -47.919486,-21.3579169993584,0.0 -47.919194,-21.3580549993584,0.0 -47.918833,-21.3581059993584,0.0 -47.918635,-21.3579929993584,0.0 -47.91857,-21.3578829993585,0.0 -47.918481,-21.3578749993585,0.0 -47.918394,-21.3579119993584,0.0 -47.918337,-21.3580209993584,0.0 -47.91832,-21.3581369993584,0.0 -47.918342,-21.3582329993584,0.0 -47.918642,-21.3585219993584,0.0 -47.918704,-21.3586979993584,0.0 -47.918419,-21.3591669993584,0.0 -47.918337,-21.3592249993584,0.0 -47.9182,-21.3592559993584,0.0 -47.918112,-21.3592299993584,0.0 -47.917972,-21.3591169993584,0.0 -47.917964,-21.3587159993584,0.0 -47.917891,-21.3585049993584,0.0 -47.917802,-21.3584259993584,0.0 -47.917712,-21.3584009993584,0.0 -47.917596,-21.3584109993584,0.0 -47.917488,-21.3584669993584,0.0 -47.917234,-21.3586799993584,0.0 -47.917127,-21.3587179993584,0.0 -47.916742,-21.3586439993584,0.0 -47.916636,-21.3586909993584,0.0 -47.916391,-21.3587029993584,0.0 -47.91609,-21.3585969993584,0.0 -47.915786,-21.3585759993584,0.0 -47.915759,-21.3587099993584,0.0 -47.916098,-21.3589979993584,0.0 -47.916129,-21.3591039993584,0.0 -47.916092,-21.3591679993584,0.0 -47.916004,-21.3592129993584,0.0 -47.915632,-21.3591839993584,0.0 -47.915485,-21.3592309993584,0.0 -47.915311,-21.3595679993584,0.0 -47.915165,-21.3596759993584,0.0 -47.915068,-21.3596519993584,0.0 -47.914889,-21.3595469993584,0.0 -47.914782,-21.3595489993584,0.0 -47.91438,-21.3600909993584,0.0 -47.914229,-21.3601069993584,0.0 -47.914234,-21.3598659993584,0.0 -47.914372,-21.3594289993584,0.0 -47.914371,-21.3593299993584,0.0 -47.914329,-21.3592599993584,0.0 -47.91426,-21.3592249993584,0.0 -47.914084,-21.3592289993584,0.0 -47.913952,-21.3594609993584,0.0 -47.913927,-21.3596759993584,0.0 -47.913673,-21.3602669993584,0.0 -47.913586,-21.3603139993584,0.0 -47.913499,-21.3603059993584,0.0 -47.913428,-21.3602359993584,0.0 -47.913376,-21.3600679993584,0.0 -47.913279,-21.3599319993584,0.0 -47.913221,-21.3598979993584,0.0 -47.913152,-21.3598989993584,0.0 -47.913075,-21.3599439993584,0.0 -47.913046,-21.3599979993584,0.0 -47.91305,-21.3602029993584,0.0 -47.912995,-21.3603909993584,0.0 -47.912765,-21.3606529993584,0.0 -47.912709,-21.3608139993584,0.0 -47.912684,-21.3610189993584,0.0 -47.912619,-21.3611709993584,0.0 -47.912509,-21.3612929993584,0.0 -47.912198,-21.3614579993584,0.0 -47.912065,-21.3616829993584,0.0 -47.911941,-21.3618189993583,0.0 -47.911824,-21.3618219993584,0.0 -47.911715,-21.3617869993583,0.0 -47.911546,-21.3614299993584,0.0 -47.91134,-21.3614069993584,0.0 -47.911282,-21.3614439993584,0.0 -47.911196,-21.3615789993584,0.0 -47.911131,-21.3617759993584,0.0 -47.910969,-21.3619649993583,0.0 -47.910708,-21.3621199993583,0.0 -47.910504,-21.3624489993583,0.0 -47.910184,-21.3626769993583,0.0 -47.910052,-21.3629369993583,0.0 -47.910074,-21.3630349993583,0.0 -47.910276,-21.3633509993583,0.0 -47.910266,-21.3635599993583,0.0 -47.909997,-21.3638579993583,0.0 -47.909979,-21.3639389993583,0.0 -47.91,-21.3640269993583,0.0 -47.91012,-21.3641229993583,0.0 -47.910564,-21.3642229993583,0.0 -47.910683,-21.3643359993583,0.0 -47.910702,-21.3645529993583,0.0 -47.910479,-21.3646899993583,0.0 -47.910244,-21.3647039993583,0.0 -47.909232,-21.3643169993583,0.0 -47.908939,-21.3643309993583,0.0 -47.908793,-21.3644129993583,0.0 -47.908437,-21.3647049993583,0.0 -47.908024,-21.3648939993583,0.0 -47.907764,-21.3651479993583,0.0 -47.907698,-21.3652639993583,0.0 -47.907681,-21.3654339993583,0.0 -47.907721,-21.3659399993583,0.0 -47.907671,-21.3661319993583,0.0 -47.907547,-21.3663469993582,0.0 -47.907345,-21.3665369993582,0.0 -47.906749,-21.3665749993582,0.0 -47.906491,-21.3666639993582,0.0 -47.905919,-21.3670119993582,0.0 -47.905671,-21.3673269993582,0.0 -47.905726,-21.3676629993582,0.0 -47.905991,-21.3680569993582,0.0 -47.906386,-21.3682279993582,0.0 -47.906487,-21.3684049993582,0.0 -47.906454,-21.3687169993582,0.0 -47.906309,-21.3690609993582,0.0 -47.906341,-21.3692029993582,0.0 -47.906594,-21.3695379993582,0.0 -47.906646,-21.3699489993582,0.0 -47.906726,-21.3700459993582,0.0 -47.906965,-21.3702109993582,0.0 -47.907054,-21.3703079993581,0.0 -47.907087,-21.3704579993581,0.0 -47.907061,-21.3706359993581,0.0 -47.906985,-21.3707529993581,0.0 -47.906821,-21.3708889993581,0.0 -47.906399,-21.3710609993581,0.0 -47.906225,-21.3711979993581,0.0 -47.906005,-21.3715219993581,0.0 -47.905751,-21.3720509993581,0.0 -47.90545,-21.3724069993581,0.0 -47.905256,-21.3725709993581,0.0 -47.904695,-21.3728649993581,0.0 -47.904397,-21.3729459993581,0.0 -47.903713,-21.3730119993581,0.0 -47.903504,-21.3730819993581,0.0 -47.903213,-21.3732369993581,0.0 -47.902772,-21.3735839993581,0.0 -47.902307,-21.3740869993581,0.0 -47.901767,-21.374522999358,0.0 -47.901209,-21.374820999358,0.0 -47.900299,-21.375161999358,0.0 -47.900183,-21.375242999358,0.0 -47.900069,-21.375405999358,0.0 -47.89999,-21.375860999358,0.0 -47.899895,-21.376004999358,0.0 -47.899426,-21.376375999358,0.0 -47.899302,-21.376545999358,0.0 -47.899285,-21.376741999358,0.0 -47.899497,-21.376978999358,0.0 -47.899527,-21.377059999358,0.0 -47.899433,-21.377238999358,0.0 -47.89904,-21.377435999358,0.0 -47.898542,-21.377498999358,0.0 -47.898269,-21.377572999358,0.0 -47.897991,-21.377719399358,0.0 -47.8977344,-21.377824499358,0.0 -47.8974712,-21.377996799358,0.0 -47.8971078,-21.3783384993579,0.0 -47.896672,-21.3786059993579,0.0 -47.8959759,-21.3790625993579,0.0 -47.895768,-21.3792219993579,0.0 -47.895615,-21.3792999993579,0.0 -47.895429,-21.3794049993579,0.0 -47.895183,-21.3796139993579,0.0 -47.895153,-21.3797029993579,0.0 -47.895,-21.3799109993579,0.0 -47.894949,-21.3804009993579,0.0 -47.895107,-21.3807219993579,0.0 -47.895242,-21.3808839993579,0.0 -47.895521,-21.3810839993579,0.0 -47.895651,-21.3812149993579,0.0 -47.895896,-21.3816909993579,0.0 -47.896141,-21.3819939993579,0.0 -47.896649,-21.3823679993579,0.0 -47.897012,-21.3828509993578,0.0 -47.897366,-21.3832139993578,0.0 -47.897862,-21.3834529993578,0.0 -47.898185,-21.3837189993578,0.0 -47.899106,-21.3848089993578,0.0 -47.899123,-21.3848289993578,0.0 -47.899289,-21.3852669993578,0.0 -47.899334,-21.3859409993578,0.0 -47.899208,-21.3867359993578,0.0 -47.898998,-21.3871789993577,0.0 -47.898646,-21.3876259993577,0.0 -47.898404,-21.3880119993577,0.0 -47.898344,-21.3881879993577,0.0 -47.898319,-21.3885119993577,0.0 -47.898247,-21.3888059993577,0.0 -47.897809,-21.3896939993577,0.0 -47.897727,-21.3902239993577,0.0 -47.897705,-21.3907679993576,0.0 -47.897738,-21.3908409993576,0.0 -47.897846,-21.3915139993576,0.0 -47.897895,-21.3924519993576,0.0 -47.8976198,-21.3927191993576,0.0 -47.89707,-21.3932678993576,0.0 -47.8970441,-21.3934433993576,0.0 -47.8970929,-21.3936583993576,0.0 -47.897468,-21.3946309993576,0.0 -47.897513,-21.3953059993575,0.0 -47.897428,-21.3957759993575,0.0 -47.89722,-21.3963079993575,0.0 -47.897163,-21.3966019993575,0.0 -47.897082,-21.3973379993575,0.0 -47.896964,-21.3976329993575,0.0 -47.896767,-21.3987809993575,0.0 -47.896619,-21.3992239993574,0.0 -47.896562,-21.3995179993574,0.0 -47.896384,-21.4000209993574,0.0 -47.8963844,-21.4006275993574,0.0 -47.896443,-21.4014869993574,0.0 -47.896749,-21.4026559993574,0.0 -47.897532,-21.4042269993573,0.0 -47.897795,-21.4048389993573,0.0 -47.897934,-21.4055039993573,0.0 -47.898179,-21.4060069993573,0.0 -47.898294,-21.4063269993573,0.0 -47.898471,-21.4073219993573,0.0 -47.898705,-21.4080519993572,0.0 -47.898914,-21.4083409993572,0.0 -47.89927,-21.4088949993572,0.0 -47.899289,-21.4090679993572,0.0 -47.899201,-21.4093629993572,0.0 -47.898818,-21.4098689993572,0.0 -47.898637,-21.4101649993572,0.0 -47.898501,-21.4104609993572,0.0 -47.898385,-21.4109029993572,0.0 -47.897862,-21.4122039993571,0.0 -47.897689,-21.4129409993571,0.0 -47.89765,-21.4133819993571,0.0 -47.8975787,-21.4137051993571,0.0 -47.897507,-21.4140299993571,0.0 -47.8973252,-21.4144781993571,0.0 -47.896908,-21.4155069993571,0.0 -47.896821,-21.415831999357,0.0 -47.89673,-21.416009999357,0.0 -47.896554,-21.416599999357,0.0 -47.896484,-21.417041999357,0.0 -47.896511,-21.417627999357,0.0 -47.896605,-21.418359999357,0.0 -47.896812,-21.419324999357,0.0 -47.89701,-21.4206709993569,0.0 -47.897001,-21.4209939993569,0.0 -47.897187,-21.4224589993569,0.0 -47.89734,-21.4231019993569,0.0 -47.897406,-21.4232469993569,0.0 -47.897478,-21.4236859993569,0.0 -47.897699,-21.4245629993568,0.0 -47.897889,-21.4254989993568,0.0 -47.898001,-21.4263769993568,0.0 -47.898013,-21.4269929993568,0.0 -47.897945,-21.4275809993568,0.0 -47.897857,-21.4278039993568,0.0 -47.897843,-21.4279349993568,0.0 -47.897639,-21.4286719993567,0.0 -47.897045,-21.4303559993567,0.0 -47.896988,-21.4306509993567,0.0 -47.896991,-21.4307959993567,0.0 -47.896875,-21.4312389993567,0.0 -47.896724,-21.4323269993567,0.0 -47.896627,-21.4338259993566,0.0 -47.896571,-21.4341499993566,0.0 -47.896593,-21.4344429993566,0.0 -47.896535,-21.4355009993566,0.0 -47.89635,-21.4364429993566,0.0 -47.896048,-21.4370199993565,0.0 -47.8955,-21.4378659993565,0.0 -47.894957,-21.4389319993565,0.0 -47.89485,-21.4390809993565,0.0 -47.894639,-21.4395249993565,0.0 -47.894577,-21.4396009993565,0.0 -47.894836,-21.4399329993565,0.0 -47.895298,-21.4402919993565,0.0 -47.896042,-21.4407049993565,0.0 -47.8962781,-21.4408758993564,0.0 -47.896535,-21.4410619993564,0.0 -47.897015,-21.4415229993564,0.0 -47.897208,-21.4417549993564,0.0 -47.897467,-21.4421759993564,0.0 -47.897599,-21.4425549993564,0.0 -47.897894,-21.4431809993564,0.0 -47.897943,-21.4432539993564,0.0 -47.89812,-21.4435299993564,0.0 -47.89871,-21.4440759993564,0.0 -47.8988513,-21.4441741993564,0.0 -47.8996103,-21.4447982993563,0.0 -47.8997937,-21.4452065993563,0.0 -47.8999925,-21.4465665993563,0.0 -47.9001875,-21.4483612993563,0.0 -47.9004126,-21.4497645993562,0.0 -47.9005281,-21.4509991993562,0.0 -47.9007269,-21.4548379993561,0.0 -47.9008047,-21.4564659993561,0.0 -47.9012629,-21.457887499356,0.0 -47.9021062,-21.459196099356,0.0 -47.9023799,-21.460109099356,0.0 -47.9023547,-21.460667599356,0.0 -47.9014261,-21.4632969993559,0.0 -47.8987964,-21.4680213993558,0.0 -47.8971754,-21.4706255993557,0.0 -47.8955578,-21.4729636993557,0.0 -47.8946767,-21.4750758993556,0.0 -47.8944715,-21.4758013993556,0.0 -47.8941884,-21.4779064993556,0.0 -47.8938504,-21.4799548993555,0.0 -47.8936583,-21.4817633993555,0.0 -47.8931559,-21.4832360993554,0.0 -47.8922077,-21.4844322993554,0.0 -47.891729,-21.4857918993554,0.0 -47.8908578,-21.4891320993553,0.0 -47.8905274,-21.4908576993552,0.0 -47.8898535,-21.4921058993552,0.0</coordinates>
</LinearRing>
</outerBoundaryIs>
</Polygon>
</MultiGeometry>
</Placemark>
</Folder>
</Document></kml>
