<?xml version='1.0' encoding='UTF-8'?>
<kml xmlns:xsd="http://www.w3.org/2001/XMLSchema" xmlns:gx="http://www.google.com/kml/ext/2.2" xmlns:atom="http://www.w3.org/2005/Atom" xmlns="http://www.opengis.net/kml/2.2">
<Document>
<name>itarare_3523206_localidades_2022</name>
<visibility>1</visibility>
<Schema name="Lugarejos" id="kml_schema_ft_Lugarejos">
<SimpleField type="xsd:string" name="CD_UF">
<displayName>CD_UF</displayName>
</SimpleField>
<SimpleField type="xsd:string" name="NM_UF">
<displayName>NM_UF</displayName>
</SimpleField>
<SimpleField type="xsd:string" name="SIGLA_UF">
<displayName>SIGLA_UF</displayName>
</SimpleField>
<SimpleField type="xsd:string" name="CD_MUN">
<displayName>CD_MUN</displayName>
</SimpleField>
<SimpleField type="xsd:string" name="NM_MUN">
<displayName>NM_MUN</displayName>
</SimpleField>
<SimpleField type="xsd:string" name="CD_RGINT">
<displayName>CD_RGINT</displayName>
</SimpleField>
<SimpleField type="xsd:string" name="NM_RGINT">
<displayName>NM_RGINT</displayName>
</SimpleField>
<SimpleField type="xsd:string" name="CD_RGI">
<displayName>CD_RGI</displayName>
</SimpleField>
<SimpleField type="xsd:string" name="NM_RGI">
<displayName>NM_RGI</displayName>
</SimpleField>
<SimpleField type="xsd:string" name="CT_LOCALIDADE">
<displayName>CT_LOCALIDADE</displayName>
</SimpleField>
<SimpleField type="xsd:string" name="CD_LOCALIDADE">
<displayName>CD_LOCALIDADE</displayName>
</SimpleField>
<SimpleField type="xsd:string" name="NM_LOCALIDADE">
<displayName>NM_LOCALIDADE</displayName>
</SimpleField>
<SimpleField type="xsd:string" name="LAT_LOCALIDADE">
<displayName>LAT_LOCALIDADE</displayName>
</SimpleField>
<SimpleField type="xsd:string" name="LONG_LOCALIDADE">
<displayName>LONG_LOCALIDADE</displayName>
</SimpleField>
</Schema>
<Schema name="Vilas" id="kml_schema_ft_Vilas">
<SimpleField type="xsd:string" name="CD_UF">
<displayName>CD_UF</displayName>
</SimpleField>
<SimpleField type="xsd:string" name="NM_UF">
<displayName>NM_UF</displayName>
</SimpleField>
<SimpleField type="xsd:string" name="SIGLA_UF">
<displayName>SIGLA_UF</displayName>
</SimpleField>
<SimpleField type="xsd:string" name="CD_MUN">
<displayName>CD_MUN</displayName>
</SimpleField>
<SimpleField type="xsd:string" name="NM_MUN">
<displayName>NM_MUN</displayName>
</SimpleField>
<SimpleField type="xsd:string" name="CD_RGINT">
<displayName>CD_RGINT</displayName>
</SimpleField>
<SimpleField type="xsd:string" name="NM_RGINT">
<displayName>NM_RGINT</displayName>
</SimpleField>
<SimpleField type="xsd:string" name="CD_RGI">
<displayName>CD_RGI</displayName>
</SimpleField>
<SimpleField type="xsd:string" name="NM_RGI">
<displayName>NM_RGI</displayName>
</SimpleField>
<SimpleField type="xsd:string" name="CT_LOCALIDADE">
<displayName>CT_LOCALIDADE</displayName>
</SimpleField>
<SimpleField type="xsd:string" name="CD_LOCALIDADE">
<displayName>CD_LOCALIDADE</displayName>
</SimpleField>
<SimpleField type="xsd:string" name="NM_LOCALIDADE">
<displayName>NM_LOCALIDADE</displayName>
</SimpleField>
<SimpleField type="xsd:string" name="LAT_LOCALIDADE">
<displayName>LAT_LOCALIDADE</displayName>
</SimpleField>
<SimpleField type="xsd:string" name="LONG_LOCALIDADE">
<displayName>LONG_LOCALIDADE</displayName>
</SimpleField>
</Schema>
<Schema name="Agrupamentos Quilombolas" id="kml_schema_ft_Agrupamentos_Quilombolas">
<SimpleField type="xsd:string" name="CD_UF">
<displayName>CD_UF</displayName>
</SimpleField>
<SimpleField type="xsd:string" name="NM_UF">
<displayName>NM_UF</displayName>
</SimpleField>
<SimpleField type="xsd:string" name="SIGLA_UF">
<displayName>SIGLA_UF</displayName>
</SimpleField>
<SimpleField type="xsd:string" name="CD_MUN">
<displayName>CD_MUN</displayName>
</SimpleField>
<SimpleField type="xsd:string" name="NM_MUN">
<displayName>NM_MUN</displayName>
</SimpleField>
<SimpleField type="xsd:string" name="CD_RGINT">
<displayName>CD_RGINT</displayName>
</SimpleField>
<SimpleField type="xsd:string" name="NM_RGINT">
<displayName>NM_RGINT</displayName>
</SimpleField>
<SimpleField type="xsd:string" name="CD_RGI">
<displayName>CD_RGI</displayName>
</SimpleField>
<SimpleField type="xsd:string" name="NM_RGI">
<displayName>NM_RGI</displayName>
</SimpleField>
<SimpleField type="xsd:string" name="CT_LOCALIDADE">
<displayName>CT_LOCALIDADE</displayName>
</SimpleField>
<SimpleField type="xsd:string" name="SCT_LOCALIDADE">
<displayName>SCT_LOCALIDADE</displayName>
</SimpleField>
<SimpleField type="xsd:string" name="CD_LOCALIDADE">
<displayName>CD_LOCALIDADE</displayName>
</SimpleField>
<SimpleField type="xsd:string" name="NM_LOCALIDADE">
<displayName>NM_LOCALIDADE</displayName>
</SimpleField>
<SimpleField type="xsd:string" name="LAT_LOCALIDADE">
<displayName>LAT_LOCALIDADE</displayName>
</SimpleField>
<SimpleField type="xsd:string" name="LONG_LOCALIDADE">
<displayName>LONG_LOCALIDADE</displayName>
</SimpleField>
</Schema>
<Schema name="Localidades" id="kml_schema_ft_Localidades">
<SimpleField type="xsd:string" name="CD_UF">
<displayName>CD_UF</displayName>
</SimpleField>
<SimpleField type="xsd:string" name="NM_UF">
<displayName>NM_UF</displayName>
</SimpleField>
<SimpleField type="xsd:string" name="SIGLA_UF">
<displayName>SIGLA_UF</displayName>
</SimpleField>
<SimpleField type="xsd:string" name="CD_MUN">
<displayName>CD_MUN</displayName>
</SimpleField>
<SimpleField type="xsd:string" name="NM_MUN">
<displayName>NM_MUN</displayName>
</SimpleField>
<SimpleField type="xsd:string" name="CD_RGINT">
<displayName>CD_RGINT</displayName>
</SimpleField>
<SimpleField type="xsd:string" name="NM_RGINT">
<displayName>NM_RGINT</displayName>
</SimpleField>
<SimpleField type="xsd:string" name="CD_RGI">
<displayName>CD_RGI</displayName>
</SimpleField>
<SimpleField type="xsd:string" name="NM_RGI">
<displayName>NM_RGI</displayName>
</SimpleField>
<SimpleField type="xsd:string" name="CT_LOCALIDADE">
<displayName>CT_LOCALIDADE</displayName>
</SimpleField>
<SimpleField type="xsd:string" name="SCT_LOCALIDADE">
<displayName>SCT_LOCALIDADE</displayName>
</SimpleField>
<SimpleField type="xsd:string" name="CD_LOCALIDADE">
<displayName>CD_LOCALIDADE</displayName>
</SimpleField>
<SimpleField type="xsd:string" name="NM_LOCALIDADE">
<displayName>NM_LOCALIDADE</displayName>
</SimpleField>
</Schema>
<Schema name="Núcleos Urbanos" id="kml_schema_ft_Núcleos_Urbanos">
<SimpleField type="xsd:string" name="CD_UF">
<displayName>CD_UF</displayName>
</SimpleField>
<SimpleField type="xsd:string" name="NM_UF">
<displayName>NM_UF</displayName>
</SimpleField>
<SimpleField type="xsd:string" name="SIGLA_UF">
<displayName>SIGLA_UF</displayName>
</SimpleField>
<SimpleField type="xsd:string" name="CD_MUN">
<displayName>CD_MUN</displayName>
</SimpleField>
<SimpleField type="xsd:string" name="NM_MUN">
<displayName>NM_MUN</displayName>
</SimpleField>
<SimpleField type="xsd:string" name="CD_RGINT">
<displayName>CD_RGINT</displayName>
</SimpleField>
<SimpleField type="xsd:string" name="NM_RGINT">
<displayName>NM_RGINT</displayName>
</SimpleField>
<SimpleField type="xsd:string" name="CD_RGI">
<displayName>CD_RGI</displayName>
</SimpleField>
<SimpleField type="xsd:string" name="NM_RGI">
<displayName>NM_RGI</displayName>
</SimpleField>
<SimpleField type="xsd:string" name="CT_LOCALIDADE">
<displayName>CT_LOCALIDADE</displayName>
</SimpleField>
<SimpleField type="xsd:string" name="CD_LOCALIDADE">
<displayName>CD_LOCALIDADE</displayName>
</SimpleField>
<SimpleField type="xsd:string" name="NM_LOCALIDADE">
<displayName>NM_LOCALIDADE</displayName>
</SimpleField>
<SimpleField type="xsd:string" name="LAT_LOCALIDADE">
<displayName>LAT_LOCALIDADE</displayName>
</SimpleField>
<SimpleField type="xsd:string" name="LONG_LOCALIDADE">
<displayName>LONG_LOCALIDADE</displayName>
</SimpleField>
</Schema>
<Schema name="01. Cidade" id="kml_schema_ft_01._Cidade">
<SimpleField type="xsd:string" name="CD_UF">
<displayName>CD_UF</displayName>
</SimpleField>
<SimpleField type="xsd:string" name="NM_UF">
<displayName>NM_UF</displayName>
</SimpleField>
<SimpleField type="xsd:string" name="SIGLA_UF">
<displayName>SIGLA_UF</displayName>
</SimpleField>
<SimpleField type="xsd:string" name="CD_MUN">
<displayName>CD_MUN</displayName>
</SimpleField>
<SimpleField type="xsd:string" name="NM_MUN">
<displayName>NM_MUN</displayName>
</SimpleField>
<SimpleField type="xsd:string" name="CD_RGINT">
<displayName>CD_RGINT</displayName>
</SimpleField>
<SimpleField type="xsd:string" name="NM_RGINT">
<displayName>NM_RGINT</displayName>
</SimpleField>
<SimpleField type="xsd:string" name="CD_RGI">
<displayName>CD_RGI</displayName>
</SimpleField>
<SimpleField type="xsd:string" name="NM_RGI">
<displayName>NM_RGI</displayName>
</SimpleField>
<SimpleField type="xsd:string" name="CT_LOCALIDADE">
<displayName>CT_LOCALIDADE</displayName>
</SimpleField>
<SimpleField type="xsd:string" name="SCT_LOCALIDADE">
<displayName>SCT_LOCALIDADE</displayName>
</SimpleField>
<SimpleField type="xsd:string" name="CD_LOCALIDADE">
<displayName>CD_LOCALIDADE</displayName>
</SimpleField>
<SimpleField type="xsd:string" name="NM_LOCALIDADE">
<displayName>NM_LOCALIDADE</displayName>
</SimpleField>
<SimpleField type="xsd:string" name="LAT_LOCALIDADE">
<displayName>LAT_LOCALIDADE</displayName>
</SimpleField>
<SimpleField type="xsd:string" name="LONG_LOCALIDADE">
<displayName>LONG_LOCALIDADE</displayName>
</SimpleField>
</Schema>
<Schema name="Município" id="kml_schema_ft_Município">
<SimpleField type="xsd:string" name="CD_UF">
<displayName>CD_UF</displayName>
</SimpleField>
<SimpleField type="xsd:string" name="NM_UF">
<displayName>NM_UF</displayName>
</SimpleField>
<SimpleField type="xsd:string" name="CD_MUN">
<displayName>CD_MUN</displayName>
</SimpleField>
<SimpleField type="xsd:string" name="NM_MUN">
<displayName>NM_MUN</displayName>
</SimpleField>
<SimpleField type="xsd:string" name="CD_RGINT">
<displayName>CD_RGINT</displayName>
</SimpleField>
<SimpleField type="xsd:string" name="NM_RGINT">
<displayName>NM_RGINT</displayName>
</SimpleField>
<SimpleField type="xsd:string" name="CD_RGI">
<displayName>CD_RGI</displayName>
</SimpleField>
<SimpleField type="xsd:string" name="NM_RGI">
<displayName>NM_RGI</displayName>
</SimpleField>
</Schema>
<Folder id="01. Cidade">
<name>01. Cidade</name>
<Folder id="01.03. Sede Municipal">
<name>01.03. Sede Municipal</name>
<Placemark id="01.03. Sede Municipal">
<name>Itararé [3523206]</name>
<visibility>1</visibility>
<snippet> </snippet>
<description>&lt;center&gt;&lt;table&gt;&lt;tr&gt;&lt;th colspan='2' align='center'&gt;&lt;em&gt;Atributos&lt;/em&gt;&lt;/th&gt;&lt;/tr&gt;&lt;tr bgcolor="#E3E3F3"&gt;
&lt;th&gt;CD_UF&lt;/th&gt;
&lt;td&gt;35&lt;/td&gt;
&lt;/tr&gt;&lt;tr bgcolor=""&gt;
&lt;th&gt;NM_UF&lt;/th&gt;
&lt;td&gt;São Paulo&lt;/td&gt;
&lt;/tr&gt;&lt;tr bgcolor="#E3E3F3"&gt;
&lt;th&gt;SIGLA_UF&lt;/th&gt;
&lt;td&gt;SP&lt;/td&gt;
&lt;/tr&gt;&lt;tr bgcolor=""&gt;
&lt;th&gt;CD_MUN&lt;/th&gt;
&lt;td&gt;3523206&lt;/td&gt;
&lt;/tr&gt;&lt;tr bgcolor="#E3E3F3"&gt;
&lt;th&gt;NM_MUN&lt;/th&gt;
&lt;td&gt;Itararé&lt;/td&gt;
&lt;/tr&gt;&lt;tr bgcolor=""&gt;
&lt;th&gt;CD_RGINT&lt;/th&gt;
&lt;td&gt;3502&lt;/td&gt;
&lt;/tr&gt;&lt;tr bgcolor="#E3E3F3"&gt;
&lt;th&gt;NM_RGINT&lt;/th&gt;
&lt;td&gt;Sorocaba&lt;/td&gt;
&lt;/tr&gt;&lt;tr bgcolor=""&gt;
&lt;th&gt;CD_RGI&lt;/th&gt;
&lt;td&gt;350004&lt;/td&gt;
&lt;/tr&gt;&lt;tr bgcolor="#E3E3F3"&gt;
&lt;th&gt;NM_RGI&lt;/th&gt;
&lt;td&gt;Itapeva&lt;/td&gt;
&lt;/tr&gt;&lt;tr bgcolor=""&gt;
&lt;th&gt;CT_LOCALIDADE&lt;/th&gt;
&lt;td&gt;Cidade&lt;/td&gt;
&lt;/tr&gt;&lt;tr bgcolor="#E3E3F3"&gt;
&lt;th&gt;SCT_LOCALIDADE&lt;/th&gt;
&lt;td&gt;Sede Municipal&lt;/td&gt;
&lt;/tr&gt;&lt;tr bgcolor=""&gt;
&lt;th&gt;CD_LOCALIDADE&lt;/th&gt;
&lt;td&gt;3523206&lt;/td&gt;
&lt;/tr&gt;&lt;tr bgcolor="#E3E3F3"&gt;
&lt;th&gt;NM_LOCALIDADE&lt;/th&gt;
&lt;td&gt;Itararé&lt;/td&gt;
&lt;/tr&gt;&lt;tr bgcolor=""&gt;
&lt;th&gt;LAT_LOCALIDADE&lt;/th&gt;
&lt;td&gt;-24.1155&lt;/td&gt;
&lt;/tr&gt;&lt;tr bgcolor="#E3E3F3"&gt;
&lt;th&gt;LONG_LOCALIDADE&lt;/th&gt;
&lt;td&gt;-49.3393&lt;/td&gt;
&lt;/tr&gt;&lt;/table&gt;&lt;/center&gt;</description>
<Style>
<IconStyle>
<color>ff00aaff</color>
<scale>1.0</scale>
<Icon>
<href>http://maps.google.com/mapfiles/kml/shapes/placemark_circle.png</href>
</Icon>
</IconStyle>
<LabelStyle>
<scale>1.0</scale>
</LabelStyle>
<LineStyle>
<color>ffffffff</color>
<width>3</width>
<gx:labelVisibility>1</gx:labelVisibility>
</LineStyle>
<PolyStyle>
<color>00ffffff</color>
</PolyStyle>
</Style>
<ExtendedData>
<SchemaData schemaUrl="#kml_schema_ft_01._Cidade">
<SimpleData name="CD_UF">35</SimpleData>
<SimpleData name="NM_UF">São Paulo</SimpleData>
<SimpleData name="SIGLA_UF">SP</SimpleData>
<SimpleData name="CD_MUN">3523206</SimpleData>
<SimpleData name="NM_MUN">Itararé</SimpleData>
<SimpleData name="CD_RGINT">3502</SimpleData>
<SimpleData name="NM_RGINT">Sorocaba</SimpleData>
<SimpleData name="CD_RGI">350004</SimpleData>
<SimpleData name="NM_RGI">Itapeva</SimpleData>
<SimpleData name="CT_LOCALIDADE">Cidade</SimpleData>
<SimpleData name="SCT_LOCALIDADE">Sede Municipal</SimpleData>
<SimpleData name="CD_LOCALIDADE">3523206</SimpleData>
<SimpleData name="NM_LOCALIDADE">Itararé</SimpleData>
<SimpleData name="LAT_LOCALIDADE">-24.1155</SimpleData>
<SimpleData name="LONG_LOCALIDADE">-49.3393</SimpleData>
</SchemaData>
</ExtendedData>
<Point>
<extrude>0</extrude>
<coordinates>-49.3393,-24.1154999992949,0.0</coordinates>
</Point>
</Placemark>
</Folder>
</Folder>
<Folder id="04. Vilas">
<name>04. Vilas</name>
<Placemark id="04. Vilas">
<name>Pedra Branca de Itararé [352320625]</name>
<visibility>1</visibility>
<snippet> </snippet>
<description>&lt;center&gt;&lt;table&gt;&lt;tr&gt;&lt;th colspan='2' align='center'&gt;&lt;em&gt;Atributos&lt;/em&gt;&lt;/th&gt;&lt;/tr&gt;&lt;tr bgcolor="#E3E3F3"&gt;
&lt;th&gt;CD_UF&lt;/th&gt;
&lt;td&gt;35&lt;/td&gt;
&lt;/tr&gt;&lt;tr bgcolor=""&gt;
&lt;th&gt;NM_UF&lt;/th&gt;
&lt;td&gt;São Paulo&lt;/td&gt;
&lt;/tr&gt;&lt;tr bgcolor="#E3E3F3"&gt;
&lt;th&gt;SIGLA_UF&lt;/th&gt;
&lt;td&gt;SP&lt;/td&gt;
&lt;/tr&gt;&lt;tr bgcolor=""&gt;
&lt;th&gt;CD_MUN&lt;/th&gt;
&lt;td&gt;3523206&lt;/td&gt;
&lt;/tr&gt;&lt;tr bgcolor="#E3E3F3"&gt;
&lt;th&gt;NM_MUN&lt;/th&gt;
&lt;td&gt;Itararé&lt;/td&gt;
&lt;/tr&gt;&lt;tr bgcolor=""&gt;
&lt;th&gt;CD_RGINT&lt;/th&gt;
&lt;td&gt;3502&lt;/td&gt;
&lt;/tr&gt;&lt;tr bgcolor="#E3E3F3"&gt;
&lt;th&gt;NM_RGINT&lt;/th&gt;
&lt;td&gt;Sorocaba&lt;/td&gt;
&lt;/tr&gt;&lt;tr bgcolor=""&gt;
&lt;th&gt;CD_RGI&lt;/th&gt;
&lt;td&gt;350004&lt;/td&gt;
&lt;/tr&gt;&lt;tr bgcolor="#E3E3F3"&gt;
&lt;th&gt;NM_RGI&lt;/th&gt;
&lt;td&gt;Itapeva&lt;/td&gt;
&lt;/tr&gt;&lt;tr bgcolor=""&gt;
&lt;th&gt;CT_LOCALIDADE&lt;/th&gt;
&lt;td&gt;Vila&lt;/td&gt;
&lt;/tr&gt;&lt;tr bgcolor="#E3E3F3"&gt;
&lt;th&gt;CD_LOCALIDADE&lt;/th&gt;
&lt;td&gt;352320625&lt;/td&gt;
&lt;/tr&gt;&lt;tr bgcolor=""&gt;
&lt;th&gt;NM_LOCALIDADE&lt;/th&gt;
&lt;td&gt;Pedra Branca de Itararé&lt;/td&gt;
&lt;/tr&gt;&lt;tr bgcolor="#E3E3F3"&gt;
&lt;th&gt;LAT_LOCALIDADE&lt;/th&gt;
&lt;td&gt;-23.9562&lt;/td&gt;
&lt;/tr&gt;&lt;tr bgcolor=""&gt;
&lt;th&gt;LONG_LOCALIDADE&lt;/th&gt;
&lt;td&gt;-49.2846&lt;/td&gt;
&lt;/tr&gt;&lt;/table&gt;&lt;/center&gt;</description>
<Style>
<IconStyle>
<color>ffff5400</color>
<scale>1.0</scale>
<Icon>
<href>http://maps.google.com/mapfiles/kml/shapes/placemark_circle.png</href>
</Icon>
</IconStyle>
<LabelStyle>
<scale>0.9</scale>
</LabelStyle>
<LineStyle>
<color>72ffffff</color>
<width>1.0</width>
<gx:labelVisibility>1</gx:labelVisibility>
</LineStyle>
<PolyStyle>
<color>660054ff</color>
</PolyStyle>
</Style>
<ExtendedData>
<SchemaData schemaUrl="#kml_schema_ft_Vilas">
<SimpleData name="CD_UF">35</SimpleData>
<SimpleData name="NM_UF">São Paulo</SimpleData>
<SimpleData name="SIGLA_UF">SP</SimpleData>
<SimpleData name="CD_MUN">3523206</SimpleData>
<SimpleData name="NM_MUN">Itararé</SimpleData>
<SimpleData name="CD_RGINT">3502</SimpleData>
<SimpleData name="NM_RGINT">Sorocaba</SimpleData>
<SimpleData name="CD_RGI">350004</SimpleData>
<SimpleData name="NM_RGI">Itapeva</SimpleData>
<SimpleData name="CT_LOCALIDADE">Vila</SimpleData>
<SimpleData name="CD_LOCALIDADE">352320625</SimpleData>
<SimpleData name="NM_LOCALIDADE">Pedra Branca de Itararé</SimpleData>
<SimpleData name="LAT_LOCALIDADE">-23.9562</SimpleData>
<SimpleData name="LONG_LOCALIDADE">-49.2846</SimpleData>
</SchemaData>
</ExtendedData>
<Point>
<extrude>0</extrude>
<coordinates>-49.284635,-23.9562079992984,0.0</coordinates>
</Point>
</Placemark>
<Placemark id="04. Vilas">
<name>Santa Cruz dos Lopes [352320630]</name>
<visibility>1</visibility>
<snippet> </snippet>
<description>&lt;center&gt;&lt;table&gt;&lt;tr&gt;&lt;th colspan='2' align='center'&gt;&lt;em&gt;Atributos&lt;/em&gt;&lt;/th&gt;&lt;/tr&gt;&lt;tr bgcolor="#E3E3F3"&gt;
&lt;th&gt;CD_UF&lt;/th&gt;
&lt;td&gt;35&lt;/td&gt;
&lt;/tr&gt;&lt;tr bgcolor=""&gt;
&lt;th&gt;NM_UF&lt;/th&gt;
&lt;td&gt;São Paulo&lt;/td&gt;
&lt;/tr&gt;&lt;tr bgcolor="#E3E3F3"&gt;
&lt;th&gt;SIGLA_UF&lt;/th&gt;
&lt;td&gt;SP&lt;/td&gt;
&lt;/tr&gt;&lt;tr bgcolor=""&gt;
&lt;th&gt;CD_MUN&lt;/th&gt;
&lt;td&gt;3523206&lt;/td&gt;
&lt;/tr&gt;&lt;tr bgcolor="#E3E3F3"&gt;
&lt;th&gt;NM_MUN&lt;/th&gt;
&lt;td&gt;Itararé&lt;/td&gt;
&lt;/tr&gt;&lt;tr bgcolor=""&gt;
&lt;th&gt;CD_RGINT&lt;/th&gt;
&lt;td&gt;3502&lt;/td&gt;
&lt;/tr&gt;&lt;tr bgcolor="#E3E3F3"&gt;
&lt;th&gt;NM_RGINT&lt;/th&gt;
&lt;td&gt;Sorocaba&lt;/td&gt;
&lt;/tr&gt;&lt;tr bgcolor=""&gt;
&lt;th&gt;CD_RGI&lt;/th&gt;
&lt;td&gt;350004&lt;/td&gt;
&lt;/tr&gt;&lt;tr bgcolor="#E3E3F3"&gt;
&lt;th&gt;NM_RGI&lt;/th&gt;
&lt;td&gt;Itapeva&lt;/td&gt;
&lt;/tr&gt;&lt;tr bgcolor=""&gt;
&lt;th&gt;CT_LOCALIDADE&lt;/th&gt;
&lt;td&gt;Vila&lt;/td&gt;
&lt;/tr&gt;&lt;tr bgcolor="#E3E3F3"&gt;
&lt;th&gt;CD_LOCALIDADE&lt;/th&gt;
&lt;td&gt;352320630&lt;/td&gt;
&lt;/tr&gt;&lt;tr bgcolor=""&gt;
&lt;th&gt;NM_LOCALIDADE&lt;/th&gt;
&lt;td&gt;Santa Cruz dos Lopes&lt;/td&gt;
&lt;/tr&gt;&lt;tr bgcolor="#E3E3F3"&gt;
&lt;th&gt;LAT_LOCALIDADE&lt;/th&gt;
&lt;td&gt;-23.9497&lt;/td&gt;
&lt;/tr&gt;&lt;tr bgcolor=""&gt;
&lt;th&gt;LONG_LOCALIDADE&lt;/th&gt;
&lt;td&gt;-49.4959&lt;/td&gt;
&lt;/tr&gt;&lt;/table&gt;&lt;/center&gt;</description>
<Style>
<IconStyle>
<color>ffff5400</color>
<scale>1.0</scale>
<Icon>
<href>http://maps.google.com/mapfiles/kml/shapes/placemark_circle.png</href>
</Icon>
</IconStyle>
<LabelStyle>
<scale>0.9</scale>
</LabelStyle>
<LineStyle>
<color>72ffffff</color>
<width>1.0</width>
<gx:labelVisibility>1</gx:labelVisibility>
</LineStyle>
<PolyStyle>
<color>660054ff</color>
</PolyStyle>
</Style>
<ExtendedData>
<SchemaData schemaUrl="#kml_schema_ft_Vilas">
<SimpleData name="CD_UF">35</SimpleData>
<SimpleData name="NM_UF">São Paulo</SimpleData>
<SimpleData name="SIGLA_UF">SP</SimpleData>
<SimpleData name="CD_MUN">3523206</SimpleData>
<SimpleData name="NM_MUN">Itararé</SimpleData>
<SimpleData name="CD_RGINT">3502</SimpleData>
<SimpleData name="NM_RGINT">Sorocaba</SimpleData>
<SimpleData name="CD_RGI">350004</SimpleData>
<SimpleData name="NM_RGI">Itapeva</SimpleData>
<SimpleData name="CT_LOCALIDADE">Vila</SimpleData>
<SimpleData name="CD_LOCALIDADE">352320630</SimpleData>
<SimpleData name="NM_LOCALIDADE">Santa Cruz dos Lopes</SimpleData>
<SimpleData name="LAT_LOCALIDADE">-23.9497</SimpleData>
<SimpleData name="LONG_LOCALIDADE">-49.4959</SimpleData>
</SchemaData>
</ExtendedData>
<Point>
<extrude>0</extrude>
<coordinates>-49.495947,-23.9497209992985,0.0</coordinates>
</Point>
</Placemark>
</Folder>
<Folder id="05. Núcleos Urbanos">
<name>05. Núcleos Urbanos</name>
<Placemark id="localidades">
<name>Bairro do Cerrado [3523206001]</name>
<visibility>1</visibility>
<snippet> </snippet>
<description>&lt;center&gt;&lt;table&gt;&lt;tr&gt;&lt;th colspan='2' align='center'&gt;&lt;em&gt;Attributes&lt;/em&gt;&lt;/th&gt;&lt;/tr&gt;&lt;tr bgcolor="#E3E3F3"&gt;
&lt;th&gt;CD_UF&lt;/th&gt;
&lt;td&gt;35&lt;/td&gt;
&lt;/tr&gt;&lt;tr bgcolor=""&gt;
&lt;th&gt;NM_UF&lt;/th&gt;
&lt;td&gt;São Paulo&lt;/td&gt;
&lt;/tr&gt;&lt;tr bgcolor="#E3E3F3"&gt;
&lt;th&gt;SIGLA_UF&lt;/th&gt;
&lt;td&gt;SP&lt;/td&gt;
&lt;/tr&gt;&lt;tr bgcolor=""&gt;
&lt;th&gt;CD_MUN&lt;/th&gt;
&lt;td&gt;3523206&lt;/td&gt;
&lt;/tr&gt;&lt;tr bgcolor="#E3E3F3"&gt;
&lt;th&gt;NM_MUN&lt;/th&gt;
&lt;td&gt;Itararé&lt;/td&gt;
&lt;/tr&gt;&lt;tr bgcolor=""&gt;
&lt;th&gt;CD_RGINT&lt;/th&gt;
&lt;td&gt;3502&lt;/td&gt;
&lt;/tr&gt;&lt;tr bgcolor="#E3E3F3"&gt;
&lt;th&gt;NM_RGINT&lt;/th&gt;
&lt;td&gt;Sorocaba&lt;/td&gt;
&lt;/tr&gt;&lt;tr bgcolor=""&gt;
&lt;th&gt;CD_RGI&lt;/th&gt;
&lt;td&gt;350004&lt;/td&gt;
&lt;/tr&gt;&lt;tr bgcolor="#E3E3F3"&gt;
&lt;th&gt;NM_RGI&lt;/th&gt;
&lt;td&gt;Itapeva&lt;/td&gt;
&lt;/tr&gt;&lt;tr bgcolor=""&gt;
&lt;th&gt;CT_LOCALIDADE&lt;/th&gt;
&lt;td&gt;Núcleo Urbano&lt;/td&gt;
&lt;/tr&gt;&lt;tr bgcolor="#E3E3F3"&gt;
&lt;th&gt;CD_LOCALIDADE&lt;/th&gt;
&lt;td&gt;3523206001&lt;/td&gt;
&lt;/tr&gt;&lt;tr bgcolor=""&gt;
&lt;th&gt;NM_LOCALIDADE&lt;/th&gt;
&lt;td&gt;Bairro do Cerrado&lt;/td&gt;
&lt;/tr&gt;&lt;tr bgcolor="#E3E3F3"&gt;
&lt;th&gt;LAT_LOCALIDADE&lt;/th&gt;
&lt;td&gt;-24.0453&lt;/td&gt;
&lt;/tr&gt;&lt;tr bgcolor=""&gt;
&lt;th&gt;LONG_LOCALIDADE&lt;/th&gt;
&lt;td&gt;-49.3467&lt;/td&gt;
&lt;/tr&gt;&lt;/table&gt;&lt;/center&gt;</description>
<Style>
<IconStyle>
<color>ff0000ff</color>
<scale>0.9</scale>
<Icon>
<href>http://maps.google.com/mapfiles/kml/shapes/placemark_circle.png</href>
</Icon>
</IconStyle>
<LabelStyle>
<scale>0.9</scale>
</LabelStyle>
<LineStyle>
<color>72ffffff</color>
<width>1.0</width>
<gx:labelVisibility>1</gx:labelVisibility>
</LineStyle>
<PolyStyle>
<color>66ff54ff</color>
</PolyStyle>
</Style>
<ExtendedData>
<SchemaData schemaUrl="#kml_schema_ft_Núcleos_Urbanos">
<SimpleData name="CD_UF">35</SimpleData>
<SimpleData name="NM_UF">São Paulo</SimpleData>
<SimpleData name="SIGLA_UF">SP</SimpleData>
<SimpleData name="CD_MUN">3523206</SimpleData>
<SimpleData name="NM_MUN">Itararé</SimpleData>
<SimpleData name="CD_RGINT">3502</SimpleData>
<SimpleData name="NM_RGINT">Sorocaba</SimpleData>
<SimpleData name="CD_RGI">350004</SimpleData>
<SimpleData name="NM_RGI">Itapeva</SimpleData>
<SimpleData name="CT_LOCALIDADE">Núcleo Urbano</SimpleData>
<SimpleData name="CD_LOCALIDADE">3523206001</SimpleData>
<SimpleData name="NM_LOCALIDADE">Bairro do Cerrado</SimpleData>
<SimpleData name="LAT_LOCALIDADE">-24.0453</SimpleData>
<SimpleData name="LONG_LOCALIDADE">-49.3467</SimpleData>
</SchemaData>
</ExtendedData>
<Point>
<extrude>0</extrude>
<coordinates>-49.3466937128378,-24.0453124925396,0.0</coordinates>
</Point>
</Placemark>
</Folder>
<Folder id="08. Lugarejos">
<name>08. Lugarejos</name>
<Placemark id="localidades">
<name>Comunidade Quilombola Fazenda Silvério [352320600004]</name>
<visibility>1</visibility>
<snippet> </snippet>
<description>&lt;center&gt;&lt;table&gt;&lt;tr&gt;&lt;th colspan='2' align='center'&gt;&lt;em&gt;Attributes&lt;/em&gt;&lt;/th&gt;&lt;/tr&gt;&lt;tr bgcolor="#E3E3F3"&gt;
&lt;th&gt;CD_UF&lt;/th&gt;
&lt;td&gt;35&lt;/td&gt;
&lt;/tr&gt;&lt;tr bgcolor=""&gt;
&lt;th&gt;NM_UF&lt;/th&gt;
&lt;td&gt;São Paulo&lt;/td&gt;
&lt;/tr&gt;&lt;tr bgcolor="#E3E3F3"&gt;
&lt;th&gt;SIGLA_UF&lt;/th&gt;
&lt;td&gt;SP&lt;/td&gt;
&lt;/tr&gt;&lt;tr bgcolor=""&gt;
&lt;th&gt;CD_MUN&lt;/th&gt;
&lt;td&gt;3523206&lt;/td&gt;
&lt;/tr&gt;&lt;tr bgcolor="#E3E3F3"&gt;
&lt;th&gt;NM_MUN&lt;/th&gt;
&lt;td&gt;Itararé&lt;/td&gt;
&lt;/tr&gt;&lt;tr bgcolor=""&gt;
&lt;th&gt;CD_RGINT&lt;/th&gt;
&lt;td&gt;3502&lt;/td&gt;
&lt;/tr&gt;&lt;tr bgcolor="#E3E3F3"&gt;
&lt;th&gt;NM_RGINT&lt;/th&gt;
&lt;td&gt;Sorocaba&lt;/td&gt;
&lt;/tr&gt;&lt;tr bgcolor=""&gt;
&lt;th&gt;CD_RGI&lt;/th&gt;
&lt;td&gt;350004&lt;/td&gt;
&lt;/tr&gt;&lt;tr bgcolor="#E3E3F3"&gt;
&lt;th&gt;NM_RGI&lt;/th&gt;
&lt;td&gt;Itapeva&lt;/td&gt;
&lt;/tr&gt;&lt;tr bgcolor=""&gt;
&lt;th&gt;CT_LOCALIDADE&lt;/th&gt;
&lt;td&gt;Lugarejo&lt;/td&gt;
&lt;/tr&gt;&lt;tr bgcolor="#E3E3F3"&gt;
&lt;th&gt;CD_LOCALIDADE&lt;/th&gt;
&lt;td&gt;352320600004&lt;/td&gt;
&lt;/tr&gt;&lt;tr bgcolor=""&gt;
&lt;th&gt;NM_LOCALIDADE&lt;/th&gt;
&lt;td&gt;Comunidade Quilombola Fazenda Silvério&lt;/td&gt;
&lt;/tr&gt;&lt;tr bgcolor="#E3E3F3"&gt;
&lt;th&gt;LAT_LOCALIDADE&lt;/th&gt;
&lt;td&gt;-23.9372&lt;/td&gt;
&lt;/tr&gt;&lt;tr bgcolor=""&gt;
&lt;th&gt;LONG_LOCALIDADE&lt;/th&gt;
&lt;td&gt;-49.2853&lt;/td&gt;
&lt;/tr&gt;&lt;/table&gt;&lt;/center&gt;</description>
<Style>
<IconStyle>
<color>ffffff00</color>
<scale>0.8</scale>
<Icon>
<href>http://maps.google.com/mapfiles/kml/shapes/placemark_circle.png</href>
</Icon>
</IconStyle>
<LabelStyle>
<scale>0.8</scale>
</LabelStyle>
<LineStyle>
<color>72ff54ff</color>
<width>1.0</width>
<gx:labelVisibility>1</gx:labelVisibility>
</LineStyle>
<PolyStyle>
<color>66ff54ff</color>
</PolyStyle>
</Style>
<ExtendedData>
<SchemaData schemaUrl="#kml_schema_ft_Lugarejos">
<SimpleData name="CD_UF">35</SimpleData>
<SimpleData name="NM_UF">São Paulo</SimpleData>
<SimpleData name="SIGLA_UF">SP</SimpleData>
<SimpleData name="CD_MUN">3523206</SimpleData>
<SimpleData name="NM_MUN">Itararé</SimpleData>
<SimpleData name="CD_RGINT">3502</SimpleData>
<SimpleData name="NM_RGINT">Sorocaba</SimpleData>
<SimpleData name="CD_RGI">350004</SimpleData>
<SimpleData name="NM_RGI">Itapeva</SimpleData>
<SimpleData name="CT_LOCALIDADE">Lugarejo</SimpleData>
<SimpleData name="CD_LOCALIDADE">352320600004</SimpleData>
<SimpleData name="NM_LOCALIDADE">Comunidade Quilombola Fazenda Silvério</SimpleData>
<SimpleData name="LAT_LOCALIDADE">-23.9372</SimpleData>
<SimpleData name="LONG_LOCALIDADE">-49.2853</SimpleData>
</SchemaData>
</ExtendedData>
<Point>
<extrude>0</extrude>
<coordinates>-49.2852661612903,-23.9371562573633,0.0</coordinates>
</Point>
</Placemark>
</Folder>
<Folder id="10. Localidades Quilombolas">
<name>10. Localidades Quilombolas</name>
<visibility>1</visibility>
<Style>
<IconStyle>
<color>ffff54ff</color>
<scale>0.8</scale>
<Icon>
<href>http://maps.google.com/mapfiles/kml/shapes/placemark_circle.png</href>
</Icon>
</IconStyle>
<LabelStyle>
<scale>0.8</scale>
</LabelStyle>
<LineStyle>
<color>7200ffff</color>
<width>1.0</width>
<gx:labelVisibility>1</gx:labelVisibility>
</LineStyle>
<PolyStyle>
<color>6600ffff</color>
</PolyStyle>
</Style>
<Folder id="10.01. Agrupamentos Quilombolas">
<name>10.01. Agrupamentos Quilombolas</name>
<visibility>1</visibility>
<Style>
<IconStyle>
<color>ffff54ff</color>
<scale>0.8</scale>
<Icon>
<href>http://maps.google.com/mapfiles/kml/shapes/placemark_circle.png</href>
</Icon>
</IconStyle>
<LabelStyle>
<scale>0.8</scale>
</LabelStyle>
<LineStyle>
<color>7200ffff</color>
<width>1.0</width>
<gx:labelVisibility>1</gx:labelVisibility>
</LineStyle>
<PolyStyle>
<color>6600ffff</color>
</PolyStyle>
</Style>
<Placemark id="10.01. Agrupamentos Quilombolas">
<name>Comunidade Quilombola Fazenda Silvério [352320600004]</name>
<visibility>1</visibility>
<snippet> </snippet>
<description>&lt;center&gt;&lt;table&gt;&lt;tr&gt;&lt;th colspan='2' align='center'&gt;&lt;em&gt;Attributes&lt;/em&gt;&lt;/th&gt;&lt;/tr&gt;&lt;tr bgcolor="#E3E3F3"&gt;
&lt;th&gt;CD_UF&lt;/th&gt;
&lt;td&gt;35&lt;/td&gt;
&lt;/tr&gt;&lt;tr bgcolor=""&gt;
&lt;th&gt;NM_UF&lt;/th&gt;
&lt;td&gt;São Paulo&lt;/td&gt;
&lt;/tr&gt;&lt;tr bgcolor="#E3E3F3"&gt;
&lt;th&gt;SIGLA_UF&lt;/th&gt;
&lt;td&gt;SP&lt;/td&gt;
&lt;/tr&gt;&lt;tr bgcolor=""&gt;
&lt;th&gt;CD_MUN&lt;/th&gt;
&lt;td&gt;3523206&lt;/td&gt;
&lt;/tr&gt;&lt;tr bgcolor="#E3E3F3"&gt;
&lt;th&gt;NM_MUN&lt;/th&gt;
&lt;td&gt;Itararé&lt;/td&gt;
&lt;/tr&gt;&lt;tr bgcolor=""&gt;
&lt;th&gt;CD_RGINT&lt;/th&gt;
&lt;td&gt;3502&lt;/td&gt;
&lt;/tr&gt;&lt;tr bgcolor="#E3E3F3"&gt;
&lt;th&gt;NM_RGINT&lt;/th&gt;
&lt;td&gt;Sorocaba&lt;/td&gt;
&lt;/tr&gt;&lt;tr bgcolor=""&gt;
&lt;th&gt;CD_RGI&lt;/th&gt;
&lt;td&gt;350004&lt;/td&gt;
&lt;/tr&gt;&lt;tr bgcolor="#E3E3F3"&gt;
&lt;th&gt;NM_RGI&lt;/th&gt;
&lt;td&gt;Itapeva&lt;/td&gt;
&lt;/tr&gt;&lt;tr bgcolor=""&gt;
&lt;th&gt;CT_LOCALIDADE&lt;/th&gt;
&lt;td&gt;Localidade Quilombola&lt;/td&gt;
&lt;/tr&gt;&lt;tr bgcolor="#E3E3F3"&gt;
&lt;th&gt;SCT_LOCALIDADE&lt;/th&gt;
&lt;td&gt;Agrupamento Quilombola&lt;/td&gt;
&lt;/tr&gt;&lt;tr bgcolor=""&gt;
&lt;th&gt;CD_LOCALIDADE&lt;/th&gt;
&lt;td&gt;352320600004&lt;/td&gt;
&lt;/tr&gt;&lt;tr bgcolor="#E3E3F3"&gt;
&lt;th&gt;NM_LOCALIDADE&lt;/th&gt;
&lt;td&gt;Comunidade Quilombola Fazenda Silvério&lt;/td&gt;
&lt;/tr&gt;&lt;tr bgcolor=""&gt;
&lt;th&gt;LAT_LOCALIDADE&lt;/th&gt;
&lt;td&gt;-23.9372&lt;/td&gt;
&lt;/tr&gt;&lt;tr bgcolor="#E3E3F3"&gt;
&lt;th&gt;LONG_LOCALIDADE&lt;/th&gt;
&lt;td&gt;-49.2853&lt;/td&gt;
&lt;/tr&gt;&lt;/table&gt;&lt;/center&gt;</description>
<Style>
<IconStyle>
<color>ffff54ff</color>
<scale>0.8</scale>
<Icon>
<href>http://maps.google.com/mapfiles/kml/shapes/placemark_circle.png</href>
</Icon>
</IconStyle>
<LabelStyle>
<scale>0.8</scale>
</LabelStyle>
<LineStyle>
<color>7200ffff</color>
<width>1.0</width>
<gx:labelVisibility>1</gx:labelVisibility>
</LineStyle>
<PolyStyle>
<color>6600ffff</color>
</PolyStyle>
</Style>
<ExtendedData>
<SchemaData schemaUrl="#kml_schema_ft_Agrupamentos_Quilombolas">
<SimpleData name="CD_UF">35</SimpleData>
<SimpleData name="NM_UF">São Paulo</SimpleData>
<SimpleData name="SIGLA_UF">SP</SimpleData>
<SimpleData name="CD_MUN">3523206</SimpleData>
<SimpleData name="NM_MUN">Itararé</SimpleData>
<SimpleData name="CD_RGINT">3502</SimpleData>
<SimpleData name="NM_RGINT">Sorocaba</SimpleData>
<SimpleData name="CD_RGI">350004</SimpleData>
<SimpleData name="NM_RGI">Itapeva</SimpleData>
<SimpleData name="CT_LOCALIDADE">Localidade Quilombola</SimpleData>
<SimpleData name="SCT_LOCALIDADE">Agrupamento Quilombola</SimpleData>
<SimpleData name="CD_LOCALIDADE">352320600004</SimpleData>
<SimpleData name="NM_LOCALIDADE">Comunidade Quilombola Fazenda Silvério</SimpleData>
<SimpleData name="LAT_LOCALIDADE">-23.9372</SimpleData>
<SimpleData name="LONG_LOCALIDADE">-49.2853</SimpleData>
</SchemaData>
</ExtendedData>
<Point>
<extrude>0</extrude>
<coordinates>-49.2852661612903,-23.9371562573633,0.0</coordinates>
</Point>
</Placemark>
</Folder>
</Folder>
<Folder id="12. Outras Localidades">
<name>12. Outras Localidades</name>
<Placemark id="12. Outras Localidades">
<name>Bairro Santa Bárbara [352320600002]</name>
<visibility>1</visibility>
<snippet> </snippet>
<description>&lt;center&gt;&lt;table&gt;&lt;tr&gt;&lt;th colspan='2' align='center'&gt;&lt;em&gt;Attributes&lt;/em&gt;&lt;/th&gt;&lt;/tr&gt;&lt;tr bgcolor="#E3E3F3"&gt;
&lt;th&gt;CD_UF&lt;/th&gt;
&lt;td&gt;35&lt;/td&gt;
&lt;/tr&gt;&lt;tr bgcolor=""&gt;
&lt;th&gt;NM_UF&lt;/th&gt;
&lt;td&gt;São Paulo&lt;/td&gt;
&lt;/tr&gt;&lt;tr bgcolor="#E3E3F3"&gt;
&lt;th&gt;SIGLA_UF&lt;/th&gt;
&lt;td&gt;SP&lt;/td&gt;
&lt;/tr&gt;&lt;tr bgcolor=""&gt;
&lt;th&gt;CD_MUN&lt;/th&gt;
&lt;td&gt;3523206&lt;/td&gt;
&lt;/tr&gt;&lt;tr bgcolor="#E3E3F3"&gt;
&lt;th&gt;NM_MUN&lt;/th&gt;
&lt;td&gt;Itararé&lt;/td&gt;
&lt;/tr&gt;&lt;tr bgcolor=""&gt;
&lt;th&gt;CD_RGINT&lt;/th&gt;
&lt;td&gt;3502&lt;/td&gt;
&lt;/tr&gt;&lt;tr bgcolor="#E3E3F3"&gt;
&lt;th&gt;NM_RGINT&lt;/th&gt;
&lt;td&gt;Sorocaba&lt;/td&gt;
&lt;/tr&gt;&lt;tr bgcolor=""&gt;
&lt;th&gt;CD_RGI&lt;/th&gt;
&lt;td&gt;350004&lt;/td&gt;
&lt;/tr&gt;&lt;tr bgcolor="#E3E3F3"&gt;
&lt;th&gt;NM_RGI&lt;/th&gt;
&lt;td&gt;Itapeva&lt;/td&gt;
&lt;/tr&gt;&lt;tr bgcolor=""&gt;
&lt;th&gt;CT_LOCALIDADE&lt;/th&gt;
&lt;td&gt;Outras Localidades&lt;/td&gt;
&lt;/tr&gt;&lt;tr bgcolor="#E3E3F3"&gt;
&lt;th&gt;SCT_LOCALIDADE&lt;/th&gt;
&lt;td&gt;&lt;/td&gt;
&lt;/tr&gt;&lt;tr bgcolor=""&gt;
&lt;th&gt;CD_LOCALIDADE&lt;/th&gt;
&lt;td&gt;352320600002&lt;/td&gt;
&lt;/tr&gt;&lt;tr bgcolor="#E3E3F3"&gt;
&lt;th&gt;NM_LOCALIDADE&lt;/th&gt;
&lt;td&gt;Bairro Santa Bárbara&lt;/td&gt;
&lt;/tr&gt;&lt;/table&gt;&lt;/center&gt;</description>
<Style>
<IconStyle>
<color>ff0069d3</color>
<scale>0.6</scale>
<Icon>
<href>http://maps.google.com/mapfiles/kml/shapes/placemark_circle.png</href>
</Icon>
</IconStyle>
<LabelStyle>
<scale>0.6</scale>
</LabelStyle>
<LineStyle>
<width>1.0</width>
<gx:labelVisibility>1</gx:labelVisibility>
</LineStyle>
</Style>
<ExtendedData>
<SchemaData schemaUrl="#kml_schema_ft_Localidades">
<SimpleData name="CD_UF">35</SimpleData>
<SimpleData name="NM_UF">São Paulo</SimpleData>
<SimpleData name="SIGLA_UF">SP</SimpleData>
<SimpleData name="CD_MUN">3523206</SimpleData>
<SimpleData name="NM_MUN">Itararé</SimpleData>
<SimpleData name="CD_RGINT">3502</SimpleData>
<SimpleData name="NM_RGINT">Sorocaba</SimpleData>
<SimpleData name="CD_RGI">350004</SimpleData>
<SimpleData name="NM_RGI">Itapeva</SimpleData>
<SimpleData name="CT_LOCALIDADE">Outras Localidades</SimpleData>
<SimpleData name="CD_LOCALIDADE">352320600002</SimpleData>
<SimpleData name="NM_LOCALIDADE">Bairro Santa Bárbara</SimpleData>
</SchemaData>
</ExtendedData>
<Point>
<extrude>0</extrude>
<coordinates>-49.4123790589236,-23.9818187806596,0.0</coordinates>
</Point>
</Placemark>
<Placemark id="12. Outras Localidades">
<name>Bairro Morro Vermelho [352320600005]</name>
<visibility>1</visibility>
<snippet> </snippet>
<description>&lt;center&gt;&lt;table&gt;&lt;tr&gt;&lt;th colspan='2' align='center'&gt;&lt;em&gt;Attributes&lt;/em&gt;&lt;/th&gt;&lt;/tr&gt;&lt;tr bgcolor="#E3E3F3"&gt;
&lt;th&gt;CD_UF&lt;/th&gt;
&lt;td&gt;35&lt;/td&gt;
&lt;/tr&gt;&lt;tr bgcolor=""&gt;
&lt;th&gt;NM_UF&lt;/th&gt;
&lt;td&gt;São Paulo&lt;/td&gt;
&lt;/tr&gt;&lt;tr bgcolor="#E3E3F3"&gt;
&lt;th&gt;SIGLA_UF&lt;/th&gt;
&lt;td&gt;SP&lt;/td&gt;
&lt;/tr&gt;&lt;tr bgcolor=""&gt;
&lt;th&gt;CD_MUN&lt;/th&gt;
&lt;td&gt;3523206&lt;/td&gt;
&lt;/tr&gt;&lt;tr bgcolor="#E3E3F3"&gt;
&lt;th&gt;NM_MUN&lt;/th&gt;
&lt;td&gt;Itararé&lt;/td&gt;
&lt;/tr&gt;&lt;tr bgcolor=""&gt;
&lt;th&gt;CD_RGINT&lt;/th&gt;
&lt;td&gt;3502&lt;/td&gt;
&lt;/tr&gt;&lt;tr bgcolor="#E3E3F3"&gt;
&lt;th&gt;NM_RGINT&lt;/th&gt;
&lt;td&gt;Sorocaba&lt;/td&gt;
&lt;/tr&gt;&lt;tr bgcolor=""&gt;
&lt;th&gt;CD_RGI&lt;/th&gt;
&lt;td&gt;350004&lt;/td&gt;
&lt;/tr&gt;&lt;tr bgcolor="#E3E3F3"&gt;
&lt;th&gt;NM_RGI&lt;/th&gt;
&lt;td&gt;Itapeva&lt;/td&gt;
&lt;/tr&gt;&lt;tr bgcolor=""&gt;
&lt;th&gt;CT_LOCALIDADE&lt;/th&gt;
&lt;td&gt;Outras Localidades&lt;/td&gt;
&lt;/tr&gt;&lt;tr bgcolor="#E3E3F3"&gt;
&lt;th&gt;SCT_LOCALIDADE&lt;/th&gt;
&lt;td&gt;&lt;/td&gt;
&lt;/tr&gt;&lt;tr bgcolor=""&gt;
&lt;th&gt;CD_LOCALIDADE&lt;/th&gt;
&lt;td&gt;352320600005&lt;/td&gt;
&lt;/tr&gt;&lt;tr bgcolor="#E3E3F3"&gt;
&lt;th&gt;NM_LOCALIDADE&lt;/th&gt;
&lt;td&gt;Bairro Morro Vermelho&lt;/td&gt;
&lt;/tr&gt;&lt;/table&gt;&lt;/center&gt;</description>
<Style>
<IconStyle>
<color>ff0069d3</color>
<scale>0.6</scale>
<Icon>
<href>http://maps.google.com/mapfiles/kml/shapes/placemark_circle.png</href>
</Icon>
</IconStyle>
<LabelStyle>
<scale>0.6</scale>
</LabelStyle>
<LineStyle>
<width>1.0</width>
<gx:labelVisibility>1</gx:labelVisibility>
</LineStyle>
</Style>
<ExtendedData>
<SchemaData schemaUrl="#kml_schema_ft_Localidades">
<SimpleData name="CD_UF">35</SimpleData>
<SimpleData name="NM_UF">São Paulo</SimpleData>
<SimpleData name="SIGLA_UF">SP</SimpleData>
<SimpleData name="CD_MUN">3523206</SimpleData>
<SimpleData name="NM_MUN">Itararé</SimpleData>
<SimpleData name="CD_RGINT">3502</SimpleData>
<SimpleData name="NM_RGINT">Sorocaba</SimpleData>
<SimpleData name="CD_RGI">350004</SimpleData>
<SimpleData name="NM_RGI">Itapeva</SimpleData>
<SimpleData name="CT_LOCALIDADE">Outras Localidades</SimpleData>
<SimpleData name="CD_LOCALIDADE">352320600005</SimpleData>
<SimpleData name="NM_LOCALIDADE">Bairro Morro Vermelho</SimpleData>
</SchemaData>
</ExtendedData>
<Point>
<extrude>0</extrude>
<coordinates>-49.3086231763405,-24.0049991885379,0.0</coordinates>
</Point>
</Placemark>
<Placemark id="12. Outras Localidades">
<name>Fazenda Brasil [352320600006]</name>
<visibility>1</visibility>
<snippet> </snippet>
<description>&lt;center&gt;&lt;table&gt;&lt;tr&gt;&lt;th colspan='2' align='center'&gt;&lt;em&gt;Attributes&lt;/em&gt;&lt;/th&gt;&lt;/tr&gt;&lt;tr bgcolor="#E3E3F3"&gt;
&lt;th&gt;CD_UF&lt;/th&gt;
&lt;td&gt;35&lt;/td&gt;
&lt;/tr&gt;&lt;tr bgcolor=""&gt;
&lt;th&gt;NM_UF&lt;/th&gt;
&lt;td&gt;São Paulo&lt;/td&gt;
&lt;/tr&gt;&lt;tr bgcolor="#E3E3F3"&gt;
&lt;th&gt;SIGLA_UF&lt;/th&gt;
&lt;td&gt;SP&lt;/td&gt;
&lt;/tr&gt;&lt;tr bgcolor=""&gt;
&lt;th&gt;CD_MUN&lt;/th&gt;
&lt;td&gt;3523206&lt;/td&gt;
&lt;/tr&gt;&lt;tr bgcolor="#E3E3F3"&gt;
&lt;th&gt;NM_MUN&lt;/th&gt;
&lt;td&gt;Itararé&lt;/td&gt;
&lt;/tr&gt;&lt;tr bgcolor=""&gt;
&lt;th&gt;CD_RGINT&lt;/th&gt;
&lt;td&gt;3502&lt;/td&gt;
&lt;/tr&gt;&lt;tr bgcolor="#E3E3F3"&gt;
&lt;th&gt;NM_RGINT&lt;/th&gt;
&lt;td&gt;Sorocaba&lt;/td&gt;
&lt;/tr&gt;&lt;tr bgcolor=""&gt;
&lt;th&gt;CD_RGI&lt;/th&gt;
&lt;td&gt;350004&lt;/td&gt;
&lt;/tr&gt;&lt;tr bgcolor="#E3E3F3"&gt;
&lt;th&gt;NM_RGI&lt;/th&gt;
&lt;td&gt;Itapeva&lt;/td&gt;
&lt;/tr&gt;&lt;tr bgcolor=""&gt;
&lt;th&gt;CT_LOCALIDADE&lt;/th&gt;
&lt;td&gt;Outras Localidades&lt;/td&gt;
&lt;/tr&gt;&lt;tr bgcolor="#E3E3F3"&gt;
&lt;th&gt;SCT_LOCALIDADE&lt;/th&gt;
&lt;td&gt;&lt;/td&gt;
&lt;/tr&gt;&lt;tr bgcolor=""&gt;
&lt;th&gt;CD_LOCALIDADE&lt;/th&gt;
&lt;td&gt;352320600006&lt;/td&gt;
&lt;/tr&gt;&lt;tr bgcolor="#E3E3F3"&gt;
&lt;th&gt;NM_LOCALIDADE&lt;/th&gt;
&lt;td&gt;Fazenda Brasil&lt;/td&gt;
&lt;/tr&gt;&lt;/table&gt;&lt;/center&gt;</description>
<Style>
<IconStyle>
<color>ff0069d3</color>
<scale>0.6</scale>
<Icon>
<href>http://maps.google.com/mapfiles/kml/shapes/placemark_circle.png</href>
</Icon>
</IconStyle>
<LabelStyle>
<scale>0.6</scale>
</LabelStyle>
<LineStyle>
<width>1.0</width>
<gx:labelVisibility>1</gx:labelVisibility>
</LineStyle>
</Style>
<ExtendedData>
<SchemaData schemaUrl="#kml_schema_ft_Localidades">
<SimpleData name="CD_UF">35</SimpleData>
<SimpleData name="NM_UF">São Paulo</SimpleData>
<SimpleData name="SIGLA_UF">SP</SimpleData>
<SimpleData name="CD_MUN">3523206</SimpleData>
<SimpleData name="NM_MUN">Itararé</SimpleData>
<SimpleData name="CD_RGINT">3502</SimpleData>
<SimpleData name="NM_RGINT">Sorocaba</SimpleData>
<SimpleData name="CD_RGI">350004</SimpleData>
<SimpleData name="NM_RGI">Itapeva</SimpleData>
<SimpleData name="CT_LOCALIDADE">Outras Localidades</SimpleData>
<SimpleData name="CD_LOCALIDADE">352320600006</SimpleData>
<SimpleData name="NM_LOCALIDADE">Fazenda Brasil</SimpleData>
</SchemaData>
</ExtendedData>
<Point>
<extrude>0</extrude>
<coordinates>-49.243225,-24.0357499992966,0.0</coordinates>
</Point>
</Placemark>
<Placemark id="12. Outras Localidades">
<name>Bairro do Matão [352320600007]</name>
<visibility>1</visibility>
<snippet> </snippet>
<description>&lt;center&gt;&lt;table&gt;&lt;tr&gt;&lt;th colspan='2' align='center'&gt;&lt;em&gt;Attributes&lt;/em&gt;&lt;/th&gt;&lt;/tr&gt;&lt;tr bgcolor="#E3E3F3"&gt;
&lt;th&gt;CD_UF&lt;/th&gt;
&lt;td&gt;35&lt;/td&gt;
&lt;/tr&gt;&lt;tr bgcolor=""&gt;
&lt;th&gt;NM_UF&lt;/th&gt;
&lt;td&gt;São Paulo&lt;/td&gt;
&lt;/tr&gt;&lt;tr bgcolor="#E3E3F3"&gt;
&lt;th&gt;SIGLA_UF&lt;/th&gt;
&lt;td&gt;SP&lt;/td&gt;
&lt;/tr&gt;&lt;tr bgcolor=""&gt;
&lt;th&gt;CD_MUN&lt;/th&gt;
&lt;td&gt;3523206&lt;/td&gt;
&lt;/tr&gt;&lt;tr bgcolor="#E3E3F3"&gt;
&lt;th&gt;NM_MUN&lt;/th&gt;
&lt;td&gt;Itararé&lt;/td&gt;
&lt;/tr&gt;&lt;tr bgcolor=""&gt;
&lt;th&gt;CD_RGINT&lt;/th&gt;
&lt;td&gt;3502&lt;/td&gt;
&lt;/tr&gt;&lt;tr bgcolor="#E3E3F3"&gt;
&lt;th&gt;NM_RGINT&lt;/th&gt;
&lt;td&gt;Sorocaba&lt;/td&gt;
&lt;/tr&gt;&lt;tr bgcolor=""&gt;
&lt;th&gt;CD_RGI&lt;/th&gt;
&lt;td&gt;350004&lt;/td&gt;
&lt;/tr&gt;&lt;tr bgcolor="#E3E3F3"&gt;
&lt;th&gt;NM_RGI&lt;/th&gt;
&lt;td&gt;Itapeva&lt;/td&gt;
&lt;/tr&gt;&lt;tr bgcolor=""&gt;
&lt;th&gt;CT_LOCALIDADE&lt;/th&gt;
&lt;td&gt;Outras Localidades&lt;/td&gt;
&lt;/tr&gt;&lt;tr bgcolor="#E3E3F3"&gt;
&lt;th&gt;SCT_LOCALIDADE&lt;/th&gt;
&lt;td&gt;&lt;/td&gt;
&lt;/tr&gt;&lt;tr bgcolor=""&gt;
&lt;th&gt;CD_LOCALIDADE&lt;/th&gt;
&lt;td&gt;352320600007&lt;/td&gt;
&lt;/tr&gt;&lt;tr bgcolor="#E3E3F3"&gt;
&lt;th&gt;NM_LOCALIDADE&lt;/th&gt;
&lt;td&gt;Bairro do Matão&lt;/td&gt;
&lt;/tr&gt;&lt;/table&gt;&lt;/center&gt;</description>
<Style>
<IconStyle>
<color>ff0069d3</color>
<scale>0.6</scale>
<Icon>
<href>http://maps.google.com/mapfiles/kml/shapes/placemark_circle.png</href>
</Icon>
</IconStyle>
<LabelStyle>
<scale>0.6</scale>
</LabelStyle>
<LineStyle>
<width>1.0</width>
<gx:labelVisibility>1</gx:labelVisibility>
</LineStyle>
</Style>
<ExtendedData>
<SchemaData schemaUrl="#kml_schema_ft_Localidades">
<SimpleData name="CD_UF">35</SimpleData>
<SimpleData name="NM_UF">São Paulo</SimpleData>
<SimpleData name="SIGLA_UF">SP</SimpleData>
<SimpleData name="CD_MUN">3523206</SimpleData>
<SimpleData name="NM_MUN">Itararé</SimpleData>
<SimpleData name="CD_RGINT">3502</SimpleData>
<SimpleData name="NM_RGINT">Sorocaba</SimpleData>
<SimpleData name="CD_RGI">350004</SimpleData>
<SimpleData name="NM_RGI">Itapeva</SimpleData>
<SimpleData name="CT_LOCALIDADE">Outras Localidades</SimpleData>
<SimpleData name="CD_LOCALIDADE">352320600007</SimpleData>
<SimpleData name="NM_LOCALIDADE">Bairro do Matão</SimpleData>
</SchemaData>
</ExtendedData>
<Point>
<extrude>0</extrude>
<coordinates>-49.427688,-23.9485869992986,0.0</coordinates>
</Point>
</Placemark>
</Folder>
<Folder id="13. Referência">
<name>13. Referência</name>
<Placemark id="13. Referência">
<name>Itararé [3523206]</name>
<visibility>1</visibility>
<snippet> </snippet>
<description>&lt;center&gt;&lt;table&gt;&lt;tr&gt;&lt;th colspan='2' align='center'&gt;&lt;em&gt;Attributes&lt;/em&gt;&lt;/th&gt;&lt;/tr&gt;&lt;tr bgcolor="#E3E3F3"&gt;
&lt;th&gt;CD_UF&lt;/th&gt;
&lt;td&gt;35&lt;/td&gt;
&lt;/tr&gt;&lt;tr bgcolor=""&gt;
&lt;th&gt;NM_UF&lt;/th&gt;
&lt;td&gt;São Paulo&lt;/td&gt;
&lt;/tr&gt;&lt;tr bgcolor="#E3E3F3"&gt;
&lt;th&gt;CD_MUN&lt;/th&gt;
&lt;td&gt;3523206&lt;/td&gt;
&lt;/tr&gt;&lt;tr bgcolor=""&gt;
&lt;th&gt;NM_MUN&lt;/th&gt;
&lt;td&gt;Itararé&lt;/td&gt;
&lt;/tr&gt;&lt;tr bgcolor="#E3E3F3"&gt;
&lt;th&gt;CD_RGINT&lt;/th&gt;
&lt;td&gt;3502&lt;/td&gt;
&lt;/tr&gt;&lt;tr bgcolor=""&gt;
&lt;th&gt;NM_RGINT&lt;/th&gt;
&lt;td&gt;Sorocaba&lt;/td&gt;
&lt;/tr&gt;&lt;tr bgcolor="#E3E3F3"&gt;
&lt;th&gt;CD_RGI&lt;/th&gt;
&lt;td&gt;350004&lt;/td&gt;
&lt;/tr&gt;&lt;tr bgcolor=""&gt;
&lt;th&gt;NM_RGI&lt;/th&gt;
&lt;td&gt;Itapeva&lt;/td&gt;
&lt;/tr&gt;&lt;/table&gt;&lt;/center&gt;</description>
<Style>
<IconStyle>
<scale>0.7</scale>
</IconStyle>
<LabelStyle>
<scale>0.7</scale>
</LabelStyle>
<LineStyle>
<color>ffffffff</color>
<width>3</width>
<gx:labelVisibility>1</gx:labelVisibility>
</LineStyle>
<PolyStyle>
<color>00ffffff</color>
</PolyStyle>
</Style>
<ExtendedData>
<SchemaData schemaUrl="#kml_schema_ft_Município">
<SimpleData name="CD_UF">35</SimpleData>
<SimpleData name="NM_UF">São Paulo</SimpleData>
<SimpleData name="CD_MUN">3523206</SimpleData>
<SimpleData name="NM_MUN">Itararé</SimpleData>
<SimpleData name="CD_RGINT">3502</SimpleData>
<SimpleData name="NM_RGINT">Sorocaba</SimpleData>
<SimpleData name="CD_RGI">350004</SimpleData>
<SimpleData name="NM_RGI">Itapeva</SimpleData>
</SchemaData>
</ExtendedData>
<MultiGeometry>
<Polygon>
<extrude>0</extrude>
<tessellate>1</tessellate>
<outerBoundaryIs>
<LinearRing>
<coordinates>-49.3689221,-24.1164222992949,0.0 -49.3693167,-24.1152938992949,0.0 -49.3708465,-24.1143833992949,0.0 -49.3756244,-24.1177817992948,0.0 -49.3779931,-24.1180928992948,0.0 -49.3831809,-24.1151079992949,0.0 -49.3847347,-24.1159656992949,0.0 -49.3869328,-24.1158705992949,0.0 -49.3883536,-24.1174169992948,0.0 -49.3883984,-24.1186354992948,0.0 -49.3891,-24.1196286992948,0.0 -49.3893523,-24.1193918992948,0.0 -49.39185,-24.1170441992949,0.0 -49.3923465,-24.1150587992949,0.0 -49.3939486,-24.1141033992949,0.0 -49.4002901,-24.111702099295,0.0 -49.4023216,-24.109936899295,0.0 -49.4039289,-24.109298699295,0.0 -49.4078734,-24.109075599295,0.0 -49.409069,-24.108309599295,0.0 -49.4091526,-24.108256199295,0.0 -49.4087083,-24.1068923992951,0.0 -49.4050025,-24.1035758992951,0.0 -49.4047046,-24.1021515992952,0.0 -49.4074284,-24.0991962992952,0.0 -49.4078182,-24.0979275992953,0.0 -49.4046842,-24.0972572992953,0.0 -49.4048821,-24.0958493992953,0.0 -49.4088798,-24.0944027992954,0.0 -49.4102982,-24.0946686992953,0.0 -49.4110104,-24.0931313992954,0.0 -49.4122107,-24.0928619992954,0.0 -49.4146847,-24.0949801992953,0.0 -49.416262,-24.0943040992953,0.0 -49.4157082,-24.0927683992954,0.0 -49.4178191,-24.0912729992954,0.0 -49.419262,-24.0908205992954,0.0 -49.4209871,-24.0909532992954,0.0 -49.4219878,-24.0921713992954,0.0 -49.4248797,-24.0902667992954,0.0 -49.4257582,-24.0885018992955,0.0 -49.427012,-24.0872779992955,0.0 -49.4300107,-24.0885359992955,0.0 -49.4314033,-24.0868674992955,0.0 -49.4318438,-24.0856012992955,0.0 -49.4315369,-24.0810829992956,0.0 -49.4309599,-24.0799882992957,0.0 -49.4290126,-24.0780373992957,0.0 -49.4299605,-24.0768232992957,0.0 -49.4321283,-24.0762310992958,0.0 -49.4340155,-24.0759520992958,0.0 -49.4353899,-24.0750947992958,0.0 -49.4328167,-24.0736081992958,0.0 -49.4319514,-24.0725670992958,0.0 -49.4320132,-24.0719634992958,0.0 -49.4297862,-24.0687087992959,0.0 -49.431097,-24.0681171992959,0.0 -49.4348729,-24.0676178992959,0.0 -49.4376706,-24.0689299992959,0.0 -49.4389829,-24.0687477992959,0.0 -49.4400175,-24.066833899296,0.0 -49.440203,-24.062956399296,0.0 -49.4378235,-24.0587862992961,0.0 -49.4400991,-24.0578340992961,0.0 -49.4446928,-24.0577904992961,0.0 -49.4446947,-24.0577901992962,0.0 -49.4498477,-24.0564216992962,0.0 -49.4519255,-24.0552471992962,0.0 -49.453846,-24.0526998992963,0.0 -49.4575401,-24.0494851992963,0.0 -49.4579424,-24.0484258992964,0.0 -49.4575992,-24.0467227992964,0.0 -49.457654,-24.0451378992964,0.0 -49.4583806,-24.0437808992965,0.0 -49.45957,-24.0426902992965,0.0 -49.460988,-24.0401135992965,0.0 -49.4622032,-24.0391192992966,0.0 -49.4626573,-24.0381673992966,0.0 -49.4620351,-24.0360041992966,0.0 -49.4614914,-24.0336361992967,0.0 -49.461264,-24.0330460992967,0.0 -49.462449,-24.0311453992967,0.0 -49.4634251,-24.0275018992968,0.0 -49.4634431,-24.0274357992968,0.0 -49.4663405,-24.0258959992968,0.0 -49.4695843,-24.0257502992969,0.0 -49.4710901,-24.0261676992968,0.0 -49.4731234,-24.0276682992968,0.0 -49.4737593,-24.0273148992968,0.0 -49.4749425,-24.0241436992969,0.0 -49.4738898,-24.020547599297,0.0 -49.4743817,-24.020059699297,0.0 -49.4776987,-24.020091699297,0.0 -49.4796049,-24.019439599297,0.0 -49.4803566,-24.020075299297,0.0 -49.4805834,-24.0231173992969,0.0 -49.4815674,-24.0240562992969,0.0 -49.4845379,-24.0238773992969,0.0 -49.4871537,-24.0245997992969,0.0 -49.4877922,-24.0235103992969,0.0 -49.4875964,-24.0221081992969,0.0 -49.4900451,-24.020113199297,0.0 -49.4901549,-24.018659599297,0.0 -49.4861554,-24.0166328992971,0.0 -49.4873495,-24.0153596992971,0.0 -49.4915171,-24.0154478992971,0.0 -49.491868,-24.0146951992971,0.0 -49.4920688,-24.0142648992971,0.0 -49.4896575,-24.0126335992971,0.0 -49.4875423,-24.0120965992972,0.0 -49.4834869,-24.0119219992972,0.0 -49.4810197,-24.0088045992972,0.0 -49.480571,-24.0061713992973,0.0 -49.4814223,-24.0052242992973,0.0 -49.4848215,-24.0065810992973,0.0 -49.4861806,-24.0065758992973,0.0 -49.4868273,-24.0052623992973,0.0 -49.487206,-24.0039940992973,0.0 -49.486405,-24.0004386992974,0.0 -49.4893038,-23.9990858992974,0.0 -49.4901004,-23.9976297992975,0.0 -49.490416,-23.9972804992975,0.0 -49.4909084,-23.9963839992975,0.0 -49.4915792,-23.9946323992975,0.0 -49.4922699,-23.9933785992976,0.0 -49.4932422,-23.9930439992976,0.0 -49.496239,-23.9942310992975,0.0 -49.4977296,-23.9942363992975,0.0 -49.4981248,-23.9938082992976,0.0 -49.4983506,-23.9928873992976,0.0 -49.49692,-23.9884035992977,0.0 -49.4964467,-23.9875535992977,0.0 -49.4956509,-23.9865625992977,0.0 -49.4963533,-23.9850433992978,0.0 -49.4959982,-23.9836348992978,0.0 -49.4956433,-23.9822267992978,0.0 -49.4951286,-23.9810102992978,0.0 -49.4936847,-23.9775957992979,0.0 -49.4949099,-23.9761172992979,0.0 -49.4954905,-23.975846899298,0.0 -49.4975718,-23.974042199298,0.0 -49.4985759,-23.971767399298,0.0 -49.5006007,-23.9694894992981,0.0 -49.5044735,-23.9677186992981,0.0 -49.5072424,-23.9673936992981,0.0 -49.508178,-23.9684139992981,0.0 -49.5092356,-23.9713626992981,0.0 -49.5107702,-23.971956199298,0.0 -49.5118494,-23.9713677992981,0.0 -49.5151005,-23.9703444992981,0.0 -49.516432,-23.9705013992981,0.0 -49.5167568,-23.9701224992981,0.0 -49.5167279,-23.9697098992981,0.0 -49.5146256,-23.9669329992981,0.0 -49.5137065,-23.9643973992982,0.0 -49.5133855,-23.9642685992982,0.0 -49.5106939,-23.9643846992982,0.0 -49.5091146,-23.9639204992982,0.0 -49.5071541,-23.9627126992982,0.0 -49.5056359,-23.9610843992983,0.0 -49.5002115,-23.9596220992983,0.0 -49.4996675,-23.9592097992983,0.0 -49.4996328,-23.9584293992983,0.0 -49.5000358,-23.9579761992984,0.0 -49.501351,-23.9573249992984,0.0 -49.5042857,-23.9564426992984,0.0 -49.5056688,-23.9548440992984,0.0 -49.505654,-23.9539395992984,0.0 -49.5051619,-23.9528272992985,0.0 -49.5035878,-23.9502944992985,0.0 -49.5030028,-23.9487746992986,0.0 -49.5029134,-23.9485421992986,0.0 -49.5039222,-23.9471732992986,0.0 -49.5056408,-23.9476126992986,0.0 -49.5081925,-23.9479759992986,0.0 -49.5102468,-23.9478597992986,0.0 -49.5114433,-23.9472575992986,0.0 -49.5117332,-23.9455856992986,0.0 -49.5126588,-23.9446855992986,0.0 -49.5138758,-23.9444223992986,0.0 -49.519791,-23.9470259992986,0.0 -49.5210997,-23.9461017992986,0.0 -49.5228424,-23.9406138992987,0.0 -49.5230453,-23.9385258992988,0.0 -49.5243506,-23.9365184992988,0.0 -49.5244665,-23.9351530992988,0.0 -49.523322,-23.9344171992989,0.0 -49.5193602,-23.9364688992988,0.0 -49.5143571,-23.9377638992988,0.0 -49.5122108,-23.9376877992988,0.0 -49.5103722,-23.9371558992988,0.0 -49.5094027,-23.9363752992988,0.0 -49.508046,-23.9337245992989,0.0 -49.508382,-23.9325392992989,0.0 -49.5096007,-23.9313434992989,0.0 -49.5145804,-23.9316034992989,0.0 -49.5148331,-23.9313661992989,0.0 -49.5154003,-23.9304825992989,0.0 -49.5152672,-23.929218199299,0.0 -49.5141017,-23.927966999299,0.0 -49.5124829,-23.927009899299,0.0 -49.5116047,-23.9258998992991,0.0 -49.5125437,-23.9247149992991,0.0 -49.5169049,-23.9233525992991,0.0 -49.5183536,-23.9217836992991,0.0 -49.518905,-23.9206716992992,0.0 -49.5201796,-23.9193040992992,0.0 -49.5214042,-23.9188710992992,0.0 -49.5223253,-23.9177805992992,0.0 -49.5223359,-23.9165645992993,0.0 -49.5160179,-23.9160411992993,0.0 -49.5149599,-23.9153769992993,0.0 -49.5139325,-23.9144000992993,0.0 -49.5111803,-23.9129764992993,0.0 -49.5094096,-23.9125212992993,0.0 -49.5077434,-23.9124006992993,0.0 -49.5065147,-23.9116187992994,0.0 -49.5057899,-23.9106137992994,0.0 -49.504324,-23.9097879992994,0.0 -49.5030229,-23.9078913992995,0.0 -49.5028243,-23.9075198992995,0.0 -49.5027149,-23.9073779992995,0.0 -49.5026787,-23.9071981992995,0.0 -49.5024763,-23.9071468992995,0.0 -49.5023427,-23.9071138992995,0.0 -49.5021985,-23.9070068992995,0.0 -49.5020413,-23.9070264992995,0.0 -49.5019524,-23.9070960992995,0.0 -49.501861,-23.9073872992995,0.0 -49.5017593,-23.9075763992995,0.0 -49.501537,-23.9079226992995,0.0 -49.5013466,-23.9081636992994,0.0 -49.5011673,-23.9084470992994,0.0 -49.5010401,-23.9085161992994,0.0 -49.5008751,-23.9085497992994,0.0 -49.5006379,-23.9085333992994,0.0 -49.5004198,-23.9085242992994,0.0 -49.5003447,-23.9083982992994,0.0 -49.5005149,-23.9082470992994,0.0 -49.5005317,-23.9081134992994,0.0 -49.5004599,-23.9080318992994,0.0 -49.5003222,-23.9080199992994,0.0 -49.5002183,-23.9080681992994,0.0 -49.5000752,-23.9081899992994,0.0 -49.4998723,-23.9081880992994,0.0 -49.4995744,-23.9081287992994,0.0 -49.4994311,-23.9079373992995,0.0 -49.4994657,-23.9075962992995,0.0 -49.4996187,-23.9072773992995,0.0 -49.4996635,-23.9070420992995,0.0 -49.499642,-23.9069115992995,0.0 -49.4994807,-23.9069557992995,0.0 -49.4993238,-23.9069471992995,0.0 -49.4992719,-23.9068058992995,0.0 -49.4992236,-23.9066751992995,0.0 -49.4990789,-23.9066068992995,0.0 -49.498883,-23.9066647992995,0.0 -49.4986742,-23.9068422992995,0.0 -49.4984609,-23.9070725992995,0.0 -49.4983366,-23.9071546992995,0.0 -49.4980388,-23.9071598992995,0.0 -49.4978349,-23.9072458992995,0.0 -49.4977898,-23.9074988992995,0.0 -49.4975927,-23.9076623992995,0.0 -49.4968237,-23.9081601992994,0.0 -49.4963142,-23.9083010992994,0.0 -49.4959649,-23.9083715992994,0.0 -49.4955262,-23.9082335992994,0.0 -49.4951839,-23.9083744992994,0.0 -49.495189,-23.9085892992994,0.0 -49.4950032,-23.9087669992994,0.0 -49.4945264,-23.9086109992994,0.0 -49.4940067,-23.9085213992994,0.0 -49.493566,-23.9085628992994,0.0 -49.493288,-23.9087607992994,0.0 -49.4929203,-23.9091020992994,0.0 -49.4924271,-23.9093752992994,0.0 -49.4921795,-23.9095910992994,0.0 -49.4917626,-23.9095490992994,0.0 -49.4915149,-23.9097887992994,0.0 -49.4914516,-23.9099641992994,0.0 -49.4911176,-23.9100382992994,0.0 -49.4909269,-23.9099765992994,0.0 -49.4907763,-23.9097533992994,0.0 -49.4905095,-23.9096521992994,0.0 -49.4905573,-23.9098250992994,0.0 -49.4904191,-23.9098518992994,0.0 -49.490286,-23.9097801992994,0.0 -49.4899401,-23.9098859992994,0.0 -49.4895228,-23.9098853992994,0.0 -49.4893708,-23.9101196992994,0.0 -49.4892603,-23.9103966992994,0.0 -49.4892148,-23.9106953992994,0.0 -49.4890541,-23.9110141992994,0.0 -49.4888309,-23.9111069992994,0.0 -49.488573,-23.9112241992994,0.0 -49.4884064,-23.9113984992994,0.0 -49.4880534,-23.9114583992994,0.0 -49.4878664,-23.9114072992994,0.0 -49.4876947,-23.9110324992994,0.0 -49.4874786,-23.9111710992994,0.0 -49.4873488,-23.9111100992994,0.0 -49.4868746,-23.9107560992994,0.0 -49.4868269,-23.9105839992994,0.0 -49.4866753,-23.9104486992994,0.0 -49.4864889,-23.9103274992994,0.0 -49.4864849,-23.9100349992994,0.0 -49.4865279,-23.9096341992994,0.0 -49.4864777,-23.9093379992994,0.0 -49.4861957,-23.9092225992994,0.0 -49.4859413,-23.9093713992994,0.0 -49.4855783,-23.9093114992994,0.0 -49.4850845,-23.9089687992994,0.0 -49.4847216,-23.9089017992994,0.0 -49.4845488,-23.9090490992994,0.0 -49.4845005,-23.9094768992994,0.0 -49.4838182,-23.9098714992994,0.0 -49.4838769,-23.9100937992994,0.0 -49.4833902,-23.9107823992994,0.0 -49.4832193,-23.9110642992994,0.0 -49.4834181,-23.9113458992994,0.0 -49.4835611,-23.9115619992994,0.0 -49.4834976,-23.9117513992994,0.0 -49.4832006,-23.9119385992994,0.0 -49.4828167,-23.9120334992994,0.0 -49.4825761,-23.9119781992994,0.0 -49.4820441,-23.9119587992994,0.0 -49.4818247,-23.9120586992994,0.0 -49.4817636,-23.9122628992994,0.0 -49.4817791,-23.9126812992993,0.0 -49.4817511,-23.9127865992993,0.0 -49.4815841,-23.9129890992993,0.0 -49.481373,-23.9130292992993,0.0 -49.4812519,-23.9129118992993,0.0 -49.4812886,-23.9127186992993,0.0 -49.4811444,-23.9126045992993,0.0 -49.4809933,-23.9126527992993,0.0 -49.4809374,-23.9129545992993,0.0 -49.4807409,-23.9130581992993,0.0 -49.480619,-23.9133350992993,0.0 -49.480468,-23.9134743992993,0.0 -49.4803285,-23.9136208992993,0.0 -49.4801442,-23.9136612992993,0.0 -49.4799273,-23.9135534992993,0.0 -49.4796976,-23.9135925992993,0.0 -49.4794184,-23.9138511992993,0.0 -49.4791908,-23.9139896992993,0.0 -49.4789842,-23.9140254992993,0.0 -49.4785193,-23.9137929992993,0.0 -49.4782411,-23.9136775992993,0.0 -49.4780685,-23.9137040992993,0.0 -49.4780898,-23.9137931992993,0.0 -49.4781342,-23.9139792992993,0.0 -49.478174,-23.9141802992993,0.0 -49.4780185,-23.9143758992993,0.0 -49.4778991,-23.9144344992993,0.0 -49.477554,-23.9144838992993,0.0 -49.4773306,-23.9145907992993,0.0 -49.4771468,-23.9145924992993,0.0 -49.4768621,-23.9147093992993,0.0 -49.4767544,-23.9147317992993,0.0 -49.4765993,-23.9145905992993,0.0 -49.4764892,-23.9146311992993,0.0 -49.4763474,-23.9148520992993,0.0 -49.4762294,-23.9151148992993,0.0 -49.4760707,-23.9152646992993,0.0 -49.4758372,-23.9152623992993,0.0 -49.4754708,-23.9151566992993,0.0 -49.4749578,-23.9150583992993,0.0 -49.4747089,-23.9148287992993,0.0 -49.4745138,-23.9148281992993,0.0 -49.4742794,-23.9148843992993,0.0 -49.4739329,-23.9148620992993,0.0 -49.4735674,-23.9145464992993,0.0 -49.4734412,-23.9142843992993,0.0 -49.4735486,-23.9135395992993,0.0 -49.47363,-23.9131285992993,0.0 -49.4737739,-23.9129398992993,0.0 -49.4737497,-23.9127214992993,0.0 -49.4736045,-23.9123679992994,0.0 -49.4733024,-23.9120094992994,0.0 -49.4729528,-23.9117807992994,0.0 -49.4727649,-23.9118105992994,0.0 -49.472687,-23.9119188992994,0.0 -49.4727648,-23.9121414992994,0.0 -49.4727403,-23.9122714992994,0.0 -49.4725075,-23.9122057992994,0.0 -49.4720372,-23.9118279992994,0.0 -49.4715962,-23.9115631992994,0.0 -49.4713258,-23.9114407992994,0.0 -49.471273,-23.9117006992994,0.0 -49.4711839,-23.9117877992994,0.0 -49.4707114,-23.9119168992994,0.0 -49.470032,-23.9114173992994,0.0 -49.4697406,-23.9114460992994,0.0 -49.4694007,-23.9116996992994,0.0 -49.4692492,-23.9118882992994,0.0 -49.4692689,-23.9121594992994,0.0 -49.4691893,-23.9124191992993,0.0 -49.4691405,-23.9126650992993,0.0 -49.4693066,-23.9128673992993,0.0 -49.469444,-23.9129038992993,0.0 -49.4695652,-23.9130141992993,0.0 -49.4696212,-23.9131344992993,0.0 -49.4696006,-23.9132574992993,0.0 -49.4693252,-23.9132335992993,0.0 -49.4691348,-23.9131471992993,0.0 -49.4689883,-23.9132337992993,0.0 -49.4689055,-23.9134335992993,0.0 -49.4688531,-23.9136547992993,0.0 -49.4689296,-23.9137990992993,0.0 -49.4692185,-23.9138449992993,0.0 -49.4695338,-23.9140522992993,0.0 -49.469853,-23.9142560992993,0.0 -49.4701023,-23.9145436992993,0.0 -49.4702825,-23.9148551992993,0.0 -49.4704781,-23.9151492992993,0.0 -49.4705572,-23.9155830992993,0.0 -49.4705999,-23.9158614992993,0.0 -49.4705461,-23.9162023992993,0.0 -49.4703329,-23.9167458992993,0.0 -49.4701094,-23.9171976992992,0.0 -49.4699268,-23.9174211992992,0.0 -49.4697765,-23.9175041992992,0.0 -49.4696413,-23.9172774992992,0.0 -49.469489,-23.9172830992992,0.0 -49.4694136,-23.9174265992992,0.0 -49.469404,-23.9175919992992,0.0 -49.4692386,-23.9176606992992,0.0 -49.469106,-23.9175431992992,0.0 -49.4690858,-23.9173071992992,0.0 -49.4691874,-23.9171321992992,0.0 -49.469154,-23.9170403992992,0.0 -49.4690308,-23.9170575992992,0.0 -49.468803,-23.9172550992992,0.0 -49.4686329,-23.9173941992993,0.0 -49.4683604,-23.9174512992992,0.0 -49.4682389,-23.9176894992992,0.0 -49.4681032,-23.9178323992992,0.0 -49.4679186,-23.9178974992992,0.0 -49.46779,-23.9177659992992,0.0 -49.4676287,-23.9174827992992,0.0 -49.4675261,-23.9174183992992,0.0 -49.4673383,-23.9174340992992,0.0 -49.4672869,-23.9169196992992,0.0 -49.4673796,-23.9168536992993,0.0 -49.4673578,-23.9167549992993,0.0 -49.4672007,-23.9167603992993,0.0 -49.4669771,-23.9168919992993,0.0 -49.4667761,-23.9170553992992,0.0 -49.4666828,-23.9171705992992,0.0 -49.4664873,-23.9171897992992,0.0 -49.4662484,-23.9169937992992,0.0 -49.4661201,-23.9168340992993,0.0 -49.4662145,-23.9166238992993,0.0 -49.4662625,-23.9164483992993,0.0 -49.4661957,-23.9162681992993,0.0 -49.4659011,-23.9162476992993,0.0 -49.4656696,-23.9160763992993,0.0 -49.4656678,-23.9159073992993,0.0 -49.4656881,-23.9158055992993,0.0 -49.4656349,-23.9156828992993,0.0 -49.4655177,-23.9156418992993,0.0 -49.4653713,-23.9153975992993,0.0 -49.4650038,-23.9150665992993,0.0 -49.4646034,-23.9146084992993,0.0 -49.4643276,-23.9146162992993,0.0 -49.4640676,-23.9145855992993,0.0 -49.4638214,-23.9146816992993,0.0 -49.4635579,-23.9146297992993,0.0 -49.4633606,-23.9144728992993,0.0 -49.4627379,-23.9146813992993,0.0 -49.4619432,-23.9148599992993,0.0 -49.4616239,-23.9146596992993,0.0 -49.4606781,-23.9148326992993,0.0 -49.4601016,-23.9151794992993,0.0 -49.4597891,-23.9153769992993,0.0 -49.4595014,-23.9154162992993,0.0 -49.4593458,-23.9153020992993,0.0 -49.4593778,-23.9151862992993,0.0 -49.4594522,-23.9150532992993,0.0 -49.4593009,-23.9148933992993,0.0 -49.4591137,-23.9148597992993,0.0 -49.4590007,-23.9150205992993,0.0 -49.4590208,-23.9152671992993,0.0 -49.4591857,-23.9155679992993,0.0 -49.4591724,-23.9157192992993,0.0 -49.4593349,-23.9159003992993,0.0 -49.4592833,-23.9160546992993,0.0 -49.4591225,-23.9160530992993,0.0 -49.4591208,-23.9161938992993,0.0 -49.4590158,-23.9163336992993,0.0 -49.4587078,-23.9163485992993,0.0 -49.4585501,-23.9165366992993,0.0 -49.4584397,-23.9168957992992,0.0 -49.458428,-23.9171478992992,0.0 -49.4585215,-23.9173282992992,0.0 -49.4585679,-23.9176138992992,0.0 -49.4584202,-23.9178059992992,0.0 -49.458087,-23.9181334992992,0.0 -49.4577634,-23.9183390992992,0.0 -49.4574754,-23.9183666992992,0.0 -49.4572292,-23.9184627992992,0.0 -49.4569365,-23.9186076992992,0.0 -49.4567685,-23.9188875992992,0.0 -49.4565237,-23.9188675992992,0.0 -49.4559514,-23.9186998992992,0.0 -49.4557842,-23.9189128992992,0.0 -49.4521248,-23.9191563992992,0.0 -49.4504878,-23.9181989992992,0.0 -49.4498173,-23.9168638992993,0.0 -49.4489264,-23.9156230992993,0.0 -49.447709,-23.9153401992993,0.0 -49.4469865,-23.9143674992993,0.0 -49.4454608,-23.9135177992993,0.0 -49.4439612,-23.9132121992993,0.0 -49.442402,-23.9125074992993,0.0 -49.4400442,-23.9107313992994,0.0 -49.4385715,-23.9117013992994,0.0 -49.4377877,-23.9126700992993,0.0 -49.4364927,-23.9124155992993,0.0 -49.4352912,-23.9112078992994,0.0 -49.4344652,-23.9097175992994,0.0 -49.4339042,-23.9080413992994,0.0 -49.432653,-23.9070474992995,0.0 -49.4321643,-23.9069446992995,0.0 -49.4312084,-23.9067442992995,0.0 -49.4297374,-23.9061060992995,0.0 -49.426402,-23.9060089992995,0.0 -49.4249884,-23.9056913992995,0.0 -49.4238679,-23.9061472992995,0.0 -49.4220937,-23.9093397992994,0.0 -49.4209026,-23.9094836992994,0.0 -49.4189322,-23.9071520992995,0.0 -49.4173335,-23.9061531992995,0.0 -49.4138349,-23.9057788992995,0.0 -49.4081117,-23.9061850992995,0.0 -49.4046336,-23.9071751992995,0.0 -49.4031521,-23.9068921992995,0.0 -49.4016564,-23.9063691992995,0.0 -49.3989337,-23.9060906992995,0.0 -49.3972616,-23.9058335992995,0.0 -49.3961283,-23.9054023992995,0.0 -49.394649,-23.9053059992995,0.0 -49.3932161,-23.9058379992995,0.0 -49.3918451,-23.9060140992995,0.0 -49.3907634,-23.9065339992995,0.0 -49.3892939,-23.9066855992995,0.0 -49.3862694,-23.9060544992995,0.0 -49.3837637,-23.9063046992995,0.0 -49.3825379,-23.9060130992995,0.0 -49.3814264,-23.9046662992995,0.0 -49.3800214,-23.9038646992995,0.0 -49.3760113,-23.9050264992995,0.0 -49.3742947,-23.9051641992995,0.0 -49.3734378,-23.9049203992995,0.0 -49.3731103,-23.9048270992995,0.0 -49.3709584,-23.9042135992995,0.0 -49.3695065,-23.9041194992995,0.0 -49.3683439,-23.9035436992996,0.0 -49.3661411,-23.9033050992995,0.0 -49.3626969,-23.9036401992995,0.0 -49.3607989,-23.9039850992995,0.0 -49.3594096,-23.9044788992995,0.0 -49.3563016,-23.9051498992995,0.0 -49.3536402,-23.9058387992995,0.0 -49.3526355,-23.9050845992995,0.0 -49.3517976,-23.9045995992995,0.0 -49.3508676,-23.9041070992995,0.0 -49.3502176,-23.9039109992995,0.0 -49.3492815,-23.9039009992995,0.0 -49.3486536,-23.9042006992995,0.0 -49.3475401,-23.9041952992995,0.0 -49.3463721,-23.9037201992995,0.0 -49.3458149,-23.9032116992996,0.0 -49.3449182,-23.9028954992996,0.0 -49.3441662,-23.9023526992996,0.0 -49.3432674,-23.9016452992996,0.0 -49.3430746,-23.9011932992996,0.0 -49.3434018,-23.9011185992996,0.0 -49.3438277,-23.9010840992996,0.0 -49.3438254,-23.9007123992996,0.0 -49.3434016,-23.9005708992996,0.0 -49.3430268,-23.9004885992996,0.0 -49.3425955,-23.9005515992996,0.0 -49.3416415,-23.9001149992996,0.0 -49.3413237,-23.9000071992996,0.0 -49.3411013,-23.8996461992996,0.0 -49.3406651,-23.8993740992996,0.0 -49.3399605,-23.8990078992996,0.0 -49.3399135,-23.8988051992997,0.0 -49.3399174,-23.8984987992997,0.0 -49.3391586,-23.8984905992997,0.0 -49.3390169,-23.8982525992997,0.0 -49.3387309,-23.8981012992997,0.0 -49.3383945,-23.8983453992997,0.0 -49.3380863,-23.8985963992997,0.0 -49.337903,-23.8985096992997,0.0 -49.3378909,-23.8983464992997,0.0 -49.3377156,-23.8981375992997,0.0 -49.3374058,-23.8980151992997,0.0 -49.3370021,-23.8979716992997,0.0 -49.3368236,-23.8980610992997,0.0 -49.336708,-23.8982293992997,0.0 -49.336733,-23.8985219992997,0.0 -49.3361345,-23.8992664992996,0.0 -49.3358427,-23.8993415992996,0.0 -49.335575,-23.8993113992996,0.0 -49.3354445,-23.8994220992996,0.0 -49.3354233,-23.8999695992996,0.0 -49.3351958,-23.9002645992996,0.0 -49.3349739,-23.9007275992996,0.0 -49.3344268,-23.9010015992996,0.0 -49.3341138,-23.9014290992996,0.0 -49.3336957,-23.9013984992996,0.0 -49.3325509,-23.9010730992996,0.0 -49.3321541,-23.9006881992996,0.0 -49.3319749,-23.9006429992996,0.0 -49.3318029,-23.9007779992996,0.0 -49.3317221,-23.9009988992996,0.0 -49.3317109,-23.9013182992996,0.0 -49.3316498,-23.9015843992996,0.0 -49.331463,-23.9018436992996,0.0 -49.3312062,-23.9019582992996,0.0 -49.3310904,-23.9021396992996,0.0 -49.3309458,-23.9023532992996,0.0 -49.3308991,-23.9026787992996,0.0 -49.330748,-23.9028466992996,0.0 -49.3304903,-23.9030264992996,0.0 -49.3304524,-23.9032216992996,0.0 -49.3306795,-23.9037588992995,0.0 -49.3307482,-23.9039356992995,0.0 -49.3306675,-23.9041433992995,0.0 -49.3300024,-23.9048593992995,0.0 -49.3295785,-23.9045708992995,0.0 -49.3289848,-23.9041673992995,0.0 -49.3281518,-23.9032592992996,0.0 -49.326958,-23.9030681992996,0.0 -49.3258506,-23.9025237992996,0.0 -49.3245685,-23.9015642992996,0.0 -49.323263,-23.9012282992996,0.0 -49.3220388,-23.9005704992996,0.0 -49.318763,-23.8998593992996,0.0 -49.317427,-23.8998521992996,0.0 -49.3160947,-23.8994972992996,0.0 -49.3137665,-23.8977437992997,0.0 -49.3109341,-23.8965117992997,0.0 -49.3093977,-23.8963398992997,0.0 -49.308453,-23.8950220992997,0.0 -49.3065506,-23.8950821992997,0.0 -49.3050616,-23.8945512992997,0.0 -49.3037064,-23.8935271992998,0.0 -49.3002073,-23.8922098992998,0.0 -49.2997065,-23.8910622992998,0.0 -49.2987282,-23.8898064992998,0.0 -49.2977316,-23.8888653992999,0.0 -49.2963998,-23.8885022992999,0.0 -49.2937308,-23.8897900992998,0.0 -49.2905166,-23.8919440992998,0.0 -49.2893626,-23.8915241992998,0.0 -49.2886895,-23.8920882992998,0.0 -49.288543,-23.8919105992998,0.0 -49.2880019,-23.8915328992998,0.0 -49.2877372,-23.8911647992998,0.0 -49.2875405,-23.8908631992998,0.0 -49.2876538,-23.8904986992998,0.0 -49.2875359,-23.8902952992998,0.0 -49.2873166,-23.8902536992998,0.0 -49.2869458,-23.8904125992998,0.0 -49.2866865,-23.8907096992998,0.0 -49.2863006,-23.8909400992998,0.0 -49.2857548,-23.8909144992998,0.0 -49.2853675,-23.8907079992998,0.0 -49.2852932,-23.8904267992998,0.0 -49.2854379,-23.8902131992998,0.0 -49.2857997,-23.8896629992999,0.0 -49.2854632,-23.8893657992999,0.0 -49.2850071,-23.8894237992999,0.0 -49.2847471,-23.8888165992999,0.0 -49.2842123,-23.8879629992999,0.0 -49.2841053,-23.8874727992999,0.0 -49.2839376,-23.8867470992999,0.0 -49.2840159,-23.8861871992999,0.0 -49.2831635,-23.8852190993,0.0 -49.2827105,-23.8846206993,0.0 -49.2826133,-23.8849977993,0.0 -49.2824672,-23.8853221992999,0.0 -49.2821905,-23.8858668992999,0.0 -49.2818058,-23.8859994992999,0.0 -49.2815091,-23.8859178992999,0.0 -49.2813413,-23.8857334992999,0.0 -49.2813224,-23.8855571992999,0.0 -49.2814386,-23.8853498992999,0.0 -49.2816113,-23.8851561992999,0.0 -49.2816724,-23.8848242993,0.0 -49.2815693,-23.8845818993,0.0 -49.2813643,-23.8845273993,0.0 -49.281087,-23.8845829993,0.0 -49.2806615,-23.8845847993,0.0 -49.2802697,-23.8847238993,0.0 -49.2799131,-23.8848763993,0.0 -49.2798102,-23.8851490993,0.0 -49.279753,-23.8857222992999,0.0 -49.2796143,-23.8860206992999,0.0 -49.2787274,-23.8865910992999,0.0 -49.277661,-23.8873289992999,0.0 -49.2775125,-23.8878758992999,0.0 -49.2763753,-23.8885599992999,0.0 -49.2760816,-23.8887849992999,0.0 -49.2757648,-23.8891465992999,0.0 -49.2759174,-23.8894025992999,0.0 -49.2761434,-23.8894702992999,0.0 -49.276632,-23.8895279992999,0.0 -49.2770919,-23.8896047992998,0.0 -49.2774645,-23.8898502992998,0.0 -49.2775672,-23.8901252992999,0.0 -49.2774514,-23.8903065992998,0.0 -49.2767701,-23.8908792992998,0.0 -49.2759351,-23.8916657992998,0.0 -49.2755938,-23.8918767992998,0.0 -49.2744726,-23.8919293992998,0.0 -49.2736354,-23.8919591992998,0.0 -49.2730365,-23.8922001992998,0.0 -49.2726438,-23.8923978992998,0.0 -49.2725839,-23.8926384992998,0.0 -49.2726864,-23.8929265992998,0.0 -49.2729242,-23.8931769992998,0.0 -49.2732255,-23.8934542992998,0.0 -49.2734358,-23.8936391992998,0.0 -49.273781,-23.8938125992998,0.0 -49.2743578,-23.8941646992998,0.0 -49.2746719,-23.8945463992997,0.0 -49.2748246,-23.8947958992997,0.0 -49.2748985,-23.8951096992997,0.0 -49.2748233,-23.8954283992997,0.0 -49.2745286,-23.8957249992997,0.0 -49.2742254,-23.8961258992997,0.0 -49.2735443,-23.8966855992997,0.0 -49.2729743,-23.8969286992997,0.0 -49.2726527,-23.8970667992997,0.0 -49.2723048,-23.8970954992997,0.0 -49.2716016,-23.8971788992997,0.0 -49.2711963,-23.8972590992997,0.0 -49.2710724,-23.8975054992997,0.0 -49.271102,-23.8979491992997,0.0 -49.2716136,-23.8984113992997,0.0 -49.2722465,-23.8988162992997,0.0 -49.2727175,-23.8991279992996,0.0 -49.2729262,-23.8994367992996,0.0 -49.2729229,-23.8996845992996,0.0 -49.2727569,-23.8998978992996,0.0 -49.2724179,-23.9002345992996,0.0 -49.2723036,-23.9003883992996,0.0 -49.2723221,-23.9005971992996,0.0 -49.2725941,-23.9009458992996,0.0 -49.272945,-23.9012236992996,0.0 -49.2731952,-23.9012928992996,0.0 -49.2732604,-23.9015010992996,0.0 -49.2730585,-23.9017530992996,0.0 -49.2726611,-23.9017747992996,0.0 -49.2723078,-23.9016729992996,0.0 -49.2712711,-23.9012309992996,0.0 -49.2702077,-23.9006647992996,0.0 -49.2695899,-23.9001947992996,0.0 -49.2694871,-23.8999197992996,0.0 -49.2689967,-23.8994708992996,0.0 -49.2685073,-23.8989371992996,0.0 -49.268428,-23.8984994992997,0.0 -49.2681142,-23.8981046992997,0.0 -49.2676564,-23.8978647992997,0.0 -49.2669774,-23.8977266992997,0.0 -49.2666006,-23.8977941992997,0.0 -49.2665753,-23.8980938992997,0.0 -49.2666836,-23.8984797992997,0.0 -49.2674794,-23.8999688992996,0.0 -49.2674268,-23.9001900992996,0.0 -49.2671059,-23.9003233992996,0.0 -49.266437,-23.9004853992996,0.0 -49.2659191,-23.9004990992996,0.0 -49.2657504,-23.9003862992996,0.0 -49.2654621,-23.9002004992996,0.0 -49.2652541,-23.8998460992996,0.0 -49.2647324,-23.8990772992996,0.0 -49.2642324,-23.8982825992997,0.0 -49.2640382,-23.8978998992997,0.0 -49.2636685,-23.8974937992997,0.0 -49.2633291,-23.8972957992997,0.0 -49.2630516,-23.8970359992997,0.0 -49.2627213,-23.8967266992997,0.0 -49.2622921,-23.8964740992997,0.0 -49.2619162,-23.8964762992997,0.0 -49.2615601,-23.8965896992997,0.0 -49.2614427,-23.8968817992997,0.0 -49.2614868,-23.8972930992997,0.0 -49.2615909,-23.8976609992997,0.0 -49.2613057,-23.8981125992997,0.0 -49.2612526,-23.8988944992996,0.0 -49.2611566,-23.8995498992996,0.0 -49.2607786,-23.8998736992996,0.0 -49.2602369,-23.9000697992996,0.0 -49.2596055,-23.9000886992996,0.0 -49.2592025,-23.8999927992996,0.0 -49.2585666,-23.8998160992996,0.0 -49.2578409,-23.8999838992996,0.0 -49.2563419,-23.9007037992996,0.0 -49.2549984,-23.9014644992996,0.0 -49.2545157,-23.9020197992996,0.0 -49.2531654,-23.9032824992996,0.0 -49.2518173,-23.9043821992995,0.0 -49.2508662,-23.9049581992995,0.0 -49.2499764,-23.9057304992995,0.0 -49.2500717,-23.9060249992995,0.0 -49.2501726,-23.9064304992995,0.0 -49.2504064,-23.9064526992995,0.0 -49.2507139,-23.9062605992995,0.0 -49.2510302,-23.9059511992995,0.0 -49.2512683,-23.9056473992995,0.0 -49.251489,-23.9055846992995,0.0 -49.2516571,-23.9057430992995,0.0 -49.2520293,-23.9065493992995,0.0 -49.2522818,-23.9072825992995,0.0 -49.2521065,-23.9076652992995,0.0 -49.2517571,-23.9079914992994,0.0 -49.251582,-23.9086895992994,0.0 -49.2515914,-23.9090417992994,0.0 -49.2516945,-23.9092906992994,0.0 -49.2519543,-23.9094827992994,0.0 -49.2525184,-23.9097303992994,0.0 -49.2533509,-23.9100593992994,0.0 -49.2543308,-23.9102941992994,0.0 -49.2544802,-23.9104137992994,0.0 -49.2544893,-23.9113829992994,0.0 -49.2543979,-23.9118448992994,0.0 -49.2540993,-23.9129564992993,0.0 -49.2542727,-23.9132453992993,0.0 -49.2544299,-23.9136905992993,0.0 -49.254831,-23.9144514992993,0.0 -49.2547713,-23.9146724992993,0.0 -49.2544927,-23.9148192992993,0.0 -49.2539949,-23.9149179992993,0.0 -49.2533113,-23.9151188992993,0.0 -49.2528274,-23.9152307992993,0.0 -49.252064,-23.9155611992993,0.0 -49.2514935,-23.9157893992993,0.0 -49.251085,-23.9161042992993,0.0 -49.2510458,-23.9163776992993,0.0 -49.2513339,-23.9165830992993,0.0 -49.2515514,-23.9167615992993,0.0 -49.251937,-23.9170985992992,0.0 -49.252542,-23.9174705992992,0.0 -49.2530913,-23.9177636992992,0.0 -49.2531582,-23.9180644992992,0.0 -49.2527631,-23.9189597992992,0.0 -49.2522793,-23.9190716992992,0.0 -49.2517768,-23.9195092992992,0.0 -49.2511093,-23.9195669992992,0.0 -49.2504306,-23.9194026992992,0.0 -49.2498841,-23.9189009992992,0.0 -49.2496522,-23.9182070992992,0.0 -49.2491208,-23.9176402992992,0.0 -49.248861,-23.9169200992992,0.0 -49.248868,-23.9163984992993,0.0 -49.2487612,-23.9159017992993,0.0 -49.248225,-23.9156869992993,0.0 -49.2478263,-23.9157997992993,0.0 -49.2476363,-23.9162149992993,0.0 -49.2475004,-23.9168262992993,0.0 -49.2465923,-23.9173039992992,0.0 -49.2459723,-23.9173839992992,0.0 -49.2456723,-23.9174221992992,0.0 -49.245289,-23.9174709992992,0.0 -49.2448206,-23.9190157992992,0.0 -49.2445625,-23.9206931992992,0.0 -49.2445616,-23.9222983992991,0.0 -49.2442307,-23.9238167992991,0.0 -49.2433173,-23.9251667992991,0.0 -49.2427924,-23.926666599299,0.0 -49.2434593,-23.927536599299,0.0 -49.2443756,-23.928732299299,0.0 -49.244876,-23.9322337992989,0.0 -49.2456523,-23.9332827992989,0.0 -49.24571,-23.9347366992989,0.0 -49.2440734,-23.9356517992988,0.0 -49.2428408,-23.9359469992988,0.0 -49.2417862,-23.9365638992988,0.0 -49.2420446,-23.9378752992988,0.0 -49.2428228,-23.9390595992988,0.0 -49.2460141,-23.9421945992987,0.0 -49.2438486,-23.9433239992987,0.0 -49.2422903,-23.9432253992987,0.0 -49.2416275,-23.9444128992986,0.0 -49.2416773,-23.9459718992986,0.0 -49.2426201,-23.9470890992986,0.0 -49.2416772,-23.9478445992986,0.0 -49.2405686,-23.9473076992986,0.0 -49.2389334,-23.9460401992986,0.0 -49.2372578,-23.9458982992986,0.0 -49.2364811,-23.9491079992985,0.0 -49.2355728,-23.9501238992985,0.0 -49.236288,-23.9535257992984,0.0 -49.2352392,-23.9545381992984,0.0 -49.2337308,-23.9544193992984,0.0 -49.2329042,-23.9554828992984,0.0 -49.2341774,-23.9561176992984,0.0 -49.2346987,-23.9575498992984,0.0 -49.2317661,-23.9569707992984,0.0 -49.23037,-23.9570284992984,0.0 -49.231342,-23.9607138992983,0.0 -49.2303342,-23.9639722992982,0.0 -49.2275414,-23.9649557992982,0.0 -49.2264327,-23.9662274992982,0.0 -49.2248979,-23.9673778992981,0.0 -49.2237608,-23.9679794992981,0.0 -49.2227622,-23.9693842992981,0.0 -49.2216822,-23.9702775992981,0.0 -49.2203201,-23.9709801992981,0.0 -49.2192362,-23.972085099298,0.0 -49.2207581,-23.972935899298,0.0 -49.2203433,-23.974369599298,0.0 -49.2215699,-23.9764803992979,0.0 -49.2232061,-23.9763960992979,0.0 -49.2260345,-23.9773043992979,0.0 -49.226785,-23.9787851992979,0.0 -49.2258511,-23.9804324992979,0.0 -49.2230642,-23.9817763992978,0.0 -49.2220656,-23.9825397992978,0.0 -49.2206204,-23.9832785992978,0.0 -49.2204053,-23.9832466992978,0.0 -49.2190959,-23.9830537992978,0.0 -49.218042,-23.9823057992978,0.0 -49.2168959,-23.9818728992978,0.0 -49.2150138,-23.9818539992978,0.0 -49.2137896,-23.9816429992978,0.0 -49.2125146,-23.9810006992978,0.0 -49.2111835,-23.9811826992978,0.0 -49.2103368,-23.9821948992978,0.0 -49.2072154,-23.9826083992978,0.0 -49.2058204,-23.9836646992978,0.0 -49.2053779,-23.9852289992977,0.0 -49.20734,-23.9869105992977,0.0 -49.2067064,-23.9883509992977,0.0 -49.2057342,-23.9891411992977,0.0 -49.2042482,-23.9925374992976,0.0 -49.2011236,-24.0015509992974,0.0 -49.203369,-24.0027857992974,0.0 -49.2040148,-24.0047776992973,0.0 -49.2040649,-24.0059960992973,0.0 -49.2036744,-24.0075331992973,0.0 -49.2048222,-24.0086678992972,0.0 -49.2035409,-24.0100681992972,0.0 -49.203591,-24.0116559992972,0.0 -49.204926,-24.0116985992972,0.0 -49.2040649,-24.0166338992971,0.0 -49.2046746,-24.017931999297,0.0 -49.2044241,-24.019113999297,0.0 -49.2053722,-24.020333499297,0.0 -49.206648,-24.019877899297,0.0 -49.2073965,-24.020909199297,0.0 -49.2085979,-24.021451099297,0.0 -49.2089841,-24.0226241992969,0.0 -49.2073236,-24.0237171992969,0.0 -49.2056254,-24.0236272992969,0.0 -49.2044565,-24.0230061992969,0.0 -49.2026253,-24.0230553992969,0.0 -49.2032893,-24.0247712992969,0.0 -49.2021021,-24.0252746992969,0.0 -49.2005096,-24.0251996992969,0.0 -49.199287,-24.0258351992968,0.0 -49.1973183,-24.0256124992969,0.0 -49.1962074,-24.0266558992968,0.0 -49.1949602,-24.0273959992968,0.0 -49.1953448,-24.0286412992968,0.0 -49.1954341,-24.0289303992968,0.0 -49.1949967,-24.0293462992968,0.0 -49.1942909,-24.0300204992968,0.0 -49.1933167,-24.0313780992967,0.0 -49.1934892,-24.0333199992967,0.0 -49.1922028,-24.0348190992967,0.0 -49.1913197,-24.0377133992966,0.0 -49.1915643,-24.0389892992966,0.0 -49.1926193,-24.0406085992965,0.0 -49.1926779,-24.0418335992965,0.0 -49.1924849,-24.0433677992965,0.0 -49.1898494,-24.0446903992964,0.0 -49.1896004,-24.0465911992964,0.0 -49.1906776,-24.0472229992964,0.0 -49.1905133,-24.0506207992963,0.0 -49.1914523,-24.0528750992963,0.0 -49.1914056,-24.0541507992962,0.0 -49.1919211,-24.0584201992961,0.0 -49.1933691,-24.0602408992961,0.0 -49.1948455,-24.0612779992961,0.0 -49.1952607,-24.063623899296,0.0 -49.1951258,-24.064943699296,0.0 -49.1964059,-24.066919499296,0.0 -49.1982339,-24.0683178992959,0.0 -49.1997022,-24.0688078992959,0.0 -49.2011538,-24.0699332992959,0.0 -49.2011553,-24.0712925992959,0.0 -49.2001221,-24.0730607992958,0.0 -49.1990114,-24.0741114992958,0.0 -49.198116,-24.0753777992958,0.0 -49.1974245,-24.0768242992957,0.0 -49.1972856,-24.0792248992957,0.0 -49.1961252,-24.0813142992956,0.0 -49.1968195,-24.0825366992956,0.0 -49.1989582,-24.0837908992956,0.0 -49.2007339,-24.0841436992956,0.0 -49.2007012,-24.0853316992956,0.0 -49.2006968,-24.0854931992955,0.0 -49.2006815,-24.0860479992955,0.0 -49.1996459,-24.0902238992954,0.0 -49.1994879,-24.0911601992954,0.0 -49.1989573,-24.0924324992954,0.0 -49.1991481,-24.0952262992953,0.0 -49.1996262,-24.0979451992953,0.0 -49.1992381,-24.0991670992952,0.0 -49.199344,-24.1005214992952,0.0 -49.1987093,-24.1022039992952,0.0 -49.1971839,-24.1030199992952,0.0 -49.1962398,-24.1041081992951,0.0 -49.1946214,-24.1044366992951,0.0 -49.1915078,-24.1063475992951,0.0 -49.1902623,-24.1073073992951,0.0 -49.1871508,-24.108948999295,0.0 -49.1861228,-24.111169399295,0.0 -49.1848463,-24.111800399295,0.0 -49.1832858,-24.112260199295,0.0 -49.1817057,-24.112138499295,0.0 -49.175981,-24.1125707992949,0.0 -49.175013,-24.1134760992949,0.0 -49.1734853,-24.1142926992949,0.0 -49.1714561,-24.1146250992949,0.0 -49.1697857,-24.1161188992949,0.0 -49.168564,-24.1169369992949,0.0 -49.1666871,-24.1169074992949,0.0 -49.1642899,-24.1185422992948,0.0 -49.1632922,-24.1194474992948,0.0 -49.1627603,-24.1207645992948,0.0 -49.1618721,-24.1218957992947,0.0 -49.1604547,-24.1221328992947,0.0 -49.1582901,-24.1239108992947,0.0 -49.1574554,-24.1257101992947,0.0 -49.1572634,-24.1276153992946,0.0 -49.1560116,-24.1287566992946,0.0 -49.1556511,-24.1299341992946,0.0 -49.1549202,-24.1310170992945,0.0 -49.1537021,-24.1336085992945,0.0 -49.1534528,-24.1349183992945,0.0 -49.1503256,-24.1377753992944,0.0 -49.148565,-24.1389598992944,0.0 -49.145376,-24.1431820992943,0.0 -49.1435947,-24.1444143992943,0.0 -49.1422603,-24.1455969992942,0.0 -49.1412661,-24.1471776992942,0.0 -49.141154,-24.1485764992942,0.0 -49.1394564,-24.1518036992941,0.0 -49.1390904,-24.1534340992941,0.0 -49.1376515,-24.157598999294,0.0 -49.1366816,-24.1595982992939,0.0 -49.1356558,-24.1635367992938,0.0 -49.1358683,-24.1654339992938,0.0 -49.1365661,-24.1683212992937,0.0 -49.137125,-24.1746068992936,0.0 -49.1387045,-24.1811941992934,0.0 -49.1385898,-24.1826586992934,0.0 -49.1374876,-24.1842456992934,0.0 -49.1370375,-24.1858291992934,0.0 -49.1367056,-24.1869957992933,0.0 -49.1352384,-24.1898150992933,0.0 -49.1338999,-24.1910874992932,0.0 -49.1323448,-24.1917350992932,0.0 -49.1274608,-24.1949190992932,0.0 -49.1256544,-24.1963196992931,0.0 -49.126155,-24.199983299293,0.0 -49.1258749,-24.201387499293,0.0 -49.1248756,-24.202257199293,0.0 -49.123069,-24.2044304992929,0.0 -49.1223459,-24.2060627992929,0.0 -49.1214556,-24.2102674992928,0.0 -49.1249488,-24.2115741992928,0.0 -49.1308948,-24.2116368992928,0.0 -49.133013,-24.2120376992928,0.0 -49.1366806,-24.2132433992928,0.0 -49.1385672,-24.2154119992927,0.0 -49.1390913,-24.2166769992927,0.0 -49.1417975,-24.2288204992924,0.0 -49.1425944,-24.2333555992923,0.0 -49.1438776,-24.2341177992923,0.0 -49.1467894,-24.2346985992923,0.0 -49.1480644,-24.2345121992923,0.0 -49.1494815,-24.2348625992923,0.0 -49.1509826,-24.2360378992923,0.0 -49.1518471,-24.2379730992922,0.0 -49.1524572,-24.2428957992921,0.0 -49.1522577,-24.246616499292,0.0 -49.15179,-24.248294899292,0.0 -49.1500917,-24.2507240992919,0.0 -49.1502864,-24.2520560992919,0.0 -49.1514021,-24.2532903992919,0.0 -49.1533141,-24.2546021992918,0.0 -49.1545057,-24.2558379992918,0.0 -49.1545365,-24.2581131992918,0.0 -49.1533516,-24.2609009992917,0.0 -49.1535083,-24.2637521992916,0.0 -49.1521492,-24.2634747992917,0.0 -49.1510701,-24.2617912992917,0.0 -49.150173,-24.2599352992917,0.0 -49.1484603,-24.2583856992918,0.0 -49.1471812,-24.2612100992917,0.0 -49.1468494,-24.2624460992917,0.0 -49.1475352,-24.2648312992916,0.0 -49.1470127,-24.2661296992916,0.0 -49.1470093,-24.2667131992916,0.0 -49.1473141,-24.2674812992916,0.0 -49.1470113,-24.2680309992916,0.0 -49.1451006,-24.2687536992915,0.0 -49.1450618,-24.2692288992915,0.0 -49.1461562,-24.2721134992915,0.0 -49.1454501,-24.2742499992914,0.0 -49.1457568,-24.2750712992914,0.0 -49.1469016,-24.2762974992914,0.0 -49.1480119,-24.2771083992914,0.0 -49.1507954,-24.2786001992913,0.0 -49.1519826,-24.2789693992913,0.0 -49.1536474,-24.2790142992913,0.0 -49.1543699,-24.2786508992913,0.0 -49.1546751,-24.2779057992913,0.0 -49.1553999,-24.2777657992913,0.0 -49.1568252,-24.2784054992913,0.0 -49.15793,-24.2784036992913,0.0 -49.1594753,-24.2779263992913,0.0 -49.1595455,-24.2779046992913,0.0 -49.1605943,-24.2780028992913,0.0 -49.1612935,-24.2785627992913,0.0 -49.1614847,-24.2789777992913,0.0 -49.1613767,-24.2794849992913,0.0 -49.16154,-24.2801665992913,0.0 -49.1616826,-24.2807475992913,0.0 -49.1623243,-24.2812894992913,0.0 -49.1663462,-24.2832652992912,0.0 -49.1672925,-24.2840499992912,0.0 -49.1678472,-24.2845099992912,0.0 -49.1687885,-24.2848721992912,0.0 -49.1710392,-24.2878437992911,0.0 -49.1732935,-24.2874215992911,0.0 -49.1738963,-24.2867813992911,0.0 -49.1742847,-24.2846959992912,0.0 -49.1742591,-24.2833161992912,0.0 -49.1746228,-24.2827962992912,0.0 -49.17493,-24.2827510992912,0.0 -49.1757624,-24.2832033992912,0.0 -49.1777359,-24.2846250992912,0.0 -49.1799054,-24.2854502992912,0.0 -49.1802878,-24.2849300992912,0.0 -49.1806568,-24.2827547992912,0.0 -49.1804045,-24.2816092992913,0.0 -49.1805728,-24.2808074992913,0.0 -49.1810063,-24.2803942992913,0.0 -49.1830097,-24.2802153992913,0.0 -49.1838988,-24.2791166992913,0.0 -49.1845084,-24.2789179992913,0.0 -49.1868717,-24.2802229992913,0.0 -49.1865075,-24.2820101992912,0.0 -49.1867841,-24.2828025992912,0.0 -49.1879554,-24.2846679992912,0.0 -49.1903481,-24.2862927992912,0.0 -49.1940097,-24.2899958992911,0.0 -49.1946841,-24.291556499291,0.0 -49.1960664,-24.293032299291,0.0 -49.1968432,-24.2962182992909,0.0 -49.199228,-24.2966726992909,0.0 -49.1996794,-24.2981127992909,0.0 -49.2020392,-24.2990481992909,0.0 -49.203185,-24.2991680992909,0.0 -49.2041519,-24.3000055992909,0.0 -49.2042113,-24.3005496992908,0.0 -49.2045431,-24.3011347992908,0.0 -49.2051576,-24.3015684992908,0.0 -49.2049794,-24.3021122992908,0.0 -49.2051739,-24.3027056992908,0.0 -49.2071241,-24.3034507992908,0.0 -49.2097857,-24.3040470992908,0.0 -49.21076,-24.3040884992908,0.0 -49.2115063,-24.3035867992908,0.0 -49.2119817,-24.3035251992908,0.0 -49.2133212,-24.3046815992908,0.0 -49.2142127,-24.3051148992908,0.0 -49.2157351,-24.3048654992908,0.0 -49.2161911,-24.3046508992908,0.0 -49.2167597,-24.3043833992908,0.0 -49.2180641,-24.3030092992908,0.0 -49.2189551,-24.3008321992908,0.0 -49.2190501,-24.2996668992909,0.0 -49.2193706,-24.2989554992909,0.0 -49.2201273,-24.2985171992909,0.0 -49.220709,-24.2974094992909,0.0 -49.221456,-24.2967302992909,0.0 -49.2241474,-24.295636599291,0.0 -49.2248825,-24.294300399291,0.0 -49.2270366,-24.292706899291,0.0 -49.2298741,-24.292418399291,0.0 -49.2315949,-24.292552399291,0.0 -49.2331741,-24.293281899291,0.0 -49.2342086,-24.294345699291,0.0 -49.2351005,-24.295798599291,0.0 -49.2359836,-24.2995913992909,0.0 -49.2365936,-24.3004111992909,0.0 -49.2392656,-24.3014945992908,0.0 -49.2405445,-24.3017993992908,0.0 -49.2415678,-24.3029554992908,0.0 -49.2441498,-24.3049989992907,0.0 -49.2464825,-24.3061454992907,0.0 -49.2474284,-24.3072370992907,0.0 -49.2479589,-24.3091613992907,0.0 -49.2499876,-24.3131448992906,0.0 -49.2521816,-24.3148977992905,0.0 -49.2533221,-24.3168267992905,0.0 -49.2534861,-24.3174245992905,0.0 -49.2542359,-24.3179174992905,0.0 -49.2555542,-24.3166603992905,0.0 -49.2581573,-24.3168558992905,0.0 -49.2607062,-24.3127898992906,0.0 -49.2611247,-24.3124029992906,0.0 -49.2621753,-24.3117474992906,0.0 -49.2654085,-24.3100797992906,0.0 -49.2654104,-24.3100795992906,0.0 -49.2661795,-24.3098636992907,0.0 -49.2676817,-24.3094415992907,0.0 -49.268689,-24.3078261992907,0.0 -49.2698211,-24.3071749992907,0.0 -49.2719016,-24.3073179992907,0.0 -49.272214,-24.3075344992907,0.0 -49.2726315,-24.3086836992907,0.0 -49.2734999,-24.3083917992907,0.0 -49.2738661,-24.3080860992907,0.0 -49.274712,-24.3054810992907,0.0 -49.2782,-24.3063946992907,0.0 -49.280038,-24.3078370992907,0.0 -49.2811169,-24.3096576992907,0.0 -49.2830399,-24.3088641992907,0.0 -49.2838089,-24.3080628992907,0.0 -49.2829055,-24.3070908992907,0.0 -49.2836405,-24.3059840992907,0.0 -49.2860996,-24.3040720992908,0.0 -49.2858031,-24.3026819992908,0.0 -49.2869003,-24.3025992992908,0.0 -49.2870008,-24.2990581992909,0.0 -49.2876796,-24.2980558992909,0.0 -49.2891653,-24.2980721992909,0.0 -49.2900269,-24.2962016992909,0.0 -49.290793,-24.293726399291,0.0 -49.289433,-24.293020599291,0.0 -49.2887126,-24.291793999291,0.0 -49.2914495,-24.2911551992911,0.0 -49.2926439,-24.2896922992911,0.0 -49.2938727,-24.2893890992911,0.0 -49.295248,-24.2905122992911,0.0 -49.2967573,-24.2902598992911,0.0 -49.2986741,-24.2878084992911,0.0 -49.2990405,-24.2863703992912,0.0 -49.2975372,-24.2865139992912,0.0 -49.2975363,-24.2865149992912,0.0 -49.2965734,-24.2875282992911,0.0 -49.295206,-24.2854304992912,0.0 -49.296017,-24.2841781992912,0.0 -49.2972388,-24.2839185992912,0.0 -49.2981467,-24.2830574992912,0.0 -49.2979319,-24.2798250992913,0.0 -49.301235,-24.2763038992914,0.0 -49.3012302,-24.2750974992914,0.0 -49.3001275,-24.2739996992914,0.0 -49.2990945,-24.2712545992915,0.0 -49.2987099,-24.2680564992916,0.0 -49.3005969,-24.2661058992916,0.0 -49.3012091,-24.2647018992916,0.0 -49.30096,-24.2629353992917,0.0 -49.3021771,-24.2625305992917,0.0 -49.3026241,-24.2591401992917,0.0 -49.3055932,-24.2591054992918,0.0 -49.3083687,-24.2602088992917,0.0 -49.3086736,-24.2586696992918,0.0 -49.3061782,-24.2569173992918,0.0 -49.3056198,-24.2554394992918,0.0 -49.3057936,-24.2541940992919,0.0 -49.304902,-24.2527518992919,0.0 -49.3053741,-24.2514309992919,0.0 -49.3080586,-24.2506901992919,0.0 -49.3081539,-24.249463499292,0.0 -49.3092112,-24.248333999292,0.0 -49.3116863,-24.246933599292,0.0 -49.3127113,-24.245072499292,0.0 -49.3127059,-24.2433967992921,0.0 -49.3158974,-24.2443514992921,0.0 -49.3172094,-24.2435809992921,0.0 -49.3196237,-24.2438064992921,0.0 -49.3200696,-24.2415869992921,0.0 -49.3195088,-24.2399567992922,0.0 -49.3198239,-24.2381021992922,0.0 -49.3212071,-24.2387742992922,0.0 -49.321979,-24.2373061992922,0.0 -49.322678,-24.2359763992923,0.0 -49.3287132,-24.2342027992923,0.0 -49.330193,-24.2332072992923,0.0 -49.3320679,-24.2319457992923,0.0 -49.3347402,-24.2310369992924,0.0 -49.3352376,-24.2290423992924,0.0 -49.336908,-24.2275555992924,0.0 -49.3447035,-24.2240875992925,0.0 -49.3463594,-24.2221638992926,0.0 -49.3506772,-24.2208008992926,0.0 -49.353209,-24.2186262992926,0.0 -49.3559578,-24.2145122992927,0.0 -49.3568399,-24.2115432992928,0.0 -49.3567027,-24.2102481992928,0.0 -49.3557624,-24.2090736992928,0.0 -49.3527961,-24.2083086992929,0.0 -49.342818,-24.2042751992929,0.0 -49.3415441,-24.203121999293,0.0 -49.3418731,-24.201606899293,0.0 -49.3440712,-24.199880299293,0.0 -49.3449867,-24.1985649992931,0.0 -49.3460411,-24.1955278992931,0.0 -49.3465094,-24.1924134992932,0.0 -49.3463175,-24.1911923992932,0.0 -49.3434591,-24.1877432992933,0.0 -49.3398259,-24.1747944992936,0.0 -49.3398177,-24.1700926992937,0.0 -49.3405432,-24.1682319992937,0.0 -49.3400654,-24.1635825992938,0.0 -49.3403453,-24.157179299294,0.0 -49.338932,-24.154381899294,0.0 -49.3377956,-24.1536968992941,0.0 -49.3350144,-24.1530608992941,0.0 -49.3350125,-24.1530606992941,0.0 -49.333156,-24.1518355992941,0.0 -49.3324594,-24.1501207992941,0.0 -49.3331135,-24.1485674992942,0.0 -49.3367954,-24.1449094992942,0.0 -49.3361781,-24.1410301992943,0.0 -49.3363722,-24.1393059992944,0.0 -49.3365663,-24.1375818992944,0.0 -49.3369623,-24.1370461992944,0.0 -49.3384655,-24.1369351992944,0.0 -49.3404795,-24.1388865992944,0.0 -49.3418757,-24.1383885992944,0.0 -49.3423193,-24.1367192992944,0.0 -49.3435273,-24.1350817992945,0.0 -49.3474385,-24.1333586992945,0.0 -49.349483,-24.1324580992945,0.0 -49.3515381,-24.1327735992945,0.0 -49.3530679,-24.1313240992945,0.0 -49.3555379,-24.1311013992945,0.0 -49.3573728,-24.1304173992946,0.0 -49.3614279,-24.1281115992946,0.0 -49.3629543,-24.1268379992946,0.0 -49.3649331,-24.1238556992947,0.0 -49.364928,-24.1220879992947,0.0 -49.3628972,-24.1213598992948,0.0 -49.3621555,-24.1200950992948,0.0 -49.3627123,-24.1195047992948,0.0 -49.3627134,-24.1195039992948,0.0 -49.3646876,-24.1184150992948,0.0 -49.3666484,-24.1188716992948,0.0 -49.3683214,-24.1181403992948,0.0 -49.3687407,-24.1169413992949,0.0 -49.3689221,-24.1164222992949,0.0</coordinates>
</LinearRing>
</outerBoundaryIs>
</Polygon>
</MultiGeometry>
</Placemark>
</Folder>
</Document></kml>
