<?xml version='1.0' encoding='UTF-8'?>
<kml xmlns:xsd="http://www.w3.org/2001/XMLSchema" xmlns:gx="http://www.google.com/kml/ext/2.2" xmlns:atom="http://www.w3.org/2005/Atom" xmlns="http://www.opengis.net/kml/2.2">
<Document>
<name>orindiuva_3534203_localidades_2022</name>
<visibility>1</visibility>
<Schema name="Localidades" id="kml_schema_ft_Localidades">
<SimpleField type="xsd:string" name="CD_UF">
<displayName>CD_UF</displayName>
</SimpleField>
<SimpleField type="xsd:string" name="NM_UF">
<displayName>NM_UF</displayName>
</SimpleField>
<SimpleField type="xsd:string" name="SIGLA_UF">
<displayName>SIGLA_UF</displayName>
</SimpleField>
<SimpleField type="xsd:string" name="CD_MUN">
<displayName>CD_MUN</displayName>
</SimpleField>
<SimpleField type="xsd:string" name="NM_MUN">
<displayName>NM_MUN</displayName>
</SimpleField>
<SimpleField type="xsd:string" name="CD_RGINT">
<displayName>CD_RGINT</displayName>
</SimpleField>
<SimpleField type="xsd:string" name="NM_RGINT">
<displayName>NM_RGINT</displayName>
</SimpleField>
<SimpleField type="xsd:string" name="CD_RGI">
<displayName>CD_RGI</displayName>
</SimpleField>
<SimpleField type="xsd:string" name="NM_RGI">
<displayName>NM_RGI</displayName>
</SimpleField>
<SimpleField type="xsd:string" name="CT_LOCALIDADE">
<displayName>CT_LOCALIDADE</displayName>
</SimpleField>
<SimpleField type="xsd:string" name="SCT_LOCALIDADE">
<displayName>SCT_LOCALIDADE</displayName>
</SimpleField>
<SimpleField type="xsd:string" name="CD_LOCALIDADE">
<displayName>CD_LOCALIDADE</displayName>
</SimpleField>
<SimpleField type="xsd:string" name="NM_LOCALIDADE">
<displayName>NM_LOCALIDADE</displayName>
</SimpleField>
</Schema>
<Schema name="Núcleos Urbanos" id="kml_schema_ft_Núcleos_Urbanos">
<SimpleField type="xsd:string" name="CD_UF">
<displayName>CD_UF</displayName>
</SimpleField>
<SimpleField type="xsd:string" name="NM_UF">
<displayName>NM_UF</displayName>
</SimpleField>
<SimpleField type="xsd:string" name="SIGLA_UF">
<displayName>SIGLA_UF</displayName>
</SimpleField>
<SimpleField type="xsd:string" name="CD_MUN">
<displayName>CD_MUN</displayName>
</SimpleField>
<SimpleField type="xsd:string" name="NM_MUN">
<displayName>NM_MUN</displayName>
</SimpleField>
<SimpleField type="xsd:string" name="CD_RGINT">
<displayName>CD_RGINT</displayName>
</SimpleField>
<SimpleField type="xsd:string" name="NM_RGINT">
<displayName>NM_RGINT</displayName>
</SimpleField>
<SimpleField type="xsd:string" name="CD_RGI">
<displayName>CD_RGI</displayName>
</SimpleField>
<SimpleField type="xsd:string" name="NM_RGI">
<displayName>NM_RGI</displayName>
</SimpleField>
<SimpleField type="xsd:string" name="CT_LOCALIDADE">
<displayName>CT_LOCALIDADE</displayName>
</SimpleField>
<SimpleField type="xsd:string" name="CD_LOCALIDADE">
<displayName>CD_LOCALIDADE</displayName>
</SimpleField>
<SimpleField type="xsd:string" name="NM_LOCALIDADE">
<displayName>NM_LOCALIDADE</displayName>
</SimpleField>
<SimpleField type="xsd:string" name="LAT_LOCALIDADE">
<displayName>LAT_LOCALIDADE</displayName>
</SimpleField>
<SimpleField type="xsd:string" name="LONG_LOCALIDADE">
<displayName>LONG_LOCALIDADE</displayName>
</SimpleField>
</Schema>
<Schema name="01. Cidade" id="kml_schema_ft_01._Cidade">
<SimpleField type="xsd:string" name="CD_UF">
<displayName>CD_UF</displayName>
</SimpleField>
<SimpleField type="xsd:string" name="NM_UF">
<displayName>NM_UF</displayName>
</SimpleField>
<SimpleField type="xsd:string" name="SIGLA_UF">
<displayName>SIGLA_UF</displayName>
</SimpleField>
<SimpleField type="xsd:string" name="CD_MUN">
<displayName>CD_MUN</displayName>
</SimpleField>
<SimpleField type="xsd:string" name="NM_MUN">
<displayName>NM_MUN</displayName>
</SimpleField>
<SimpleField type="xsd:string" name="CD_RGINT">
<displayName>CD_RGINT</displayName>
</SimpleField>
<SimpleField type="xsd:string" name="NM_RGINT">
<displayName>NM_RGINT</displayName>
</SimpleField>
<SimpleField type="xsd:string" name="CD_RGI">
<displayName>CD_RGI</displayName>
</SimpleField>
<SimpleField type="xsd:string" name="NM_RGI">
<displayName>NM_RGI</displayName>
</SimpleField>
<SimpleField type="xsd:string" name="CT_LOCALIDADE">
<displayName>CT_LOCALIDADE</displayName>
</SimpleField>
<SimpleField type="xsd:string" name="SCT_LOCALIDADE">
<displayName>SCT_LOCALIDADE</displayName>
</SimpleField>
<SimpleField type="xsd:string" name="CD_LOCALIDADE">
<displayName>CD_LOCALIDADE</displayName>
</SimpleField>
<SimpleField type="xsd:string" name="NM_LOCALIDADE">
<displayName>NM_LOCALIDADE</displayName>
</SimpleField>
<SimpleField type="xsd:string" name="LAT_LOCALIDADE">
<displayName>LAT_LOCALIDADE</displayName>
</SimpleField>
<SimpleField type="xsd:string" name="LONG_LOCALIDADE">
<displayName>LONG_LOCALIDADE</displayName>
</SimpleField>
</Schema>
<Schema name="Município" id="kml_schema_ft_Município">
<SimpleField type="xsd:string" name="CD_UF">
<displayName>CD_UF</displayName>
</SimpleField>
<SimpleField type="xsd:string" name="NM_UF">
<displayName>NM_UF</displayName>
</SimpleField>
<SimpleField type="xsd:string" name="CD_MUN">
<displayName>CD_MUN</displayName>
</SimpleField>
<SimpleField type="xsd:string" name="NM_MUN">
<displayName>NM_MUN</displayName>
</SimpleField>
<SimpleField type="xsd:string" name="CD_RGINT">
<displayName>CD_RGINT</displayName>
</SimpleField>
<SimpleField type="xsd:string" name="NM_RGINT">
<displayName>NM_RGINT</displayName>
</SimpleField>
<SimpleField type="xsd:string" name="CD_RGI">
<displayName>CD_RGI</displayName>
</SimpleField>
<SimpleField type="xsd:string" name="NM_RGI">
<displayName>NM_RGI</displayName>
</SimpleField>
</Schema>
<Folder id="01. Cidade">
<name>01. Cidade</name>
<Folder id="01.03. Sede Municipal">
<name>01.03. Sede Municipal</name>
<Placemark id="01.03. Sede Municipal">
<name>Orindiúva [3534203]</name>
<visibility>1</visibility>
<snippet> </snippet>
<description>&lt;center&gt;&lt;table&gt;&lt;tr&gt;&lt;th colspan='2' align='center'&gt;&lt;em&gt;Atributos&lt;/em&gt;&lt;/th&gt;&lt;/tr&gt;&lt;tr bgcolor="#E3E3F3"&gt;
&lt;th&gt;CD_UF&lt;/th&gt;
&lt;td&gt;35&lt;/td&gt;
&lt;/tr&gt;&lt;tr bgcolor=""&gt;
&lt;th&gt;NM_UF&lt;/th&gt;
&lt;td&gt;São Paulo&lt;/td&gt;
&lt;/tr&gt;&lt;tr bgcolor="#E3E3F3"&gt;
&lt;th&gt;SIGLA_UF&lt;/th&gt;
&lt;td&gt;SP&lt;/td&gt;
&lt;/tr&gt;&lt;tr bgcolor=""&gt;
&lt;th&gt;CD_MUN&lt;/th&gt;
&lt;td&gt;3534203&lt;/td&gt;
&lt;/tr&gt;&lt;tr bgcolor="#E3E3F3"&gt;
&lt;th&gt;NM_MUN&lt;/th&gt;
&lt;td&gt;Orindiúva&lt;/td&gt;
&lt;/tr&gt;&lt;tr bgcolor=""&gt;
&lt;th&gt;CD_RGINT&lt;/th&gt;
&lt;td&gt;3507&lt;/td&gt;
&lt;/tr&gt;&lt;tr bgcolor="#E3E3F3"&gt;
&lt;th&gt;NM_RGINT&lt;/th&gt;
&lt;td&gt;São José do Rio Preto&lt;/td&gt;
&lt;/tr&gt;&lt;tr bgcolor=""&gt;
&lt;th&gt;CD_RGI&lt;/th&gt;
&lt;td&gt;350025&lt;/td&gt;
&lt;/tr&gt;&lt;tr bgcolor="#E3E3F3"&gt;
&lt;th&gt;NM_RGI&lt;/th&gt;
&lt;td&gt;São José do Rio Preto&lt;/td&gt;
&lt;/tr&gt;&lt;tr bgcolor=""&gt;
&lt;th&gt;CT_LOCALIDADE&lt;/th&gt;
&lt;td&gt;Cidade&lt;/td&gt;
&lt;/tr&gt;&lt;tr bgcolor="#E3E3F3"&gt;
&lt;th&gt;SCT_LOCALIDADE&lt;/th&gt;
&lt;td&gt;Sede Municipal&lt;/td&gt;
&lt;/tr&gt;&lt;tr bgcolor=""&gt;
&lt;th&gt;CD_LOCALIDADE&lt;/th&gt;
&lt;td&gt;3534203&lt;/td&gt;
&lt;/tr&gt;&lt;tr bgcolor="#E3E3F3"&gt;
&lt;th&gt;NM_LOCALIDADE&lt;/th&gt;
&lt;td&gt;Orindiúva&lt;/td&gt;
&lt;/tr&gt;&lt;tr bgcolor=""&gt;
&lt;th&gt;LAT_LOCALIDADE&lt;/th&gt;
&lt;td&gt;-20.1815&lt;/td&gt;
&lt;/tr&gt;&lt;tr bgcolor="#E3E3F3"&gt;
&lt;th&gt;LONG_LOCALIDADE&lt;/th&gt;
&lt;td&gt;-49.3521&lt;/td&gt;
&lt;/tr&gt;&lt;/table&gt;&lt;/center&gt;</description>
<Style>
<IconStyle>
<color>ff00aaff</color>
<scale>1.0</scale>
<Icon>
<href>http://maps.google.com/mapfiles/kml/shapes/placemark_circle.png</href>
</Icon>
</IconStyle>
<LabelStyle>
<scale>1.0</scale>
</LabelStyle>
<LineStyle>
<color>ffffffff</color>
<width>3</width>
<gx:labelVisibility>1</gx:labelVisibility>
</LineStyle>
<PolyStyle>
<color>00ffffff</color>
</PolyStyle>
</Style>
<ExtendedData>
<SchemaData schemaUrl="#kml_schema_ft_01._Cidade">
<SimpleData name="CD_UF">35</SimpleData>
<SimpleData name="NM_UF">São Paulo</SimpleData>
<SimpleData name="SIGLA_UF">SP</SimpleData>
<SimpleData name="CD_MUN">3534203</SimpleData>
<SimpleData name="NM_MUN">Orindiúva</SimpleData>
<SimpleData name="CD_RGINT">3507</SimpleData>
<SimpleData name="NM_RGINT">São José do Rio Preto</SimpleData>
<SimpleData name="CD_RGI">350025</SimpleData>
<SimpleData name="NM_RGI">São José do Rio Preto</SimpleData>
<SimpleData name="CT_LOCALIDADE">Cidade</SimpleData>
<SimpleData name="SCT_LOCALIDADE">Sede Municipal</SimpleData>
<SimpleData name="CD_LOCALIDADE">3534203</SimpleData>
<SimpleData name="NM_LOCALIDADE">Orindiúva</SimpleData>
<SimpleData name="LAT_LOCALIDADE">-20.1815</SimpleData>
<SimpleData name="LONG_LOCALIDADE">-49.3521</SimpleData>
</SchemaData>
</ExtendedData>
<Point>
<extrude>0</extrude>
<coordinates>-49.352062,-20.1815389993874,0.0</coordinates>
</Point>
</Placemark>
</Folder>
</Folder>
<Folder id="05. Núcleos Urbanos">
<name>05. Núcleos Urbanos</name>
<Placemark id="localidades">
<name>Ranchos do Rio Grande [3534203001]</name>
<visibility>1</visibility>
<snippet> </snippet>
<description>&lt;center&gt;&lt;table&gt;&lt;tr&gt;&lt;th colspan='2' align='center'&gt;&lt;em&gt;Attributes&lt;/em&gt;&lt;/th&gt;&lt;/tr&gt;&lt;tr bgcolor="#E3E3F3"&gt;
&lt;th&gt;CD_UF&lt;/th&gt;
&lt;td&gt;35&lt;/td&gt;
&lt;/tr&gt;&lt;tr bgcolor=""&gt;
&lt;th&gt;NM_UF&lt;/th&gt;
&lt;td&gt;São Paulo&lt;/td&gt;
&lt;/tr&gt;&lt;tr bgcolor="#E3E3F3"&gt;
&lt;th&gt;SIGLA_UF&lt;/th&gt;
&lt;td&gt;SP&lt;/td&gt;
&lt;/tr&gt;&lt;tr bgcolor=""&gt;
&lt;th&gt;CD_MUN&lt;/th&gt;
&lt;td&gt;3534203&lt;/td&gt;
&lt;/tr&gt;&lt;tr bgcolor="#E3E3F3"&gt;
&lt;th&gt;NM_MUN&lt;/th&gt;
&lt;td&gt;Orindiúva&lt;/td&gt;
&lt;/tr&gt;&lt;tr bgcolor=""&gt;
&lt;th&gt;CD_RGINT&lt;/th&gt;
&lt;td&gt;3507&lt;/td&gt;
&lt;/tr&gt;&lt;tr bgcolor="#E3E3F3"&gt;
&lt;th&gt;NM_RGINT&lt;/th&gt;
&lt;td&gt;São José do Rio Preto&lt;/td&gt;
&lt;/tr&gt;&lt;tr bgcolor=""&gt;
&lt;th&gt;CD_RGI&lt;/th&gt;
&lt;td&gt;350025&lt;/td&gt;
&lt;/tr&gt;&lt;tr bgcolor="#E3E3F3"&gt;
&lt;th&gt;NM_RGI&lt;/th&gt;
&lt;td&gt;São José do Rio Preto&lt;/td&gt;
&lt;/tr&gt;&lt;tr bgcolor=""&gt;
&lt;th&gt;CT_LOCALIDADE&lt;/th&gt;
&lt;td&gt;Núcleo Urbano&lt;/td&gt;
&lt;/tr&gt;&lt;tr bgcolor="#E3E3F3"&gt;
&lt;th&gt;CD_LOCALIDADE&lt;/th&gt;
&lt;td&gt;3534203001&lt;/td&gt;
&lt;/tr&gt;&lt;tr bgcolor=""&gt;
&lt;th&gt;NM_LOCALIDADE&lt;/th&gt;
&lt;td&gt;Ranchos do Rio Grande&lt;/td&gt;
&lt;/tr&gt;&lt;tr bgcolor="#E3E3F3"&gt;
&lt;th&gt;LAT_LOCALIDADE&lt;/th&gt;
&lt;td&gt;-20.1413&lt;/td&gt;
&lt;/tr&gt;&lt;tr bgcolor=""&gt;
&lt;th&gt;LONG_LOCALIDADE&lt;/th&gt;
&lt;td&gt;-49.3046&lt;/td&gt;
&lt;/tr&gt;&lt;/table&gt;&lt;/center&gt;</description>
<Style>
<IconStyle>
<color>ff0000ff</color>
<scale>0.9</scale>
<Icon>
<href>http://maps.google.com/mapfiles/kml/shapes/placemark_circle.png</href>
</Icon>
</IconStyle>
<LabelStyle>
<scale>0.9</scale>
</LabelStyle>
<LineStyle>
<color>72ffffff</color>
<width>1.0</width>
<gx:labelVisibility>1</gx:labelVisibility>
</LineStyle>
<PolyStyle>
<color>66ff54ff</color>
</PolyStyle>
</Style>
<ExtendedData>
<SchemaData schemaUrl="#kml_schema_ft_Núcleos_Urbanos">
<SimpleData name="CD_UF">35</SimpleData>
<SimpleData name="NM_UF">São Paulo</SimpleData>
<SimpleData name="SIGLA_UF">SP</SimpleData>
<SimpleData name="CD_MUN">3534203</SimpleData>
<SimpleData name="NM_MUN">Orindiúva</SimpleData>
<SimpleData name="CD_RGINT">3507</SimpleData>
<SimpleData name="NM_RGINT">São José do Rio Preto</SimpleData>
<SimpleData name="CD_RGI">350025</SimpleData>
<SimpleData name="NM_RGI">São José do Rio Preto</SimpleData>
<SimpleData name="CT_LOCALIDADE">Núcleo Urbano</SimpleData>
<SimpleData name="CD_LOCALIDADE">3534203001</SimpleData>
<SimpleData name="NM_LOCALIDADE">Ranchos do Rio Grande</SimpleData>
<SimpleData name="LAT_LOCALIDADE">-20.1413</SimpleData>
<SimpleData name="LONG_LOCALIDADE">-49.3046</SimpleData>
</SchemaData>
</ExtendedData>
<Point>
<extrude>0</extrude>
<coordinates>-49.3046160584415,-20.1412792266611,0.0</coordinates>
</Point>
</Placemark>
</Folder>
<Folder id="12. Outras Localidades">
<name>12. Outras Localidades</name>
<Placemark id="12. Outras Localidades">
<name>Bairro São Francisco [353420399002]</name>
<visibility>1</visibility>
<snippet> </snippet>
<description>&lt;center&gt;&lt;table&gt;&lt;tr&gt;&lt;th colspan='2' align='center'&gt;&lt;em&gt;Attributes&lt;/em&gt;&lt;/th&gt;&lt;/tr&gt;&lt;tr bgcolor="#E3E3F3"&gt;
&lt;th&gt;CD_UF&lt;/th&gt;
&lt;td&gt;35&lt;/td&gt;
&lt;/tr&gt;&lt;tr bgcolor=""&gt;
&lt;th&gt;NM_UF&lt;/th&gt;
&lt;td&gt;São Paulo&lt;/td&gt;
&lt;/tr&gt;&lt;tr bgcolor="#E3E3F3"&gt;
&lt;th&gt;SIGLA_UF&lt;/th&gt;
&lt;td&gt;SP&lt;/td&gt;
&lt;/tr&gt;&lt;tr bgcolor=""&gt;
&lt;th&gt;CD_MUN&lt;/th&gt;
&lt;td&gt;3534203&lt;/td&gt;
&lt;/tr&gt;&lt;tr bgcolor="#E3E3F3"&gt;
&lt;th&gt;NM_MUN&lt;/th&gt;
&lt;td&gt;Orindiúva&lt;/td&gt;
&lt;/tr&gt;&lt;tr bgcolor=""&gt;
&lt;th&gt;CD_RGINT&lt;/th&gt;
&lt;td&gt;3507&lt;/td&gt;
&lt;/tr&gt;&lt;tr bgcolor="#E3E3F3"&gt;
&lt;th&gt;NM_RGINT&lt;/th&gt;
&lt;td&gt;São José do Rio Preto&lt;/td&gt;
&lt;/tr&gt;&lt;tr bgcolor=""&gt;
&lt;th&gt;CD_RGI&lt;/th&gt;
&lt;td&gt;350025&lt;/td&gt;
&lt;/tr&gt;&lt;tr bgcolor="#E3E3F3"&gt;
&lt;th&gt;NM_RGI&lt;/th&gt;
&lt;td&gt;São José do Rio Preto&lt;/td&gt;
&lt;/tr&gt;&lt;tr bgcolor=""&gt;
&lt;th&gt;CT_LOCALIDADE&lt;/th&gt;
&lt;td&gt;Outras Localidades&lt;/td&gt;
&lt;/tr&gt;&lt;tr bgcolor="#E3E3F3"&gt;
&lt;th&gt;SCT_LOCALIDADE&lt;/th&gt;
&lt;td&gt;&lt;/td&gt;
&lt;/tr&gt;&lt;tr bgcolor=""&gt;
&lt;th&gt;CD_LOCALIDADE&lt;/th&gt;
&lt;td&gt;353420399002&lt;/td&gt;
&lt;/tr&gt;&lt;tr bgcolor="#E3E3F3"&gt;
&lt;th&gt;NM_LOCALIDADE&lt;/th&gt;
&lt;td&gt;Bairro São Francisco&lt;/td&gt;
&lt;/tr&gt;&lt;/table&gt;&lt;/center&gt;</description>
<Style>
<IconStyle>
<color>ff0069d3</color>
<scale>0.6</scale>
<Icon>
<href>http://maps.google.com/mapfiles/kml/shapes/placemark_circle.png</href>
</Icon>
</IconStyle>
<LabelStyle>
<scale>0.6</scale>
</LabelStyle>
<LineStyle>
<width>1.0</width>
<gx:labelVisibility>1</gx:labelVisibility>
</LineStyle>
</Style>
<ExtendedData>
<SchemaData schemaUrl="#kml_schema_ft_Localidades">
<SimpleData name="CD_UF">35</SimpleData>
<SimpleData name="NM_UF">São Paulo</SimpleData>
<SimpleData name="SIGLA_UF">SP</SimpleData>
<SimpleData name="CD_MUN">3534203</SimpleData>
<SimpleData name="NM_MUN">Orindiúva</SimpleData>
<SimpleData name="CD_RGINT">3507</SimpleData>
<SimpleData name="NM_RGINT">São José do Rio Preto</SimpleData>
<SimpleData name="CD_RGI">350025</SimpleData>
<SimpleData name="NM_RGI">São José do Rio Preto</SimpleData>
<SimpleData name="CT_LOCALIDADE">Outras Localidades</SimpleData>
<SimpleData name="CD_LOCALIDADE">353420399002</SimpleData>
<SimpleData name="NM_LOCALIDADE">Bairro São Francisco</SimpleData>
</SchemaData>
</ExtendedData>
<Point>
<extrude>0</extrude>
<coordinates>-49.330002801167,-20.1639200478818,0.0</coordinates>
</Point>
</Placemark>
</Folder>
<Folder id="13. Referência">
<name>13. Referência</name>
<Placemark id="13. Referência">
<name>Orindiúva [3534203]</name>
<visibility>1</visibility>
<snippet> </snippet>
<description>&lt;center&gt;&lt;table&gt;&lt;tr&gt;&lt;th colspan='2' align='center'&gt;&lt;em&gt;Attributes&lt;/em&gt;&lt;/th&gt;&lt;/tr&gt;&lt;tr bgcolor="#E3E3F3"&gt;
&lt;th&gt;CD_UF&lt;/th&gt;
&lt;td&gt;35&lt;/td&gt;
&lt;/tr&gt;&lt;tr bgcolor=""&gt;
&lt;th&gt;NM_UF&lt;/th&gt;
&lt;td&gt;São Paulo&lt;/td&gt;
&lt;/tr&gt;&lt;tr bgcolor="#E3E3F3"&gt;
&lt;th&gt;CD_MUN&lt;/th&gt;
&lt;td&gt;3534203&lt;/td&gt;
&lt;/tr&gt;&lt;tr bgcolor=""&gt;
&lt;th&gt;NM_MUN&lt;/th&gt;
&lt;td&gt;Orindiúva&lt;/td&gt;
&lt;/tr&gt;&lt;tr bgcolor="#E3E3F3"&gt;
&lt;th&gt;CD_RGINT&lt;/th&gt;
&lt;td&gt;3507&lt;/td&gt;
&lt;/tr&gt;&lt;tr bgcolor=""&gt;
&lt;th&gt;NM_RGINT&lt;/th&gt;
&lt;td&gt;São José do Rio Preto&lt;/td&gt;
&lt;/tr&gt;&lt;tr bgcolor="#E3E3F3"&gt;
&lt;th&gt;CD_RGI&lt;/th&gt;
&lt;td&gt;350025&lt;/td&gt;
&lt;/tr&gt;&lt;tr bgcolor=""&gt;
&lt;th&gt;NM_RGI&lt;/th&gt;
&lt;td&gt;São José do Rio Preto&lt;/td&gt;
&lt;/tr&gt;&lt;/table&gt;&lt;/center&gt;</description>
<Style>
<IconStyle>
<scale>0.7</scale>
</IconStyle>
<LabelStyle>
<scale>0.7</scale>
</LabelStyle>
<LineStyle>
<color>ffffffff</color>
<width>3</width>
<gx:labelVisibility>1</gx:labelVisibility>
</LineStyle>
<PolyStyle>
<color>00ffffff</color>
</PolyStyle>
</Style>
<ExtendedData>
<SchemaData schemaUrl="#kml_schema_ft_Município">
<SimpleData name="CD_UF">35</SimpleData>
<SimpleData name="NM_UF">São Paulo</SimpleData>
<SimpleData name="CD_MUN">3534203</SimpleData>
<SimpleData name="NM_MUN">Orindiúva</SimpleData>
<SimpleData name="CD_RGINT">3507</SimpleData>
<SimpleData name="NM_RGINT">São José do Rio Preto</SimpleData>
<SimpleData name="CD_RGI">350025</SimpleData>
<SimpleData name="NM_RGI">São José do Rio Preto</SimpleData>
</SchemaData>
</ExtendedData>
<MultiGeometry>
<Polygon>
<extrude>0</extrude>
<tessellate>1</tessellate>
<outerBoundaryIs>
<LinearRing>
<coordinates>-49.4070601,-20.2326705993861,0.0 -49.4073098,-20.2318820993862,0.0 -49.4075651,-20.2302505993862,0.0 -49.4076835,-20.2293689993862,0.0 -49.4076813,-20.2286177993862,0.0 -49.4076111,-20.2276874993863,0.0 -49.4083753,-20.2268868993863,0.0 -49.4090847,-20.2265834993863,0.0 -49.4097936,-20.2263363993863,0.0 -49.410433,-20.2260698993863,0.0 -49.4106756,-20.2256870993863,0.0 -49.41061,-20.2252920993863,0.0 -49.4104353,-20.2248585993863,0.0 -49.4103683,-20.2246044993863,0.0 -49.4102488,-20.2240938993863,0.0 -49.4105744,-20.2239020993864,0.0 -49.4116389,-20.2238928993864,0.0 -49.4124645,-20.2239003993864,0.0 -49.4132086,-20.2237686993864,0.0 -49.4139717,-20.2233975993864,0.0 -49.4146144,-20.2228023993864,0.0 -49.4150782,-20.2221868993864,0.0 -49.4157814,-20.2215170993864,0.0 -49.4163714,-20.2212125993864,0.0 -49.417238,-20.2210982993864,0.0 -49.4182232,-20.2210602993864,0.0 -49.419075,-20.2211394993864,0.0 -49.4198172,-20.2208304993864,0.0 -49.4204287,-20.2203664993865,0.0 -49.4208222,-20.2198159993865,0.0 -49.4210282,-20.2191135993865,0.0 -49.4213517,-20.2186000993865,0.0 -49.421761,-20.2184628993865,0.0 -49.4223364,-20.2186088993865,0.0 -49.4231182,-20.2190196993865,0.0 -49.4240477,-20.2195726993865,0.0 -49.4246504,-20.2199724993865,0.0 -49.425195,-20.2202308993864,0.0 -49.4256034,-20.2201781993864,0.0 -49.4258058,-20.2198325993865,0.0 -49.4257908,-20.2193441993865,0.0 -49.4256279,-20.2187322993865,0.0 -49.425334,-20.2182789993865,0.0 -49.4251411,-20.2176762993865,0.0 -49.4252447,-20.2172640993865,0.0 -49.4257235,-20.2171368993865,0.0 -49.4266881,-20.2171642993865,0.0 -49.4277704,-20.2173617993865,0.0 -49.4290609,-20.2176268993865,0.0 -49.429833,-20.2180093993865,0.0 -49.4302059,-20.2185197993865,0.0 -49.430497,-20.2192453993865,0.0 -49.4305678,-20.2201286993865,0.0 -49.4307855,-20.2212292993864,0.0 -49.4309954,-20.2221232993864,0.0 -49.4313572,-20.2227461993864,0.0 -49.4317216,-20.2231156993864,0.0 -49.4327627,-20.2234536993864,0.0 -49.4332895,-20.2235052993864,0.0 -49.4338066,-20.2235192993864,0.0 -49.434019,-20.2241690993864,0.0 -49.4338916,-20.2249660993863,0.0 -49.4334137,-20.2260041993863,0.0 -49.4337656,-20.2266176993863,0.0 -49.4343687,-20.2269985993863,0.0 -49.4351233,-20.2271367993863,0.0 -49.4358285,-20.2272557993863,0.0 -49.4360249,-20.2275110993863,0.0 -49.436001,-20.2279145993863,0.0 -49.4355507,-20.2281735993863,0.0 -49.4349737,-20.2281683993862,0.0 -49.4345848,-20.2282681993862,0.0 -49.434015,-20.2285354993862,0.0 -49.4337374,-20.2289795993862,0.0 -49.4332925,-20.2301534993862,0.0 -49.4327223,-20.2309536993862,0.0 -49.432831,-20.2315296993862,0.0 -49.4332164,-20.2317866993862,0.0 -49.4346196,-20.2317428993862,0.0 -49.4352152,-20.2318795993862,0.0 -49.4357781,-20.2322883993861,0.0 -49.4363191,-20.2329129993861,0.0 -49.4365691,-20.2337790993861,0.0 -49.4367541,-20.2341750993861,0.0 -49.437202,-20.2341602993861,0.0 -49.4375116,-20.2340315993861,0.0 -49.4379037,-20.2336219993861,0.0 -49.4381804,-20.2329784993861,0.0 -49.4383507,-20.2326962993861,0.0 -49.4387407,-20.2325025993861,0.0 -49.4392367,-20.2326384993861,0.0 -49.4395615,-20.2329887993861,0.0 -49.4396939,-20.2336848993861,0.0 -49.4395249,-20.2346692993861,0.0 -49.4395501,-20.2361249993861,0.0 -49.4393154,-20.236714499386,0.0 -49.4389842,-20.237084899386,0.0 -49.4387498,-20.237563899386,0.0 -49.4388454,-20.237949799386,0.0 -49.439271,-20.238169499386,0.0 -49.4400946,-20.238392799386,0.0 -49.4407824,-20.238258099386,0.0 -49.4412139,-20.237886299386,0.0 -49.4416383,-20.237232799386,0.0 -49.4420556,-20.237283499386,0.0 -49.4421809,-20.237688299386,0.0 -49.4422006,-20.238702599386,0.0 -49.4419941,-20.239461399386,0.0 -49.4419988,-20.239987299386,0.0 -49.4422744,-20.2402901993859,0.0 -49.4426494,-20.2404842993859,0.0 -49.4434317,-20.239962499386,0.0 -49.4437545,-20.239514599386,0.0 -49.4440187,-20.238962899386,0.0 -49.4441234,-20.238437999386,0.0 -49.4445314,-20.238432199386,0.0 -49.4446966,-20.238828099386,0.0 -49.4446624,-20.239259699386,0.0 -49.4448385,-20.239561799386,0.0 -49.4451904,-20.239858899386,0.0 -49.4455626,-20.239784199386,0.0 -49.445804,-20.239523399386,0.0 -49.4457871,-20.239222699386,0.0 -49.445641,-20.238902199386,0.0 -49.4453457,-20.238580299386,0.0 -49.4450375,-20.238211299386,0.0 -49.445076,-20.237695199386,0.0 -49.4453794,-20.237200299386,0.0 -49.4460413,-20.236661499386,0.0 -49.4465138,-20.2361679993861,0.0 -49.4468934,-20.2360210993861,0.0 -49.4472295,-20.236230699386,0.0 -49.4474046,-20.236635999386,0.0 -49.4475392,-20.237106699386,0.0 -49.4478651,-20.237353699386,0.0 -49.4482729,-20.237357299386,0.0 -49.4487955,-20.237157299386,0.0 -49.4492541,-20.236736899386,0.0 -49.4495072,-20.236288399386,0.0 -49.4494943,-20.2355839993861,0.0 -49.4494318,-20.2348697993861,0.0 -49.4497046,-20.2344496993861,0.0 -49.450204,-20.2342474993861,0.0 -49.4509299,-20.2342820993861,0.0 -49.4516263,-20.2342787993861,0.0 -49.4523655,-20.2339848993861,0.0 -49.4529637,-20.2335512993861,0.0 -49.4534788,-20.2330744993861,0.0 -49.4538858,-20.2321577993861,0.0 -49.4541755,-20.2311585993862,0.0 -49.4543283,-20.2306686993862,0.0 -49.4546496,-20.2303709993862,0.0 -49.4553379,-20.2301798993862,0.0 -49.4560557,-20.2300265993862,0.0 -49.4562673,-20.2297560993862,0.0 -49.4564816,-20.2292133993862,0.0 -49.4566858,-20.2286798993862,0.0 -49.457112,-20.2280254993863,0.0 -49.4574326,-20.2276065993863,0.0 -49.4576469,-20.2270544993863,0.0 -49.4575819,-20.2265843993863,0.0 -49.457282,-20.2257272993863,0.0 -49.4570281,-20.2252460993863,0.0 -49.4565927,-20.2250075993863,0.0 -49.4556704,-20.2247177993863,0.0 -49.4548851,-20.2246638993863,0.0 -49.45383,-20.2247202993863,0.0 -49.4533936,-20.2245849993863,0.0 -49.4532576,-20.2242551993863,0.0 -49.4536301,-20.2238076993864,0.0 -49.4544333,-20.2230635993864,0.0 -49.4556065,-20.2221254993864,0.0 -49.4559184,-20.2217713993864,0.0 -49.4563885,-20.2215125993864,0.0 -49.456748,-20.2213655993864,0.0 -49.4571268,-20.2212937993864,0.0 -49.4575655,-20.2211942993864,0.0 -49.4578165,-20.2209523993864,0.0 -49.4578499,-20.2205958993864,0.0 -49.4578275,-20.2201177993865,0.0 -49.4577787,-20.2194244993865,0.0 -49.4578966,-20.2189597993865,0.0 -49.4578525,-20.2185675993865,0.0 -49.4580148,-20.2182497993865,0.0 -49.4577709,-20.2178490993865,0.0 -49.457468,-20.2171374993865,0.0 -49.457032,-20.2154772993866,0.0 -49.4569764,-20.2147873993866,0.0 -49.4569952,-20.2128909993866,0.0 -49.4573824,-20.2100083993867,0.0 -49.4573897,-20.2092308993867,0.0 -49.4569317,-20.2058236993868,0.0 -49.4568373,-20.2013643993869,0.0 -49.4572263,-20.198155599387,0.0 -49.4581509,-20.1957618993871,0.0 -49.4593367,-20.1926914993871,0.0 -49.459705,-20.1900598993872,0.0 -49.459439,-20.1878136993873,0.0 -49.4595553,-20.1864442993873,0.0 -49.4593134,-20.1863380993873,0.0 -49.4590965,-20.1860945993873,0.0 -49.4588992,-20.1857389993873,0.0 -49.4586347,-20.1848607993873,0.0 -49.4572994,-20.1830862993874,0.0 -49.4566594,-20.1825164993874,0.0 -49.4559423,-20.1816032993874,0.0 -49.454794,-20.1797524993875,0.0 -49.4539718,-20.1780083993875,0.0 -49.4523307,-20.1754960993876,0.0 -49.4509236,-20.1729051993876,0.0 -49.4500821,-20.1706441993877,0.0 -49.4496774,-20.1691928993877,0.0 -49.4488562,-20.1673190993878,0.0 -49.44797,-20.1662670993878,0.0 -49.4471535,-20.1647934993878,0.0 -49.4441281,-20.1605982993879,0.0 -49.4434205,-20.159758199388,0.0 -49.4428075,-20.158692599388,0.0 -49.442634,-20.158107799388,0.0 -49.4426163,-20.157697299388,0.0 -49.4429181,-20.1562056993881,0.0 -49.4448024,-20.1512945993882,0.0 -49.4482751,-20.1446636993883,0.0 -49.4489638,-20.1436469993884,0.0 -49.4494152,-20.1426646993884,0.0 -49.4507066,-20.1406001993884,0.0 -49.4511023,-20.1395569993885,0.0 -49.4514171,-20.1364552993886,0.0 -49.4517609,-20.1356531993886,0.0 -49.453751,-20.1331767993886,0.0 -49.4537791,-20.1327358993886,0.0 -49.4535045,-20.1321049993887,0.0 -49.4528273,-20.1305487993887,0.0 -49.4523683,-20.1298826993887,0.0 -49.4515466,-20.1293145993887,0.0 -49.4506189,-20.1290392993887,0.0 -49.4498444,-20.1289580993887,0.0 -49.4452551,-20.1300410993887,0.0 -49.4442826,-20.1303538993887,0.0 -49.4422686,-20.1302253993887,0.0 -49.4410125,-20.1302875993887,0.0 -49.439827,-20.1305858993887,0.0 -49.4393637,-20.1308244993887,0.0 -49.4369592,-20.1327402993886,0.0 -49.4348882,-20.1335824993886,0.0 -49.4342776,-20.1336198993886,0.0 -49.4328933,-20.1332858993886,0.0 -49.4315498,-20.1332294993886,0.0 -49.4309879,-20.1333050993886,0.0 -49.4303318,-20.1334908993886,0.0 -49.4279475,-20.1350051993886,0.0 -49.4265479,-20.1355897993886,0.0 -49.4257622,-20.1355289993886,0.0 -49.4236021,-20.1349953993886,0.0 -49.4215043,-20.1339318993886,0.0 -49.4210281,-20.1338906993886,0.0 -49.4199698,-20.1346462993886,0.0 -49.4192474,-20.1349762993886,0.0 -49.4176175,-20.1353530993886,0.0 -49.4156102,-20.1355171993886,0.0 -49.4148781,-20.1358505993886,0.0 -49.4140758,-20.1365559993885,0.0 -49.4136666,-20.1367733993885,0.0 -49.4122455,-20.1371770993885,0.0 -49.4104055,-20.1373761993885,0.0 -49.4095855,-20.1376386993885,0.0 -49.4088106,-20.1381267993885,0.0 -49.4074356,-20.1383225993885,0.0 -49.4057819,-20.1393825993885,0.0 -49.4050709,-20.1395811993885,0.0 -49.4038704,-20.1397328993885,0.0 -49.4030928,-20.1402451993884,0.0 -49.4021692,-20.1407130993884,0.0 -49.4015179,-20.1412584993884,0.0 -49.4010735,-20.1413063993884,0.0 -49.4002582,-20.1410787993884,0.0 -49.3995879,-20.1410648993884,0.0 -49.3970402,-20.1418365993884,0.0 -49.3964097,-20.1418705993884,0.0 -49.3923001,-20.1416093993884,0.0 -49.3913168,-20.1418278993884,0.0 -49.3901496,-20.1425389993884,0.0 -49.3871998,-20.1437063993884,0.0 -49.3850957,-20.1439667993884,0.0 -49.3821569,-20.1446611993883,0.0 -49.3811858,-20.1446583993883,0.0 -49.3798459,-20.1444106993884,0.0 -49.3789276,-20.1444325993883,0.0 -49.3784432,-20.1445730993883,0.0 -49.3773081,-20.1451975993883,0.0 -49.3767164,-20.1451469993883,0.0 -49.3756729,-20.1442239993884,0.0 -49.375273,-20.1436395993884,0.0 -49.375182,-20.1431281993884,0.0 -49.3744211,-20.1425666993884,0.0 -49.373921,-20.1421706993884,0.0 -49.3732028,-20.1414789993884,0.0 -49.3724772,-20.1409767993884,0.0 -49.371949,-20.1404267993885,0.0 -49.3701468,-20.1390957993885,0.0 -49.3692091,-20.1381447993885,0.0 -49.3680771,-20.1368585993885,0.0 -49.3663011,-20.1351410993886,0.0 -49.3660299,-20.1350276993886,0.0 -49.3649898,-20.1350300993886,0.0 -49.3636752,-20.1343179993886,0.0 -49.3629377,-20.1340535993886,0.0 -49.3624587,-20.1336535993886,0.0 -49.3620549,-20.1336853993886,0.0 -49.3617106,-20.1342637993886,0.0 -49.36139,-20.1351058993886,0.0 -49.3610072,-20.1353679993886,0.0 -49.3607799,-20.1353872993886,0.0 -49.3606378,-20.1348976993886,0.0 -49.3602741,-20.1340005993886,0.0 -49.3598887,-20.1338730993886,0.0 -49.3593938,-20.1339857993886,0.0 -49.3585229,-20.1346098993886,0.0 -49.3578072,-20.1349973993886,0.0 -49.3563354,-20.1351380993886,0.0 -49.3559441,-20.1352664993886,0.0 -49.3555676,-20.1355061993886,0.0 -49.3549084,-20.1361640993886,0.0 -49.3547424,-20.1363296993886,0.0 -49.3538893,-20.1367712993885,0.0 -49.3516658,-20.1369947993885,0.0 -49.3505062,-20.1368957993885,0.0 -49.3493396,-20.1366776993885,0.0 -49.3482256,-20.1365267993885,0.0 -49.3477689,-20.1364399993885,0.0 -49.3473062,-20.1361051993886,0.0 -49.346725,-20.1348626993886,0.0 -49.3465863,-20.1342138993886,0.0 -49.3462301,-20.1335235993886,0.0 -49.3454699,-20.1330474993886,0.0 -49.3447675,-20.1327074993886,0.0 -49.344138,-20.1321470993887,0.0 -49.3436396,-20.1309354993887,0.0 -49.3413336,-20.1280288993888,0.0 -49.3403109,-20.1263181993888,0.0 -49.3402178,-20.1262814993888,0.0 -49.3402134,-20.1262797993888,0.0 -49.3379517,-20.1253891993888,0.0 -49.3365425,-20.1250877993888,0.0 -49.3362732,-20.1234488993889,0.0 -49.3349908,-20.1219363993889,0.0 -49.334598,-20.1212020993889,0.0 -49.3340534,-20.120453299389,0.0 -49.3333679,-20.119963999389,0.0 -49.3307748,-20.119721799389,0.0 -49.3295936,-20.118988899389,0.0 -49.328256,-20.118780599389,0.0 -49.3259162,-20.119269699389,0.0 -49.3258096,-20.119059599389,0.0 -49.3260652,-20.118541099389,0.0 -49.3260618,-20.118172499389,0.0 -49.3256065,-20.117241999389,0.0 -49.3248947,-20.117269499389,0.0 -49.3247576,-20.117834099389,0.0 -49.3238264,-20.118373199389,0.0 -49.322704,-20.118714799389,0.0 -49.3220924,-20.118723499389,0.0 -49.32164,-20.119359299389,0.0 -49.3211864,-20.119523899389,0.0 -49.3206595,-20.119357699389,0.0 -49.3198853,-20.118177699389,0.0 -49.3194099,-20.116752499389,0.0 -49.3187981,-20.1158332993891,0.0 -49.3177134,-20.1152358993891,0.0 -49.3169386,-20.1153589993891,0.0 -49.316338,-20.1159794993891,0.0 -49.3155418,-20.116806899389,0.0 -49.314928,-20.117375099389,0.0 -49.3141175,-20.116962899389,0.0 -49.3134868,-20.1165262993891,0.0 -49.3124567,-20.1159814993891,0.0 -49.3112264,-20.1160740993891,0.0 -49.3097175,-20.1163857993891,0.0 -49.3090577,-20.117371099389,0.0 -49.3068846,-20.116714999389,0.0 -49.3058506,-20.116901099389,0.0 -49.3045195,-20.1248762993888,0.0 -49.3021566,-20.1333996993886,0.0 -49.3012563,-20.1381893993885,0.0 -49.3002876,-20.1433434993884,0.0 -49.3001914,-20.1452753993883,0.0 -49.2996832,-20.1554886993881,0.0 -49.2998918,-20.1641002993879,0.0 -49.2992464,-20.1670760993878,0.0 -49.2902938,-20.1845987993873,0.0 -49.2857298,-20.1918249993872,0.0 -49.2848992,-20.1939749993871,0.0 -49.2844619,-20.196448099387,0.0 -49.2834753,-20.2000245993869,0.0 -49.2738535,-20.2137277993866,0.0 -49.2660054,-20.2284814993862,0.0 -49.2652486,-20.2296988993862,0.0 -49.2642762,-20.2312629993862,0.0 -49.2620434,-20.237448999386,0.0 -49.2604892,-20.2424667993859,0.0 -49.2590821,-20.2480919993857,0.0 -49.2602167,-20.2522505993857,0.0 -49.2598107,-20.2583866993855,0.0 -49.2596931,-20.2587600993855,0.0 -49.2602202,-20.2587760993855,0.0 -49.2604038,-20.2586891993855,0.0 -49.2624008,-20.2566600993855,0.0 -49.2632765,-20.2567052993855,0.0 -49.2640191,-20.2569099993855,0.0 -49.2642406,-20.2571212993855,0.0 -49.2643286,-20.2573443993855,0.0 -49.2645211,-20.2583829993855,0.0 -49.2653145,-20.2599070993855,0.0 -49.2654573,-20.2600307993855,0.0 -49.2665147,-20.2601159993855,0.0 -49.2666189,-20.2602160993854,0.0 -49.2665502,-20.2604628993854,0.0 -49.2662594,-20.2608298993854,0.0 -49.2662923,-20.2613865993854,0.0 -49.2676122,-20.2615950993854,0.0 -49.271327,-20.2633158993854,0.0 -49.2730191,-20.2640109993854,0.0 -49.273395,-20.2642138993854,0.0 -49.2741667,-20.2648499993853,0.0 -49.2748594,-20.2660046993853,0.0 -49.2752622,-20.2663307993853,0.0 -49.2757963,-20.2666550993853,0.0 -49.2769956,-20.2668647993853,0.0 -49.2774756,-20.2672037993853,0.0 -49.2787717,-20.2693684993852,0.0 -49.2792239,-20.2699292993852,0.0 -49.2797142,-20.2716992993852,0.0 -49.2802082,-20.2725269993851,0.0 -49.2819603,-20.2749390993851,0.0 -49.2835022,-20.2762002993851,0.0 -49.2841855,-20.276879999385,0.0 -49.2854015,-20.278247799385,0.0 -49.2860566,-20.279194299385,0.0 -49.2880026,-20.2813158993849,0.0 -49.2898157,-20.2830492993849,0.0 -49.2909494,-20.2844158993848,0.0 -49.2923496,-20.2866003993848,0.0 -49.2930912,-20.2880779993848,0.0 -49.2934209,-20.2890183993847,0.0 -49.2937185,-20.2904516993847,0.0 -49.2939595,-20.2923302993846,0.0 -49.2946642,-20.2948394993846,0.0 -49.2957481,-20.2960847993845,0.0 -49.2963661,-20.2970265993845,0.0 -49.2969819,-20.2980728993845,0.0 -49.2976971,-20.2996335993845,0.0 -49.2980761,-20.3008465993844,0.0 -49.2981985,-20.3016120993844,0.0 -49.2982327,-20.3033310993844,0.0 -49.2980366,-20.3044646993843,0.0 -49.2982636,-20.3052563993843,0.0 -49.2986737,-20.3059781993843,0.0 -49.2993027,-20.3068112993843,0.0 -49.2999252,-20.3073216993843,0.0 -49.3022107,-20.3087154993842,0.0 -49.3030955,-20.3091661993842,0.0 -49.304664,-20.3097856993842,0.0 -49.3083141,-20.3114858993842,0.0 -49.3081509,-20.3112364993842,0.0 -49.3081957,-20.3109237993842,0.0 -49.308556,-20.3108619993842,0.0 -49.3093432,-20.3109609993842,0.0 -49.3099779,-20.3110975993842,0.0 -49.3104891,-20.3111416993842,0.0 -49.3106867,-20.3107782993842,0.0 -49.3104272,-20.3104756993842,0.0 -49.3095644,-20.3100509993842,0.0 -49.3095504,-20.3097104993842,0.0 -49.3099667,-20.3095840993842,0.0 -49.3105429,-20.3100070993842,0.0 -49.3109506,-20.3102898993842,0.0 -49.3113843,-20.3102109993842,0.0 -49.3116925,-20.3098485993842,0.0 -49.3116976,-20.3093789993842,0.0 -49.3113704,-20.3089452993842,0.0 -49.3100699,-20.3077193993843,0.0 -49.3093056,-20.3067856993843,0.0 -49.3083273,-20.3051845993843,0.0 -49.3076987,-20.3044869993843,0.0 -49.3072104,-20.3036081993844,0.0 -49.3068629,-20.3024958993844,0.0 -49.3067127,-20.3016919993844,0.0 -49.3072465,-20.3015601993844,0.0 -49.3107024,-20.3010390993844,0.0 -49.312616,-20.3005617993844,0.0 -49.3151839,-20.2996732993845,0.0 -49.3159362,-20.2991586993845,0.0 -49.3163837,-20.2986932993845,0.0 -49.3167192,-20.2979771993845,0.0 -49.3171439,-20.2974480993845,0.0 -49.3179388,-20.2968294993845,0.0 -49.3181224,-20.2964789993845,0.0 -49.3180565,-20.2961782993845,0.0 -49.3177529,-20.2961231993845,0.0 -49.3172813,-20.2962491993845,0.0 -49.3168204,-20.2966752993845,0.0 -49.3164726,-20.2968675993845,0.0 -49.3161429,-20.2966687993845,0.0 -49.3161265,-20.2961908993845,0.0 -49.3168156,-20.2949352993846,0.0 -49.3170944,-20.2943555993846,0.0 -49.3170433,-20.2939636993846,0.0 -49.3167292,-20.2935953993846,0.0 -49.3162614,-20.2933820993846,0.0 -49.3156273,-20.2931933993846,0.0 -49.3155742,-20.2928722993846,0.0 -49.3158732,-20.2921911993846,0.0 -49.3161938,-20.2919593993847,0.0 -49.3166364,-20.2919505993847,0.0 -49.3170754,-20.2922679993846,0.0 -49.3171123,-20.2926988993846,0.0 -49.3174401,-20.2930672993846,0.0 -49.3178826,-20.2930715993846,0.0 -49.3181628,-20.2927349993846,0.0 -49.3182364,-20.2923182993846,0.0 -49.3180606,-20.2919512993847,0.0 -49.3176067,-20.2917250993847,0.0 -49.3169864,-20.2915494993847,0.0 -49.316505,-20.2913100993847,0.0 -49.3161748,-20.2910250993847,0.0 -49.3161796,-20.2907067993847,0.0 -49.3163766,-20.2903955993847,0.0 -49.3167098,-20.2902682993847,0.0 -49.3171929,-20.2903511993847,0.0 -49.3188556,-20.2913195993847,0.0 -49.319058,-20.2917911993847,0.0 -49.3189659,-20.2925733993846,0.0 -49.3191274,-20.2930443993846,0.0 -49.3194559,-20.2933606993846,0.0 -49.3199251,-20.2934433993846,0.0 -49.3204108,-20.2932914993846,0.0 -49.320825,-20.2930825993846,0.0 -49.3212894,-20.2925953993846,0.0 -49.3214749,-20.2920622993847,0.0 -49.3212883,-20.2914211993847,0.0 -49.3212389,-20.2908727993847,0.0 -49.3213448,-20.2900257993847,0.0 -49.3215828,-20.2897540993847,0.0 -49.3220258,-20.2897060993847,0.0 -49.3224797,-20.2899322993847,0.0 -49.3228233,-20.2899362993847,0.0 -49.3232005,-20.2897695993847,0.0 -49.3232744,-20.2893266993847,0.0 -49.3230432,-20.2889591993847,0.0 -49.3227001,-20.2887210993847,0.0 -49.3221627,-20.2885462993847,0.0 -49.3218342,-20.2882299993848,0.0 -49.3215638,-20.2876663993848,0.0 -49.3216245,-20.2871581993848,0.0 -49.3220026,-20.2867181993848,0.0 -49.3224745,-20.2865531993848,0.0 -49.32296,-20.2864142993848,0.0 -49.3231575,-20.2860508993848,0.0 -49.3229804,-20.2858012993848,0.0 -49.3224422,-20.2857047993848,0.0 -49.3220528,-20.2859097993848,0.0 -49.3211879,-20.2866190993848,0.0 -49.3206622,-20.2866401993848,0.0 -49.3202914,-20.2864017993848,0.0 -49.3201697,-20.2859914993848,0.0 -49.3201904,-20.2855135993848,0.0 -49.3204714,-20.2850987993848,0.0 -49.3209441,-20.2848554993848,0.0 -49.3215006,-20.2847020993848,0.0 -49.3217103,-20.2843278993848,0.0 -49.3216851,-20.2838885993849,0.0 -49.3218161,-20.2834938993849,0.0 -49.3226331,-20.2833842993849,0.0 -49.3232006,-20.2833244993849,0.0 -49.323356,-20.2830258993849,0.0 -49.3232359,-20.2826202993849,0.0 -49.3227834,-20.2822636993849,0.0 -49.3226056,-20.2820793993849,0.0 -49.3229411,-20.2817433993849,0.0 -49.3233838,-20.2817214993849,0.0 -49.3239477,-20.2820008993849,0.0 -49.3242172,-20.2826557993849,0.0 -49.3248936,-20.2827666993849,0.0 -49.3254473,-20.2827066993849,0.0 -49.3260294,-20.2825817993849,0.0 -49.3262676,-20.2822839993849,0.0 -49.3263012,-20.2817363993849,0.0 -49.3260578,-20.2812251993849,0.0 -49.326174,-20.2807044993849,0.0 -49.3264287,-20.2801589993849,0.0 -49.3264768,-20.279546199385,0.0 -49.3269203,-20.279446099385,0.0 -49.3276071,-20.279870099385,0.0 -49.3281448,-20.2800187993849,0.0 -49.3290163,-20.279974899385,0.0 -49.3294853,-20.280083799385,0.0 -49.3298399,-20.2805437993849,0.0 -49.3301623,-20.2814209993849,0.0 -49.3305617,-20.2815622993849,0.0 -49.3309784,-20.2813895993849,0.0 -49.3313745,-20.2805583993849,0.0 -49.3309529,-20.279902099385,0.0 -49.3306321,-20.278868299385,0.0 -49.3301534,-20.278380999385,0.0 -49.3291626,-20.277940999385,0.0 -49.3285443,-20.277569799385,0.0 -49.3278561,-20.277276199385,0.0 -49.3272492,-20.277139999385,0.0 -49.3274892,-20.276685599385,0.0 -49.3280577,-20.276534499385,0.0 -49.3286241,-20.276578999385,0.0 -49.3294128,-20.276521299385,0.0 -49.330035,-20.276527299385,0.0 -49.3304845,-20.276762499385,0.0 -49.3310181,-20.276393099385,0.0 -49.3310922,-20.2759240993851,0.0 -49.3312095,-20.2752989993851,0.0 -49.3316688,-20.2750163993851,0.0 -49.3342672,-20.2738146993851,0.0 -49.3351974,-20.2734581993851,0.0 -49.3361656,-20.2734282993851,0.0 -49.3376708,-20.2735990993851,0.0 -49.3396343,-20.2735916993851,0.0 -49.3411022,-20.2733706993851,0.0 -49.3434165,-20.2728706993851,0.0 -49.3454249,-20.2725374993851,0.0 -49.3461763,-20.2720878993851,0.0 -49.3471906,-20.2716147993852,0.0 -49.3479805,-20.2714525993852,0.0 -49.348726,-20.2715508993852,0.0 -49.3494836,-20.2718189993852,0.0 -49.3502798,-20.2723613993851,0.0 -49.3509217,-20.2731111993851,0.0 -49.3513893,-20.2733503993851,0.0 -49.3517778,-20.2732235993851,0.0 -49.3520023,-20.2729125993851,0.0 -49.3520904,-20.2724306993851,0.0 -49.3519285,-20.2720507993851,0.0 -49.351392,-20.2717847993852,0.0 -49.3510514,-20.2713981993852,0.0 -49.3510673,-20.2711163993852,0.0 -49.3511425,-20.2705429993852,0.0 -49.3509948,-20.2701240993852,0.0 -49.3504899,-20.2694930993852,0.0 -49.3505083,-20.2690626993852,0.0 -49.3506238,-20.2685940993852,0.0 -49.3503382,-20.2681478993852,0.0 -49.3500117,-20.2676489993853,0.0 -49.3500576,-20.2672318993853,0.0 -49.3505176,-20.2668709993853,0.0 -49.3511689,-20.2667335993853,0.0 -49.3517761,-20.2668436993853,0.0 -49.3522131,-20.2673565993853,0.0 -49.3525392,-20.2678945993853,0.0 -49.3533239,-20.2682150993852,0.0 -49.3539868,-20.2682864993852,0.0 -49.3543479,-20.2681333993853,0.0 -49.3544209,-20.2677687993853,0.0 -49.3542234,-20.2668274993853,0.0 -49.3538558,-20.2662890993853,0.0 -49.3533194,-20.2660231993853,0.0 -49.3523817,-20.2657925993853,0.0 -49.3522603,-20.2655043993853,0.0 -49.3525,-20.2650629993853,0.0 -49.3529462,-20.2647018993853,0.0 -49.3534614,-20.2643544993853,0.0 -49.3537698,-20.2639312993854,0.0 -49.3538555,-20.2636927993854,0.0 -49.3531789,-20.2630307993854,0.0 -49.3528638,-20.2623571993854,0.0 -49.3524143,-20.2613960993854,0.0 -49.3519145,-20.2602823993854,0.0 -49.3515276,-20.2593885993855,0.0 -49.3516646,-20.2577619993855,0.0 -49.3514934,-20.2569514993855,0.0 -49.3512362,-20.2564401993855,0.0 -49.3509088,-20.2560195993855,0.0 -49.3506525,-20.2555982993856,0.0 -49.3505729,-20.2551031993856,0.0 -49.3506321,-20.2547253993856,0.0 -49.350968,-20.2543371993856,0.0 -49.3511959,-20.2539170993856,0.0 -49.3513634,-20.2535580993856,0.0 -49.3513957,-20.2531147993856,0.0 -49.3511299,-20.2527534993856,0.0 -49.3509678,-20.2523996993856,0.0 -49.3504458,-20.2520816993857,0.0 -49.3496755,-20.2517090993857,0.0 -49.3491945,-20.2514435993857,0.0 -49.3490193,-20.2510113993857,0.0 -49.3491751,-20.2506605993857,0.0 -49.3495373,-20.2504030993857,0.0 -49.3501199,-20.2502128993857,0.0 -49.3507707,-20.2501145993857,0.0 -49.3513249,-20.2500023993857,0.0 -49.3519226,-20.2496948993857,0.0 -49.352383,-20.2492947993857,0.0 -49.3529385,-20.2490520993857,0.0 -49.3539085,-20.2488393993857,0.0 -49.3545349,-20.2484277993857,0.0 -49.3551326,-20.2481202993857,0.0 -49.3558794,-20.2480881993857,0.0 -49.3564726,-20.2482110993857,0.0 -49.3570939,-20.2482963993857,0.0 -49.357708,-20.2477268993858,0.0 -49.3579911,-20.2471032993858,0.0 -49.3583834,-20.2465981993858,0.0 -49.3593658,-20.2465159993858,0.0 -49.3601518,-20.2467059993858,0.0 -49.3606311,-20.2471410993858,0.0 -49.3610837,-20.2474844993858,0.0 -49.3615114,-20.2475667993858,0.0 -49.362029,-20.2474858993858,0.0 -49.3624134,-20.2472359993858,0.0 -49.3627775,-20.2467957993858,0.0 -49.3631564,-20.2462513993858,0.0 -49.3635177,-20.2460720993858,0.0 -49.3644726,-20.2459765993858,0.0 -49.3655638,-20.2460650993858,0.0 -49.3665152,-20.2462956993858,0.0 -49.367118,-20.2468231993858,0.0 -49.3676515,-20.2473630993858,0.0 -49.3680946,-20.2472889993858,0.0 -49.3683745,-20.2469653993858,0.0 -49.369037,-20.2457450993858,0.0 -49.3693701,-20.2456177993858,0.0 -49.3702004,-20.2455341993858,0.0 -49.371001,-20.2456459993858,0.0 -49.3716509,-20.2459588993858,0.0 -49.3723075,-20.2456456993858,0.0 -49.3728789,-20.2452284993858,0.0 -49.3736398,-20.2447753993858,0.0 -49.3743881,-20.2445663993858,0.0 -49.3753043,-20.2444809993858,0.0 -49.3762255,-20.2448744993858,0.0 -49.376699,-20.2452638993858,0.0 -49.3768631,-20.2457536993858,0.0 -49.3766972,-20.2463999993858,0.0 -49.3764981,-20.2473652993858,0.0 -49.3764017,-20.2480216993858,0.0 -49.3765486,-20.2482484993857,0.0 -49.3769939,-20.2484872993857,0.0 -49.3775892,-20.2486430993857,0.0 -49.3781055,-20.2487510993857,0.0 -49.3786034,-20.2487087993857,0.0 -49.3789334,-20.2485427993857,0.0 -49.379294,-20.2483113993857,0.0 -49.3796269,-20.2478731993858,0.0 -49.3798675,-20.2476969993858,0.0 -49.3802435,-20.2478975993858,0.0 -49.3805377,-20.2483040993857,0.0 -49.3809731,-20.2485334993857,0.0 -49.3814805,-20.2485381993857,0.0 -49.3818811,-20.2482789993857,0.0 -49.3821246,-20.2478304993858,0.0 -49.3823088,-20.2473344993858,0.0 -49.3822636,-20.2468927993858,0.0 -49.3820591,-20.2464683993858,0.0 -49.3818739,-20.2461003993858,0.0 -49.3819859,-20.2458478993858,0.0 -49.382425,-20.2457204993858,0.0 -49.3830042,-20.2455098993858,0.0 -49.3833073,-20.2450713993858,0.0 -49.3835386,-20.2448293993858,0.0 -49.3839963,-20.2448241993858,0.0 -49.3842714,-20.2451647993858,0.0 -49.3847874,-20.2452915993858,0.0 -49.3850896,-20.2449281993858,0.0 -49.3852134,-20.2445067993858,0.0 -49.3854639,-20.2443306993858,0.0 -49.3857724,-20.2443240993858,0.0 -49.3859378,-20.2446824993858,0.0 -49.3856557,-20.2450272993858,0.0 -49.3855819,-20.2454303993858,0.0 -49.3851863,-20.2461590993858,0.0 -49.3846066,-20.2464166993858,0.0 -49.3839996,-20.2464298993858,0.0 -49.3838668,-20.2467666993858,0.0 -49.3842023,-20.2470326993858,0.0 -49.3847009,-20.2469245993858,0.0 -49.3851307,-20.2467313993858,0.0 -49.3855689,-20.2466884993858,0.0 -49.3858767,-20.2467476993858,0.0 -49.3861719,-20.2470695993858,0.0 -49.3860675,-20.2475381993858,0.0 -49.3856254,-20.2479565993858,0.0 -49.385426,-20.2482202993857,0.0 -49.3859808,-20.2484338993857,0.0 -49.3865369,-20.2483311993857,0.0 -49.3868891,-20.2479494993858,0.0 -49.3873008,-20.2475776993858,0.0 -49.387931,-20.2472547993858,0.0 -49.3888337,-20.2465494993858,0.0 -49.3891283,-20.2459605993858,0.0 -49.3891633,-20.2454632993858,0.0 -49.3889384,-20.2450762993858,0.0 -49.3884742,-20.2447432993858,0.0 -49.3880191,-20.2444949993858,0.0 -49.3879428,-20.2441844993858,0.0 -49.388225,-20.2438301993859,0.0 -49.3886263,-20.2435052993859,0.0 -49.3887199,-20.2431117993859,0.0 -49.3883837,-20.2429114993859,0.0 -49.387787,-20.2428871993859,0.0 -49.3874515,-20.2426211993859,0.0 -49.3872185,-20.2420650993859,0.0 -49.3872135,-20.2415767993859,0.0 -49.3873841,-20.2410989993859,0.0 -49.3874849,-20.2403491993859,0.0 -49.3873703,-20.239887999386,0.0 -49.3872958,-20.239389699386,0.0 -49.387606,-20.239214099386,0.0 -49.3884169,-20.239691099386,0.0 -49.3892651,-20.2404124993859,0.0 -49.3903921,-20.2411082993859,0.0 -49.3908063,-20.2414594993859,0.0 -49.391321,-20.2417177993859,0.0 -49.3920393,-20.2417726993859,0.0 -49.3928753,-20.2414972993859,0.0 -49.3931692,-20.2409740993859,0.0 -49.3932717,-20.2402285993859,0.0 -49.3938995,-20.239619299386,0.0 -49.3944675,-20.239521199386,0.0 -49.3949932,-20.239676199386,0.0 -49.3955167,-20.240047199386,0.0 -49.3960707,-20.2403527993859,0.0 -49.396868,-20.2403055993859,0.0 -49.3980559,-20.239835699386,0.0 -49.3986825,-20.239850799386,0.0 -49.3992185,-20.239968399386,0.0 -49.3999029,-20.2401717993859,0.0 -49.4005395,-20.2401869993859,0.0 -49.4011287,-20.239966999386,0.0 -49.4015904,-20.239567399386,0.0 -49.4017957,-20.238949599386,0.0 -49.4018807,-20.238424499386,0.0 -49.4019951,-20.237937299386,0.0 -49.4024674,-20.237481499386,0.0 -49.4028842,-20.236611999386,0.0 -49.4032009,-20.2357979993861,0.0 -49.4036371,-20.2349755993861,0.0 -49.4042484,-20.2345397993861,0.0 -49.4050694,-20.2340308993861,0.0 -49.4059481,-20.2337101993861,0.0 -49.4064949,-20.2334725993861,0.0 -49.4068286,-20.2332110993861,0.0 -49.4070014,-20.2328558993861,0.0 -49.4070601,-20.2326705993861,0.0</coordinates>
</LinearRing>
</outerBoundaryIs>
</Polygon>
</MultiGeometry>
</Placemark>
</Folder>
</Document></kml>
