<?xml version='1.0' encoding='UTF-8'?>
<kml xmlns:xsd="http://www.w3.org/2001/XMLSchema" xmlns:gx="http://www.google.com/kml/ext/2.2" xmlns:atom="http://www.w3.org/2005/Atom" xmlns="http://www.opengis.net/kml/2.2">
<Document>
<name>pirassununga_3539301_localidades_2022</name>
<visibility>1</visibility>
<Schema name="Núcleos Rurais" id="kml_schema_ft_Núcleos_Rurais">
<SimpleField type="xsd:string" name="CD_UF">
<displayName>CD_UF</displayName>
</SimpleField>
<SimpleField type="xsd:string" name="NM_UF">
<displayName>NM_UF</displayName>
</SimpleField>
<SimpleField type="xsd:string" name="SIGLA_UF">
<displayName>SIGLA_UF</displayName>
</SimpleField>
<SimpleField type="xsd:string" name="CD_MUN">
<displayName>CD_MUN</displayName>
</SimpleField>
<SimpleField type="xsd:string" name="NM_MUN">
<displayName>NM_MUN</displayName>
</SimpleField>
<SimpleField type="xsd:string" name="CD_RGINT">
<displayName>CD_RGINT</displayName>
</SimpleField>
<SimpleField type="xsd:string" name="NM_RGINT">
<displayName>NM_RGINT</displayName>
</SimpleField>
<SimpleField type="xsd:string" name="CD_RGI">
<displayName>CD_RGI</displayName>
</SimpleField>
<SimpleField type="xsd:string" name="NM_RGI">
<displayName>NM_RGI</displayName>
</SimpleField>
<SimpleField type="xsd:string" name="CT_LOCALIDADE">
<displayName>CT_LOCALIDADE</displayName>
</SimpleField>
<SimpleField type="xsd:string" name="CD_LOCALIDADE">
<displayName>CD_LOCALIDADE</displayName>
</SimpleField>
<SimpleField type="xsd:string" name="NM_LOCALIDADE">
<displayName>NM_LOCALIDADE</displayName>
</SimpleField>
<SimpleField type="xsd:string" name="LAT_LOCALIDADE">
<displayName>LAT_LOCALIDADE</displayName>
</SimpleField>
<SimpleField type="xsd:string" name="LONG_LOCALIDADE">
<displayName>LONG_LOCALIDADE</displayName>
</SimpleField>
</Schema>
<Schema name="Vilas" id="kml_schema_ft_Vilas">
<SimpleField type="xsd:string" name="CD_UF">
<displayName>CD_UF</displayName>
</SimpleField>
<SimpleField type="xsd:string" name="NM_UF">
<displayName>NM_UF</displayName>
</SimpleField>
<SimpleField type="xsd:string" name="SIGLA_UF">
<displayName>SIGLA_UF</displayName>
</SimpleField>
<SimpleField type="xsd:string" name="CD_MUN">
<displayName>CD_MUN</displayName>
</SimpleField>
<SimpleField type="xsd:string" name="NM_MUN">
<displayName>NM_MUN</displayName>
</SimpleField>
<SimpleField type="xsd:string" name="CD_RGINT">
<displayName>CD_RGINT</displayName>
</SimpleField>
<SimpleField type="xsd:string" name="NM_RGINT">
<displayName>NM_RGINT</displayName>
</SimpleField>
<SimpleField type="xsd:string" name="CD_RGI">
<displayName>CD_RGI</displayName>
</SimpleField>
<SimpleField type="xsd:string" name="NM_RGI">
<displayName>NM_RGI</displayName>
</SimpleField>
<SimpleField type="xsd:string" name="CT_LOCALIDADE">
<displayName>CT_LOCALIDADE</displayName>
</SimpleField>
<SimpleField type="xsd:string" name="CD_LOCALIDADE">
<displayName>CD_LOCALIDADE</displayName>
</SimpleField>
<SimpleField type="xsd:string" name="NM_LOCALIDADE">
<displayName>NM_LOCALIDADE</displayName>
</SimpleField>
<SimpleField type="xsd:string" name="LAT_LOCALIDADE">
<displayName>LAT_LOCALIDADE</displayName>
</SimpleField>
<SimpleField type="xsd:string" name="LONG_LOCALIDADE">
<displayName>LONG_LOCALIDADE</displayName>
</SimpleField>
</Schema>
<Schema name="Localidades" id="kml_schema_ft_Localidades">
<SimpleField type="xsd:string" name="CD_UF">
<displayName>CD_UF</displayName>
</SimpleField>
<SimpleField type="xsd:string" name="NM_UF">
<displayName>NM_UF</displayName>
</SimpleField>
<SimpleField type="xsd:string" name="SIGLA_UF">
<displayName>SIGLA_UF</displayName>
</SimpleField>
<SimpleField type="xsd:string" name="CD_MUN">
<displayName>CD_MUN</displayName>
</SimpleField>
<SimpleField type="xsd:string" name="NM_MUN">
<displayName>NM_MUN</displayName>
</SimpleField>
<SimpleField type="xsd:string" name="CD_RGINT">
<displayName>CD_RGINT</displayName>
</SimpleField>
<SimpleField type="xsd:string" name="NM_RGINT">
<displayName>NM_RGINT</displayName>
</SimpleField>
<SimpleField type="xsd:string" name="CD_RGI">
<displayName>CD_RGI</displayName>
</SimpleField>
<SimpleField type="xsd:string" name="NM_RGI">
<displayName>NM_RGI</displayName>
</SimpleField>
<SimpleField type="xsd:string" name="CT_LOCALIDADE">
<displayName>CT_LOCALIDADE</displayName>
</SimpleField>
<SimpleField type="xsd:string" name="SCT_LOCALIDADE">
<displayName>SCT_LOCALIDADE</displayName>
</SimpleField>
<SimpleField type="xsd:string" name="CD_LOCALIDADE">
<displayName>CD_LOCALIDADE</displayName>
</SimpleField>
<SimpleField type="xsd:string" name="NM_LOCALIDADE">
<displayName>NM_LOCALIDADE</displayName>
</SimpleField>
</Schema>
<Schema name="Núcleos Urbanos" id="kml_schema_ft_Núcleos_Urbanos">
<SimpleField type="xsd:string" name="CD_UF">
<displayName>CD_UF</displayName>
</SimpleField>
<SimpleField type="xsd:string" name="NM_UF">
<displayName>NM_UF</displayName>
</SimpleField>
<SimpleField type="xsd:string" name="SIGLA_UF">
<displayName>SIGLA_UF</displayName>
</SimpleField>
<SimpleField type="xsd:string" name="CD_MUN">
<displayName>CD_MUN</displayName>
</SimpleField>
<SimpleField type="xsd:string" name="NM_MUN">
<displayName>NM_MUN</displayName>
</SimpleField>
<SimpleField type="xsd:string" name="CD_RGINT">
<displayName>CD_RGINT</displayName>
</SimpleField>
<SimpleField type="xsd:string" name="NM_RGINT">
<displayName>NM_RGINT</displayName>
</SimpleField>
<SimpleField type="xsd:string" name="CD_RGI">
<displayName>CD_RGI</displayName>
</SimpleField>
<SimpleField type="xsd:string" name="NM_RGI">
<displayName>NM_RGI</displayName>
</SimpleField>
<SimpleField type="xsd:string" name="CT_LOCALIDADE">
<displayName>CT_LOCALIDADE</displayName>
</SimpleField>
<SimpleField type="xsd:string" name="CD_LOCALIDADE">
<displayName>CD_LOCALIDADE</displayName>
</SimpleField>
<SimpleField type="xsd:string" name="NM_LOCALIDADE">
<displayName>NM_LOCALIDADE</displayName>
</SimpleField>
<SimpleField type="xsd:string" name="LAT_LOCALIDADE">
<displayName>LAT_LOCALIDADE</displayName>
</SimpleField>
<SimpleField type="xsd:string" name="LONG_LOCALIDADE">
<displayName>LONG_LOCALIDADE</displayName>
</SimpleField>
</Schema>
<Schema name="01. Cidade" id="kml_schema_ft_01._Cidade">
<SimpleField type="xsd:string" name="CD_UF">
<displayName>CD_UF</displayName>
</SimpleField>
<SimpleField type="xsd:string" name="NM_UF">
<displayName>NM_UF</displayName>
</SimpleField>
<SimpleField type="xsd:string" name="SIGLA_UF">
<displayName>SIGLA_UF</displayName>
</SimpleField>
<SimpleField type="xsd:string" name="CD_MUN">
<displayName>CD_MUN</displayName>
</SimpleField>
<SimpleField type="xsd:string" name="NM_MUN">
<displayName>NM_MUN</displayName>
</SimpleField>
<SimpleField type="xsd:string" name="CD_RGINT">
<displayName>CD_RGINT</displayName>
</SimpleField>
<SimpleField type="xsd:string" name="NM_RGINT">
<displayName>NM_RGINT</displayName>
</SimpleField>
<SimpleField type="xsd:string" name="CD_RGI">
<displayName>CD_RGI</displayName>
</SimpleField>
<SimpleField type="xsd:string" name="NM_RGI">
<displayName>NM_RGI</displayName>
</SimpleField>
<SimpleField type="xsd:string" name="CT_LOCALIDADE">
<displayName>CT_LOCALIDADE</displayName>
</SimpleField>
<SimpleField type="xsd:string" name="SCT_LOCALIDADE">
<displayName>SCT_LOCALIDADE</displayName>
</SimpleField>
<SimpleField type="xsd:string" name="CD_LOCALIDADE">
<displayName>CD_LOCALIDADE</displayName>
</SimpleField>
<SimpleField type="xsd:string" name="NM_LOCALIDADE">
<displayName>NM_LOCALIDADE</displayName>
</SimpleField>
<SimpleField type="xsd:string" name="LAT_LOCALIDADE">
<displayName>LAT_LOCALIDADE</displayName>
</SimpleField>
<SimpleField type="xsd:string" name="LONG_LOCALIDADE">
<displayName>LONG_LOCALIDADE</displayName>
</SimpleField>
</Schema>
<Schema name="Município" id="kml_schema_ft_Município">
<SimpleField type="xsd:string" name="CD_UF">
<displayName>CD_UF</displayName>
</SimpleField>
<SimpleField type="xsd:string" name="NM_UF">
<displayName>NM_UF</displayName>
</SimpleField>
<SimpleField type="xsd:string" name="CD_MUN">
<displayName>CD_MUN</displayName>
</SimpleField>
<SimpleField type="xsd:string" name="NM_MUN">
<displayName>NM_MUN</displayName>
</SimpleField>
<SimpleField type="xsd:string" name="CD_RGINT">
<displayName>CD_RGINT</displayName>
</SimpleField>
<SimpleField type="xsd:string" name="NM_RGINT">
<displayName>NM_RGINT</displayName>
</SimpleField>
<SimpleField type="xsd:string" name="CD_RGI">
<displayName>CD_RGI</displayName>
</SimpleField>
<SimpleField type="xsd:string" name="NM_RGI">
<displayName>NM_RGI</displayName>
</SimpleField>
</Schema>
<Folder id="01. Cidade">
<name>01. Cidade</name>
<Folder id="01.03. Sede Municipal">
<name>01.03. Sede Municipal</name>
<Placemark id="01.03. Sede Municipal">
<name>Pirassununga [3539301]</name>
<visibility>1</visibility>
<snippet> </snippet>
<description>&lt;center&gt;&lt;table&gt;&lt;tr&gt;&lt;th colspan='2' align='center'&gt;&lt;em&gt;Atributos&lt;/em&gt;&lt;/th&gt;&lt;/tr&gt;&lt;tr bgcolor="#E3E3F3"&gt;
&lt;th&gt;CD_UF&lt;/th&gt;
&lt;td&gt;35&lt;/td&gt;
&lt;/tr&gt;&lt;tr bgcolor=""&gt;
&lt;th&gt;NM_UF&lt;/th&gt;
&lt;td&gt;São Paulo&lt;/td&gt;
&lt;/tr&gt;&lt;tr bgcolor="#E3E3F3"&gt;
&lt;th&gt;SIGLA_UF&lt;/th&gt;
&lt;td&gt;SP&lt;/td&gt;
&lt;/tr&gt;&lt;tr bgcolor=""&gt;
&lt;th&gt;CD_MUN&lt;/th&gt;
&lt;td&gt;3539301&lt;/td&gt;
&lt;/tr&gt;&lt;tr bgcolor="#E3E3F3"&gt;
&lt;th&gt;NM_MUN&lt;/th&gt;
&lt;td&gt;Pirassununga&lt;/td&gt;
&lt;/tr&gt;&lt;tr bgcolor=""&gt;
&lt;th&gt;CD_RGINT&lt;/th&gt;
&lt;td&gt;3509&lt;/td&gt;
&lt;/tr&gt;&lt;tr bgcolor="#E3E3F3"&gt;
&lt;th&gt;NM_RGINT&lt;/th&gt;
&lt;td&gt;Araraquara&lt;/td&gt;
&lt;/tr&gt;&lt;tr bgcolor=""&gt;
&lt;th&gt;CD_RGI&lt;/th&gt;
&lt;td&gt;350037&lt;/td&gt;
&lt;/tr&gt;&lt;tr bgcolor="#E3E3F3"&gt;
&lt;th&gt;NM_RGI&lt;/th&gt;
&lt;td&gt;São Carlos&lt;/td&gt;
&lt;/tr&gt;&lt;tr bgcolor=""&gt;
&lt;th&gt;CT_LOCALIDADE&lt;/th&gt;
&lt;td&gt;Cidade&lt;/td&gt;
&lt;/tr&gt;&lt;tr bgcolor="#E3E3F3"&gt;
&lt;th&gt;SCT_LOCALIDADE&lt;/th&gt;
&lt;td&gt;Sede Municipal&lt;/td&gt;
&lt;/tr&gt;&lt;tr bgcolor=""&gt;
&lt;th&gt;CD_LOCALIDADE&lt;/th&gt;
&lt;td&gt;3539301&lt;/td&gt;
&lt;/tr&gt;&lt;tr bgcolor="#E3E3F3"&gt;
&lt;th&gt;NM_LOCALIDADE&lt;/th&gt;
&lt;td&gt;Pirassununga&lt;/td&gt;
&lt;/tr&gt;&lt;tr bgcolor=""&gt;
&lt;th&gt;LAT_LOCALIDADE&lt;/th&gt;
&lt;td&gt;-21.9952&lt;/td&gt;
&lt;/tr&gt;&lt;tr bgcolor="#E3E3F3"&gt;
&lt;th&gt;LONG_LOCALIDADE&lt;/th&gt;
&lt;td&gt;-47.4236&lt;/td&gt;
&lt;/tr&gt;&lt;/table&gt;&lt;/center&gt;</description>
<Style>
<IconStyle>
<color>ff00aaff</color>
<scale>1.0</scale>
<Icon>
<href>http://maps.google.com/mapfiles/kml/shapes/placemark_circle.png</href>
</Icon>
</IconStyle>
<LabelStyle>
<scale>1.0</scale>
</LabelStyle>
<LineStyle>
<color>ffffffff</color>
<width>3</width>
<gx:labelVisibility>1</gx:labelVisibility>
</LineStyle>
<PolyStyle>
<color>00ffffff</color>
</PolyStyle>
</Style>
<ExtendedData>
<SchemaData schemaUrl="#kml_schema_ft_01._Cidade">
<SimpleData name="CD_UF">35</SimpleData>
<SimpleData name="NM_UF">São Paulo</SimpleData>
<SimpleData name="SIGLA_UF">SP</SimpleData>
<SimpleData name="CD_MUN">3539301</SimpleData>
<SimpleData name="NM_MUN">Pirassununga</SimpleData>
<SimpleData name="CD_RGINT">3509</SimpleData>
<SimpleData name="NM_RGINT">Araraquara</SimpleData>
<SimpleData name="CD_RGI">350037</SimpleData>
<SimpleData name="NM_RGI">São Carlos</SimpleData>
<SimpleData name="CT_LOCALIDADE">Cidade</SimpleData>
<SimpleData name="SCT_LOCALIDADE">Sede Municipal</SimpleData>
<SimpleData name="CD_LOCALIDADE">3539301</SimpleData>
<SimpleData name="NM_LOCALIDADE">Pirassununga</SimpleData>
<SimpleData name="LAT_LOCALIDADE">-21.9952</SimpleData>
<SimpleData name="LONG_LOCALIDADE">-47.4236</SimpleData>
</SchemaData>
</ExtendedData>
<Point>
<extrude>0</extrude>
<coordinates>-47.423639,-21.9952239993432,0.0</coordinates>
</Point>
</Placemark>
</Folder>
</Folder>
<Folder id="04. Vilas">
<name>04. Vilas</name>
<Placemark id="04. Vilas">
<name>Cachoeira de Emas [353930110]</name>
<visibility>1</visibility>
<snippet> </snippet>
<description>&lt;center&gt;&lt;table&gt;&lt;tr&gt;&lt;th colspan='2' align='center'&gt;&lt;em&gt;Atributos&lt;/em&gt;&lt;/th&gt;&lt;/tr&gt;&lt;tr bgcolor="#E3E3F3"&gt;
&lt;th&gt;CD_UF&lt;/th&gt;
&lt;td&gt;35&lt;/td&gt;
&lt;/tr&gt;&lt;tr bgcolor=""&gt;
&lt;th&gt;NM_UF&lt;/th&gt;
&lt;td&gt;São Paulo&lt;/td&gt;
&lt;/tr&gt;&lt;tr bgcolor="#E3E3F3"&gt;
&lt;th&gt;SIGLA_UF&lt;/th&gt;
&lt;td&gt;SP&lt;/td&gt;
&lt;/tr&gt;&lt;tr bgcolor=""&gt;
&lt;th&gt;CD_MUN&lt;/th&gt;
&lt;td&gt;3539301&lt;/td&gt;
&lt;/tr&gt;&lt;tr bgcolor="#E3E3F3"&gt;
&lt;th&gt;NM_MUN&lt;/th&gt;
&lt;td&gt;Pirassununga&lt;/td&gt;
&lt;/tr&gt;&lt;tr bgcolor=""&gt;
&lt;th&gt;CD_RGINT&lt;/th&gt;
&lt;td&gt;3509&lt;/td&gt;
&lt;/tr&gt;&lt;tr bgcolor="#E3E3F3"&gt;
&lt;th&gt;NM_RGINT&lt;/th&gt;
&lt;td&gt;Araraquara&lt;/td&gt;
&lt;/tr&gt;&lt;tr bgcolor=""&gt;
&lt;th&gt;CD_RGI&lt;/th&gt;
&lt;td&gt;350037&lt;/td&gt;
&lt;/tr&gt;&lt;tr bgcolor="#E3E3F3"&gt;
&lt;th&gt;NM_RGI&lt;/th&gt;
&lt;td&gt;São Carlos&lt;/td&gt;
&lt;/tr&gt;&lt;tr bgcolor=""&gt;
&lt;th&gt;CT_LOCALIDADE&lt;/th&gt;
&lt;td&gt;Vila&lt;/td&gt;
&lt;/tr&gt;&lt;tr bgcolor="#E3E3F3"&gt;
&lt;th&gt;CD_LOCALIDADE&lt;/th&gt;
&lt;td&gt;353930110&lt;/td&gt;
&lt;/tr&gt;&lt;tr bgcolor=""&gt;
&lt;th&gt;NM_LOCALIDADE&lt;/th&gt;
&lt;td&gt;Cachoeira de Emas&lt;/td&gt;
&lt;/tr&gt;&lt;tr bgcolor="#E3E3F3"&gt;
&lt;th&gt;LAT_LOCALIDADE&lt;/th&gt;
&lt;td&gt;-21.9282&lt;/td&gt;
&lt;/tr&gt;&lt;tr bgcolor=""&gt;
&lt;th&gt;LONG_LOCALIDADE&lt;/th&gt;
&lt;td&gt;-47.369&lt;/td&gt;
&lt;/tr&gt;&lt;/table&gt;&lt;/center&gt;</description>
<Style>
<IconStyle>
<color>ffff5400</color>
<scale>1.0</scale>
<Icon>
<href>http://maps.google.com/mapfiles/kml/shapes/placemark_circle.png</href>
</Icon>
</IconStyle>
<LabelStyle>
<scale>0.9</scale>
</LabelStyle>
<LineStyle>
<color>72ffffff</color>
<width>1.0</width>
<gx:labelVisibility>1</gx:labelVisibility>
</LineStyle>
<PolyStyle>
<color>660054ff</color>
</PolyStyle>
</Style>
<ExtendedData>
<SchemaData schemaUrl="#kml_schema_ft_Vilas">
<SimpleData name="CD_UF">35</SimpleData>
<SimpleData name="NM_UF">São Paulo</SimpleData>
<SimpleData name="SIGLA_UF">SP</SimpleData>
<SimpleData name="CD_MUN">3539301</SimpleData>
<SimpleData name="NM_MUN">Pirassununga</SimpleData>
<SimpleData name="CD_RGINT">3509</SimpleData>
<SimpleData name="NM_RGINT">Araraquara</SimpleData>
<SimpleData name="CD_RGI">350037</SimpleData>
<SimpleData name="NM_RGI">São Carlos</SimpleData>
<SimpleData name="CT_LOCALIDADE">Vila</SimpleData>
<SimpleData name="CD_LOCALIDADE">353930110</SimpleData>
<SimpleData name="NM_LOCALIDADE">Cachoeira de Emas</SimpleData>
<SimpleData name="LAT_LOCALIDADE">-21.9282</SimpleData>
<SimpleData name="LONG_LOCALIDADE">-47.369</SimpleData>
</SchemaData>
</ExtendedData>
<Point>
<extrude>0</extrude>
<coordinates>-47.368979,-21.9281609993448,0.0</coordinates>
</Point>
</Placemark>
</Folder>
<Folder id="05. Núcleos Urbanos">
<name>05. Núcleos Urbanos</name>
<Placemark id="localidades">
<name>Vila dos Sargentos [3539301001]</name>
<visibility>1</visibility>
<snippet> </snippet>
<description>&lt;center&gt;&lt;table&gt;&lt;tr&gt;&lt;th colspan='2' align='center'&gt;&lt;em&gt;Attributes&lt;/em&gt;&lt;/th&gt;&lt;/tr&gt;&lt;tr bgcolor="#E3E3F3"&gt;
&lt;th&gt;CD_UF&lt;/th&gt;
&lt;td&gt;35&lt;/td&gt;
&lt;/tr&gt;&lt;tr bgcolor=""&gt;
&lt;th&gt;NM_UF&lt;/th&gt;
&lt;td&gt;São Paulo&lt;/td&gt;
&lt;/tr&gt;&lt;tr bgcolor="#E3E3F3"&gt;
&lt;th&gt;SIGLA_UF&lt;/th&gt;
&lt;td&gt;SP&lt;/td&gt;
&lt;/tr&gt;&lt;tr bgcolor=""&gt;
&lt;th&gt;CD_MUN&lt;/th&gt;
&lt;td&gt;3539301&lt;/td&gt;
&lt;/tr&gt;&lt;tr bgcolor="#E3E3F3"&gt;
&lt;th&gt;NM_MUN&lt;/th&gt;
&lt;td&gt;Pirassununga&lt;/td&gt;
&lt;/tr&gt;&lt;tr bgcolor=""&gt;
&lt;th&gt;CD_RGINT&lt;/th&gt;
&lt;td&gt;3509&lt;/td&gt;
&lt;/tr&gt;&lt;tr bgcolor="#E3E3F3"&gt;
&lt;th&gt;NM_RGINT&lt;/th&gt;
&lt;td&gt;Araraquara&lt;/td&gt;
&lt;/tr&gt;&lt;tr bgcolor=""&gt;
&lt;th&gt;CD_RGI&lt;/th&gt;
&lt;td&gt;350037&lt;/td&gt;
&lt;/tr&gt;&lt;tr bgcolor="#E3E3F3"&gt;
&lt;th&gt;NM_RGI&lt;/th&gt;
&lt;td&gt;São Carlos&lt;/td&gt;
&lt;/tr&gt;&lt;tr bgcolor=""&gt;
&lt;th&gt;CT_LOCALIDADE&lt;/th&gt;
&lt;td&gt;Núcleo Urbano&lt;/td&gt;
&lt;/tr&gt;&lt;tr bgcolor="#E3E3F3"&gt;
&lt;th&gt;CD_LOCALIDADE&lt;/th&gt;
&lt;td&gt;3539301001&lt;/td&gt;
&lt;/tr&gt;&lt;tr bgcolor=""&gt;
&lt;th&gt;NM_LOCALIDADE&lt;/th&gt;
&lt;td&gt;Vila dos Sargentos&lt;/td&gt;
&lt;/tr&gt;&lt;tr bgcolor="#E3E3F3"&gt;
&lt;th&gt;LAT_LOCALIDADE&lt;/th&gt;
&lt;td&gt;-21.9932&lt;/td&gt;
&lt;/tr&gt;&lt;tr bgcolor=""&gt;
&lt;th&gt;LONG_LOCALIDADE&lt;/th&gt;
&lt;td&gt;-47.3651&lt;/td&gt;
&lt;/tr&gt;&lt;/table&gt;&lt;/center&gt;</description>
<Style>
<IconStyle>
<color>ff0000ff</color>
<scale>0.9</scale>
<Icon>
<href>http://maps.google.com/mapfiles/kml/shapes/placemark_circle.png</href>
</Icon>
</IconStyle>
<LabelStyle>
<scale>0.9</scale>
</LabelStyle>
<LineStyle>
<color>72ffffff</color>
<width>1.0</width>
<gx:labelVisibility>1</gx:labelVisibility>
</LineStyle>
<PolyStyle>
<color>66ff54ff</color>
</PolyStyle>
</Style>
<ExtendedData>
<SchemaData schemaUrl="#kml_schema_ft_Núcleos_Urbanos">
<SimpleData name="CD_UF">35</SimpleData>
<SimpleData name="NM_UF">São Paulo</SimpleData>
<SimpleData name="SIGLA_UF">SP</SimpleData>
<SimpleData name="CD_MUN">3539301</SimpleData>
<SimpleData name="NM_MUN">Pirassununga</SimpleData>
<SimpleData name="CD_RGINT">3509</SimpleData>
<SimpleData name="NM_RGINT">Araraquara</SimpleData>
<SimpleData name="CD_RGI">350037</SimpleData>
<SimpleData name="NM_RGI">São Carlos</SimpleData>
<SimpleData name="CT_LOCALIDADE">Núcleo Urbano</SimpleData>
<SimpleData name="CD_LOCALIDADE">3539301001</SimpleData>
<SimpleData name="NM_LOCALIDADE">Vila dos Sargentos</SimpleData>
<SimpleData name="LAT_LOCALIDADE">-21.9932</SimpleData>
<SimpleData name="LONG_LOCALIDADE">-47.3651</SimpleData>
</SchemaData>
</ExtendedData>
<Point>
<extrude>0</extrude>
<coordinates>-47.3651352937852,-21.9931783948234,0.0</coordinates>
</Point>
</Placemark>
<Placemark id="localidades">
<name>Vertentes do Mamonal [3539301002]</name>
<visibility>1</visibility>
<snippet> </snippet>
<description>&lt;center&gt;&lt;table&gt;&lt;tr&gt;&lt;th colspan='2' align='center'&gt;&lt;em&gt;Attributes&lt;/em&gt;&lt;/th&gt;&lt;/tr&gt;&lt;tr bgcolor="#E3E3F3"&gt;
&lt;th&gt;CD_UF&lt;/th&gt;
&lt;td&gt;35&lt;/td&gt;
&lt;/tr&gt;&lt;tr bgcolor=""&gt;
&lt;th&gt;NM_UF&lt;/th&gt;
&lt;td&gt;São Paulo&lt;/td&gt;
&lt;/tr&gt;&lt;tr bgcolor="#E3E3F3"&gt;
&lt;th&gt;SIGLA_UF&lt;/th&gt;
&lt;td&gt;SP&lt;/td&gt;
&lt;/tr&gt;&lt;tr bgcolor=""&gt;
&lt;th&gt;CD_MUN&lt;/th&gt;
&lt;td&gt;3539301&lt;/td&gt;
&lt;/tr&gt;&lt;tr bgcolor="#E3E3F3"&gt;
&lt;th&gt;NM_MUN&lt;/th&gt;
&lt;td&gt;Pirassununga&lt;/td&gt;
&lt;/tr&gt;&lt;tr bgcolor=""&gt;
&lt;th&gt;CD_RGINT&lt;/th&gt;
&lt;td&gt;3509&lt;/td&gt;
&lt;/tr&gt;&lt;tr bgcolor="#E3E3F3"&gt;
&lt;th&gt;NM_RGINT&lt;/th&gt;
&lt;td&gt;Araraquara&lt;/td&gt;
&lt;/tr&gt;&lt;tr bgcolor=""&gt;
&lt;th&gt;CD_RGI&lt;/th&gt;
&lt;td&gt;350037&lt;/td&gt;
&lt;/tr&gt;&lt;tr bgcolor="#E3E3F3"&gt;
&lt;th&gt;NM_RGI&lt;/th&gt;
&lt;td&gt;São Carlos&lt;/td&gt;
&lt;/tr&gt;&lt;tr bgcolor=""&gt;
&lt;th&gt;CT_LOCALIDADE&lt;/th&gt;
&lt;td&gt;Núcleo Urbano&lt;/td&gt;
&lt;/tr&gt;&lt;tr bgcolor="#E3E3F3"&gt;
&lt;th&gt;CD_LOCALIDADE&lt;/th&gt;
&lt;td&gt;3539301002&lt;/td&gt;
&lt;/tr&gt;&lt;tr bgcolor=""&gt;
&lt;th&gt;NM_LOCALIDADE&lt;/th&gt;
&lt;td&gt;Vertentes do Mamonal&lt;/td&gt;
&lt;/tr&gt;&lt;tr bgcolor="#E3E3F3"&gt;
&lt;th&gt;LAT_LOCALIDADE&lt;/th&gt;
&lt;td&gt;-22.0273&lt;/td&gt;
&lt;/tr&gt;&lt;tr bgcolor=""&gt;
&lt;th&gt;LONG_LOCALIDADE&lt;/th&gt;
&lt;td&gt;-47.4519&lt;/td&gt;
&lt;/tr&gt;&lt;/table&gt;&lt;/center&gt;</description>
<Style>
<IconStyle>
<color>ff0000ff</color>
<scale>0.9</scale>
<Icon>
<href>http://maps.google.com/mapfiles/kml/shapes/placemark_circle.png</href>
</Icon>
</IconStyle>
<LabelStyle>
<scale>0.9</scale>
</LabelStyle>
<LineStyle>
<color>72ffffff</color>
<width>1.0</width>
<gx:labelVisibility>1</gx:labelVisibility>
</LineStyle>
<PolyStyle>
<color>66ff54ff</color>
</PolyStyle>
</Style>
<ExtendedData>
<SchemaData schemaUrl="#kml_schema_ft_Núcleos_Urbanos">
<SimpleData name="CD_UF">35</SimpleData>
<SimpleData name="NM_UF">São Paulo</SimpleData>
<SimpleData name="SIGLA_UF">SP</SimpleData>
<SimpleData name="CD_MUN">3539301</SimpleData>
<SimpleData name="NM_MUN">Pirassununga</SimpleData>
<SimpleData name="CD_RGINT">3509</SimpleData>
<SimpleData name="NM_RGINT">Araraquara</SimpleData>
<SimpleData name="CD_RGI">350037</SimpleData>
<SimpleData name="NM_RGI">São Carlos</SimpleData>
<SimpleData name="CT_LOCALIDADE">Núcleo Urbano</SimpleData>
<SimpleData name="CD_LOCALIDADE">3539301002</SimpleData>
<SimpleData name="NM_LOCALIDADE">Vertentes do Mamonal</SimpleData>
<SimpleData name="LAT_LOCALIDADE">-22.0273</SimpleData>
<SimpleData name="LONG_LOCALIDADE">-47.4519</SimpleData>
</SchemaData>
</ExtendedData>
<Point>
<extrude>0</extrude>
<coordinates>-47.4519325,-22.0272988471684,0.0</coordinates>
</Point>
</Placemark>
</Folder>
<Folder id="07. Núcleos Rurais">
<name>07. Núcleos Rurais</name>
<Placemark id="localidades">
<name>Associação Phoenix [353930100003]</name>
<visibility>1</visibility>
<snippet> </snippet>
<description>&lt;center&gt;&lt;table&gt;&lt;tr&gt;&lt;th colspan='2' align='center'&gt;&lt;em&gt;Attributes&lt;/em&gt;&lt;/th&gt;&lt;/tr&gt;&lt;tr bgcolor="#E3E3F3"&gt;
&lt;th&gt;CD_UF&lt;/th&gt;
&lt;td&gt;35&lt;/td&gt;
&lt;/tr&gt;&lt;tr bgcolor=""&gt;
&lt;th&gt;NM_UF&lt;/th&gt;
&lt;td&gt;São Paulo&lt;/td&gt;
&lt;/tr&gt;&lt;tr bgcolor="#E3E3F3"&gt;
&lt;th&gt;SIGLA_UF&lt;/th&gt;
&lt;td&gt;SP&lt;/td&gt;
&lt;/tr&gt;&lt;tr bgcolor=""&gt;
&lt;th&gt;CD_MUN&lt;/th&gt;
&lt;td&gt;3539301&lt;/td&gt;
&lt;/tr&gt;&lt;tr bgcolor="#E3E3F3"&gt;
&lt;th&gt;NM_MUN&lt;/th&gt;
&lt;td&gt;Pirassununga&lt;/td&gt;
&lt;/tr&gt;&lt;tr bgcolor=""&gt;
&lt;th&gt;CD_RGINT&lt;/th&gt;
&lt;td&gt;3509&lt;/td&gt;
&lt;/tr&gt;&lt;tr bgcolor="#E3E3F3"&gt;
&lt;th&gt;NM_RGINT&lt;/th&gt;
&lt;td&gt;Araraquara&lt;/td&gt;
&lt;/tr&gt;&lt;tr bgcolor=""&gt;
&lt;th&gt;CD_RGI&lt;/th&gt;
&lt;td&gt;350037&lt;/td&gt;
&lt;/tr&gt;&lt;tr bgcolor="#E3E3F3"&gt;
&lt;th&gt;NM_RGI&lt;/th&gt;
&lt;td&gt;São Carlos&lt;/td&gt;
&lt;/tr&gt;&lt;tr bgcolor=""&gt;
&lt;th&gt;CT_LOCALIDADE&lt;/th&gt;
&lt;td&gt;Núcleo Rural&lt;/td&gt;
&lt;/tr&gt;&lt;tr bgcolor="#E3E3F3"&gt;
&lt;th&gt;CD_LOCALIDADE&lt;/th&gt;
&lt;td&gt;353930100003&lt;/td&gt;
&lt;/tr&gt;&lt;tr bgcolor=""&gt;
&lt;th&gt;NM_LOCALIDADE&lt;/th&gt;
&lt;td&gt;Associação Phoenix&lt;/td&gt;
&lt;/tr&gt;&lt;tr bgcolor="#E3E3F3"&gt;
&lt;th&gt;LAT_LOCALIDADE&lt;/th&gt;
&lt;td&gt;-22.0729&lt;/td&gt;
&lt;/tr&gt;&lt;tr bgcolor=""&gt;
&lt;th&gt;LONG_LOCALIDADE&lt;/th&gt;
&lt;td&gt;-47.5063&lt;/td&gt;
&lt;/tr&gt;&lt;/table&gt;&lt;/center&gt;</description>
<Style>
<IconStyle>
<color>ff00aaaa</color>
<scale>0.8</scale>
<Icon>
<href>http://maps.google.com/mapfiles/kml/shapes/placemark_circle.png</href>
</Icon>
</IconStyle>
<LabelStyle>
<scale>0.8</scale>
</LabelStyle>
<LineStyle>
<color>72ff54ff</color>
<width>1.0</width>
<gx:labelVisibility>1</gx:labelVisibility>
</LineStyle>
<PolyStyle>
<color>66ff54ff</color>
</PolyStyle>
</Style>
<ExtendedData>
<SchemaData schemaUrl="#kml_schema_ft_Núcleos_Rurais">
<SimpleData name="CD_UF">35</SimpleData>
<SimpleData name="NM_UF">São Paulo</SimpleData>
<SimpleData name="SIGLA_UF">SP</SimpleData>
<SimpleData name="CD_MUN">3539301</SimpleData>
<SimpleData name="NM_MUN">Pirassununga</SimpleData>
<SimpleData name="CD_RGINT">3509</SimpleData>
<SimpleData name="NM_RGINT">Araraquara</SimpleData>
<SimpleData name="CD_RGI">350037</SimpleData>
<SimpleData name="NM_RGI">São Carlos</SimpleData>
<SimpleData name="CT_LOCALIDADE">Núcleo Rural</SimpleData>
<SimpleData name="CD_LOCALIDADE">353930100003</SimpleData>
<SimpleData name="NM_LOCALIDADE">Associação Phoenix</SimpleData>
<SimpleData name="LAT_LOCALIDADE">-22.0729</SimpleData>
<SimpleData name="LONG_LOCALIDADE">-47.5063</SimpleData>
</SchemaData>
</ExtendedData>
<Point>
<extrude>0</extrude>
<coordinates>-47.5063084038461,-22.0728572493414,0.0</coordinates>
</Point>
</Placemark>
</Folder>
<Folder id="12. Outras Localidades">
<name>12. Outras Localidades</name>
<Placemark id="12. Outras Localidades">
<name>Santo Antônio dos Cavaleiros [353930100004]</name>
<visibility>1</visibility>
<snippet> </snippet>
<description>&lt;center&gt;&lt;table&gt;&lt;tr&gt;&lt;th colspan='2' align='center'&gt;&lt;em&gt;Attributes&lt;/em&gt;&lt;/th&gt;&lt;/tr&gt;&lt;tr bgcolor="#E3E3F3"&gt;
&lt;th&gt;CD_UF&lt;/th&gt;
&lt;td&gt;35&lt;/td&gt;
&lt;/tr&gt;&lt;tr bgcolor=""&gt;
&lt;th&gt;NM_UF&lt;/th&gt;
&lt;td&gt;São Paulo&lt;/td&gt;
&lt;/tr&gt;&lt;tr bgcolor="#E3E3F3"&gt;
&lt;th&gt;SIGLA_UF&lt;/th&gt;
&lt;td&gt;SP&lt;/td&gt;
&lt;/tr&gt;&lt;tr bgcolor=""&gt;
&lt;th&gt;CD_MUN&lt;/th&gt;
&lt;td&gt;3539301&lt;/td&gt;
&lt;/tr&gt;&lt;tr bgcolor="#E3E3F3"&gt;
&lt;th&gt;NM_MUN&lt;/th&gt;
&lt;td&gt;Pirassununga&lt;/td&gt;
&lt;/tr&gt;&lt;tr bgcolor=""&gt;
&lt;th&gt;CD_RGINT&lt;/th&gt;
&lt;td&gt;3509&lt;/td&gt;
&lt;/tr&gt;&lt;tr bgcolor="#E3E3F3"&gt;
&lt;th&gt;NM_RGINT&lt;/th&gt;
&lt;td&gt;Araraquara&lt;/td&gt;
&lt;/tr&gt;&lt;tr bgcolor=""&gt;
&lt;th&gt;CD_RGI&lt;/th&gt;
&lt;td&gt;350037&lt;/td&gt;
&lt;/tr&gt;&lt;tr bgcolor="#E3E3F3"&gt;
&lt;th&gt;NM_RGI&lt;/th&gt;
&lt;td&gt;São Carlos&lt;/td&gt;
&lt;/tr&gt;&lt;tr bgcolor=""&gt;
&lt;th&gt;CT_LOCALIDADE&lt;/th&gt;
&lt;td&gt;Outras Localidades&lt;/td&gt;
&lt;/tr&gt;&lt;tr bgcolor="#E3E3F3"&gt;
&lt;th&gt;SCT_LOCALIDADE&lt;/th&gt;
&lt;td&gt;&lt;/td&gt;
&lt;/tr&gt;&lt;tr bgcolor=""&gt;
&lt;th&gt;CD_LOCALIDADE&lt;/th&gt;
&lt;td&gt;353930100004&lt;/td&gt;
&lt;/tr&gt;&lt;tr bgcolor="#E3E3F3"&gt;
&lt;th&gt;NM_LOCALIDADE&lt;/th&gt;
&lt;td&gt;Santo Antônio dos Cavaleiros&lt;/td&gt;
&lt;/tr&gt;&lt;/table&gt;&lt;/center&gt;</description>
<Style>
<IconStyle>
<color>ff0069d3</color>
<scale>0.6</scale>
<Icon>
<href>http://maps.google.com/mapfiles/kml/shapes/placemark_circle.png</href>
</Icon>
</IconStyle>
<LabelStyle>
<scale>0.6</scale>
</LabelStyle>
<LineStyle>
<width>1.0</width>
<gx:labelVisibility>1</gx:labelVisibility>
</LineStyle>
</Style>
<ExtendedData>
<SchemaData schemaUrl="#kml_schema_ft_Localidades">
<SimpleData name="CD_UF">35</SimpleData>
<SimpleData name="NM_UF">São Paulo</SimpleData>
<SimpleData name="SIGLA_UF">SP</SimpleData>
<SimpleData name="CD_MUN">3539301</SimpleData>
<SimpleData name="NM_MUN">Pirassununga</SimpleData>
<SimpleData name="CD_RGINT">3509</SimpleData>
<SimpleData name="NM_RGINT">Araraquara</SimpleData>
<SimpleData name="CD_RGI">350037</SimpleData>
<SimpleData name="NM_RGI">São Carlos</SimpleData>
<SimpleData name="CT_LOCALIDADE">Outras Localidades</SimpleData>
<SimpleData name="CD_LOCALIDADE">353930100004</SimpleData>
<SimpleData name="NM_LOCALIDADE">Santo Antônio dos Cavaleiros</SimpleData>
</SchemaData>
</ExtendedData>
<Point>
<extrude>0</extrude>
<coordinates>-47.364738,-22.0372389993422,0.0</coordinates>
</Point>
</Placemark>
<Placemark id="12. Outras Localidades">
<name>Tijuco Preto [353930100005]</name>
<visibility>1</visibility>
<snippet> </snippet>
<description>&lt;center&gt;&lt;table&gt;&lt;tr&gt;&lt;th colspan='2' align='center'&gt;&lt;em&gt;Attributes&lt;/em&gt;&lt;/th&gt;&lt;/tr&gt;&lt;tr bgcolor="#E3E3F3"&gt;
&lt;th&gt;CD_UF&lt;/th&gt;
&lt;td&gt;35&lt;/td&gt;
&lt;/tr&gt;&lt;tr bgcolor=""&gt;
&lt;th&gt;NM_UF&lt;/th&gt;
&lt;td&gt;São Paulo&lt;/td&gt;
&lt;/tr&gt;&lt;tr bgcolor="#E3E3F3"&gt;
&lt;th&gt;SIGLA_UF&lt;/th&gt;
&lt;td&gt;SP&lt;/td&gt;
&lt;/tr&gt;&lt;tr bgcolor=""&gt;
&lt;th&gt;CD_MUN&lt;/th&gt;
&lt;td&gt;3539301&lt;/td&gt;
&lt;/tr&gt;&lt;tr bgcolor="#E3E3F3"&gt;
&lt;th&gt;NM_MUN&lt;/th&gt;
&lt;td&gt;Pirassununga&lt;/td&gt;
&lt;/tr&gt;&lt;tr bgcolor=""&gt;
&lt;th&gt;CD_RGINT&lt;/th&gt;
&lt;td&gt;3509&lt;/td&gt;
&lt;/tr&gt;&lt;tr bgcolor="#E3E3F3"&gt;
&lt;th&gt;NM_RGINT&lt;/th&gt;
&lt;td&gt;Araraquara&lt;/td&gt;
&lt;/tr&gt;&lt;tr bgcolor=""&gt;
&lt;th&gt;CD_RGI&lt;/th&gt;
&lt;td&gt;350037&lt;/td&gt;
&lt;/tr&gt;&lt;tr bgcolor="#E3E3F3"&gt;
&lt;th&gt;NM_RGI&lt;/th&gt;
&lt;td&gt;São Carlos&lt;/td&gt;
&lt;/tr&gt;&lt;tr bgcolor=""&gt;
&lt;th&gt;CT_LOCALIDADE&lt;/th&gt;
&lt;td&gt;Outras Localidades&lt;/td&gt;
&lt;/tr&gt;&lt;tr bgcolor="#E3E3F3"&gt;
&lt;th&gt;SCT_LOCALIDADE&lt;/th&gt;
&lt;td&gt;&lt;/td&gt;
&lt;/tr&gt;&lt;tr bgcolor=""&gt;
&lt;th&gt;CD_LOCALIDADE&lt;/th&gt;
&lt;td&gt;353930100005&lt;/td&gt;
&lt;/tr&gt;&lt;tr bgcolor="#E3E3F3"&gt;
&lt;th&gt;NM_LOCALIDADE&lt;/th&gt;
&lt;td&gt;Tijuco Preto&lt;/td&gt;
&lt;/tr&gt;&lt;/table&gt;&lt;/center&gt;</description>
<Style>
<IconStyle>
<color>ff0069d3</color>
<scale>0.6</scale>
<Icon>
<href>http://maps.google.com/mapfiles/kml/shapes/placemark_circle.png</href>
</Icon>
</IconStyle>
<LabelStyle>
<scale>0.6</scale>
</LabelStyle>
<LineStyle>
<width>1.0</width>
<gx:labelVisibility>1</gx:labelVisibility>
</LineStyle>
</Style>
<ExtendedData>
<SchemaData schemaUrl="#kml_schema_ft_Localidades">
<SimpleData name="CD_UF">35</SimpleData>
<SimpleData name="NM_UF">São Paulo</SimpleData>
<SimpleData name="SIGLA_UF">SP</SimpleData>
<SimpleData name="CD_MUN">3539301</SimpleData>
<SimpleData name="NM_MUN">Pirassununga</SimpleData>
<SimpleData name="CD_RGINT">3509</SimpleData>
<SimpleData name="NM_RGINT">Araraquara</SimpleData>
<SimpleData name="CD_RGI">350037</SimpleData>
<SimpleData name="NM_RGI">São Carlos</SimpleData>
<SimpleData name="CT_LOCALIDADE">Outras Localidades</SimpleData>
<SimpleData name="CD_LOCALIDADE">353930100005</SimpleData>
<SimpleData name="NM_LOCALIDADE">Tijuco Preto</SimpleData>
</SchemaData>
</ExtendedData>
<Point>
<extrude>0</extrude>
<coordinates>-47.515332,-21.9682819993438,0.0</coordinates>
</Point>
</Placemark>
<Placemark id="12. Outras Localidades">
<name>Bairro Caixeiro [353930100006]</name>
<visibility>1</visibility>
<snippet> </snippet>
<description>&lt;center&gt;&lt;table&gt;&lt;tr&gt;&lt;th colspan='2' align='center'&gt;&lt;em&gt;Attributes&lt;/em&gt;&lt;/th&gt;&lt;/tr&gt;&lt;tr bgcolor="#E3E3F3"&gt;
&lt;th&gt;CD_UF&lt;/th&gt;
&lt;td&gt;35&lt;/td&gt;
&lt;/tr&gt;&lt;tr bgcolor=""&gt;
&lt;th&gt;NM_UF&lt;/th&gt;
&lt;td&gt;São Paulo&lt;/td&gt;
&lt;/tr&gt;&lt;tr bgcolor="#E3E3F3"&gt;
&lt;th&gt;SIGLA_UF&lt;/th&gt;
&lt;td&gt;SP&lt;/td&gt;
&lt;/tr&gt;&lt;tr bgcolor=""&gt;
&lt;th&gt;CD_MUN&lt;/th&gt;
&lt;td&gt;3539301&lt;/td&gt;
&lt;/tr&gt;&lt;tr bgcolor="#E3E3F3"&gt;
&lt;th&gt;NM_MUN&lt;/th&gt;
&lt;td&gt;Pirassununga&lt;/td&gt;
&lt;/tr&gt;&lt;tr bgcolor=""&gt;
&lt;th&gt;CD_RGINT&lt;/th&gt;
&lt;td&gt;3509&lt;/td&gt;
&lt;/tr&gt;&lt;tr bgcolor="#E3E3F3"&gt;
&lt;th&gt;NM_RGINT&lt;/th&gt;
&lt;td&gt;Araraquara&lt;/td&gt;
&lt;/tr&gt;&lt;tr bgcolor=""&gt;
&lt;th&gt;CD_RGI&lt;/th&gt;
&lt;td&gt;350037&lt;/td&gt;
&lt;/tr&gt;&lt;tr bgcolor="#E3E3F3"&gt;
&lt;th&gt;NM_RGI&lt;/th&gt;
&lt;td&gt;São Carlos&lt;/td&gt;
&lt;/tr&gt;&lt;tr bgcolor=""&gt;
&lt;th&gt;CT_LOCALIDADE&lt;/th&gt;
&lt;td&gt;Outras Localidades&lt;/td&gt;
&lt;/tr&gt;&lt;tr bgcolor="#E3E3F3"&gt;
&lt;th&gt;SCT_LOCALIDADE&lt;/th&gt;
&lt;td&gt;&lt;/td&gt;
&lt;/tr&gt;&lt;tr bgcolor=""&gt;
&lt;th&gt;CD_LOCALIDADE&lt;/th&gt;
&lt;td&gt;353930100006&lt;/td&gt;
&lt;/tr&gt;&lt;tr bgcolor="#E3E3F3"&gt;
&lt;th&gt;NM_LOCALIDADE&lt;/th&gt;
&lt;td&gt;Bairro Caixeiro&lt;/td&gt;
&lt;/tr&gt;&lt;/table&gt;&lt;/center&gt;</description>
<Style>
<IconStyle>
<color>ff0069d3</color>
<scale>0.6</scale>
<Icon>
<href>http://maps.google.com/mapfiles/kml/shapes/placemark_circle.png</href>
</Icon>
</IconStyle>
<LabelStyle>
<scale>0.6</scale>
</LabelStyle>
<LineStyle>
<width>1.0</width>
<gx:labelVisibility>1</gx:labelVisibility>
</LineStyle>
</Style>
<ExtendedData>
<SchemaData schemaUrl="#kml_schema_ft_Localidades">
<SimpleData name="CD_UF">35</SimpleData>
<SimpleData name="NM_UF">São Paulo</SimpleData>
<SimpleData name="SIGLA_UF">SP</SimpleData>
<SimpleData name="CD_MUN">3539301</SimpleData>
<SimpleData name="NM_MUN">Pirassununga</SimpleData>
<SimpleData name="CD_RGINT">3509</SimpleData>
<SimpleData name="NM_RGINT">Araraquara</SimpleData>
<SimpleData name="CD_RGI">350037</SimpleData>
<SimpleData name="NM_RGI">São Carlos</SimpleData>
<SimpleData name="CT_LOCALIDADE">Outras Localidades</SimpleData>
<SimpleData name="CD_LOCALIDADE">353930100006</SimpleData>
<SimpleData name="NM_LOCALIDADE">Bairro Caixeiro</SimpleData>
</SchemaData>
</ExtendedData>
<Point>
<extrude>0</extrude>
<coordinates>-47.304153,-21.9634709993439,0.0</coordinates>
</Point>
</Placemark>
<Placemark id="12. Outras Localidades">
<name>Itupeva [353930100007]</name>
<visibility>1</visibility>
<snippet> </snippet>
<description>&lt;center&gt;&lt;table&gt;&lt;tr&gt;&lt;th colspan='2' align='center'&gt;&lt;em&gt;Attributes&lt;/em&gt;&lt;/th&gt;&lt;/tr&gt;&lt;tr bgcolor="#E3E3F3"&gt;
&lt;th&gt;CD_UF&lt;/th&gt;
&lt;td&gt;35&lt;/td&gt;
&lt;/tr&gt;&lt;tr bgcolor=""&gt;
&lt;th&gt;NM_UF&lt;/th&gt;
&lt;td&gt;São Paulo&lt;/td&gt;
&lt;/tr&gt;&lt;tr bgcolor="#E3E3F3"&gt;
&lt;th&gt;SIGLA_UF&lt;/th&gt;
&lt;td&gt;SP&lt;/td&gt;
&lt;/tr&gt;&lt;tr bgcolor=""&gt;
&lt;th&gt;CD_MUN&lt;/th&gt;
&lt;td&gt;3539301&lt;/td&gt;
&lt;/tr&gt;&lt;tr bgcolor="#E3E3F3"&gt;
&lt;th&gt;NM_MUN&lt;/th&gt;
&lt;td&gt;Pirassununga&lt;/td&gt;
&lt;/tr&gt;&lt;tr bgcolor=""&gt;
&lt;th&gt;CD_RGINT&lt;/th&gt;
&lt;td&gt;3509&lt;/td&gt;
&lt;/tr&gt;&lt;tr bgcolor="#E3E3F3"&gt;
&lt;th&gt;NM_RGINT&lt;/th&gt;
&lt;td&gt;Araraquara&lt;/td&gt;
&lt;/tr&gt;&lt;tr bgcolor=""&gt;
&lt;th&gt;CD_RGI&lt;/th&gt;
&lt;td&gt;350037&lt;/td&gt;
&lt;/tr&gt;&lt;tr bgcolor="#E3E3F3"&gt;
&lt;th&gt;NM_RGI&lt;/th&gt;
&lt;td&gt;São Carlos&lt;/td&gt;
&lt;/tr&gt;&lt;tr bgcolor=""&gt;
&lt;th&gt;CT_LOCALIDADE&lt;/th&gt;
&lt;td&gt;Outras Localidades&lt;/td&gt;
&lt;/tr&gt;&lt;tr bgcolor="#E3E3F3"&gt;
&lt;th&gt;SCT_LOCALIDADE&lt;/th&gt;
&lt;td&gt;&lt;/td&gt;
&lt;/tr&gt;&lt;tr bgcolor=""&gt;
&lt;th&gt;CD_LOCALIDADE&lt;/th&gt;
&lt;td&gt;353930100007&lt;/td&gt;
&lt;/tr&gt;&lt;tr bgcolor="#E3E3F3"&gt;
&lt;th&gt;NM_LOCALIDADE&lt;/th&gt;
&lt;td&gt;Itupeva&lt;/td&gt;
&lt;/tr&gt;&lt;/table&gt;&lt;/center&gt;</description>
<Style>
<IconStyle>
<color>ff0069d3</color>
<scale>0.6</scale>
<Icon>
<href>http://maps.google.com/mapfiles/kml/shapes/placemark_circle.png</href>
</Icon>
</IconStyle>
<LabelStyle>
<scale>0.6</scale>
</LabelStyle>
<LineStyle>
<width>1.0</width>
<gx:labelVisibility>1</gx:labelVisibility>
</LineStyle>
</Style>
<ExtendedData>
<SchemaData schemaUrl="#kml_schema_ft_Localidades">
<SimpleData name="CD_UF">35</SimpleData>
<SimpleData name="NM_UF">São Paulo</SimpleData>
<SimpleData name="SIGLA_UF">SP</SimpleData>
<SimpleData name="CD_MUN">3539301</SimpleData>
<SimpleData name="NM_MUN">Pirassununga</SimpleData>
<SimpleData name="CD_RGINT">3509</SimpleData>
<SimpleData name="NM_RGINT">Araraquara</SimpleData>
<SimpleData name="CD_RGI">350037</SimpleData>
<SimpleData name="NM_RGI">São Carlos</SimpleData>
<SimpleData name="CT_LOCALIDADE">Outras Localidades</SimpleData>
<SimpleData name="CD_LOCALIDADE">353930100007</SimpleData>
<SimpleData name="NM_LOCALIDADE">Itupeva</SimpleData>
</SchemaData>
</ExtendedData>
<Point>
<extrude>0</extrude>
<coordinates>-47.240589,-22.044477999342,0.0</coordinates>
</Point>
</Placemark>
<Placemark id="12. Outras Localidades">
<name>Itupeva 2 [353930100008]</name>
<visibility>1</visibility>
<snippet> </snippet>
<description>&lt;center&gt;&lt;table&gt;&lt;tr&gt;&lt;th colspan='2' align='center'&gt;&lt;em&gt;Attributes&lt;/em&gt;&lt;/th&gt;&lt;/tr&gt;&lt;tr bgcolor="#E3E3F3"&gt;
&lt;th&gt;CD_UF&lt;/th&gt;
&lt;td&gt;35&lt;/td&gt;
&lt;/tr&gt;&lt;tr bgcolor=""&gt;
&lt;th&gt;NM_UF&lt;/th&gt;
&lt;td&gt;São Paulo&lt;/td&gt;
&lt;/tr&gt;&lt;tr bgcolor="#E3E3F3"&gt;
&lt;th&gt;SIGLA_UF&lt;/th&gt;
&lt;td&gt;SP&lt;/td&gt;
&lt;/tr&gt;&lt;tr bgcolor=""&gt;
&lt;th&gt;CD_MUN&lt;/th&gt;
&lt;td&gt;3539301&lt;/td&gt;
&lt;/tr&gt;&lt;tr bgcolor="#E3E3F3"&gt;
&lt;th&gt;NM_MUN&lt;/th&gt;
&lt;td&gt;Pirassununga&lt;/td&gt;
&lt;/tr&gt;&lt;tr bgcolor=""&gt;
&lt;th&gt;CD_RGINT&lt;/th&gt;
&lt;td&gt;3509&lt;/td&gt;
&lt;/tr&gt;&lt;tr bgcolor="#E3E3F3"&gt;
&lt;th&gt;NM_RGINT&lt;/th&gt;
&lt;td&gt;Araraquara&lt;/td&gt;
&lt;/tr&gt;&lt;tr bgcolor=""&gt;
&lt;th&gt;CD_RGI&lt;/th&gt;
&lt;td&gt;350037&lt;/td&gt;
&lt;/tr&gt;&lt;tr bgcolor="#E3E3F3"&gt;
&lt;th&gt;NM_RGI&lt;/th&gt;
&lt;td&gt;São Carlos&lt;/td&gt;
&lt;/tr&gt;&lt;tr bgcolor=""&gt;
&lt;th&gt;CT_LOCALIDADE&lt;/th&gt;
&lt;td&gt;Outras Localidades&lt;/td&gt;
&lt;/tr&gt;&lt;tr bgcolor="#E3E3F3"&gt;
&lt;th&gt;SCT_LOCALIDADE&lt;/th&gt;
&lt;td&gt;&lt;/td&gt;
&lt;/tr&gt;&lt;tr bgcolor=""&gt;
&lt;th&gt;CD_LOCALIDADE&lt;/th&gt;
&lt;td&gt;353930100008&lt;/td&gt;
&lt;/tr&gt;&lt;tr bgcolor="#E3E3F3"&gt;
&lt;th&gt;NM_LOCALIDADE&lt;/th&gt;
&lt;td&gt;Itupeva 2&lt;/td&gt;
&lt;/tr&gt;&lt;/table&gt;&lt;/center&gt;</description>
<Style>
<IconStyle>
<color>ff0069d3</color>
<scale>0.6</scale>
<Icon>
<href>http://maps.google.com/mapfiles/kml/shapes/placemark_circle.png</href>
</Icon>
</IconStyle>
<LabelStyle>
<scale>0.6</scale>
</LabelStyle>
<LineStyle>
<width>1.0</width>
<gx:labelVisibility>1</gx:labelVisibility>
</LineStyle>
</Style>
<ExtendedData>
<SchemaData schemaUrl="#kml_schema_ft_Localidades">
<SimpleData name="CD_UF">35</SimpleData>
<SimpleData name="NM_UF">São Paulo</SimpleData>
<SimpleData name="SIGLA_UF">SP</SimpleData>
<SimpleData name="CD_MUN">3539301</SimpleData>
<SimpleData name="NM_MUN">Pirassununga</SimpleData>
<SimpleData name="CD_RGINT">3509</SimpleData>
<SimpleData name="NM_RGINT">Araraquara</SimpleData>
<SimpleData name="CD_RGI">350037</SimpleData>
<SimpleData name="NM_RGI">São Carlos</SimpleData>
<SimpleData name="CT_LOCALIDADE">Outras Localidades</SimpleData>
<SimpleData name="CD_LOCALIDADE">353930100008</SimpleData>
<SimpleData name="NM_LOCALIDADE">Itupeva 2</SimpleData>
</SchemaData>
</ExtendedData>
<Point>
<extrude>0</extrude>
<coordinates>-47.24537,-22.0412299993421,0.0</coordinates>
</Point>
</Placemark>
<Placemark id="12. Outras Localidades">
<name>Baguaçu [353930100009]</name>
<visibility>1</visibility>
<snippet> </snippet>
<description>&lt;center&gt;&lt;table&gt;&lt;tr&gt;&lt;th colspan='2' align='center'&gt;&lt;em&gt;Attributes&lt;/em&gt;&lt;/th&gt;&lt;/tr&gt;&lt;tr bgcolor="#E3E3F3"&gt;
&lt;th&gt;CD_UF&lt;/th&gt;
&lt;td&gt;35&lt;/td&gt;
&lt;/tr&gt;&lt;tr bgcolor=""&gt;
&lt;th&gt;NM_UF&lt;/th&gt;
&lt;td&gt;São Paulo&lt;/td&gt;
&lt;/tr&gt;&lt;tr bgcolor="#E3E3F3"&gt;
&lt;th&gt;SIGLA_UF&lt;/th&gt;
&lt;td&gt;SP&lt;/td&gt;
&lt;/tr&gt;&lt;tr bgcolor=""&gt;
&lt;th&gt;CD_MUN&lt;/th&gt;
&lt;td&gt;3539301&lt;/td&gt;
&lt;/tr&gt;&lt;tr bgcolor="#E3E3F3"&gt;
&lt;th&gt;NM_MUN&lt;/th&gt;
&lt;td&gt;Pirassununga&lt;/td&gt;
&lt;/tr&gt;&lt;tr bgcolor=""&gt;
&lt;th&gt;CD_RGINT&lt;/th&gt;
&lt;td&gt;3509&lt;/td&gt;
&lt;/tr&gt;&lt;tr bgcolor="#E3E3F3"&gt;
&lt;th&gt;NM_RGINT&lt;/th&gt;
&lt;td&gt;Araraquara&lt;/td&gt;
&lt;/tr&gt;&lt;tr bgcolor=""&gt;
&lt;th&gt;CD_RGI&lt;/th&gt;
&lt;td&gt;350037&lt;/td&gt;
&lt;/tr&gt;&lt;tr bgcolor="#E3E3F3"&gt;
&lt;th&gt;NM_RGI&lt;/th&gt;
&lt;td&gt;São Carlos&lt;/td&gt;
&lt;/tr&gt;&lt;tr bgcolor=""&gt;
&lt;th&gt;CT_LOCALIDADE&lt;/th&gt;
&lt;td&gt;Outras Localidades&lt;/td&gt;
&lt;/tr&gt;&lt;tr bgcolor="#E3E3F3"&gt;
&lt;th&gt;SCT_LOCALIDADE&lt;/th&gt;
&lt;td&gt;&lt;/td&gt;
&lt;/tr&gt;&lt;tr bgcolor=""&gt;
&lt;th&gt;CD_LOCALIDADE&lt;/th&gt;
&lt;td&gt;353930100009&lt;/td&gt;
&lt;/tr&gt;&lt;tr bgcolor="#E3E3F3"&gt;
&lt;th&gt;NM_LOCALIDADE&lt;/th&gt;
&lt;td&gt;Baguaçu&lt;/td&gt;
&lt;/tr&gt;&lt;/table&gt;&lt;/center&gt;</description>
<Style>
<IconStyle>
<color>ff0069d3</color>
<scale>0.6</scale>
<Icon>
<href>http://maps.google.com/mapfiles/kml/shapes/placemark_circle.png</href>
</Icon>
</IconStyle>
<LabelStyle>
<scale>0.6</scale>
</LabelStyle>
<LineStyle>
<width>1.0</width>
<gx:labelVisibility>1</gx:labelVisibility>
</LineStyle>
</Style>
<ExtendedData>
<SchemaData schemaUrl="#kml_schema_ft_Localidades">
<SimpleData name="CD_UF">35</SimpleData>
<SimpleData name="NM_UF">São Paulo</SimpleData>
<SimpleData name="SIGLA_UF">SP</SimpleData>
<SimpleData name="CD_MUN">3539301</SimpleData>
<SimpleData name="NM_MUN">Pirassununga</SimpleData>
<SimpleData name="CD_RGINT">3509</SimpleData>
<SimpleData name="NM_RGINT">Araraquara</SimpleData>
<SimpleData name="CD_RGI">350037</SimpleData>
<SimpleData name="NM_RGI">São Carlos</SimpleData>
<SimpleData name="CT_LOCALIDADE">Outras Localidades</SimpleData>
<SimpleData name="CD_LOCALIDADE">353930100009</SimpleData>
<SimpleData name="NM_LOCALIDADE">Baguaçu</SimpleData>
</SchemaData>
</ExtendedData>
<Point>
<extrude>0</extrude>
<coordinates>-47.314703,-21.876465999346,0.0</coordinates>
</Point>
</Placemark>
<Placemark id="12. Outras Localidades">
<name>Jardim Elite [353930199003]</name>
<visibility>1</visibility>
<snippet> </snippet>
<description>&lt;center&gt;&lt;table&gt;&lt;tr&gt;&lt;th colspan='2' align='center'&gt;&lt;em&gt;Attributes&lt;/em&gt;&lt;/th&gt;&lt;/tr&gt;&lt;tr bgcolor="#E3E3F3"&gt;
&lt;th&gt;CD_UF&lt;/th&gt;
&lt;td&gt;35&lt;/td&gt;
&lt;/tr&gt;&lt;tr bgcolor=""&gt;
&lt;th&gt;NM_UF&lt;/th&gt;
&lt;td&gt;São Paulo&lt;/td&gt;
&lt;/tr&gt;&lt;tr bgcolor="#E3E3F3"&gt;
&lt;th&gt;SIGLA_UF&lt;/th&gt;
&lt;td&gt;SP&lt;/td&gt;
&lt;/tr&gt;&lt;tr bgcolor=""&gt;
&lt;th&gt;CD_MUN&lt;/th&gt;
&lt;td&gt;3539301&lt;/td&gt;
&lt;/tr&gt;&lt;tr bgcolor="#E3E3F3"&gt;
&lt;th&gt;NM_MUN&lt;/th&gt;
&lt;td&gt;Pirassununga&lt;/td&gt;
&lt;/tr&gt;&lt;tr bgcolor=""&gt;
&lt;th&gt;CD_RGINT&lt;/th&gt;
&lt;td&gt;3509&lt;/td&gt;
&lt;/tr&gt;&lt;tr bgcolor="#E3E3F3"&gt;
&lt;th&gt;NM_RGINT&lt;/th&gt;
&lt;td&gt;Araraquara&lt;/td&gt;
&lt;/tr&gt;&lt;tr bgcolor=""&gt;
&lt;th&gt;CD_RGI&lt;/th&gt;
&lt;td&gt;350037&lt;/td&gt;
&lt;/tr&gt;&lt;tr bgcolor="#E3E3F3"&gt;
&lt;th&gt;NM_RGI&lt;/th&gt;
&lt;td&gt;São Carlos&lt;/td&gt;
&lt;/tr&gt;&lt;tr bgcolor=""&gt;
&lt;th&gt;CT_LOCALIDADE&lt;/th&gt;
&lt;td&gt;Outras Localidades&lt;/td&gt;
&lt;/tr&gt;&lt;tr bgcolor="#E3E3F3"&gt;
&lt;th&gt;SCT_LOCALIDADE&lt;/th&gt;
&lt;td&gt;&lt;/td&gt;
&lt;/tr&gt;&lt;tr bgcolor=""&gt;
&lt;th&gt;CD_LOCALIDADE&lt;/th&gt;
&lt;td&gt;353930199003&lt;/td&gt;
&lt;/tr&gt;&lt;tr bgcolor="#E3E3F3"&gt;
&lt;th&gt;NM_LOCALIDADE&lt;/th&gt;
&lt;td&gt;Jardim Elite&lt;/td&gt;
&lt;/tr&gt;&lt;/table&gt;&lt;/center&gt;</description>
<Style>
<IconStyle>
<color>ff0069d3</color>
<scale>0.6</scale>
<Icon>
<href>http://maps.google.com/mapfiles/kml/shapes/placemark_circle.png</href>
</Icon>
</IconStyle>
<LabelStyle>
<scale>0.6</scale>
</LabelStyle>
<LineStyle>
<width>1.0</width>
<gx:labelVisibility>1</gx:labelVisibility>
</LineStyle>
</Style>
<ExtendedData>
<SchemaData schemaUrl="#kml_schema_ft_Localidades">
<SimpleData name="CD_UF">35</SimpleData>
<SimpleData name="NM_UF">São Paulo</SimpleData>
<SimpleData name="SIGLA_UF">SP</SimpleData>
<SimpleData name="CD_MUN">3539301</SimpleData>
<SimpleData name="NM_MUN">Pirassununga</SimpleData>
<SimpleData name="CD_RGINT">3509</SimpleData>
<SimpleData name="NM_RGINT">Araraquara</SimpleData>
<SimpleData name="CD_RGI">350037</SimpleData>
<SimpleData name="NM_RGI">São Carlos</SimpleData>
<SimpleData name="CT_LOCALIDADE">Outras Localidades</SimpleData>
<SimpleData name="CD_LOCALIDADE">353930199003</SimpleData>
<SimpleData name="NM_LOCALIDADE">Jardim Elite</SimpleData>
</SchemaData>
</ExtendedData>
<Point>
<extrude>0</extrude>
<coordinates>-47.470406,-21.9544609993442,0.0</coordinates>
</Point>
</Placemark>
<Placemark id="12. Outras Localidades">
<name>Bairro da Balsa [353930199004]</name>
<visibility>1</visibility>
<snippet> </snippet>
<description>&lt;center&gt;&lt;table&gt;&lt;tr&gt;&lt;th colspan='2' align='center'&gt;&lt;em&gt;Attributes&lt;/em&gt;&lt;/th&gt;&lt;/tr&gt;&lt;tr bgcolor="#E3E3F3"&gt;
&lt;th&gt;CD_UF&lt;/th&gt;
&lt;td&gt;35&lt;/td&gt;
&lt;/tr&gt;&lt;tr bgcolor=""&gt;
&lt;th&gt;NM_UF&lt;/th&gt;
&lt;td&gt;São Paulo&lt;/td&gt;
&lt;/tr&gt;&lt;tr bgcolor="#E3E3F3"&gt;
&lt;th&gt;SIGLA_UF&lt;/th&gt;
&lt;td&gt;SP&lt;/td&gt;
&lt;/tr&gt;&lt;tr bgcolor=""&gt;
&lt;th&gt;CD_MUN&lt;/th&gt;
&lt;td&gt;3539301&lt;/td&gt;
&lt;/tr&gt;&lt;tr bgcolor="#E3E3F3"&gt;
&lt;th&gt;NM_MUN&lt;/th&gt;
&lt;td&gt;Pirassununga&lt;/td&gt;
&lt;/tr&gt;&lt;tr bgcolor=""&gt;
&lt;th&gt;CD_RGINT&lt;/th&gt;
&lt;td&gt;3509&lt;/td&gt;
&lt;/tr&gt;&lt;tr bgcolor="#E3E3F3"&gt;
&lt;th&gt;NM_RGINT&lt;/th&gt;
&lt;td&gt;Araraquara&lt;/td&gt;
&lt;/tr&gt;&lt;tr bgcolor=""&gt;
&lt;th&gt;CD_RGI&lt;/th&gt;
&lt;td&gt;350037&lt;/td&gt;
&lt;/tr&gt;&lt;tr bgcolor="#E3E3F3"&gt;
&lt;th&gt;NM_RGI&lt;/th&gt;
&lt;td&gt;São Carlos&lt;/td&gt;
&lt;/tr&gt;&lt;tr bgcolor=""&gt;
&lt;th&gt;CT_LOCALIDADE&lt;/th&gt;
&lt;td&gt;Outras Localidades&lt;/td&gt;
&lt;/tr&gt;&lt;tr bgcolor="#E3E3F3"&gt;
&lt;th&gt;SCT_LOCALIDADE&lt;/th&gt;
&lt;td&gt;&lt;/td&gt;
&lt;/tr&gt;&lt;tr bgcolor=""&gt;
&lt;th&gt;CD_LOCALIDADE&lt;/th&gt;
&lt;td&gt;353930199004&lt;/td&gt;
&lt;/tr&gt;&lt;tr bgcolor="#E3E3F3"&gt;
&lt;th&gt;NM_LOCALIDADE&lt;/th&gt;
&lt;td&gt;Bairro da Balsa&lt;/td&gt;
&lt;/tr&gt;&lt;/table&gt;&lt;/center&gt;</description>
<Style>
<IconStyle>
<color>ff0069d3</color>
<scale>0.6</scale>
<Icon>
<href>http://maps.google.com/mapfiles/kml/shapes/placemark_circle.png</href>
</Icon>
</IconStyle>
<LabelStyle>
<scale>0.6</scale>
</LabelStyle>
<LineStyle>
<width>1.0</width>
<gx:labelVisibility>1</gx:labelVisibility>
</LineStyle>
</Style>
<ExtendedData>
<SchemaData schemaUrl="#kml_schema_ft_Localidades">
<SimpleData name="CD_UF">35</SimpleData>
<SimpleData name="NM_UF">São Paulo</SimpleData>
<SimpleData name="SIGLA_UF">SP</SimpleData>
<SimpleData name="CD_MUN">3539301</SimpleData>
<SimpleData name="NM_MUN">Pirassununga</SimpleData>
<SimpleData name="CD_RGINT">3509</SimpleData>
<SimpleData name="NM_RGINT">Araraquara</SimpleData>
<SimpleData name="CD_RGI">350037</SimpleData>
<SimpleData name="NM_RGI">São Carlos</SimpleData>
<SimpleData name="CT_LOCALIDADE">Outras Localidades</SimpleData>
<SimpleData name="CD_LOCALIDADE">353930199004</SimpleData>
<SimpleData name="NM_LOCALIDADE">Bairro da Balsa</SimpleData>
</SchemaData>
</ExtendedData>
<Point>
<extrude>0</extrude>
<coordinates>-47.29794,-22.0128479993428,0.0</coordinates>
</Point>
</Placemark>
<Placemark id="12. Outras Localidades">
<name>Matão [353930199005]</name>
<visibility>1</visibility>
<snippet> </snippet>
<description>&lt;center&gt;&lt;table&gt;&lt;tr&gt;&lt;th colspan='2' align='center'&gt;&lt;em&gt;Attributes&lt;/em&gt;&lt;/th&gt;&lt;/tr&gt;&lt;tr bgcolor="#E3E3F3"&gt;
&lt;th&gt;CD_UF&lt;/th&gt;
&lt;td&gt;35&lt;/td&gt;
&lt;/tr&gt;&lt;tr bgcolor=""&gt;
&lt;th&gt;NM_UF&lt;/th&gt;
&lt;td&gt;São Paulo&lt;/td&gt;
&lt;/tr&gt;&lt;tr bgcolor="#E3E3F3"&gt;
&lt;th&gt;SIGLA_UF&lt;/th&gt;
&lt;td&gt;SP&lt;/td&gt;
&lt;/tr&gt;&lt;tr bgcolor=""&gt;
&lt;th&gt;CD_MUN&lt;/th&gt;
&lt;td&gt;3539301&lt;/td&gt;
&lt;/tr&gt;&lt;tr bgcolor="#E3E3F3"&gt;
&lt;th&gt;NM_MUN&lt;/th&gt;
&lt;td&gt;Pirassununga&lt;/td&gt;
&lt;/tr&gt;&lt;tr bgcolor=""&gt;
&lt;th&gt;CD_RGINT&lt;/th&gt;
&lt;td&gt;3509&lt;/td&gt;
&lt;/tr&gt;&lt;tr bgcolor="#E3E3F3"&gt;
&lt;th&gt;NM_RGINT&lt;/th&gt;
&lt;td&gt;Araraquara&lt;/td&gt;
&lt;/tr&gt;&lt;tr bgcolor=""&gt;
&lt;th&gt;CD_RGI&lt;/th&gt;
&lt;td&gt;350037&lt;/td&gt;
&lt;/tr&gt;&lt;tr bgcolor="#E3E3F3"&gt;
&lt;th&gt;NM_RGI&lt;/th&gt;
&lt;td&gt;São Carlos&lt;/td&gt;
&lt;/tr&gt;&lt;tr bgcolor=""&gt;
&lt;th&gt;CT_LOCALIDADE&lt;/th&gt;
&lt;td&gt;Outras Localidades&lt;/td&gt;
&lt;/tr&gt;&lt;tr bgcolor="#E3E3F3"&gt;
&lt;th&gt;SCT_LOCALIDADE&lt;/th&gt;
&lt;td&gt;&lt;/td&gt;
&lt;/tr&gt;&lt;tr bgcolor=""&gt;
&lt;th&gt;CD_LOCALIDADE&lt;/th&gt;
&lt;td&gt;353930199005&lt;/td&gt;
&lt;/tr&gt;&lt;tr bgcolor="#E3E3F3"&gt;
&lt;th&gt;NM_LOCALIDADE&lt;/th&gt;
&lt;td&gt;Matão&lt;/td&gt;
&lt;/tr&gt;&lt;/table&gt;&lt;/center&gt;</description>
<Style>
<IconStyle>
<color>ff0069d3</color>
<scale>0.6</scale>
<Icon>
<href>http://maps.google.com/mapfiles/kml/shapes/placemark_circle.png</href>
</Icon>
</IconStyle>
<LabelStyle>
<scale>0.6</scale>
</LabelStyle>
<LineStyle>
<width>1.0</width>
<gx:labelVisibility>1</gx:labelVisibility>
</LineStyle>
</Style>
<ExtendedData>
<SchemaData schemaUrl="#kml_schema_ft_Localidades">
<SimpleData name="CD_UF">35</SimpleData>
<SimpleData name="NM_UF">São Paulo</SimpleData>
<SimpleData name="SIGLA_UF">SP</SimpleData>
<SimpleData name="CD_MUN">3539301</SimpleData>
<SimpleData name="NM_MUN">Pirassununga</SimpleData>
<SimpleData name="CD_RGINT">3509</SimpleData>
<SimpleData name="NM_RGINT">Araraquara</SimpleData>
<SimpleData name="CD_RGI">350037</SimpleData>
<SimpleData name="NM_RGI">São Carlos</SimpleData>
<SimpleData name="CT_LOCALIDADE">Outras Localidades</SimpleData>
<SimpleData name="CD_LOCALIDADE">353930199005</SimpleData>
<SimpleData name="NM_LOCALIDADE">Matão</SimpleData>
</SchemaData>
</ExtendedData>
<Point>
<extrude>0</extrude>
<coordinates>-47.274739,-22.0508099993419,0.0</coordinates>
</Point>
</Placemark>
<Placemark id="12. Outras Localidades">
<name>Santa Tereza [353930199006]</name>
<visibility>1</visibility>
<snippet> </snippet>
<description>&lt;center&gt;&lt;table&gt;&lt;tr&gt;&lt;th colspan='2' align='center'&gt;&lt;em&gt;Attributes&lt;/em&gt;&lt;/th&gt;&lt;/tr&gt;&lt;tr bgcolor="#E3E3F3"&gt;
&lt;th&gt;CD_UF&lt;/th&gt;
&lt;td&gt;35&lt;/td&gt;
&lt;/tr&gt;&lt;tr bgcolor=""&gt;
&lt;th&gt;NM_UF&lt;/th&gt;
&lt;td&gt;São Paulo&lt;/td&gt;
&lt;/tr&gt;&lt;tr bgcolor="#E3E3F3"&gt;
&lt;th&gt;SIGLA_UF&lt;/th&gt;
&lt;td&gt;SP&lt;/td&gt;
&lt;/tr&gt;&lt;tr bgcolor=""&gt;
&lt;th&gt;CD_MUN&lt;/th&gt;
&lt;td&gt;3539301&lt;/td&gt;
&lt;/tr&gt;&lt;tr bgcolor="#E3E3F3"&gt;
&lt;th&gt;NM_MUN&lt;/th&gt;
&lt;td&gt;Pirassununga&lt;/td&gt;
&lt;/tr&gt;&lt;tr bgcolor=""&gt;
&lt;th&gt;CD_RGINT&lt;/th&gt;
&lt;td&gt;3509&lt;/td&gt;
&lt;/tr&gt;&lt;tr bgcolor="#E3E3F3"&gt;
&lt;th&gt;NM_RGINT&lt;/th&gt;
&lt;td&gt;Araraquara&lt;/td&gt;
&lt;/tr&gt;&lt;tr bgcolor=""&gt;
&lt;th&gt;CD_RGI&lt;/th&gt;
&lt;td&gt;350037&lt;/td&gt;
&lt;/tr&gt;&lt;tr bgcolor="#E3E3F3"&gt;
&lt;th&gt;NM_RGI&lt;/th&gt;
&lt;td&gt;São Carlos&lt;/td&gt;
&lt;/tr&gt;&lt;tr bgcolor=""&gt;
&lt;th&gt;CT_LOCALIDADE&lt;/th&gt;
&lt;td&gt;Outras Localidades&lt;/td&gt;
&lt;/tr&gt;&lt;tr bgcolor="#E3E3F3"&gt;
&lt;th&gt;SCT_LOCALIDADE&lt;/th&gt;
&lt;td&gt;&lt;/td&gt;
&lt;/tr&gt;&lt;tr bgcolor=""&gt;
&lt;th&gt;CD_LOCALIDADE&lt;/th&gt;
&lt;td&gt;353930199006&lt;/td&gt;
&lt;/tr&gt;&lt;tr bgcolor="#E3E3F3"&gt;
&lt;th&gt;NM_LOCALIDADE&lt;/th&gt;
&lt;td&gt;Santa Tereza&lt;/td&gt;
&lt;/tr&gt;&lt;/table&gt;&lt;/center&gt;</description>
<Style>
<IconStyle>
<color>ff0069d3</color>
<scale>0.6</scale>
<Icon>
<href>http://maps.google.com/mapfiles/kml/shapes/placemark_circle.png</href>
</Icon>
</IconStyle>
<LabelStyle>
<scale>0.6</scale>
</LabelStyle>
<LineStyle>
<width>1.0</width>
<gx:labelVisibility>1</gx:labelVisibility>
</LineStyle>
</Style>
<ExtendedData>
<SchemaData schemaUrl="#kml_schema_ft_Localidades">
<SimpleData name="CD_UF">35</SimpleData>
<SimpleData name="NM_UF">São Paulo</SimpleData>
<SimpleData name="SIGLA_UF">SP</SimpleData>
<SimpleData name="CD_MUN">3539301</SimpleData>
<SimpleData name="NM_MUN">Pirassununga</SimpleData>
<SimpleData name="CD_RGINT">3509</SimpleData>
<SimpleData name="NM_RGINT">Araraquara</SimpleData>
<SimpleData name="CD_RGI">350037</SimpleData>
<SimpleData name="NM_RGI">São Carlos</SimpleData>
<SimpleData name="CT_LOCALIDADE">Outras Localidades</SimpleData>
<SimpleData name="CD_LOCALIDADE">353930199006</SimpleData>
<SimpleData name="NM_LOCALIDADE">Santa Tereza</SimpleData>
</SchemaData>
</ExtendedData>
<Point>
<extrude>0</extrude>
<coordinates>-47.266886,-21.9696689993438,0.0</coordinates>
</Point>
</Placemark>
</Folder>
<Folder id="13. Referência">
<name>13. Referência</name>
<Placemark id="13. Referência">
<name>Pirassununga [3539301]</name>
<visibility>1</visibility>
<snippet> </snippet>
<description>&lt;center&gt;&lt;table&gt;&lt;tr&gt;&lt;th colspan='2' align='center'&gt;&lt;em&gt;Attributes&lt;/em&gt;&lt;/th&gt;&lt;/tr&gt;&lt;tr bgcolor="#E3E3F3"&gt;
&lt;th&gt;CD_UF&lt;/th&gt;
&lt;td&gt;35&lt;/td&gt;
&lt;/tr&gt;&lt;tr bgcolor=""&gt;
&lt;th&gt;NM_UF&lt;/th&gt;
&lt;td&gt;São Paulo&lt;/td&gt;
&lt;/tr&gt;&lt;tr bgcolor="#E3E3F3"&gt;
&lt;th&gt;CD_MUN&lt;/th&gt;
&lt;td&gt;3539301&lt;/td&gt;
&lt;/tr&gt;&lt;tr bgcolor=""&gt;
&lt;th&gt;NM_MUN&lt;/th&gt;
&lt;td&gt;Pirassununga&lt;/td&gt;
&lt;/tr&gt;&lt;tr bgcolor="#E3E3F3"&gt;
&lt;th&gt;CD_RGINT&lt;/th&gt;
&lt;td&gt;3509&lt;/td&gt;
&lt;/tr&gt;&lt;tr bgcolor=""&gt;
&lt;th&gt;NM_RGINT&lt;/th&gt;
&lt;td&gt;Araraquara&lt;/td&gt;
&lt;/tr&gt;&lt;tr bgcolor="#E3E3F3"&gt;
&lt;th&gt;CD_RGI&lt;/th&gt;
&lt;td&gt;350037&lt;/td&gt;
&lt;/tr&gt;&lt;tr bgcolor=""&gt;
&lt;th&gt;NM_RGI&lt;/th&gt;
&lt;td&gt;São Carlos&lt;/td&gt;
&lt;/tr&gt;&lt;/table&gt;&lt;/center&gt;</description>
<Style>
<IconStyle>
<scale>0.7</scale>
</IconStyle>
<LabelStyle>
<scale>0.7</scale>
</LabelStyle>
<LineStyle>
<color>ffffffff</color>
<width>3</width>
<gx:labelVisibility>1</gx:labelVisibility>
</LineStyle>
<PolyStyle>
<color>00ffffff</color>
</PolyStyle>
</Style>
<ExtendedData>
<SchemaData schemaUrl="#kml_schema_ft_Município">
<SimpleData name="CD_UF">35</SimpleData>
<SimpleData name="NM_UF">São Paulo</SimpleData>
<SimpleData name="CD_MUN">3539301</SimpleData>
<SimpleData name="NM_MUN">Pirassununga</SimpleData>
<SimpleData name="CD_RGINT">3509</SimpleData>
<SimpleData name="NM_RGINT">Araraquara</SimpleData>
<SimpleData name="CD_RGI">350037</SimpleData>
<SimpleData name="NM_RGI">São Carlos</SimpleData>
</SchemaData>
</ExtendedData>
<MultiGeometry>
<Polygon>
<extrude>0</extrude>
<tessellate>1</tessellate>
<outerBoundaryIs>
<LinearRing>
<coordinates>-47.4237597,-22.0727750993414,0.0 -47.4413786,-22.0639171993416,0.0 -47.442046,-22.0635815993416,0.0 -47.4424276,-22.0641792993416,0.0 -47.4431696,-22.0643841993416,0.0 -47.4433819,-22.0650559993415,0.0 -47.444037,-22.0655485993415,0.0 -47.4441796,-22.0657762993415,0.0 -47.4440299,-22.0665180993415,0.0 -47.4447156,-22.0670388993415,0.0 -47.4451915,-22.0677787993415,0.0 -47.4456929,-22.0682589993415,0.0 -47.4458233,-22.0687315993415,0.0 -47.4456811,-22.0693505993415,0.0 -47.4462563,-22.0696008993414,0.0 -47.4463186,-22.0696995993414,0.0 -47.4463301,-22.0702896993414,0.0 -47.4465982,-22.0707811993414,0.0 -47.4466124,-22.0715844993414,0.0 -47.4472843,-22.0720920993414,0.0 -47.4473663,-22.0724351993414,0.0 -47.4473125,-22.0727808993414,0.0 -47.4478075,-22.0730018993414,0.0 -47.44766,-22.0734229993414,0.0 -47.4479275,-22.0737617993413,0.0 -47.4479673,-22.0742001993413,0.0 -47.4484475,-22.0743226993413,0.0 -47.4484943,-22.0744656993413,0.0 -47.4483184,-22.0749547993413,0.0 -47.4483816,-22.0750561993413,0.0 -47.4488752,-22.0751189993413,0.0 -47.4489697,-22.0752764993413,0.0 -47.4487631,-22.0756960993413,0.0 -47.4488123,-22.0759119993413,0.0 -47.4498897,-22.0758515993413,0.0 -47.4499697,-22.0760084993413,0.0 -47.4499249,-22.0761800993413,0.0 -47.4495797,-22.0766607993413,0.0 -47.4495528,-22.0769050993413,0.0 -47.449766,-22.0776631993413,0.0 -47.4496814,-22.0781083993412,0.0 -47.449718,-22.0785106993412,0.0 -47.4501527,-22.0786322993412,0.0 -47.4503711,-22.0788171993412,0.0 -47.4508782,-22.0796993993412,0.0 -47.4514662,-22.0802386993412,0.0 -47.4517533,-22.0807831993412,0.0 -47.4525639,-22.0813736993412,0.0 -47.4527218,-22.0815866993412,0.0 -47.4527253,-22.0818878993412,0.0 -47.4528397,-22.0820155993411,0.0 -47.4546249,-22.0821469993411,0.0 -47.4550999,-22.0828435993411,0.0 -47.4553639,-22.0829250993411,0.0 -47.457117,-22.0829130993411,0.0 -47.4578752,-22.0830017993411,0.0 -47.4586025,-22.0832347993411,0.0 -47.4589095,-22.0832010993411,0.0 -47.4596713,-22.0827316993411,0.0 -47.4602286,-22.0825506993411,0.0 -47.4612743,-22.0824619993411,0.0 -47.4621708,-22.0826216993411,0.0 -47.4621977,-22.0826314993411,0.0 -47.4630387,-22.0829393993411,0.0 -47.4646891,-22.0831155993411,0.0 -47.4668468,-22.0831833993411,0.0 -47.4704008,-22.0825443993411,0.0 -47.4716811,-22.0826680993411,0.0 -47.472826,-22.0829094993411,0.0 -47.4743735,-22.0834023993411,0.0 -47.4771027,-22.0845390993411,0.0 -47.4791015,-22.0855289993411,0.0 -47.4811152,-22.086301899341,0.0 -47.481856,-22.0863914993411,0.0 -47.4822391,-22.0862862993411,0.0 -47.482876,-22.0857460993411,0.0 -47.4835943,-22.0854159993411,0.0 -47.4840042,-22.0851094993411,0.0 -47.4851201,-22.0837712993411,0.0 -47.4857138,-22.0833471993411,0.0 -47.4861118,-22.0832118993411,0.0 -47.4879698,-22.0829241993411,0.0 -47.4906205,-22.0827109993411,0.0 -47.4921915,-22.0826733993411,0.0 -47.4931612,-22.0828439993411,0.0 -47.4958425,-22.0837375993411,0.0 -47.4970179,-22.0843934993411,0.0 -47.4984358,-22.0854482993411,0.0 -47.4988288,-22.0859303993411,0.0 -47.4990252,-22.086532399341,0.0 -47.4993099,-22.086984999341,0.0 -47.4997174,-22.087382299341,0.0 -47.5002439,-22.087575699341,0.0 -47.5014131,-22.087500599341,0.0 -47.5022369,-22.086985699341,0.0 -47.5025607,-22.086462799341,0.0 -47.5031056,-22.0849677993411,0.0 -47.5048308,-22.0825010993411,0.0 -47.5053602,-22.0819745993412,0.0 -47.5066285,-22.0814106993412,0.0 -47.5076282,-22.0813944993412,0.0 -47.5086927,-22.0819102993411,0.0 -47.5099885,-22.0828387993411,0.0 -47.510469,-22.0831040993411,0.0 -47.5107319,-22.0831449993411,0.0 -47.512391,-22.0830450993411,0.0 -47.5137578,-22.0827232993411,0.0 -47.5149801,-22.0822303993411,0.0 -47.5151695,-22.0820113993412,0.0 -47.5154568,-22.0808441993412,0.0 -47.5156831,-22.0805393993412,0.0 -47.5162124,-22.0801008993412,0.0 -47.5185297,-22.0787584993412,0.0 -47.5192429,-22.0782014993412,0.0 -47.5195434,-22.0777808993412,0.0 -47.5195987,-22.0767411993413,0.0 -47.5200886,-22.0757860993413,0.0 -47.5205133,-22.0754063993413,0.0 -47.521071,-22.0745797993413,0.0 -47.5222537,-22.0720050993414,0.0 -47.5229372,-22.0723681993414,0.0 -47.5253882,-22.0733780993414,0.0 -47.527685,-22.0734127993414,0.0 -47.5285963,-22.0737165993413,0.0 -47.5290117,-22.0740052993413,0.0 -47.5296682,-22.0746433993413,0.0 -47.5305031,-22.0757486993413,0.0 -47.5343695,-22.0797195993412,0.0 -47.5368658,-22.0825019993411,0.0 -47.5381127,-22.0832728993411,0.0 -47.5395549,-22.0837817993411,0.0 -47.541875,-22.0839475993411,0.0 -47.5421534,-22.0840295993411,0.0 -47.5439173,-22.0835693993411,0.0 -47.5446542,-22.0835299993411,0.0 -47.5449237,-22.0839577993411,0.0 -47.5450512,-22.0850306993411,0.0 -47.5457274,-22.0859400993411,0.0 -47.546834,-22.086599299341,0.0 -47.5479274,-22.087039599341,0.0 -47.5495823,-22.087457899341,0.0 -47.5527118,-22.088526499341,0.0 -47.5531446,-22.088607299341,0.0 -47.554261,-22.088159299341,0.0 -47.555673,-22.086523799341,0.0 -47.5572156,-22.0850640993411,0.0 -47.5589976,-22.0840973993411,0.0 -47.5604915,-22.0834511993411,0.0 -47.5619506,-22.0829715993411,0.0 -47.5658779,-22.0820681993412,0.0 -47.5668766,-22.0819454993411,0.0 -47.5681168,-22.0820344993411,0.0 -47.5696051,-22.0822985993411,0.0 -47.5710049,-22.0828675993411,0.0 -47.5744985,-22.0849344993411,0.0 -47.5762394,-22.086321399341,0.0 -47.5782493,-22.088576499341,0.0 -47.5783867,-22.088926999341,0.0 -47.5793307,-22.087146099341,0.0 -47.6068078,-22.0664140993415,0.0 -47.6070555,-22.0661336993415,0.0 -47.6075006,-22.0656300993415,0.0 -47.608091,-22.0641299993416,0.0 -47.6085205,-22.0633806993416,0.0 -47.6089705,-22.0630349993416,0.0 -47.6093368,-22.0621807993416,0.0 -47.6097262,-22.0616537993416,0.0 -47.6100056,-22.0605758993417,0.0 -47.6109005,-22.0597816993417,0.0 -47.6115225,-22.0589769993417,0.0 -47.6119306,-22.0572603993417,0.0 -47.6118545,-22.0548838993418,0.0 -47.6120761,-22.0544213993418,0.0 -47.6124483,-22.0541454993418,0.0 -47.6131069,-22.0538599993418,0.0 -47.6141528,-22.0530275993418,0.0 -47.6157618,-22.0520291993419,0.0 -47.6165445,-22.0517241993419,0.0 -47.6178507,-22.0515698993419,0.0 -47.6186383,-22.0509818993419,0.0 -47.6191882,-22.0508278993419,0.0 -47.6197193,-22.0501462993419,0.0 -47.6204081,-22.0498349993419,0.0 -47.6209417,-22.0494609993419,0.0 -47.6211294,-22.0491688993419,0.0 -47.6211899,-22.0486011993419,0.0 -47.6218018,-22.047822999342,0.0 -47.6219359,-22.046912999342,0.0 -47.6225351,-22.046071299342,0.0 -47.6233879,-22.045197199342,0.0 -47.6247918,-22.0439910993421,0.0 -47.6253409,-22.0437893993421,0.0 -47.6264662,-22.0436036993421,0.0 -47.6253003,-22.0424931993421,0.0 -47.6248348,-22.0422161993421,0.0 -47.623483,-22.0417052993421,0.0 -47.6222461,-22.0415269993421,0.0 -47.6205812,-22.0418535993421,0.0 -47.6195866,-22.0419156993421,0.0 -47.6181745,-22.0416460993421,0.0 -47.6175271,-22.0417269993421,0.0 -47.6172567,-22.0422190993421,0.0 -47.6172569,-22.0426020993421,0.0 -47.6173502,-22.0431783993421,0.0 -47.6178322,-22.044703999342,0.0 -47.6174209,-22.045441399342,0.0 -47.6158415,-22.046689199342,0.0 -47.6141022,-22.047911799342,0.0 -47.6115233,-22.0502732993419,0.0 -47.6101323,-22.0512971993419,0.0 -47.6089304,-22.0519535993419,0.0 -47.6072238,-22.0525138993418,0.0 -47.6063045,-22.0527100993418,0.0 -47.6055027,-22.0527085993418,0.0 -47.6048628,-22.0527079993418,0.0 -47.6032527,-22.0524403993418,0.0 -47.6017054,-22.0520493993419,0.0 -47.6007475,-22.0515967993419,0.0 -47.5995124,-22.0501749993419,0.0 -47.598639,-22.0486476993419,0.0 -47.5979972,-22.047058399342,0.0 -47.5973071,-22.046193699342,0.0 -47.5960598,-22.045001599342,0.0 -47.5944044,-22.0440227993421,0.0 -47.5931769,-22.0435955993421,0.0 -47.5925297,-22.0431766993421,0.0 -47.592205,-22.0428304993421,0.0 -47.5918146,-22.0420294993421,0.0 -47.5913412,-22.0401482993421,0.0 -47.5908922,-22.0395293993422,0.0 -47.5901943,-22.0389681993422,0.0 -47.5867486,-22.0372327993422,0.0 -47.5847382,-22.0360459993422,0.0 -47.5837245,-22.0349221993423,0.0 -47.5831367,-22.0340083993423,0.0 -47.5813627,-22.0325690993423,0.0 -47.5811421,-22.0323015993423,0.0 -47.5805232,-22.0308318993424,0.0 -47.5801603,-22.0270256993424,0.0 -47.579966,-22.0258151993425,0.0 -47.5799265,-22.0240102993425,0.0 -47.5796819,-22.0220237993426,0.0 -47.5794538,-22.0213235993426,0.0 -47.5790581,-22.0206419993426,0.0 -47.5780906,-22.0197213993426,0.0 -47.5776817,-22.0194600993426,0.0 -47.5762164,-22.0188526993426,0.0 -47.5753626,-22.0182691993427,0.0 -47.5749413,-22.0177034993427,0.0 -47.5744996,-22.0160248993427,0.0 -47.5746285,-22.0142921993428,0.0 -47.575144,-22.0127551993428,0.0 -47.5763752,-22.0096665993429,0.0 -47.576905,-22.0069766993429,0.0 -47.5781021,-22.002410599343,0.0 -47.5788973,-22.0009446993431,0.0 -47.5789686,-22.0005887993431,0.0 -47.5795254,-21.9994012993431,0.0 -47.5817961,-21.9971765993432,0.0 -47.5824264,-21.9959901993432,0.0 -47.5826912,-21.9949342993432,0.0 -47.5828102,-21.9934788993432,0.0 -47.5825754,-21.9915961993433,0.0 -47.5819182,-21.9904180993433,0.0 -47.5807023,-21.9891426993434,0.0 -47.5787095,-21.9878801993434,0.0 -47.5778133,-21.9876160993434,0.0 -47.5752845,-21.9865690993434,0.0 -47.5741292,-21.9862282993434,0.0 -47.5728534,-21.9862136993434,0.0 -47.5713986,-21.9860596993434,0.0 -47.5713831,-21.9860579993434,0.0 -47.5708366,-21.9860001993434,0.0 -47.5662034,-21.9861826993434,0.0 -47.5637546,-21.9865401993434,0.0 -47.5589768,-21.9855076993434,0.0 -47.5537112,-21.9835650993435,0.0 -47.5508271,-21.9828571993435,0.0 -47.5485448,-21.9821512993435,0.0 -47.5468019,-21.9813269993435,0.0 -47.5449659,-21.9806977993435,0.0 -47.5442215,-21.9802928993436,0.0 -47.5435693,-21.9797387993436,0.0 -47.542306,-21.9782761993436,0.0 -47.5419043,-21.9775619993436,0.0 -47.5415545,-21.9766654993436,0.0 -47.5411672,-21.9752694993437,0.0 -47.5410528,-21.9727326993437,0.0 -47.5412936,-21.9702240993438,0.0 -47.5412195,-21.9691666993438,0.0 -47.540751,-21.9675544993439,0.0 -47.540223,-21.9662501993439,0.0 -47.5398886,-21.9657614993439,0.0 -47.5381103,-21.9640791993439,0.0 -47.5363213,-21.960967099344,0.0 -47.5361184,-21.959803099344,0.0 -47.535894,-21.9569130993441,0.0 -47.5354037,-21.9556533993441,0.0 -47.5346027,-21.9546438993442,0.0 -47.529843,-21.9500840993443,0.0 -47.5262995,-21.9453345993444,0.0 -47.524576,-21.9438169993444,0.0 -47.5242415,-21.9435233993444,0.0 -47.5237662,-21.9431899993444,0.0 -47.5224566,-21.9422712993445,0.0 -47.5214424,-21.9417973993445,0.0 -47.5193699,-21.9413303993445,0.0 -47.5183975,-21.9412364993445,0.0 -47.517753,-21.9409657993445,0.0 -47.5159408,-21.9395912993445,0.0 -47.514571,-21.9374150993446,0.0 -47.5137585,-21.9364914993446,0.0 -47.513021,-21.9361352993446,0.0 -47.5119128,-21.9358966993446,0.0 -47.5113678,-21.9356325993446,0.0 -47.5105192,-21.9355021993446,0.0 -47.5099894,-21.9350525993446,0.0 -47.5095903,-21.9343267993446,0.0 -47.5090973,-21.9342192993446,0.0 -47.508709,-21.9338534993447,0.0 -47.5082579,-21.9338006993447,0.0 -47.507794,-21.9332017993447,0.0 -47.5075469,-21.9331174993447,0.0 -47.5072572,-21.9332678993447,0.0 -47.5071841,-21.9334267993447,0.0 -47.5066184,-21.9336796993447,0.0 -47.5065446,-21.9338529993447,0.0 -47.50656,-21.9345996993446,0.0 -47.5064235,-21.9348306993446,0.0 -47.5061627,-21.9349210993446,0.0 -47.5060083,-21.9347361993446,0.0 -47.5060153,-21.9343058993446,0.0 -47.5059025,-21.9340613993446,0.0 -47.5052055,-21.9337724993447,0.0 -47.5049663,-21.9332173993447,0.0 -47.5052508,-21.9320132993447,0.0 -47.5047717,-21.9300680993447,0.0 -47.5045188,-21.9297299993447,0.0 -47.5042119,-21.9296181993448,0.0 -47.5033482,-21.9295868993448,0.0 -47.5032681,-21.9293877993448,0.0 -47.5034153,-21.9290699993448,0.0 -47.5033961,-21.9288974993448,0.0 -47.50313,-21.9285715993448,0.0 -47.5032643,-21.9282819993448,0.0 -47.5028761,-21.9280635993448,0.0 -47.5028419,-21.9279210993448,0.0 -47.5030672,-21.9275892993448,0.0 -47.5031246,-21.9273281993448,0.0 -47.5029273,-21.9265562993448,0.0 -47.503268,-21.9259035993449,0.0 -47.5032193,-21.9257191993448,0.0 -47.5027522,-21.9254248993449,0.0 -47.5028076,-21.9250800993449,0.0 -47.5026537,-21.9246739993449,0.0 -47.5027061,-21.9241394993449,0.0 -47.50227,-21.9238462993449,0.0 -47.5022346,-21.9236030993449,0.0 -47.5018901,-21.9232335993449,0.0 -47.5013321,-21.9230426993449,0.0 -47.5012999,-21.9228553993449,0.0 -47.5014806,-21.9226529993449,0.0 -47.5013367,-21.9224100993449,0.0 -47.5011056,-21.9223568993449,0.0 -47.5003084,-21.9224405993449,0.0 -47.5002147,-21.9223703993449,0.0 -47.5001354,-21.9221982993449,0.0 -47.5001569,-21.9218548993449,0.0 -47.499881,-21.9217010993449,0.0 -47.4996655,-21.9217321993449,0.0 -47.4996177,-21.9215900993449,0.0 -47.4997334,-21.921091199345,0.0 -47.499542,-21.920892199345,0.0 -47.4989473,-21.920973999345,0.0 -47.4987162,-21.920922699345,0.0 -47.4982958,-21.920624799345,0.0 -47.4976802,-21.920591599345,0.0 -47.4978889,-21.920241999345,0.0 -47.497636,-21.919861699345,0.0 -47.4980445,-21.919422099345,0.0 -47.4980857,-21.919177399345,0.0 -47.4980327,-21.918130799345,0.0 -47.4978917,-21.917760299345,0.0 -47.4974733,-21.917565799345,0.0 -47.4969543,-21.917645199345,0.0 -47.4965564,-21.917852499345,0.0 -47.4957877,-21.917864499345,0.0 -47.494846,-21.918524099345,0.0 -47.4937094,-21.918657299345,0.0 -47.4935721,-21.918758899345,0.0 -47.4934611,-21.919365799345,0.0 -47.493326,-21.919566299345,0.0 -47.4920047,-21.920584899345,0.0 -47.4916516,-21.921293699345,0.0 -47.4913065,-21.921341199345,0.0 -47.4907669,-21.921235499345,0.0 -47.4902174,-21.9217297993449,0.0 -47.4895045,-21.921557899345,0.0 -47.4890578,-21.9219205993449,0.0 -47.4888382,-21.9223801993449,0.0 -47.4885089,-21.9224211993449,0.0 -47.4878669,-21.9222439993449,0.0 -47.4869618,-21.9228240993449,0.0 -47.4864712,-21.9229179993449,0.0 -47.4864458,-21.9228970993449,0.0 -47.4855973,-21.9221985993449,0.0 -47.4852875,-21.9220883993449,0.0 -47.4846564,-21.9220553993449,0.0 -47.4840803,-21.9218358993449,0.0 -47.4839953,-21.9213641993449,0.0 -47.4841304,-21.920803199345,0.0 -47.4838924,-21.920712099345,0.0 -47.4835759,-21.920726599345,0.0 -47.4833543,-21.920297999345,0.0 -47.4826625,-21.920237499345,0.0 -47.4817234,-21.919821999345,0.0 -47.4803695,-21.919453199345,0.0 -47.4800182,-21.919530099345,0.0 -47.4793027,-21.919986399345,0.0 -47.4786493,-21.920038799345,0.0 -47.4784436,-21.919982999345,0.0 -47.4777788,-21.919479499345,0.0 -47.4767633,-21.919084399345,0.0 -47.476312,-21.918592899345,0.0 -47.4757045,-21.918149999345,0.0 -47.4748371,-21.917904499345,0.0 -47.4733659,-21.9172218993451,0.0 -47.4733422,-21.9172108993451,0.0 -47.4728585,-21.9168574993451,0.0 -47.4716602,-21.9156083993451,0.0 -47.4713181,-21.9154410993451,0.0 -47.4687213,-21.9157735993451,0.0 -47.468436,-21.9157200993451,0.0 -47.4679972,-21.9152973993451,0.0 -47.4331586,-21.9148045993451,0.0 -47.43195,-21.9143143993451,0.0 -47.4300075,-21.9141490993451,0.0 -47.4273404,-21.9142381993451,0.0 -47.4256928,-21.9145079993451,0.0 -47.4249584,-21.9144886993451,0.0 -47.4237265,-21.9143560993451,0.0 -47.4207952,-21.9137891993451,0.0 -47.4193356,-21.9135953993451,0.0 -47.4178682,-21.9136735993451,0.0 -47.4173862,-21.9138323993451,0.0 -47.4169219,-21.9141544993451,0.0 -47.4160162,-21.9151592993451,0.0 -47.4156365,-21.9154523993451,0.0 -47.4146598,-21.9159392993451,0.0 -47.4144258,-21.9162454993451,0.0 -47.4141743,-21.917243899345,0.0 -47.4139272,-21.917685299345,0.0 -47.413743,-21.917794799345,0.0 -47.4133572,-21.917757899345,0.0 -47.413118,-21.917567699345,0.0 -47.4123201,-21.9163017993451,0.0 -47.411745,-21.9159589993451,0.0 -47.4111529,-21.9156063993451,0.0 -47.41102,-21.9152532993451,0.0 -47.4104445,-21.9147530993451,0.0 -47.4103466,-21.9144174993451,0.0 -47.4096689,-21.9140327993451,0.0 -47.4091997,-21.9135790993451,0.0 -47.4086446,-21.9134940993451,0.0 -47.4083595,-21.9133541993451,0.0 -47.4078288,-21.9134138993451,0.0 -47.4072242,-21.9132495993451,0.0 -47.4070793,-21.9133021993451,0.0 -47.406881,-21.9138002993451,0.0 -47.4064232,-21.9140435993451,0.0 -47.4061426,-21.9148952993451,0.0 -47.4058994,-21.9150212993451,0.0 -47.4056191,-21.9148393993451,0.0 -47.405231,-21.9141407993451,0.0 -47.4048113,-21.9138948993451,0.0 -47.4045129,-21.9135611993451,0.0 -47.4044401,-21.9127879993452,0.0 -47.4042321,-21.9124058993452,0.0 -47.4026518,-21.9112813993452,0.0 -47.4020863,-21.9105640993452,0.0 -47.4018837,-21.9101496993452,0.0 -47.401777,-21.9095665993452,0.0 -47.4020612,-21.9072330993453,0.0 -47.4020267,-21.9065324993453,0.0 -47.401366,-21.9055497993453,0.0 -47.4000735,-21.9044268993453,0.0 -47.3997398,-21.9038715993454,0.0 -47.3996849,-21.9034873993454,0.0 -47.3996556,-21.9032840993454,0.0 -47.4008575,-21.8998518993455,0.0 -47.4011014,-21.8986419993455,0.0 -47.4013923,-21.8977341993455,0.0 -47.4026235,-21.8951542993456,0.0 -47.402827,-21.8944173993456,0.0 -47.4028294,-21.8936121993456,0.0 -47.4026441,-21.8926960993456,0.0 -47.4023733,-21.8919958993457,0.0 -47.4019632,-21.8915418993457,0.0 -47.4014527,-21.8912914993457,0.0 -47.3970739,-21.8911230993457,0.0 -47.3961637,-21.8909492993457,0.0 -47.3953581,-21.8905872993457,0.0 -47.3943933,-21.8899411993457,0.0 -47.3939373,-21.8893306993457,0.0 -47.3933869,-21.8877448993458,0.0 -47.3933628,-21.8871974993458,0.0 -47.3935217,-21.8866932993458,0.0 -47.3940956,-21.8859495993458,0.0 -47.3952157,-21.8848725993458,0.0 -47.3960825,-21.8842429993458,0.0 -47.396799,-21.8838715993458,0.0 -47.3992096,-21.8832010993459,0.0 -47.3998804,-21.8828323993459,0.0 -47.4009704,-21.8819833993459,0.0 -47.402131,-21.8805295993459,0.0 -47.4035788,-21.879148299346,0.0 -47.4039948,-21.878424299346,0.0 -47.4040479,-21.878111799346,0.0 -47.4040421,-21.877546299346,0.0 -47.4037593,-21.877106299346,0.0 -47.4026224,-21.876390499346,0.0 -47.4018111,-21.875712899346,0.0 -47.4013688,-21.8750148993461,0.0 -47.4012832,-21.8744766993461,0.0 -47.4014657,-21.8733981993461,0.0 -47.4011694,-21.8722224993461,0.0 -47.4014438,-21.8703064993462,0.0 -47.4013069,-21.8694758993462,0.0 -47.4013661,-21.8683610993462,0.0 -47.4008524,-21.8671326993462,0.0 -47.4005091,-21.8667226993463,0.0 -47.3995585,-21.8651837993463,0.0 -47.399364,-21.8647203993463,0.0 -47.3985919,-21.8616436993464,0.0 -47.3984856,-21.8608835993464,0.0 -47.3976969,-21.8582492993465,0.0 -47.3973809,-21.8576911993465,0.0 -47.3967687,-21.8569818993465,0.0 -47.3952101,-21.8557990993465,0.0 -47.3937232,-21.8552013993465,0.0 -47.3935829,-21.8550744993465,0.0 -47.3928895,-21.8550126993465,0.0 -47.3923328,-21.8548223993465,0.0 -47.3919142,-21.8545971993465,0.0 -47.3908265,-21.8537449993466,0.0 -47.3898606,-21.8533981993466,0.0 -47.3896724,-21.8532585993466,0.0 -47.3889235,-21.8521564993466,0.0 -47.3882541,-21.8515769993466,0.0 -47.3874644,-21.8503321993466,0.0 -47.3861722,-21.8496712993467,0.0 -47.3857784,-21.8495827993467,0.0 -47.3842585,-21.8497845993467,0.0 -47.3827379,-21.8497507993466,0.0 -47.3814539,-21.8492294993467,0.0 -47.3800318,-21.8487826993467,0.0 -47.3790167,-21.8480374993467,0.0 -47.3787609,-21.8479571993467,0.0 -47.3781989,-21.8479652993467,0.0 -47.3778714,-21.8477823993467,0.0 -47.3774841,-21.8478243993467,0.0 -47.3767956,-21.8482013993467,0.0 -47.3764959,-21.8482126993467,0.0 -47.3745705,-21.8471336993467,0.0 -47.3736439,-21.8469240993467,0.0 -47.3731663,-21.8469085993467,0.0 -47.3720023,-21.8471631993467,0.0 -47.3714877,-21.8471928993467,0.0 -47.3699227,-21.8470934993467,0.0 -47.3694127,-21.8469849993467,0.0 -47.3689309,-21.8466403993467,0.0 -47.3430735,-21.8398668993469,0.0 -47.3424902,-21.8399593993469,0.0 -47.3418808,-21.8403419993469,0.0 -47.3409406,-21.8412173993469,0.0 -47.3400269,-21.8418348993468,0.0 -47.3388061,-21.8424553993468,0.0 -47.3376404,-21.8427033993468,0.0 -47.3360385,-21.8426092993468,0.0 -47.3338545,-21.8426410993468,0.0 -47.3320042,-21.8424947993468,0.0 -47.3306323,-21.8440517993468,0.0 -47.328345,-21.8475050993467,0.0 -47.3259894,-21.8501557993466,0.0 -47.3255074,-21.8507950993466,0.0 -47.3254999,-21.8510175993466,0.0 -47.324631,-21.8510661993466,0.0 -47.3245419,-21.8512540993466,0.0 -47.3247495,-21.8526768993466,0.0 -47.3246234,-21.8529719993466,0.0 -47.3241666,-21.8532573993466,0.0 -47.3240023,-21.8535841993466,0.0 -47.3248327,-21.8560412993465,0.0 -47.3248964,-21.8587641993464,0.0 -47.3242375,-21.8599759993464,0.0 -47.3240661,-21.8606799993464,0.0 -47.3236662,-21.8610942993464,0.0 -47.3216647,-21.8626258993463,0.0 -47.3200965,-21.8643752993463,0.0 -47.319206,-21.8651526993463,0.0 -47.3182014,-21.8661339993463,0.0 -47.3173327,-21.8671503993462,0.0 -47.3167417,-21.8676902993462,0.0 -47.3146518,-21.8695997993462,0.0 -47.3126602,-21.8707487993462,0.0 -47.3113347,-21.8720036993461,0.0 -47.3103738,-21.8726909993461,0.0 -47.3092579,-21.8730871993461,0.0 -47.3083662,-21.8732281993461,0.0 -47.3075802,-21.8732404993461,0.0 -47.3066087,-21.8731175993461,0.0 -47.3026919,-21.8722367993461,0.0 -47.3018628,-21.8719686993461,0.0 -47.2994497,-21.8709508993461,0.0 -47.2984666,-21.8706855993462,0.0 -47.2954098,-21.8695976993462,0.0 -47.2928114,-21.8685048993462,0.0 -47.2903344,-21.8681277993462,0.0 -47.2877938,-21.8673535993462,0.0 -47.2864058,-21.8672137993462,0.0 -47.2856866,-21.8674335993462,0.0 -47.2845725,-21.8684712993462,0.0 -47.2839357,-21.8692469993462,0.0 -47.2815392,-21.8729869993461,0.0 -47.2788627,-21.876787399346,0.0 -47.2784221,-21.877548599346,0.0 -47.277927,-21.878848599346,0.0 -47.2776709,-21.8811008993459,0.0 -47.2776874,-21.8825824993459,0.0 -47.2785137,-21.8862014993458,0.0 -47.2785491,-21.8888438993457,0.0 -47.2789557,-21.8906783993457,0.0 -47.2798773,-21.8928508993456,0.0 -47.2802247,-21.8944626993456,0.0 -47.2802184,-21.8949674993456,0.0 -47.2800784,-21.8954308993456,0.0 -47.2795418,-21.8965601993455,0.0 -47.2795837,-21.8977911993455,0.0 -47.2793434,-21.8986153993455,0.0 -47.2793675,-21.8997063993455,0.0 -47.2795302,-21.9001811993455,0.0 -47.2805319,-21.9016802993454,0.0 -47.2822279,-21.9036793993454,0.0 -47.2824417,-21.9040555993454,0.0 -47.2825715,-21.9044867993454,0.0 -47.2827493,-21.9083643993453,0.0 -47.282732,-21.9098419993452,0.0 -47.282604,-21.9100308993452,0.0 -47.2816238,-21.9106442993452,0.0 -47.2807682,-21.9120662993452,0.0 -47.2799978,-21.9125650993452,0.0 -47.2796116,-21.9130310993451,0.0 -47.2789547,-21.9132802993451,0.0 -47.2786669,-21.9136935993451,0.0 -47.2786379,-21.9148839993451,0.0 -47.2791438,-21.9155362993451,0.0 -47.2798543,-21.9169274993451,0.0 -47.280283,-21.917325899345,0.0 -47.2805626,-21.918013099345,0.0 -47.280986,-21.918484999345,0.0 -47.2814859,-21.919429899345,0.0 -47.2822061,-21.920121499345,0.0 -47.2822598,-21.920462399345,0.0 -47.2821871,-21.920791099345,0.0 -47.2812707,-21.9222706993449,0.0 -47.2805984,-21.9226594993449,0.0 -47.2802363,-21.9232503993449,0.0 -47.2796497,-21.9235473993449,0.0 -47.2794079,-21.9237864993449,0.0 -47.2792504,-21.9241053993449,0.0 -47.2791225,-21.9250310993449,0.0 -47.2785414,-21.9257865993448,0.0 -47.278544,-21.9274563993448,0.0 -47.2782395,-21.9282625993448,0.0 -47.2762801,-21.9294616993448,0.0 -47.2759294,-21.9298112993448,0.0 -47.2753638,-21.9307093993447,0.0 -47.2751824,-21.9313301993447,0.0 -47.2753006,-21.9330126993447,0.0 -47.2752132,-21.9338582993447,0.0 -47.2748998,-21.9344844993446,0.0 -47.2740936,-21.9354912993446,0.0 -47.2739619,-21.9359406993446,0.0 -47.2741319,-21.9379622993446,0.0 -47.2743947,-21.9389434993445,0.0 -47.2743458,-21.9394033993445,0.0 -47.2738561,-21.9398641993445,0.0 -47.2736525,-21.9406053993445,0.0 -47.2733978,-21.9407665993445,0.0 -47.2731272,-21.9407924993445,0.0 -47.2718913,-21.9404347993445,0.0 -47.2714656,-21.9404416993445,0.0 -47.2707961,-21.9406444993445,0.0 -47.2705667,-21.9408858993445,0.0 -47.2701102,-21.9417910993445,0.0 -47.2695396,-21.9435730993444,0.0 -47.2691606,-21.9439431993444,0.0 -47.2677874,-21.9443778993444,0.0 -47.2674058,-21.9447226993444,0.0 -47.267462,-21.9456028993444,0.0 -47.2667957,-21.9468058993443,0.0 -47.2665697,-21.9481220993443,0.0 -47.2667692,-21.9486154993443,0.0 -47.2678556,-21.9494918993443,0.0 -47.2682179,-21.9499262993443,0.0 -47.269019,-21.9514263993442,0.0 -47.2692063,-21.9520360993442,0.0 -47.2694397,-21.9537600993442,0.0 -47.26968,-21.9542308993442,0.0 -47.2702607,-21.9546148993442,0.0 -47.2713851,-21.9550398993441,0.0 -47.2719185,-21.9551532993442,0.0 -47.2729825,-21.9551732993441,0.0 -47.2732286,-21.9552569993441,0.0 -47.2747871,-21.9562352993441,0.0 -47.2754922,-21.9564274993441,0.0 -47.2777231,-21.9561355993441,0.0 -47.2783651,-21.9561265993441,0.0 -47.2800037,-21.9562903993441,0.0 -47.2824029,-21.9568893993441,0.0 -47.2833539,-21.9569846993441,0.0 -47.2844768,-21.9569476993441,0.0 -47.2866568,-21.9566480993441,0.0 -47.2880748,-21.9566428993441,0.0 -47.2889609,-21.9571056993441,0.0 -47.2900158,-21.9581415993441,0.0 -47.291169,-21.959539099344,0.0 -47.2918665,-21.960634099344,0.0 -47.2923418,-21.962021099344,0.0 -47.2932853,-21.962728099344,0.0 -47.2934273,-21.962942299344,0.0 -47.2937433,-21.9643794993439,0.0 -47.2937927,-21.9655721993439,0.0 -47.293926,-21.9661158993439,0.0 -47.2942058,-21.9667185993439,0.0 -47.2946163,-21.9673022993439,0.0 -47.2950382,-21.9677075993439,0.0 -47.2957381,-21.9680307993438,0.0 -47.2971318,-21.9684198993438,0.0 -47.2978601,-21.9688816993438,0.0 -47.2980786,-21.9691601993438,0.0 -47.2982615,-21.9699269993438,0.0 -47.2986799,-21.9704875993438,0.0 -47.2979695,-21.9709008993438,0.0 -47.2972569,-21.9715638993438,0.0 -47.2964473,-21.9728672993437,0.0 -47.2961352,-21.9736283993437,0.0 -47.2959952,-21.9746030993437,0.0 -47.2959801,-21.9763817993436,0.0 -47.2966341,-21.9783386993436,0.0 -47.296611,-21.9788076993436,0.0 -47.2964218,-21.9791423993436,0.0 -47.2949937,-21.9803226993436,0.0 -47.2937804,-21.9816338993435,0.0 -47.2934638,-21.9818726993435,0.0 -47.2926925,-21.9821153993435,0.0 -47.2907848,-21.9819982993435,0.0 -47.2900146,-21.9816209993435,0.0 -47.2899797,-21.9813337993435,0.0 -47.2900949,-21.9810500993435,0.0 -47.290667,-21.9803885993436,0.0 -47.2917513,-21.9788519993436,0.0 -47.2917642,-21.9782710993436,0.0 -47.2914988,-21.9779807993436,0.0 -47.2903903,-21.9772976993436,0.0 -47.2898432,-21.9762392993436,0.0 -47.2895657,-21.9759188993437,0.0 -47.2886204,-21.9752280993437,0.0 -47.2880711,-21.9745865993437,0.0 -47.2874305,-21.9735809993437,0.0 -47.2863611,-21.9723782993437,0.0 -47.2848168,-21.9711759993438,0.0 -47.2824552,-21.9701255993438,0.0 -47.2811058,-21.9696832993438,0.0 -47.2801703,-21.9695247993438,0.0 -47.2794443,-21.9696497993438,0.0 -47.2786781,-21.9699483993438,0.0 -47.2773413,-21.9707350993438,0.0 -47.276187,-21.9709621993438,0.0 -47.2738242,-21.9706340993438,0.0 -47.2716813,-21.9706778993438,0.0 -47.2710794,-21.9705571993438,0.0 -47.2698824,-21.9700267993438,0.0 -47.2671248,-21.9692160993438,0.0 -47.2663036,-21.9690396993438,0.0 -47.2642533,-21.9690108993438,0.0 -47.2637849,-21.9691597993438,0.0 -47.2633483,-21.9694555993438,0.0 -47.262584,-21.9708801993438,0.0 -47.2616569,-21.9718136993438,0.0 -47.2612488,-21.9724295993437,0.0 -47.2609762,-21.9741105993437,0.0 -47.2605442,-21.9755575993437,0.0 -47.2602418,-21.9759451993437,0.0 -47.2598812,-21.9760498993437,0.0 -47.2593353,-21.9760347993437,0.0 -47.258714,-21.9758925993437,0.0 -47.2583786,-21.9756892993437,0.0 -47.2574256,-21.9745513993437,0.0 -47.2564209,-21.9738498993437,0.0 -47.2561457,-21.9735223993437,0.0 -47.2557218,-21.9715874993438,0.0 -47.2553642,-21.9679928993438,0.0 -47.2551404,-21.9674993993439,0.0 -47.2539043,-21.9663453993439,0.0 -47.2530385,-21.9657402993439,0.0 -47.2514493,-21.9651847993439,0.0 -47.2508287,-21.9654585993439,0.0 -47.24985,-21.9655578993439,0.0 -47.2496676,-21.9657049993439,0.0 -47.2496786,-21.9663514993439,0.0 -47.2491959,-21.9665168993439,0.0 -47.2487378,-21.9665322993439,0.0 -47.2483635,-21.9667613993439,0.0 -47.2483167,-21.9672159993439,0.0 -47.2485765,-21.9680110993438,0.0 -47.2485651,-21.9682917993438,0.0 -47.2484002,-21.9684369993438,0.0 -47.2479003,-21.9682079993438,0.0 -47.2475195,-21.9674726993439,0.0 -47.2472462,-21.9673096993439,0.0 -47.2462016,-21.9671222993439,0.0 -47.2447125,-21.9671340993439,0.0 -47.244406,-21.9672617993439,0.0 -47.2438516,-21.9677736993439,0.0 -47.2435732,-21.9677982993439,0.0 -47.2428663,-21.9673784993439,0.0 -47.2425559,-21.9673234993439,0.0 -47.2422535,-21.9671403993439,0.0 -47.2418046,-21.9666349993439,0.0 -47.2416578,-21.9666451993439,0.0 -47.2415638,-21.9669701993439,0.0 -47.2420329,-21.9682949993438,0.0 -47.241923,-21.9687927993438,0.0 -47.2414248,-21.9688954993438,0.0 -47.2405596,-21.9682786993438,0.0 -47.2402005,-21.9681687993438,0.0 -47.2397605,-21.9681893993438,0.0 -47.2387247,-21.9684695993438,0.0 -47.2384749,-21.9686677993438,0.0 -47.2380101,-21.9696784993438,0.0 -47.2377387,-21.9700061993438,0.0 -47.2374613,-21.9700522993438,0.0 -47.2365771,-21.9697123993438,0.0 -47.2361095,-21.9699052993438,0.0 -47.2350982,-21.9699967993438,0.0 -47.234855,-21.9702806993438,0.0 -47.2346959,-21.9707728993438,0.0 -47.2344984,-21.9710127993438,0.0 -47.2339637,-21.9712720993438,0.0 -47.2328992,-21.9715024993438,0.0 -47.231635,-21.9718999993438,0.0 -47.2313992,-21.9722712993437,0.0 -47.2314041,-21.9731448993437,0.0 -47.2312731,-21.9731888993437,0.0 -47.2302409,-21.9727628993437,0.0 -47.2296017,-21.9727950993437,0.0 -47.2292228,-21.9726923993437,0.0 -47.2288476,-21.9723076993437,0.0 -47.228575,-21.9722317993437,0.0 -47.2275553,-21.9725996993437,0.0 -47.2264963,-21.9727566993437,0.0 -47.2257594,-21.9733939993437,0.0 -47.2254364,-21.9734005993437,0.0 -47.2251478,-21.9731505993437,0.0 -47.22495,-21.9728288993437,0.0 -47.2244376,-21.9725984993437,0.0 -47.2237695,-21.9728091993437,0.0 -47.2233974,-21.9731730993437,0.0 -47.2230086,-21.9739486993437,0.0 -47.2230914,-21.9749360993437,0.0 -47.2229764,-21.9756006993437,0.0 -47.2227691,-21.9760854993437,0.0 -47.2225197,-21.9763762993437,0.0 -47.2219978,-21.9766306993436,0.0 -47.2212964,-21.9767671993436,0.0 -47.2198121,-21.9776694993436,0.0 -47.219045,-21.9778616993436,0.0 -47.2178996,-21.9775738993436,0.0 -47.2172686,-21.9771489993436,0.0 -47.216589,-21.9764821993436,0.0 -47.2162109,-21.9759777993437,0.0 -47.2154947,-21.9764838993437,0.0 -47.215286,-21.9768958993436,0.0 -47.215134,-21.9780711993436,0.0 -47.2149723,-21.9811123993435,0.0 -47.2146452,-21.9832930993435,0.0 -47.2144668,-21.9837413993435,0.0 -47.2137782,-21.9845836993435,0.0 -47.2126933,-21.9854007993434,0.0 -47.212303,-21.9857997993434,0.0 -47.2119503,-21.9865472993434,0.0 -47.2118426,-21.9890847993433,0.0 -47.2120748,-21.9931098993432,0.0 -47.2117091,-21.9959134993432,0.0 -47.2117303,-21.9962207993432,0.0 -47.212183,-21.9971136993432,0.0 -47.212353,-21.9976534993431,0.0 -47.2127025,-22.0007839993431,0.0 -47.2127278,-22.001877699343,0.0 -47.212638,-22.002680899343,0.0 -47.2118996,-22.004216599343,0.0 -47.2117132,-22.005256599343,0.0 -47.2118133,-22.005595899343,0.0 -47.2122976,-22.0063732993429,0.0 -47.2122997,-22.0070382993429,0.0 -47.211785,-22.0082740993429,0.0 -47.2107884,-22.0116573993428,0.0 -47.2099586,-22.0138865993428,0.0 -47.2097918,-22.0150208993427,0.0 -47.2095425,-22.0154490993427,0.0 -47.2086804,-22.0161026993427,0.0 -47.2077762,-22.0164814993427,0.0 -47.2069518,-22.0167107993427,0.0 -47.2060199,-22.0174225993427,0.0 -47.2049936,-22.0178816993427,0.0 -47.2038062,-22.0189477993426,0.0 -47.2026472,-22.0194839993426,0.0 -47.2021362,-22.0200118993426,0.0 -47.2019925,-22.0203599993426,0.0 -47.2019941,-22.0207913993426,0.0 -47.202546,-22.0224844993426,0.0 -47.2025376,-22.0239756993425,0.0 -47.2022748,-22.0256351993425,0.0 -47.2023233,-22.0267863993425,0.0 -47.2025266,-22.0279053993424,0.0 -47.2031059,-22.0294522993424,0.0 -47.2009171,-22.0296844993424,0.0 -47.2007705,-22.0301743993424,0.0 -47.2008806,-22.0312957993423,0.0 -47.2016976,-22.0341930993423,0.0 -47.2023847,-22.0346455993423,0.0 -47.2040617,-22.0345521993423,0.0 -47.2050754,-22.0347242993423,0.0 -47.2063304,-22.0355064993423,0.0 -47.2070849,-22.0357065993422,0.0 -47.2074623,-22.0356412993423,0.0 -47.2081671,-22.0352785993423,0.0 -47.2086683,-22.0352003993423,0.0 -47.2093497,-22.0354072993423,0.0 -47.2100128,-22.0353276993423,0.0 -47.2103813,-22.0356106993422,0.0 -47.210605,-22.0356782993422,0.0 -47.2110561,-22.0356528993422,0.0 -47.2118769,-22.0353784993423,0.0 -47.2123175,-22.0354101993423,0.0 -47.2126117,-22.0355228993423,0.0 -47.213295,-22.0360955993422,0.0 -47.2143942,-22.0363870993422,0.0 -47.2150636,-22.0370480993422,0.0 -47.2153573,-22.0372309993422,0.0 -47.2178356,-22.0380437993422,0.0 -47.2194795,-22.0391966993422,0.0 -47.2206341,-22.0400063993421,0.0 -47.2225019,-22.0424123993421,0.0 -47.226665,-22.0485077993419,0.0 -47.2270374,-22.0488708993419,0.0 -47.2281713,-22.0496363993419,0.0 -47.2287941,-22.0504625993419,0.0 -47.2293987,-22.0507561993419,0.0 -47.2298109,-22.0512412993419,0.0 -47.230334,-22.0516581993419,0.0 -47.2308879,-22.0524653993418,0.0 -47.2317246,-22.0533425993418,0.0 -47.2324357,-22.0534769993418,0.0 -47.2328878,-22.0542638993418,0.0 -47.2331527,-22.0544032993418,0.0 -47.2337795,-22.0544370993418,0.0 -47.2336819,-22.0548158993418,0.0 -47.2339726,-22.0560974993418,0.0 -47.2339529,-22.0564075993418,0.0 -47.233771,-22.0566633993418,0.0 -47.2319621,-22.0579484993417,0.0 -47.2310364,-22.0584459993417,0.0 -47.2307557,-22.0588010993417,0.0 -47.2308065,-22.0589953993417,0.0 -47.231155,-22.0592927993417,0.0 -47.2317376,-22.0593580993417,0.0 -47.2320367,-22.0596947993417,0.0 -47.231947,-22.0609203993417,0.0 -47.2324982,-22.0615836993416,0.0 -47.2325536,-22.0618851993416,0.0 -47.232459,-22.0620376993416,0.0 -47.2321061,-22.0621560993416,0.0 -47.2316186,-22.0620704993416,0.0 -47.2313615,-22.0618882993416,0.0 -47.2307628,-22.0609425993417,0.0 -47.2305305,-22.0608521993416,0.0 -47.2298279,-22.0624046993416,0.0 -47.2295661,-22.0624424993416,0.0 -47.2292757,-22.0621079993416,0.0 -47.2289772,-22.0608070993417,0.0 -47.2288674,-22.0606291993417,0.0 -47.2284766,-22.0604261993417,0.0 -47.2280849,-22.0605035993417,0.0 -47.2275865,-22.0612521993416,0.0 -47.2272296,-22.0616184993416,0.0 -47.2262382,-22.0621113993416,0.0 -47.2254224,-22.0622763993416,0.0 -47.2238246,-22.0623498993416,0.0 -47.2234063,-22.0622742993416,0.0 -47.2231869,-22.0621178993416,0.0 -47.2230143,-22.0613873993416,0.0 -47.2229115,-22.0612672993416,0.0 -47.2227011,-22.0611444993416,0.0 -47.222354,-22.0611211993416,0.0 -47.2220863,-22.0613257993416,0.0 -47.2221204,-22.0615050993416,0.0 -47.2225677,-22.0621273993416,0.0 -47.2227674,-22.0628589993416,0.0 -47.223085,-22.0634964993416,0.0 -47.2230517,-22.0641905993416,0.0 -47.2225439,-22.0643053993416,0.0 -47.222141,-22.0642330993416,0.0 -47.2217283,-22.0640219993416,0.0 -47.220592,-22.0629418993416,0.0 -47.2203612,-22.0629817993416,0.0 -47.2202677,-22.0630910993416,0.0 -47.2202274,-22.0639124993416,0.0 -47.2201215,-22.0644032993416,0.0 -47.2200164,-22.0645120993416,0.0 -47.219737,-22.0644520993416,0.0 -47.2188263,-22.0638475993416,0.0 -47.218501,-22.0637937993416,0.0 -47.2179636,-22.0645047993416,0.0 -47.2177429,-22.0656107993415,0.0 -47.2177867,-22.0663556993415,0.0 -47.2183488,-22.0673762993415,0.0 -47.2181142,-22.0681428993415,0.0 -47.2182403,-22.0682424993415,0.0 -47.2190425,-22.0682395993415,0.0 -47.2193583,-22.0687117993415,0.0 -47.219469,-22.0693569993414,0.0 -47.2199911,-22.0697549993414,0.0 -47.2199871,-22.0698994993414,0.0 -47.2192458,-22.0703927993414,0.0 -47.2187843,-22.0709955993414,0.0 -47.218763,-22.0716227993414,0.0 -47.2189412,-22.0721530993414,0.0 -47.2186334,-22.0727486993414,0.0 -47.2190093,-22.0734856993413,0.0 -47.2192609,-22.0744278993413,0.0 -47.2194368,-22.0747432993413,0.0 -47.2197909,-22.0751262993413,0.0 -47.2205108,-22.0756672993413,0.0 -47.2205019,-22.0761565993413,0.0 -47.2196644,-22.0769756993413,0.0 -47.2196946,-22.0772563993413,0.0 -47.2200526,-22.0775973993413,0.0 -47.2200176,-22.0778429993413,0.0 -47.2198506,-22.0779879993413,0.0 -47.2194642,-22.0781157993412,0.0 -47.2181704,-22.0781774993412,0.0 -47.2177566,-22.0783715993412,0.0 -47.2176149,-22.0785750993412,0.0 -47.2175863,-22.0788685993412,0.0 -47.2178491,-22.0799621993412,0.0 -47.2178178,-22.0803517993412,0.0 -47.2176368,-22.0806057993412,0.0 -47.217125,-22.0810231993412,0.0 -47.216781,-22.0816837993412,0.0 -47.216489,-22.0820301993412,0.0 -47.2160129,-22.0822288993411,0.0 -47.2158499,-22.0821898993411,0.0 -47.2156206,-22.0818532993412,0.0 -47.2154265,-22.0817347993412,0.0 -47.2151262,-22.0817888993412,0.0 -47.2151379,-22.0820696993412,0.0 -47.2154794,-22.0827343993411,0.0 -47.215461,-22.0831172993411,0.0 -47.2152555,-22.0832156993411,0.0 -47.2145593,-22.0832723993411,0.0 -47.2141575,-22.0836618993411,0.0 -47.2140017,-22.0840588993411,0.0 -47.2139635,-22.0844697993411,0.0 -47.2140217,-22.0853598993411,0.0 -47.2131154,-22.086638899341,0.0 -47.2128814,-22.087351599341,0.0 -47.2127173,-22.087577599341,0.0 -47.2124703,-22.087651799341,0.0 -47.2118417,-22.087471299341,0.0 -47.2104833,-22.087520399341,0.0 -47.2100633,-22.087945099341,0.0 -47.2101639,-22.088375199341,0.0 -47.2099035,-22.088564799341,0.0 -47.2098978,-22.088724499341,0.0 -47.2100412,-22.088910099341,0.0 -47.2098706,-22.089027099341,0.0 -47.2095855,-22.088966799341,0.0 -47.2094097,-22.089070899341,0.0 -47.2095366,-22.089479599341,0.0 -47.2092128,-22.089514699341,0.0 -47.2090405,-22.089386299341,0.0 -47.2087463,-22.089434399341,0.0 -47.2086973,-22.089665099341,0.0 -47.2088634,-22.089923499341,0.0 -47.2088408,-22.090031299341,0.0 -47.2087204,-22.090133299341,0.0 -47.2083265,-22.090116099341,0.0 -47.2081973,-22.090320999341,0.0 -47.2083931,-22.0909508993409,0.0 -47.2082651,-22.0910901993409,0.0 -47.2079883,-22.0910580993409,0.0 -47.2077314,-22.090529099341,0.0 -47.2074904,-22.090519099341,0.0 -47.2073852,-22.0906899993409,0.0 -47.2073079,-22.0916930993409,0.0 -47.2071942,-22.0918177993409,0.0 -47.2067099,-22.0920044993409,0.0 -47.2069334,-22.0923586993409,0.0 -47.2069152,-22.0926167993409,0.0 -47.2065874,-22.0928376993409,0.0 -47.2062298,-22.0927492993409,0.0 -47.206065,-22.0926067993409,0.0 -47.2055726,-22.0927004993409,0.0 -47.2051066,-22.0926488993409,0.0 -47.2049959,-22.0928518993409,0.0 -47.2050225,-22.0935286993409,0.0 -47.2049476,-22.0937160993409,0.0 -47.2041023,-22.0940674993409,0.0 -47.2034691,-22.0945875993409,0.0 -47.2026678,-22.0960190993408,0.0 -47.2016871,-22.0968670993408,0.0 -47.2012191,-22.0971972993408,0.0 -47.2001293,-22.0976301993408,0.0 -47.1996122,-22.0976519993408,0.0 -47.1986072,-22.0974108993408,0.0 -47.1981904,-22.0974439993408,0.0 -47.1981486,-22.0976470993408,0.0 -47.1983463,-22.0979544993408,0.0 -47.198298,-22.0980908993408,0.0 -47.197839,-22.0981544993408,0.0 -47.1977104,-22.0983872993408,0.0 -47.1977352,-22.0985167993408,0.0 -47.1974889,-22.0987168993408,0.0 -47.2323355,-22.0931137993409,0.0 -47.2328358,-22.0927956993409,0.0 -47.2334108,-22.0922531993409,0.0 -47.2347337,-22.0907755993409,0.0 -47.2349128,-22.090702599341,0.0 -47.2350919,-22.0906294993409,0.0 -47.2356288,-22.090557299341,0.0 -47.237407,-22.0906960993409,0.0 -47.2384473,-22.0909688993409,0.0 -47.2410912,-22.0907720993409,0.0 -47.2423574,-22.0907846993409,0.0 -47.2430786,-22.0910173993409,0.0 -47.2462776,-22.0928839993409,0.0 -47.2469541,-22.0930798993409,0.0 -47.2474401,-22.0930988993409,0.0 -47.2480121,-22.0929822993409,0.0 -47.2495101,-22.0924686993409,0.0 -47.2509835,-22.0921746993409,0.0 -47.2524569,-22.0918806993409,0.0 -47.2540263,-22.0918240993409,0.0 -47.2542066,-22.0918175993409,0.0 -47.2543205,-22.0918134993409,0.0 -47.2547761,-22.0916982993409,0.0 -47.255191,-22.0914807993409,0.0 -47.2554449,-22.0913222993409,0.0 -47.2556564,-22.089876999341,0.0 -47.25593,-22.089206199341,0.0 -47.2565495,-22.088195499341,0.0 -47.2568799,-22.087857799341,0.0 -47.2569948,-22.088133799341,0.0 -47.2572413,-22.088719999341,0.0 -47.2574664,-22.088901699341,0.0 -47.2577233,-22.088904199341,0.0 -47.2582427,-22.088568699341,0.0 -47.2587146,-22.088599799341,0.0 -47.2588353,-22.088671199341,0.0 -47.2589561,-22.088742699341,0.0 -47.2590449,-22.088974599341,0.0 -47.2588555,-22.089713499341,0.0 -47.2588736,-22.090267799341,0.0 -47.2583152,-22.0911164993409,0.0 -47.2584419,-22.0914289993409,0.0 -47.2592112,-22.0918936993409,0.0 -47.2601242,-22.0922357993409,0.0 -47.2609207,-22.0928012993409,0.0 -47.2623075,-22.0946796993409,0.0 -47.2628201,-22.0950160993408,0.0 -47.2634996,-22.0951894993408,0.0 -47.2637964,-22.0953714993408,0.0 -47.2644234,-22.0964018993408,0.0 -47.2653111,-22.0969899993408,0.0 -47.2659765,-22.0972149993408,0.0 -47.2663258,-22.0972319993408,0.0 -47.266868,-22.0970303993408,0.0 -47.2676211,-22.0973892993408,0.0 -47.2679378,-22.0973590993408,0.0 -47.2685303,-22.0970149993408,0.0 -47.2688484,-22.0969776993408,0.0 -47.2690309,-22.0970543993408,0.0 -47.2691096,-22.0972147993408,0.0 -47.2691086,-22.0978869993408,0.0 -47.269704,-22.0985034993408,0.0 -47.2702042,-22.0986318993408,0.0 -47.2716001,-22.0987545993408,0.0 -47.2718823,-22.0988973993408,0.0 -47.2720713,-22.0993903993407,0.0 -47.271791,-22.1009774993407,0.0 -47.2716347,-22.1014886993407,0.0 -47.2711055,-22.1024159993407,0.0 -47.2710997,-22.1029863993407,0.0 -47.2711764,-22.1031184993407,0.0 -47.271253,-22.1032504993406,0.0 -47.2716728,-22.1035399993406,0.0 -47.2720386,-22.1036807993406,0.0 -47.2728701,-22.1037606993406,0.0 -47.2741896,-22.1034282993406,0.0 -47.2765436,-22.1023366993407,0.0 -47.2769979,-22.1023489993407,0.0 -47.2776594,-22.1025548993407,0.0 -47.2785023,-22.1026783993407,0.0 -47.2788165,-22.1028645993407,0.0 -47.2791326,-22.1033160993406,0.0 -47.279979,-22.1031017993407,0.0 -47.2808482,-22.1026718993407,0.0 -47.2811227,-22.1027333993407,0.0 -47.2815898,-22.1031721993407,0.0 -47.2822488,-22.1030625993407,0.0 -47.2824835,-22.1031251993407,0.0 -47.2827249,-22.1033524993406,0.0 -47.2828446,-22.1037123993406,0.0 -47.2829992,-22.1038273993406,0.0 -47.2837357,-22.1038026993406,0.0 -47.2851751,-22.1035604993406,0.0 -47.2855438,-22.1034560993406,0.0 -47.2858568,-22.1032190993406,0.0 -47.2860698,-22.1029414993407,0.0 -47.2862828,-22.1026639993407,0.0 -47.2870219,-22.1022170993407,0.0 -47.2874402,-22.1017227993407,0.0 -47.2879305,-22.1015091993407,0.0 -47.2881699,-22.1014839993407,0.0 -47.2882896,-22.1014712993407,0.0 -47.2884092,-22.1014586993407,0.0 -47.2888334,-22.1015748993407,0.0 -47.2897787,-22.1023413993407,0.0 -47.2906589,-22.1027627993407,0.0 -47.2913832,-22.1032812993406,0.0 -47.2928333,-22.1040791993406,0.0 -47.2933627,-22.1041879993406,0.0 -47.2940139,-22.1041654993406,0.0 -47.2942566,-22.1041570993406,0.0 -47.294829,-22.1039643993406,0.0 -47.2950827,-22.1038789993406,0.0 -47.2961442,-22.1031997993406,0.0 -47.2965618,-22.1030262993407,0.0 -47.2974306,-22.1028900993407,0.0 -47.3009297,-22.1029276993407,0.0 -47.3015174,-22.1028096993407,0.0 -47.3023477,-22.1024013993407,0.0 -47.3037037,-22.1012362993407,0.0 -47.3042404,-22.1009660993407,0.0 -47.3053594,-22.1007906993407,0.0 -47.3057057,-22.1006465993407,0.0 -47.3059995,-22.1004041993407,0.0 -47.3065702,-22.0996806993407,0.0 -47.3079096,-22.0987628993408,0.0 -47.3086664,-22.0984522993408,0.0 -47.3098146,-22.0977620993408,0.0 -47.3101865,-22.0976307993408,0.0 -47.3110014,-22.0976908993408,0.0 -47.3115645,-22.0970442993408,0.0 -47.3121671,-22.0957477993408,0.0 -47.312712,-22.0950770993408,0.0 -47.313515,-22.0946298993409,0.0 -47.3142609,-22.0945685993409,0.0 -47.3146512,-22.0944370993409,0.0 -47.315071,-22.0941342993409,0.0 -47.3156527,-22.0935261993409,0.0 -47.316634,-22.0933880993409,0.0 -47.3176942,-22.0928344993409,0.0 -47.3180389,-22.0927442993409,0.0 -47.3195905,-22.0926698993409,0.0 -47.3200196,-22.0927241993409,0.0 -47.3212836,-22.0934603993409,0.0 -47.3216955,-22.0935489993409,0.0 -47.3221433,-22.0934943993409,0.0 -47.3230893,-22.0929342993409,0.0 -47.3235492,-22.0928505993409,0.0 -47.3244034,-22.0930838993409,0.0 -47.3244841,-22.0931298993409,0.0 -47.3249295,-22.0933837993409,0.0 -47.3253904,-22.0936460993409,0.0 -47.3256528,-22.0935946993409,0.0 -47.3260289,-22.0931893993409,0.0 -47.3264436,-22.0924585993409,0.0 -47.3273005,-22.0918139993409,0.0 -47.3274423,-22.0907816993409,0.0 -47.3277202,-22.090360799341,0.0 -47.3279938,-22.090154399341,0.0 -47.3290828,-22.089768999341,0.0 -47.329464,-22.089419599341,0.0 -47.3298317,-22.089314099341,0.0 -47.3304295,-22.089493899341,0.0 -47.331883,-22.090593499341,0.0 -47.3325748,-22.090484099341,0.0 -47.3338915,-22.090577099341,0.0 -47.3350503,-22.0908918993409,0.0 -47.3366469,-22.0909116993409,0.0 -47.337087,-22.0906904993409,0.0 -47.3377592,-22.089951099341,0.0 -47.3379232,-22.089845399341,0.0 -47.3382654,-22.089808999341,0.0 -47.3389352,-22.090104899341,0.0 -47.3393385,-22.090500499341,0.0 -47.3397343,-22.0907258993409,0.0 -47.3413522,-22.0908704993409,0.0 -47.3420993,-22.0911937993409,0.0 -47.3426365,-22.0918571993409,0.0 -47.3433901,-22.0924548993409,0.0 -47.3443031,-22.0935423993409,0.0 -47.345653,-22.0944121993409,0.0 -47.3462865,-22.0950911993408,0.0 -47.34664,-22.0952663993408,0.0 -47.3471148,-22.0953395993408,0.0 -47.3484057,-22.0950332993408,0.0 -47.3500963,-22.0950962993408,0.0 -47.3514989,-22.0949732993408,0.0 -47.3521305,-22.0947642993409,0.0 -47.3540946,-22.0934866993409,0.0 -47.3548483,-22.0932394993409,0.0 -47.35587,-22.0931279993409,0.0 -47.359157,-22.0933408993409,0.0 -47.3599999,-22.0935456993409,0.0 -47.3624964,-22.0938604993409,0.0 -47.3642436,-22.0934627993409,0.0 -47.365911,-22.0932757993409,0.0 -47.3674397,-22.0933994993409,0.0 -47.3687187,-22.0936344993409,0.0 -47.3691612,-22.0938167993409,0.0 -47.3698728,-22.0942373993409,0.0 -47.3706901,-22.0951762993408,0.0 -47.3712373,-22.0956072993408,0.0 -47.3725465,-22.0963377993408,0.0 -47.3731516,-22.0963621993408,0.0 -47.3741692,-22.0961937993408,0.0 -47.3750737,-22.0957907993408,0.0 -47.3761288,-22.0956095993408,0.0 -47.3770609,-22.0957962993408,0.0 -47.3774909,-22.0957893993408,0.0 -47.3780813,-22.0956307993408,0.0 -47.3922107,-22.088644599341,0.0 -47.3958635,-22.088164999341,0.0 -47.3970273,-22.087732699341,0.0 -47.3978936,-22.087208499341,0.0 -47.3985054,-22.086549099341,0.0 -47.3996666,-22.0848816993411,0.0 -47.421133,-22.0740949993413,0.0 -47.4217056,-22.0738072993413,0.0 -47.4227839,-22.0732654993414,0.0 -47.4228229,-22.0732458993414,0.0 -47.4228471,-22.0732336993414,0.0 -47.4234513,-22.0729300993414,0.0 -47.4236378,-22.0728362993414,0.0 -47.4237597,-22.0727750993414,0.0</coordinates>
</LinearRing>
</outerBoundaryIs>
</Polygon>
</MultiGeometry>
</Placemark>
</Folder>
</Document></kml>
