<?xml version='1.0' encoding='UTF-8'?>
<kml xmlns:xsd="http://www.w3.org/2001/XMLSchema" xmlns:gx="http://www.google.com/kml/ext/2.2" xmlns:atom="http://www.w3.org/2005/Atom" xmlns="http://www.opengis.net/kml/2.2">
<Document>
<name>santa_gertrudes_3546702_localidades_2022</name>
<visibility>1</visibility>
<Schema name="01. Cidade" id="kml_schema_ft_01._Cidade">
<SimpleField type="xsd:string" name="CD_UF">
<displayName>CD_UF</displayName>
</SimpleField>
<SimpleField type="xsd:string" name="NM_UF">
<displayName>NM_UF</displayName>
</SimpleField>
<SimpleField type="xsd:string" name="SIGLA_UF">
<displayName>SIGLA_UF</displayName>
</SimpleField>
<SimpleField type="xsd:string" name="CD_MUN">
<displayName>CD_MUN</displayName>
</SimpleField>
<SimpleField type="xsd:string" name="NM_MUN">
<displayName>NM_MUN</displayName>
</SimpleField>
<SimpleField type="xsd:string" name="CD_RGINT">
<displayName>CD_RGINT</displayName>
</SimpleField>
<SimpleField type="xsd:string" name="NM_RGINT">
<displayName>NM_RGINT</displayName>
</SimpleField>
<SimpleField type="xsd:string" name="CD_RGI">
<displayName>CD_RGI</displayName>
</SimpleField>
<SimpleField type="xsd:string" name="NM_RGI">
<displayName>NM_RGI</displayName>
</SimpleField>
<SimpleField type="xsd:string" name="CT_LOCALIDADE">
<displayName>CT_LOCALIDADE</displayName>
</SimpleField>
<SimpleField type="xsd:string" name="SCT_LOCALIDADE">
<displayName>SCT_LOCALIDADE</displayName>
</SimpleField>
<SimpleField type="xsd:string" name="CD_LOCALIDADE">
<displayName>CD_LOCALIDADE</displayName>
</SimpleField>
<SimpleField type="xsd:string" name="NM_LOCALIDADE">
<displayName>NM_LOCALIDADE</displayName>
</SimpleField>
<SimpleField type="xsd:string" name="LAT_LOCALIDADE">
<displayName>LAT_LOCALIDADE</displayName>
</SimpleField>
<SimpleField type="xsd:string" name="LONG_LOCALIDADE">
<displayName>LONG_LOCALIDADE</displayName>
</SimpleField>
</Schema>
<Schema name="Município" id="kml_schema_ft_Município">
<SimpleField type="xsd:string" name="CD_UF">
<displayName>CD_UF</displayName>
</SimpleField>
<SimpleField type="xsd:string" name="NM_UF">
<displayName>NM_UF</displayName>
</SimpleField>
<SimpleField type="xsd:string" name="CD_MUN">
<displayName>CD_MUN</displayName>
</SimpleField>
<SimpleField type="xsd:string" name="NM_MUN">
<displayName>NM_MUN</displayName>
</SimpleField>
<SimpleField type="xsd:string" name="CD_RGINT">
<displayName>CD_RGINT</displayName>
</SimpleField>
<SimpleField type="xsd:string" name="NM_RGINT">
<displayName>NM_RGINT</displayName>
</SimpleField>
<SimpleField type="xsd:string" name="CD_RGI">
<displayName>CD_RGI</displayName>
</SimpleField>
<SimpleField type="xsd:string" name="NM_RGI">
<displayName>NM_RGI</displayName>
</SimpleField>
</Schema>
<Folder id="01. Cidade">
<name>01. Cidade</name>
<Folder id="01.03. Sede Municipal">
<name>01.03. Sede Municipal</name>
<Placemark id="01.03. Sede Municipal">
<name>Santa Gertrudes [3546702]</name>
<visibility>1</visibility>
<snippet> </snippet>
<description>&lt;center&gt;&lt;table&gt;&lt;tr&gt;&lt;th colspan='2' align='center'&gt;&lt;em&gt;Atributos&lt;/em&gt;&lt;/th&gt;&lt;/tr&gt;&lt;tr bgcolor="#E3E3F3"&gt;
&lt;th&gt;CD_UF&lt;/th&gt;
&lt;td&gt;35&lt;/td&gt;
&lt;/tr&gt;&lt;tr bgcolor=""&gt;
&lt;th&gt;NM_UF&lt;/th&gt;
&lt;td&gt;São Paulo&lt;/td&gt;
&lt;/tr&gt;&lt;tr bgcolor="#E3E3F3"&gt;
&lt;th&gt;SIGLA_UF&lt;/th&gt;
&lt;td&gt;SP&lt;/td&gt;
&lt;/tr&gt;&lt;tr bgcolor=""&gt;
&lt;th&gt;CD_MUN&lt;/th&gt;
&lt;td&gt;3546702&lt;/td&gt;
&lt;/tr&gt;&lt;tr bgcolor="#E3E3F3"&gt;
&lt;th&gt;NM_MUN&lt;/th&gt;
&lt;td&gt;Santa Gertrudes&lt;/td&gt;
&lt;/tr&gt;&lt;tr bgcolor=""&gt;
&lt;th&gt;CD_RGINT&lt;/th&gt;
&lt;td&gt;3510&lt;/td&gt;
&lt;/tr&gt;&lt;tr bgcolor="#E3E3F3"&gt;
&lt;th&gt;NM_RGINT&lt;/th&gt;
&lt;td&gt;Campinas&lt;/td&gt;
&lt;/tr&gt;&lt;tr bgcolor=""&gt;
&lt;th&gt;CD_RGI&lt;/th&gt;
&lt;td&gt;350046&lt;/td&gt;
&lt;/tr&gt;&lt;tr bgcolor="#E3E3F3"&gt;
&lt;th&gt;NM_RGI&lt;/th&gt;
&lt;td&gt;Rio Claro&lt;/td&gt;
&lt;/tr&gt;&lt;tr bgcolor=""&gt;
&lt;th&gt;CT_LOCALIDADE&lt;/th&gt;
&lt;td&gt;Cidade&lt;/td&gt;
&lt;/tr&gt;&lt;tr bgcolor="#E3E3F3"&gt;
&lt;th&gt;SCT_LOCALIDADE&lt;/th&gt;
&lt;td&gt;Sede Municipal&lt;/td&gt;
&lt;/tr&gt;&lt;tr bgcolor=""&gt;
&lt;th&gt;CD_LOCALIDADE&lt;/th&gt;
&lt;td&gt;3546702&lt;/td&gt;
&lt;/tr&gt;&lt;tr bgcolor="#E3E3F3"&gt;
&lt;th&gt;NM_LOCALIDADE&lt;/th&gt;
&lt;td&gt;Santa Gertrudes&lt;/td&gt;
&lt;/tr&gt;&lt;tr bgcolor=""&gt;
&lt;th&gt;LAT_LOCALIDADE&lt;/th&gt;
&lt;td&gt;-22.4556&lt;/td&gt;
&lt;/tr&gt;&lt;tr bgcolor="#E3E3F3"&gt;
&lt;th&gt;LONG_LOCALIDADE&lt;/th&gt;
&lt;td&gt;-47.5248&lt;/td&gt;
&lt;/tr&gt;&lt;/table&gt;&lt;/center&gt;</description>
<Style>
<IconStyle>
<color>ff00aaff</color>
<scale>1.0</scale>
<Icon>
<href>http://maps.google.com/mapfiles/kml/shapes/placemark_circle.png</href>
</Icon>
</IconStyle>
<LabelStyle>
<scale>1.0</scale>
</LabelStyle>
<LineStyle>
<color>ffffffff</color>
<width>3</width>
<gx:labelVisibility>1</gx:labelVisibility>
</LineStyle>
<PolyStyle>
<color>00ffffff</color>
</PolyStyle>
</Style>
<ExtendedData>
<SchemaData schemaUrl="#kml_schema_ft_01._Cidade">
<SimpleData name="CD_UF">35</SimpleData>
<SimpleData name="NM_UF">São Paulo</SimpleData>
<SimpleData name="SIGLA_UF">SP</SimpleData>
<SimpleData name="CD_MUN">3546702</SimpleData>
<SimpleData name="NM_MUN">Santa Gertrudes</SimpleData>
<SimpleData name="CD_RGINT">3510</SimpleData>
<SimpleData name="NM_RGINT">Campinas</SimpleData>
<SimpleData name="CD_RGI">350046</SimpleData>
<SimpleData name="NM_RGI">Rio Claro</SimpleData>
<SimpleData name="CT_LOCALIDADE">Cidade</SimpleData>
<SimpleData name="SCT_LOCALIDADE">Sede Municipal</SimpleData>
<SimpleData name="CD_LOCALIDADE">3546702</SimpleData>
<SimpleData name="NM_LOCALIDADE">Santa Gertrudes</SimpleData>
<SimpleData name="LAT_LOCALIDADE">-22.4556</SimpleData>
<SimpleData name="LONG_LOCALIDADE">-47.5248</SimpleData>
</SchemaData>
</ExtendedData>
<Point>
<extrude>0</extrude>
<coordinates>-47.5248,-22.4555999993324,0.0</coordinates>
</Point>
</Placemark>
</Folder>
</Folder>
<Folder id="13. Referência">
<name>13. Referência</name>
<Placemark id="13. Referência">
<name>Santa Gertrudes [3546702]</name>
<visibility>1</visibility>
<snippet> </snippet>
<description>&lt;center&gt;&lt;table&gt;&lt;tr&gt;&lt;th colspan='2' align='center'&gt;&lt;em&gt;Attributes&lt;/em&gt;&lt;/th&gt;&lt;/tr&gt;&lt;tr bgcolor="#E3E3F3"&gt;
&lt;th&gt;CD_UF&lt;/th&gt;
&lt;td&gt;35&lt;/td&gt;
&lt;/tr&gt;&lt;tr bgcolor=""&gt;
&lt;th&gt;NM_UF&lt;/th&gt;
&lt;td&gt;São Paulo&lt;/td&gt;
&lt;/tr&gt;&lt;tr bgcolor="#E3E3F3"&gt;
&lt;th&gt;CD_MUN&lt;/th&gt;
&lt;td&gt;3546702&lt;/td&gt;
&lt;/tr&gt;&lt;tr bgcolor=""&gt;
&lt;th&gt;NM_MUN&lt;/th&gt;
&lt;td&gt;Santa Gertrudes&lt;/td&gt;
&lt;/tr&gt;&lt;tr bgcolor="#E3E3F3"&gt;
&lt;th&gt;CD_RGINT&lt;/th&gt;
&lt;td&gt;3510&lt;/td&gt;
&lt;/tr&gt;&lt;tr bgcolor=""&gt;
&lt;th&gt;NM_RGINT&lt;/th&gt;
&lt;td&gt;Campinas&lt;/td&gt;
&lt;/tr&gt;&lt;tr bgcolor="#E3E3F3"&gt;
&lt;th&gt;CD_RGI&lt;/th&gt;
&lt;td&gt;350046&lt;/td&gt;
&lt;/tr&gt;&lt;tr bgcolor=""&gt;
&lt;th&gt;NM_RGI&lt;/th&gt;
&lt;td&gt;Rio Claro&lt;/td&gt;
&lt;/tr&gt;&lt;/table&gt;&lt;/center&gt;</description>
<Style>
<IconStyle>
<scale>0.7</scale>
</IconStyle>
<LabelStyle>
<scale>0.7</scale>
</LabelStyle>
<LineStyle>
<color>ffffffff</color>
<width>3</width>
<gx:labelVisibility>1</gx:labelVisibility>
</LineStyle>
<PolyStyle>
<color>00ffffff</color>
</PolyStyle>
</Style>
<ExtendedData>
<SchemaData schemaUrl="#kml_schema_ft_Município">
<SimpleData name="CD_UF">35</SimpleData>
<SimpleData name="NM_UF">São Paulo</SimpleData>
<SimpleData name="CD_MUN">3546702</SimpleData>
<SimpleData name="NM_MUN">Santa Gertrudes</SimpleData>
<SimpleData name="CD_RGINT">3510</SimpleData>
<SimpleData name="NM_RGINT">Campinas</SimpleData>
<SimpleData name="CD_RGI">350046</SimpleData>
<SimpleData name="NM_RGI">Rio Claro</SimpleData>
</SchemaData>
</ExtendedData>
<MultiGeometry>
<Polygon>
<extrude>0</extrude>
<tessellate>1</tessellate>
<outerBoundaryIs>
<LinearRing>
<coordinates>-47.5634349,-22.4593614993323,0.0 -47.5634486,-22.4586031993323,0.0 -47.5631416,-22.4581576993323,0.0 -47.5622391,-22.4579060993323,0.0 -47.5605974,-22.4579739993323,0.0 -47.5603367,-22.4578701993323,0.0 -47.5601716,-22.4575300993324,0.0 -47.559769,-22.4571121993324,0.0 -47.5594668,-22.4570642993324,0.0 -47.5588859,-22.4572191993324,0.0 -47.5576833,-22.4585117993323,0.0 -47.5572876,-22.4586758993323,0.0 -47.5567465,-22.4586444993323,0.0 -47.5565828,-22.4583161993323,0.0 -47.5565483,-22.4579695993323,0.0 -47.5566412,-22.4576010993324,0.0 -47.5569311,-22.4571181993324,0.0 -47.5571802,-22.4569266993324,0.0 -47.5581359,-22.4567407993324,0.0 -47.5585728,-22.4564839993324,0.0 -47.5588923,-22.4561594993324,0.0 -47.5591136,-22.4557070993324,0.0 -47.5590423,-22.4548322993324,0.0 -47.5588814,-22.4546748993324,0.0 -47.5585523,-22.4546635993324,0.0 -47.5575644,-22.4550369993324,0.0 -47.5572654,-22.4550681993324,0.0 -47.5570347,-22.4547794993324,0.0 -47.5570873,-22.4537719993324,0.0 -47.5569587,-22.4536949993324,0.0 -47.556114,-22.4537485993324,0.0 -47.5558828,-22.4531159993325,0.0 -47.5558799,-22.4531080993325,0.0 -47.5556515,-22.4524832993325,0.0 -47.5555012,-22.4522765993325,0.0 -47.554615,-22.4510576993325,0.0 -47.5537292,-22.4501558993325,0.0 -47.5523108,-22.4489325993325,0.0 -47.550303,-22.4477973993326,0.0 -47.5486436,-22.4473492993326,0.0 -47.5476979,-22.4468679993326,0.0 -47.5476026,-22.4468319993326,0.0 -47.5471861,-22.4466743993326,0.0 -47.5470998,-22.4466416993326,0.0 -47.5467523,-22.4464733993326,0.0 -47.5464472,-22.4463255993326,0.0 -47.5464048,-22.4463049993326,0.0 -47.5462765,-22.4462428993326,0.0 -47.5462124,-22.4462118993326,0.0 -47.5461483,-22.4461807993326,0.0 -47.5460983,-22.4460974993326,0.0 -47.5460708,-22.4460516993326,0.0 -47.5459222,-22.4458040993326,0.0 -47.5458806,-22.4457347993326,0.0 -47.5457766,-22.4455042993326,0.0 -47.5456873,-22.4453067993326,0.0 -47.5456725,-22.4452738993326,0.0 -47.5451818,-22.4444263993327,0.0 -47.544692,-22.4435325993327,0.0 -47.5444887,-22.4432217993327,0.0 -47.5440454,-22.4425058993327,0.0 -47.5438921,-22.4422583993327,0.0 -47.5436658,-22.4418930993327,0.0 -47.5435006,-22.4416027993327,0.0 -47.5430669,-22.4408406993327,0.0 -47.5429339,-22.4406070993327,0.0 -47.5426647,-22.4401338993328,0.0 -47.5420496,-22.4395474993328,0.0 -47.5417707,-22.4392971993328,0.0 -47.5414918,-22.4390468993328,0.0 -47.5409864,-22.4390157993328,0.0 -47.5406981,-22.4389466993328,0.0 -47.5405755,-22.4389172993328,0.0 -47.5403719,-22.4388684993328,0.0 -47.5401825,-22.4388230993328,0.0 -47.5398956,-22.4387542993328,0.0 -47.539723,-22.4387128993328,0.0 -47.5390768,-22.4385579993328,0.0 -47.5388465,-22.4384059993328,0.0 -47.5386534,-22.4382785993328,0.0 -47.5377308,-22.4376696993328,0.0 -47.5376464,-22.4375946993328,0.0 -47.537562,-22.4375196993328,0.0 -47.5372408,-22.4372458993328,0.0 -47.5369195,-22.4369719993328,0.0 -47.5368881,-22.4369209993328,0.0 -47.5363125,-22.4359844993329,0.0 -47.5349391,-22.4340724993329,0.0 -47.5345318,-22.4336526993329,0.0 -47.533926,-22.4332149993329,0.0 -47.533142,-22.4328870993329,0.0 -47.5327503,-22.4325776993329,0.0 -47.5325643,-22.4324307993329,0.0 -47.5322718,-22.4320514993329,0.0 -47.5320626,-22.431512299333,0.0 -47.5318534,-22.430973099333,0.0 -47.5317291,-22.430362299333,0.0 -47.5313603,-22.429785699333,0.0 -47.5313472,-22.429776599333,0.0 -47.5309733,-22.429514099333,0.0 -47.5303573,-22.429378999333,0.0 -47.5298893,-22.429387299333,0.0 -47.5294212,-22.429395599333,0.0 -47.5278614,-22.429987899333,0.0 -47.5252488,-22.431514399333,0.0 -47.5224677,-22.4336084993329,0.0 -47.5214774,-22.4340354993329,0.0 -47.5205138,-22.4342882993329,0.0 -47.5199021,-22.4343519993329,0.0 -47.5192719,-22.4342297993329,0.0 -47.5185259,-22.4339221993329,0.0 -47.5163603,-22.4327002993329,0.0 -47.5141251,-22.431197899333,0.0 -47.5135523,-22.430928699333,0.0 -47.5119341,-22.430477499333,0.0 -47.5113566,-22.429956399333,0.0 -47.5099442,-22.428012999333,0.0 -47.5092333,-22.427307699333,0.0 -47.5080071,-22.4264379993331,0.0 -47.5059946,-22.4253955993331,0.0 -47.5050209,-22.4250941993331,0.0 -47.5041047,-22.4251860993331,0.0 -47.502637,-22.4259255993331,0.0 -47.5013748,-22.4261177993331,0.0 -47.5006009,-22.4260759993331,0.0 -47.4997411,-22.4257718993331,0.0 -47.4978591,-22.4242689993331,0.0 -47.4967691,-22.4231493993331,0.0 -47.4955827,-22.4220941993332,0.0 -47.4950513,-22.4218364993332,0.0 -47.4940057,-22.4215347993332,0.0 -47.4922784,-22.4205297993332,0.0 -47.4914313,-22.4198728993332,0.0 -47.4909341,-22.4191526993332,0.0 -47.4907863,-22.4186766993333,0.0 -47.4907341,-22.4174448993333,0.0 -47.490807,-22.4160319993333,0.0 -47.4905923,-22.4149896993333,0.0 -47.4902643,-22.4143742993333,0.0 -47.4897443,-22.4139578993334,0.0 -47.4893564,-22.4138317993334,0.0 -47.4889754,-22.4138928993334,0.0 -47.4879767,-22.4146465993334,0.0 -47.4867908,-22.4149558993333,0.0 -47.4852102,-22.4148484993333,0.0 -47.4846553,-22.4148845993333,0.0 -47.4826026,-22.4155375993333,0.0 -47.481565,-22.4156064993333,0.0 -47.4784191,-22.4152311993333,0.0 -47.4775531,-22.4152044993333,0.0 -47.4766853,-22.4153637993333,0.0 -47.4758461,-22.4153893993333,0.0 -47.4742631,-22.4152925993333,0.0 -47.4734869,-22.4148433993333,0.0 -47.4720463,-22.4136393993334,0.0 -47.4711745,-22.4126596993334,0.0 -47.4707709,-22.4124150993334,0.0 -47.4701284,-22.4122670993334,0.0 -47.468979,-22.4124410993334,0.0 -47.4674531,-22.4132596993334,0.0 -47.4672702,-22.4132630993334,0.0 -47.4675486,-22.4140221993334,0.0 -47.4675235,-22.4156732993333,0.0 -47.4671078,-22.4181808993333,0.0 -47.4670311,-22.4186431993333,0.0 -47.4667053,-22.4199918993332,0.0 -47.4664609,-22.4233519993331,0.0 -47.4663305,-22.4240990993331,0.0 -47.4641378,-22.430061199333,0.0 -47.4632131,-22.4341146993329,0.0 -47.4630567,-22.4352058993329,0.0 -47.4629639,-22.4419535993327,0.0 -47.4634221,-22.4437050993327,0.0 -47.464155,-22.4452402993326,0.0 -47.4642149,-22.4460749993326,0.0 -47.4636798,-22.4494009993325,0.0 -47.463664,-22.4494990993325,0.0 -47.4634397,-22.4508932993325,0.0 -47.4633982,-22.4522488993325,0.0 -47.4635588,-22.4526580993325,0.0 -47.4639891,-22.4532470993324,0.0 -47.4647542,-22.4539947993324,0.0 -47.4812683,-22.4701341993321,0.0 -47.4818178,-22.470671199332,0.0 -47.4874672,-22.4761923993319,0.0 -47.4875913,-22.4763135993319,0.0 -47.4878796,-22.4765952993319,0.0 -47.4910685,-22.4795639993318,0.0 -47.4920131,-22.4806176993318,0.0 -47.4926016,-22.4820858993318,0.0 -47.4930432,-22.4843868993317,0.0 -47.4932981,-22.4876799993316,0.0 -47.4931337,-22.4895448993316,0.0 -47.4925976,-22.4910604993316,0.0 -47.4904532,-22.4951937993315,0.0 -47.4900558,-22.4970466993314,0.0 -47.4900083,-22.4981189993314,0.0 -47.4905215,-22.5008201993313,0.0 -47.4904125,-22.5021452993313,0.0 -47.4898135,-22.5038785993313,0.0 -47.4886785,-22.5051560993312,0.0 -47.4883619,-22.5059307993312,0.0 -47.4883283,-22.5066656993312,0.0 -47.4889812,-22.5087522993312,0.0 -47.4907251,-22.5111199993311,0.0 -47.4920946,-22.5126986993311,0.0 -47.4928562,-22.513922199331,0.0 -47.4931661,-22.514966599331,0.0 -47.4932606,-22.515647299331,0.0 -47.4932501,-22.517299099331,0.0 -47.4926007,-22.5193988993309,0.0 -47.4921388,-22.5204293993309,0.0 -47.4918411,-22.5209252993309,0.0 -47.4900318,-22.5229028993308,0.0 -47.489384,-22.5238305993308,0.0 -47.4906282,-22.5233790993308,0.0 -47.4938398,-22.5233185993308,0.0 -47.4946643,-22.5233930993308,0.0 -47.4962475,-22.5237398993308,0.0 -47.4978785,-22.5239797993308,0.0 -47.4993111,-22.5245911993308,0.0 -47.5020468,-22.5237067993308,0.0 -47.5024002,-22.5237227993308,0.0 -47.5038487,-22.5241818993308,0.0 -47.5073102,-22.5256800993308,0.0 -47.5082756,-22.5263794993307,0.0 -47.5093676,-22.5269311993307,0.0 -47.509511,-22.5272353993307,0.0 -47.509266,-22.5290971993307,0.0 -47.5090956,-22.5327498993306,0.0 -47.5091912,-22.5342153993306,0.0 -47.5096743,-22.5349718993306,0.0 -47.5107677,-22.5354346993305,0.0 -47.511923,-22.5355925993305,0.0 -47.5159789,-22.5355025993305,0.0 -47.5194474,-22.5352181993305,0.0 -47.5220751,-22.5348955993306,0.0 -47.5231981,-22.5346016993306,0.0 -47.5243114,-22.5341814993306,0.0 -47.5258712,-22.5333692993306,0.0 -47.5264044,-22.5329114993306,0.0 -47.5269346,-22.5322701993306,0.0 -47.5277685,-22.5308957993306,0.0 -47.527937,-22.5297697993307,0.0 -47.5275009,-22.5272172993307,0.0 -47.5278855,-22.5252962993308,0.0 -47.5287368,-22.5235917993308,0.0 -47.5300157,-22.5216040993309,0.0 -47.531115,-22.5201710993309,0.0 -47.5327834,-22.5187786993309,0.0 -47.5344035,-22.5178779993309,0.0 -47.5355239,-22.517510999331,0.0 -47.5368938,-22.517238499331,0.0 -47.5387601,-22.517252799331,0.0 -47.5404495,-22.5177832993309,0.0 -47.5410841,-22.5183416993309,0.0 -47.5416391,-22.5194362993309,0.0 -47.5422291,-22.5201367993309,0.0 -47.5428103,-22.5205869993309,0.0 -47.5433822,-22.5208614993309,0.0 -47.5446214,-22.5211383993309,0.0 -47.5475548,-22.5214280993309,0.0 -47.5478165,-22.5212613993309,0.0 -47.5485966,-22.5202010993309,0.0 -47.5496248,-22.5197449993309,0.0 -47.5512153,-22.5194145993309,0.0 -47.5527504,-22.5195216993309,0.0 -47.553937,-22.5201145993309,0.0 -47.5549859,-22.5208854993309,0.0 -47.5562315,-22.5221325993308,0.0 -47.5582402,-22.5239376993308,0.0 -47.5612846,-22.5259000993308,0.0 -47.5626522,-22.5265981993307,0.0 -47.5647335,-22.5238535993308,0.0 -47.5661909,-22.5224524993308,0.0 -47.5674092,-22.5205230993309,0.0 -47.5690907,-22.5187982993309,0.0 -47.5697561,-22.5179400993309,0.0 -47.5722637,-22.516693899331,0.0 -47.5765119,-22.515358499331,0.0 -47.5773448,-22.514999599331,0.0 -47.5786528,-22.514065299331,0.0 -47.5789554,-22.513476799331,0.0 -47.5791978,-22.5127185993311,0.0 -47.5793261,-22.5111476993311,0.0 -47.5792331,-22.5091895993311,0.0 -47.5789988,-22.5070036993312,0.0 -47.5777425,-22.4767853993319,0.0 -47.5777382,-22.4766890993319,0.0 -47.5774391,-22.4764144993319,0.0 -47.5765282,-22.4755784993319,0.0 -47.5764653,-22.4750895993319,0.0 -47.5765724,-22.4747701993319,0.0 -47.5771647,-22.474455699332,0.0 -47.5787448,-22.474377999332,0.0 -47.5789279,-22.474268399332,0.0 -47.5789679,-22.474055999332,0.0 -47.57883,-22.473567799332,0.0 -47.578285,-22.472630999332,0.0 -47.5780146,-22.471852499332,0.0 -47.5781537,-22.470843899332,0.0 -47.5777612,-22.470477799332,0.0 -47.5763489,-22.4703561993321,0.0 -47.5753146,-22.4699878993321,0.0 -47.5749053,-22.4693971993321,0.0 -47.5743021,-22.4690882993321,0.0 -47.5739472,-22.4691479993321,0.0 -47.5726378,-22.4697019993321,0.0 -47.5720422,-22.4698158993321,0.0 -47.5716986,-22.4697806993321,0.0 -47.5715407,-22.4696629993321,0.0 -47.5714644,-22.4693982993321,0.0 -47.5716138,-22.4690284993321,0.0 -47.5724224,-22.4681596993321,0.0 -47.5720123,-22.4665368993321,0.0 -47.5721951,-22.4649834993322,0.0 -47.5721599,-22.4648930993322,0.0 -47.5721186,-22.4647871993322,0.0 -47.5717737,-22.4646331993322,0.0 -47.57105,-22.4646575993322,0.0 -47.5705098,-22.4647718993322,0.0 -47.5690395,-22.4654201993322,0.0 -47.5683883,-22.4658528993322,0.0 -47.5680953,-22.4659634993322,0.0 -47.5680161,-22.4659315993322,0.0 -47.5679368,-22.4658996993322,0.0 -47.5678778,-22.4657678993322,0.0 -47.5679582,-22.4655022993322,0.0 -47.5688159,-22.4641176993322,0.0 -47.5694006,-22.4625181993322,0.0 -47.5696644,-22.4614407993323,0.0 -47.5695095,-22.4607540993323,0.0 -47.5692663,-22.4606922993323,0.0 -47.5691101,-22.4607490993323,0.0 -47.5684179,-22.4615423993323,0.0 -47.5678017,-22.4620797993322,0.0 -47.5670418,-22.4625701993322,0.0 -47.5662814,-22.4623161993322,0.0 -47.5661159,-22.4619211993322,0.0 -47.5661215,-22.4612975993323,0.0 -47.5659703,-22.4609301993323,0.0 -47.56525,-22.4603783993323,0.0 -47.5638575,-22.4598303993323,0.0 -47.5635948,-22.4595826993323,0.0 -47.5634349,-22.4593614993323,0.0</coordinates>
</LinearRing>
</outerBoundaryIs>
</Polygon>
</MultiGeometry>
</Placemark>
</Folder>
</Document></kml>
