<?xml version='1.0' encoding='UTF-8'?>
<kml xmlns:xsd="http://www.w3.org/2001/XMLSchema" xmlns:gx="http://www.google.com/kml/ext/2.2" xmlns:atom="http://www.w3.org/2005/Atom" xmlns="http://www.opengis.net/kml/2.2">
<Document>
<name>terra_roxa_3554409_localidades_2022</name>
<visibility>1</visibility>
<Schema name="Núcleos Urbanos" id="kml_schema_ft_Núcleos_Urbanos">
<SimpleField type="xsd:string" name="CD_UF">
<displayName>CD_UF</displayName>
</SimpleField>
<SimpleField type="xsd:string" name="NM_UF">
<displayName>NM_UF</displayName>
</SimpleField>
<SimpleField type="xsd:string" name="SIGLA_UF">
<displayName>SIGLA_UF</displayName>
</SimpleField>
<SimpleField type="xsd:string" name="CD_MUN">
<displayName>CD_MUN</displayName>
</SimpleField>
<SimpleField type="xsd:string" name="NM_MUN">
<displayName>NM_MUN</displayName>
</SimpleField>
<SimpleField type="xsd:string" name="CD_RGINT">
<displayName>CD_RGINT</displayName>
</SimpleField>
<SimpleField type="xsd:string" name="NM_RGINT">
<displayName>NM_RGINT</displayName>
</SimpleField>
<SimpleField type="xsd:string" name="CD_RGI">
<displayName>CD_RGI</displayName>
</SimpleField>
<SimpleField type="xsd:string" name="NM_RGI">
<displayName>NM_RGI</displayName>
</SimpleField>
<SimpleField type="xsd:string" name="CT_LOCALIDADE">
<displayName>CT_LOCALIDADE</displayName>
</SimpleField>
<SimpleField type="xsd:string" name="CD_LOCALIDADE">
<displayName>CD_LOCALIDADE</displayName>
</SimpleField>
<SimpleField type="xsd:string" name="NM_LOCALIDADE">
<displayName>NM_LOCALIDADE</displayName>
</SimpleField>
<SimpleField type="xsd:string" name="LAT_LOCALIDADE">
<displayName>LAT_LOCALIDADE</displayName>
</SimpleField>
<SimpleField type="xsd:string" name="LONG_LOCALIDADE">
<displayName>LONG_LOCALIDADE</displayName>
</SimpleField>
</Schema>
<Schema name="01. Cidade" id="kml_schema_ft_01._Cidade">
<SimpleField type="xsd:string" name="CD_UF">
<displayName>CD_UF</displayName>
</SimpleField>
<SimpleField type="xsd:string" name="NM_UF">
<displayName>NM_UF</displayName>
</SimpleField>
<SimpleField type="xsd:string" name="SIGLA_UF">
<displayName>SIGLA_UF</displayName>
</SimpleField>
<SimpleField type="xsd:string" name="CD_MUN">
<displayName>CD_MUN</displayName>
</SimpleField>
<SimpleField type="xsd:string" name="NM_MUN">
<displayName>NM_MUN</displayName>
</SimpleField>
<SimpleField type="xsd:string" name="CD_RGINT">
<displayName>CD_RGINT</displayName>
</SimpleField>
<SimpleField type="xsd:string" name="NM_RGINT">
<displayName>NM_RGINT</displayName>
</SimpleField>
<SimpleField type="xsd:string" name="CD_RGI">
<displayName>CD_RGI</displayName>
</SimpleField>
<SimpleField type="xsd:string" name="NM_RGI">
<displayName>NM_RGI</displayName>
</SimpleField>
<SimpleField type="xsd:string" name="CT_LOCALIDADE">
<displayName>CT_LOCALIDADE</displayName>
</SimpleField>
<SimpleField type="xsd:string" name="SCT_LOCALIDADE">
<displayName>SCT_LOCALIDADE</displayName>
</SimpleField>
<SimpleField type="xsd:string" name="CD_LOCALIDADE">
<displayName>CD_LOCALIDADE</displayName>
</SimpleField>
<SimpleField type="xsd:string" name="NM_LOCALIDADE">
<displayName>NM_LOCALIDADE</displayName>
</SimpleField>
<SimpleField type="xsd:string" name="LAT_LOCALIDADE">
<displayName>LAT_LOCALIDADE</displayName>
</SimpleField>
<SimpleField type="xsd:string" name="LONG_LOCALIDADE">
<displayName>LONG_LOCALIDADE</displayName>
</SimpleField>
</Schema>
<Schema name="Município" id="kml_schema_ft_Município">
<SimpleField type="xsd:string" name="CD_UF">
<displayName>CD_UF</displayName>
</SimpleField>
<SimpleField type="xsd:string" name="NM_UF">
<displayName>NM_UF</displayName>
</SimpleField>
<SimpleField type="xsd:string" name="CD_MUN">
<displayName>CD_MUN</displayName>
</SimpleField>
<SimpleField type="xsd:string" name="NM_MUN">
<displayName>NM_MUN</displayName>
</SimpleField>
<SimpleField type="xsd:string" name="CD_RGINT">
<displayName>CD_RGINT</displayName>
</SimpleField>
<SimpleField type="xsd:string" name="NM_RGINT">
<displayName>NM_RGINT</displayName>
</SimpleField>
<SimpleField type="xsd:string" name="CD_RGI">
<displayName>CD_RGI</displayName>
</SimpleField>
<SimpleField type="xsd:string" name="NM_RGI">
<displayName>NM_RGI</displayName>
</SimpleField>
</Schema>
<Folder id="01. Cidade">
<name>01. Cidade</name>
<Folder id="01.03. Sede Municipal">
<name>01.03. Sede Municipal</name>
<Placemark id="01.03. Sede Municipal">
<name>Terra Roxa [3554409]</name>
<visibility>1</visibility>
<snippet> </snippet>
<description>&lt;center&gt;&lt;table&gt;&lt;tr&gt;&lt;th colspan='2' align='center'&gt;&lt;em&gt;Atributos&lt;/em&gt;&lt;/th&gt;&lt;/tr&gt;&lt;tr bgcolor="#E3E3F3"&gt;
&lt;th&gt;CD_UF&lt;/th&gt;
&lt;td&gt;35&lt;/td&gt;
&lt;/tr&gt;&lt;tr bgcolor=""&gt;
&lt;th&gt;NM_UF&lt;/th&gt;
&lt;td&gt;São Paulo&lt;/td&gt;
&lt;/tr&gt;&lt;tr bgcolor="#E3E3F3"&gt;
&lt;th&gt;SIGLA_UF&lt;/th&gt;
&lt;td&gt;SP&lt;/td&gt;
&lt;/tr&gt;&lt;tr bgcolor=""&gt;
&lt;th&gt;CD_MUN&lt;/th&gt;
&lt;td&gt;3554409&lt;/td&gt;
&lt;/tr&gt;&lt;tr bgcolor="#E3E3F3"&gt;
&lt;th&gt;NM_MUN&lt;/th&gt;
&lt;td&gt;Terra Roxa&lt;/td&gt;
&lt;/tr&gt;&lt;tr bgcolor=""&gt;
&lt;th&gt;CD_RGINT&lt;/th&gt;
&lt;td&gt;3508&lt;/td&gt;
&lt;/tr&gt;&lt;tr bgcolor="#E3E3F3"&gt;
&lt;th&gt;NM_RGINT&lt;/th&gt;
&lt;td&gt;Ribeirão Preto&lt;/td&gt;
&lt;/tr&gt;&lt;tr bgcolor=""&gt;
&lt;th&gt;CD_RGI&lt;/th&gt;
&lt;td&gt;350032&lt;/td&gt;
&lt;/tr&gt;&lt;tr bgcolor="#E3E3F3"&gt;
&lt;th&gt;NM_RGI&lt;/th&gt;
&lt;td&gt;Barretos&lt;/td&gt;
&lt;/tr&gt;&lt;tr bgcolor=""&gt;
&lt;th&gt;CT_LOCALIDADE&lt;/th&gt;
&lt;td&gt;Cidade&lt;/td&gt;
&lt;/tr&gt;&lt;tr bgcolor="#E3E3F3"&gt;
&lt;th&gt;SCT_LOCALIDADE&lt;/th&gt;
&lt;td&gt;Sede Municipal&lt;/td&gt;
&lt;/tr&gt;&lt;tr bgcolor=""&gt;
&lt;th&gt;CD_LOCALIDADE&lt;/th&gt;
&lt;td&gt;3554409&lt;/td&gt;
&lt;/tr&gt;&lt;tr bgcolor="#E3E3F3"&gt;
&lt;th&gt;NM_LOCALIDADE&lt;/th&gt;
&lt;td&gt;Terra Roxa&lt;/td&gt;
&lt;/tr&gt;&lt;tr bgcolor=""&gt;
&lt;th&gt;LAT_LOCALIDADE&lt;/th&gt;
&lt;td&gt;-20.787&lt;/td&gt;
&lt;/tr&gt;&lt;tr bgcolor="#E3E3F3"&gt;
&lt;th&gt;LONG_LOCALIDADE&lt;/th&gt;
&lt;td&gt;-48.3314&lt;/td&gt;
&lt;/tr&gt;&lt;/table&gt;&lt;/center&gt;</description>
<Style>
<IconStyle>
<color>ff00aaff</color>
<scale>1.0</scale>
<Icon>
<href>http://maps.google.com/mapfiles/kml/shapes/placemark_circle.png</href>
</Icon>
</IconStyle>
<LabelStyle>
<scale>1.0</scale>
</LabelStyle>
<LineStyle>
<color>ffffffff</color>
<width>3</width>
<gx:labelVisibility>1</gx:labelVisibility>
</LineStyle>
<PolyStyle>
<color>00ffffff</color>
</PolyStyle>
</Style>
<ExtendedData>
<SchemaData schemaUrl="#kml_schema_ft_01._Cidade">
<SimpleData name="CD_UF">35</SimpleData>
<SimpleData name="NM_UF">São Paulo</SimpleData>
<SimpleData name="SIGLA_UF">SP</SimpleData>
<SimpleData name="CD_MUN">3554409</SimpleData>
<SimpleData name="NM_MUN">Terra Roxa</SimpleData>
<SimpleData name="CD_RGINT">3508</SimpleData>
<SimpleData name="NM_RGINT">Ribeirão Preto</SimpleData>
<SimpleData name="CD_RGI">350032</SimpleData>
<SimpleData name="NM_RGI">Barretos</SimpleData>
<SimpleData name="CT_LOCALIDADE">Cidade</SimpleData>
<SimpleData name="SCT_LOCALIDADE">Sede Municipal</SimpleData>
<SimpleData name="CD_LOCALIDADE">3554409</SimpleData>
<SimpleData name="NM_LOCALIDADE">Terra Roxa</SimpleData>
<SimpleData name="LAT_LOCALIDADE">-20.787</SimpleData>
<SimpleData name="LONG_LOCALIDADE">-48.3314</SimpleData>
</SchemaData>
</ExtendedData>
<Point>
<extrude>0</extrude>
<coordinates>-48.3314,-20.7869999993724,0.0</coordinates>
</Point>
</Placemark>
</Folder>
</Folder>
<Folder id="05. Núcleos Urbanos">
<name>05. Núcleos Urbanos</name>
<Placemark id="localidades">
<name>Banharão [3554409001]</name>
<visibility>1</visibility>
<snippet> </snippet>
<description>&lt;center&gt;&lt;table&gt;&lt;tr&gt;&lt;th colspan='2' align='center'&gt;&lt;em&gt;Attributes&lt;/em&gt;&lt;/th&gt;&lt;/tr&gt;&lt;tr bgcolor="#E3E3F3"&gt;
&lt;th&gt;CD_UF&lt;/th&gt;
&lt;td&gt;35&lt;/td&gt;
&lt;/tr&gt;&lt;tr bgcolor=""&gt;
&lt;th&gt;NM_UF&lt;/th&gt;
&lt;td&gt;São Paulo&lt;/td&gt;
&lt;/tr&gt;&lt;tr bgcolor="#E3E3F3"&gt;
&lt;th&gt;SIGLA_UF&lt;/th&gt;
&lt;td&gt;SP&lt;/td&gt;
&lt;/tr&gt;&lt;tr bgcolor=""&gt;
&lt;th&gt;CD_MUN&lt;/th&gt;
&lt;td&gt;3554409&lt;/td&gt;
&lt;/tr&gt;&lt;tr bgcolor="#E3E3F3"&gt;
&lt;th&gt;NM_MUN&lt;/th&gt;
&lt;td&gt;Terra Roxa&lt;/td&gt;
&lt;/tr&gt;&lt;tr bgcolor=""&gt;
&lt;th&gt;CD_RGINT&lt;/th&gt;
&lt;td&gt;3508&lt;/td&gt;
&lt;/tr&gt;&lt;tr bgcolor="#E3E3F3"&gt;
&lt;th&gt;NM_RGINT&lt;/th&gt;
&lt;td&gt;Ribeirão Preto&lt;/td&gt;
&lt;/tr&gt;&lt;tr bgcolor=""&gt;
&lt;th&gt;CD_RGI&lt;/th&gt;
&lt;td&gt;350032&lt;/td&gt;
&lt;/tr&gt;&lt;tr bgcolor="#E3E3F3"&gt;
&lt;th&gt;NM_RGI&lt;/th&gt;
&lt;td&gt;Barretos&lt;/td&gt;
&lt;/tr&gt;&lt;tr bgcolor=""&gt;
&lt;th&gt;CT_LOCALIDADE&lt;/th&gt;
&lt;td&gt;Núcleo Urbano&lt;/td&gt;
&lt;/tr&gt;&lt;tr bgcolor="#E3E3F3"&gt;
&lt;th&gt;CD_LOCALIDADE&lt;/th&gt;
&lt;td&gt;3554409001&lt;/td&gt;
&lt;/tr&gt;&lt;tr bgcolor=""&gt;
&lt;th&gt;NM_LOCALIDADE&lt;/th&gt;
&lt;td&gt;Banharão&lt;/td&gt;
&lt;/tr&gt;&lt;tr bgcolor="#E3E3F3"&gt;
&lt;th&gt;LAT_LOCALIDADE&lt;/th&gt;
&lt;td&gt;-20.7215&lt;/td&gt;
&lt;/tr&gt;&lt;tr bgcolor=""&gt;
&lt;th&gt;LONG_LOCALIDADE&lt;/th&gt;
&lt;td&gt;-48.3258&lt;/td&gt;
&lt;/tr&gt;&lt;/table&gt;&lt;/center&gt;</description>
<Style>
<IconStyle>
<color>ff0000ff</color>
<scale>0.9</scale>
<Icon>
<href>http://maps.google.com/mapfiles/kml/shapes/placemark_circle.png</href>
</Icon>
</IconStyle>
<LabelStyle>
<scale>0.9</scale>
</LabelStyle>
<LineStyle>
<color>72ffffff</color>
<width>1.0</width>
<gx:labelVisibility>1</gx:labelVisibility>
</LineStyle>
<PolyStyle>
<color>66ff54ff</color>
</PolyStyle>
</Style>
<ExtendedData>
<SchemaData schemaUrl="#kml_schema_ft_Núcleos_Urbanos">
<SimpleData name="CD_UF">35</SimpleData>
<SimpleData name="NM_UF">São Paulo</SimpleData>
<SimpleData name="SIGLA_UF">SP</SimpleData>
<SimpleData name="CD_MUN">3554409</SimpleData>
<SimpleData name="NM_MUN">Terra Roxa</SimpleData>
<SimpleData name="CD_RGINT">3508</SimpleData>
<SimpleData name="NM_RGINT">Ribeirão Preto</SimpleData>
<SimpleData name="CD_RGI">350032</SimpleData>
<SimpleData name="NM_RGI">Barretos</SimpleData>
<SimpleData name="CT_LOCALIDADE">Núcleo Urbano</SimpleData>
<SimpleData name="CD_LOCALIDADE">3554409001</SimpleData>
<SimpleData name="NM_LOCALIDADE">Banharão</SimpleData>
<SimpleData name="LAT_LOCALIDADE">-20.7215</SimpleData>
<SimpleData name="LONG_LOCALIDADE">-48.3258</SimpleData>
</SchemaData>
</ExtendedData>
<Point>
<extrude>0</extrude>
<coordinates>-48.32584028,-20.721524559374,0.0</coordinates>
</Point>
</Placemark>
</Folder>
<Folder id="13. Referência">
<name>13. Referência</name>
<Placemark id="13. Referência">
<name>Terra Roxa [3554409]</name>
<visibility>1</visibility>
<snippet> </snippet>
<description>&lt;center&gt;&lt;table&gt;&lt;tr&gt;&lt;th colspan='2' align='center'&gt;&lt;em&gt;Attributes&lt;/em&gt;&lt;/th&gt;&lt;/tr&gt;&lt;tr bgcolor="#E3E3F3"&gt;
&lt;th&gt;CD_UF&lt;/th&gt;
&lt;td&gt;35&lt;/td&gt;
&lt;/tr&gt;&lt;tr bgcolor=""&gt;
&lt;th&gt;NM_UF&lt;/th&gt;
&lt;td&gt;São Paulo&lt;/td&gt;
&lt;/tr&gt;&lt;tr bgcolor="#E3E3F3"&gt;
&lt;th&gt;CD_MUN&lt;/th&gt;
&lt;td&gt;3554409&lt;/td&gt;
&lt;/tr&gt;&lt;tr bgcolor=""&gt;
&lt;th&gt;NM_MUN&lt;/th&gt;
&lt;td&gt;Terra Roxa&lt;/td&gt;
&lt;/tr&gt;&lt;tr bgcolor="#E3E3F3"&gt;
&lt;th&gt;CD_RGINT&lt;/th&gt;
&lt;td&gt;3508&lt;/td&gt;
&lt;/tr&gt;&lt;tr bgcolor=""&gt;
&lt;th&gt;NM_RGINT&lt;/th&gt;
&lt;td&gt;Ribeirão Preto&lt;/td&gt;
&lt;/tr&gt;&lt;tr bgcolor="#E3E3F3"&gt;
&lt;th&gt;CD_RGI&lt;/th&gt;
&lt;td&gt;350032&lt;/td&gt;
&lt;/tr&gt;&lt;tr bgcolor=""&gt;
&lt;th&gt;NM_RGI&lt;/th&gt;
&lt;td&gt;Barretos&lt;/td&gt;
&lt;/tr&gt;&lt;/table&gt;&lt;/center&gt;</description>
<Style>
<IconStyle>
<scale>0.7</scale>
</IconStyle>
<LabelStyle>
<scale>0.7</scale>
</LabelStyle>
<LineStyle>
<color>ffffffff</color>
<width>3</width>
<gx:labelVisibility>1</gx:labelVisibility>
</LineStyle>
<PolyStyle>
<color>00ffffff</color>
</PolyStyle>
</Style>
<ExtendedData>
<SchemaData schemaUrl="#kml_schema_ft_Município">
<SimpleData name="CD_UF">35</SimpleData>
<SimpleData name="NM_UF">São Paulo</SimpleData>
<SimpleData name="CD_MUN">3554409</SimpleData>
<SimpleData name="NM_MUN">Terra Roxa</SimpleData>
<SimpleData name="CD_RGINT">3508</SimpleData>
<SimpleData name="NM_RGINT">Ribeirão Preto</SimpleData>
<SimpleData name="CD_RGI">350032</SimpleData>
<SimpleData name="NM_RGI">Barretos</SimpleData>
</SchemaData>
</ExtendedData>
<MultiGeometry>
<Polygon>
<extrude>0</extrude>
<tessellate>1</tessellate>
<outerBoundaryIs>
<LinearRing>
<coordinates>-48.2837853,-20.7361393993736,0.0 -48.2829223,-20.7380328993736,0.0 -48.281318,-20.7398378993735,0.0 -48.2804687,-20.7405260993735,0.0 -48.2795292,-20.7410573993735,0.0 -48.2779459,-20.7416923993735,0.0 -48.2760315,-20.7426745993735,0.0 -48.274281,-20.7434371993734,0.0 -48.2734234,-20.7436822993734,0.0 -48.2723846,-20.7437368993734,0.0 -48.2712584,-20.7435897993734,0.0 -48.2704719,-20.7433773993734,0.0 -48.2695339,-20.7427730993735,0.0 -48.2648436,-20.7388290993736,0.0 -48.2640753,-20.7382851993736,0.0 -48.2631958,-20.7380427993736,0.0 -48.2623878,-20.7379429993736,0.0 -48.2614036,-20.7380272993736,0.0 -48.2605749,-20.7382714993736,0.0 -48.2592661,-20.7390126993736,0.0 -48.2581228,-20.7398267993735,0.0 -48.2573487,-20.7405037993735,0.0 -48.256694,-20.7413260993735,0.0 -48.2559398,-20.7428990993735,0.0 -48.2535528,-20.7507191993733,0.0 -48.2522792,-20.7524556993732,0.0 -48.2498651,-20.7560401993731,0.0 -48.2487923,-20.7581018993731,0.0 -48.24835,-20.760693999373,0.0 -48.2475682,-20.7641744993729,0.0 -48.2468369,-20.7682000993728,0.0 -48.2451354,-20.7724399993727,0.0 -48.2442559,-20.7739357993727,0.0 -48.2438112,-20.7749169993727,0.0 -48.2435838,-20.7757399993727,0.0 -48.2434927,-20.7765700993726,0.0 -48.24467,-20.7805865993725,0.0 -48.2450822,-20.7813975993725,0.0 -48.2458399,-20.7823487993725,0.0 -48.246338,-20.7833776993725,0.0 -48.2470045,-20.7844508993724,0.0 -48.249633,-20.7876114993724,0.0 -48.2503642,-20.7892599993723,0.0 -48.2512216,-20.7907246993723,0.0 -48.2520544,-20.7916207993723,0.0 -48.2530279,-20.7924837993722,0.0 -48.2541576,-20.7933348993722,0.0 -48.2563135,-20.7946728993722,0.0 -48.2567424,-20.7951973993722,0.0 -48.2573389,-20.7962447993721,0.0 -48.2571999,-20.7996009993721,0.0 -48.2568265,-20.802372599372,0.0 -48.2561938,-20.8045794993719,0.0 -48.2556681,-20.8056903993719,0.0 -48.2552459,-20.8062530993719,0.0 -48.256131,-20.8071418993719,0.0 -48.2566792,-20.8081705993719,0.0 -48.2569914,-20.8087578993718,0.0 -48.2570258,-20.8102059993718,0.0 -48.2572199,-20.8112453993718,0.0 -48.2574334,-20.8115449993718,0.0 -48.2578077,-20.8124455993717,0.0 -48.2583683,-20.8131247993717,0.0 -48.2588938,-20.8139673993717,0.0 -48.2594832,-20.8151774993717,0.0 -48.2596248,-20.8164599993716,0.0 -48.259725,-20.8166792993716,0.0 -48.2608804,-20.8178452993716,0.0 -48.2628534,-20.8188198993716,0.0 -48.2649423,-20.8196525993716,0.0 -48.2657292,-20.8199162993716,0.0 -48.2679389,-20.8204038993716,0.0 -48.2707265,-20.8211687993715,0.0 -48.2735716,-20.8222397993715,0.0 -48.2759134,-20.8223896993715,0.0 -48.2780149,-20.8233009993715,0.0 -48.2792366,-20.8234045993715,0.0 -48.2805879,-20.8236401993715,0.0 -48.2809475,-20.8235864993715,0.0 -48.2946388,-20.8328334993713,0.0 -48.2947209,-20.8328331993713,0.0 -48.2947736,-20.8328328993712,0.0 -48.2948133,-20.8328327993712,0.0 -48.2949272,-20.8328322993712,0.0 -48.3434941,-20.8325587993712,0.0 -48.3585697,-20.8194862993716,0.0 -48.3600191,-20.8207531993715,0.0 -48.3622467,-20.8220842993715,0.0 -48.3638981,-20.8236052993715,0.0 -48.3652422,-20.8252728993714,0.0 -48.3668938,-20.8264302993714,0.0 -48.3672037,-20.8268597993714,0.0 -48.3675378,-20.8276176993714,0.0 -48.3680398,-20.8279976993714,0.0 -48.368504,-20.8282090993714,0.0 -48.3689768,-20.8286754993713,0.0 -48.3693173,-20.8292391993713,0.0 -48.3704521,-20.8299728993713,0.0 -48.3709082,-20.8308390993713,0.0 -48.3711415,-20.8310276993713,0.0 -48.3719444,-20.8313319993713,0.0 -48.372772,-20.8321087993713,0.0 -48.3741728,-20.8329050993712,0.0 -48.3746079,-20.8335852993712,0.0 -48.3752138,-20.8342503993712,0.0 -48.3755358,-20.8344562993712,0.0 -48.3764407,-20.8347089993712,0.0 -48.3768022,-20.8349142993712,0.0 -48.3774105,-20.8363120993712,0.0 -48.3784786,-20.8372153993711,0.0 -48.378878,-20.8380042993711,0.0 -48.3792484,-20.8383583993711,0.0 -48.3795155,-20.8388791993711,0.0 -48.3799044,-20.8392788993711,0.0 -48.3800467,-20.8402068993711,0.0 -48.3809634,-20.841537299371,0.0 -48.3826746,-20.842570599371,0.0 -48.3842157,-20.842779299371,0.0 -48.3849249,-20.843485499371,0.0 -48.3858748,-20.843560599371,0.0 -48.3865147,-20.843778599371,0.0 -48.3873361,-20.843871999371,0.0 -48.3881328,-20.843699099371,0.0 -48.3886928,-20.843738999371,0.0 -48.3889908,-20.843868399371,0.0 -48.3896854,-20.844398699371,0.0 -48.3907308,-20.844673999371,0.0 -48.3913114,-20.8452184993709,0.0 -48.3922237,-20.8452995993709,0.0 -48.3925287,-20.8454228993709,0.0 -48.3928093,-20.8456831993709,0.0 -48.3930864,-20.8461691993709,0.0 -48.3938459,-20.8466358993709,0.0 -48.3944576,-20.8473028993709,0.0 -48.3952005,-20.8478274993709,0.0 -48.395558,-20.8485563993709,0.0 -48.3956682,-20.8494725993708,0.0 -48.3961724,-20.8495394993708,0.0 -48.399081,-20.8509571993708,0.0 -48.4023462,-20.8521705993708,0.0 -48.4093491,-20.8542542993707,0.0 -48.4097065,-20.8527043993708,0.0 -48.409736,-20.8518548993708,0.0 -48.4096286,-20.8511493993708,0.0 -48.4086243,-20.8477920993709,0.0 -48.4083433,-20.8459055993709,0.0 -48.4081552,-20.841769399371,0.0 -48.4080376,-20.841440599371,0.0 -48.4077135,-20.841028699371,0.0 -48.4112919,-20.8403772993711,0.0 -48.4136129,-20.8396679993711,0.0 -48.4144228,-20.8391371993711,0.0 -48.4150986,-20.8382815993711,0.0 -48.4156725,-20.8372939993711,0.0 -48.4161576,-20.8354854993712,0.0 -48.4164836,-20.8349901993712,0.0 -48.4168091,-20.8346893993712,0.0 -48.4173988,-20.8336113993712,0.0 -48.4177602,-20.8327302993712,0.0 -48.4181961,-20.8320667993713,0.0 -48.4185733,-20.8310439993713,0.0 -48.419375,-20.8278974993714,0.0 -48.4200806,-20.8266215993714,0.0 -48.4210079,-20.8257192993714,0.0 -48.4219877,-20.8250616993714,0.0 -48.4237691,-20.8233139993715,0.0 -48.4246826,-20.8221364993715,0.0 -48.424735,-20.8220689993715,0.0 -48.4252791,-20.8216240993715,0.0 -48.425578,-20.8215211993715,0.0 -48.4266127,-20.8214575993715,0.0 -48.4277352,-20.8211014993715,0.0 -48.4284723,-20.8210263993715,0.0 -48.4292218,-20.8210604993715,0.0 -48.4298272,-20.8208298993715,0.0 -48.4299984,-20.8204879993716,0.0 -48.4300977,-20.8190718993716,0.0 -48.4302011,-20.8187980993716,0.0 -48.4306925,-20.8182450993716,0.0 -48.4310394,-20.8176722993716,0.0 -48.4317753,-20.8155449993717,0.0 -48.4324319,-20.8143169993717,0.0 -48.4329407,-20.8130805993717,0.0 -48.4336731,-20.8119603993718,0.0 -48.4343434,-20.8102521993718,0.0 -48.434846,-20.8096815993718,0.0 -48.435948,-20.8088576993718,0.0 -48.437398,-20.8071962993719,0.0 -48.4379178,-20.8067846993719,0.0 -48.4386395,-20.8063948993719,0.0 -48.4406014,-20.8056328993719,0.0 -48.4411225,-20.8053139993719,0.0 -48.4415802,-20.804027299372,0.0 -48.4416088,-20.802935599372,0.0 -48.4419694,-20.802382899372,0.0 -48.4425221,-20.801046199372,0.0 -48.443122,-20.800363499372,0.0 -48.4438094,-20.8001741993721,0.0 -48.4441085,-20.7999056993721,0.0 -48.444618,-20.7990913993721,0.0 -48.4450961,-20.7987152993721,0.0 -48.4453842,-20.7980126993721,0.0 -48.4452238,-20.7969895993721,0.0 -48.4456231,-20.7959835993721,0.0 -48.4456649,-20.7955789993722,0.0 -48.4455406,-20.7950106993722,0.0 -48.445984,-20.7929341993722,0.0 -48.4461111,-20.7926637993722,0.0 -48.4468475,-20.7921087993722,0.0 -48.4471877,-20.7904600993723,0.0 -48.447486,-20.7897684993723,0.0 -48.447417,-20.7889760993723,0.0 -48.4476091,-20.7881928993723,0.0 -48.4476095,-20.7877365993724,0.0 -48.4470512,-20.7875016993724,0.0 -48.4467273,-20.7871861993724,0.0 -48.4460679,-20.7868507993724,0.0 -48.4452746,-20.7862077993724,0.0 -48.4452055,-20.7859706993724,0.0 -48.4454429,-20.7856020993724,0.0 -48.4454449,-20.7851817993724,0.0 -48.4459762,-20.7849748993724,0.0 -48.4460422,-20.7848266993724,0.0 -48.4459305,-20.7839940993724,0.0 -48.4461562,-20.7835279993725,0.0 -48.4470556,-20.7829016993725,0.0 -48.4480299,-20.7825127993725,0.0 -48.4485698,-20.7821773993725,0.0 -48.4486142,-20.7819618993725,0.0 -48.4483292,-20.7811372993725,0.0 -48.4484369,-20.7806375993725,0.0 -48.4499915,-20.7781819993726,0.0 -48.450871,-20.7772840993726,0.0 -48.4509625,-20.7768063993726,0.0 -48.4507643,-20.7765245993726,0.0 -48.4497343,-20.7759424993726,0.0 -48.4490878,-20.7757280993726,0.0 -48.4481128,-20.7756381993727,0.0 -48.4465901,-20.7757853993726,0.0 -48.4459268,-20.7756874993727,0.0 -48.4451299,-20.7753782993727,0.0 -48.4450177,-20.7749795993727,0.0 -48.4451052,-20.7744297993727,0.0 -48.4455303,-20.7732913993727,0.0 -48.4453833,-20.7723731993727,0.0 -48.4453858,-20.7714686993728,0.0 -48.4453384,-20.7712394993728,0.0 -48.445117,-20.7709622993728,0.0 -48.4448926,-20.7709775993728,0.0 -48.4445683,-20.7712506993728,0.0 -48.4444415,-20.7712492993728,0.0 -48.4440185,-20.7709403993728,0.0 -48.4433739,-20.7713021993728,0.0 -48.4422008,-20.7713237993728,0.0 -48.442055,-20.7714477993728,0.0 -48.4416882,-20.7721991993727,0.0 -48.441515,-20.7723366993727,0.0 -48.4410646,-20.7725129993727,0.0 -48.4402598,-20.7724995993727,0.0 -48.4400536,-20.7726468993727,0.0 -48.4397825,-20.7731997993727,0.0 -48.4391904,-20.7734641993727,0.0 -48.4384185,-20.7732358993727,0.0 -48.4381023,-20.7732373993727,0.0 -48.437759,-20.7733747993727,0.0 -48.4371757,-20.7733748993727,0.0 -48.4368204,-20.7727405993727,0.0 -48.4366711,-20.7726187993727,0.0 -48.4355229,-20.7723287993727,0.0 -48.4345638,-20.7717047993727,0.0 -48.4329202,-20.7710612993728,0.0 -48.4326839,-20.7710329993728,0.0 -48.4321878,-20.7711977993728,0.0 -48.4317323,-20.7711173993728,0.0 -48.4311689,-20.7700020993728,0.0 -48.4311362,-20.7692458993728,0.0 -48.4310193,-20.7691070993728,0.0 -48.4305759,-20.7689334993728,0.0 -48.4304962,-20.7687769993728,0.0 -48.4305482,-20.7683556993728,0.0 -48.4304012,-20.7682231993728,0.0 -48.4295611,-20.7679682993728,0.0 -48.4288789,-20.7671326993729,0.0 -48.427892,-20.7648335993729,0.0 -48.4272412,-20.7644750993729,0.0 -48.426317,-20.7641580993729,0.0 -48.4259279,-20.763399399373,0.0 -48.4254836,-20.762834299373,0.0 -48.4253901,-20.762553999373,0.0 -48.4254607,-20.762071199373,0.0 -48.4259309,-20.761618399373,0.0 -48.4274785,-20.760635199373,0.0 -48.4277871,-20.760527199373,0.0 -48.428517,-20.760589499373,0.0 -48.4290008,-20.760731999373,0.0 -48.4299468,-20.761346699373,0.0 -48.4303752,-20.761795199373,0.0 -48.4309747,-20.762137699373,0.0 -48.431496,-20.762095099373,0.0 -48.4315955,-20.762004699373,0.0 -48.4317116,-20.761509899373,0.0 -48.4316515,-20.760348699373,0.0 -48.431412,-20.7592581993731,0.0 -48.431601,-20.7586108993731,0.0 -48.4314498,-20.7578346993731,0.0 -48.4315504,-20.7573465993731,0.0 -48.4317321,-20.7571075993731,0.0 -48.4325654,-20.7566295993731,0.0 -48.4335255,-20.7566245993731,0.0 -48.4339908,-20.7567997993731,0.0 -48.4346356,-20.7574802993731,0.0 -48.4355155,-20.7580342993731,0.0 -48.435986,-20.7582258993731,0.0 -48.4367046,-20.7582301993731,0.0 -48.4371305,-20.7579081993731,0.0 -48.4377496,-20.7571135993731,0.0 -48.4383999,-20.7567259993731,0.0 -48.4387073,-20.7564136993731,0.0 -48.4392431,-20.7555056993731,0.0 -48.4402944,-20.7548483993732,0.0 -48.4408072,-20.7540430993732,0.0 -48.4414191,-20.7533922993732,0.0 -48.4417782,-20.7527954993732,0.0 -48.441666,-20.7524218993732,0.0 -48.4413175,-20.7523368993732,0.0 -48.4399167,-20.7531224993732,0.0 -48.439612,-20.7532296993732,0.0 -48.4391437,-20.7532388993732,0.0 -48.4382536,-20.7529104993732,0.0 -48.4370819,-20.7527385993732,0.0 -48.4362539,-20.7528108993732,0.0 -48.4358587,-20.7527405993732,0.0 -48.4348028,-20.7522951993732,0.0 -48.4341497,-20.7522102993732,0.0 -48.4319988,-20.7523064993732,0.0 -48.4314421,-20.7522632993732,0.0 -48.4306706,-20.7520529993732,0.0 -48.4297384,-20.7514315993732,0.0 -48.429333,-20.7513518993732,0.0 -48.4278159,-20.7516386993732,0.0 -48.4259252,-20.7510330993733,0.0 -48.4245175,-20.7509083993733,0.0 -48.4242433,-20.7506807993733,0.0 -48.4240053,-20.7500205993733,0.0 -48.4237095,-20.7481092993733,0.0 -48.4235589,-20.7479469993733,0.0 -48.4233233,-20.7478745993733,0.0 -48.420989,-20.7485955993733,0.0 -48.420731,-20.7487393993733,0.0 -48.4201095,-20.7495193993733,0.0 -48.4196249,-20.7496341993733,0.0 -48.4177357,-20.7481537993733,0.0 -48.4167154,-20.7467428993734,0.0 -48.4161073,-20.7466628993734,0.0 -48.4144228,-20.7468000993734,0.0 -48.41341,-20.7466206993734,0.0 -48.4129266,-20.7463907993734,0.0 -48.41218,-20.7456105993734,0.0 -48.4118142,-20.7452291993734,0.0 -48.4117934,-20.7452075993734,0.0 -48.4111039,-20.7444885993734,0.0 -48.4110837,-20.7441260993734,0.0 -48.4114527,-20.7431840993735,0.0 -48.4113191,-20.7424543993735,0.0 -48.4110234,-20.7421360993735,0.0 -48.409671,-20.7422065993735,0.0 -48.4088435,-20.7428142993735,0.0 -48.4085272,-20.7429488993735,0.0 -48.4079968,-20.7429254993735,0.0 -48.4071813,-20.7426073993735,0.0 -48.4064003,-20.7424227993735,0.0 -48.4059655,-20.7422035993735,0.0 -48.4057495,-20.7419904993735,0.0 -48.4055926,-20.7410853993735,0.0 -48.4053755,-20.7409288993735,0.0 -48.4047587,-20.7407982993735,0.0 -48.4044464,-20.7400464993735,0.0 -48.4027068,-20.7391774993736,0.0 -48.4021806,-20.7386239993736,0.0 -48.401921,-20.7384976993736,0.0 -48.4012224,-20.7385019993736,0.0 -48.4008764,-20.7382216993736,0.0 -48.4007345,-20.7373530993736,0.0 -48.4005093,-20.7372350993736,0.0 -48.3997995,-20.7370986993736,0.0 -48.3994479,-20.7367857993736,0.0 -48.3991454,-20.7368353993736,0.0 -48.3986719,-20.7373257993736,0.0 -48.398192,-20.7372877993736,0.0 -48.3979598,-20.7370704993736,0.0 -48.3978917,-20.7368072993736,0.0 -48.3983135,-20.7358957993736,0.0 -48.3983101,-20.7356742993736,0.0 -48.3980036,-20.7355464993736,0.0 -48.3973434,-20.7356284993736,0.0 -48.3970603,-20.7354402993736,0.0 -48.3971424,-20.7345950993737,0.0 -48.3970462,-20.7344416993737,0.0 -48.3966664,-20.7343735993737,0.0 -48.3966017,-20.7342787993737,0.0 -48.3967053,-20.7335000993737,0.0 -48.3966423,-20.7333602993737,0.0 -48.3964494,-20.7332514993737,0.0 -48.395195,-20.7332953993737,0.0 -48.3946241,-20.7328861993737,0.0 -48.3942879,-20.7322875993737,0.0 -48.3940311,-20.7320605993737,0.0 -48.3937151,-20.7325002993737,0.0 -48.393495,-20.7325804993737,0.0 -48.3931291,-20.7324992993737,0.0 -48.3925447,-20.7329257993737,0.0 -48.3923982,-20.7329102993737,0.0 -48.392288,-20.7327995993737,0.0 -48.3921116,-20.7320630993737,0.0 -48.3919666,-20.7319287993737,0.0 -48.3918398,-20.7319048993737,0.0 -48.3915325,-20.7321081993737,0.0 -48.3913541,-20.7320735993737,0.0 -48.3911988,-20.7317796993737,0.0 -48.3910593,-20.7317318993737,0.0 -48.3906432,-20.7318398993737,0.0 -48.3900018,-20.7313366993737,0.0 -48.3893419,-20.7313350993737,0.0 -48.3892061,-20.7312396993737,0.0 -48.3890518,-20.7308152993738,0.0 -48.3891052,-20.7304876993738,0.0 -48.3888859,-20.7296102993738,0.0 -48.3889882,-20.7293903993738,0.0 -48.3895733,-20.7288702993738,0.0 -48.3894243,-20.7285072993738,0.0 -48.3889814,-20.7284820993738,0.0 -48.3884316,-20.7286729993738,0.0 -48.3882315,-20.7284478993738,0.0 -48.3881312,-20.7277029993738,0.0 -48.3879705,-20.7276077993738,0.0 -48.3870798,-20.7277164993738,0.0 -48.386847,-20.7275163993738,0.0 -48.3865237,-20.7269577993738,0.0 -48.3849072,-20.7270285993739,0.0 -48.3844241,-20.7267149993739,0.0 -48.3843367,-20.7264528993739,0.0 -48.3844796,-20.7258113993739,0.0 -48.3844328,-20.7252572993739,0.0 -48.3845965,-20.7246514993739,0.0 -48.3845619,-20.7243911993739,0.0 -48.3843718,-20.7241293993739,0.0 -48.3841702,-20.7240463993739,0.0 -48.3835847,-20.7240606993739,0.0 -48.3815344,-20.7245600993739,0.0 -48.3794665,-20.7246286993739,0.0 -48.3787677,-20.7245636993739,0.0 -48.3776078,-20.7242108993739,0.0 -48.3767224,-20.7235538993739,0.0 -48.376621,-20.7232824993739,0.0 -48.37674,-20.722506099374,0.0 -48.3766812,-20.722150499374,0.0 -48.3762575,-20.722098899374,0.0 -48.3757658,-20.721837199374,0.0 -48.3754181,-20.721809699374,0.0 -48.3744861,-20.722748599374,0.0 -48.3741354,-20.722827199374,0.0 -48.3738027,-20.722783899374,0.0 -48.3735858,-20.722649999374,0.0 -48.3733382,-20.722200899374,0.0 -48.3733042,-20.721434799374,0.0 -48.3729984,-20.719419799374,0.0 -48.372881,-20.719165799374,0.0 -48.3726964,-20.7190166993741,0.0 -48.3721672,-20.718986799374,0.0 -48.371456,-20.719282299374,0.0 -48.3711313,-20.719307699374,0.0 -48.3704746,-20.719144099374,0.0 -48.3698491,-20.719172299374,0.0 -48.3696004,-20.719324399374,0.0 -48.3690682,-20.719972999374,0.0 -48.3685846,-20.720088699374,0.0 -48.3684506,-20.719972699374,0.0 -48.3685667,-20.719328499374,0.0 -48.3685195,-20.7188400993741,0.0 -48.3686982,-20.7183202993741,0.0 -48.3685745,-20.7174604993741,0.0 -48.3681458,-20.7166373993741,0.0 -48.3671108,-20.7157693993741,0.0 -48.3665417,-20.7157544993741,0.0 -48.3662102,-20.7160946993741,0.0 -48.3656298,-20.7172114993741,0.0 -48.3654407,-20.7173645993741,0.0 -48.3648615,-20.7173375993741,0.0 -48.3637662,-20.7164883993741,0.0 -48.3628051,-20.7159601993741,0.0 -48.3625278,-20.7156667993741,0.0 -48.3623595,-20.7153615993741,0.0 -48.3622008,-20.7144330993742,0.0 -48.3620354,-20.7139983993742,0.0 -48.3615668,-20.7133468993742,0.0 -48.3609995,-20.7132329993742,0.0 -48.3604263,-20.7134329993742,0.0 -48.3595778,-20.7128202993742,0.0 -48.35929,-20.7127838993742,0.0 -48.358975,-20.7129643993742,0.0 -48.3584816,-20.7136538993742,0.0 -48.358295,-20.7137125993742,0.0 -48.3580586,-20.7136625993742,0.0 -48.3579946,-20.7131096993742,0.0 -48.3577822,-20.7126464993742,0.0 -48.3569672,-20.7121672993742,0.0 -48.3571035,-20.7118080993742,0.0 -48.3576545,-20.7112761993742,0.0 -48.3576966,-20.7110480993742,0.0 -48.357595,-20.7108089993743,0.0 -48.357304,-20.7107301993743,0.0 -48.3571922,-20.7106095993743,0.0 -48.357123,-20.7104039993743,0.0 -48.3571812,-20.7093015993743,0.0 -48.3573177,-20.7088587993743,0.0 -48.3576778,-20.7083701993743,0.0 -48.3583222,-20.7078584993743,0.0 -48.3584853,-20.7073435993743,0.0 -48.3581336,-20.7065716993744,0.0 -48.3578748,-20.7063517993744,0.0 -48.357357,-20.7061980993744,0.0 -48.3555768,-20.7062830993744,0.0 -48.3549271,-20.7062176993744,0.0 -48.3541341,-20.7059488993744,0.0 -48.3534681,-20.7054402993744,0.0 -48.3530739,-20.7047532993744,0.0 -48.3527616,-20.7045234993744,0.0 -48.3525565,-20.7045365993744,0.0 -48.3524404,-20.7046641993744,0.0 -48.3524175,-20.7051233993744,0.0 -48.3523197,-20.7052740993744,0.0 -48.3520459,-20.7053262993744,0.0 -48.3516261,-20.7049660993744,0.0 -48.3512478,-20.7038260993744,0.0 -48.3510465,-20.7037385993744,0.0 -48.350861,-20.7039745993744,0.0 -48.350723,-20.7039403993744,0.0 -48.3504441,-20.7036369993744,0.0 -48.3502663,-20.7035888993744,0.0 -48.3501168,-20.7036325993744,0.0 -48.3500363,-20.7038081993744,0.0 -48.350173,-20.7048582993744,0.0 -48.3500544,-20.7050794993744,0.0 -48.349811,-20.7051911993744,0.0 -48.3496554,-20.7051410993744,0.0 -48.3494816,-20.7049319993744,0.0 -48.3491672,-20.7048362993744,0.0 -48.3489515,-20.7050316993744,0.0 -48.3488721,-20.7054367993744,0.0 -48.3486428,-20.7054562993744,0.0 -48.3482092,-20.7051045993744,0.0 -48.3475511,-20.7050560993744,0.0 -48.3472947,-20.7049001993744,0.0 -48.3463195,-20.7038495993744,0.0 -48.345416,-20.7031936993744,0.0 -48.3450511,-20.7030880993744,0.0 -48.3434151,-20.7030957993744,0.0 -48.3429459,-20.7029265993744,0.0 -48.3419846,-20.7021994993745,0.0 -48.3417396,-20.7021500993745,0.0 -48.3409765,-20.7023176993745,0.0 -48.3404149,-20.7021552993745,0.0 -48.3402439,-20.7019228993745,0.0 -48.3400542,-20.7010851993745,0.0 -48.3395793,-20.7007339993745,0.0 -48.3394711,-20.7002858993745,0.0 -48.3391203,-20.7000358993745,0.0 -48.3389486,-20.6995632993745,0.0 -48.3385724,-20.6990919993745,0.0 -48.3386207,-20.6988532993745,0.0 -48.3388541,-20.6985432993746,0.0 -48.3389674,-20.6980015993746,0.0 -48.3394178,-20.6977715993746,0.0 -48.3395288,-20.6974727993746,0.0 -48.3392708,-20.6968946993746,0.0 -48.3392061,-20.6963877993746,0.0 -48.3382925,-20.6955433993746,0.0 -48.3364918,-20.6983218993746,0.0 -48.3322405,-20.7038421993744,0.0 -48.3301854,-20.7079494993743,0.0 -48.329565,-20.7093887993743,0.0 -48.3287021,-20.7126388993742,0.0 -48.327548,-20.7158666993741,0.0 -48.3263196,-20.7181639993741,0.0 -48.3257562,-20.719217699374,0.0 -48.3240229,-20.721693999374,0.0 -48.3223459,-20.7235058993739,0.0 -48.3216643,-20.7242423993739,0.0 -48.3205066,-20.7252220993739,0.0 -48.3199861,-20.7254731993739,0.0 -48.3183485,-20.7257486993739,0.0 -48.317037,-20.7257279993739,0.0 -48.3160793,-20.7255983993739,0.0 -48.3153806,-20.7254008993739,0.0 -48.3142195,-20.7241333993739,0.0 -48.3135702,-20.7238222993739,0.0 -48.3134924,-20.7238104993739,0.0 -48.3123982,-20.7236450993739,0.0 -48.3081441,-20.7233196993739,0.0 -48.305683,-20.722881299374,0.0 -48.3042432,-20.722312799374,0.0 -48.3018346,-20.720962799374,0.0 -48.3009868,-20.720619899374,0.0 -48.299848,-20.720400599374,0.0 -48.2976563,-20.720208599374,0.0 -48.2966805,-20.720178199374,0.0 -48.2958102,-20.720279899374,0.0 -48.294272,-20.720696199374,0.0 -48.2926894,-20.721345799374,0.0 -48.2907461,-20.722621499374,0.0 -48.2900942,-20.7233000993739,0.0 -48.2895607,-20.7241525993739,0.0 -48.288723,-20.7260685993739,0.0 -48.2881081,-20.7272198993738,0.0 -48.2855166,-20.7313922993737,0.0 -48.2843555,-20.7346725993737,0.0 -48.2837853,-20.7361393993736,0.0</coordinates>
</LinearRing>
</outerBoundaryIs>
</Polygon>
</MultiGeometry>
</Placemark>
</Folder>
</Document></kml>
