<?xml version='1.0' encoding='UTF-8'?>
<kml xmlns:xsd="http://www.w3.org/2001/XMLSchema" xmlns:gx="http://www.google.com/kml/ext/2.2" xmlns:atom="http://www.w3.org/2005/Atom" xmlns="http://www.opengis.net/kml/2.2">
<Document>
<name>urupes_3556008_localidades_2022</name>
<visibility>1</visibility>
<Schema name="Vilas" id="kml_schema_ft_Vilas">
<SimpleField type="xsd:string" name="CD_UF">
<displayName>CD_UF</displayName>
</SimpleField>
<SimpleField type="xsd:string" name="NM_UF">
<displayName>NM_UF</displayName>
</SimpleField>
<SimpleField type="xsd:string" name="SIGLA_UF">
<displayName>SIGLA_UF</displayName>
</SimpleField>
<SimpleField type="xsd:string" name="CD_MUN">
<displayName>CD_MUN</displayName>
</SimpleField>
<SimpleField type="xsd:string" name="NM_MUN">
<displayName>NM_MUN</displayName>
</SimpleField>
<SimpleField type="xsd:string" name="CD_RGINT">
<displayName>CD_RGINT</displayName>
</SimpleField>
<SimpleField type="xsd:string" name="NM_RGINT">
<displayName>NM_RGINT</displayName>
</SimpleField>
<SimpleField type="xsd:string" name="CD_RGI">
<displayName>CD_RGI</displayName>
</SimpleField>
<SimpleField type="xsd:string" name="NM_RGI">
<displayName>NM_RGI</displayName>
</SimpleField>
<SimpleField type="xsd:string" name="CT_LOCALIDADE">
<displayName>CT_LOCALIDADE</displayName>
</SimpleField>
<SimpleField type="xsd:string" name="CD_LOCALIDADE">
<displayName>CD_LOCALIDADE</displayName>
</SimpleField>
<SimpleField type="xsd:string" name="NM_LOCALIDADE">
<displayName>NM_LOCALIDADE</displayName>
</SimpleField>
<SimpleField type="xsd:string" name="LAT_LOCALIDADE">
<displayName>LAT_LOCALIDADE</displayName>
</SimpleField>
<SimpleField type="xsd:string" name="LONG_LOCALIDADE">
<displayName>LONG_LOCALIDADE</displayName>
</SimpleField>
</Schema>
<Schema name="Localidades" id="kml_schema_ft_Localidades">
<SimpleField type="xsd:string" name="CD_UF">
<displayName>CD_UF</displayName>
</SimpleField>
<SimpleField type="xsd:string" name="NM_UF">
<displayName>NM_UF</displayName>
</SimpleField>
<SimpleField type="xsd:string" name="SIGLA_UF">
<displayName>SIGLA_UF</displayName>
</SimpleField>
<SimpleField type="xsd:string" name="CD_MUN">
<displayName>CD_MUN</displayName>
</SimpleField>
<SimpleField type="xsd:string" name="NM_MUN">
<displayName>NM_MUN</displayName>
</SimpleField>
<SimpleField type="xsd:string" name="CD_RGINT">
<displayName>CD_RGINT</displayName>
</SimpleField>
<SimpleField type="xsd:string" name="NM_RGINT">
<displayName>NM_RGINT</displayName>
</SimpleField>
<SimpleField type="xsd:string" name="CD_RGI">
<displayName>CD_RGI</displayName>
</SimpleField>
<SimpleField type="xsd:string" name="NM_RGI">
<displayName>NM_RGI</displayName>
</SimpleField>
<SimpleField type="xsd:string" name="CT_LOCALIDADE">
<displayName>CT_LOCALIDADE</displayName>
</SimpleField>
<SimpleField type="xsd:string" name="SCT_LOCALIDADE">
<displayName>SCT_LOCALIDADE</displayName>
</SimpleField>
<SimpleField type="xsd:string" name="CD_LOCALIDADE">
<displayName>CD_LOCALIDADE</displayName>
</SimpleField>
<SimpleField type="xsd:string" name="NM_LOCALIDADE">
<displayName>NM_LOCALIDADE</displayName>
</SimpleField>
</Schema>
<Schema name="01. Cidade" id="kml_schema_ft_01._Cidade">
<SimpleField type="xsd:string" name="CD_UF">
<displayName>CD_UF</displayName>
</SimpleField>
<SimpleField type="xsd:string" name="NM_UF">
<displayName>NM_UF</displayName>
</SimpleField>
<SimpleField type="xsd:string" name="SIGLA_UF">
<displayName>SIGLA_UF</displayName>
</SimpleField>
<SimpleField type="xsd:string" name="CD_MUN">
<displayName>CD_MUN</displayName>
</SimpleField>
<SimpleField type="xsd:string" name="NM_MUN">
<displayName>NM_MUN</displayName>
</SimpleField>
<SimpleField type="xsd:string" name="CD_RGINT">
<displayName>CD_RGINT</displayName>
</SimpleField>
<SimpleField type="xsd:string" name="NM_RGINT">
<displayName>NM_RGINT</displayName>
</SimpleField>
<SimpleField type="xsd:string" name="CD_RGI">
<displayName>CD_RGI</displayName>
</SimpleField>
<SimpleField type="xsd:string" name="NM_RGI">
<displayName>NM_RGI</displayName>
</SimpleField>
<SimpleField type="xsd:string" name="CT_LOCALIDADE">
<displayName>CT_LOCALIDADE</displayName>
</SimpleField>
<SimpleField type="xsd:string" name="SCT_LOCALIDADE">
<displayName>SCT_LOCALIDADE</displayName>
</SimpleField>
<SimpleField type="xsd:string" name="CD_LOCALIDADE">
<displayName>CD_LOCALIDADE</displayName>
</SimpleField>
<SimpleField type="xsd:string" name="NM_LOCALIDADE">
<displayName>NM_LOCALIDADE</displayName>
</SimpleField>
<SimpleField type="xsd:string" name="LAT_LOCALIDADE">
<displayName>LAT_LOCALIDADE</displayName>
</SimpleField>
<SimpleField type="xsd:string" name="LONG_LOCALIDADE">
<displayName>LONG_LOCALIDADE</displayName>
</SimpleField>
</Schema>
<Schema name="Município" id="kml_schema_ft_Município">
<SimpleField type="xsd:string" name="CD_UF">
<displayName>CD_UF</displayName>
</SimpleField>
<SimpleField type="xsd:string" name="NM_UF">
<displayName>NM_UF</displayName>
</SimpleField>
<SimpleField type="xsd:string" name="CD_MUN">
<displayName>CD_MUN</displayName>
</SimpleField>
<SimpleField type="xsd:string" name="NM_MUN">
<displayName>NM_MUN</displayName>
</SimpleField>
<SimpleField type="xsd:string" name="CD_RGINT">
<displayName>CD_RGINT</displayName>
</SimpleField>
<SimpleField type="xsd:string" name="NM_RGINT">
<displayName>NM_RGINT</displayName>
</SimpleField>
<SimpleField type="xsd:string" name="CD_RGI">
<displayName>CD_RGI</displayName>
</SimpleField>
<SimpleField type="xsd:string" name="NM_RGI">
<displayName>NM_RGI</displayName>
</SimpleField>
</Schema>
<Folder id="01. Cidade">
<name>01. Cidade</name>
<Folder id="01.03. Sede Municipal">
<name>01.03. Sede Municipal</name>
<Placemark id="01.03. Sede Municipal">
<name>Urupês [3556008]</name>
<visibility>1</visibility>
<snippet> </snippet>
<description>&lt;center&gt;&lt;table&gt;&lt;tr&gt;&lt;th colspan='2' align='center'&gt;&lt;em&gt;Atributos&lt;/em&gt;&lt;/th&gt;&lt;/tr&gt;&lt;tr bgcolor="#E3E3F3"&gt;
&lt;th&gt;CD_UF&lt;/th&gt;
&lt;td&gt;35&lt;/td&gt;
&lt;/tr&gt;&lt;tr bgcolor=""&gt;
&lt;th&gt;NM_UF&lt;/th&gt;
&lt;td&gt;São Paulo&lt;/td&gt;
&lt;/tr&gt;&lt;tr bgcolor="#E3E3F3"&gt;
&lt;th&gt;SIGLA_UF&lt;/th&gt;
&lt;td&gt;SP&lt;/td&gt;
&lt;/tr&gt;&lt;tr bgcolor=""&gt;
&lt;th&gt;CD_MUN&lt;/th&gt;
&lt;td&gt;3556008&lt;/td&gt;
&lt;/tr&gt;&lt;tr bgcolor="#E3E3F3"&gt;
&lt;th&gt;NM_MUN&lt;/th&gt;
&lt;td&gt;Urupês&lt;/td&gt;
&lt;/tr&gt;&lt;tr bgcolor=""&gt;
&lt;th&gt;CD_RGINT&lt;/th&gt;
&lt;td&gt;3507&lt;/td&gt;
&lt;/tr&gt;&lt;tr bgcolor="#E3E3F3"&gt;
&lt;th&gt;NM_RGINT&lt;/th&gt;
&lt;td&gt;São José do Rio Preto&lt;/td&gt;
&lt;/tr&gt;&lt;tr bgcolor=""&gt;
&lt;th&gt;CD_RGI&lt;/th&gt;
&lt;td&gt;350025&lt;/td&gt;
&lt;/tr&gt;&lt;tr bgcolor="#E3E3F3"&gt;
&lt;th&gt;NM_RGI&lt;/th&gt;
&lt;td&gt;São José do Rio Preto&lt;/td&gt;
&lt;/tr&gt;&lt;tr bgcolor=""&gt;
&lt;th&gt;CT_LOCALIDADE&lt;/th&gt;
&lt;td&gt;Cidade&lt;/td&gt;
&lt;/tr&gt;&lt;tr bgcolor="#E3E3F3"&gt;
&lt;th&gt;SCT_LOCALIDADE&lt;/th&gt;
&lt;td&gt;Sede Municipal&lt;/td&gt;
&lt;/tr&gt;&lt;tr bgcolor=""&gt;
&lt;th&gt;CD_LOCALIDADE&lt;/th&gt;
&lt;td&gt;3556008&lt;/td&gt;
&lt;/tr&gt;&lt;tr bgcolor="#E3E3F3"&gt;
&lt;th&gt;NM_LOCALIDADE&lt;/th&gt;
&lt;td&gt;Urupês&lt;/td&gt;
&lt;/tr&gt;&lt;tr bgcolor=""&gt;
&lt;th&gt;LAT_LOCALIDADE&lt;/th&gt;
&lt;td&gt;-21.2019&lt;/td&gt;
&lt;/tr&gt;&lt;tr bgcolor="#E3E3F3"&gt;
&lt;th&gt;LONG_LOCALIDADE&lt;/th&gt;
&lt;td&gt;-49.2912&lt;/td&gt;
&lt;/tr&gt;&lt;/table&gt;&lt;/center&gt;</description>
<Style>
<IconStyle>
<color>ff00aaff</color>
<scale>1.0</scale>
<Icon>
<href>http://maps.google.com/mapfiles/kml/shapes/placemark_circle.png</href>
</Icon>
</IconStyle>
<LabelStyle>
<scale>1.0</scale>
</LabelStyle>
<LineStyle>
<color>ffffffff</color>
<width>3</width>
<gx:labelVisibility>1</gx:labelVisibility>
</LineStyle>
<PolyStyle>
<color>00ffffff</color>
</PolyStyle>
</Style>
<ExtendedData>
<SchemaData schemaUrl="#kml_schema_ft_01._Cidade">
<SimpleData name="CD_UF">35</SimpleData>
<SimpleData name="NM_UF">São Paulo</SimpleData>
<SimpleData name="SIGLA_UF">SP</SimpleData>
<SimpleData name="CD_MUN">3556008</SimpleData>
<SimpleData name="NM_MUN">Urupês</SimpleData>
<SimpleData name="CD_RGINT">3507</SimpleData>
<SimpleData name="NM_RGINT">São José do Rio Preto</SimpleData>
<SimpleData name="CD_RGI">350025</SimpleData>
<SimpleData name="NM_RGI">São José do Rio Preto</SimpleData>
<SimpleData name="CT_LOCALIDADE">Cidade</SimpleData>
<SimpleData name="SCT_LOCALIDADE">Sede Municipal</SimpleData>
<SimpleData name="CD_LOCALIDADE">3556008</SimpleData>
<SimpleData name="NM_LOCALIDADE">Urupês</SimpleData>
<SimpleData name="LAT_LOCALIDADE">-21.2019</SimpleData>
<SimpleData name="LONG_LOCALIDADE">-49.2912</SimpleData>
</SchemaData>
</ExtendedData>
<Point>
<extrude>0</extrude>
<coordinates>-49.291173,-21.2019019993622,0.0</coordinates>
</Point>
</Placemark>
</Folder>
</Folder>
<Folder id="04. Vilas">
<name>04. Vilas</name>
<Placemark id="04. Vilas">
<name>São João de Itaguaçu [355600810]</name>
<visibility>1</visibility>
<snippet> </snippet>
<description>&lt;center&gt;&lt;table&gt;&lt;tr&gt;&lt;th colspan='2' align='center'&gt;&lt;em&gt;Atributos&lt;/em&gt;&lt;/th&gt;&lt;/tr&gt;&lt;tr bgcolor="#E3E3F3"&gt;
&lt;th&gt;CD_UF&lt;/th&gt;
&lt;td&gt;35&lt;/td&gt;
&lt;/tr&gt;&lt;tr bgcolor=""&gt;
&lt;th&gt;NM_UF&lt;/th&gt;
&lt;td&gt;São Paulo&lt;/td&gt;
&lt;/tr&gt;&lt;tr bgcolor="#E3E3F3"&gt;
&lt;th&gt;SIGLA_UF&lt;/th&gt;
&lt;td&gt;SP&lt;/td&gt;
&lt;/tr&gt;&lt;tr bgcolor=""&gt;
&lt;th&gt;CD_MUN&lt;/th&gt;
&lt;td&gt;3556008&lt;/td&gt;
&lt;/tr&gt;&lt;tr bgcolor="#E3E3F3"&gt;
&lt;th&gt;NM_MUN&lt;/th&gt;
&lt;td&gt;Urupês&lt;/td&gt;
&lt;/tr&gt;&lt;tr bgcolor=""&gt;
&lt;th&gt;CD_RGINT&lt;/th&gt;
&lt;td&gt;3507&lt;/td&gt;
&lt;/tr&gt;&lt;tr bgcolor="#E3E3F3"&gt;
&lt;th&gt;NM_RGINT&lt;/th&gt;
&lt;td&gt;São José do Rio Preto&lt;/td&gt;
&lt;/tr&gt;&lt;tr bgcolor=""&gt;
&lt;th&gt;CD_RGI&lt;/th&gt;
&lt;td&gt;350025&lt;/td&gt;
&lt;/tr&gt;&lt;tr bgcolor="#E3E3F3"&gt;
&lt;th&gt;NM_RGI&lt;/th&gt;
&lt;td&gt;São José do Rio Preto&lt;/td&gt;
&lt;/tr&gt;&lt;tr bgcolor=""&gt;
&lt;th&gt;CT_LOCALIDADE&lt;/th&gt;
&lt;td&gt;Vila&lt;/td&gt;
&lt;/tr&gt;&lt;tr bgcolor="#E3E3F3"&gt;
&lt;th&gt;CD_LOCALIDADE&lt;/th&gt;
&lt;td&gt;355600810&lt;/td&gt;
&lt;/tr&gt;&lt;tr bgcolor=""&gt;
&lt;th&gt;NM_LOCALIDADE&lt;/th&gt;
&lt;td&gt;São João de Itaguaçu&lt;/td&gt;
&lt;/tr&gt;&lt;tr bgcolor="#E3E3F3"&gt;
&lt;th&gt;LAT_LOCALIDADE&lt;/th&gt;
&lt;td&gt;-21.1784&lt;/td&gt;
&lt;/tr&gt;&lt;tr bgcolor=""&gt;
&lt;th&gt;LONG_LOCALIDADE&lt;/th&gt;
&lt;td&gt;-49.192&lt;/td&gt;
&lt;/tr&gt;&lt;/table&gt;&lt;/center&gt;</description>
<Style>
<IconStyle>
<color>ffff5400</color>
<scale>1.0</scale>
<Icon>
<href>http://maps.google.com/mapfiles/kml/shapes/placemark_circle.png</href>
</Icon>
</IconStyle>
<LabelStyle>
<scale>0.9</scale>
</LabelStyle>
<LineStyle>
<color>72ffffff</color>
<width>1.0</width>
<gx:labelVisibility>1</gx:labelVisibility>
</LineStyle>
<PolyStyle>
<color>660054ff</color>
</PolyStyle>
</Style>
<ExtendedData>
<SchemaData schemaUrl="#kml_schema_ft_Vilas">
<SimpleData name="CD_UF">35</SimpleData>
<SimpleData name="NM_UF">São Paulo</SimpleData>
<SimpleData name="SIGLA_UF">SP</SimpleData>
<SimpleData name="CD_MUN">3556008</SimpleData>
<SimpleData name="NM_MUN">Urupês</SimpleData>
<SimpleData name="CD_RGINT">3507</SimpleData>
<SimpleData name="NM_RGINT">São José do Rio Preto</SimpleData>
<SimpleData name="CD_RGI">350025</SimpleData>
<SimpleData name="NM_RGI">São José do Rio Preto</SimpleData>
<SimpleData name="CT_LOCALIDADE">Vila</SimpleData>
<SimpleData name="CD_LOCALIDADE">355600810</SimpleData>
<SimpleData name="NM_LOCALIDADE">São João de Itaguaçu</SimpleData>
<SimpleData name="LAT_LOCALIDADE">-21.1784</SimpleData>
<SimpleData name="LONG_LOCALIDADE">-49.192</SimpleData>
</SchemaData>
</ExtendedData>
<Point>
<extrude>0</extrude>
<coordinates>-49.192013,-21.1783749993628,0.0</coordinates>
</Point>
</Placemark>
</Folder>
<Folder id="12. Outras Localidades">
<name>12. Outras Localidades</name>
<Placemark id="12. Outras Localidades">
<name>Fazenda Barreirão [355600800001]</name>
<visibility>1</visibility>
<snippet> </snippet>
<description>&lt;center&gt;&lt;table&gt;&lt;tr&gt;&lt;th colspan='2' align='center'&gt;&lt;em&gt;Attributes&lt;/em&gt;&lt;/th&gt;&lt;/tr&gt;&lt;tr bgcolor="#E3E3F3"&gt;
&lt;th&gt;CD_UF&lt;/th&gt;
&lt;td&gt;35&lt;/td&gt;
&lt;/tr&gt;&lt;tr bgcolor=""&gt;
&lt;th&gt;NM_UF&lt;/th&gt;
&lt;td&gt;São Paulo&lt;/td&gt;
&lt;/tr&gt;&lt;tr bgcolor="#E3E3F3"&gt;
&lt;th&gt;SIGLA_UF&lt;/th&gt;
&lt;td&gt;SP&lt;/td&gt;
&lt;/tr&gt;&lt;tr bgcolor=""&gt;
&lt;th&gt;CD_MUN&lt;/th&gt;
&lt;td&gt;3556008&lt;/td&gt;
&lt;/tr&gt;&lt;tr bgcolor="#E3E3F3"&gt;
&lt;th&gt;NM_MUN&lt;/th&gt;
&lt;td&gt;Urupês&lt;/td&gt;
&lt;/tr&gt;&lt;tr bgcolor=""&gt;
&lt;th&gt;CD_RGINT&lt;/th&gt;
&lt;td&gt;3507&lt;/td&gt;
&lt;/tr&gt;&lt;tr bgcolor="#E3E3F3"&gt;
&lt;th&gt;NM_RGINT&lt;/th&gt;
&lt;td&gt;São José do Rio Preto&lt;/td&gt;
&lt;/tr&gt;&lt;tr bgcolor=""&gt;
&lt;th&gt;CD_RGI&lt;/th&gt;
&lt;td&gt;350025&lt;/td&gt;
&lt;/tr&gt;&lt;tr bgcolor="#E3E3F3"&gt;
&lt;th&gt;NM_RGI&lt;/th&gt;
&lt;td&gt;São José do Rio Preto&lt;/td&gt;
&lt;/tr&gt;&lt;tr bgcolor=""&gt;
&lt;th&gt;CT_LOCALIDADE&lt;/th&gt;
&lt;td&gt;Outras Localidades&lt;/td&gt;
&lt;/tr&gt;&lt;tr bgcolor="#E3E3F3"&gt;
&lt;th&gt;SCT_LOCALIDADE&lt;/th&gt;
&lt;td&gt;&lt;/td&gt;
&lt;/tr&gt;&lt;tr bgcolor=""&gt;
&lt;th&gt;CD_LOCALIDADE&lt;/th&gt;
&lt;td&gt;355600800001&lt;/td&gt;
&lt;/tr&gt;&lt;tr bgcolor="#E3E3F3"&gt;
&lt;th&gt;NM_LOCALIDADE&lt;/th&gt;
&lt;td&gt;Fazenda Barreirão&lt;/td&gt;
&lt;/tr&gt;&lt;/table&gt;&lt;/center&gt;</description>
<Style>
<IconStyle>
<color>ff0069d3</color>
<scale>0.6</scale>
<Icon>
<href>http://maps.google.com/mapfiles/kml/shapes/placemark_circle.png</href>
</Icon>
</IconStyle>
<LabelStyle>
<scale>0.6</scale>
</LabelStyle>
<LineStyle>
<width>1.0</width>
<gx:labelVisibility>1</gx:labelVisibility>
</LineStyle>
</Style>
<ExtendedData>
<SchemaData schemaUrl="#kml_schema_ft_Localidades">
<SimpleData name="CD_UF">35</SimpleData>
<SimpleData name="NM_UF">São Paulo</SimpleData>
<SimpleData name="SIGLA_UF">SP</SimpleData>
<SimpleData name="CD_MUN">3556008</SimpleData>
<SimpleData name="NM_MUN">Urupês</SimpleData>
<SimpleData name="CD_RGINT">3507</SimpleData>
<SimpleData name="NM_RGINT">São José do Rio Preto</SimpleData>
<SimpleData name="CD_RGI">350025</SimpleData>
<SimpleData name="NM_RGI">São José do Rio Preto</SimpleData>
<SimpleData name="CT_LOCALIDADE">Outras Localidades</SimpleData>
<SimpleData name="CD_LOCALIDADE">355600800001</SimpleData>
<SimpleData name="NM_LOCALIDADE">Fazenda Barreirão</SimpleData>
</SchemaData>
</ExtendedData>
<Point>
<extrude>0</extrude>
<coordinates>-49.350692,-21.2295029993616,0.0</coordinates>
</Point>
</Placemark>
</Folder>
<Folder id="13. Referência">
<name>13. Referência</name>
<Placemark id="13. Referência">
<name>Urupês [3556008]</name>
<visibility>1</visibility>
<snippet> </snippet>
<description>&lt;center&gt;&lt;table&gt;&lt;tr&gt;&lt;th colspan='2' align='center'&gt;&lt;em&gt;Attributes&lt;/em&gt;&lt;/th&gt;&lt;/tr&gt;&lt;tr bgcolor="#E3E3F3"&gt;
&lt;th&gt;CD_UF&lt;/th&gt;
&lt;td&gt;35&lt;/td&gt;
&lt;/tr&gt;&lt;tr bgcolor=""&gt;
&lt;th&gt;NM_UF&lt;/th&gt;
&lt;td&gt;São Paulo&lt;/td&gt;
&lt;/tr&gt;&lt;tr bgcolor="#E3E3F3"&gt;
&lt;th&gt;CD_MUN&lt;/th&gt;
&lt;td&gt;3556008&lt;/td&gt;
&lt;/tr&gt;&lt;tr bgcolor=""&gt;
&lt;th&gt;NM_MUN&lt;/th&gt;
&lt;td&gt;Urupês&lt;/td&gt;
&lt;/tr&gt;&lt;tr bgcolor="#E3E3F3"&gt;
&lt;th&gt;CD_RGINT&lt;/th&gt;
&lt;td&gt;3507&lt;/td&gt;
&lt;/tr&gt;&lt;tr bgcolor=""&gt;
&lt;th&gt;NM_RGINT&lt;/th&gt;
&lt;td&gt;São José do Rio Preto&lt;/td&gt;
&lt;/tr&gt;&lt;tr bgcolor="#E3E3F3"&gt;
&lt;th&gt;CD_RGI&lt;/th&gt;
&lt;td&gt;350025&lt;/td&gt;
&lt;/tr&gt;&lt;tr bgcolor=""&gt;
&lt;th&gt;NM_RGI&lt;/th&gt;
&lt;td&gt;São José do Rio Preto&lt;/td&gt;
&lt;/tr&gt;&lt;/table&gt;&lt;/center&gt;</description>
<Style>
<IconStyle>
<scale>0.7</scale>
</IconStyle>
<LabelStyle>
<scale>0.7</scale>
</LabelStyle>
<LineStyle>
<color>ffffffff</color>
<width>3</width>
<gx:labelVisibility>1</gx:labelVisibility>
</LineStyle>
<PolyStyle>
<color>00ffffff</color>
</PolyStyle>
</Style>
<ExtendedData>
<SchemaData schemaUrl="#kml_schema_ft_Município">
<SimpleData name="CD_UF">35</SimpleData>
<SimpleData name="NM_UF">São Paulo</SimpleData>
<SimpleData name="CD_MUN">3556008</SimpleData>
<SimpleData name="NM_MUN">Urupês</SimpleData>
<SimpleData name="CD_RGINT">3507</SimpleData>
<SimpleData name="NM_RGINT">São José do Rio Preto</SimpleData>
<SimpleData name="CD_RGI">350025</SimpleData>
<SimpleData name="NM_RGI">São José do Rio Preto</SimpleData>
</SchemaData>
</ExtendedData>
<MultiGeometry>
<Polygon>
<extrude>0</extrude>
<tessellate>1</tessellate>
<outerBoundaryIs>
<LinearRing>
<coordinates>-49.335544,-21.2356682993614,0.0 -49.3360506,-21.2356155993614,0.0 -49.3366291,-21.2357305993614,0.0 -49.3375617,-21.2357400993614,0.0 -49.338543,-21.2355815993614,0.0 -49.3396249,-21.2352563993614,0.0 -49.3413812,-21.2354614993614,0.0 -49.3440766,-21.2354672993614,0.0 -49.3452741,-21.2356932993614,0.0 -49.3460713,-21.2358437993614,0.0 -49.348335,-21.2360330993614,0.0 -49.3495118,-21.2362149993614,0.0 -49.3509259,-21.2366034993614,0.0 -49.3525569,-21.2372374993614,0.0 -49.3541248,-21.2380400993613,0.0 -49.3582587,-21.2407357993613,0.0 -49.3595099,-21.2414044993613,0.0 -49.360109,-21.2415388993613,0.0 -49.3609083,-21.2415283993613,0.0 -49.361928,-21.2413139993613,0.0 -49.362852,-21.2407978993613,0.0 -49.3632155,-21.2403329993613,0.0 -49.3633073,-21.2397101993613,0.0 -49.3633416,-21.2381839993613,0.0 -49.3631708,-21.2355781993614,0.0 -49.3632252,-21.2342416993614,0.0 -49.3636862,-21.2322622993615,0.0 -49.3637989,-21.2311228993615,0.0 -49.3638013,-21.2288623993616,0.0 -49.3640767,-21.2266858993616,0.0 -49.3653046,-21.2246165993617,0.0 -49.3664415,-21.2229917993617,0.0 -49.3670248,-21.2217192993618,0.0 -49.3672442,-21.2207440993618,0.0 -49.3674343,-21.2203357993618,0.0 -49.3684015,-21.2190818993618,0.0 -49.3703135,-21.2179665993618,0.0 -49.3730555,-21.2167791993619,0.0 -49.3739324,-21.2165319993619,0.0 -49.37523,-21.2164223993619,0.0 -49.3757976,-21.2162044993619,0.0 -49.3775435,-21.2145141993619,0.0 -49.3787554,-21.2141832993619,0.0 -49.3792493,-21.2141345993619,0.0 -49.3801979,-21.2137504993619,0.0 -49.3809274,-21.2135649993619,0.0 -49.3833951,-21.213021699362,0.0 -49.3846492,-21.213019599362,0.0 -49.3855361,-21.212950699362,0.0 -49.3862225,-21.212668499362,0.0 -49.387029,-21.212401599362,0.0 -49.3875438,-21.212012199362,0.0 -49.388045,-21.211502899362,0.0 -49.3880418,-21.210742399362,0.0 -49.3881016,-21.2090529993621,0.0 -49.3880078,-21.2080098993621,0.0 -49.3879908,-21.2068125993621,0.0 -49.388098,-21.2045461993622,0.0 -49.3882365,-21.2028504993622,0.0 -49.3880535,-21.2011999993622,0.0 -49.3888715,-21.1996948993623,0.0 -49.3897312,-21.1979636993623,0.0 -49.3903477,-21.1965119993624,0.0 -49.3906705,-21.1951278993624,0.0 -49.3907639,-21.1941305993624,0.0 -49.3909164,-21.1939679993624,0.0 -49.3918714,-21.1934966993624,0.0 -49.392248,-21.1931896993624,0.0 -49.3930081,-21.1928526993624,0.0 -49.3932441,-21.1926653993625,0.0 -49.3937161,-21.1920168993625,0.0 -49.3948544,-21.1915059993625,0.0 -49.3951333,-21.1907058993625,0.0 -49.3954736,-21.1897865993625,0.0 -49.3958709,-21.1891565993625,0.0 -49.3957878,-21.1885079993625,0.0 -49.3956233,-21.1877458993626,0.0 -49.3955395,-21.1871606993626,0.0 -49.3954965,-21.1862800993626,0.0 -49.3954891,-21.1854832993626,0.0 -49.3957781,-21.1852264993626,0.0 -49.39573,-21.1848175993626,0.0 -49.39557,-21.1834732993627,0.0 -49.3960079,-21.1827217993627,0.0 -49.3959734,-21.1824397993627,0.0 -49.3956784,-21.1823099993627,0.0 -49.3957079,-21.1819936993627,0.0 -49.3959503,-21.1817916993627,0.0 -49.3962904,-21.1815907993627,0.0 -49.3963241,-21.1812459993627,0.0 -49.3965691,-21.1808046993627,0.0 -49.39694,-21.1805265993628,0.0 -49.3965437,-21.1796848993628,0.0 -49.3965607,-21.1787977993628,0.0 -49.3970562,-21.1781052993628,0.0 -49.3972007,-21.1776780993628,0.0 -49.3972885,-21.1773605993628,0.0 -49.3974746,-21.1768980993628,0.0 -49.3974202,-21.1763764993628,0.0 -49.3975844,-21.1757724993629,0.0 -49.3979496,-21.1753252993629,0.0 -49.3981178,-21.1750381993629,0.0 -49.3984799,-21.1748795993629,0.0 -49.399224,-21.1748021993629,0.0 -49.3993875,-21.1742544993629,0.0 -49.3990891,-21.1740755993629,0.0 -49.3982752,-21.1736734993629,0.0 -49.3975578,-21.1733639993629,0.0 -49.3971491,-21.1729656993629,0.0 -49.3969806,-21.1725838993629,0.0 -49.3966375,-21.1723693993629,0.0 -49.3959735,-21.1719898993629,0.0 -49.3947237,-21.171618899363,0.0 -49.394027,-21.171485499363,0.0 -49.393814,-21.171161399363,0.0 -49.3931087,-21.171011999363,0.0 -49.3927841,-21.171170899363,0.0 -49.3926367,-21.171613099363,0.0 -49.3926513,-21.1723455993629,0.0 -49.3922219,-21.1731794993629,0.0 -49.3919027,-21.1735355993629,0.0 -49.3917071,-21.1735759993629,0.0 -49.3915289,-21.1733911993629,0.0 -49.3911997,-21.1732894993629,0.0 -49.3908406,-21.1731733993629,0.0 -49.3907216,-21.1730665993629,0.0 -49.3906786,-21.1728760993629,0.0 -49.3908336,-21.1724268993629,0.0 -49.3908884,-21.1722231993629,0.0 -49.3907036,-21.171960899363,0.0 -49.3904865,-21.171902499363,0.0 -49.3901945,-21.171829299363,0.0 -49.3898125,-21.171741199363,0.0 -49.3891899,-21.171700099363,0.0 -49.3887245,-21.171695599363,0.0 -49.3880195,-21.171625499363,0.0 -49.3875982,-21.171712999363,0.0 -49.3871168,-21.171792999363,0.0 -49.3868196,-21.1722055993629,0.0 -49.3866439,-21.1724784993629,0.0 -49.3863902,-21.1730323993629,0.0 -49.3863157,-21.1736763993629,0.0 -49.3864195,-21.1744832993629,0.0 -49.3861129,-21.1750647993629,0.0 -49.3854457,-21.1756639993629,0.0 -49.3850766,-21.1757731993629,0.0 -49.3847849,-21.1756787993629,0.0 -49.3845146,-21.1756762993629,0.0 -49.3841096,-21.1756371993629,0.0 -49.3836311,-21.1754565993629,0.0 -49.3835709,-21.1751125993629,0.0 -49.3829631,-21.1747459993629,0.0 -49.3829658,-21.1744995993629,0.0 -49.3832312,-21.1742626993629,0.0 -49.3835997,-21.1742027993629,0.0 -49.3837386,-21.1738590993629,0.0 -49.3835304,-21.1736740993629,0.0 -49.3834889,-21.1733426993629,0.0 -49.3836569,-21.1730837993629,0.0 -49.3836739,-21.1729007993629,0.0 -49.3832916,-21.1728478993629,0.0 -49.3830315,-21.1725988993629,0.0 -49.3830348,-21.1722961993629,0.0 -49.3839619,-21.171959999363,0.0 -49.3842699,-21.171941799363,0.0 -49.3843464,-21.171808799363,0.0 -49.3844163,-21.171591099363,0.0 -49.3842903,-21.171442099363,0.0 -49.3834919,-21.170997799363,0.0 -49.3834742,-21.170553999363,0.0 -49.3835177,-21.170005199363,0.0 -49.383555,-21.169336599363,0.0 -49.3837336,-21.168789099363,0.0 -49.3837295,-21.168280599363,0.0 -49.383823,-21.168156199363,0.0 -49.3843157,-21.168414399363,0.0 -49.3850054,-21.168505499363,0.0 -49.3856393,-21.168891799363,0.0 -49.3861143,-21.168997299363,0.0 -49.3866689,-21.169284499363,0.0 -49.3871053,-21.169283799363,0.0 -49.3873167,-21.169208499363,0.0 -49.3877431,-21.168600199363,0.0 -49.3878115,-21.1680712993631,0.0 -49.3870461,-21.1676540993631,0.0 -49.3871066,-21.1671663993631,0.0 -49.3872303,-21.1661676993631,0.0 -49.3868076,-21.1656918993631,0.0 -49.3867514,-21.1653321993631,0.0 -49.3872,-21.1648153993631,0.0 -49.3872787,-21.1644781993631,0.0 -49.3869462,-21.1639890993631,0.0 -49.3872781,-21.1617599993632,0.0 -49.3872055,-21.1615339993632,0.0 -49.3867931,-21.1614877993632,0.0 -49.3862765,-21.1613631993632,0.0 -49.3854245,-21.1610170993632,0.0 -49.3847637,-21.1603347993632,0.0 -49.3841286,-21.1600610993632,0.0 -49.3841632,-21.1596388993633,0.0 -49.3843892,-21.1588805993633,0.0 -49.3844949,-21.1581351993633,0.0 -49.3845253,-21.1574030993633,0.0 -49.3844034,-21.1568737993633,0.0 -49.3840229,-21.1566659993633,0.0 -49.3835468,-21.1562600993633,0.0 -49.3831564,-21.1562703993633,0.0 -49.3829383,-21.1563034993633,0.0 -49.3825682,-21.1565182993633,0.0 -49.3823506,-21.1565091993633,0.0 -49.3819124,-21.1567654993633,0.0 -49.3815761,-21.1566284993633,0.0 -49.3812707,-21.1564142993633,0.0 -49.380984,-21.1565453993633,0.0 -49.3806933,-21.1570425993633,0.0 -49.3805166,-21.1574140993633,0.0 -49.3803157,-21.1572571993633,0.0 -49.3804708,-21.1567939993633,0.0 -49.3806188,-21.1563024993633,0.0 -49.3808528,-21.1557557993634,0.0 -49.3812648,-21.1555692993633,0.0 -49.3826208,-21.1551315993634,0.0 -49.3830441,-21.1548609993634,0.0 -49.3830868,-21.1543825993634,0.0 -49.3830366,-21.1541637993634,0.0 -49.3828063,-21.1539502993634,0.0 -49.382612,-21.1538639993634,0.0 -49.382408,-21.1539887993634,0.0 -49.3823058,-21.1537201993634,0.0 -49.382737,-21.1534144993634,0.0 -49.3826871,-21.1531745993634,0.0 -49.3824484,-21.1530314993634,0.0 -49.3819948,-21.1526398993634,0.0 -49.3815646,-21.1521639993634,0.0 -49.3812727,-21.1520836993634,0.0 -49.3810094,-21.1521374993634,0.0 -49.3806026,-21.1522744993634,0.0 -49.38031,-21.1522575993634,0.0 -49.380105,-21.1524668993634,0.0 -49.3798553,-21.1526545993634,0.0 -49.3798884,-21.1530562993634,0.0 -49.3797922,-21.1536257993634,0.0 -49.3795326,-21.1540245993634,0.0 -49.379406,-21.1546219993634,0.0 -49.3789189,-21.1552369993634,0.0 -49.3786127,-21.1557832993633,0.0 -49.3780903,-21.1561866993633,0.0 -49.3776132,-21.1565693993633,0.0 -49.3771586,-21.1569593993633,0.0 -49.3765969,-21.1568413993633,0.0 -49.376192,-21.1567951993633,0.0 -49.375802,-21.1566826993633,0.0 -49.3755703,-21.1567015993633,0.0 -49.3752783,-21.1565503993633,0.0 -49.3744006,-21.1552271993634,0.0 -49.3740346,-21.1549766993634,0.0 -49.3733985,-21.1547727993634,0.0 -49.3727591,-21.1556425993634,0.0 -49.3722211,-21.1549397993634,0.0 -49.3720156,-21.1551341993634,0.0 -49.3717685,-21.1557698993633,0.0 -49.371236,-21.1562283993633,0.0 -49.3712407,-21.1569736993633,0.0 -49.3710847,-21.1571910993633,0.0 -49.3705438,-21.1570519993633,0.0 -49.3703327,-21.1570569993633,0.0 -49.3701283,-21.1571883993633,0.0 -49.3700819,-21.1573789993633,0.0 -49.3704201,-21.1580549993633,0.0 -49.3703581,-21.1581884993633,0.0 -49.3701476,-21.1582069993633,0.0 -49.3692405,-21.1577957993633,0.0 -49.3687371,-21.1577846993633,0.0 -49.3683401,-21.1575395993633,0.0 -49.3681036,-21.1569393993633,0.0 -49.3678195,-21.1566892993633,0.0 -49.3667698,-21.1563749993633,0.0 -49.3663478,-21.1563472993633,0.0 -49.3659175,-21.1564318993633,0.0 -49.3653184,-21.1568317993633,0.0 -49.3652352,-21.1574908993633,0.0 -49.365029,-21.1578338993633,0.0 -49.3650086,-21.1583639993633,0.0 -49.3661805,-21.1601042993632,0.0 -49.366153,-21.1607387993632,0.0 -49.3648533,-21.1625385993632,0.0 -49.3643853,-21.1626257993632,0.0 -49.3641438,-21.1625867993632,0.0 -49.3628139,-21.1621134993632,0.0 -49.3622854,-21.1622872993632,0.0 -49.3618173,-21.1629330993632,0.0 -49.3615229,-21.1638476993632,0.0 -49.361362,-21.1640946993631,0.0 -49.361073,-21.1643110993631,0.0 -49.3607489,-21.1643878993631,0.0 -49.3604711,-21.1643054993631,0.0 -49.3597431,-21.1634340993632,0.0 -49.3594962,-21.1625497993632,0.0 -49.3588572,-21.1622836993632,0.0 -49.3584843,-21.1620112993632,0.0 -49.357547,-21.1616431993632,0.0 -49.3571926,-21.1617019993632,0.0 -49.3571649,-21.1621255993632,0.0 -49.3569838,-21.1622161993632,0.0 -49.3558465,-21.1615615993632,0.0 -49.355568,-21.1608871993632,0.0 -49.355156,-21.1606920993632,0.0 -49.3546637,-21.1598938993632,0.0 -49.3545103,-21.1598076993633,0.0 -49.3542353,-21.1597920993632,0.0 -49.3523448,-21.1606141993632,0.0 -49.3519151,-21.1607087993632,0.0 -49.3514728,-21.1606822993632,0.0 -49.3508456,-21.1603172993632,0.0 -49.3505127,-21.1599954993633,0.0 -49.3504812,-21.1595567993633,0.0 -49.3507307,-21.1593392993633,0.0 -49.3507777,-21.1591918993633,0.0 -49.3507368,-21.1588384993633,0.0 -49.3508176,-21.1584397993633,0.0 -49.3507417,-21.1583115993633,0.0 -49.3502353,-21.1582408993633,0.0 -49.3494231,-21.1584934993633,0.0 -49.3491877,-21.1585662993633,0.0 -49.34898,-21.1583091993633,0.0 -49.349104,-21.1573629993633,0.0 -49.3488305,-21.1568995993633,0.0 -49.3490945,-21.1561905993633,0.0 -49.3493222,-21.1559940993633,0.0 -49.3495542,-21.1555363993634,0.0 -49.3495284,-21.1544815993634,0.0 -49.349302,-21.1537158993634,0.0 -49.3497525,-21.1525244993634,0.0 -49.3497563,-21.1521866993634,0.0 -49.3494377,-21.1517788993634,0.0 -49.3485728,-21.1516217993635,0.0 -49.347563,-21.1516977993635,0.0 -49.3473033,-21.1518707993634,0.0 -49.3465587,-21.1528855993634,0.0 -49.3462041,-21.1535975993634,0.0 -49.3457645,-21.1538873993634,0.0 -49.3455076,-21.1539379993634,0.0 -49.3440527,-21.1533691993634,0.0 -49.3435014,-21.1533801993634,0.0 -49.3417927,-21.1540251993634,0.0 -49.3414854,-21.1540248993634,0.0 -49.341222,-21.1538869993634,0.0 -49.3410522,-21.1536498993634,0.0 -49.3410326,-21.1533817993634,0.0 -49.3416779,-21.1522489993634,0.0 -49.3416211,-21.1518788993634,0.0 -49.3413975,-21.1514826993634,0.0 -49.3414297,-21.1512852993635,0.0 -49.3417296,-21.1509061993635,0.0 -49.3417376,-21.1507432993635,0.0 -49.3416653,-21.1506223993635,0.0 -49.3410407,-21.1503898993635,0.0 -49.3405654,-21.1500038993635,0.0 -49.3400532,-21.1499050993635,0.0 -49.3396119,-21.1495406993635,0.0 -49.3393585,-21.1485912993635,0.0 -49.3393869,-21.1474388993636,0.0 -49.3392723,-21.1469770993636,0.0 -49.3388794,-21.1462383993636,0.0 -49.3384466,-21.1459435993636,0.0 -49.3380791,-21.1458973993636,0.0 -49.3361301,-21.1461591993636,0.0 -49.3357455,-21.1461089993636,0.0 -49.3351118,-21.1457996993636,0.0 -49.3349176,-21.1455420993636,0.0 -49.3348597,-21.1452377993636,0.0 -49.3350108,-21.1444445993636,0.0 -49.33539,-21.1437783993636,0.0 -49.3352862,-21.1434015993637,0.0 -49.3353492,-21.1432672993637,0.0 -49.3359489,-21.1428494993637,0.0 -49.336171,-21.1425546993637,0.0 -49.3362481,-21.1423378993637,0.0 -49.3361898,-21.1420163993637,0.0 -49.3357588,-21.1411080993637,0.0 -49.3345361,-21.1398960993637,0.0 -49.3336176,-21.1399482993637,0.0 -49.3330863,-21.1396282993637,0.0 -49.33179,-21.1374492993638,0.0 -49.3312568,-21.1360245993638,0.0 -49.3305182,-21.1355925993638,0.0 -49.3291816,-21.1344520993639,0.0 -49.3290589,-21.1342198993639,0.0 -49.3292601,-21.1329631993639,0.0 -49.3291513,-21.1327781993639,0.0 -49.3288587,-21.1326187993639,0.0 -49.3281622,-21.1325049993639,0.0 -49.3275788,-21.1322519993639,0.0 -49.3269147,-21.1316868993639,0.0 -49.3268421,-21.1313596993639,0.0 -49.3268915,-21.130951099364,0.0 -49.3273732,-21.129844399364,0.0 -49.3274179,-21.129095199364,0.0 -49.3273156,-21.128854499364,0.0 -49.32686,-21.128552799364,0.0 -49.3265731,-21.128486299364,0.0 -49.3257171,-21.128513199364,0.0 -49.3247208,-21.128376799364,0.0 -49.3233952,-21.127683499364,0.0 -49.3227176,-21.127734199364,0.0 -49.3210998,-21.128432899364,0.0 -49.3204877,-21.128390799364,0.0 -49.3195294,-21.127901399364,0.0 -49.318877,-21.127823899364,0.0 -49.3181222,-21.127908499364,0.0 -49.3175307,-21.127576899364,0.0 -49.3167902,-21.127514099364,0.0 -49.3165662,-21.127409699364,0.0 -49.3162908,-21.127071499364,0.0 -49.3153936,-21.127091799364,0.0 -49.3149316,-21.127236699364,0.0 -49.3142064,-21.127848299364,0.0 -49.3134034,-21.128271199364,0.0 -49.3127206,-21.128301899364,0.0 -49.3124239,-21.128212699364,0.0 -49.3117839,-21.127495899364,0.0 -49.3114063,-21.127220599364,0.0 -49.3107817,-21.1269329993641,0.0 -49.3097489,-21.1268549993641,0.0 -49.3088184,-21.127013999364,0.0 -49.3075737,-21.127517499364,0.0 -49.3053578,-21.127482399364,0.0 -49.305078,-21.127408899364,0.0 -49.3048367,-21.127212999364,0.0 -49.3043804,-21.1262912993641,0.0 -49.3042116,-21.1262073993641,0.0 -49.3032613,-21.1262315993641,0.0 -49.302587,-21.1257786993641,0.0 -49.3019265,-21.1257738993641,0.0 -49.3011366,-21.1256267993641,0.0 -49.3007215,-21.1257207993641,0.0 -49.3001611,-21.1261728993641,0.0 -49.2992865,-21.1263305993641,0.0 -49.299078,-21.1264680993641,0.0 -49.2985501,-21.127174299364,0.0 -49.2978926,-21.1270442993641,0.0 -49.2974226,-21.127350299364,0.0 -49.2967569,-21.127357999364,0.0 -49.2965721,-21.127446499364,0.0 -49.2961291,-21.127901899364,0.0 -49.2953593,-21.127912999364,0.0 -49.2951685,-21.128008599364,0.0 -49.294603,-21.128774899364,0.0 -49.2940151,-21.129032499364,0.0 -49.2934893,-21.129518899364,0.0 -49.2927613,-21.129787899364,0.0 -49.2915155,-21.130018199364,0.0 -49.290874,-21.130449999364,0.0 -49.2905262,-21.130452999364,0.0 -49.2898673,-21.129939199364,0.0 -49.288884,-21.130153399364,0.0 -49.2887001,-21.130122199364,0.0 -49.2880694,-21.129692899364,0.0 -49.2877151,-21.129597499364,0.0 -49.2870655,-21.129521899364,0.0 -49.2854646,-21.129651299364,0.0 -49.2847966,-21.130156199364,0.0 -49.2842411,-21.130212799364,0.0 -49.2840919,-21.130300599364,0.0 -49.2839648,-21.130452899364,0.0 -49.2838115,-21.1311252993639,0.0 -49.2836894,-21.1312695993639,0.0 -49.2824713,-21.1321753993639,0.0 -49.2819467,-21.1321977993639,0.0 -49.2818461,-21.1322724993639,0.0 -49.2816224,-21.1330401993639,0.0 -49.2811778,-21.1332412993639,0.0 -49.2794365,-21.1333631993639,0.0 -49.2786179,-21.1331187993639,0.0 -49.2783033,-21.1332893993639,0.0 -49.2782273,-21.1334691993639,0.0 -49.2777261,-21.1334507993639,0.0 -49.2773681,-21.1336552993639,0.0 -49.2771355,-21.1336109993639,0.0 -49.2771189,-21.1334365993639,0.0 -49.276932,-21.1333169993639,0.0 -49.2753107,-21.1334187993639,0.0 -49.2750632,-21.1328433993639,0.0 -49.2746021,-21.1324125993639,0.0 -49.2745202,-21.1320480993639,0.0 -49.2744254,-21.1319706993639,0.0 -49.2736569,-21.1318789993639,0.0 -49.2730412,-21.1314951993639,0.0 -49.2725215,-21.1314528993639,0.0 -49.271912,-21.1315691993639,0.0 -49.271456,-21.1319177993639,0.0 -49.2707147,-21.1320304993639,0.0 -49.2703376,-21.1319847993639,0.0 -49.2698083,-21.1317015993639,0.0 -49.2694161,-21.1317393993639,0.0 -49.2691466,-21.1313074993639,0.0 -49.2688588,-21.1311832993639,0.0 -49.2684703,-21.1313751993639,0.0 -49.2679047,-21.1313557993639,0.0 -49.2676122,-21.1318593993639,0.0 -49.2674775,-21.1319483993639,0.0 -49.2669328,-21.1318728993639,0.0 -49.2665289,-21.1320985993639,0.0 -49.2657088,-21.1319927993639,0.0 -49.2651524,-21.1321051993639,0.0 -49.2649402,-21.1320551993639,0.0 -49.2645062,-21.1314682993639,0.0 -49.2643287,-21.1314155993639,0.0 -49.263484,-21.1315397993639,0.0 -49.2632979,-21.1316697993639,0.0 -49.2630706,-21.1320633993639,0.0 -49.2627437,-21.1322272993639,0.0 -49.262282,-21.1321170993639,0.0 -49.2616025,-21.1317089993639,0.0 -49.261499,-21.1317555993639,0.0 -49.2614777,-21.1322414993639,0.0 -49.2613648,-21.1323103993639,0.0 -49.2610463,-21.1323906993639,0.0 -49.2606137,-21.1321840993639,0.0 -49.2602261,-21.1326831993639,0.0 -49.2593063,-21.1328331993639,0.0 -49.2588737,-21.1330822993639,0.0 -49.258504,-21.1330476993639,0.0 -49.258169,-21.1332824993639,0.0 -49.2579023,-21.1338569993639,0.0 -49.2574696,-21.1340457993639,0.0 -49.2570567,-21.1340369993639,0.0 -49.2563053,-21.1341925993639,0.0 -49.2561649,-21.1341552993639,0.0 -49.2560486,-21.1339673993639,0.0 -49.255918,-21.1339565993639,0.0 -49.2553794,-21.1348081993639,0.0 -49.254823,-21.1349213993639,0.0 -49.2542631,-21.1348111993639,0.0 -49.2537907,-21.1345826993639,0.0 -49.2536401,-21.1342324993639,0.0 -49.2531467,-21.1340907993639,0.0 -49.2530429,-21.1339031993639,0.0 -49.2531814,-21.1334268993639,0.0 -49.2531253,-21.1332514993639,0.0 -49.2526566,-21.1327581993639,0.0 -49.2519368,-21.1327416993639,0.0 -49.2514874,-21.1326381993639,0.0 -49.2514122,-21.1324900993639,0.0 -49.2514388,-21.1321385993639,0.0 -49.2518273,-21.1313440993639,0.0 -49.2518071,-21.1311921993639,0.0 -49.2515243,-21.130909499364,0.0 -49.2516496,-21.130392299364,0.0 -49.2515632,-21.130324999364,0.0 -49.2510984,-21.130493999364,0.0 -49.2501606,-21.1313289993639,0.0 -49.2496575,-21.1316446993639,0.0 -49.2493281,-21.1317642993639,0.0 -49.2487447,-21.1318163993639,0.0 -49.24802,-21.1317726993639,0.0 -49.2475054,-21.1314808993639,0.0 -49.2465104,-21.1311511993639,0.0 -49.2462316,-21.130925399364,0.0 -49.2459225,-21.130412299364,0.0 -49.2457648,-21.129771799364,0.0 -49.2454278,-21.129467799364,0.0 -49.2450677,-21.129373999364,0.0 -49.2444086,-21.129415899364,0.0 -49.2440923,-21.129337599364,0.0 -49.2439847,-21.128967099364,0.0 -49.2441996,-21.128301899364,0.0 -49.2441604,-21.128142299364,0.0 -49.2435307,-21.127623799364,0.0 -49.2424004,-21.127341699364,0.0 -49.2415733,-21.1265545993641,0.0 -49.240783,-21.1264837993641,0.0 -49.2403193,-21.1263482993641,0.0 -49.2397414,-21.1264383993641,0.0 -49.2395129,-21.1263859993641,0.0 -49.2391585,-21.1261463993641,0.0 -49.2385394,-21.1259623993641,0.0 -49.2380486,-21.1259485993641,0.0 -49.2376481,-21.1260355993641,0.0 -49.2372468,-21.1262675993641,0.0 -49.2366686,-21.1263098993641,0.0 -49.2361769,-21.1260258993641,0.0 -49.2357465,-21.1259308993641,0.0 -49.2331567,-21.1259654993641,0.0 -49.2329127,-21.1257054993641,0.0 -49.2328339,-21.1251293993641,0.0 -49.2326601,-21.1249326993641,0.0 -49.2314598,-21.1243448993641,0.0 -49.2309505,-21.1241873993641,0.0 -49.2304161,-21.1242147993641,0.0 -49.2298965,-21.1244109993641,0.0 -49.2294235,-21.1243264993641,0.0 -49.2288854,-21.1245582993641,0.0 -49.2286104,-21.1245468993641,0.0 -49.2281464,-21.1243005993641,0.0 -49.2279318,-21.1243260993641,0.0 -49.2276615,-21.1246157993641,0.0 -49.2274984,-21.1246552993641,0.0 -49.2272481,-21.1244716993641,0.0 -49.2269153,-21.1244893993641,0.0 -49.2265398,-21.1249373993641,0.0 -49.2265203,-21.1253061993641,0.0 -49.2268627,-21.1264013993641,0.0 -49.2268298,-21.1266742993641,0.0 -49.2262688,-21.127140499364,0.0 -49.2263095,-21.127463199364,0.0 -49.2260626,-21.127713999364,0.0 -49.2251211,-21.127761399364,0.0 -49.2241865,-21.128346799364,0.0 -49.22366,-21.128366199364,0.0 -49.2226984,-21.128231999364,0.0 -49.2224458,-21.128359999364,0.0 -49.2219728,-21.129052099364,0.0 -49.2217255,-21.129167599364,0.0 -49.2210144,-21.129116999364,0.0 -49.2207836,-21.129225799364,0.0 -49.2206104,-21.129461499364,0.0 -49.2204576,-21.130110299364,0.0 -49.2205445,-21.130312699364,0.0 -49.2209414,-21.130609499364,0.0 -49.22097,-21.130828299364,0.0 -49.2206646,-21.1314331993639,0.0 -49.220385,-21.1324323993639,0.0 -49.220493,-21.1334768993639,0.0 -49.2203811,-21.1335403993639,0.0 -49.2200308,-21.1337430993639,0.0 -49.2195984,-21.1341903993639,0.0 -49.2191513,-21.1342291993639,0.0 -49.2187265,-21.1338703993639,0.0 -49.2182145,-21.1339180993639,0.0 -49.2180008,-21.1338246993639,0.0 -49.2177157,-21.1334950993639,0.0 -49.2166587,-21.1333310993639,0.0 -49.2164551,-21.1334036993639,0.0 -49.2161668,-21.1338324993639,0.0 -49.215829,-21.1340941993639,0.0 -49.2152309,-21.1340961993639,0.0 -49.2150523,-21.1341965993639,0.0 -49.2147594,-21.1345000993639,0.0 -49.2138657,-21.1361449993638,0.0 -49.21305,-21.1370705993638,0.0 -49.2123115,-21.1375704993638,0.0 -49.2110931,-21.1391873993638,0.0 -49.2104766,-21.1393393993637,0.0 -49.2101019,-21.1390720993638,0.0 -49.2100193,-21.1380778993638,0.0 -49.2097851,-21.1375460993638,0.0 -49.2093509,-21.1372707993638,0.0 -49.2087671,-21.1372164993638,0.0 -49.2076626,-21.1379257993638,0.0 -49.2063417,-21.1381479993638,0.0 -49.2054786,-21.1383902993638,0.0 -49.2044374,-21.1383932993638,0.0 -49.203793,-21.1385741993638,0.0 -49.2035894,-21.1388837993638,0.0 -49.2038558,-21.1394632993637,0.0 -49.2038235,-21.1396596993637,0.0 -49.2035102,-21.1400561993637,0.0 -49.2032023,-21.1402546993637,0.0 -49.203021,-21.1406486993637,0.0 -49.2028034,-21.1407361993637,0.0 -49.2012848,-21.1408175993637,0.0 -49.2004551,-21.1405031993637,0.0 -49.199766,-21.1407259993637,0.0 -49.1988388,-21.1407439993637,0.0 -49.1977632,-21.1402585993637,0.0 -49.1968176,-21.1407002993637,0.0 -49.1966563,-21.1411920993637,0.0 -49.1961703,-21.1415071993637,0.0 -49.1958781,-21.1418177993637,0.0 -49.1956369,-21.1419190993637,0.0 -49.1951469,-21.1418501993637,0.0 -49.1948977,-21.1410981993637,0.0 -49.1947591,-21.1409167993637,0.0 -49.1942426,-21.1407436993637,0.0 -49.1939285,-21.1404203993637,0.0 -49.1934924,-21.1403251993637,0.0 -49.1933465,-21.1402182993637,0.0 -49.1931504,-21.1398190993637,0.0 -49.1925839,-21.1396778993637,0.0 -49.192434,-21.1393087993638,0.0 -49.1922371,-21.1391410993638,0.0 -49.1921861,-21.1389017993638,0.0 -49.1924514,-21.1381741993638,0.0 -49.1924584,-21.1379888993638,0.0 -49.1918339,-21.1375531993638,0.0 -49.1912863,-21.1375097993638,0.0 -49.1899404,-21.1379382993638,0.0 -49.1896955,-21.1380961993638,0.0 -49.1887589,-21.1393298993637,0.0 -49.1879367,-21.1399452993637,0.0 -49.1871542,-21.1402852993637,0.0 -49.1865815,-21.1406599993637,0.0 -49.1865258,-21.1408340993637,0.0 -49.1867238,-21.1417683993637,0.0 -49.1866726,-21.1420407993637,0.0 -49.1861541,-21.1428539993637,0.0 -49.1861731,-21.1436354993636,0.0 -49.1860527,-21.1439041993636,0.0 -49.1852698,-21.1448503993636,0.0 -49.1846407,-21.1453576993636,0.0 -49.1845354,-21.1456059993636,0.0 -49.1844618,-21.1465398993636,0.0 -49.1845408,-21.1467483993636,0.0 -49.1850262,-21.1471657993636,0.0 -49.1851823,-21.1477592993635,0.0 -49.1853814,-21.1478856993635,0.0 -49.1858908,-21.1479802993635,0.0 -49.1862863,-21.1483481993635,0.0 -49.1870643,-21.1483855993635,0.0 -49.187271,-21.1485175993635,0.0 -49.1877915,-21.1492511993635,0.0 -49.1876998,-21.1498205993635,0.0 -49.186851,-21.1508387993635,0.0 -49.1865768,-21.1513939993635,0.0 -49.186035,-21.1515263993634,0.0 -49.185877,-21.1516488993635,0.0 -49.1857519,-21.1520290993634,0.0 -49.1853576,-21.1521305993634,0.0 -49.1851699,-21.1525116993634,0.0 -49.1854262,-21.1532521993634,0.0 -49.1856265,-21.1534632993634,0.0 -49.1877242,-21.1543316993634,0.0 -49.1886073,-21.1549935993634,0.0 -49.1886836,-21.1552858993634,0.0 -49.1883469,-21.1558050993633,0.0 -49.1883511,-21.1559448993633,0.0 -49.1887667,-21.1564367993633,0.0 -49.1885758,-21.1567979993633,0.0 -49.1888302,-21.1572429993633,0.0 -49.1885968,-21.1575201993633,0.0 -49.1885651,-21.1577840993633,0.0 -49.1887608,-21.1580760993633,0.0 -49.1887319,-21.1585229993633,0.0 -49.1883277,-21.1588979993633,0.0 -49.1882672,-21.1590709993633,0.0 -49.1882103,-21.1595486993633,0.0 -49.188377,-21.1597533993633,0.0 -49.1883063,-21.1600035993633,0.0 -49.1878084,-21.1602975993632,0.0 -49.1870894,-21.1605176993632,0.0 -49.1870772,-21.1607154993632,0.0 -49.1872951,-21.1609468993632,0.0 -49.1872793,-21.1611986993632,0.0 -49.1867,-21.1613866993632,0.0 -49.1864683,-21.1615810993632,0.0 -49.1864174,-21.1619624993632,0.0 -49.186782,-21.1625420993632,0.0 -49.1868221,-21.1629116993632,0.0 -49.1867307,-21.1631459993632,0.0 -49.1865737,-21.1632640993632,0.0 -49.1858031,-21.1632908993632,0.0 -49.1855938,-21.1634776993632,0.0 -49.1851543,-21.1642272993631,0.0 -49.185127,-21.1645940993631,0.0 -49.1852282,-21.1648311993631,0.0 -49.1852722,-21.1654647993631,0.0 -49.1857515,-21.1662809993631,0.0 -49.185559,-21.1668682993631,0.0 -49.1841769,-21.1678397993631,0.0 -49.1837633,-21.168563099363,0.0 -49.1826681,-21.169630099363,0.0 -49.1810765,-21.170314499363,0.0 -49.1807791,-21.170515999363,0.0 -49.1804744,-21.171027099363,0.0 -49.1802988,-21.1720751993629,0.0 -49.1793553,-21.1731256993629,0.0 -49.1791813,-21.1734981993629,0.0 -49.1789107,-21.1749200993629,0.0 -49.1787678,-21.1750781993629,0.0 -49.1785382,-21.1751463993629,0.0 -49.1774928,-21.1751490993629,0.0 -49.177154,-21.1755844993629,0.0 -49.1765321,-21.1758685993629,0.0 -49.1764316,-21.1760566993629,0.0 -49.1758024,-21.1765315993628,0.0 -49.1753508,-21.1772960993628,0.0 -49.1747148,-21.1775067993628,0.0 -49.1745226,-21.1776715993628,0.0 -49.1742807,-21.1783249993628,0.0 -49.1736524,-21.1787151993628,0.0 -49.1734341,-21.1790881993628,0.0 -49.1731178,-21.1793926993628,0.0 -49.1727741,-21.1801872993628,0.0 -49.1724901,-21.1804764993627,0.0 -49.1712913,-21.1811962993627,0.0 -49.1710765,-21.1811937993627,0.0 -49.1705616,-21.1808818993627,0.0 -49.1700931,-21.1809802993627,0.0 -49.1699162,-21.1809382993627,0.0 -49.1696164,-21.1806765993628,0.0 -49.1691838,-21.1808254993627,0.0 -49.1687145,-21.1804454993628,0.0 -49.1682681,-21.1805444993627,0.0 -49.1676368,-21.1804625993628,0.0 -49.1670166,-21.1808384993627,0.0 -49.1662195,-21.1817958993627,0.0 -49.1643803,-21.1831261993627,0.0 -49.1641728,-21.1830805993627,0.0 -49.1631432,-21.1824773993627,0.0 -49.1625407,-21.1824610993627,0.0 -49.1623172,-21.1825763993627,0.0 -49.1615648,-21.1833736993627,0.0 -49.1611031,-21.1837352993627,0.0 -49.1607989,-21.1842282993627,0.0 -49.1605082,-21.1843983993626,0.0 -49.1598915,-21.1843717993627,0.0 -49.1590737,-21.1845429993627,0.0 -49.1579649,-21.1844815993626,0.0 -49.1572014,-21.1847588993626,0.0 -49.1569882,-21.1847374993626,0.0 -49.1565915,-21.1843486993627,0.0 -49.1563935,-21.1843330993627,0.0 -49.1559767,-21.1845580993627,0.0 -49.1555694,-21.1845797993626,0.0 -49.1551484,-21.1844028993626,0.0 -49.1548942,-21.1845163993627,0.0 -49.1543102,-21.1844014993626,0.0 -49.1539624,-21.1845779993626,0.0 -49.1533103,-21.1846935993626,0.0 -49.1527851,-21.1851982993626,0.0 -49.1522682,-21.1853006993626,0.0 -49.1518247,-21.1856635993626,0.0 -49.1507742,-21.1857614993626,0.0 -49.1503524,-21.1860511993626,0.0 -49.1495846,-21.1862543993626,0.0 -49.1492069,-21.1866975993626,0.0 -49.1486234,-21.1868339993626,0.0 -49.1483216,-21.1870460993626,0.0 -49.1475391,-21.1872001993626,0.0 -49.1460416,-21.1870609993626,0.0 -49.1448793,-21.1873942993626,0.0 -49.1441615,-21.1892193993625,0.0 -49.1437669,-21.1899728993625,0.0 -49.1435782,-21.1905853993625,0.0 -49.1432605,-21.1925769993624,0.0 -49.1424181,-21.1940291993624,0.0 -49.1422728,-21.1949617993624,0.0 -49.1422354,-21.1965460993624,0.0 -49.14183,-21.1982143993623,0.0 -49.1419099,-21.1992741993623,0.0 -49.1421844,-21.2000729993623,0.0 -49.142178,-21.2017373993622,0.0 -49.1427922,-21.2040177993622,0.0 -49.1430449,-21.2044510993622,0.0 -49.1441419,-21.2056147993621,0.0 -49.1452011,-21.2069332993621,0.0 -49.1461626,-21.2085543993621,0.0 -49.1469414,-21.209282899362,0.0 -49.1474381,-21.209888899362,0.0 -49.1477848,-21.210952799362,0.0 -49.1477708,-21.211971199362,0.0 -49.1471803,-21.212845099362,0.0 -49.1462734,-21.2135838993619,0.0 -49.1457658,-21.2141962993619,0.0 -49.1455754,-21.2148870993619,0.0 -49.145525,-21.2158962993619,0.0 -49.1457784,-21.2163674993619,0.0 -49.1462527,-21.2168044993619,0.0 -49.1473372,-21.2172057993619,0.0 -49.1493764,-21.2172911993618,0.0 -49.1517082,-21.2178876993618,0.0 -49.1527172,-21.2180318993618,0.0 -49.1540134,-21.2178554993618,0.0 -49.1555083,-21.2179936993618,0.0 -49.1567386,-21.2182982993618,0.0 -49.159242,-21.2193652993618,0.0 -49.1608018,-21.2204096993618,0.0 -49.1625609,-21.2211067993618,0.0 -49.1642169,-21.2220971993617,0.0 -49.1646409,-21.2227776993617,0.0 -49.1645717,-21.2244836993617,0.0 -49.1646637,-21.2255906993617,0.0 -49.1649805,-21.2269265993616,0.0 -49.1655248,-21.2285860993616,0.0 -49.1661162,-21.2297757993615,0.0 -49.166305,-21.2308720993615,0.0 -49.1669035,-21.2322268993615,0.0 -49.1674613,-21.2330912993615,0.0 -49.1677726,-21.2342126993614,0.0 -49.1682147,-21.2348702993614,0.0 -49.168286,-21.2358145993614,0.0 -49.1686076,-21.2362966993614,0.0 -49.1686916,-21.2369989993614,0.0 -49.1691368,-21.2374440993614,0.0 -49.1698455,-21.2389407993613,0.0 -49.1702426,-21.2404446993613,0.0 -49.1707214,-21.2410708993613,0.0 -49.1709723,-21.2419500993613,0.0 -49.1712681,-21.2423647993612,0.0 -49.1714219,-21.2431167993612,0.0 -49.1714301,-21.2438385993612,0.0 -49.1716433,-21.2445716993612,0.0 -49.1721602,-21.2455358993612,0.0 -49.1724918,-21.2469514993611,0.0 -49.1734981,-21.2492258993611,0.0 -49.1739423,-21.2499690993611,0.0 -49.1751911,-21.251428099361,0.0 -49.1754687,-21.251752199361,0.0 -49.1757795,-21.251965699361,0.0 -49.1786326,-21.253925999361,0.0 -49.1793528,-21.2545427993609,0.0 -49.1800305,-21.2553971993609,0.0 -49.1808969,-21.2562596993609,0.0 -49.1818718,-21.2576052993609,0.0 -49.1823773,-21.2583043993609,0.0 -49.185572,-21.2606347993608,0.0 -49.1887639,-21.2634974993607,0.0 -49.190836,-21.2662931993607,0.0 -49.1911215,-21.2667913993606,0.0 -49.1916756,-21.2686943993606,0.0 -49.1923869,-21.2703855993606,0.0 -49.1931787,-21.2717971993605,0.0 -49.1944958,-21.2735948993605,0.0 -49.194861,-21.2739565993605,0.0 -49.1950965,-21.2740659993605,0.0 -49.1960265,-21.2742221993605,0.0 -49.1963399,-21.2743391993605,0.0 -49.1966255,-21.2745688993605,0.0 -49.1975344,-21.2757288993604,0.0 -49.1987033,-21.2764565993604,0.0 -49.199189,-21.2768757993604,0.0 -49.2004337,-21.2785641993604,0.0 -49.2007255,-21.2787805993604,0.0 -49.2019041,-21.2791212993604,0.0 -49.2030261,-21.2792161993603,0.0 -49.2042951,-21.2791756993604,0.0 -49.2051059,-21.2793535993604,0.0 -49.2056239,-21.2793745993603,0.0 -49.2073894,-21.2791553993604,0.0 -49.2084876,-21.2792405993604,0.0 -49.2091336,-21.2795056993603,0.0 -49.2098052,-21.2803192993603,0.0 -49.2101988,-21.2805205993603,0.0 -49.211133,-21.2805785993603,0.0 -49.2116361,-21.2810585993603,0.0 -49.2123164,-21.2811579993603,0.0 -49.2127491,-21.2815206993603,0.0 -49.2129938,-21.2822374993603,0.0 -49.2135855,-21.2831668993603,0.0 -49.2137954,-21.2838015993602,0.0 -49.2142312,-21.2844534993602,0.0 -49.2151956,-21.2854555993602,0.0 -49.2159335,-21.2860106993602,0.0 -49.2161534,-21.2866600993602,0.0 -49.216313,-21.2868519993602,0.0 -49.2167793,-21.2871021993602,0.0 -49.2171075,-21.2876230993601,0.0 -49.2174268,-21.2879167993601,0.0 -49.2178374,-21.2888121993601,0.0 -49.2188926,-21.2902572993601,0.0 -49.2215364,-21.29301939936,0.0 -49.2218108,-21.29443159936,0.0 -49.2224596,-21.29586339936,0.0 -49.2228797,-21.2976282993599,0.0 -49.2230151,-21.2979717993599,0.0 -49.2236065,-21.2988226993599,0.0 -49.2239479,-21.2996268993599,0.0 -49.2251198,-21.3032751993598,0.0 -49.2254717,-21.3050922993597,0.0 -49.2256658,-21.3056796993597,0.0 -49.2259315,-21.3077483993597,0.0 -49.2266342,-21.3107635993596,0.0 -49.2270232,-21.3115529993596,0.0 -49.2276618,-21.3122601993596,0.0 -49.2280691,-21.3130815993595,0.0 -49.2286781,-21.3138717993595,0.0 -49.2290971,-21.3147474993595,0.0 -49.2297602,-21.3133870993595,0.0 -49.2303859,-21.3127083993595,0.0 -49.2321807,-21.3120420993596,0.0 -49.2335165,-21.3112275993596,0.0 -49.2349866,-21.3101069993596,0.0 -49.235653,-21.3098365993596,0.0 -49.2369115,-21.3095343993596,0.0 -49.2375843,-21.3091839993596,0.0 -49.2385353,-21.3084882993596,0.0 -49.2401399,-21.3080389993597,0.0 -49.2415677,-21.3074171993597,0.0 -49.242535,-21.3069948993597,0.0 -49.2445874,-21.3065887993597,0.0 -49.246968,-21.3053658993597,0.0 -49.2480041,-21.3045715993597,0.0 -49.2482407,-21.3042314993597,0.0 -49.2483374,-21.3037760993598,0.0 -49.248434,-21.3033206993598,0.0 -49.2487205,-21.2998153993599,0.0 -49.2490736,-21.2991793993599,0.0 -49.2503408,-21.2982123993599,0.0 -49.2509221,-21.2979782993599,0.0 -49.2517349,-21.2980065993599,0.0 -49.2525429,-21.2981571993599,0.0 -49.2574474,-21.2997526993598,0.0 -49.2575299,-21.2981766993599,0.0 -49.2577418,-21.2977348993599,0.0 -49.2581613,-21.2971925993599,0.0 -49.2585761,-21.2967664993599,0.0 -49.2599468,-21.29581759936,0.0 -49.2604754,-21.29532789936,0.0 -49.2624396,-21.29384979936,0.0 -49.2638136,-21.29237569936,0.0 -49.2667004,-21.2905368993601,0.0 -49.2679762,-21.2895086993601,0.0 -49.2683445,-21.2890568993601,0.0 -49.2688651,-21.2881236993601,0.0 -49.2699467,-21.2867458993602,0.0 -49.270578,-21.2856671993602,0.0 -49.2709657,-21.2853023993602,0.0 -49.2711863,-21.2851864993602,0.0 -49.2712967,-21.2851284993602,0.0 -49.271407,-21.2850705993602,0.0 -49.2719351,-21.2850159993602,0.0 -49.273185,-21.2851518993602,0.0 -49.2741679,-21.2850757993602,0.0 -49.275281,-21.2853006993602,0.0 -49.2765324,-21.2857239993602,0.0 -49.2781576,-21.2857306993602,0.0 -49.2798035,-21.2862982993602,0.0 -49.2808029,-21.2864289993602,0.0 -49.2815426,-21.2867820993602,0.0 -49.2827775,-21.2876300993601,0.0 -49.284067,-21.2882183993601,0.0 -49.2848361,-21.2889830993601,0.0 -49.2849684,-21.2880705993601,0.0 -49.2852001,-21.2875778993601,0.0 -49.2860393,-21.2866283993602,0.0 -49.2879253,-21.2848980993602,0.0 -49.2887133,-21.2837704993602,0.0 -49.2901123,-21.2813509993603,0.0 -49.290473,-21.2802861993603,0.0 -49.2915447,-21.2781826993604,0.0 -49.2916254,-21.2774335993604,0.0 -49.291495,-21.2762335993604,0.0 -49.2915523,-21.2728332993605,0.0 -49.2913459,-21.2719608993605,0.0 -49.2908073,-21.2706800993606,0.0 -49.2908001,-21.2702734993606,0.0 -49.2913241,-21.2681366993606,0.0 -49.2914804,-21.2679527993606,0.0 -49.2921611,-21.2675257993606,0.0 -49.2931317,-21.2671041993606,0.0 -49.2942838,-21.2662515993607,0.0 -49.2970216,-21.2653682993607,0.0 -49.2982312,-21.2653424993607,0.0 -49.2985752,-21.2652880993607,0.0 -49.298956,-21.2650734993607,0.0 -49.3001692,-21.2635422993607,0.0 -49.3004644,-21.2624423993608,0.0 -49.3009779,-21.2612385993608,0.0 -49.3010758,-21.2600394993608,0.0 -49.3014576,-21.2594293993608,0.0 -49.3018638,-21.2592667993608,0.0 -49.3038417,-21.2593901993608,0.0 -49.3047397,-21.2592790993608,0.0 -49.3069703,-21.2584581993609,0.0 -49.3077993,-21.2580604993609,0.0 -49.3089986,-21.2579315993609,0.0 -49.3097318,-21.2575788993609,0.0 -49.3108061,-21.2573203993609,0.0 -49.3110617,-21.2571626993609,0.0 -49.3112682,-21.2569124993609,0.0 -49.311393,-21.2560176993609,0.0 -49.31176,-21.2549611993609,0.0 -49.3117299,-21.253903599361,0.0 -49.3118824,-21.252651899361,0.0 -49.3126519,-21.251332599361,0.0 -49.3137044,-21.2502707993611,0.0 -49.3150003,-21.2485507993611,0.0 -49.3158215,-21.2477292993611,0.0 -49.3164706,-21.2475940993611,0.0 -49.3194277,-21.2475606993611,0.0 -49.3200774,-21.2476191993611,0.0 -49.321104,-21.2478890993611,0.0 -49.321433,-21.2478476993611,0.0 -49.3216319,-21.2476865993611,0.0 -49.3227174,-21.2461849993612,0.0 -49.3232368,-21.2458218993612,0.0 -49.323666,-21.2456904993612,0.0 -49.3241722,-21.2456530993612,0.0 -49.3267831,-21.2462658993612,0.0 -49.3275424,-21.2459975993612,0.0 -49.3279318,-21.2456317993612,0.0 -49.3295464,-21.2428788993612,0.0 -49.3300903,-21.2423794993613,0.0 -49.3309476,-21.2419364993613,0.0 -49.3310573,-21.2413313993613,0.0 -49.3310661,-21.2401377993613,0.0 -49.3312001,-21.2388828993613,0.0 -49.3314266,-21.2383025993613,0.0 -49.3318314,-21.2377839993614,0.0 -49.3327798,-21.2369866993614,0.0 -49.3340693,-21.2360996993614,0.0 -49.3349106,-21.2357345993614,0.0 -49.335544,-21.2356682993614,0.0</coordinates>
</LinearRing>
</outerBoundaryIs>
</Polygon>
</MultiGeometry>
</Placemark>
</Folder>
</Document></kml>
