<?xml version='1.0' encoding='UTF-8'?>
<kml xmlns:xsd="http://www.w3.org/2001/XMLSchema" xmlns:gx="http://www.google.com/kml/ext/2.2" xmlns:atom="http://www.w3.org/2005/Atom" xmlns="http://www.opengis.net/kml/2.2">
<Document>
<name>varzea_paulista_3556503_localidades_2022</name>
<visibility>1</visibility>
<Schema name="Núcleos Urbanos" id="kml_schema_ft_Núcleos_Urbanos">
<SimpleField type="xsd:string" name="CD_UF">
<displayName>CD_UF</displayName>
</SimpleField>
<SimpleField type="xsd:string" name="NM_UF">
<displayName>NM_UF</displayName>
</SimpleField>
<SimpleField type="xsd:string" name="SIGLA_UF">
<displayName>SIGLA_UF</displayName>
</SimpleField>
<SimpleField type="xsd:string" name="CD_MUN">
<displayName>CD_MUN</displayName>
</SimpleField>
<SimpleField type="xsd:string" name="NM_MUN">
<displayName>NM_MUN</displayName>
</SimpleField>
<SimpleField type="xsd:string" name="CD_RGINT">
<displayName>CD_RGINT</displayName>
</SimpleField>
<SimpleField type="xsd:string" name="NM_RGINT">
<displayName>NM_RGINT</displayName>
</SimpleField>
<SimpleField type="xsd:string" name="CD_RGI">
<displayName>CD_RGI</displayName>
</SimpleField>
<SimpleField type="xsd:string" name="NM_RGI">
<displayName>NM_RGI</displayName>
</SimpleField>
<SimpleField type="xsd:string" name="CT_LOCALIDADE">
<displayName>CT_LOCALIDADE</displayName>
</SimpleField>
<SimpleField type="xsd:string" name="CD_LOCALIDADE">
<displayName>CD_LOCALIDADE</displayName>
</SimpleField>
<SimpleField type="xsd:string" name="NM_LOCALIDADE">
<displayName>NM_LOCALIDADE</displayName>
</SimpleField>
<SimpleField type="xsd:string" name="LAT_LOCALIDADE">
<displayName>LAT_LOCALIDADE</displayName>
</SimpleField>
<SimpleField type="xsd:string" name="LONG_LOCALIDADE">
<displayName>LONG_LOCALIDADE</displayName>
</SimpleField>
</Schema>
<Schema name="01. Cidade" id="kml_schema_ft_01._Cidade">
<SimpleField type="xsd:string" name="CD_UF">
<displayName>CD_UF</displayName>
</SimpleField>
<SimpleField type="xsd:string" name="NM_UF">
<displayName>NM_UF</displayName>
</SimpleField>
<SimpleField type="xsd:string" name="SIGLA_UF">
<displayName>SIGLA_UF</displayName>
</SimpleField>
<SimpleField type="xsd:string" name="CD_MUN">
<displayName>CD_MUN</displayName>
</SimpleField>
<SimpleField type="xsd:string" name="NM_MUN">
<displayName>NM_MUN</displayName>
</SimpleField>
<SimpleField type="xsd:string" name="CD_RGINT">
<displayName>CD_RGINT</displayName>
</SimpleField>
<SimpleField type="xsd:string" name="NM_RGINT">
<displayName>NM_RGINT</displayName>
</SimpleField>
<SimpleField type="xsd:string" name="CD_RGI">
<displayName>CD_RGI</displayName>
</SimpleField>
<SimpleField type="xsd:string" name="NM_RGI">
<displayName>NM_RGI</displayName>
</SimpleField>
<SimpleField type="xsd:string" name="CT_LOCALIDADE">
<displayName>CT_LOCALIDADE</displayName>
</SimpleField>
<SimpleField type="xsd:string" name="SCT_LOCALIDADE">
<displayName>SCT_LOCALIDADE</displayName>
</SimpleField>
<SimpleField type="xsd:string" name="CD_LOCALIDADE">
<displayName>CD_LOCALIDADE</displayName>
</SimpleField>
<SimpleField type="xsd:string" name="NM_LOCALIDADE">
<displayName>NM_LOCALIDADE</displayName>
</SimpleField>
<SimpleField type="xsd:string" name="LAT_LOCALIDADE">
<displayName>LAT_LOCALIDADE</displayName>
</SimpleField>
<SimpleField type="xsd:string" name="LONG_LOCALIDADE">
<displayName>LONG_LOCALIDADE</displayName>
</SimpleField>
</Schema>
<Schema name="Município" id="kml_schema_ft_Município">
<SimpleField type="xsd:string" name="CD_UF">
<displayName>CD_UF</displayName>
</SimpleField>
<SimpleField type="xsd:string" name="NM_UF">
<displayName>NM_UF</displayName>
</SimpleField>
<SimpleField type="xsd:string" name="CD_MUN">
<displayName>CD_MUN</displayName>
</SimpleField>
<SimpleField type="xsd:string" name="NM_MUN">
<displayName>NM_MUN</displayName>
</SimpleField>
<SimpleField type="xsd:string" name="CD_RGINT">
<displayName>CD_RGINT</displayName>
</SimpleField>
<SimpleField type="xsd:string" name="NM_RGINT">
<displayName>NM_RGINT</displayName>
</SimpleField>
<SimpleField type="xsd:string" name="CD_RGI">
<displayName>CD_RGI</displayName>
</SimpleField>
<SimpleField type="xsd:string" name="NM_RGI">
<displayName>NM_RGI</displayName>
</SimpleField>
</Schema>
<Folder id="01. Cidade">
<name>01. Cidade</name>
<Folder id="01.03. Sede Municipal">
<name>01.03. Sede Municipal</name>
<Placemark id="01.03. Sede Municipal">
<name>Várzea Paulista [3556503]</name>
<visibility>1</visibility>
<snippet> </snippet>
<description>&lt;center&gt;&lt;table&gt;&lt;tr&gt;&lt;th colspan='2' align='center'&gt;&lt;em&gt;Atributos&lt;/em&gt;&lt;/th&gt;&lt;/tr&gt;&lt;tr bgcolor="#E3E3F3"&gt;
&lt;th&gt;CD_UF&lt;/th&gt;
&lt;td&gt;35&lt;/td&gt;
&lt;/tr&gt;&lt;tr bgcolor=""&gt;
&lt;th&gt;NM_UF&lt;/th&gt;
&lt;td&gt;São Paulo&lt;/td&gt;
&lt;/tr&gt;&lt;tr bgcolor="#E3E3F3"&gt;
&lt;th&gt;SIGLA_UF&lt;/th&gt;
&lt;td&gt;SP&lt;/td&gt;
&lt;/tr&gt;&lt;tr bgcolor=""&gt;
&lt;th&gt;CD_MUN&lt;/th&gt;
&lt;td&gt;3556503&lt;/td&gt;
&lt;/tr&gt;&lt;tr bgcolor="#E3E3F3"&gt;
&lt;th&gt;NM_MUN&lt;/th&gt;
&lt;td&gt;Várzea Paulista&lt;/td&gt;
&lt;/tr&gt;&lt;tr bgcolor=""&gt;
&lt;th&gt;CD_RGINT&lt;/th&gt;
&lt;td&gt;3510&lt;/td&gt;
&lt;/tr&gt;&lt;tr bgcolor="#E3E3F3"&gt;
&lt;th&gt;NM_RGINT&lt;/th&gt;
&lt;td&gt;Campinas&lt;/td&gt;
&lt;/tr&gt;&lt;tr bgcolor=""&gt;
&lt;th&gt;CD_RGI&lt;/th&gt;
&lt;td&gt;350039&lt;/td&gt;
&lt;/tr&gt;&lt;tr bgcolor="#E3E3F3"&gt;
&lt;th&gt;NM_RGI&lt;/th&gt;
&lt;td&gt;Jundiaí&lt;/td&gt;
&lt;/tr&gt;&lt;tr bgcolor=""&gt;
&lt;th&gt;CT_LOCALIDADE&lt;/th&gt;
&lt;td&gt;Cidade&lt;/td&gt;
&lt;/tr&gt;&lt;tr bgcolor="#E3E3F3"&gt;
&lt;th&gt;SCT_LOCALIDADE&lt;/th&gt;
&lt;td&gt;Sede Municipal&lt;/td&gt;
&lt;/tr&gt;&lt;tr bgcolor=""&gt;
&lt;th&gt;CD_LOCALIDADE&lt;/th&gt;
&lt;td&gt;3556503&lt;/td&gt;
&lt;/tr&gt;&lt;tr bgcolor="#E3E3F3"&gt;
&lt;th&gt;NM_LOCALIDADE&lt;/th&gt;
&lt;td&gt;Várzea Paulista&lt;/td&gt;
&lt;/tr&gt;&lt;tr bgcolor=""&gt;
&lt;th&gt;LAT_LOCALIDADE&lt;/th&gt;
&lt;td&gt;-23.2112&lt;/td&gt;
&lt;/tr&gt;&lt;tr bgcolor="#E3E3F3"&gt;
&lt;th&gt;LONG_LOCALIDADE&lt;/th&gt;
&lt;td&gt;-46.8322&lt;/td&gt;
&lt;/tr&gt;&lt;/table&gt;&lt;/center&gt;</description>
<Style>
<IconStyle>
<color>ff00aaff</color>
<scale>1.0</scale>
<Icon>
<href>http://maps.google.com/mapfiles/kml/shapes/placemark_circle.png</href>
</Icon>
</IconStyle>
<LabelStyle>
<scale>1.0</scale>
</LabelStyle>
<LineStyle>
<color>ffffffff</color>
<width>3</width>
<gx:labelVisibility>1</gx:labelVisibility>
</LineStyle>
<PolyStyle>
<color>00ffffff</color>
</PolyStyle>
</Style>
<ExtendedData>
<SchemaData schemaUrl="#kml_schema_ft_01._Cidade">
<SimpleData name="CD_UF">35</SimpleData>
<SimpleData name="NM_UF">São Paulo</SimpleData>
<SimpleData name="SIGLA_UF">SP</SimpleData>
<SimpleData name="CD_MUN">3556503</SimpleData>
<SimpleData name="NM_MUN">Várzea Paulista</SimpleData>
<SimpleData name="CD_RGINT">3510</SimpleData>
<SimpleData name="NM_RGINT">Campinas</SimpleData>
<SimpleData name="CD_RGI">350039</SimpleData>
<SimpleData name="NM_RGI">Jundiaí</SimpleData>
<SimpleData name="CT_LOCALIDADE">Cidade</SimpleData>
<SimpleData name="SCT_LOCALIDADE">Sede Municipal</SimpleData>
<SimpleData name="CD_LOCALIDADE">3556503</SimpleData>
<SimpleData name="NM_LOCALIDADE">Várzea Paulista</SimpleData>
<SimpleData name="LAT_LOCALIDADE">-23.2112</SimpleData>
<SimpleData name="LONG_LOCALIDADE">-46.8322</SimpleData>
</SchemaData>
</ExtendedData>
<Point>
<extrude>0</extrude>
<coordinates>-46.832161,-23.211166999315,0.0</coordinates>
</Point>
</Placemark>
</Folder>
</Folder>
<Folder id="05. Núcleos Urbanos">
<name>05. Núcleos Urbanos</name>
<Placemark id="localidades">
<name>Mursa [3556503001]</name>
<visibility>1</visibility>
<snippet> </snippet>
<description>&lt;center&gt;&lt;table&gt;&lt;tr&gt;&lt;th colspan='2' align='center'&gt;&lt;em&gt;Attributes&lt;/em&gt;&lt;/th&gt;&lt;/tr&gt;&lt;tr bgcolor="#E3E3F3"&gt;
&lt;th&gt;CD_UF&lt;/th&gt;
&lt;td&gt;35&lt;/td&gt;
&lt;/tr&gt;&lt;tr bgcolor=""&gt;
&lt;th&gt;NM_UF&lt;/th&gt;
&lt;td&gt;São Paulo&lt;/td&gt;
&lt;/tr&gt;&lt;tr bgcolor="#E3E3F3"&gt;
&lt;th&gt;SIGLA_UF&lt;/th&gt;
&lt;td&gt;SP&lt;/td&gt;
&lt;/tr&gt;&lt;tr bgcolor=""&gt;
&lt;th&gt;CD_MUN&lt;/th&gt;
&lt;td&gt;3556503&lt;/td&gt;
&lt;/tr&gt;&lt;tr bgcolor="#E3E3F3"&gt;
&lt;th&gt;NM_MUN&lt;/th&gt;
&lt;td&gt;Várzea Paulista&lt;/td&gt;
&lt;/tr&gt;&lt;tr bgcolor=""&gt;
&lt;th&gt;CD_RGINT&lt;/th&gt;
&lt;td&gt;3510&lt;/td&gt;
&lt;/tr&gt;&lt;tr bgcolor="#E3E3F3"&gt;
&lt;th&gt;NM_RGINT&lt;/th&gt;
&lt;td&gt;Campinas&lt;/td&gt;
&lt;/tr&gt;&lt;tr bgcolor=""&gt;
&lt;th&gt;CD_RGI&lt;/th&gt;
&lt;td&gt;350039&lt;/td&gt;
&lt;/tr&gt;&lt;tr bgcolor="#E3E3F3"&gt;
&lt;th&gt;NM_RGI&lt;/th&gt;
&lt;td&gt;Jundiaí&lt;/td&gt;
&lt;/tr&gt;&lt;tr bgcolor=""&gt;
&lt;th&gt;CT_LOCALIDADE&lt;/th&gt;
&lt;td&gt;Núcleo Urbano&lt;/td&gt;
&lt;/tr&gt;&lt;tr bgcolor="#E3E3F3"&gt;
&lt;th&gt;CD_LOCALIDADE&lt;/th&gt;
&lt;td&gt;3556503001&lt;/td&gt;
&lt;/tr&gt;&lt;tr bgcolor=""&gt;
&lt;th&gt;NM_LOCALIDADE&lt;/th&gt;
&lt;td&gt;Mursa&lt;/td&gt;
&lt;/tr&gt;&lt;tr bgcolor="#E3E3F3"&gt;
&lt;th&gt;LAT_LOCALIDADE&lt;/th&gt;
&lt;td&gt;-23.2289&lt;/td&gt;
&lt;/tr&gt;&lt;tr bgcolor=""&gt;
&lt;th&gt;LONG_LOCALIDADE&lt;/th&gt;
&lt;td&gt;-46.8199&lt;/td&gt;
&lt;/tr&gt;&lt;/table&gt;&lt;/center&gt;</description>
<Style>
<IconStyle>
<color>ff0000ff</color>
<scale>0.9</scale>
<Icon>
<href>http://maps.google.com/mapfiles/kml/shapes/placemark_circle.png</href>
</Icon>
</IconStyle>
<LabelStyle>
<scale>0.9</scale>
</LabelStyle>
<LineStyle>
<color>72ffffff</color>
<width>1.0</width>
<gx:labelVisibility>1</gx:labelVisibility>
</LineStyle>
<PolyStyle>
<color>66ff54ff</color>
</PolyStyle>
</Style>
<ExtendedData>
<SchemaData schemaUrl="#kml_schema_ft_Núcleos_Urbanos">
<SimpleData name="CD_UF">35</SimpleData>
<SimpleData name="NM_UF">São Paulo</SimpleData>
<SimpleData name="SIGLA_UF">SP</SimpleData>
<SimpleData name="CD_MUN">3556503</SimpleData>
<SimpleData name="NM_MUN">Várzea Paulista</SimpleData>
<SimpleData name="CD_RGINT">3510</SimpleData>
<SimpleData name="NM_RGINT">Campinas</SimpleData>
<SimpleData name="CD_RGI">350039</SimpleData>
<SimpleData name="NM_RGI">Jundiaí</SimpleData>
<SimpleData name="CT_LOCALIDADE">Núcleo Urbano</SimpleData>
<SimpleData name="CD_LOCALIDADE">3556503001</SimpleData>
<SimpleData name="NM_LOCALIDADE">Mursa</SimpleData>
<SimpleData name="LAT_LOCALIDADE">-23.2289</SimpleData>
<SimpleData name="LONG_LOCALIDADE">-46.8199</SimpleData>
</SchemaData>
</ExtendedData>
<Point>
<extrude>0</extrude>
<coordinates>-46.8198908825332,-23.2288640527283,0.0</coordinates>
</Point>
</Placemark>
</Folder>
<Folder id="13. Referência">
<name>13. Referência</name>
<Placemark id="13. Referência">
<name>Várzea Paulista [3556503]</name>
<visibility>1</visibility>
<snippet> </snippet>
<description>&lt;center&gt;&lt;table&gt;&lt;tr&gt;&lt;th colspan='2' align='center'&gt;&lt;em&gt;Attributes&lt;/em&gt;&lt;/th&gt;&lt;/tr&gt;&lt;tr bgcolor="#E3E3F3"&gt;
&lt;th&gt;CD_UF&lt;/th&gt;
&lt;td&gt;35&lt;/td&gt;
&lt;/tr&gt;&lt;tr bgcolor=""&gt;
&lt;th&gt;NM_UF&lt;/th&gt;
&lt;td&gt;São Paulo&lt;/td&gt;
&lt;/tr&gt;&lt;tr bgcolor="#E3E3F3"&gt;
&lt;th&gt;CD_MUN&lt;/th&gt;
&lt;td&gt;3556503&lt;/td&gt;
&lt;/tr&gt;&lt;tr bgcolor=""&gt;
&lt;th&gt;NM_MUN&lt;/th&gt;
&lt;td&gt;Várzea Paulista&lt;/td&gt;
&lt;/tr&gt;&lt;tr bgcolor="#E3E3F3"&gt;
&lt;th&gt;CD_RGINT&lt;/th&gt;
&lt;td&gt;3510&lt;/td&gt;
&lt;/tr&gt;&lt;tr bgcolor=""&gt;
&lt;th&gt;NM_RGINT&lt;/th&gt;
&lt;td&gt;Campinas&lt;/td&gt;
&lt;/tr&gt;&lt;tr bgcolor="#E3E3F3"&gt;
&lt;th&gt;CD_RGI&lt;/th&gt;
&lt;td&gt;350039&lt;/td&gt;
&lt;/tr&gt;&lt;tr bgcolor=""&gt;
&lt;th&gt;NM_RGI&lt;/th&gt;
&lt;td&gt;Jundiaí&lt;/td&gt;
&lt;/tr&gt;&lt;/table&gt;&lt;/center&gt;</description>
<Style>
<IconStyle>
<scale>0.7</scale>
</IconStyle>
<LabelStyle>
<scale>0.7</scale>
</LabelStyle>
<LineStyle>
<color>ffffffff</color>
<width>3</width>
<gx:labelVisibility>1</gx:labelVisibility>
</LineStyle>
<PolyStyle>
<color>00ffffff</color>
</PolyStyle>
</Style>
<ExtendedData>
<SchemaData schemaUrl="#kml_schema_ft_Município">
<SimpleData name="CD_UF">35</SimpleData>
<SimpleData name="NM_UF">São Paulo</SimpleData>
<SimpleData name="CD_MUN">3556503</SimpleData>
<SimpleData name="NM_MUN">Várzea Paulista</SimpleData>
<SimpleData name="CD_RGINT">3510</SimpleData>
<SimpleData name="NM_RGINT">Campinas</SimpleData>
<SimpleData name="CD_RGI">350039</SimpleData>
<SimpleData name="NM_RGI">Jundiaí</SimpleData>
</SchemaData>
</ExtendedData>
<MultiGeometry>
<Polygon>
<extrude>0</extrude>
<tessellate>1</tessellate>
<outerBoundaryIs>
<LinearRing>
<coordinates>-46.8328048,-23.2467850993142,0.0 -46.8329237,-23.2466146993142,0.0 -46.833019,-23.2464779993142,0.0 -46.833501,-23.2460729993142,0.0 -46.833793,-23.2459509993142,0.0 -46.834104,-23.2459029993142,0.0 -46.834332,-23.2459389993142,0.0 -46.834936,-23.2461499993142,0.0 -46.836314,-23.2466339993142,0.0 -46.836702,-23.2467659993142,0.0 -46.836981,-23.2468409993142,0.0 -46.837219,-23.2469049993142,0.0 -46.837642,-23.2468709993142,0.0 -46.838067,-23.2467039993142,0.0 -46.8386447,-23.2463535993142,0.0 -46.8386806,-23.2463317993142,0.0 -46.838705,-23.2463169993142,0.0 -46.8387122,-23.2463116993142,0.0 -46.8392329,-23.2459310993142,0.0 -46.8393202,-23.2458672993142,0.0 -46.8394033,-23.2458064993142,0.0 -46.839441,-23.2457789993142,0.0 -46.839992,-23.2452569993143,0.0 -46.8407193,-23.2444975993143,0.0 -46.840783,-23.2444309993143,0.0 -46.840807,-23.2444138993143,0.0 -46.8410616,-23.2442322993143,0.0 -46.8412741,-23.2440807993143,0.0 -46.8412956,-23.2440654993143,0.0 -46.841319,-23.2440486993143,0.0 -46.84201,-23.2435559993143,0.0 -46.8421624,-23.2434358993143,0.0 -46.8421809,-23.2434211993143,0.0 -46.8421993,-23.2434067993143,0.0 -46.8424825,-23.2431834993143,0.0 -46.842541,-23.2431372993143,0.0 -46.8426049,-23.2430868993143,0.0 -46.842667,-23.2430379993143,0.0 -46.843046,-23.2425219993143,0.0 -46.8432368,-23.2421372993143,0.0 -46.8433225,-23.2419644993143,0.0 -46.8433991,-23.2418100993143,0.0 -46.8435531,-23.2414995993143,0.0 -46.8435652,-23.2414751993144,0.0 -46.8435775,-23.2414504993143,0.0 -46.843729,-23.2411449993144,0.0 -46.844301,-23.2402739993144,0.0 -46.8445685,-23.2400018993144,0.0 -46.8446802,-23.2398883993144,0.0 -46.844772,-23.2397949993144,0.0 -46.845099,-23.2396649993144,0.0 -46.8453,-23.2395869993144,0.0 -46.845642,-23.2395539993144,0.0 -46.84592,-23.2395429993144,0.0 -46.846309,-23.2396989993144,0.0 -46.846654,-23.2397669993144,0.0 -46.847194,-23.2400589993144,0.0 -46.847668,-23.2402249993144,0.0 -46.847919,-23.2402599993144,0.0 -46.848218,-23.2402049993144,0.0 -46.848403,-23.2400579993144,0.0 -46.848571,-23.2397979993144,0.0 -46.84872,-23.2395129993144,0.0 -46.848788,-23.2390779993144,0.0 -46.848784,-23.2385109993144,0.0 -46.8487832,-23.2382041993144,0.0 -46.8487831,-23.2381532993144,0.0 -46.848771,-23.2379279993144,0.0 -46.8488535,-23.2373978993144,0.0 -46.8488676,-23.2373068993144,0.0 -46.8488865,-23.2372608993144,0.0 -46.8488874,-23.2372567993144,0.0 -46.8488999,-23.2371990993144,0.0 -46.8489307,-23.2370566993145,0.0 -46.8489559,-23.2369758993145,0.0 -46.8490252,-23.2367540993145,0.0 -46.849033,-23.2367298993145,0.0 -46.8491025,-23.2365135993145,0.0 -46.8491614,-23.2364042993145,0.0 -46.8491975,-23.2363372993145,0.0 -46.8492228,-23.2362902993145,0.0 -46.8492321,-23.2362672993145,0.0 -46.8492786,-23.2361527993145,0.0 -46.8493817,-23.2359251993145,0.0 -46.8493899,-23.2359124993145,0.0 -46.8494968,-23.2357477993145,0.0 -46.8495878,-23.2356073993145,0.0 -46.8497124,-23.2354398993145,0.0 -46.8497539,-23.2354171993145,0.0 -46.8497866,-23.2353992993145,0.0 -46.8498476,-23.2353657993145,0.0 -46.8498928,-23.2353410993145,0.0 -46.8503051,-23.2352165993145,0.0 -46.8504552,-23.2351628993145,0.0 -46.8505456,-23.2351306993145,0.0 -46.8506358,-23.2350618993145,0.0 -46.8506916,-23.2349802993145,0.0 -46.8507646,-23.2347999993145,0.0 -46.8508334,-23.2345851993145,0.0 -46.8509622,-23.2340826993145,0.0 -46.8509558,-23.2340268993145,0.0 -46.8509493,-23.2339710993145,0.0 -46.8508634,-23.2338550993145,0.0 -46.8507376,-23.2337643993145,0.0 -46.8507062,-23.2337417993145,0.0 -46.8506757,-23.2337197993145,0.0 -46.8505714,-23.2336445993145,0.0 -46.8504726,-23.2334856993145,0.0 -46.8503352,-23.2329745993145,0.0 -46.8503023,-23.2323572993146,0.0 -46.8503,-23.2323134993146,0.0 -46.8502977,-23.2322714993146,0.0 -46.8502922,-23.2321671993146,0.0 -46.8503112,-23.2320320993146,0.0 -46.8503447,-23.2317911993146,0.0 -46.8503477,-23.2317879993146,0.0 -46.8503812,-23.2317633993146,0.0 -46.8506331,-23.2315777993146,0.0 -46.851236,-23.2311848993146,0.0 -46.8517237,-23.2309138993146,0.0 -46.851893,-23.2308461993146,0.0 -46.8521098,-23.2307242993146,0.0 -46.8522588,-23.2305210993146,0.0 -46.852462,-23.2301958993146,0.0 -46.8525495,-23.2300598993146,0.0 -46.8525782,-23.2300151993146,0.0 -46.8526062,-23.2299715993146,0.0 -46.8527059,-23.2298165993146,0.0 -46.8526922,-23.2297722993146,0.0 -46.8522859,-23.2284617993146,0.0 -46.8521894,-23.2280936993147,0.0 -46.8521347,-23.2278851993147,0.0 -46.8521274,-23.2278215993147,0.0 -46.8520939,-23.2275304993147,0.0 -46.8520789,-23.2273998993147,0.0 -46.8520711,-23.2273056993147,0.0 -46.852066,-23.2272443993147,0.0 -46.8520642,-23.2272225993147,0.0 -46.8520623,-23.2271995993147,0.0 -46.8520588,-23.2271569993147,0.0 -46.8520557,-23.2271189993147,0.0 -46.8521433,-23.2250204993147,0.0 -46.8520895,-23.2246082993147,0.0 -46.8520831,-23.2245589993147,0.0 -46.852078,-23.2245200993147,0.0 -46.8520767,-23.2245096993147,0.0 -46.8520717,-23.2244719993147,0.0 -46.8520531,-23.2243290993147,0.0 -46.8517943,-23.2229030993148,0.0 -46.851793,-23.2228959993148,0.0 -46.8517907,-23.2228395993148,0.0 -46.8517868,-23.2227442993148,0.0 -46.851786,-23.2227264993148,0.0 -46.8517853,-23.2227099993148,0.0 -46.851781,-23.2226103993148,0.0 -46.8517767,-23.2225088993148,0.0 -46.851747,-23.2218202993148,0.0 -46.851767,-23.2211119993148,0.0 -46.8518385,-23.2206756993148,0.0 -46.8518522,-23.2205916993148,0.0 -46.852043,-23.2201419993148,0.0 -46.852137,-23.2200259993148,0.0 -46.8524238,-23.2196931993148,0.0 -46.852785,-23.2194349993148,0.0 -46.853498,-23.2190389993149,0.0 -46.853996,-23.2186879993149,0.0 -46.854356,-23.2183359993149,0.0 -46.8545304,-23.2183163993149,0.0 -46.8547432,-23.2182781993149,0.0 -46.8548906,-23.2181963993149,0.0 -46.8549941,-23.2180696993149,0.0 -46.8550925,-23.2180598993149,0.0 -46.855172,-23.2180638993149,0.0 -46.8552017,-23.2180653993149,0.0 -46.8552985,-23.2179738993149,0.0 -46.8552999,-23.2179725993149,0.0 -46.8553927,-23.2177105993149,0.0 -46.8553982,-23.2176386993149,0.0 -46.8554011,-23.2176011993149,0.0 -46.8554036,-23.2175686993149,0.0 -46.8554036,-23.2175031993149,0.0 -46.8553927,-23.2174267993149,0.0 -46.8553512,-23.2172861993149,0.0 -46.855319,-23.2171770993149,0.0 -46.8552726,-23.2170147993149,0.0 -46.8552453,-23.2168482993149,0.0 -46.8551717,-23.2165781993149,0.0 -46.8551089,-23.2163188993149,0.0 -46.8551089,-23.2161524993149,0.0 -46.8550925,-23.2159532993149,0.0 -46.8550161,-23.2156475993149,0.0 -46.8550161,-23.2152819993149,0.0 -46.8549888,-23.2151372993149,0.0 -46.8549615,-23.2149926993149,0.0 -46.8548524,-23.214790799315,0.0 -46.8548142,-23.214637999315,0.0 -46.8548033,-23.214446899315,0.0 -46.8547596,-23.214310499315,0.0 -46.8547326,-23.214224799315,0.0 -46.854668,-23.214020399315,0.0 -46.8546614,-23.213999399315,0.0 -46.8546604,-23.213990599315,0.0 -46.8546598,-23.213985899315,0.0 -46.8546395,-23.213808399315,0.0 -46.8545631,-23.213660999315,0.0 -46.8545405,-23.213617399315,0.0 -46.8545211,-23.213579999315,0.0 -46.8544867,-23.213513699315,0.0 -46.8543394,-23.213317199315,0.0 -46.8542545,-23.213096599315,0.0 -46.8542359,-23.213047999315,0.0 -46.8542336,-23.213042199315,0.0 -46.8542302,-23.213033399315,0.0 -46.854223,-23.213014999315,0.0 -46.8541484,-23.212825999315,0.0 -46.8540501,-23.212629499315,0.0 -46.8540174,-23.212487599315,0.0 -46.8539955,-23.212291199315,0.0 -46.8540283,-23.212083799315,0.0 -46.8539737,-23.211767199315,0.0 -46.8539541,-23.211597499315,0.0 -46.853941,-23.211483399315,0.0 -46.853943,-23.211441699315,0.0 -46.8539519,-23.211265099315,0.0 -46.8539519,-23.211035899315,0.0 -46.85393,-23.210839399315,0.0 -46.8537663,-23.210664799315,0.0 -46.8536959,-23.2104873993151,0.0 -46.8537084,-23.2103151993151,0.0 -46.8537227,-23.2101189993151,0.0 -46.85381,-23.2096386993151,0.0 -46.8538318,-23.2093985993151,0.0 -46.8538864,-23.2089837993151,0.0 -46.8539191,-23.2085034993151,0.0 -46.8540065,-23.2079249993151,0.0 -46.8541594,-23.2076518993151,0.0 -46.8542139,-23.2074952993151,0.0 -46.8542266,-23.2074585993151,0.0 -46.8542466,-23.2074010993151,0.0 -46.8543411,-23.2072624993151,0.0 -46.8544239,-23.2071409993151,0.0 -46.8542692,-23.2071323993151,0.0 -46.8541146,-23.2071237993151,0.0 -46.8540864,-23.2071262993151,0.0 -46.8540418,-23.2071300993151,0.0 -46.8539974,-23.2071338993151,0.0 -46.8539945,-23.2071340993151,0.0 -46.853814,-23.2071495993151,0.0 -46.8534363,-23.2072282993151,0.0 -46.8531955,-23.2072784993151,0.0 -46.8527339,-23.2073629993151,0.0 -46.8527165,-23.2073661993151,0.0 -46.8526959,-23.2073698993151,0.0 -46.8526567,-23.2073770993151,0.0 -46.8525857,-23.2073900993151,0.0 -46.8520598,-23.2074925993151,0.0 -46.8520081,-23.2075025993151,0.0 -46.8519683,-23.2075103993151,0.0 -46.8519279,-23.2075182993151,0.0 -46.8519243,-23.2075189993151,0.0 -46.8509509,-23.2076911993151,0.0 -46.8509124,-23.2076979993151,0.0 -46.8508806,-23.2077035993151,0.0 -46.850873,-23.2077053993151,0.0 -46.8505617,-23.2077773993151,0.0 -46.850541,-23.2077822993151,0.0 -46.8505185,-23.2077873993151,0.0 -46.8499756,-23.2079130993151,0.0 -46.8499035,-23.2079297993151,0.0 -46.8498971,-23.2079312993151,0.0 -46.8498872,-23.2074782993151,0.0 -46.8498861,-23.2074273993151,0.0 -46.8498799,-23.2071409993151,0.0 -46.8494075,-23.2067887993151,0.0 -46.8488329,-23.2063148993151,0.0 -46.8487978,-23.2062858993151,0.0 -46.8487517,-23.2062477993151,0.0 -46.8487203,-23.2062218993151,0.0 -46.8487102,-23.2062110993151,0.0 -46.8486959,-23.2061955993151,0.0 -46.8485997,-23.2060914993151,0.0 -46.8484427,-23.2059217993152,0.0 -46.8483509,-23.2058224993152,0.0 -46.8482199,-23.2058235993152,0.0 -46.8481195,-23.2058243993152,0.0 -46.8480995,-23.2058244993152,0.0 -46.8480792,-23.2058246993152,0.0 -46.8478184,-23.2058267993152,0.0 -46.8475076,-23.2051416993152,0.0 -46.8474404,-23.2049935993152,0.0 -46.8455478,-23.2028957993152,0.0 -46.845418,-23.2027519993152,0.0 -46.8442622,-23.2027859993152,0.0 -46.8440919,-23.2027900993152,0.0 -46.841453,-23.2028539993152,0.0 -46.841444,-23.2026149993152,0.0 -46.8414855,-23.2024484993152,0.0 -46.841527,-23.2022819993152,0.0 -46.8415751,-23.2021878993152,0.0 -46.841593,-23.2021529993152,0.0 -46.841816,-23.2019029993152,0.0 -46.841988,-23.2017800993153,0.0 -46.842061,-23.2017279993152,0.0 -46.8423941,-23.2016108993153,0.0 -46.842408,-23.2016059993153,0.0 -46.8425585,-23.2015978993152,0.0 -46.8429764,-23.2015753993152,0.0 -46.843187,-23.2015639993153,0.0 -46.844339,-23.2016119993153,0.0 -46.844943,-23.2016889993152,0.0 -46.84523,-23.2017709993152,0.0 -46.846407,-23.2019929993152,0.0 -46.846585,-23.2020139993152,0.0 -46.84688,-23.2019869993152,0.0 -46.848043,-23.2021159993152,0.0 -46.848508,-23.2022579993152,0.0 -46.849182,-23.2023519993152,0.0 -46.849424,-23.2023719993152,0.0 -46.850229,-23.2023479993152,0.0 -46.851063,-23.2021159993152,0.0 -46.851339,-23.2019539993152,0.0 -46.851525,-23.2017879993152,0.0 -46.852116,-23.2013599993153,0.0 -46.852898,-23.2009639993153,0.0 -46.85314,-23.2008869993153,0.0 -46.853613,-23.2008159993153,0.0 -46.854224,-23.2008609993153,0.0 -46.8539072,-23.2006916993153,0.0 -46.85376,-23.2006129993153,0.0 -46.853362,-23.2003379993153,0.0 -46.852606,-23.1996879993153,0.0 -46.852499,-23.1995629993153,0.0 -46.851309,-23.1986069993153,0.0 -46.851061,-23.1983729993153,0.0 -46.850914,-23.1981629993153,0.0 -46.850425,-23.1969109993154,0.0 -46.850239,-23.1965676993154,0.0 -46.8497996,-23.1957566993154,0.0 -46.849784,-23.1957279993154,0.0 -46.8492957,-23.1954349993154,0.0 -46.849174,-23.1953619993154,0.0 -46.848774,-23.1951809993154,0.0 -46.848366,-23.1949539993154,0.0 -46.848111,-23.1947439993154,0.0 -46.847939,-23.1945039993154,0.0 -46.847795,-23.1942979993154,0.0 -46.8473544,-23.1933848993154,0.0 -46.847108,-23.1928589993155,0.0 -46.8470123,-23.1927212993155,0.0 -46.846834,-23.1924649993155,0.0 -46.846608,-23.1922329993155,0.0 -46.8465263,-23.1921825993155,0.0 -46.84624,-23.1920059993155,0.0 -46.845937,-23.1918999993155,0.0 -46.845728,-23.1918709993155,0.0 -46.845352,-23.1919229993155,0.0 -46.8449775,-23.1921199993155,0.0 -46.8447037,-23.1922639993155,0.0 -46.844687,-23.1922760993155,0.0 -46.8446576,-23.1922972993155,0.0 -46.8446546,-23.1922994993155,0.0 -46.844219,-23.1926139993155,0.0 -46.843624,-23.1928759993154,0.0 -46.8434815,-23.1929060993155,0.0 -46.8433937,-23.1929246993154,0.0 -46.8433472,-23.1929345993155,0.0 -46.8431054,-23.1929856993154,0.0 -46.8430645,-23.1929942993154,0.0 -46.8430176,-23.1930042993154,0.0 -46.8429638,-23.1930180993154,0.0 -46.8428004,-23.1930602993155,0.0 -46.842228,-23.1932079993154,0.0 -46.841712,-23.1932209993154,0.0 -46.841188,-23.1931679993154,0.0 -46.8406438,-23.1932015993154,0.0 -46.8402277,-23.1930948993154,0.0 -46.840089,-23.1930308993154,0.0 -46.8399183,-23.1929028993154,0.0 -46.8388834,-23.1920813993155,0.0 -46.838446,-23.1915692993155,0.0 -46.8379937,-23.1911747993155,0.0 -46.8379572,-23.1911429993155,0.0 -46.8379465,-23.1911335993155,0.0 -46.8379196,-23.1911104993155,0.0 -46.8377828,-23.1909925993155,0.0 -46.8377458,-23.1909605993155,0.0 -46.8377079,-23.1909279993155,0.0 -46.8373257,-23.1905983993155,0.0 -46.8370867,-23.1903625993155,0.0 -46.8370498,-23.1903262993155,0.0 -46.836833,-23.1900539993155,0.0 -46.8368157,-23.1900389993155,0.0 -46.836774,-23.1900030993155,0.0 -46.8367309,-23.1899658993155,0.0 -46.836373,-23.1896569993155,0.0 -46.8362799,-23.1895150993155,0.0 -46.8362369,-23.1894494993155,0.0 -46.8361993,-23.1893921993155,0.0 -46.8360098,-23.1891032993155,0.0 -46.8359847,-23.1890649993155,0.0 -46.835929,-23.1889799993155,0.0 -46.8348292,-23.1870135993156,0.0 -46.834694,-23.1867909993156,0.0 -46.834348,-23.1864109993156,0.0 -46.834004,-23.1861179993156,0.0 -46.833465,-23.1853719993156,0.0 -46.833137,-23.1849379993156,0.0 -46.8328836,-23.1845354993156,0.0 -46.832809,-23.1844169993156,0.0 -46.8327578,-23.1843784993156,0.0 -46.832547,-23.1842199993156,0.0 -46.8324001,-23.1841550993156,0.0 -46.8323358,-23.1841266993156,0.0 -46.832048,-23.1841609993156,0.0 -46.8317741,-23.1840536993156,0.0 -46.831744,-23.1840619993156,0.0 -46.831064,-23.1841399993157,0.0 -46.830518,-23.1843209993156,0.0 -46.8304337,-23.1843556993156,0.0 -46.829991,-23.1845379993156,0.0 -46.8298,-23.1845669993156,0.0 -46.829632,-23.1845409993156,0.0 -46.829415,-23.1844799993156,0.0 -46.829251,-23.1843359993156,0.0 -46.828808,-23.1837639993157,0.0 -46.8285986,-23.1834941993157,0.0 -46.8285967,-23.1834916993157,0.0 -46.8285944,-23.1834887993157,0.0 -46.8284965,-23.1833626993157,0.0 -46.8284925,-23.1833574993157,0.0 -46.828489,-23.1833529993157,0.0 -46.828182,-23.1830759993157,0.0 -46.827967,-23.1829579993157,0.0 -46.827845,-23.1829729993157,0.0 -46.827625,-23.1831059993157,0.0 -46.827486,-23.1833439993157,0.0 -46.827418,-23.1834999993157,0.0 -46.827342,-23.1835869993157,0.0 -46.8273039,-23.1835982993157,0.0 -46.8272306,-23.1836198993157,0.0 -46.827139,-23.1836469993157,0.0 -46.826904,-23.1835929993156,0.0 -46.8268184,-23.1835092993157,0.0 -46.8268002,-23.1834914993157,0.0 -46.8267819,-23.1834735993157,0.0 -46.8266085,-23.1833041993157,0.0 -46.8265598,-23.1832565993157,0.0 -46.825637,-23.1823349993157,0.0 -46.825216,-23.1819729993157,0.0 -46.824966,-23.1818259993157,0.0 -46.824768,-23.1817669993157,0.0 -46.824457,-23.1818279993157,0.0 -46.8240255,-23.1820589993157,0.0 -46.823594,-23.1822899993157,0.0 -46.823339,-23.1823039993157,0.0 -46.823139,-23.1822249993157,0.0 -46.822793,-23.1818259993157,0.0 -46.822576,-23.1816099993157,0.0 -46.822317,-23.1814369993157,0.0 -46.822075,-23.1813859993157,0.0 -46.821649,-23.1814179993157,0.0 -46.821438,-23.1815119993157,0.0 -46.82128,-23.1816779993157,0.0 -46.821214,-23.1817919993157,0.0 -46.820957,-23.1823549993157,0.0 -46.8207577,-23.1827338993157,0.0 -46.820735,-23.1827769993157,0.0 -46.820491,-23.1829549993157,0.0 -46.820171,-23.1830639993157,0.0 -46.819569,-23.1831929993157,0.0 -46.8194714,-23.1832161993157,0.0 -46.8192991,-23.1832570993157,0.0 -46.8191332,-23.1832964993157,0.0 -46.81887,-23.1833589993157,0.0 -46.818496,-23.1835299993157,0.0 -46.8184342,-23.1835723993157,0.0 -46.8184004,-23.1835954993157,0.0 -46.8183669,-23.1836184993157,0.0 -46.8182894,-23.1836716993157,0.0 -46.818197,-23.1837349993157,0.0 -46.8181947,-23.1837372993157,0.0 -46.8181282,-23.1838043993157,0.0 -46.8180913,-23.1838414993157,0.0 -46.8180735,-23.1838594993157,0.0 -46.8180547,-23.1838784993157,0.0 -46.8179857,-23.1839480993156,0.0 -46.81795,-23.1839839993156,0.0 -46.817782,-23.1842319993156,0.0 -46.81774,-23.1846219993156,0.0 -46.8177821,-23.1849119993156,0.0 -46.8177913,-23.1849757993156,0.0 -46.8178004,-23.1850386993156,0.0 -46.817826,-23.1852149993156,0.0 -46.817882,-23.1857849993156,0.0 -46.817823,-23.1860519993156,0.0 -46.8176815,-23.1861224993156,0.0 -46.8176657,-23.1861303993156,0.0 -46.8176398,-23.1861432993156,0.0 -46.8176137,-23.1861562993156,0.0 -46.81754,-23.1861929993156,0.0 -46.816703,-23.1863729993156,0.0 -46.816398,-23.1864644993156,0.0 -46.8162922,-23.1864961993156,0.0 -46.8161859,-23.1865280993156,0.0 -46.816123,-23.1865469993156,0.0 -46.8154606,-23.1868858993156,0.0 -46.8154247,-23.1869041993156,0.0 -46.8153879,-23.1869230993156,0.0 -46.815218,-23.1870099993156,0.0 -46.8151183,-23.1871049993156,0.0 -46.8150445,-23.1871754993156,0.0 -46.8148504,-23.1873608993156,0.0 -46.8144802,-23.1877007993156,0.0 -46.8144567,-23.1877228993156,0.0 -46.814191,-23.1879739993156,0.0 -46.8140998,-23.1880742993156,0.0 -46.8140791,-23.1880970993156,0.0 -46.814074,-23.1881026993156,0.0 -46.8140484,-23.1881308993156,0.0 -46.814046,-23.1881334993156,0.0 -46.8140094,-23.1881737993156,0.0 -46.813901,-23.1882929993156,0.0 -46.8135808,-23.1884528993155,0.0 -46.8135381,-23.1884741993156,0.0 -46.813517,-23.1884846993156,0.0 -46.8135083,-23.1884890993156,0.0 -46.8134958,-23.1884952993155,0.0 -46.8134748,-23.1885057993155,0.0 -46.813296,-23.1885019993155,0.0 -46.813073,-23.1884289993155,0.0 -46.812612,-23.1882219993156,0.0 -46.8125118,-23.1881324993156,0.0 -46.8123839,-23.1880182993156,0.0 -46.8123,-23.1879433993156,0.0 -46.8122131,-23.1878656993156,0.0 -46.812088,-23.1877539993156,0.0 -46.811773,-23.1874079993156,0.0 -46.811311,-23.1869989993156,0.0 -46.8109819,-23.1868130993156,0.0 -46.810948,-23.1867939993156,0.0 -46.8109027,-23.1867892993156,0.0 -46.810737,-23.1867719993156,0.0 -46.8105406,-23.1867591993156,0.0 -46.810506,-23.1867569993156,0.0 -46.8105009,-23.1867582993156,0.0 -46.8104627,-23.1867679993156,0.0 -46.810148,-23.1868479993156,0.0 -46.809876,-23.1870570993156,0.0 -46.809843,-23.1870824993156,0.0 -46.8098134,-23.1871184993156,0.0 -46.809642,-23.1873269993156,0.0 -46.809419,-23.1875749993156,0.0 -46.8090309,-23.1881133993156,0.0 -46.8089887,-23.1881718993156,0.0 -46.8089675,-23.1882013993156,0.0 -46.808936,-23.1882449993156,0.0 -46.8086913,-23.1885573993155,0.0 -46.8085422,-23.1887478993155,0.0 -46.808452,-23.1888629993155,0.0 -46.8081,-23.1894089993155,0.0 -46.807841,-23.1898489993155,0.0 -46.807725,-23.1899619993155,0.0 -46.807219,-23.1900319993155,0.0 -46.8068195,-23.1900263993155,0.0 -46.806501,-23.1900219993155,0.0 -46.8064343,-23.1900067993155,0.0 -46.805713,-23.1898419993155,0.0 -46.805159,-23.1896179993155,0.0 -46.8048898,-23.1894081993155,0.0 -46.80458,-23.1891589993155,0.0 -46.804164,-23.1887719993155,0.0 -46.803413,-23.1877489993156,0.0 -46.802928,-23.1868439993156,0.0 -46.802734,-23.1864439993156,0.0 -46.802426,-23.1860269993156,0.0 -46.802164,-23.1858629993156,0.0 -46.8020333,-23.1858309993156,0.0 -46.801931,-23.1858059993156,0.0 -46.801652,-23.1858019993156,0.0 -46.801421,-23.1858809993156,0.0 -46.8011812,-23.1859708993156,0.0 -46.8011528,-23.1859814993156,0.0 -46.8011451,-23.1859853993156,0.0 -46.8011102,-23.1860029993156,0.0 -46.8008623,-23.1861282993156,0.0 -46.800463,-23.1863299993156,0.0 -46.800032,-23.1867019993156,0.0 -46.799623,-23.1871969993156,0.0 -46.799196,-23.1877789993156,0.0 -46.79916,-23.1879539993156,0.0 -46.799232,-23.1884409993156,0.0 -46.799349,-23.1889249993155,0.0 -46.799661,-23.1896209993155,0.0 -46.799937,-23.1904749993155,0.0 -46.80026,-23.1919899993155,0.0 -46.800313,-23.1931089993154,0.0 -46.800415,-23.1937199993154,0.0 -46.800632,-23.1943479993154,0.0 -46.801,-23.1950089993154,0.0 -46.801805,-23.1957509993154,0.0 -46.802665,-23.1964629993154,0.0 -46.8030848,-23.1967966993154,0.0 -46.8031047,-23.1968123993154,0.0 -46.803469,-23.1971019993154,0.0 -46.804101,-23.1977239993153,0.0 -46.804756,-23.1985399993153,0.0 -46.804867,-23.1987489993153,0.0 -46.8048941,-23.1988630993153,0.0 -46.8049069,-23.1989168993153,0.0 -46.804933,-23.1990269993153,0.0 -46.804965,-23.1992949993153,0.0 -46.804968,-23.1994819993153,0.0 -46.804964,-23.1999009993153,0.0 -46.804878,-23.2005679993153,0.0 -46.804864,-23.2010049993153,0.0 -46.804871,-23.2015289993153,0.0 -46.804906,-23.2017599993153,0.0 -46.805093,-23.2020809993152,0.0 -46.80564,-23.2028289993152,0.0 -46.80594,-23.2036229993152,0.0 -46.806177,-23.2044039993152,0.0 -46.8063631,-23.2048401993152,0.0 -46.806372,-23.2048609993152,0.0 -46.8066776,-23.2054236993152,0.0 -46.80685,-23.2057409993152,0.0 -46.806908,-23.2062019993151,0.0 -46.806819,-23.2065489993151,0.0 -46.806554,-23.2068779993151,0.0 -46.806078,-23.2071429993151,0.0 -46.8053463,-23.2073453993151,0.0 -46.805314,-23.2073542993151,0.0 -46.8052764,-23.2073646993151,0.0 -46.805102,-23.2074129993151,0.0 -46.804954,-23.2075029993151,0.0 -46.8048706,-23.2077326993151,0.0 -46.8048659,-23.2077455993151,0.0 -46.804855,-23.2077754993151,0.0 -46.8048442,-23.2078052993151,0.0 -46.8048394,-23.2078183993151,0.0 -46.804484,-23.2087969993151,0.0 -46.8043705,-23.2090474993151,0.0 -46.804257,-23.2092979993151,0.0 -46.8041977,-23.2094011993151,0.0 -46.8041734,-23.2094433993151,0.0 -46.8041488,-23.2094862993151,0.0 -46.8039159,-23.2098914993151,0.0 -46.803221,-23.210925999315,0.0 -46.8030601,-23.211259099315,0.0 -46.802685,-23.212035999315,0.0 -46.8026588,-23.212085899315,0.0 -46.802508,-23.212372499315,0.0 -46.8024842,-23.212417799315,0.0 -46.8024802,-23.212478899315,0.0 -46.8024774,-23.212495499315,0.0 -46.8024766,-23.212499199315,0.0 -46.8024763,-23.212500899315,0.0 -46.8024761,-23.212503999315,0.0 -46.8024748,-23.212535699315,0.0 -46.8024745,-23.212540599315,0.0 -46.8024733,-23.212555799315,0.0 -46.8024731,-23.212558399315,0.0 -46.8024714,-23.212574899315,0.0 -46.8024711,-23.212577299315,0.0 -46.8024691,-23.212593799315,0.0 -46.8024689,-23.212595699315,0.0 -46.8024666,-23.212612199315,0.0 -46.8024662,-23.212614899315,0.0 -46.8024636,-23.212631299315,0.0 -46.8024633,-23.212633299315,0.0 -46.8024604,-23.212649799315,0.0 -46.8024599,-23.212652199315,0.0 -46.8024568,-23.212668299315,0.0 -46.8024563,-23.212670799315,0.0 -46.8024527,-23.212687199315,0.0 -46.8024522,-23.212689299315,0.0 -46.8024484,-23.212705499315,0.0 -46.8024479,-23.212707599315,0.0 -46.8024437,-23.212724099315,0.0 -46.8024431,-23.212726299315,0.0 -46.8024394,-23.212739899315,0.0 -46.8024388,-23.212742699315,0.0 -46.8024385,-23.212744199315,0.0 -46.8024383,-23.212747099315,0.0 -46.8024382,-23.212768999315,0.0 -46.8024382,-23.212770599315,0.0 -46.8024384,-23.212772899315,0.0 -46.8024386,-23.212774399315,0.0 -46.802439,-23.212776399315,0.0 -46.8024396,-23.212778499315,0.0 -46.8024461,-23.212799399315,0.0 -46.8024471,-23.212802199315,0.0 -46.8024478,-23.212803599315,0.0 -46.8024485,-23.212804899315,0.0 -46.8024493,-23.212806199315,0.0 -46.8024502,-23.212807499315,0.0 -46.8024514,-23.212808899315,0.0 -46.8024526,-23.212810299315,0.0 -46.8024624,-23.212821399315,0.0 -46.8024649,-23.212824099315,0.0 -46.8024661,-23.212825099315,0.0 -46.8024673,-23.212826099315,0.0 -46.8024686,-23.212826999315,0.0 -46.8024712,-23.212828599315,0.0 -46.8024967,-23.212842299315,0.0 -46.8024987,-23.212843499315,0.0 -46.8025044,-23.212846599315,0.0 -46.8025661,-23.212881199315,0.0 -46.8025675,-23.212881899315,0.0 -46.8025755,-23.212886899315,0.0 -46.8025833,-23.212892299315,0.0 -46.8025858,-23.212894299315,0.0 -46.8025819,-23.212895799315,0.0 -46.8025727,-23.212898699315,0.0 -46.8025633,-23.212901099315,0.0 -46.8025538,-23.212902899315,0.0 -46.8025441,-23.212903999315,0.0 -46.8025345,-23.212904599315,0.0 -46.8025214,-23.212904499315,0.0 -46.8025196,-23.212904499315,0.0 -46.8025162,-23.212904799315,0.0 -46.8024885,-23.212907599315,0.0 -46.8023813,-23.212918699315,0.0 -46.8023726,-23.212919599315,0.0 -46.8023559,-23.212921299315,0.0 -46.8023463,-23.212922299315,0.0 -46.802345,-23.212922399315,0.0 -46.8023433,-23.212922499315,0.0 -46.8023191,-23.212924499315,0.0 -46.8023114,-23.212924899315,0.0 -46.8022896,-23.212925599315,0.0 -46.8022641,-23.212924299315,0.0 -46.8022566,-23.212947799315,0.0 -46.8022455,-23.212982399315,0.0 -46.8021683,-23.213223099315,0.0 -46.8021525,-23.213271999315,0.0 -46.8021349,-23.213326899315,0.0 -46.802046,-23.213603999315,0.0 -46.801843,-23.214739999315,0.0 -46.801495,-23.2158439993149,0.0 -46.801308,-23.2166759993149,0.0 -46.801112,-23.2173579993149,0.0 -46.800612,-23.2184599993149,0.0 -46.80028,-23.2190659993149,0.0 -46.79999,-23.2194309993148,0.0 -46.799932,-23.2196150993148,0.0 -46.799807,-23.2200259993148,0.0 -46.7996342,-23.2204164993148,0.0 -46.79947,-23.2206489993148,0.0 -46.799345,-23.2207579993148,0.0 -46.79927,-23.2207799993148,0.0 -46.799077,-23.2207929993148,0.0 -46.798673,-23.2208129993148,0.0 -46.798415,-23.2208429993148,0.0 -46.7982678,-23.2209130993148,0.0 -46.7982357,-23.2209283993148,0.0 -46.7982044,-23.2209432993148,0.0 -46.798144,-23.2209719993148,0.0 -46.797819,-23.2211869993148,0.0 -46.797706,-23.2212789993148,0.0 -46.797421,-23.2216199993148,0.0 -46.797145,-23.2220649993148,0.0 -46.797077,-23.2222699993148,0.0 -46.797064,-23.2225959993148,0.0 -46.79706,-23.2228979993148,0.0 -46.797044,-23.2231509993148,0.0 -46.797013,-23.2234949993148,0.0 -46.797016,-23.2237129993147,0.0 -46.797084,-23.2240559993147,0.0 -46.797176,-23.2244049993147,0.0 -46.797464,-23.2254749993147,0.0 -46.797523,-23.2258729993147,0.0 -46.797555,-23.2261369993147,0.0 -46.79756,-23.2264829993147,0.0 -46.797531,-23.2267699993147,0.0 -46.797422,-23.2270249993147,0.0 -46.797241,-23.2272619993147,0.0 -46.797189,-23.2273609993147,0.0 -46.796983,-23.2277939993147,0.0 -46.796882,-23.2280709993147,0.0 -46.7968591,-23.2281636993146,0.0 -46.796714,-23.2287499993146,0.0 -46.796648,-23.2290649993146,0.0 -46.796602,-23.2295989993146,0.0 -46.796619,-23.2297649993146,0.0 -46.796721,-23.2299639993146,0.0 -46.7967712,-23.2300368993146,0.0 -46.797305,-23.2308112993146,0.0 -46.79734,-23.2308620993146,0.0 -46.7973691,-23.2309042993146,0.0 -46.797688,-23.2313669993146,0.0 -46.798174,-23.2320949993146,0.0 -46.7985522,-23.2327029993145,0.0 -46.798576,-23.2327411993145,0.0 -46.798607,-23.2327909993145,0.0 -46.798691,-23.2330302993145,0.0 -46.7986973,-23.2330481993145,0.0 -46.7986987,-23.2330527993145,0.0 -46.799077,-23.2342409993145,0.0 -46.799147,-23.2343569993145,0.0 -46.799198,-23.2344129993145,0.0 -46.799275,-23.2344769993145,0.0 -46.799442,-23.2345749993145,0.0 -46.800172,-23.2350889993145,0.0 -46.800476,-23.2353949993145,0.0 -46.800552,-23.2355529993145,0.0 -46.8005612,-23.2356163993145,0.0 -46.800567,-23.2356559993145,0.0 -46.800551,-23.2357539993145,0.0 -46.800362,-23.2360819993145,0.0 -46.799423,-23.2371919993144,0.0 -46.7992,-23.2376359993144,0.0 -46.799082,-23.2378719993144,0.0 -46.799078,-23.2379599993144,0.0 -46.799071,-23.2380709993144,0.0 -46.799099,-23.2381709993144,0.0 -46.799183,-23.2382639993144,0.0 -46.799264,-23.2383359993144,0.0 -46.799974,-23.2386869993144,0.0 -46.800541,-23.2389409993144,0.0 -46.801027,-23.2391689993144,0.0 -46.801419,-23.2393849993144,0.0 -46.801757,-23.2396729993144,0.0 -46.802197,-23.2401129993144,0.0 -46.802642,-23.2405369993144,0.0 -46.802976,-23.2407809993144,0.0 -46.803476,-23.2410419993144,0.0 -46.803853,-23.2412689993144,0.0 -46.804122,-23.2414699993143,0.0 -46.804858,-23.2419729993143,0.0 -46.804928,-23.2420359993143,0.0 -46.805037,-23.2421749993143,0.0 -46.805076,-23.2423599993143,0.0 -46.805088,-23.2425979993143,0.0 -46.805106,-23.2427829993143,0.0 -46.80504,-23.2429899993143,0.0 -46.8048175,-23.2435064993143,0.0 -46.804595,-23.2440229993143,0.0 -46.804522,-23.2445799993143,0.0 -46.804503,-23.2450029993143,0.0 -46.804476,-23.2456719993143,0.0 -46.804589,-23.2461929993142,0.0 -46.80472,-23.2467709993142,0.0 -46.804863,-23.2471239993142,0.0 -46.804888,-23.2473799993142,0.0 -46.804857,-23.2477059993142,0.0 -46.804879,-23.2480159993142,0.0 -46.804908,-23.2480949993142,0.0 -46.804984,-23.2481809993142,0.0 -46.805061,-23.2482449993142,0.0 -46.805165,-23.2482899993142,0.0 -46.80596,-23.2484269993142,0.0 -46.807173,-23.2487979993142,0.0 -46.808112,-23.2491289993142,0.0 -46.809087,-23.2494939993142,0.0 -46.809778,-23.2497299993142,0.0 -46.809964,-23.2498309993142,0.0 -46.810117,-23.2499699993142,0.0 -46.810212,-23.2501009993142,0.0 -46.810238,-23.2502409993141,0.0 -46.810199,-23.2503299993142,0.0 -46.810146,-23.2503789993141,0.0 -46.810046,-23.2504389993141,0.0 -46.809855,-23.2508429993141,0.0 -46.809548,-23.2515719993141,0.0 -46.809437,-23.2521319993141,0.0 -46.809385,-23.2522979993141,0.0 -46.809321,-23.2524539993141,0.0 -46.809135,-23.2527379993141,0.0 -46.808972,-23.2529409993141,0.0 -46.807944,-23.2541169993141,0.0 -46.807474,-23.2546429993141,0.0 -46.8074245,-23.254718999314,0.0 -46.807375,-23.2547949993141,0.0 -46.807301,-23.254944999314,0.0 -46.807257,-23.255090999314,0.0 -46.807298,-23.255250999314,0.0 -46.807382,-23.255367999314,0.0 -46.807479,-23.255463999314,0.0 -46.807614,-23.255497999314,0.0 -46.808392,-23.255515999314,0.0 -46.809082,-23.255507999314,0.0 -46.809744,-23.255553999314,0.0 -46.810391,-23.255631999314,0.0 -46.810657,-23.255669999314,0.0 -46.81085,-23.255740999314,0.0 -46.81101,-23.255826999314,0.0 -46.811597,-23.256302999314,0.0 -46.812645,-23.257168999314,0.0 -46.813315,-23.257799999314,0.0 -46.813985,-23.258296999314,0.0 -46.814363,-23.258584999314,0.0 -46.8146603,-23.258860999314,0.0 -46.815412,-23.2595449993139,0.0 -46.815557,-23.2596849993139,0.0 -46.815623,-23.2597669993139,0.0 -46.815676,-23.2598609993139,0.0 -46.815726,-23.2599819993139,0.0 -46.815795,-23.2602319993139,0.0 -46.816004,-23.2607349993139,0.0 -46.816059,-23.2608289993139,0.0 -46.816163,-23.2609379993139,0.0 -46.816415,-23.2610999993139,0.0 -46.816535,-23.2611329993139,0.0 -46.8169,-23.2610169993139,0.0 -46.81715,-23.2608749993139,0.0 -46.817279,-23.2607799993139,0.0 -46.817366,-23.2606699993139,0.0 -46.817412,-23.2605859993139,0.0 -46.817504,-23.2602539993139,0.0 -46.817591,-23.2601449993139,0.0 -46.81773,-23.2600289993139,0.0 -46.818408,-23.2596429993139,0.0 -46.818631,-23.2595249993139,0.0 -46.818981,-23.2594229993139,0.0 -46.819393,-23.2593739993139,0.0 -46.819787,-23.2594139993139,0.0 -46.820309,-23.2594289993139,0.0 -46.820621,-23.2594039993139,0.0 -46.820977,-23.259293999314,0.0 -46.821203,-23.2592089993139,0.0 -46.821338,-23.2591299993139,0.0 -46.82197,-23.258576999314,0.0 -46.822116,-23.258420999314,0.0 -46.822219,-23.258267999314,0.0 -46.822525,-23.257518999314,0.0 -46.82266,-23.257288999314,0.0 -46.822932,-23.256949999314,0.0 -46.823032,-23.256810999314,0.0 -46.82311,-23.256753999314,0.0 -46.823289,-23.256639999314,0.0 -46.823862,-23.256366999314,0.0 -46.824192,-23.256254999314,0.0 -46.824405,-23.256120999314,0.0 -46.824522,-23.255986999314,0.0 -46.824558,-23.255826999314,0.0 -46.824739,-23.255110999314,0.0 -46.824904,-23.2547049993141,0.0 -46.825018,-23.2543399993141,0.0 -46.825151,-23.2540339993141,0.0 -46.825295,-23.2538219993141,0.0 -46.825577,-23.2535119993141,0.0 -46.825777,-23.2532309993141,0.0 -46.826085,-23.2526959993141,0.0 -46.826542,-23.2521769993141,0.0 -46.826624,-23.2520239993141,0.0 -46.826651,-23.2518219993141,0.0 -46.826707,-23.2516719993141,0.0 -46.826762,-23.2515699993141,0.0 -46.827282,-23.2510469993141,0.0 -46.827394,-23.2509229993141,0.0 -46.827442,-23.2508169993141,0.0 -46.827503,-23.2505679993141,0.0 -46.827515,-23.2504459993141,0.0 -46.827743,-23.2503009993141,0.0 -46.828098,-23.2501939993141,0.0 -46.828364,-23.2500799993142,0.0 -46.828488,-23.2500489993142,0.0 -46.828612,-23.2500179993142,0.0 -46.8288277,-23.2499877993142,0.0 -46.8288689,-23.2499819993142,0.0 -46.8289096,-23.2499762993142,0.0 -46.829411,-23.2499059993142,0.0 -46.830192,-23.2498539993142,0.0 -46.830592,-23.2498529993142,0.0 -46.831167,-23.2497839993142,0.0 -46.831754,-23.2496069993142,0.0 -46.832174,-23.2493969993142,0.0 -46.832419,-23.2491739993142,0.0 -46.832606,-23.2486429993142,0.0 -46.832653,-23.2481069993142,0.0 -46.83266,-23.2472069993142,0.0 -46.832756,-23.2468549993142,0.0 -46.8328048,-23.2467850993142,0.0</coordinates>
</LinearRing>
</outerBoundaryIs>
</Polygon>
</MultiGeometry>
</Placemark>
</Folder>
</Document></kml>
