<?xml version='1.0' encoding='UTF-8'?>
<kml xmlns:xsd="http://www.w3.org/2001/XMLSchema" xmlns:gx="http://www.google.com/kml/ext/2.2" xmlns:atom="http://www.w3.org/2005/Atom" xmlns="http://www.opengis.net/kml/2.2">
<Document>
<name>fortim_2304459_localidades_2022</name>
<visibility>1</visibility>
<Schema name="Povoados" id="kml_schema_ft_Povoados">
<SimpleField type="xsd:string" name="CD_UF">
<displayName>CD_UF</displayName>
</SimpleField>
<SimpleField type="xsd:string" name="NM_UF">
<displayName>NM_UF</displayName>
</SimpleField>
<SimpleField type="xsd:string" name="SIGLA_UF">
<displayName>SIGLA_UF</displayName>
</SimpleField>
<SimpleField type="xsd:string" name="CD_MUN">
<displayName>CD_MUN</displayName>
</SimpleField>
<SimpleField type="xsd:string" name="NM_MUN">
<displayName>NM_MUN</displayName>
</SimpleField>
<SimpleField type="xsd:string" name="CD_RGINT">
<displayName>CD_RGINT</displayName>
</SimpleField>
<SimpleField type="xsd:string" name="NM_RGINT">
<displayName>NM_RGINT</displayName>
</SimpleField>
<SimpleField type="xsd:string" name="CD_RGI">
<displayName>CD_RGI</displayName>
</SimpleField>
<SimpleField type="xsd:string" name="NM_RGI">
<displayName>NM_RGI</displayName>
</SimpleField>
<SimpleField type="xsd:string" name="CT_LOCALIDADE">
<displayName>CT_LOCALIDADE</displayName>
</SimpleField>
<SimpleField type="xsd:string" name="CD_LOCALIDADE">
<displayName>CD_LOCALIDADE</displayName>
</SimpleField>
<SimpleField type="xsd:string" name="NM_LOCALIDADE">
<displayName>NM_LOCALIDADE</displayName>
</SimpleField>
<SimpleField type="xsd:string" name="LAT_LOCALIDADE">
<displayName>LAT_LOCALIDADE</displayName>
</SimpleField>
<SimpleField type="xsd:string" name="LONG_LOCALIDADE">
<displayName>LONG_LOCALIDADE</displayName>
</SimpleField>
</Schema>
<Schema name="Vilas" id="kml_schema_ft_Vilas">
<SimpleField type="xsd:string" name="CD_UF">
<displayName>CD_UF</displayName>
</SimpleField>
<SimpleField type="xsd:string" name="NM_UF">
<displayName>NM_UF</displayName>
</SimpleField>
<SimpleField type="xsd:string" name="SIGLA_UF">
<displayName>SIGLA_UF</displayName>
</SimpleField>
<SimpleField type="xsd:string" name="CD_MUN">
<displayName>CD_MUN</displayName>
</SimpleField>
<SimpleField type="xsd:string" name="NM_MUN">
<displayName>NM_MUN</displayName>
</SimpleField>
<SimpleField type="xsd:string" name="CD_RGINT">
<displayName>CD_RGINT</displayName>
</SimpleField>
<SimpleField type="xsd:string" name="NM_RGINT">
<displayName>NM_RGINT</displayName>
</SimpleField>
<SimpleField type="xsd:string" name="CD_RGI">
<displayName>CD_RGI</displayName>
</SimpleField>
<SimpleField type="xsd:string" name="NM_RGI">
<displayName>NM_RGI</displayName>
</SimpleField>
<SimpleField type="xsd:string" name="CT_LOCALIDADE">
<displayName>CT_LOCALIDADE</displayName>
</SimpleField>
<SimpleField type="xsd:string" name="CD_LOCALIDADE">
<displayName>CD_LOCALIDADE</displayName>
</SimpleField>
<SimpleField type="xsd:string" name="NM_LOCALIDADE">
<displayName>NM_LOCALIDADE</displayName>
</SimpleField>
<SimpleField type="xsd:string" name="LAT_LOCALIDADE">
<displayName>LAT_LOCALIDADE</displayName>
</SimpleField>
<SimpleField type="xsd:string" name="LONG_LOCALIDADE">
<displayName>LONG_LOCALIDADE</displayName>
</SimpleField>
</Schema>
<Schema name="Localidades" id="kml_schema_ft_Localidades">
<SimpleField type="xsd:string" name="CD_UF">
<displayName>CD_UF</displayName>
</SimpleField>
<SimpleField type="xsd:string" name="NM_UF">
<displayName>NM_UF</displayName>
</SimpleField>
<SimpleField type="xsd:string" name="SIGLA_UF">
<displayName>SIGLA_UF</displayName>
</SimpleField>
<SimpleField type="xsd:string" name="CD_MUN">
<displayName>CD_MUN</displayName>
</SimpleField>
<SimpleField type="xsd:string" name="NM_MUN">
<displayName>NM_MUN</displayName>
</SimpleField>
<SimpleField type="xsd:string" name="CD_RGINT">
<displayName>CD_RGINT</displayName>
</SimpleField>
<SimpleField type="xsd:string" name="NM_RGINT">
<displayName>NM_RGINT</displayName>
</SimpleField>
<SimpleField type="xsd:string" name="CD_RGI">
<displayName>CD_RGI</displayName>
</SimpleField>
<SimpleField type="xsd:string" name="NM_RGI">
<displayName>NM_RGI</displayName>
</SimpleField>
<SimpleField type="xsd:string" name="CT_LOCALIDADE">
<displayName>CT_LOCALIDADE</displayName>
</SimpleField>
<SimpleField type="xsd:string" name="SCT_LOCALIDADE">
<displayName>SCT_LOCALIDADE</displayName>
</SimpleField>
<SimpleField type="xsd:string" name="CD_LOCALIDADE">
<displayName>CD_LOCALIDADE</displayName>
</SimpleField>
<SimpleField type="xsd:string" name="NM_LOCALIDADE">
<displayName>NM_LOCALIDADE</displayName>
</SimpleField>
</Schema>
<Schema name="01. Cidade" id="kml_schema_ft_01._Cidade">
<SimpleField type="xsd:string" name="CD_UF">
<displayName>CD_UF</displayName>
</SimpleField>
<SimpleField type="xsd:string" name="NM_UF">
<displayName>NM_UF</displayName>
</SimpleField>
<SimpleField type="xsd:string" name="SIGLA_UF">
<displayName>SIGLA_UF</displayName>
</SimpleField>
<SimpleField type="xsd:string" name="CD_MUN">
<displayName>CD_MUN</displayName>
</SimpleField>
<SimpleField type="xsd:string" name="NM_MUN">
<displayName>NM_MUN</displayName>
</SimpleField>
<SimpleField type="xsd:string" name="CD_RGINT">
<displayName>CD_RGINT</displayName>
</SimpleField>
<SimpleField type="xsd:string" name="NM_RGINT">
<displayName>NM_RGINT</displayName>
</SimpleField>
<SimpleField type="xsd:string" name="CD_RGI">
<displayName>CD_RGI</displayName>
</SimpleField>
<SimpleField type="xsd:string" name="NM_RGI">
<displayName>NM_RGI</displayName>
</SimpleField>
<SimpleField type="xsd:string" name="CT_LOCALIDADE">
<displayName>CT_LOCALIDADE</displayName>
</SimpleField>
<SimpleField type="xsd:string" name="SCT_LOCALIDADE">
<displayName>SCT_LOCALIDADE</displayName>
</SimpleField>
<SimpleField type="xsd:string" name="CD_LOCALIDADE">
<displayName>CD_LOCALIDADE</displayName>
</SimpleField>
<SimpleField type="xsd:string" name="NM_LOCALIDADE">
<displayName>NM_LOCALIDADE</displayName>
</SimpleField>
<SimpleField type="xsd:string" name="LAT_LOCALIDADE">
<displayName>LAT_LOCALIDADE</displayName>
</SimpleField>
<SimpleField type="xsd:string" name="LONG_LOCALIDADE">
<displayName>LONG_LOCALIDADE</displayName>
</SimpleField>
</Schema>
<Schema name="Município" id="kml_schema_ft_Município">
<SimpleField type="xsd:string" name="CD_UF">
<displayName>CD_UF</displayName>
</SimpleField>
<SimpleField type="xsd:string" name="NM_UF">
<displayName>NM_UF</displayName>
</SimpleField>
<SimpleField type="xsd:string" name="CD_MUN">
<displayName>CD_MUN</displayName>
</SimpleField>
<SimpleField type="xsd:string" name="NM_MUN">
<displayName>NM_MUN</displayName>
</SimpleField>
<SimpleField type="xsd:string" name="CD_RGINT">
<displayName>CD_RGINT</displayName>
</SimpleField>
<SimpleField type="xsd:string" name="NM_RGINT">
<displayName>NM_RGINT</displayName>
</SimpleField>
<SimpleField type="xsd:string" name="CD_RGI">
<displayName>CD_RGI</displayName>
</SimpleField>
<SimpleField type="xsd:string" name="NM_RGI">
<displayName>NM_RGI</displayName>
</SimpleField>
</Schema>
<Folder id="01. Cidade">
<name>01. Cidade</name>
<Folder id="01.03. Sede Municipal">
<name>01.03. Sede Municipal</name>
<Placemark id="01.03. Sede Municipal">
<name>Fortim [2304459]</name>
<visibility>1</visibility>
<snippet> </snippet>
<description>&lt;center&gt;&lt;table&gt;&lt;tr&gt;&lt;th colspan='2' align='center'&gt;&lt;em&gt;Atributos&lt;/em&gt;&lt;/th&gt;&lt;/tr&gt;&lt;tr bgcolor="#E3E3F3"&gt;
&lt;th&gt;CD_UF&lt;/th&gt;
&lt;td&gt;23&lt;/td&gt;
&lt;/tr&gt;&lt;tr bgcolor=""&gt;
&lt;th&gt;NM_UF&lt;/th&gt;
&lt;td&gt;Ceará&lt;/td&gt;
&lt;/tr&gt;&lt;tr bgcolor="#E3E3F3"&gt;
&lt;th&gt;SIGLA_UF&lt;/th&gt;
&lt;td&gt;CE&lt;/td&gt;
&lt;/tr&gt;&lt;tr bgcolor=""&gt;
&lt;th&gt;CD_MUN&lt;/th&gt;
&lt;td&gt;2304459&lt;/td&gt;
&lt;/tr&gt;&lt;tr bgcolor="#E3E3F3"&gt;
&lt;th&gt;NM_MUN&lt;/th&gt;
&lt;td&gt;Fortim&lt;/td&gt;
&lt;/tr&gt;&lt;tr bgcolor=""&gt;
&lt;th&gt;CD_RGINT&lt;/th&gt;
&lt;td&gt;2302&lt;/td&gt;
&lt;/tr&gt;&lt;tr bgcolor="#E3E3F3"&gt;
&lt;th&gt;NM_RGINT&lt;/th&gt;
&lt;td&gt;Quixadá&lt;/td&gt;
&lt;/tr&gt;&lt;tr bgcolor=""&gt;
&lt;th&gt;CD_RGI&lt;/th&gt;
&lt;td&gt;230008&lt;/td&gt;
&lt;/tr&gt;&lt;tr bgcolor="#E3E3F3"&gt;
&lt;th&gt;NM_RGI&lt;/th&gt;
&lt;td&gt;Aracati&lt;/td&gt;
&lt;/tr&gt;&lt;tr bgcolor=""&gt;
&lt;th&gt;CT_LOCALIDADE&lt;/th&gt;
&lt;td&gt;Cidade&lt;/td&gt;
&lt;/tr&gt;&lt;tr bgcolor="#E3E3F3"&gt;
&lt;th&gt;SCT_LOCALIDADE&lt;/th&gt;
&lt;td&gt;Sede Municipal&lt;/td&gt;
&lt;/tr&gt;&lt;tr bgcolor=""&gt;
&lt;th&gt;CD_LOCALIDADE&lt;/th&gt;
&lt;td&gt;2304459&lt;/td&gt;
&lt;/tr&gt;&lt;tr bgcolor="#E3E3F3"&gt;
&lt;th&gt;NM_LOCALIDADE&lt;/th&gt;
&lt;td&gt;Fortim&lt;/td&gt;
&lt;/tr&gt;&lt;tr bgcolor=""&gt;
&lt;th&gt;LAT_LOCALIDADE&lt;/th&gt;
&lt;td&gt;-4.4509&lt;/td&gt;
&lt;/tr&gt;&lt;tr bgcolor="#E3E3F3"&gt;
&lt;th&gt;LONG_LOCALIDADE&lt;/th&gt;
&lt;td&gt;-37.798&lt;/td&gt;
&lt;/tr&gt;&lt;/table&gt;&lt;/center&gt;</description>
<Style>
<IconStyle>
<color>ff00aaff</color>
<scale>1.0</scale>
<Icon>
<href>http://maps.google.com/mapfiles/kml/shapes/placemark_circle.png</href>
</Icon>
</IconStyle>
<LabelStyle>
<scale>1.0</scale>
</LabelStyle>
<LineStyle>
<color>ffffffff</color>
<width>3</width>
<gx:labelVisibility>1</gx:labelVisibility>
</LineStyle>
<PolyStyle>
<color>00ffffff</color>
</PolyStyle>
</Style>
<ExtendedData>
<SchemaData schemaUrl="#kml_schema_ft_01._Cidade">
<SimpleData name="CD_UF">23</SimpleData>
<SimpleData name="NM_UF">Ceará</SimpleData>
<SimpleData name="SIGLA_UF">CE</SimpleData>
<SimpleData name="CD_MUN">2304459</SimpleData>
<SimpleData name="NM_MUN">Fortim</SimpleData>
<SimpleData name="CD_RGINT">2302</SimpleData>
<SimpleData name="NM_RGINT">Quixadá</SimpleData>
<SimpleData name="CD_RGI">230008</SimpleData>
<SimpleData name="NM_RGI">Aracati</SimpleData>
<SimpleData name="CT_LOCALIDADE">Cidade</SimpleData>
<SimpleData name="SCT_LOCALIDADE">Sede Municipal</SimpleData>
<SimpleData name="CD_LOCALIDADE">2304459</SimpleData>
<SimpleData name="NM_LOCALIDADE">Fortim</SimpleData>
<SimpleData name="LAT_LOCALIDADE">-4.4509</SimpleData>
<SimpleData name="LONG_LOCALIDADE">-37.798</SimpleData>
</SchemaData>
</ExtendedData>
<Point>
<extrude>0</extrude>
<coordinates>-37.798015,-4.4508589998534,0.0</coordinates>
</Point>
</Placemark>
</Folder>
</Folder>
<Folder id="04. Vilas">
<name>04. Vilas</name>
<Placemark id="04. Vilas">
<name>Barra [230445910]</name>
<visibility>1</visibility>
<snippet> </snippet>
<description>&lt;center&gt;&lt;table&gt;&lt;tr&gt;&lt;th colspan='2' align='center'&gt;&lt;em&gt;Atributos&lt;/em&gt;&lt;/th&gt;&lt;/tr&gt;&lt;tr bgcolor="#E3E3F3"&gt;
&lt;th&gt;CD_UF&lt;/th&gt;
&lt;td&gt;23&lt;/td&gt;
&lt;/tr&gt;&lt;tr bgcolor=""&gt;
&lt;th&gt;NM_UF&lt;/th&gt;
&lt;td&gt;Ceará&lt;/td&gt;
&lt;/tr&gt;&lt;tr bgcolor="#E3E3F3"&gt;
&lt;th&gt;SIGLA_UF&lt;/th&gt;
&lt;td&gt;CE&lt;/td&gt;
&lt;/tr&gt;&lt;tr bgcolor=""&gt;
&lt;th&gt;CD_MUN&lt;/th&gt;
&lt;td&gt;2304459&lt;/td&gt;
&lt;/tr&gt;&lt;tr bgcolor="#E3E3F3"&gt;
&lt;th&gt;NM_MUN&lt;/th&gt;
&lt;td&gt;Fortim&lt;/td&gt;
&lt;/tr&gt;&lt;tr bgcolor=""&gt;
&lt;th&gt;CD_RGINT&lt;/th&gt;
&lt;td&gt;2302&lt;/td&gt;
&lt;/tr&gt;&lt;tr bgcolor="#E3E3F3"&gt;
&lt;th&gt;NM_RGINT&lt;/th&gt;
&lt;td&gt;Quixadá&lt;/td&gt;
&lt;/tr&gt;&lt;tr bgcolor=""&gt;
&lt;th&gt;CD_RGI&lt;/th&gt;
&lt;td&gt;230008&lt;/td&gt;
&lt;/tr&gt;&lt;tr bgcolor="#E3E3F3"&gt;
&lt;th&gt;NM_RGI&lt;/th&gt;
&lt;td&gt;Aracati&lt;/td&gt;
&lt;/tr&gt;&lt;tr bgcolor=""&gt;
&lt;th&gt;CT_LOCALIDADE&lt;/th&gt;
&lt;td&gt;Vila&lt;/td&gt;
&lt;/tr&gt;&lt;tr bgcolor="#E3E3F3"&gt;
&lt;th&gt;CD_LOCALIDADE&lt;/th&gt;
&lt;td&gt;230445910&lt;/td&gt;
&lt;/tr&gt;&lt;tr bgcolor=""&gt;
&lt;th&gt;NM_LOCALIDADE&lt;/th&gt;
&lt;td&gt;Barra&lt;/td&gt;
&lt;/tr&gt;&lt;tr bgcolor="#E3E3F3"&gt;
&lt;th&gt;LAT_LOCALIDADE&lt;/th&gt;
&lt;td&gt;-4.4303&lt;/td&gt;
&lt;/tr&gt;&lt;tr bgcolor=""&gt;
&lt;th&gt;LONG_LOCALIDADE&lt;/th&gt;
&lt;td&gt;-37.7787&lt;/td&gt;
&lt;/tr&gt;&lt;/table&gt;&lt;/center&gt;</description>
<Style>
<IconStyle>
<color>ffff5400</color>
<scale>1.0</scale>
<Icon>
<href>http://maps.google.com/mapfiles/kml/shapes/placemark_circle.png</href>
</Icon>
</IconStyle>
<LabelStyle>
<scale>0.9</scale>
</LabelStyle>
<LineStyle>
<color>72ffffff</color>
<width>1.0</width>
<gx:labelVisibility>1</gx:labelVisibility>
</LineStyle>
<PolyStyle>
<color>660054ff</color>
</PolyStyle>
</Style>
<ExtendedData>
<SchemaData schemaUrl="#kml_schema_ft_Vilas">
<SimpleData name="CD_UF">23</SimpleData>
<SimpleData name="NM_UF">Ceará</SimpleData>
<SimpleData name="SIGLA_UF">CE</SimpleData>
<SimpleData name="CD_MUN">2304459</SimpleData>
<SimpleData name="NM_MUN">Fortim</SimpleData>
<SimpleData name="CD_RGINT">2302</SimpleData>
<SimpleData name="NM_RGINT">Quixadá</SimpleData>
<SimpleData name="CD_RGI">230008</SimpleData>
<SimpleData name="NM_RGI">Aracati</SimpleData>
<SimpleData name="CT_LOCALIDADE">Vila</SimpleData>
<SimpleData name="CD_LOCALIDADE">230445910</SimpleData>
<SimpleData name="NM_LOCALIDADE">Barra</SimpleData>
<SimpleData name="LAT_LOCALIDADE">-4.4303</SimpleData>
<SimpleData name="LONG_LOCALIDADE">-37.7787</SimpleData>
</SchemaData>
</ExtendedData>
<Point>
<extrude>0</extrude>
<coordinates>-37.778658,-4.43033599985407,0.0</coordinates>
</Point>
</Placemark>
<Placemark id="04. Vilas">
<name>Campestre [230445915]</name>
<visibility>1</visibility>
<snippet> </snippet>
<description>&lt;center&gt;&lt;table&gt;&lt;tr&gt;&lt;th colspan='2' align='center'&gt;&lt;em&gt;Atributos&lt;/em&gt;&lt;/th&gt;&lt;/tr&gt;&lt;tr bgcolor="#E3E3F3"&gt;
&lt;th&gt;CD_UF&lt;/th&gt;
&lt;td&gt;23&lt;/td&gt;
&lt;/tr&gt;&lt;tr bgcolor=""&gt;
&lt;th&gt;NM_UF&lt;/th&gt;
&lt;td&gt;Ceará&lt;/td&gt;
&lt;/tr&gt;&lt;tr bgcolor="#E3E3F3"&gt;
&lt;th&gt;SIGLA_UF&lt;/th&gt;
&lt;td&gt;CE&lt;/td&gt;
&lt;/tr&gt;&lt;tr bgcolor=""&gt;
&lt;th&gt;CD_MUN&lt;/th&gt;
&lt;td&gt;2304459&lt;/td&gt;
&lt;/tr&gt;&lt;tr bgcolor="#E3E3F3"&gt;
&lt;th&gt;NM_MUN&lt;/th&gt;
&lt;td&gt;Fortim&lt;/td&gt;
&lt;/tr&gt;&lt;tr bgcolor=""&gt;
&lt;th&gt;CD_RGINT&lt;/th&gt;
&lt;td&gt;2302&lt;/td&gt;
&lt;/tr&gt;&lt;tr bgcolor="#E3E3F3"&gt;
&lt;th&gt;NM_RGINT&lt;/th&gt;
&lt;td&gt;Quixadá&lt;/td&gt;
&lt;/tr&gt;&lt;tr bgcolor=""&gt;
&lt;th&gt;CD_RGI&lt;/th&gt;
&lt;td&gt;230008&lt;/td&gt;
&lt;/tr&gt;&lt;tr bgcolor="#E3E3F3"&gt;
&lt;th&gt;NM_RGI&lt;/th&gt;
&lt;td&gt;Aracati&lt;/td&gt;
&lt;/tr&gt;&lt;tr bgcolor=""&gt;
&lt;th&gt;CT_LOCALIDADE&lt;/th&gt;
&lt;td&gt;Vila&lt;/td&gt;
&lt;/tr&gt;&lt;tr bgcolor="#E3E3F3"&gt;
&lt;th&gt;CD_LOCALIDADE&lt;/th&gt;
&lt;td&gt;230445915&lt;/td&gt;
&lt;/tr&gt;&lt;tr bgcolor=""&gt;
&lt;th&gt;NM_LOCALIDADE&lt;/th&gt;
&lt;td&gt;Campestre&lt;/td&gt;
&lt;/tr&gt;&lt;tr bgcolor="#E3E3F3"&gt;
&lt;th&gt;LAT_LOCALIDADE&lt;/th&gt;
&lt;td&gt;-4.4319&lt;/td&gt;
&lt;/tr&gt;&lt;tr bgcolor=""&gt;
&lt;th&gt;LONG_LOCALIDADE&lt;/th&gt;
&lt;td&gt;-37.865&lt;/td&gt;
&lt;/tr&gt;&lt;/table&gt;&lt;/center&gt;</description>
<Style>
<IconStyle>
<color>ffff5400</color>
<scale>1.0</scale>
<Icon>
<href>http://maps.google.com/mapfiles/kml/shapes/placemark_circle.png</href>
</Icon>
</IconStyle>
<LabelStyle>
<scale>0.9</scale>
</LabelStyle>
<LineStyle>
<color>72ffffff</color>
<width>1.0</width>
<gx:labelVisibility>1</gx:labelVisibility>
</LineStyle>
<PolyStyle>
<color>660054ff</color>
</PolyStyle>
</Style>
<ExtendedData>
<SchemaData schemaUrl="#kml_schema_ft_Vilas">
<SimpleData name="CD_UF">23</SimpleData>
<SimpleData name="NM_UF">Ceará</SimpleData>
<SimpleData name="SIGLA_UF">CE</SimpleData>
<SimpleData name="CD_MUN">2304459</SimpleData>
<SimpleData name="NM_MUN">Fortim</SimpleData>
<SimpleData name="CD_RGINT">2302</SimpleData>
<SimpleData name="NM_RGINT">Quixadá</SimpleData>
<SimpleData name="CD_RGI">230008</SimpleData>
<SimpleData name="NM_RGI">Aracati</SimpleData>
<SimpleData name="CT_LOCALIDADE">Vila</SimpleData>
<SimpleData name="CD_LOCALIDADE">230445915</SimpleData>
<SimpleData name="NM_LOCALIDADE">Campestre</SimpleData>
<SimpleData name="LAT_LOCALIDADE">-4.4319</SimpleData>
<SimpleData name="LONG_LOCALIDADE">-37.865</SimpleData>
</SchemaData>
</ExtendedData>
<Point>
<extrude>0</extrude>
<coordinates>-37.864952,-4.43190899985402,0.0</coordinates>
</Point>
</Placemark>
<Placemark id="04. Vilas">
<name>Guajiru [230445920]</name>
<visibility>1</visibility>
<snippet> </snippet>
<description>&lt;center&gt;&lt;table&gt;&lt;tr&gt;&lt;th colspan='2' align='center'&gt;&lt;em&gt;Atributos&lt;/em&gt;&lt;/th&gt;&lt;/tr&gt;&lt;tr bgcolor="#E3E3F3"&gt;
&lt;th&gt;CD_UF&lt;/th&gt;
&lt;td&gt;23&lt;/td&gt;
&lt;/tr&gt;&lt;tr bgcolor=""&gt;
&lt;th&gt;NM_UF&lt;/th&gt;
&lt;td&gt;Ceará&lt;/td&gt;
&lt;/tr&gt;&lt;tr bgcolor="#E3E3F3"&gt;
&lt;th&gt;SIGLA_UF&lt;/th&gt;
&lt;td&gt;CE&lt;/td&gt;
&lt;/tr&gt;&lt;tr bgcolor=""&gt;
&lt;th&gt;CD_MUN&lt;/th&gt;
&lt;td&gt;2304459&lt;/td&gt;
&lt;/tr&gt;&lt;tr bgcolor="#E3E3F3"&gt;
&lt;th&gt;NM_MUN&lt;/th&gt;
&lt;td&gt;Fortim&lt;/td&gt;
&lt;/tr&gt;&lt;tr bgcolor=""&gt;
&lt;th&gt;CD_RGINT&lt;/th&gt;
&lt;td&gt;2302&lt;/td&gt;
&lt;/tr&gt;&lt;tr bgcolor="#E3E3F3"&gt;
&lt;th&gt;NM_RGINT&lt;/th&gt;
&lt;td&gt;Quixadá&lt;/td&gt;
&lt;/tr&gt;&lt;tr bgcolor=""&gt;
&lt;th&gt;CD_RGI&lt;/th&gt;
&lt;td&gt;230008&lt;/td&gt;
&lt;/tr&gt;&lt;tr bgcolor="#E3E3F3"&gt;
&lt;th&gt;NM_RGI&lt;/th&gt;
&lt;td&gt;Aracati&lt;/td&gt;
&lt;/tr&gt;&lt;tr bgcolor=""&gt;
&lt;th&gt;CT_LOCALIDADE&lt;/th&gt;
&lt;td&gt;Vila&lt;/td&gt;
&lt;/tr&gt;&lt;tr bgcolor="#E3E3F3"&gt;
&lt;th&gt;CD_LOCALIDADE&lt;/th&gt;
&lt;td&gt;230445920&lt;/td&gt;
&lt;/tr&gt;&lt;tr bgcolor=""&gt;
&lt;th&gt;NM_LOCALIDADE&lt;/th&gt;
&lt;td&gt;Guajiru&lt;/td&gt;
&lt;/tr&gt;&lt;tr bgcolor="#E3E3F3"&gt;
&lt;th&gt;LAT_LOCALIDADE&lt;/th&gt;
&lt;td&gt;-4.412&lt;/td&gt;
&lt;/tr&gt;&lt;tr bgcolor=""&gt;
&lt;th&gt;LONG_LOCALIDADE&lt;/th&gt;
&lt;td&gt;-37.8473&lt;/td&gt;
&lt;/tr&gt;&lt;/table&gt;&lt;/center&gt;</description>
<Style>
<IconStyle>
<color>ffff5400</color>
<scale>1.0</scale>
<Icon>
<href>http://maps.google.com/mapfiles/kml/shapes/placemark_circle.png</href>
</Icon>
</IconStyle>
<LabelStyle>
<scale>0.9</scale>
</LabelStyle>
<LineStyle>
<color>72ffffff</color>
<width>1.0</width>
<gx:labelVisibility>1</gx:labelVisibility>
</LineStyle>
<PolyStyle>
<color>660054ff</color>
</PolyStyle>
</Style>
<ExtendedData>
<SchemaData schemaUrl="#kml_schema_ft_Vilas">
<SimpleData name="CD_UF">23</SimpleData>
<SimpleData name="NM_UF">Ceará</SimpleData>
<SimpleData name="SIGLA_UF">CE</SimpleData>
<SimpleData name="CD_MUN">2304459</SimpleData>
<SimpleData name="NM_MUN">Fortim</SimpleData>
<SimpleData name="CD_RGINT">2302</SimpleData>
<SimpleData name="NM_RGINT">Quixadá</SimpleData>
<SimpleData name="CD_RGI">230008</SimpleData>
<SimpleData name="NM_RGI">Aracati</SimpleData>
<SimpleData name="CT_LOCALIDADE">Vila</SimpleData>
<SimpleData name="CD_LOCALIDADE">230445920</SimpleData>
<SimpleData name="NM_LOCALIDADE">Guajiru</SimpleData>
<SimpleData name="LAT_LOCALIDADE">-4.412</SimpleData>
<SimpleData name="LONG_LOCALIDADE">-37.8473</SimpleData>
</SchemaData>
</ExtendedData>
<Point>
<extrude>0</extrude>
<coordinates>-37.847336,-4.41196399985468,0.0</coordinates>
</Point>
</Placemark>
<Placemark id="04. Vilas">
<name>Maceió [230445925]</name>
<visibility>1</visibility>
<snippet> </snippet>
<description>&lt;center&gt;&lt;table&gt;&lt;tr&gt;&lt;th colspan='2' align='center'&gt;&lt;em&gt;Atributos&lt;/em&gt;&lt;/th&gt;&lt;/tr&gt;&lt;tr bgcolor="#E3E3F3"&gt;
&lt;th&gt;CD_UF&lt;/th&gt;
&lt;td&gt;23&lt;/td&gt;
&lt;/tr&gt;&lt;tr bgcolor=""&gt;
&lt;th&gt;NM_UF&lt;/th&gt;
&lt;td&gt;Ceará&lt;/td&gt;
&lt;/tr&gt;&lt;tr bgcolor="#E3E3F3"&gt;
&lt;th&gt;SIGLA_UF&lt;/th&gt;
&lt;td&gt;CE&lt;/td&gt;
&lt;/tr&gt;&lt;tr bgcolor=""&gt;
&lt;th&gt;CD_MUN&lt;/th&gt;
&lt;td&gt;2304459&lt;/td&gt;
&lt;/tr&gt;&lt;tr bgcolor="#E3E3F3"&gt;
&lt;th&gt;NM_MUN&lt;/th&gt;
&lt;td&gt;Fortim&lt;/td&gt;
&lt;/tr&gt;&lt;tr bgcolor=""&gt;
&lt;th&gt;CD_RGINT&lt;/th&gt;
&lt;td&gt;2302&lt;/td&gt;
&lt;/tr&gt;&lt;tr bgcolor="#E3E3F3"&gt;
&lt;th&gt;NM_RGINT&lt;/th&gt;
&lt;td&gt;Quixadá&lt;/td&gt;
&lt;/tr&gt;&lt;tr bgcolor=""&gt;
&lt;th&gt;CD_RGI&lt;/th&gt;
&lt;td&gt;230008&lt;/td&gt;
&lt;/tr&gt;&lt;tr bgcolor="#E3E3F3"&gt;
&lt;th&gt;NM_RGI&lt;/th&gt;
&lt;td&gt;Aracati&lt;/td&gt;
&lt;/tr&gt;&lt;tr bgcolor=""&gt;
&lt;th&gt;CT_LOCALIDADE&lt;/th&gt;
&lt;td&gt;Vila&lt;/td&gt;
&lt;/tr&gt;&lt;tr bgcolor="#E3E3F3"&gt;
&lt;th&gt;CD_LOCALIDADE&lt;/th&gt;
&lt;td&gt;230445925&lt;/td&gt;
&lt;/tr&gt;&lt;tr bgcolor=""&gt;
&lt;th&gt;NM_LOCALIDADE&lt;/th&gt;
&lt;td&gt;Maceió&lt;/td&gt;
&lt;/tr&gt;&lt;tr bgcolor="#E3E3F3"&gt;
&lt;th&gt;LAT_LOCALIDADE&lt;/th&gt;
&lt;td&gt;-4.4073&lt;/td&gt;
&lt;/tr&gt;&lt;tr bgcolor=""&gt;
&lt;th&gt;LONG_LOCALIDADE&lt;/th&gt;
&lt;td&gt;-37.7816&lt;/td&gt;
&lt;/tr&gt;&lt;/table&gt;&lt;/center&gt;</description>
<Style>
<IconStyle>
<color>ffff5400</color>
<scale>1.0</scale>
<Icon>
<href>http://maps.google.com/mapfiles/kml/shapes/placemark_circle.png</href>
</Icon>
</IconStyle>
<LabelStyle>
<scale>0.9</scale>
</LabelStyle>
<LineStyle>
<color>72ffffff</color>
<width>1.0</width>
<gx:labelVisibility>1</gx:labelVisibility>
</LineStyle>
<PolyStyle>
<color>660054ff</color>
</PolyStyle>
</Style>
<ExtendedData>
<SchemaData schemaUrl="#kml_schema_ft_Vilas">
<SimpleData name="CD_UF">23</SimpleData>
<SimpleData name="NM_UF">Ceará</SimpleData>
<SimpleData name="SIGLA_UF">CE</SimpleData>
<SimpleData name="CD_MUN">2304459</SimpleData>
<SimpleData name="NM_MUN">Fortim</SimpleData>
<SimpleData name="CD_RGINT">2302</SimpleData>
<SimpleData name="NM_RGINT">Quixadá</SimpleData>
<SimpleData name="CD_RGI">230008</SimpleData>
<SimpleData name="NM_RGI">Aracati</SimpleData>
<SimpleData name="CT_LOCALIDADE">Vila</SimpleData>
<SimpleData name="CD_LOCALIDADE">230445925</SimpleData>
<SimpleData name="NM_LOCALIDADE">Maceió</SimpleData>
<SimpleData name="LAT_LOCALIDADE">-4.4073</SimpleData>
<SimpleData name="LONG_LOCALIDADE">-37.7816</SimpleData>
</SchemaData>
</ExtendedData>
<Point>
<extrude>0</extrude>
<coordinates>-37.781642,-4.40732799985483,0.0</coordinates>
</Point>
</Placemark>
<Placemark id="04. Vilas">
<name>Viçosa [230445930]</name>
<visibility>1</visibility>
<snippet> </snippet>
<description>&lt;center&gt;&lt;table&gt;&lt;tr&gt;&lt;th colspan='2' align='center'&gt;&lt;em&gt;Atributos&lt;/em&gt;&lt;/th&gt;&lt;/tr&gt;&lt;tr bgcolor="#E3E3F3"&gt;
&lt;th&gt;CD_UF&lt;/th&gt;
&lt;td&gt;23&lt;/td&gt;
&lt;/tr&gt;&lt;tr bgcolor=""&gt;
&lt;th&gt;NM_UF&lt;/th&gt;
&lt;td&gt;Ceará&lt;/td&gt;
&lt;/tr&gt;&lt;tr bgcolor="#E3E3F3"&gt;
&lt;th&gt;SIGLA_UF&lt;/th&gt;
&lt;td&gt;CE&lt;/td&gt;
&lt;/tr&gt;&lt;tr bgcolor=""&gt;
&lt;th&gt;CD_MUN&lt;/th&gt;
&lt;td&gt;2304459&lt;/td&gt;
&lt;/tr&gt;&lt;tr bgcolor="#E3E3F3"&gt;
&lt;th&gt;NM_MUN&lt;/th&gt;
&lt;td&gt;Fortim&lt;/td&gt;
&lt;/tr&gt;&lt;tr bgcolor=""&gt;
&lt;th&gt;CD_RGINT&lt;/th&gt;
&lt;td&gt;2302&lt;/td&gt;
&lt;/tr&gt;&lt;tr bgcolor="#E3E3F3"&gt;
&lt;th&gt;NM_RGINT&lt;/th&gt;
&lt;td&gt;Quixadá&lt;/td&gt;
&lt;/tr&gt;&lt;tr bgcolor=""&gt;
&lt;th&gt;CD_RGI&lt;/th&gt;
&lt;td&gt;230008&lt;/td&gt;
&lt;/tr&gt;&lt;tr bgcolor="#E3E3F3"&gt;
&lt;th&gt;NM_RGI&lt;/th&gt;
&lt;td&gt;Aracati&lt;/td&gt;
&lt;/tr&gt;&lt;tr bgcolor=""&gt;
&lt;th&gt;CT_LOCALIDADE&lt;/th&gt;
&lt;td&gt;Vila&lt;/td&gt;
&lt;/tr&gt;&lt;tr bgcolor="#E3E3F3"&gt;
&lt;th&gt;CD_LOCALIDADE&lt;/th&gt;
&lt;td&gt;230445930&lt;/td&gt;
&lt;/tr&gt;&lt;tr bgcolor=""&gt;
&lt;th&gt;NM_LOCALIDADE&lt;/th&gt;
&lt;td&gt;Viçosa&lt;/td&gt;
&lt;/tr&gt;&lt;tr bgcolor="#E3E3F3"&gt;
&lt;th&gt;LAT_LOCALIDADE&lt;/th&gt;
&lt;td&gt;-4.47&lt;/td&gt;
&lt;/tr&gt;&lt;tr bgcolor=""&gt;
&lt;th&gt;LONG_LOCALIDADE&lt;/th&gt;
&lt;td&gt;-37.8013&lt;/td&gt;
&lt;/tr&gt;&lt;/table&gt;&lt;/center&gt;</description>
<Style>
<IconStyle>
<color>ffff5400</color>
<scale>1.0</scale>
<Icon>
<href>http://maps.google.com/mapfiles/kml/shapes/placemark_circle.png</href>
</Icon>
</IconStyle>
<LabelStyle>
<scale>0.9</scale>
</LabelStyle>
<LineStyle>
<color>72ffffff</color>
<width>1.0</width>
<gx:labelVisibility>1</gx:labelVisibility>
</LineStyle>
<PolyStyle>
<color>660054ff</color>
</PolyStyle>
</Style>
<ExtendedData>
<SchemaData schemaUrl="#kml_schema_ft_Vilas">
<SimpleData name="CD_UF">23</SimpleData>
<SimpleData name="NM_UF">Ceará</SimpleData>
<SimpleData name="SIGLA_UF">CE</SimpleData>
<SimpleData name="CD_MUN">2304459</SimpleData>
<SimpleData name="NM_MUN">Fortim</SimpleData>
<SimpleData name="CD_RGINT">2302</SimpleData>
<SimpleData name="NM_RGINT">Quixadá</SimpleData>
<SimpleData name="CD_RGI">230008</SimpleData>
<SimpleData name="NM_RGI">Aracati</SimpleData>
<SimpleData name="CT_LOCALIDADE">Vila</SimpleData>
<SimpleData name="CD_LOCALIDADE">230445930</SimpleData>
<SimpleData name="NM_LOCALIDADE">Viçosa</SimpleData>
<SimpleData name="LAT_LOCALIDADE">-4.47</SimpleData>
<SimpleData name="LONG_LOCALIDADE">-37.8013</SimpleData>
</SchemaData>
</ExtendedData>
<Point>
<extrude>0</extrude>
<coordinates>-37.801342,-4.46999199985278,0.0</coordinates>
</Point>
</Placemark>
</Folder>
<Folder id="06. Povoados">
<name>06. Povoados</name>
<Placemark id="06. Povoados">
<name>Gurguri [230445900006]</name>
<visibility>1</visibility>
<snippet> </snippet>
<description>&lt;center&gt;&lt;table&gt;&lt;tr&gt;&lt;th colspan='2' align='center'&gt;&lt;em&gt;Atributos&lt;/em&gt;&lt;/th&gt;&lt;/tr&gt;&lt;tr bgcolor="#E3E3F3"&gt;
&lt;th&gt;CD_UF&lt;/th&gt;
&lt;td&gt;23&lt;/td&gt;
&lt;/tr&gt;&lt;tr bgcolor=""&gt;
&lt;th&gt;NM_UF&lt;/th&gt;
&lt;td&gt;Ceará&lt;/td&gt;
&lt;/tr&gt;&lt;tr bgcolor="#E3E3F3"&gt;
&lt;th&gt;SIGLA_UF&lt;/th&gt;
&lt;td&gt;CE&lt;/td&gt;
&lt;/tr&gt;&lt;tr bgcolor=""&gt;
&lt;th&gt;CD_MUN&lt;/th&gt;
&lt;td&gt;2304459&lt;/td&gt;
&lt;/tr&gt;&lt;tr bgcolor="#E3E3F3"&gt;
&lt;th&gt;NM_MUN&lt;/th&gt;
&lt;td&gt;Fortim&lt;/td&gt;
&lt;/tr&gt;&lt;tr bgcolor=""&gt;
&lt;th&gt;CD_RGINT&lt;/th&gt;
&lt;td&gt;2302&lt;/td&gt;
&lt;/tr&gt;&lt;tr bgcolor="#E3E3F3"&gt;
&lt;th&gt;NM_RGINT&lt;/th&gt;
&lt;td&gt;Quixadá&lt;/td&gt;
&lt;/tr&gt;&lt;tr bgcolor=""&gt;
&lt;th&gt;CD_RGI&lt;/th&gt;
&lt;td&gt;230008&lt;/td&gt;
&lt;/tr&gt;&lt;tr bgcolor="#E3E3F3"&gt;
&lt;th&gt;NM_RGI&lt;/th&gt;
&lt;td&gt;Aracati&lt;/td&gt;
&lt;/tr&gt;&lt;tr bgcolor=""&gt;
&lt;th&gt;CT_LOCALIDADE&lt;/th&gt;
&lt;td&gt;Povoado&lt;/td&gt;
&lt;/tr&gt;&lt;tr bgcolor="#E3E3F3"&gt;
&lt;th&gt;CD_LOCALIDADE&lt;/th&gt;
&lt;td&gt;230445900006&lt;/td&gt;
&lt;/tr&gt;&lt;tr bgcolor=""&gt;
&lt;th&gt;NM_LOCALIDADE&lt;/th&gt;
&lt;td&gt;Gurguri&lt;/td&gt;
&lt;/tr&gt;&lt;tr bgcolor="#E3E3F3"&gt;
&lt;th&gt;LAT_LOCALIDADE&lt;/th&gt;
&lt;td&gt;-4.5039&lt;/td&gt;
&lt;/tr&gt;&lt;tr bgcolor=""&gt;
&lt;th&gt;LONG_LOCALIDADE&lt;/th&gt;
&lt;td&gt;-37.8088&lt;/td&gt;
&lt;/tr&gt;&lt;/table&gt;&lt;/center&gt;</description>
<Style>
<IconStyle>
<color>ff00ff54</color>
<scale>0.8</scale>
<Icon>
<href>http://maps.google.com/mapfiles/kml/shapes/placemark_circle.png</href>
</Icon>
</IconStyle>
<LabelStyle>
<scale>0.8</scale>
</LabelStyle>
<LineStyle>
<color>72ff54ff</color>
<width>1.0</width>
<gx:labelVisibility>1</gx:labelVisibility>
</LineStyle>
<PolyStyle>
<color>66ff54ff</color>
</PolyStyle>
</Style>
<ExtendedData>
<SchemaData schemaUrl="#kml_schema_ft_Povoados">
<SimpleData name="CD_UF">23</SimpleData>
<SimpleData name="NM_UF">Ceará</SimpleData>
<SimpleData name="SIGLA_UF">CE</SimpleData>
<SimpleData name="CD_MUN">2304459</SimpleData>
<SimpleData name="NM_MUN">Fortim</SimpleData>
<SimpleData name="CD_RGINT">2302</SimpleData>
<SimpleData name="NM_RGINT">Quixadá</SimpleData>
<SimpleData name="CD_RGI">230008</SimpleData>
<SimpleData name="NM_RGI">Aracati</SimpleData>
<SimpleData name="CT_LOCALIDADE">Povoado</SimpleData>
<SimpleData name="CD_LOCALIDADE">230445900006</SimpleData>
<SimpleData name="NM_LOCALIDADE">Gurguri</SimpleData>
<SimpleData name="LAT_LOCALIDADE">-4.5039</SimpleData>
<SimpleData name="LONG_LOCALIDADE">-37.8088</SimpleData>
</SchemaData>
</ExtendedData>
<Point>
<extrude>0</extrude>
<coordinates>-37.808763,-4.50389899985167,0.0</coordinates>
</Point>
</Placemark>
<Placemark id="06. Povoados">
<name>Jardim de Cima [230445900007]</name>
<visibility>1</visibility>
<snippet> </snippet>
<description>&lt;center&gt;&lt;table&gt;&lt;tr&gt;&lt;th colspan='2' align='center'&gt;&lt;em&gt;Atributos&lt;/em&gt;&lt;/th&gt;&lt;/tr&gt;&lt;tr bgcolor="#E3E3F3"&gt;
&lt;th&gt;CD_UF&lt;/th&gt;
&lt;td&gt;23&lt;/td&gt;
&lt;/tr&gt;&lt;tr bgcolor=""&gt;
&lt;th&gt;NM_UF&lt;/th&gt;
&lt;td&gt;Ceará&lt;/td&gt;
&lt;/tr&gt;&lt;tr bgcolor="#E3E3F3"&gt;
&lt;th&gt;SIGLA_UF&lt;/th&gt;
&lt;td&gt;CE&lt;/td&gt;
&lt;/tr&gt;&lt;tr bgcolor=""&gt;
&lt;th&gt;CD_MUN&lt;/th&gt;
&lt;td&gt;2304459&lt;/td&gt;
&lt;/tr&gt;&lt;tr bgcolor="#E3E3F3"&gt;
&lt;th&gt;NM_MUN&lt;/th&gt;
&lt;td&gt;Fortim&lt;/td&gt;
&lt;/tr&gt;&lt;tr bgcolor=""&gt;
&lt;th&gt;CD_RGINT&lt;/th&gt;
&lt;td&gt;2302&lt;/td&gt;
&lt;/tr&gt;&lt;tr bgcolor="#E3E3F3"&gt;
&lt;th&gt;NM_RGINT&lt;/th&gt;
&lt;td&gt;Quixadá&lt;/td&gt;
&lt;/tr&gt;&lt;tr bgcolor=""&gt;
&lt;th&gt;CD_RGI&lt;/th&gt;
&lt;td&gt;230008&lt;/td&gt;
&lt;/tr&gt;&lt;tr bgcolor="#E3E3F3"&gt;
&lt;th&gt;NM_RGI&lt;/th&gt;
&lt;td&gt;Aracati&lt;/td&gt;
&lt;/tr&gt;&lt;tr bgcolor=""&gt;
&lt;th&gt;CT_LOCALIDADE&lt;/th&gt;
&lt;td&gt;Povoado&lt;/td&gt;
&lt;/tr&gt;&lt;tr bgcolor="#E3E3F3"&gt;
&lt;th&gt;CD_LOCALIDADE&lt;/th&gt;
&lt;td&gt;230445900007&lt;/td&gt;
&lt;/tr&gt;&lt;tr bgcolor=""&gt;
&lt;th&gt;NM_LOCALIDADE&lt;/th&gt;
&lt;td&gt;Jardim de Cima&lt;/td&gt;
&lt;/tr&gt;&lt;tr bgcolor="#E3E3F3"&gt;
&lt;th&gt;LAT_LOCALIDADE&lt;/th&gt;
&lt;td&gt;-4.4957&lt;/td&gt;
&lt;/tr&gt;&lt;tr bgcolor=""&gt;
&lt;th&gt;LONG_LOCALIDADE&lt;/th&gt;
&lt;td&gt;-37.7898&lt;/td&gt;
&lt;/tr&gt;&lt;/table&gt;&lt;/center&gt;</description>
<Style>
<IconStyle>
<color>ff00ff54</color>
<scale>0.8</scale>
<Icon>
<href>http://maps.google.com/mapfiles/kml/shapes/placemark_circle.png</href>
</Icon>
</IconStyle>
<LabelStyle>
<scale>0.8</scale>
</LabelStyle>
<LineStyle>
<color>72ff54ff</color>
<width>1.0</width>
<gx:labelVisibility>1</gx:labelVisibility>
</LineStyle>
<PolyStyle>
<color>66ff54ff</color>
</PolyStyle>
</Style>
<ExtendedData>
<SchemaData schemaUrl="#kml_schema_ft_Povoados">
<SimpleData name="CD_UF">23</SimpleData>
<SimpleData name="NM_UF">Ceará</SimpleData>
<SimpleData name="SIGLA_UF">CE</SimpleData>
<SimpleData name="CD_MUN">2304459</SimpleData>
<SimpleData name="NM_MUN">Fortim</SimpleData>
<SimpleData name="CD_RGINT">2302</SimpleData>
<SimpleData name="NM_RGINT">Quixadá</SimpleData>
<SimpleData name="CD_RGI">230008</SimpleData>
<SimpleData name="NM_RGI">Aracati</SimpleData>
<SimpleData name="CT_LOCALIDADE">Povoado</SimpleData>
<SimpleData name="CD_LOCALIDADE">230445900007</SimpleData>
<SimpleData name="NM_LOCALIDADE">Jardim de Cima</SimpleData>
<SimpleData name="LAT_LOCALIDADE">-4.4957</SimpleData>
<SimpleData name="LONG_LOCALIDADE">-37.7898</SimpleData>
</SchemaData>
</ExtendedData>
<Point>
<extrude>0</extrude>
<coordinates>-37.7898206594203,-4.49565705782295,0.0</coordinates>
</Point>
</Placemark>
<Placemark id="06. Povoados">
<name>Jardim de Baixo [230445900008]</name>
<visibility>1</visibility>
<snippet> </snippet>
<description>&lt;center&gt;&lt;table&gt;&lt;tr&gt;&lt;th colspan='2' align='center'&gt;&lt;em&gt;Atributos&lt;/em&gt;&lt;/th&gt;&lt;/tr&gt;&lt;tr bgcolor="#E3E3F3"&gt;
&lt;th&gt;CD_UF&lt;/th&gt;
&lt;td&gt;23&lt;/td&gt;
&lt;/tr&gt;&lt;tr bgcolor=""&gt;
&lt;th&gt;NM_UF&lt;/th&gt;
&lt;td&gt;Ceará&lt;/td&gt;
&lt;/tr&gt;&lt;tr bgcolor="#E3E3F3"&gt;
&lt;th&gt;SIGLA_UF&lt;/th&gt;
&lt;td&gt;CE&lt;/td&gt;
&lt;/tr&gt;&lt;tr bgcolor=""&gt;
&lt;th&gt;CD_MUN&lt;/th&gt;
&lt;td&gt;2304459&lt;/td&gt;
&lt;/tr&gt;&lt;tr bgcolor="#E3E3F3"&gt;
&lt;th&gt;NM_MUN&lt;/th&gt;
&lt;td&gt;Fortim&lt;/td&gt;
&lt;/tr&gt;&lt;tr bgcolor=""&gt;
&lt;th&gt;CD_RGINT&lt;/th&gt;
&lt;td&gt;2302&lt;/td&gt;
&lt;/tr&gt;&lt;tr bgcolor="#E3E3F3"&gt;
&lt;th&gt;NM_RGINT&lt;/th&gt;
&lt;td&gt;Quixadá&lt;/td&gt;
&lt;/tr&gt;&lt;tr bgcolor=""&gt;
&lt;th&gt;CD_RGI&lt;/th&gt;
&lt;td&gt;230008&lt;/td&gt;
&lt;/tr&gt;&lt;tr bgcolor="#E3E3F3"&gt;
&lt;th&gt;NM_RGI&lt;/th&gt;
&lt;td&gt;Aracati&lt;/td&gt;
&lt;/tr&gt;&lt;tr bgcolor=""&gt;
&lt;th&gt;CT_LOCALIDADE&lt;/th&gt;
&lt;td&gt;Povoado&lt;/td&gt;
&lt;/tr&gt;&lt;tr bgcolor="#E3E3F3"&gt;
&lt;th&gt;CD_LOCALIDADE&lt;/th&gt;
&lt;td&gt;230445900008&lt;/td&gt;
&lt;/tr&gt;&lt;tr bgcolor=""&gt;
&lt;th&gt;NM_LOCALIDADE&lt;/th&gt;
&lt;td&gt;Jardim de Baixo&lt;/td&gt;
&lt;/tr&gt;&lt;tr bgcolor="#E3E3F3"&gt;
&lt;th&gt;LAT_LOCALIDADE&lt;/th&gt;
&lt;td&gt;-4.4903&lt;/td&gt;
&lt;/tr&gt;&lt;tr bgcolor=""&gt;
&lt;th&gt;LONG_LOCALIDADE&lt;/th&gt;
&lt;td&gt;-37.7933&lt;/td&gt;
&lt;/tr&gt;&lt;/table&gt;&lt;/center&gt;</description>
<Style>
<IconStyle>
<color>ff00ff54</color>
<scale>0.8</scale>
<Icon>
<href>http://maps.google.com/mapfiles/kml/shapes/placemark_circle.png</href>
</Icon>
</IconStyle>
<LabelStyle>
<scale>0.8</scale>
</LabelStyle>
<LineStyle>
<color>72ff54ff</color>
<width>1.0</width>
<gx:labelVisibility>1</gx:labelVisibility>
</LineStyle>
<PolyStyle>
<color>66ff54ff</color>
</PolyStyle>
</Style>
<ExtendedData>
<SchemaData schemaUrl="#kml_schema_ft_Povoados">
<SimpleData name="CD_UF">23</SimpleData>
<SimpleData name="NM_UF">Ceará</SimpleData>
<SimpleData name="SIGLA_UF">CE</SimpleData>
<SimpleData name="CD_MUN">2304459</SimpleData>
<SimpleData name="NM_MUN">Fortim</SimpleData>
<SimpleData name="CD_RGINT">2302</SimpleData>
<SimpleData name="NM_RGINT">Quixadá</SimpleData>
<SimpleData name="CD_RGI">230008</SimpleData>
<SimpleData name="NM_RGI">Aracati</SimpleData>
<SimpleData name="CT_LOCALIDADE">Povoado</SimpleData>
<SimpleData name="CD_LOCALIDADE">230445900008</SimpleData>
<SimpleData name="NM_LOCALIDADE">Jardim de Baixo</SimpleData>
<SimpleData name="LAT_LOCALIDADE">-4.4903</SimpleData>
<SimpleData name="LONG_LOCALIDADE">-37.7933</SimpleData>
</SchemaData>
</ExtendedData>
<Point>
<extrude>0</extrude>
<coordinates>-37.7933211542553,-4.49028726580956,0.0</coordinates>
</Point>
</Placemark>
<Placemark id="06. Povoados">
<name>Barro Vermelho [230445900009]</name>
<visibility>1</visibility>
<snippet> </snippet>
<description>&lt;center&gt;&lt;table&gt;&lt;tr&gt;&lt;th colspan='2' align='center'&gt;&lt;em&gt;Atributos&lt;/em&gt;&lt;/th&gt;&lt;/tr&gt;&lt;tr bgcolor="#E3E3F3"&gt;
&lt;th&gt;CD_UF&lt;/th&gt;
&lt;td&gt;23&lt;/td&gt;
&lt;/tr&gt;&lt;tr bgcolor=""&gt;
&lt;th&gt;NM_UF&lt;/th&gt;
&lt;td&gt;Ceará&lt;/td&gt;
&lt;/tr&gt;&lt;tr bgcolor="#E3E3F3"&gt;
&lt;th&gt;SIGLA_UF&lt;/th&gt;
&lt;td&gt;CE&lt;/td&gt;
&lt;/tr&gt;&lt;tr bgcolor=""&gt;
&lt;th&gt;CD_MUN&lt;/th&gt;
&lt;td&gt;2304459&lt;/td&gt;
&lt;/tr&gt;&lt;tr bgcolor="#E3E3F3"&gt;
&lt;th&gt;NM_MUN&lt;/th&gt;
&lt;td&gt;Fortim&lt;/td&gt;
&lt;/tr&gt;&lt;tr bgcolor=""&gt;
&lt;th&gt;CD_RGINT&lt;/th&gt;
&lt;td&gt;2302&lt;/td&gt;
&lt;/tr&gt;&lt;tr bgcolor="#E3E3F3"&gt;
&lt;th&gt;NM_RGINT&lt;/th&gt;
&lt;td&gt;Quixadá&lt;/td&gt;
&lt;/tr&gt;&lt;tr bgcolor=""&gt;
&lt;th&gt;CD_RGI&lt;/th&gt;
&lt;td&gt;230008&lt;/td&gt;
&lt;/tr&gt;&lt;tr bgcolor="#E3E3F3"&gt;
&lt;th&gt;NM_RGI&lt;/th&gt;
&lt;td&gt;Aracati&lt;/td&gt;
&lt;/tr&gt;&lt;tr bgcolor=""&gt;
&lt;th&gt;CT_LOCALIDADE&lt;/th&gt;
&lt;td&gt;Povoado&lt;/td&gt;
&lt;/tr&gt;&lt;tr bgcolor="#E3E3F3"&gt;
&lt;th&gt;CD_LOCALIDADE&lt;/th&gt;
&lt;td&gt;230445900009&lt;/td&gt;
&lt;/tr&gt;&lt;tr bgcolor=""&gt;
&lt;th&gt;NM_LOCALIDADE&lt;/th&gt;
&lt;td&gt;Barro Vermelho&lt;/td&gt;
&lt;/tr&gt;&lt;tr bgcolor="#E3E3F3"&gt;
&lt;th&gt;LAT_LOCALIDADE&lt;/th&gt;
&lt;td&gt;-4.4171&lt;/td&gt;
&lt;/tr&gt;&lt;tr bgcolor=""&gt;
&lt;th&gt;LONG_LOCALIDADE&lt;/th&gt;
&lt;td&gt;-37.8936&lt;/td&gt;
&lt;/tr&gt;&lt;/table&gt;&lt;/center&gt;</description>
<Style>
<IconStyle>
<color>ff00ff54</color>
<scale>0.8</scale>
<Icon>
<href>http://maps.google.com/mapfiles/kml/shapes/placemark_circle.png</href>
</Icon>
</IconStyle>
<LabelStyle>
<scale>0.8</scale>
</LabelStyle>
<LineStyle>
<color>72ff54ff</color>
<width>1.0</width>
<gx:labelVisibility>1</gx:labelVisibility>
</LineStyle>
<PolyStyle>
<color>66ff54ff</color>
</PolyStyle>
</Style>
<ExtendedData>
<SchemaData schemaUrl="#kml_schema_ft_Povoados">
<SimpleData name="CD_UF">23</SimpleData>
<SimpleData name="NM_UF">Ceará</SimpleData>
<SimpleData name="SIGLA_UF">CE</SimpleData>
<SimpleData name="CD_MUN">2304459</SimpleData>
<SimpleData name="NM_MUN">Fortim</SimpleData>
<SimpleData name="CD_RGINT">2302</SimpleData>
<SimpleData name="NM_RGINT">Quixadá</SimpleData>
<SimpleData name="CD_RGI">230008</SimpleData>
<SimpleData name="NM_RGI">Aracati</SimpleData>
<SimpleData name="CT_LOCALIDADE">Povoado</SimpleData>
<SimpleData name="CD_LOCALIDADE">230445900009</SimpleData>
<SimpleData name="NM_LOCALIDADE">Barro Vermelho</SimpleData>
<SimpleData name="LAT_LOCALIDADE">-4.4171</SimpleData>
<SimpleData name="LONG_LOCALIDADE">-37.8936</SimpleData>
</SchemaData>
</ExtendedData>
<Point>
<extrude>0</extrude>
<coordinates>-37.8936172085308,-4.41709703302986,0.0</coordinates>
</Point>
</Placemark>
<Placemark id="06. Povoados">
<name>Tapuiu [230445900010]</name>
<visibility>1</visibility>
<snippet> </snippet>
<description>&lt;center&gt;&lt;table&gt;&lt;tr&gt;&lt;th colspan='2' align='center'&gt;&lt;em&gt;Atributos&lt;/em&gt;&lt;/th&gt;&lt;/tr&gt;&lt;tr bgcolor="#E3E3F3"&gt;
&lt;th&gt;CD_UF&lt;/th&gt;
&lt;td&gt;23&lt;/td&gt;
&lt;/tr&gt;&lt;tr bgcolor=""&gt;
&lt;th&gt;NM_UF&lt;/th&gt;
&lt;td&gt;Ceará&lt;/td&gt;
&lt;/tr&gt;&lt;tr bgcolor="#E3E3F3"&gt;
&lt;th&gt;SIGLA_UF&lt;/th&gt;
&lt;td&gt;CE&lt;/td&gt;
&lt;/tr&gt;&lt;tr bgcolor=""&gt;
&lt;th&gt;CD_MUN&lt;/th&gt;
&lt;td&gt;2304459&lt;/td&gt;
&lt;/tr&gt;&lt;tr bgcolor="#E3E3F3"&gt;
&lt;th&gt;NM_MUN&lt;/th&gt;
&lt;td&gt;Fortim&lt;/td&gt;
&lt;/tr&gt;&lt;tr bgcolor=""&gt;
&lt;th&gt;CD_RGINT&lt;/th&gt;
&lt;td&gt;2302&lt;/td&gt;
&lt;/tr&gt;&lt;tr bgcolor="#E3E3F3"&gt;
&lt;th&gt;NM_RGINT&lt;/th&gt;
&lt;td&gt;Quixadá&lt;/td&gt;
&lt;/tr&gt;&lt;tr bgcolor=""&gt;
&lt;th&gt;CD_RGI&lt;/th&gt;
&lt;td&gt;230008&lt;/td&gt;
&lt;/tr&gt;&lt;tr bgcolor="#E3E3F3"&gt;
&lt;th&gt;NM_RGI&lt;/th&gt;
&lt;td&gt;Aracati&lt;/td&gt;
&lt;/tr&gt;&lt;tr bgcolor=""&gt;
&lt;th&gt;CT_LOCALIDADE&lt;/th&gt;
&lt;td&gt;Povoado&lt;/td&gt;
&lt;/tr&gt;&lt;tr bgcolor="#E3E3F3"&gt;
&lt;th&gt;CD_LOCALIDADE&lt;/th&gt;
&lt;td&gt;230445900010&lt;/td&gt;
&lt;/tr&gt;&lt;tr bgcolor=""&gt;
&lt;th&gt;NM_LOCALIDADE&lt;/th&gt;
&lt;td&gt;Tapuiu&lt;/td&gt;
&lt;/tr&gt;&lt;tr bgcolor="#E3E3F3"&gt;
&lt;th&gt;LAT_LOCALIDADE&lt;/th&gt;
&lt;td&gt;-4.4355&lt;/td&gt;
&lt;/tr&gt;&lt;tr bgcolor=""&gt;
&lt;th&gt;LONG_LOCALIDADE&lt;/th&gt;
&lt;td&gt;-37.9198&lt;/td&gt;
&lt;/tr&gt;&lt;/table&gt;&lt;/center&gt;</description>
<Style>
<IconStyle>
<color>ff00ff54</color>
<scale>0.8</scale>
<Icon>
<href>http://maps.google.com/mapfiles/kml/shapes/placemark_circle.png</href>
</Icon>
</IconStyle>
<LabelStyle>
<scale>0.8</scale>
</LabelStyle>
<LineStyle>
<color>72ff54ff</color>
<width>1.0</width>
<gx:labelVisibility>1</gx:labelVisibility>
</LineStyle>
<PolyStyle>
<color>66ff54ff</color>
</PolyStyle>
</Style>
<ExtendedData>
<SchemaData schemaUrl="#kml_schema_ft_Povoados">
<SimpleData name="CD_UF">23</SimpleData>
<SimpleData name="NM_UF">Ceará</SimpleData>
<SimpleData name="SIGLA_UF">CE</SimpleData>
<SimpleData name="CD_MUN">2304459</SimpleData>
<SimpleData name="NM_MUN">Fortim</SimpleData>
<SimpleData name="CD_RGINT">2302</SimpleData>
<SimpleData name="NM_RGINT">Quixadá</SimpleData>
<SimpleData name="CD_RGI">230008</SimpleData>
<SimpleData name="NM_RGI">Aracati</SimpleData>
<SimpleData name="CT_LOCALIDADE">Povoado</SimpleData>
<SimpleData name="CD_LOCALIDADE">230445900010</SimpleData>
<SimpleData name="NM_LOCALIDADE">Tapuiu</SimpleData>
<SimpleData name="LAT_LOCALIDADE">-4.4355</SimpleData>
<SimpleData name="LONG_LOCALIDADE">-37.9198</SimpleData>
</SchemaData>
</ExtendedData>
<Point>
<extrude>0</extrude>
<coordinates>-37.9198124716157,-4.43547541033425,0.0</coordinates>
</Point>
</Placemark>
<Placemark id="06. Povoados">
<name>Volta Grande [230445900011]</name>
<visibility>1</visibility>
<snippet> </snippet>
<description>&lt;center&gt;&lt;table&gt;&lt;tr&gt;&lt;th colspan='2' align='center'&gt;&lt;em&gt;Atributos&lt;/em&gt;&lt;/th&gt;&lt;/tr&gt;&lt;tr bgcolor="#E3E3F3"&gt;
&lt;th&gt;CD_UF&lt;/th&gt;
&lt;td&gt;23&lt;/td&gt;
&lt;/tr&gt;&lt;tr bgcolor=""&gt;
&lt;th&gt;NM_UF&lt;/th&gt;
&lt;td&gt;Ceará&lt;/td&gt;
&lt;/tr&gt;&lt;tr bgcolor="#E3E3F3"&gt;
&lt;th&gt;SIGLA_UF&lt;/th&gt;
&lt;td&gt;CE&lt;/td&gt;
&lt;/tr&gt;&lt;tr bgcolor=""&gt;
&lt;th&gt;CD_MUN&lt;/th&gt;
&lt;td&gt;2304459&lt;/td&gt;
&lt;/tr&gt;&lt;tr bgcolor="#E3E3F3"&gt;
&lt;th&gt;NM_MUN&lt;/th&gt;
&lt;td&gt;Fortim&lt;/td&gt;
&lt;/tr&gt;&lt;tr bgcolor=""&gt;
&lt;th&gt;CD_RGINT&lt;/th&gt;
&lt;td&gt;2302&lt;/td&gt;
&lt;/tr&gt;&lt;tr bgcolor="#E3E3F3"&gt;
&lt;th&gt;NM_RGINT&lt;/th&gt;
&lt;td&gt;Quixadá&lt;/td&gt;
&lt;/tr&gt;&lt;tr bgcolor=""&gt;
&lt;th&gt;CD_RGI&lt;/th&gt;
&lt;td&gt;230008&lt;/td&gt;
&lt;/tr&gt;&lt;tr bgcolor="#E3E3F3"&gt;
&lt;th&gt;NM_RGI&lt;/th&gt;
&lt;td&gt;Aracati&lt;/td&gt;
&lt;/tr&gt;&lt;tr bgcolor=""&gt;
&lt;th&gt;CT_LOCALIDADE&lt;/th&gt;
&lt;td&gt;Povoado&lt;/td&gt;
&lt;/tr&gt;&lt;tr bgcolor="#E3E3F3"&gt;
&lt;th&gt;CD_LOCALIDADE&lt;/th&gt;
&lt;td&gt;230445900011&lt;/td&gt;
&lt;/tr&gt;&lt;tr bgcolor=""&gt;
&lt;th&gt;NM_LOCALIDADE&lt;/th&gt;
&lt;td&gt;Volta Grande&lt;/td&gt;
&lt;/tr&gt;&lt;tr bgcolor="#E3E3F3"&gt;
&lt;th&gt;LAT_LOCALIDADE&lt;/th&gt;
&lt;td&gt;-4.5019&lt;/td&gt;
&lt;/tr&gt;&lt;tr bgcolor=""&gt;
&lt;th&gt;LONG_LOCALIDADE&lt;/th&gt;
&lt;td&gt;-37.8301&lt;/td&gt;
&lt;/tr&gt;&lt;/table&gt;&lt;/center&gt;</description>
<Style>
<IconStyle>
<color>ff00ff54</color>
<scale>0.8</scale>
<Icon>
<href>http://maps.google.com/mapfiles/kml/shapes/placemark_circle.png</href>
</Icon>
</IconStyle>
<LabelStyle>
<scale>0.8</scale>
</LabelStyle>
<LineStyle>
<color>72ff54ff</color>
<width>1.0</width>
<gx:labelVisibility>1</gx:labelVisibility>
</LineStyle>
<PolyStyle>
<color>66ff54ff</color>
</PolyStyle>
</Style>
<ExtendedData>
<SchemaData schemaUrl="#kml_schema_ft_Povoados">
<SimpleData name="CD_UF">23</SimpleData>
<SimpleData name="NM_UF">Ceará</SimpleData>
<SimpleData name="SIGLA_UF">CE</SimpleData>
<SimpleData name="CD_MUN">2304459</SimpleData>
<SimpleData name="NM_MUN">Fortim</SimpleData>
<SimpleData name="CD_RGINT">2302</SimpleData>
<SimpleData name="NM_RGINT">Quixadá</SimpleData>
<SimpleData name="CD_RGI">230008</SimpleData>
<SimpleData name="NM_RGI">Aracati</SimpleData>
<SimpleData name="CT_LOCALIDADE">Povoado</SimpleData>
<SimpleData name="CD_LOCALIDADE">230445900011</SimpleData>
<SimpleData name="NM_LOCALIDADE">Volta Grande</SimpleData>
<SimpleData name="LAT_LOCALIDADE">-4.5019</SimpleData>
<SimpleData name="LONG_LOCALIDADE">-37.8301</SimpleData>
</SchemaData>
</ExtendedData>
<Point>
<extrude>0</extrude>
<coordinates>-37.8300882282608,-4.50186907593869,0.0</coordinates>
</Point>
</Placemark>
<Placemark id="06. Povoados">
<name>Mundo Novo [230445900012]</name>
<visibility>1</visibility>
<snippet> </snippet>
<description>&lt;center&gt;&lt;table&gt;&lt;tr&gt;&lt;th colspan='2' align='center'&gt;&lt;em&gt;Atributos&lt;/em&gt;&lt;/th&gt;&lt;/tr&gt;&lt;tr bgcolor="#E3E3F3"&gt;
&lt;th&gt;CD_UF&lt;/th&gt;
&lt;td&gt;23&lt;/td&gt;
&lt;/tr&gt;&lt;tr bgcolor=""&gt;
&lt;th&gt;NM_UF&lt;/th&gt;
&lt;td&gt;Ceará&lt;/td&gt;
&lt;/tr&gt;&lt;tr bgcolor="#E3E3F3"&gt;
&lt;th&gt;SIGLA_UF&lt;/th&gt;
&lt;td&gt;CE&lt;/td&gt;
&lt;/tr&gt;&lt;tr bgcolor=""&gt;
&lt;th&gt;CD_MUN&lt;/th&gt;
&lt;td&gt;2304459&lt;/td&gt;
&lt;/tr&gt;&lt;tr bgcolor="#E3E3F3"&gt;
&lt;th&gt;NM_MUN&lt;/th&gt;
&lt;td&gt;Fortim&lt;/td&gt;
&lt;/tr&gt;&lt;tr bgcolor=""&gt;
&lt;th&gt;CD_RGINT&lt;/th&gt;
&lt;td&gt;2302&lt;/td&gt;
&lt;/tr&gt;&lt;tr bgcolor="#E3E3F3"&gt;
&lt;th&gt;NM_RGINT&lt;/th&gt;
&lt;td&gt;Quixadá&lt;/td&gt;
&lt;/tr&gt;&lt;tr bgcolor=""&gt;
&lt;th&gt;CD_RGI&lt;/th&gt;
&lt;td&gt;230008&lt;/td&gt;
&lt;/tr&gt;&lt;tr bgcolor="#E3E3F3"&gt;
&lt;th&gt;NM_RGI&lt;/th&gt;
&lt;td&gt;Aracati&lt;/td&gt;
&lt;/tr&gt;&lt;tr bgcolor=""&gt;
&lt;th&gt;CT_LOCALIDADE&lt;/th&gt;
&lt;td&gt;Povoado&lt;/td&gt;
&lt;/tr&gt;&lt;tr bgcolor="#E3E3F3"&gt;
&lt;th&gt;CD_LOCALIDADE&lt;/th&gt;
&lt;td&gt;230445900012&lt;/td&gt;
&lt;/tr&gt;&lt;tr bgcolor=""&gt;
&lt;th&gt;NM_LOCALIDADE&lt;/th&gt;
&lt;td&gt;Mundo Novo&lt;/td&gt;
&lt;/tr&gt;&lt;tr bgcolor="#E3E3F3"&gt;
&lt;th&gt;LAT_LOCALIDADE&lt;/th&gt;
&lt;td&gt;-4.5135&lt;/td&gt;
&lt;/tr&gt;&lt;tr bgcolor=""&gt;
&lt;th&gt;LONG_LOCALIDADE&lt;/th&gt;
&lt;td&gt;-37.8353&lt;/td&gt;
&lt;/tr&gt;&lt;/table&gt;&lt;/center&gt;</description>
<Style>
<IconStyle>
<color>ff00ff54</color>
<scale>0.8</scale>
<Icon>
<href>http://maps.google.com/mapfiles/kml/shapes/placemark_circle.png</href>
</Icon>
</IconStyle>
<LabelStyle>
<scale>0.8</scale>
</LabelStyle>
<LineStyle>
<color>72ff54ff</color>
<width>1.0</width>
<gx:labelVisibility>1</gx:labelVisibility>
</LineStyle>
<PolyStyle>
<color>66ff54ff</color>
</PolyStyle>
</Style>
<ExtendedData>
<SchemaData schemaUrl="#kml_schema_ft_Povoados">
<SimpleData name="CD_UF">23</SimpleData>
<SimpleData name="NM_UF">Ceará</SimpleData>
<SimpleData name="SIGLA_UF">CE</SimpleData>
<SimpleData name="CD_MUN">2304459</SimpleData>
<SimpleData name="NM_MUN">Fortim</SimpleData>
<SimpleData name="CD_RGINT">2302</SimpleData>
<SimpleData name="NM_RGINT">Quixadá</SimpleData>
<SimpleData name="CD_RGI">230008</SimpleData>
<SimpleData name="NM_RGI">Aracati</SimpleData>
<SimpleData name="CT_LOCALIDADE">Povoado</SimpleData>
<SimpleData name="CD_LOCALIDADE">230445900012</SimpleData>
<SimpleData name="NM_LOCALIDADE">Mundo Novo</SimpleData>
<SimpleData name="LAT_LOCALIDADE">-4.5135</SimpleData>
<SimpleData name="LONG_LOCALIDADE">-37.8353</SimpleData>
</SchemaData>
</ExtendedData>
<Point>
<extrude>0</extrude>
<coordinates>-37.8353197625,-4.51347941235136,0.0</coordinates>
</Point>
</Placemark>
<Placemark id="06. Povoados">
<name>Coqueirinho I [230445900013]</name>
<visibility>1</visibility>
<snippet> </snippet>
<description>&lt;center&gt;&lt;table&gt;&lt;tr&gt;&lt;th colspan='2' align='center'&gt;&lt;em&gt;Atributos&lt;/em&gt;&lt;/th&gt;&lt;/tr&gt;&lt;tr bgcolor="#E3E3F3"&gt;
&lt;th&gt;CD_UF&lt;/th&gt;
&lt;td&gt;23&lt;/td&gt;
&lt;/tr&gt;&lt;tr bgcolor=""&gt;
&lt;th&gt;NM_UF&lt;/th&gt;
&lt;td&gt;Ceará&lt;/td&gt;
&lt;/tr&gt;&lt;tr bgcolor="#E3E3F3"&gt;
&lt;th&gt;SIGLA_UF&lt;/th&gt;
&lt;td&gt;CE&lt;/td&gt;
&lt;/tr&gt;&lt;tr bgcolor=""&gt;
&lt;th&gt;CD_MUN&lt;/th&gt;
&lt;td&gt;2304459&lt;/td&gt;
&lt;/tr&gt;&lt;tr bgcolor="#E3E3F3"&gt;
&lt;th&gt;NM_MUN&lt;/th&gt;
&lt;td&gt;Fortim&lt;/td&gt;
&lt;/tr&gt;&lt;tr bgcolor=""&gt;
&lt;th&gt;CD_RGINT&lt;/th&gt;
&lt;td&gt;2302&lt;/td&gt;
&lt;/tr&gt;&lt;tr bgcolor="#E3E3F3"&gt;
&lt;th&gt;NM_RGINT&lt;/th&gt;
&lt;td&gt;Quixadá&lt;/td&gt;
&lt;/tr&gt;&lt;tr bgcolor=""&gt;
&lt;th&gt;CD_RGI&lt;/th&gt;
&lt;td&gt;230008&lt;/td&gt;
&lt;/tr&gt;&lt;tr bgcolor="#E3E3F3"&gt;
&lt;th&gt;NM_RGI&lt;/th&gt;
&lt;td&gt;Aracati&lt;/td&gt;
&lt;/tr&gt;&lt;tr bgcolor=""&gt;
&lt;th&gt;CT_LOCALIDADE&lt;/th&gt;
&lt;td&gt;Povoado&lt;/td&gt;
&lt;/tr&gt;&lt;tr bgcolor="#E3E3F3"&gt;
&lt;th&gt;CD_LOCALIDADE&lt;/th&gt;
&lt;td&gt;230445900013&lt;/td&gt;
&lt;/tr&gt;&lt;tr bgcolor=""&gt;
&lt;th&gt;NM_LOCALIDADE&lt;/th&gt;
&lt;td&gt;Coqueirinho I&lt;/td&gt;
&lt;/tr&gt;&lt;tr bgcolor="#E3E3F3"&gt;
&lt;th&gt;LAT_LOCALIDADE&lt;/th&gt;
&lt;td&gt;-4.5012&lt;/td&gt;
&lt;/tr&gt;&lt;tr bgcolor=""&gt;
&lt;th&gt;LONG_LOCALIDADE&lt;/th&gt;
&lt;td&gt;-37.8443&lt;/td&gt;
&lt;/tr&gt;&lt;/table&gt;&lt;/center&gt;</description>
<Style>
<IconStyle>
<color>ff00ff54</color>
<scale>0.8</scale>
<Icon>
<href>http://maps.google.com/mapfiles/kml/shapes/placemark_circle.png</href>
</Icon>
</IconStyle>
<LabelStyle>
<scale>0.8</scale>
</LabelStyle>
<LineStyle>
<color>72ff54ff</color>
<width>1.0</width>
<gx:labelVisibility>1</gx:labelVisibility>
</LineStyle>
<PolyStyle>
<color>66ff54ff</color>
</PolyStyle>
</Style>
<ExtendedData>
<SchemaData schemaUrl="#kml_schema_ft_Povoados">
<SimpleData name="CD_UF">23</SimpleData>
<SimpleData name="NM_UF">Ceará</SimpleData>
<SimpleData name="SIGLA_UF">CE</SimpleData>
<SimpleData name="CD_MUN">2304459</SimpleData>
<SimpleData name="NM_MUN">Fortim</SimpleData>
<SimpleData name="CD_RGINT">2302</SimpleData>
<SimpleData name="NM_RGINT">Quixadá</SimpleData>
<SimpleData name="CD_RGI">230008</SimpleData>
<SimpleData name="NM_RGI">Aracati</SimpleData>
<SimpleData name="CT_LOCALIDADE">Povoado</SimpleData>
<SimpleData name="CD_LOCALIDADE">230445900013</SimpleData>
<SimpleData name="NM_LOCALIDADE">Coqueirinho I</SimpleData>
<SimpleData name="LAT_LOCALIDADE">-4.5012</SimpleData>
<SimpleData name="LONG_LOCALIDADE">-37.8443</SimpleData>
</SchemaData>
</ExtendedData>
<Point>
<extrude>0</extrude>
<coordinates>-37.8442961168831,-4.50119612972188,0.0</coordinates>
</Point>
</Placemark>
</Folder>
<Folder id="12. Outras Localidades">
<name>12. Outras Localidades</name>
<Placemark id="12. Outras Localidades">
<name>Lagoa Salgada [230445900014]</name>
<visibility>1</visibility>
<snippet> </snippet>
<description>&lt;center&gt;&lt;table&gt;&lt;tr&gt;&lt;th colspan='2' align='center'&gt;&lt;em&gt;Attributes&lt;/em&gt;&lt;/th&gt;&lt;/tr&gt;&lt;tr bgcolor="#E3E3F3"&gt;
&lt;th&gt;CD_UF&lt;/th&gt;
&lt;td&gt;23&lt;/td&gt;
&lt;/tr&gt;&lt;tr bgcolor=""&gt;
&lt;th&gt;NM_UF&lt;/th&gt;
&lt;td&gt;Ceará&lt;/td&gt;
&lt;/tr&gt;&lt;tr bgcolor="#E3E3F3"&gt;
&lt;th&gt;SIGLA_UF&lt;/th&gt;
&lt;td&gt;CE&lt;/td&gt;
&lt;/tr&gt;&lt;tr bgcolor=""&gt;
&lt;th&gt;CD_MUN&lt;/th&gt;
&lt;td&gt;2304459&lt;/td&gt;
&lt;/tr&gt;&lt;tr bgcolor="#E3E3F3"&gt;
&lt;th&gt;NM_MUN&lt;/th&gt;
&lt;td&gt;Fortim&lt;/td&gt;
&lt;/tr&gt;&lt;tr bgcolor=""&gt;
&lt;th&gt;CD_RGINT&lt;/th&gt;
&lt;td&gt;2302&lt;/td&gt;
&lt;/tr&gt;&lt;tr bgcolor="#E3E3F3"&gt;
&lt;th&gt;NM_RGINT&lt;/th&gt;
&lt;td&gt;Quixadá&lt;/td&gt;
&lt;/tr&gt;&lt;tr bgcolor=""&gt;
&lt;th&gt;CD_RGI&lt;/th&gt;
&lt;td&gt;230008&lt;/td&gt;
&lt;/tr&gt;&lt;tr bgcolor="#E3E3F3"&gt;
&lt;th&gt;NM_RGI&lt;/th&gt;
&lt;td&gt;Aracati&lt;/td&gt;
&lt;/tr&gt;&lt;tr bgcolor=""&gt;
&lt;th&gt;CT_LOCALIDADE&lt;/th&gt;
&lt;td&gt;Outras Localidades&lt;/td&gt;
&lt;/tr&gt;&lt;tr bgcolor="#E3E3F3"&gt;
&lt;th&gt;SCT_LOCALIDADE&lt;/th&gt;
&lt;td&gt;&lt;/td&gt;
&lt;/tr&gt;&lt;tr bgcolor=""&gt;
&lt;th&gt;CD_LOCALIDADE&lt;/th&gt;
&lt;td&gt;230445900014&lt;/td&gt;
&lt;/tr&gt;&lt;tr bgcolor="#E3E3F3"&gt;
&lt;th&gt;NM_LOCALIDADE&lt;/th&gt;
&lt;td&gt;Lagoa Salgada&lt;/td&gt;
&lt;/tr&gt;&lt;/table&gt;&lt;/center&gt;</description>
<Style>
<IconStyle>
<color>ff0069d3</color>
<scale>0.6</scale>
<Icon>
<href>http://maps.google.com/mapfiles/kml/shapes/placemark_circle.png</href>
</Icon>
</IconStyle>
<LabelStyle>
<scale>0.6</scale>
</LabelStyle>
<LineStyle>
<width>1.0</width>
<gx:labelVisibility>1</gx:labelVisibility>
</LineStyle>
</Style>
<ExtendedData>
<SchemaData schemaUrl="#kml_schema_ft_Localidades">
<SimpleData name="CD_UF">23</SimpleData>
<SimpleData name="NM_UF">Ceará</SimpleData>
<SimpleData name="SIGLA_UF">CE</SimpleData>
<SimpleData name="CD_MUN">2304459</SimpleData>
<SimpleData name="NM_MUN">Fortim</SimpleData>
<SimpleData name="CD_RGINT">2302</SimpleData>
<SimpleData name="NM_RGINT">Quixadá</SimpleData>
<SimpleData name="CD_RGI">230008</SimpleData>
<SimpleData name="NM_RGI">Aracati</SimpleData>
<SimpleData name="CT_LOCALIDADE">Outras Localidades</SimpleData>
<SimpleData name="CD_LOCALIDADE">230445900014</SimpleData>
<SimpleData name="NM_LOCALIDADE">Lagoa Salgada</SimpleData>
</SchemaData>
</ExtendedData>
<Point>
<extrude>0</extrude>
<coordinates>-37.883678,-4.48937799985215,0.0</coordinates>
</Point>
</Placemark>
<Placemark id="12. Outras Localidades">
<name>Mamoeiro [230445900015]</name>
<visibility>1</visibility>
<snippet> </snippet>
<description>&lt;center&gt;&lt;table&gt;&lt;tr&gt;&lt;th colspan='2' align='center'&gt;&lt;em&gt;Attributes&lt;/em&gt;&lt;/th&gt;&lt;/tr&gt;&lt;tr bgcolor="#E3E3F3"&gt;
&lt;th&gt;CD_UF&lt;/th&gt;
&lt;td&gt;23&lt;/td&gt;
&lt;/tr&gt;&lt;tr bgcolor=""&gt;
&lt;th&gt;NM_UF&lt;/th&gt;
&lt;td&gt;Ceará&lt;/td&gt;
&lt;/tr&gt;&lt;tr bgcolor="#E3E3F3"&gt;
&lt;th&gt;SIGLA_UF&lt;/th&gt;
&lt;td&gt;CE&lt;/td&gt;
&lt;/tr&gt;&lt;tr bgcolor=""&gt;
&lt;th&gt;CD_MUN&lt;/th&gt;
&lt;td&gt;2304459&lt;/td&gt;
&lt;/tr&gt;&lt;tr bgcolor="#E3E3F3"&gt;
&lt;th&gt;NM_MUN&lt;/th&gt;
&lt;td&gt;Fortim&lt;/td&gt;
&lt;/tr&gt;&lt;tr bgcolor=""&gt;
&lt;th&gt;CD_RGINT&lt;/th&gt;
&lt;td&gt;2302&lt;/td&gt;
&lt;/tr&gt;&lt;tr bgcolor="#E3E3F3"&gt;
&lt;th&gt;NM_RGINT&lt;/th&gt;
&lt;td&gt;Quixadá&lt;/td&gt;
&lt;/tr&gt;&lt;tr bgcolor=""&gt;
&lt;th&gt;CD_RGI&lt;/th&gt;
&lt;td&gt;230008&lt;/td&gt;
&lt;/tr&gt;&lt;tr bgcolor="#E3E3F3"&gt;
&lt;th&gt;NM_RGI&lt;/th&gt;
&lt;td&gt;Aracati&lt;/td&gt;
&lt;/tr&gt;&lt;tr bgcolor=""&gt;
&lt;th&gt;CT_LOCALIDADE&lt;/th&gt;
&lt;td&gt;Outras Localidades&lt;/td&gt;
&lt;/tr&gt;&lt;tr bgcolor="#E3E3F3"&gt;
&lt;th&gt;SCT_LOCALIDADE&lt;/th&gt;
&lt;td&gt;&lt;/td&gt;
&lt;/tr&gt;&lt;tr bgcolor=""&gt;
&lt;th&gt;CD_LOCALIDADE&lt;/th&gt;
&lt;td&gt;230445900015&lt;/td&gt;
&lt;/tr&gt;&lt;tr bgcolor="#E3E3F3"&gt;
&lt;th&gt;NM_LOCALIDADE&lt;/th&gt;
&lt;td&gt;Mamoeiro&lt;/td&gt;
&lt;/tr&gt;&lt;/table&gt;&lt;/center&gt;</description>
<Style>
<IconStyle>
<color>ff0069d3</color>
<scale>0.6</scale>
<Icon>
<href>http://maps.google.com/mapfiles/kml/shapes/placemark_circle.png</href>
</Icon>
</IconStyle>
<LabelStyle>
<scale>0.6</scale>
</LabelStyle>
<LineStyle>
<width>1.0</width>
<gx:labelVisibility>1</gx:labelVisibility>
</LineStyle>
</Style>
<ExtendedData>
<SchemaData schemaUrl="#kml_schema_ft_Localidades">
<SimpleData name="CD_UF">23</SimpleData>
<SimpleData name="NM_UF">Ceará</SimpleData>
<SimpleData name="SIGLA_UF">CE</SimpleData>
<SimpleData name="CD_MUN">2304459</SimpleData>
<SimpleData name="NM_MUN">Fortim</SimpleData>
<SimpleData name="CD_RGINT">2302</SimpleData>
<SimpleData name="NM_RGINT">Quixadá</SimpleData>
<SimpleData name="CD_RGI">230008</SimpleData>
<SimpleData name="NM_RGI">Aracati</SimpleData>
<SimpleData name="CT_LOCALIDADE">Outras Localidades</SimpleData>
<SimpleData name="CD_LOCALIDADE">230445900015</SimpleData>
<SimpleData name="NM_LOCALIDADE">Mamoeiro</SimpleData>
</SchemaData>
</ExtendedData>
<Point>
<extrude>0</extrude>
<coordinates>-37.909277,-4.51130299985143,0.0</coordinates>
</Point>
</Placemark>
<Placemark id="12. Outras Localidades">
<name>Carnaubinha [230445900016]</name>
<visibility>1</visibility>
<snippet> </snippet>
<description>&lt;center&gt;&lt;table&gt;&lt;tr&gt;&lt;th colspan='2' align='center'&gt;&lt;em&gt;Attributes&lt;/em&gt;&lt;/th&gt;&lt;/tr&gt;&lt;tr bgcolor="#E3E3F3"&gt;
&lt;th&gt;CD_UF&lt;/th&gt;
&lt;td&gt;23&lt;/td&gt;
&lt;/tr&gt;&lt;tr bgcolor=""&gt;
&lt;th&gt;NM_UF&lt;/th&gt;
&lt;td&gt;Ceará&lt;/td&gt;
&lt;/tr&gt;&lt;tr bgcolor="#E3E3F3"&gt;
&lt;th&gt;SIGLA_UF&lt;/th&gt;
&lt;td&gt;CE&lt;/td&gt;
&lt;/tr&gt;&lt;tr bgcolor=""&gt;
&lt;th&gt;CD_MUN&lt;/th&gt;
&lt;td&gt;2304459&lt;/td&gt;
&lt;/tr&gt;&lt;tr bgcolor="#E3E3F3"&gt;
&lt;th&gt;NM_MUN&lt;/th&gt;
&lt;td&gt;Fortim&lt;/td&gt;
&lt;/tr&gt;&lt;tr bgcolor=""&gt;
&lt;th&gt;CD_RGINT&lt;/th&gt;
&lt;td&gt;2302&lt;/td&gt;
&lt;/tr&gt;&lt;tr bgcolor="#E3E3F3"&gt;
&lt;th&gt;NM_RGINT&lt;/th&gt;
&lt;td&gt;Quixadá&lt;/td&gt;
&lt;/tr&gt;&lt;tr bgcolor=""&gt;
&lt;th&gt;CD_RGI&lt;/th&gt;
&lt;td&gt;230008&lt;/td&gt;
&lt;/tr&gt;&lt;tr bgcolor="#E3E3F3"&gt;
&lt;th&gt;NM_RGI&lt;/th&gt;
&lt;td&gt;Aracati&lt;/td&gt;
&lt;/tr&gt;&lt;tr bgcolor=""&gt;
&lt;th&gt;CT_LOCALIDADE&lt;/th&gt;
&lt;td&gt;Outras Localidades&lt;/td&gt;
&lt;/tr&gt;&lt;tr bgcolor="#E3E3F3"&gt;
&lt;th&gt;SCT_LOCALIDADE&lt;/th&gt;
&lt;td&gt;&lt;/td&gt;
&lt;/tr&gt;&lt;tr bgcolor=""&gt;
&lt;th&gt;CD_LOCALIDADE&lt;/th&gt;
&lt;td&gt;230445900016&lt;/td&gt;
&lt;/tr&gt;&lt;tr bgcolor="#E3E3F3"&gt;
&lt;th&gt;NM_LOCALIDADE&lt;/th&gt;
&lt;td&gt;Carnaubinha&lt;/td&gt;
&lt;/tr&gt;&lt;/table&gt;&lt;/center&gt;</description>
<Style>
<IconStyle>
<color>ff0069d3</color>
<scale>0.6</scale>
<Icon>
<href>http://maps.google.com/mapfiles/kml/shapes/placemark_circle.png</href>
</Icon>
</IconStyle>
<LabelStyle>
<scale>0.6</scale>
</LabelStyle>
<LineStyle>
<width>1.0</width>
<gx:labelVisibility>1</gx:labelVisibility>
</LineStyle>
</Style>
<ExtendedData>
<SchemaData schemaUrl="#kml_schema_ft_Localidades">
<SimpleData name="CD_UF">23</SimpleData>
<SimpleData name="NM_UF">Ceará</SimpleData>
<SimpleData name="SIGLA_UF">CE</SimpleData>
<SimpleData name="CD_MUN">2304459</SimpleData>
<SimpleData name="NM_MUN">Fortim</SimpleData>
<SimpleData name="CD_RGINT">2302</SimpleData>
<SimpleData name="NM_RGINT">Quixadá</SimpleData>
<SimpleData name="CD_RGI">230008</SimpleData>
<SimpleData name="NM_RGI">Aracati</SimpleData>
<SimpleData name="CT_LOCALIDADE">Outras Localidades</SimpleData>
<SimpleData name="CD_LOCALIDADE">230445900016</SimpleData>
<SimpleData name="NM_LOCALIDADE">Carnaubinha</SimpleData>
</SchemaData>
</ExtendedData>
<Point>
<extrude>0</extrude>
<coordinates>-37.888974,-4.50460899985165,0.0</coordinates>
</Point>
</Placemark>
<Placemark id="12. Outras Localidades">
<name>Fortim [230445900017]</name>
<visibility>1</visibility>
<snippet> </snippet>
<description>&lt;center&gt;&lt;table&gt;&lt;tr&gt;&lt;th colspan='2' align='center'&gt;&lt;em&gt;Attributes&lt;/em&gt;&lt;/th&gt;&lt;/tr&gt;&lt;tr bgcolor="#E3E3F3"&gt;
&lt;th&gt;CD_UF&lt;/th&gt;
&lt;td&gt;23&lt;/td&gt;
&lt;/tr&gt;&lt;tr bgcolor=""&gt;
&lt;th&gt;NM_UF&lt;/th&gt;
&lt;td&gt;Ceará&lt;/td&gt;
&lt;/tr&gt;&lt;tr bgcolor="#E3E3F3"&gt;
&lt;th&gt;SIGLA_UF&lt;/th&gt;
&lt;td&gt;CE&lt;/td&gt;
&lt;/tr&gt;&lt;tr bgcolor=""&gt;
&lt;th&gt;CD_MUN&lt;/th&gt;
&lt;td&gt;2304459&lt;/td&gt;
&lt;/tr&gt;&lt;tr bgcolor="#E3E3F3"&gt;
&lt;th&gt;NM_MUN&lt;/th&gt;
&lt;td&gt;Fortim&lt;/td&gt;
&lt;/tr&gt;&lt;tr bgcolor=""&gt;
&lt;th&gt;CD_RGINT&lt;/th&gt;
&lt;td&gt;2302&lt;/td&gt;
&lt;/tr&gt;&lt;tr bgcolor="#E3E3F3"&gt;
&lt;th&gt;NM_RGINT&lt;/th&gt;
&lt;td&gt;Quixadá&lt;/td&gt;
&lt;/tr&gt;&lt;tr bgcolor=""&gt;
&lt;th&gt;CD_RGI&lt;/th&gt;
&lt;td&gt;230008&lt;/td&gt;
&lt;/tr&gt;&lt;tr bgcolor="#E3E3F3"&gt;
&lt;th&gt;NM_RGI&lt;/th&gt;
&lt;td&gt;Aracati&lt;/td&gt;
&lt;/tr&gt;&lt;tr bgcolor=""&gt;
&lt;th&gt;CT_LOCALIDADE&lt;/th&gt;
&lt;td&gt;Outras Localidades&lt;/td&gt;
&lt;/tr&gt;&lt;tr bgcolor="#E3E3F3"&gt;
&lt;th&gt;SCT_LOCALIDADE&lt;/th&gt;
&lt;td&gt;&lt;/td&gt;
&lt;/tr&gt;&lt;tr bgcolor=""&gt;
&lt;th&gt;CD_LOCALIDADE&lt;/th&gt;
&lt;td&gt;230445900017&lt;/td&gt;
&lt;/tr&gt;&lt;tr bgcolor="#E3E3F3"&gt;
&lt;th&gt;NM_LOCALIDADE&lt;/th&gt;
&lt;td&gt;Fortim&lt;/td&gt;
&lt;/tr&gt;&lt;/table&gt;&lt;/center&gt;</description>
<Style>
<IconStyle>
<color>ff0069d3</color>
<scale>0.6</scale>
<Icon>
<href>http://maps.google.com/mapfiles/kml/shapes/placemark_circle.png</href>
</Icon>
</IconStyle>
<LabelStyle>
<scale>0.6</scale>
</LabelStyle>
<LineStyle>
<width>1.0</width>
<gx:labelVisibility>1</gx:labelVisibility>
</LineStyle>
</Style>
<ExtendedData>
<SchemaData schemaUrl="#kml_schema_ft_Localidades">
<SimpleData name="CD_UF">23</SimpleData>
<SimpleData name="NM_UF">Ceará</SimpleData>
<SimpleData name="SIGLA_UF">CE</SimpleData>
<SimpleData name="CD_MUN">2304459</SimpleData>
<SimpleData name="NM_MUN">Fortim</SimpleData>
<SimpleData name="CD_RGINT">2302</SimpleData>
<SimpleData name="NM_RGINT">Quixadá</SimpleData>
<SimpleData name="CD_RGI">230008</SimpleData>
<SimpleData name="NM_RGI">Aracati</SimpleData>
<SimpleData name="CT_LOCALIDADE">Outras Localidades</SimpleData>
<SimpleData name="CD_LOCALIDADE">230445900017</SimpleData>
<SimpleData name="NM_LOCALIDADE">Fortim</SimpleData>
</SchemaData>
</ExtendedData>
<Point>
<extrude>0</extrude>
<coordinates>-37.898128,-4.52318999985104,0.0</coordinates>
</Point>
</Placemark>
<Placemark id="12. Outras Localidades">
<name>Fortim I [230445900018]</name>
<visibility>1</visibility>
<snippet> </snippet>
<description>&lt;center&gt;&lt;table&gt;&lt;tr&gt;&lt;th colspan='2' align='center'&gt;&lt;em&gt;Attributes&lt;/em&gt;&lt;/th&gt;&lt;/tr&gt;&lt;tr bgcolor="#E3E3F3"&gt;
&lt;th&gt;CD_UF&lt;/th&gt;
&lt;td&gt;23&lt;/td&gt;
&lt;/tr&gt;&lt;tr bgcolor=""&gt;
&lt;th&gt;NM_UF&lt;/th&gt;
&lt;td&gt;Ceará&lt;/td&gt;
&lt;/tr&gt;&lt;tr bgcolor="#E3E3F3"&gt;
&lt;th&gt;SIGLA_UF&lt;/th&gt;
&lt;td&gt;CE&lt;/td&gt;
&lt;/tr&gt;&lt;tr bgcolor=""&gt;
&lt;th&gt;CD_MUN&lt;/th&gt;
&lt;td&gt;2304459&lt;/td&gt;
&lt;/tr&gt;&lt;tr bgcolor="#E3E3F3"&gt;
&lt;th&gt;NM_MUN&lt;/th&gt;
&lt;td&gt;Fortim&lt;/td&gt;
&lt;/tr&gt;&lt;tr bgcolor=""&gt;
&lt;th&gt;CD_RGINT&lt;/th&gt;
&lt;td&gt;2302&lt;/td&gt;
&lt;/tr&gt;&lt;tr bgcolor="#E3E3F3"&gt;
&lt;th&gt;NM_RGINT&lt;/th&gt;
&lt;td&gt;Quixadá&lt;/td&gt;
&lt;/tr&gt;&lt;tr bgcolor=""&gt;
&lt;th&gt;CD_RGI&lt;/th&gt;
&lt;td&gt;230008&lt;/td&gt;
&lt;/tr&gt;&lt;tr bgcolor="#E3E3F3"&gt;
&lt;th&gt;NM_RGI&lt;/th&gt;
&lt;td&gt;Aracati&lt;/td&gt;
&lt;/tr&gt;&lt;tr bgcolor=""&gt;
&lt;th&gt;CT_LOCALIDADE&lt;/th&gt;
&lt;td&gt;Outras Localidades&lt;/td&gt;
&lt;/tr&gt;&lt;tr bgcolor="#E3E3F3"&gt;
&lt;th&gt;SCT_LOCALIDADE&lt;/th&gt;
&lt;td&gt;&lt;/td&gt;
&lt;/tr&gt;&lt;tr bgcolor=""&gt;
&lt;th&gt;CD_LOCALIDADE&lt;/th&gt;
&lt;td&gt;230445900018&lt;/td&gt;
&lt;/tr&gt;&lt;tr bgcolor="#E3E3F3"&gt;
&lt;th&gt;NM_LOCALIDADE&lt;/th&gt;
&lt;td&gt;Fortim I&lt;/td&gt;
&lt;/tr&gt;&lt;/table&gt;&lt;/center&gt;</description>
<Style>
<IconStyle>
<color>ff0069d3</color>
<scale>0.6</scale>
<Icon>
<href>http://maps.google.com/mapfiles/kml/shapes/placemark_circle.png</href>
</Icon>
</IconStyle>
<LabelStyle>
<scale>0.6</scale>
</LabelStyle>
<LineStyle>
<width>1.0</width>
<gx:labelVisibility>1</gx:labelVisibility>
</LineStyle>
</Style>
<ExtendedData>
<SchemaData schemaUrl="#kml_schema_ft_Localidades">
<SimpleData name="CD_UF">23</SimpleData>
<SimpleData name="NM_UF">Ceará</SimpleData>
<SimpleData name="SIGLA_UF">CE</SimpleData>
<SimpleData name="CD_MUN">2304459</SimpleData>
<SimpleData name="NM_MUN">Fortim</SimpleData>
<SimpleData name="CD_RGINT">2302</SimpleData>
<SimpleData name="NM_RGINT">Quixadá</SimpleData>
<SimpleData name="CD_RGI">230008</SimpleData>
<SimpleData name="NM_RGI">Aracati</SimpleData>
<SimpleData name="CT_LOCALIDADE">Outras Localidades</SimpleData>
<SimpleData name="CD_LOCALIDADE">230445900018</SimpleData>
<SimpleData name="NM_LOCALIDADE">Fortim I</SimpleData>
</SchemaData>
</ExtendedData>
<Point>
<extrude>0</extrude>
<coordinates>-37.916161,-4.53536299985064,0.0</coordinates>
</Point>
</Placemark>
<Placemark id="12. Outras Localidades">
<name>Guajiru [230445900019]</name>
<visibility>1</visibility>
<snippet> </snippet>
<description>&lt;center&gt;&lt;table&gt;&lt;tr&gt;&lt;th colspan='2' align='center'&gt;&lt;em&gt;Attributes&lt;/em&gt;&lt;/th&gt;&lt;/tr&gt;&lt;tr bgcolor="#E3E3F3"&gt;
&lt;th&gt;CD_UF&lt;/th&gt;
&lt;td&gt;23&lt;/td&gt;
&lt;/tr&gt;&lt;tr bgcolor=""&gt;
&lt;th&gt;NM_UF&lt;/th&gt;
&lt;td&gt;Ceará&lt;/td&gt;
&lt;/tr&gt;&lt;tr bgcolor="#E3E3F3"&gt;
&lt;th&gt;SIGLA_UF&lt;/th&gt;
&lt;td&gt;CE&lt;/td&gt;
&lt;/tr&gt;&lt;tr bgcolor=""&gt;
&lt;th&gt;CD_MUN&lt;/th&gt;
&lt;td&gt;2304459&lt;/td&gt;
&lt;/tr&gt;&lt;tr bgcolor="#E3E3F3"&gt;
&lt;th&gt;NM_MUN&lt;/th&gt;
&lt;td&gt;Fortim&lt;/td&gt;
&lt;/tr&gt;&lt;tr bgcolor=""&gt;
&lt;th&gt;CD_RGINT&lt;/th&gt;
&lt;td&gt;2302&lt;/td&gt;
&lt;/tr&gt;&lt;tr bgcolor="#E3E3F3"&gt;
&lt;th&gt;NM_RGINT&lt;/th&gt;
&lt;td&gt;Quixadá&lt;/td&gt;
&lt;/tr&gt;&lt;tr bgcolor=""&gt;
&lt;th&gt;CD_RGI&lt;/th&gt;
&lt;td&gt;230008&lt;/td&gt;
&lt;/tr&gt;&lt;tr bgcolor="#E3E3F3"&gt;
&lt;th&gt;NM_RGI&lt;/th&gt;
&lt;td&gt;Aracati&lt;/td&gt;
&lt;/tr&gt;&lt;tr bgcolor=""&gt;
&lt;th&gt;CT_LOCALIDADE&lt;/th&gt;
&lt;td&gt;Outras Localidades&lt;/td&gt;
&lt;/tr&gt;&lt;tr bgcolor="#E3E3F3"&gt;
&lt;th&gt;SCT_LOCALIDADE&lt;/th&gt;
&lt;td&gt;&lt;/td&gt;
&lt;/tr&gt;&lt;tr bgcolor=""&gt;
&lt;th&gt;CD_LOCALIDADE&lt;/th&gt;
&lt;td&gt;230445900019&lt;/td&gt;
&lt;/tr&gt;&lt;tr bgcolor="#E3E3F3"&gt;
&lt;th&gt;NM_LOCALIDADE&lt;/th&gt;
&lt;td&gt;Guajiru&lt;/td&gt;
&lt;/tr&gt;&lt;/table&gt;&lt;/center&gt;</description>
<Style>
<IconStyle>
<color>ff0069d3</color>
<scale>0.6</scale>
<Icon>
<href>http://maps.google.com/mapfiles/kml/shapes/placemark_circle.png</href>
</Icon>
</IconStyle>
<LabelStyle>
<scale>0.6</scale>
</LabelStyle>
<LineStyle>
<width>1.0</width>
<gx:labelVisibility>1</gx:labelVisibility>
</LineStyle>
</Style>
<ExtendedData>
<SchemaData schemaUrl="#kml_schema_ft_Localidades">
<SimpleData name="CD_UF">23</SimpleData>
<SimpleData name="NM_UF">Ceará</SimpleData>
<SimpleData name="SIGLA_UF">CE</SimpleData>
<SimpleData name="CD_MUN">2304459</SimpleData>
<SimpleData name="NM_MUN">Fortim</SimpleData>
<SimpleData name="CD_RGINT">2302</SimpleData>
<SimpleData name="NM_RGINT">Quixadá</SimpleData>
<SimpleData name="CD_RGI">230008</SimpleData>
<SimpleData name="NM_RGI">Aracati</SimpleData>
<SimpleData name="CT_LOCALIDADE">Outras Localidades</SimpleData>
<SimpleData name="CD_LOCALIDADE">230445900019</SimpleData>
<SimpleData name="NM_LOCALIDADE">Guajiru</SimpleData>
</SchemaData>
</ExtendedData>
<Point>
<extrude>0</extrude>
<coordinates>-37.833195,-4.41321599985463,0.0</coordinates>
</Point>
</Placemark>
<Placemark id="12. Outras Localidades">
<name>Oitizeiro [230445900020]</name>
<visibility>1</visibility>
<snippet> </snippet>
<description>&lt;center&gt;&lt;table&gt;&lt;tr&gt;&lt;th colspan='2' align='center'&gt;&lt;em&gt;Attributes&lt;/em&gt;&lt;/th&gt;&lt;/tr&gt;&lt;tr bgcolor="#E3E3F3"&gt;
&lt;th&gt;CD_UF&lt;/th&gt;
&lt;td&gt;23&lt;/td&gt;
&lt;/tr&gt;&lt;tr bgcolor=""&gt;
&lt;th&gt;NM_UF&lt;/th&gt;
&lt;td&gt;Ceará&lt;/td&gt;
&lt;/tr&gt;&lt;tr bgcolor="#E3E3F3"&gt;
&lt;th&gt;SIGLA_UF&lt;/th&gt;
&lt;td&gt;CE&lt;/td&gt;
&lt;/tr&gt;&lt;tr bgcolor=""&gt;
&lt;th&gt;CD_MUN&lt;/th&gt;
&lt;td&gt;2304459&lt;/td&gt;
&lt;/tr&gt;&lt;tr bgcolor="#E3E3F3"&gt;
&lt;th&gt;NM_MUN&lt;/th&gt;
&lt;td&gt;Fortim&lt;/td&gt;
&lt;/tr&gt;&lt;tr bgcolor=""&gt;
&lt;th&gt;CD_RGINT&lt;/th&gt;
&lt;td&gt;2302&lt;/td&gt;
&lt;/tr&gt;&lt;tr bgcolor="#E3E3F3"&gt;
&lt;th&gt;NM_RGINT&lt;/th&gt;
&lt;td&gt;Quixadá&lt;/td&gt;
&lt;/tr&gt;&lt;tr bgcolor=""&gt;
&lt;th&gt;CD_RGI&lt;/th&gt;
&lt;td&gt;230008&lt;/td&gt;
&lt;/tr&gt;&lt;tr bgcolor="#E3E3F3"&gt;
&lt;th&gt;NM_RGI&lt;/th&gt;
&lt;td&gt;Aracati&lt;/td&gt;
&lt;/tr&gt;&lt;tr bgcolor=""&gt;
&lt;th&gt;CT_LOCALIDADE&lt;/th&gt;
&lt;td&gt;Outras Localidades&lt;/td&gt;
&lt;/tr&gt;&lt;tr bgcolor="#E3E3F3"&gt;
&lt;th&gt;SCT_LOCALIDADE&lt;/th&gt;
&lt;td&gt;&lt;/td&gt;
&lt;/tr&gt;&lt;tr bgcolor=""&gt;
&lt;th&gt;CD_LOCALIDADE&lt;/th&gt;
&lt;td&gt;230445900020&lt;/td&gt;
&lt;/tr&gt;&lt;tr bgcolor="#E3E3F3"&gt;
&lt;th&gt;NM_LOCALIDADE&lt;/th&gt;
&lt;td&gt;Oitizeiro&lt;/td&gt;
&lt;/tr&gt;&lt;/table&gt;&lt;/center&gt;</description>
<Style>
<IconStyle>
<color>ff0069d3</color>
<scale>0.6</scale>
<Icon>
<href>http://maps.google.com/mapfiles/kml/shapes/placemark_circle.png</href>
</Icon>
</IconStyle>
<LabelStyle>
<scale>0.6</scale>
</LabelStyle>
<LineStyle>
<width>1.0</width>
<gx:labelVisibility>1</gx:labelVisibility>
</LineStyle>
</Style>
<ExtendedData>
<SchemaData schemaUrl="#kml_schema_ft_Localidades">
<SimpleData name="CD_UF">23</SimpleData>
<SimpleData name="NM_UF">Ceará</SimpleData>
<SimpleData name="SIGLA_UF">CE</SimpleData>
<SimpleData name="CD_MUN">2304459</SimpleData>
<SimpleData name="NM_MUN">Fortim</SimpleData>
<SimpleData name="CD_RGINT">2302</SimpleData>
<SimpleData name="NM_RGINT">Quixadá</SimpleData>
<SimpleData name="CD_RGI">230008</SimpleData>
<SimpleData name="NM_RGI">Aracati</SimpleData>
<SimpleData name="CT_LOCALIDADE">Outras Localidades</SimpleData>
<SimpleData name="CD_LOCALIDADE">230445900020</SimpleData>
<SimpleData name="NM_LOCALIDADE">Oitizeiro</SimpleData>
</SchemaData>
</ExtendedData>
<Point>
<extrude>0</extrude>
<coordinates>-37.819645,-4.44466599985361,0.0</coordinates>
</Point>
</Placemark>
</Folder>
<Folder id="13. Referência">
<name>13. Referência</name>
<Placemark id="13. Referência">
<name>Fortim [2304459]</name>
<visibility>1</visibility>
<snippet> </snippet>
<description>&lt;center&gt;&lt;table&gt;&lt;tr&gt;&lt;th colspan='2' align='center'&gt;&lt;em&gt;Attributes&lt;/em&gt;&lt;/th&gt;&lt;/tr&gt;&lt;tr bgcolor="#E3E3F3"&gt;
&lt;th&gt;CD_UF&lt;/th&gt;
&lt;td&gt;23&lt;/td&gt;
&lt;/tr&gt;&lt;tr bgcolor=""&gt;
&lt;th&gt;NM_UF&lt;/th&gt;
&lt;td&gt;Ceará&lt;/td&gt;
&lt;/tr&gt;&lt;tr bgcolor="#E3E3F3"&gt;
&lt;th&gt;CD_MUN&lt;/th&gt;
&lt;td&gt;2304459&lt;/td&gt;
&lt;/tr&gt;&lt;tr bgcolor=""&gt;
&lt;th&gt;NM_MUN&lt;/th&gt;
&lt;td&gt;Fortim&lt;/td&gt;
&lt;/tr&gt;&lt;tr bgcolor="#E3E3F3"&gt;
&lt;th&gt;CD_RGINT&lt;/th&gt;
&lt;td&gt;2302&lt;/td&gt;
&lt;/tr&gt;&lt;tr bgcolor=""&gt;
&lt;th&gt;NM_RGINT&lt;/th&gt;
&lt;td&gt;Quixadá&lt;/td&gt;
&lt;/tr&gt;&lt;tr bgcolor="#E3E3F3"&gt;
&lt;th&gt;CD_RGI&lt;/th&gt;
&lt;td&gt;230008&lt;/td&gt;
&lt;/tr&gt;&lt;tr bgcolor=""&gt;
&lt;th&gt;NM_RGI&lt;/th&gt;
&lt;td&gt;Aracati&lt;/td&gt;
&lt;/tr&gt;&lt;/table&gt;&lt;/center&gt;</description>
<Style>
<IconStyle>
<scale>0.7</scale>
</IconStyle>
<LabelStyle>
<scale>0.7</scale>
</LabelStyle>
<LineStyle>
<color>ffffffff</color>
<width>3</width>
<gx:labelVisibility>1</gx:labelVisibility>
</LineStyle>
<PolyStyle>
<color>00ffffff</color>
</PolyStyle>
</Style>
<ExtendedData>
<SchemaData schemaUrl="#kml_schema_ft_Município">
<SimpleData name="CD_UF">23</SimpleData>
<SimpleData name="NM_UF">Ceará</SimpleData>
<SimpleData name="CD_MUN">2304459</SimpleData>
<SimpleData name="NM_MUN">Fortim</SimpleData>
<SimpleData name="CD_RGINT">2302</SimpleData>
<SimpleData name="NM_RGINT">Quixadá</SimpleData>
<SimpleData name="CD_RGI">230008</SimpleData>
<SimpleData name="NM_RGI">Aracati</SimpleData>
</SchemaData>
</ExtendedData>
<MultiGeometry>
<Polygon>
<extrude>0</extrude>
<tessellate>1</tessellate>
<outerBoundaryIs>
<LinearRing>
<coordinates>-37.7811853,-4.40145469985502,0.0 -37.7811177,-4.40142219985502,0.0 -37.7810946,-4.40141109985502,0.0 -37.7810038,-4.40136749985502,0.0 -37.7806606,-4.40126309985502,0.0 -37.780358,-4.40118969985503,0.0 -37.7802351,-4.40115989985503,0.0 -37.7802314,-4.40115929985503,0.0 -37.780204,-4.40115239985503,0.0 -37.7801683,-4.40114369985503,0.0 -37.7801315,-4.40115259985503,0.0 -37.779676,-4.40126309985502,0.0 -37.7792434,-4.40144949985502,0.0 -37.7788107,-4.40163599985501,0.0 -37.7783262,-4.40181889985501,0.0 -37.7776955,-4.402056899855,0.0 -37.7772293,-4.40223279985499,0.0 -37.7764545,-4.40242139985499,0.0 -37.7763099,-4.40245659985498,0.0 -37.7758922,-4.40257589985498,0.0 -37.7756759,-4.40254609985498,0.0 -37.7755677,-4.40253119985498,0.0 -37.7754595,-4.40251619985498,0.0 -37.7751961,-4.40234559985499,0.0 -37.7748938,-4.40221709985499,0.0 -37.7747275,-4.40215659985499,0.0 -37.7745612,-4.402096199855,0.0 -37.7742665,-4.402118799855,0.0 -37.7739188,-4.402088599855,0.0 -37.7735712,-4.401997899855,0.0 -37.7732235,-4.401997899855,0.0 -37.7729937,-4.401990899855,0.0 -37.7705416,-4.40109829985503,0.0 -37.7700944,-4.40127069985502,0.0 -37.7697971,-4.40175149985501,0.0 -37.7693452,-4.40339679985496,0.0 -37.7689651,-4.40450449985492,0.0 -37.768585,-4.40561209985488,0.0 -37.768307,-4.40683279985484,0.0 -37.7681206,-4.4082486998548,0.0 -37.7684826,-4.40862229985478,0.0 -37.7685289,-4.40867009985478,0.0 -37.7684023,-4.4110300998547,0.0 -37.7681854,-4.41233299985466,0.0 -37.7672821,-4.41455829985459,0.0 -37.7668804,-4.41632269985453,0.0 -37.7665918,-4.41772809985449,0.0 -37.7668154,-4.41854429985446,0.0 -37.767039,-4.41936049985443,0.0 -37.7675176,-4.42053109985439,0.0 -37.7677716,-4.42150639985436,0.0 -37.7680262,-4.42212249985434,0.0 -37.7681885,-4.42258669985433,0.0 -37.7682093,-4.42264619985432,0.0 -37.7682904,-4.42307729985431,0.0 -37.7686812,-4.42374839985429,0.0 -37.7691529,-4.42446179985427,0.0 -37.7696053,-4.42484539985425,0.0 -37.7694827,-4.4263876998542,0.0 -37.7728313,-4.42990009985409,0.0 -37.7771207,-4.43491089985392,0.0 -37.7815834,-4.43914559985379,0.0 -37.7853471,-4.44304209985366,0.0 -37.7835461,-4.4448639998536,0.0 -37.7819061,-4.44533989985358,0.0 -37.7810145,-4.44584239985357,0.0 -37.7808015,-4.44617719985356,0.0 -37.7808004,-4.44684759985353,0.0 -37.7808603,-4.44732509985352,0.0 -37.7811619,-4.44857499985348,0.0 -37.7814632,-4.44996709985343,0.0 -37.7818645,-4.45209069985337,0.0 -37.7818706,-4.45266789985334,0.0 -37.780939,-4.45344489985332,0.0 -37.7798355,-4.45389179985331,0.0 -37.7793813,-4.45433139985329,0.0 -37.7790867,-4.45497089985327,0.0 -37.7790351,-4.45560059985325,0.0 -37.7790132,-4.45661629985322,0.0 -37.7781617,-4.45676069985321,0.0 -37.7774759,-4.45690909985321,0.0 -37.7766643,-4.4571608998532,0.0 -37.7762389,-4.45736329985319,0.0 -37.7757761,-4.45750459985319,0.0 -37.7748934,-4.45737309985319,0.0 -37.773989,-4.45678369985321,0.0 -37.7734832,-4.45627429985323,0.0 -37.7729782,-4.45525639985326,0.0 -37.772652,-4.45426869985329,0.0 -37.7724749,-4.45319149985333,0.0 -37.772566,-4.45217459985336,0.0 -37.7725115,-4.4509443998534,0.0 -37.7718266,-4.4510156998534,0.0 -37.7714812,-4.45081169985341,0.0 -37.7711117,-4.45072739985341,0.0 -37.7707298,-4.4510138998534,0.0 -37.7705874,-4.45146229985338,0.0 -37.770398,-4.45184739985337,0.0 -37.7702119,-4.45225049985336,0.0 -37.7703783,-4.45256189985335,0.0 -37.7704733,-4.45277739985334,0.0 -37.7704491,-4.45301669985333,0.0 -37.7702223,-4.45315989985333,0.0 -37.7698877,-4.45339139985332,0.0 -37.7695065,-4.45348169985332,0.0 -37.7691842,-4.45373249985331,0.0 -37.7689571,-4.4541149998533,0.0 -37.7688969,-4.45446189985329,0.0 -37.7690033,-4.45495259985327,0.0 -37.7693123,-4.45557539985325,0.0 -37.769502,-4.45620979985323,0.0 -37.7695367,-4.45682009985321,0.0 -37.7696434,-4.4572031998532,0.0 -37.7700005,-4.45752689985319,0.0 -37.7705127,-4.45780289985318,0.0 -37.7708405,-4.45793509985317,0.0 -37.7712274,-4.45816309985317,0.0 -37.7713937,-4.45849839985315,0.0 -37.7714048,-4.45902489985314,0.0 -37.7713802,-4.45949149985312,0.0 -37.7712242,-4.46005359985311,0.0 -37.7705801,-4.4602559998531,0.0 -37.7701628,-4.4602791998531,0.0 -37.7698764,-4.46045819985309,0.0 -37.7696372,-4.46088849985308,0.0 -37.7696246,-4.46133119985306,0.0 -37.769755,-4.46177419985305,0.0 -37.7704219,-4.46219409985303,0.0 -37.7709937,-4.46247019985302,0.0 -37.7714701,-4.46277019985301,0.0 -37.7716843,-4.46297389985301,0.0 -37.7717552,-4.46340479985299,0.0 -37.7719217,-4.46362049985299,0.0 -37.772267,-4.46389629985298,0.0 -37.7732802,-4.46400559985298,0.0 -37.7742338,-4.46406709985297,0.0 -37.7748297,-4.46419969985297,0.0 -37.7756225,-4.46458709985296,0.0 -37.776166,-4.46501689985294,0.0 -37.7765656,-4.46561109985292,0.0 -37.7767554,-4.4661856998529,0.0 -37.7768491,-4.46720049985287,0.0 -37.7766188,-4.46800419985284,0.0 -37.7763722,-4.46864139985282,0.0 -37.7759782,-4.46899969985281,0.0 -37.7751854,-4.46968659985279,0.0 -37.7744027,-4.47002989985278,0.0 -37.7731657,-4.47018109985277,0.0 -37.7721488,-4.47046509985276,0.0 -37.7714254,-4.47096299985275,0.0 -37.7711813,-4.47151639985273,0.0 -37.7709415,-4.4723654998527,0.0 -37.7707494,-4.47316689985268,0.0 -37.7707367,-4.47359759985266,0.0 -37.7705328,-4.47437499985264,0.0 -37.7704963,-4.47479379985262,0.0 -37.7705311,-4.4753681998526,0.0 -37.7710064,-4.47635009985257,0.0 -37.7716487,-4.47721269985254,0.0 -37.7718337,-4.47779829985252,0.0 -37.771873,-4.4785651998525,0.0 -37.7718483,-4.47904379985248,0.0 -37.7719188,-4.47968999985246,0.0 -37.7722401,-4.48007339985245,0.0 -37.7727408,-4.48008619985245,0.0 -37.773051,-4.47990729985245,0.0 -37.7739225,-4.47920279985248,0.0 -37.7745212,-4.47908549985248,0.0 -37.7748772,-4.4786419998525,0.0 -37.7749616,-4.47811569985252,0.0 -37.7748199,-4.47725389985254,0.0 -37.7752267,-4.47641699985257,0.0 -37.7757757,-4.47604699985258,0.0 -37.7764917,-4.47566529985259,0.0 -37.7779218,-4.47591279985259,0.0 -37.7768055,-4.47763869985253,0.0 -37.776151,-4.47991019985245,0.0 -37.7757575,-4.48179029985239,0.0 -37.7755986,-4.48346179985234,0.0 -37.7758299,-4.48521229985228,0.0 -37.7768161,-4.48688569985223,0.0 -37.7781151,-4.48832459985218,0.0 -37.7795178,-4.48999869985213,0.0 -37.7821952,-4.49209279985206,0.0 -37.7837491,-4.49279239985203,0.0 -37.7863722,-4.49352099985201,0.0 -37.7864365,-4.49431119985199,0.0 -37.7870164,-4.49947029985182,0.0 -37.7887112,-4.50719679985156,0.0 -37.791187,-4.50740249985156,0.0 -37.7917589,-4.50805349985154,0.0 -37.7934105,-4.50865329985152,0.0 -37.7949306,-4.50878849985151,0.0 -37.796319,-4.50865809985152,0.0 -37.7981705,-4.50826309985153,0.0 -37.7997058,-4.50781729985154,0.0 -37.8000285,-4.50775949985155,0.0 -37.8012403,-4.50754249985155,0.0 -37.8028872,-4.50658319985159,0.0 -37.8047197,-4.50589699985161,0.0 -37.80608,-4.50581249985161,0.0 -37.8074518,-4.50626049985159,0.0 -37.8095242,-4.50644959985159,0.0 -37.8103627,-4.50640159985159,0.0 -37.8111356,-4.50631859985159,0.0 -37.8117744,-4.5060498998516,0.0 -37.8125143,-4.50557899985162,0.0 -37.8134724,-4.50522659985163,0.0 -37.8141952,-4.50497489985164,0.0 -37.8153715,-4.50470699985164,0.0 -37.816397,-4.50421979985166,0.0 -37.8170825,-4.50424739985166,0.0 -37.8178282,-4.50424399985166,0.0 -37.8193371,-4.50402229985167,0.0 -37.8209833,-4.50407549985167,0.0 -37.8226464,-4.50402759985167,0.0 -37.824086,-4.50414859985166,0.0 -37.8256752,-4.50465939985165,0.0 -37.8265341,-4.50492609985164,0.0 -37.8273862,-4.50528509985163,0.0 -37.8279065,-4.50628479985159,0.0 -37.8284656,-4.50666019985158,0.0 -37.8293356,-4.50703609985157,0.0 -37.8300193,-4.50722439985156,0.0 -37.8308301,-4.50760649985155,0.0 -37.8316361,-4.50782699985154,0.0 -37.8321057,-4.50833349985153,0.0 -37.8326247,-4.50941329985149,0.0 -37.8328838,-4.51039999985146,0.0 -37.8324685,-4.51253199985139,0.0 -37.8326852,-4.51364509985135,0.0 -37.8332896,-4.51414889985134,0.0 -37.8339506,-4.51487639985131,0.0 -37.834279,-4.5152378998513,0.0 -37.8353536,-4.51557679985129,0.0 -37.8359917,-4.51576329985128,0.0 -37.836915,-4.51615249985127,0.0 -37.8381572,-4.51676149985125,0.0 -37.8389123,-4.51730219985123,0.0 -37.839952,-4.51803719985121,0.0 -37.8428351,-4.51920599985117,0.0 -37.8465279,-4.52080109985112,0.0 -37.84771,-4.52169049985109,0.0 -37.8480285,-4.52193409985108,0.0 -37.8488512,-4.52317639985104,0.0 -37.8491185,-4.52496299985098,0.0 -37.8494034,-4.52564429985096,0.0 -37.8494432,-4.52568669985096,0.0 -37.8497554,-4.52601949985095,0.0 -37.8501653,-4.52639219985094,0.0 -37.8507467,-4.52668029985093,0.0 -37.8513566,-4.52707369985092,0.0 -37.8518932,-4.52734449985091,0.0 -37.8523187,-4.52786019985089,0.0 -37.8524501,-4.52922929985085,0.0 -37.8523459,-4.52989269985082,0.0 -37.8520446,-4.53038039985081,0.0 -37.8508354,-4.53094019985079,0.0 -37.8499398,-4.53138219985077,0.0 -37.8491521,-4.53186909985076,0.0 -37.8485934,-4.53228459985075,0.0 -37.8478447,-4.53275069985073,0.0 -37.8476951,-4.53331459985071,0.0 -37.8477654,-4.53410449985069,0.0 -37.8481756,-4.53482049985066,0.0 -37.8482536,-4.53495659985066,0.0 -37.8489077,-4.53557809985064,0.0 -37.8495511,-4.53590219985063,0.0 -37.85023,-4.53633399985061,0.0 -37.8510515,-4.53712509985059,0.0 -37.8549117,-4.53903379985052,0.0 -37.8568421,-4.5397906998505,0.0 -37.8577001,-4.54011509985049,0.0 -37.8577369,-4.54012769985049,0.0 -37.8643315,-4.54236989985041,0.0 -37.8677322,-4.5429331998504,0.0 -37.8820371,-4.54104979985046,0.0 -37.8830752,-4.54091309985046,0.0 -37.8998237,-4.53870789985054,0.0 -37.9038489,-4.53817789985055,0.0 -37.9633811,-4.53033969985081,0.0 -37.9633262,-4.52997369985082,0.0 -37.9632671,-4.52958089985083,0.0 -37.9632488,-4.52929249985084,0.0 -37.9632424,-4.52918939985085,0.0 -37.9632265,-4.52893929985085,0.0 -37.9630672,-4.52836669985087,0.0 -37.9630013,-4.5274729998509,0.0 -37.9630358,-4.52686609985092,0.0 -37.9628347,-4.52651179985093,0.0 -37.9623431,-4.52637919985094,0.0 -37.9621881,-4.52627069985094,0.0 -37.9622135,-4.52601799985095,0.0 -37.9625538,-4.52590809985095,0.0 -37.9630639,-4.52589529985095,0.0 -37.963798,-4.52557259985096,0.0 -37.964262,-4.52528199985097,0.0 -37.9643954,-4.52499139985098,0.0 -37.9642161,-4.52472299985099,0.0 -37.9641696,-4.524391499851,0.0 -37.963988,-4.52403209985101,0.0 -37.9639235,-4.52279429985106,0.0 -37.9640771,-4.52244179985107,0.0 -37.9644763,-4.52240199985107,0.0 -37.9647164,-4.52259749985106,0.0 -37.9650238,-4.52270419985106,0.0 -37.9657861,-4.52223899985107,0.0 -37.9657103,-4.52175609985109,0.0 -37.9655837,-4.5214513998511,0.0 -37.9655949,-4.52126359985111,0.0 -37.9658546,-4.52123059985111,0.0 -37.9661242,-4.52110709985111,0.0 -37.9663158,-4.5212683998511,0.0 -37.966436,-4.52178629985109,0.0 -37.9668294,-4.52188589985108,0.0 -37.9672601,-4.52211539985108,0.0 -37.9677957,-4.52183889985109,0.0 -37.9678571,-4.5215001998511,0.0 -37.9677038,-4.52113419985111,0.0 -37.9679919,-4.52084289985112,0.0 -37.968124,-4.52012019985114,0.0 -37.9685131,-4.51936649985117,0.0 -37.9688103,-4.51915289985117,0.0 -37.9689548,-4.51876709985119,0.0 -37.9689094,-4.5184402998512,0.0 -37.968646,-4.5183271998512,0.0 -37.9685628,-4.51796799985121,0.0 -37.9688496,-4.51694499985125,0.0 -37.9690188,-4.51628059985127,0.0 -37.9684408,-4.51570119985129,0.0 -37.9682797,-4.51438359985133,0.0 -37.9680043,-4.51305549985137,0.0 -37.9674899,-4.51151209985142,0.0 -37.9667358,-4.51017059985147,0.0 -37.9649231,-4.50899209985151,0.0 -37.9631226,-4.50810439985153,0.0 -37.9627199,-4.50774969985155,0.0 -37.9625567,-4.50737019985156,0.0 -37.9626968,-4.50632079985159,0.0 -37.9635032,-4.5062966998516,0.0 -37.9634254,-4.5060412998516,0.0 -37.9631871,-4.50595719985161,0.0 -37.9629729,-4.50565179985161,0.0 -37.9630089,-4.50546039985162,0.0 -37.9633784,-4.50546189985162,0.0 -37.9632714,-4.50511799985163,0.0 -37.9631777,-4.50481679985164,0.0 -37.9634255,-4.50423139985166,0.0 -37.9637124,-4.50375069985168,0.0 -37.9640139,-4.5030331998517,0.0 -37.9641715,-4.50282519985171,0.0 -37.9643864,-4.50266039985171,0.0 -37.9650713,-4.50224369985173,0.0 -37.9649966,-4.50162399985175,0.0 -37.9642381,-4.50025769985179,0.0 -37.9640935,-4.49873969985184,0.0 -37.9639557,-4.49818319985186,0.0 -37.9632761,-4.49766369985188,0.0 -37.9629619,-4.49709429985189,0.0 -37.9625465,-4.4968154998519,0.0 -37.9622195,-4.49639779985192,0.0 -37.9614132,-4.49633339985192,0.0 -37.9604819,-4.49561129985194,0.0 -37.960168,-4.49486479985197,0.0 -37.9598659,-4.49461149985198,0.0 -37.9594498,-4.49486379985197,0.0 -37.9589584,-4.49483779985197,0.0 -37.9586693,-4.49435689985198,0.0 -37.9586956,-4.49363609985201,0.0 -37.9589796,-4.49276069985203,0.0 -37.9598154,-4.49265699985204,0.0 -37.9601924,-4.49196569985206,0.0 -37.9603561,-4.4908461998521,0.0 -37.9600948,-4.49015179985212,0.0 -37.959905,-4.48945739985214,0.0 -37.9596746,-4.48882019985216,0.0 -37.9578788,-4.48827249985218,0.0 -37.9565074,-4.4876678998522,0.0 -37.9561268,-4.48699729985222,0.0 -37.9549376,-4.48481769985229,0.0 -37.9542485,-4.48311749985235,0.0 -37.953893,-4.4815374998524,0.0 -37.9537046,-4.47988589985246,0.0 -37.9537544,-4.4784021998525,0.0 -37.9544128,-4.47669449985256,0.0 -37.954838,-4.47402539985265,0.0 -37.9551577,-4.47138269985274,0.0 -37.9553391,-4.47023829985277,0.0 -37.9555974,-4.46956709985279,0.0 -37.9562672,-4.46915469985281,0.0 -37.9568849,-4.46915559985281,0.0 -37.9576566,-4.46951829985279,0.0 -37.9590958,-4.47107029985274,0.0 -37.9596099,-4.47153609985273,0.0 -37.9603303,-4.47179539985272,0.0 -37.9612569,-4.47179669985272,0.0 -37.9619268,-4.47128099985274,0.0 -37.9624943,-4.47040349985277,0.0 -37.963116,-4.46806349985284,0.0 -37.9636317,-4.46694349985288,0.0 -37.965885,-4.46545059985293,0.0 -37.9669133,-4.46463269985296,0.0 -37.9662087,-4.46181699985305,0.0 -37.9659256,-4.45968659985312,0.0 -37.9655947,-4.45757999985318,0.0 -37.9654769,-4.45655079985322,0.0 -37.9654309,-4.45530619985326,0.0 -37.9680096,-4.45314129985333,0.0 -37.9699744,-4.4510375998534,0.0 -37.9706156,-4.44929839985345,0.0 -37.9716268,-4.44597539985356,0.0 -37.9727521,-4.44337879985365,0.0 -37.974181,-4.43970009985377,0.0 -37.9752647,-4.43602089985389,0.0 -37.9763482,-4.43242829985401,0.0 -37.9712797,-4.4263603998542,0.0 -37.9676208,-4.42372739985429,0.0 -37.9606324,-4.42204849985434,0.0 -37.9573257,-4.42092069985438,0.0 -37.9535825,-4.41881569985445,0.0 -37.9503761,-4.41553939985456,0.0 -37.9479971,-4.41202019985467,0.0 -37.94941,-4.40833419985479,0.0 -37.950356,-4.40412549985493,0.0 -37.9504009,-4.40383269985494,0.0 -37.9492717,-4.40315629985496,0.0 -37.9466418,-4.40144379985502,0.0 -37.9455775,-4.40073849985504,0.0 -37.9432973,-4.39922769985509,0.0 -37.9408932,-4.39958959985508,0.0 -37.9395348,-4.39927979985509,0.0 -37.9340001,-4.39806569985513,0.0 -37.9311255,-4.39742979985515,0.0 -37.9269887,-4.39917559985509,0.0 -37.9238683,-4.40037729985505,0.0 -37.9204219,-4.39942459985508,0.0 -37.9171313,-4.39959209985508,0.0 -37.9141843,-4.39963089985508,0.0 -37.912868,-4.39972949985507,0.0 -37.9106233,-4.40080889985504,0.0 -37.9086849,-4.40238559985499,0.0 -37.9065772,-4.40382849985494,0.0 -37.906502,-4.40393599985494,0.0 -37.906559,-4.40406179985493,0.0 -37.9074216,-4.40539919985489,0.0 -37.9086228,-4.40704649985484,0.0 -37.9083493,-4.40742709985482,0.0 -37.9076725,-4.40985869985474,0.0 -37.9078989,-4.41012929985474,0.0 -37.908033,-4.41050639985472,0.0 -37.9076849,-4.4110748998547,0.0 -37.9070748,-4.41155769985469,0.0 -37.9055721,-4.41182579985468,0.0 -37.9051887,-4.41231599985466,0.0 -37.9051301,-4.41363169985462,0.0 -37.90491,-4.41394439985461,0.0 -37.9041376,-4.41395029985461,0.0 -37.9031951,-4.41393469985461,0.0 -37.9025575,-4.41381279985461,0.0 -37.9016232,-4.41309309985464,0.0 -37.9009227,-4.41235949985466,0.0 -37.8999685,-4.41193859985467,0.0 -37.8997403,-4.41166779985468,0.0 -37.8995493,-4.41146829985469,0.0 -37.8994575,-4.4112547998547,0.0 -37.899098,-4.40996689985474,0.0 -37.8995461,-4.40880819985478,0.0 -37.8998165,-4.4080404998548,0.0 -37.8998954,-4.40741469985482,0.0 -37.8996479,-4.40703729985484,0.0 -37.8992512,-4.40698699985484,0.0 -37.8986269,-4.40742699985482,0.0 -37.8981678,-4.40775689985481,0.0 -37.8976844,-4.40750389985482,0.0 -37.8972388,-4.40693419985484,0.0 -37.8966158,-4.40654209985485,0.0 -37.8960913,-4.40659819985485,0.0 -37.8957794,-4.40669019985485,0.0 -37.8955234,-4.40724459985483,0.0 -37.896365,-4.40837669985479,0.0 -37.8967109,-4.40932319985476,0.0 -37.8961966,-4.41007149985474,0.0 -37.8959087,-4.41057879985472,0.0 -37.894889,-4.4111858998547,0.0 -37.8937437,-4.41168679985468,0.0 -37.8928904,-4.41191819985468,0.0 -37.8923127,-4.41197179985467,0.0 -37.8921251,-4.41186759985468,0.0 -37.8921495,-4.41159509985469,0.0 -37.8919548,-4.40905559985477,0.0 -37.8917654,-4.40777509985481,0.0 -37.8915751,-4.40710619985483,0.0 -37.8909607,-4.40723129985483,0.0 -37.890174,-4.40715829985483,0.0 -37.8888115,-4.40708779985484,0.0 -37.8883335,-4.40769089985482,0.0 -37.8877245,-4.40869229985478,0.0 -37.8875202,-4.40896149985477,0.0 -37.8872153,-4.40908189985477,0.0 -37.8869311,-4.40903759985477,0.0 -37.886556,-4.40849989985479,0.0 -37.8863793,-4.4081510998548,0.0 -37.8862314,-4.40754629985482,0.0 -37.8859067,-4.40668519985485,0.0 -37.8853405,-4.40620779985486,0.0 -37.8846039,-4.40601469985487,0.0 -37.8840797,-4.40585739985487,0.0 -37.8837397,-4.40580709985488,0.0 -37.8832857,-4.40607669985487,0.0 -37.8831562,-4.40661469985485,0.0 -37.8829962,-4.40715759985483,0.0 -37.8830845,-4.40796119985481,0.0 -37.8831688,-4.40843789985479,0.0 -37.8834092,-4.40880809985478,0.0 -37.8851031,-4.41008469985474,0.0 -37.8859911,-4.41067409985472,0.0 -37.886513,-4.41098819985471,0.0 -37.8868713,-4.41146289985469,0.0 -37.8865587,-4.41198399985468,0.0 -37.8861359,-4.41247069985466,0.0 -37.8855269,-4.41331959985463,0.0 -37.8851768,-4.41363199985462,0.0 -37.8848463,-4.41353669985462,0.0 -37.8845065,-4.41326119985463,0.0 -37.8840347,-4.41290009985464,0.0 -37.8834309,-4.41226379985466,0.0 -37.883169,-4.41178889985468,0.0 -37.8828184,-4.4111532998547,0.0 -37.8822049,-4.41074459985472,0.0 -37.8815716,-4.41092379985471,0.0 -37.8809711,-4.41180459985468,0.0 -37.8806127,-4.41233059985466,0.0 -37.8802069,-4.41261709985466,0.0 -37.879642,-4.41238139985466,0.0 -37.8791419,-4.41194439985468,0.0 -37.8785573,-4.4111468998547,0.0 -37.8785847,-4.41031929985473,0.0 -37.8785969,-4.40995199985474,0.0 -37.8781358,-4.40866159985478,0.0 -37.8775317,-4.4082813998548,0.0 -37.8768421,-4.4082233998548,0.0 -37.876322,-4.40850709985479,0.0 -37.8757921,-4.40902789985477,0.0 -37.8755617,-4.40981009985475,0.0 -37.8753934,-4.41074319985471,0.0 -37.8748819,-4.4111317998547,0.0 -37.8743526,-4.4112827998547,0.0 -37.8739578,-4.4112066998547,0.0 -37.8737575,-4.4111680998547,0.0 -37.8733601,-4.41085849985471,0.0 -37.8729648,-4.41055049985472,0.0 -37.871747,-4.40989419985474,0.0 -37.8708513,-4.40921239985476,0.0 -37.8702249,-4.40845209985479,0.0 -37.8703415,-4.4080677998548,0.0 -37.8705832,-4.40773529985481,0.0 -37.8708227,-4.40724249985483,0.0 -37.8713526,-4.40668689985485,0.0 -37.8720207,-4.40642239985486,0.0 -37.873054,-4.40619639985486,0.0 -37.8739739,-4.40599549985487,0.0 -37.8745537,-4.40583199985488,0.0 -37.8750074,-4.40568089985488,0.0 -37.8753503,-4.40538219985489,0.0 -37.8754622,-4.40485969985491,0.0 -37.8752233,-4.40450529985492,0.0 -37.8743546,-4.40421319985493,0.0 -37.8733722,-4.40405989985493,0.0 -37.8727802,-4.40399579985493,0.0 -37.872289,-4.40391919985494,0.0 -37.8719616,-4.40383019985494,0.0 -37.8716596,-4.40356419985495,0.0 -37.8714965,-4.40315929985496,0.0 -37.8714649,-4.40283429985497,0.0 -37.8716741,-4.40232509985499,0.0 -37.8723424,-4.401896199855,0.0 -37.8732122,-4.40154339985502,0.0 -37.8736408,-4.40131649985502,0.0 -37.874019,-4.40119059985503,0.0 -37.8744351,-4.40093839985504,0.0 -37.8746748,-4.40069849985504,0.0 -37.8745746,-4.40031899985505,0.0 -37.874172,-4.39997699985507,0.0 -37.8737061,-4.39983719985507,0.0 -37.8731897,-4.39977319985507,0.0 -37.8723833,-4.39986049985507,0.0 -37.8716523,-4.40006169985506,0.0 -37.8709337,-4.40046519985505,0.0 -37.8703031,-4.40089419985504,0.0 -37.8698362,-4.40143719985502,0.0 -37.8694445,-4.40223319985499,0.0 -37.8689392,-4.40314279985496,0.0 -37.8684977,-4.40350879985495,0.0 -37.8681951,-4.40369799985494,0.0 -37.8677164,-4.40369729985495,0.0 -37.8673259,-4.40369669985495,0.0 -37.8669859,-4.40363299985495,0.0 -37.8665579,-4.40341739985496,0.0 -37.8659959,-4.40291909985497,0.0 -37.8651067,-4.40224339985499,0.0 -37.8643849,-4.401938799855,0.0 -37.8632933,-4.401819199855,0.0 -37.8631331,-4.401833899855,0.0 -37.8620334,-4.401935299855,0.0 -37.8603033,-4.401999999855,0.0 -37.8595854,-4.40177529985501,0.0 -37.8588933,-4.40131909985502,0.0 -37.8581381,-4.40087529985504,0.0 -37.8575083,-4.40082379985504,0.0 -37.8569912,-4.40125289985502,0.0 -37.8567762,-4.40174569985501,0.0 -37.8566618,-4.40241569985499,0.0 -37.8564346,-4.40275679985497,0.0 -37.8558294,-4.40307189985497,0.0 -37.8549725,-4.40322229985496,0.0 -37.8543678,-4.40324669985496,0.0 -37.8532509,-4.40239239985499,0.0 -37.8521092,-4.40217789985499,0.0 -37.8507926,-4.402011699855,0.0 -37.8499299,-4.40183709985501,0.0 -37.8490216,-4.40165329985501,0.0 -37.8479591,-4.40140269985502,0.0 -37.8461809,-4.40114389985503,0.0 -37.8452456,-4.40112829985503,0.0 -37.8445722,-4.40126239985503,0.0 -37.8440898,-4.40161719985501,0.0 -37.8439616,-4.402043799855,0.0 -37.8441055,-4.40250479985498,0.0 -37.8443714,-4.40279119985497,0.0 -37.8450652,-4.40317639985496,0.0 -37.8457729,-4.40376779985494,0.0 -37.8463737,-4.40475739985491,0.0 -37.846762,-4.40571109985488,0.0 -37.8470156,-4.40665739985485,0.0 -37.8467733,-4.40722349985483,0.0 -37.8462909,-4.40761389985482,0.0 -37.845972,-4.40761339985482,0.0 -37.8450653,-4.40739859985482,0.0 -37.8432588,-4.40719749985483,0.0 -37.841714,-4.40743149985482,0.0 -37.8412465,-4.40735969985482,0.0 -37.8404337,-4.40600699985487,0.0 -37.8404047,-4.40533799985489,0.0 -37.8400715,-4.40468759985491,0.0 -37.8394378,-4.40391439985494,0.0 -37.8381545,-4.40308369985497,0.0 -37.8367932,-4.40185479985501,0.0 -37.8352817,-4.40169589985501,0.0 -37.8334264,-4.402146999855,0.0 -37.8313424,-4.40293049985497,0.0 -37.828922,-4.40400569985493,0.0 -37.8280924,-4.40463379985491,0.0 -37.8274198,-4.4051271998549,0.0 -37.826851,-4.40605869985487,0.0 -37.8262883,-4.40654129985485,0.0 -37.8259134,-4.40675549985484,0.0 -37.8254583,-4.40688909985484,0.0 -37.8249498,-4.40696889985484,0.0 -37.8245753,-4.40691459985484,0.0 -37.8239869,-4.40672559985485,0.0 -37.8235861,-4.40636599985486,0.0 -37.823346,-4.40589209985487,0.0 -37.8232407,-4.40481759985491,0.0 -37.8232969,-4.40309879985497,0.0 -37.8232446,-4.40229299985499,0.0 -37.8231386,-4.40167509985501,0.0 -37.822925,-4.40135249985502,0.0 -37.822551,-4.40100279985503,0.0 -37.8220162,-4.40076019985504,0.0 -37.8212571,-4.40075899985504,0.0 -37.8208387,-4.40086579985504,0.0 -37.8203979,-4.40115139985503,0.0 -37.8194673,-4.402040099855,0.0 -37.8191518,-4.40216819985499,0.0 -37.8188657,-4.40224329985499,0.0 -37.8185646,-4.40225789985499,0.0 -37.8181432,-4.40225719985499,0.0 -37.8178122,-4.402166099855,0.0 -37.817214,-4.40186319985501,0.0 -37.8169412,-4.40156349985501,0.0 -37.81679,-4.40137879985502,0.0 -37.8167301,-4.40119749985503,0.0 -37.8166403,-4.40084989985504,0.0 -37.8164314,-4.40027689985506,0.0 -37.8167015,-4.39940069985509,0.0 -37.8180474,-4.39803159985513,0.0 -37.819549,-4.39726969985515,0.0 -37.8210471,-4.39657279985518,0.0 -37.8243779,-4.39522629985522,0.0 -37.8255829,-4.39463729985524,0.0 -37.8261989,-4.39420859985526,0.0 -37.8268673,-4.39333739985528,0.0 -37.8273668,-4.3927071998553,0.0 -37.8275528,-4.39168509985534,0.0 -37.8284282,-4.39040519985538,0.0 -37.8307608,-4.38816099985545,0.0 -37.8335382,-4.38782819985546,0.0 -37.8362027,-4.38814699985545,0.0 -37.8375929,-4.38704769985549,0.0 -37.8390053,-4.38606079985552,0.0 -37.8406635,-4.38547899985554,0.0 -37.8428816,-4.38480799985556,0.0 -37.8444962,-4.38339439985561,0.0 -37.8450947,-4.38168299985566,0.0 -37.8451205,-4.38165639985567,0.0 -37.8446859,-4.38075219985569,0.0 -37.8446956,-4.3804848998557,0.0 -37.8447241,-4.37969839985573,0.0 -37.8445892,-4.37909039985575,0.0 -37.8441612,-4.37878789985576,0.0 -37.8440439,-4.37880869985576,0.0 -37.8430928,-4.37897769985575,0.0 -37.8417761,-4.37943509985574,0.0 -37.8398677,-4.38010219985572,0.0 -37.8389722,-4.3804950998557,0.0 -37.8380767,-4.38088799985569,0.0 -37.8373667,-4.38162989985567,0.0 -37.8364008,-4.38255979985563,0.0 -37.834712,-4.3836092998556,0.0 -37.8335983,-4.38449129985557,0.0 -37.8312381,-4.38603469985552,0.0 -37.8302944,-4.38686689985549,0.0 -37.8265816,-4.38914699985542,0.0 -37.8235989,-4.39110979985536,0.0 -37.8229977,-4.39132509985535,0.0 -37.8225688,-4.39152379985534,0.0 -37.822183,-4.39185799985533,0.0 -37.8199855,-4.39335189985528,0.0 -37.818794,-4.39405429985526,0.0 -37.8168143,-4.39534939985522,0.0 -37.814679,-4.39643699985518,0.0 -37.813902,-4.39682249985517,0.0 -37.812101,-4.39775529985514,0.0 -37.809989,-4.39863509985511,0.0 -37.808246,-4.3989612998551,0.0 -37.8067944,-4.39860439985511,0.0 -37.8061926,-4.39845639985512,0.0 -37.8049439,-4.3989821998551,0.0 -37.8042532,-4.39927299985509,0.0 -37.8022743,-4.39954379985508,0.0 -37.8009514,-4.39955389985508,0.0 -37.8002604,-4.39926559985509,0.0 -37.7995937,-4.39873799985511,0.0 -37.7991175,-4.39833039985512,0.0 -37.7985703,-4.39763549985514,0.0 -37.7974269,-4.39696359985517,0.0 -37.7974424,-4.39623129985519,0.0 -37.7974527,-4.3957431998552,0.0 -37.7970723,-4.39509639985523,0.0 -37.796522,-4.39475279985524,0.0 -37.7957109,-4.39493619985523,0.0 -37.7951456,-4.39550769985521,0.0 -37.7939831,-4.3960368998552,0.0 -37.7935111,-4.39628429985519,0.0 -37.7927515,-4.39661789985518,0.0 -37.792015,-4.39685909985517,0.0 -37.7911978,-4.39716949985516,0.0 -37.7906346,-4.39742739985515,0.0 -37.7902059,-4.39757529985515,0.0 -37.7897439,-4.39789489985513,0.0 -37.7890059,-4.39820549985513,0.0 -37.7886432,-4.39840829985512,0.0 -37.7882414,-4.3988622998551,0.0 -37.7872621,-4.39926519985509,0.0 -37.7873945,-4.39922279985509,0.0 -37.7862817,-4.39983959985507,0.0 -37.7861489,-4.39991739985507,0.0 -37.7860574,-4.39993779985507,0.0 -37.785966,-4.39995809985507,0.0 -37.7858796,-4.40003429985506,0.0 -37.7857374,-4.40011049985506,0.0 -37.7855545,-4.40022739985506,0.0 -37.7848838,-4.40064909985504,0.0 -37.7843097,-4.40100469985503,0.0 -37.783756,-4.40133489985502,0.0 -37.7830752,-4.40166009985501,0.0 -37.7823487,-4.401898899855,0.0 -37.7819778,-4.401949699855,0.0 -37.7818304,-4.401944599855,0.0 -37.781805,-4.401858199855,0.0 -37.7815155,-4.40181249985501,0.0 -37.7813986,-4.40153819985502,0.0 -37.781354,-4.40152619985502,0.0 -37.7813095,-4.40151429985502,0.0 -37.7811853,-4.40145469985502,0.0</coordinates>
</LinearRing>
</outerBoundaryIs>
</Polygon>
</MultiGeometry>
</Placemark>
</Folder>
</Document></kml>
