<?xml version='1.0' encoding='UTF-8'?>
<kml xmlns:xsd="http://www.w3.org/2001/XMLSchema" xmlns:gx="http://www.google.com/kml/ext/2.2" xmlns:atom="http://www.w3.org/2005/Atom" xmlns="http://www.opengis.net/kml/2.2">
<Document>
<name>ruropolis_1506195_localidades_2022</name>
<visibility>1</visibility>
<Schema name="Agrovilas do PA" id="kml_schema_ft_Agrovilas_do_PA">
<SimpleField type="xsd:string" name="CD_UF">
<displayName>CD_UF</displayName>
</SimpleField>
<SimpleField type="xsd:string" name="NM_UF">
<displayName>NM_UF</displayName>
</SimpleField>
<SimpleField type="xsd:string" name="SIGLA_UF">
<displayName>SIGLA_UF</displayName>
</SimpleField>
<SimpleField type="xsd:string" name="CD_MUN">
<displayName>CD_MUN</displayName>
</SimpleField>
<SimpleField type="xsd:string" name="NM_MUN">
<displayName>NM_MUN</displayName>
</SimpleField>
<SimpleField type="xsd:string" name="CD_RGINT">
<displayName>CD_RGINT</displayName>
</SimpleField>
<SimpleField type="xsd:string" name="NM_RGINT">
<displayName>NM_RGINT</displayName>
</SimpleField>
<SimpleField type="xsd:string" name="CD_RGI">
<displayName>CD_RGI</displayName>
</SimpleField>
<SimpleField type="xsd:string" name="NM_RGI">
<displayName>NM_RGI</displayName>
</SimpleField>
<SimpleField type="xsd:string" name="CT_LOCALIDADE">
<displayName>CT_LOCALIDADE</displayName>
</SimpleField>
<SimpleField type="xsd:string" name="CD_LOCALIDADE">
<displayName>CD_LOCALIDADE</displayName>
</SimpleField>
<SimpleField type="xsd:string" name="NM_LOCALIDADE">
<displayName>NM_LOCALIDADE</displayName>
</SimpleField>
<SimpleField type="xsd:string" name="LAT_LOCALIDADE">
<displayName>LAT_LOCALIDADE</displayName>
</SimpleField>
<SimpleField type="xsd:string" name="LONG_LOCALIDADE">
<displayName>LONG_LOCALIDADE</displayName>
</SimpleField>
</Schema>
<Schema name="Povoados" id="kml_schema_ft_Povoados">
<SimpleField type="xsd:string" name="CD_UF">
<displayName>CD_UF</displayName>
</SimpleField>
<SimpleField type="xsd:string" name="NM_UF">
<displayName>NM_UF</displayName>
</SimpleField>
<SimpleField type="xsd:string" name="SIGLA_UF">
<displayName>SIGLA_UF</displayName>
</SimpleField>
<SimpleField type="xsd:string" name="CD_MUN">
<displayName>CD_MUN</displayName>
</SimpleField>
<SimpleField type="xsd:string" name="NM_MUN">
<displayName>NM_MUN</displayName>
</SimpleField>
<SimpleField type="xsd:string" name="CD_RGINT">
<displayName>CD_RGINT</displayName>
</SimpleField>
<SimpleField type="xsd:string" name="NM_RGINT">
<displayName>NM_RGINT</displayName>
</SimpleField>
<SimpleField type="xsd:string" name="CD_RGI">
<displayName>CD_RGI</displayName>
</SimpleField>
<SimpleField type="xsd:string" name="NM_RGI">
<displayName>NM_RGI</displayName>
</SimpleField>
<SimpleField type="xsd:string" name="CT_LOCALIDADE">
<displayName>CT_LOCALIDADE</displayName>
</SimpleField>
<SimpleField type="xsd:string" name="CD_LOCALIDADE">
<displayName>CD_LOCALIDADE</displayName>
</SimpleField>
<SimpleField type="xsd:string" name="NM_LOCALIDADE">
<displayName>NM_LOCALIDADE</displayName>
</SimpleField>
<SimpleField type="xsd:string" name="LAT_LOCALIDADE">
<displayName>LAT_LOCALIDADE</displayName>
</SimpleField>
<SimpleField type="xsd:string" name="LONG_LOCALIDADE">
<displayName>LONG_LOCALIDADE</displayName>
</SimpleField>
</Schema>
<Schema name="Lugarejos" id="kml_schema_ft_Lugarejos">
<SimpleField type="xsd:string" name="CD_UF">
<displayName>CD_UF</displayName>
</SimpleField>
<SimpleField type="xsd:string" name="NM_UF">
<displayName>NM_UF</displayName>
</SimpleField>
<SimpleField type="xsd:string" name="SIGLA_UF">
<displayName>SIGLA_UF</displayName>
</SimpleField>
<SimpleField type="xsd:string" name="CD_MUN">
<displayName>CD_MUN</displayName>
</SimpleField>
<SimpleField type="xsd:string" name="NM_MUN">
<displayName>NM_MUN</displayName>
</SimpleField>
<SimpleField type="xsd:string" name="CD_RGINT">
<displayName>CD_RGINT</displayName>
</SimpleField>
<SimpleField type="xsd:string" name="NM_RGINT">
<displayName>NM_RGINT</displayName>
</SimpleField>
<SimpleField type="xsd:string" name="CD_RGI">
<displayName>CD_RGI</displayName>
</SimpleField>
<SimpleField type="xsd:string" name="NM_RGI">
<displayName>NM_RGI</displayName>
</SimpleField>
<SimpleField type="xsd:string" name="CT_LOCALIDADE">
<displayName>CT_LOCALIDADE</displayName>
</SimpleField>
<SimpleField type="xsd:string" name="CD_LOCALIDADE">
<displayName>CD_LOCALIDADE</displayName>
</SimpleField>
<SimpleField type="xsd:string" name="NM_LOCALIDADE">
<displayName>NM_LOCALIDADE</displayName>
</SimpleField>
<SimpleField type="xsd:string" name="LAT_LOCALIDADE">
<displayName>LAT_LOCALIDADE</displayName>
</SimpleField>
<SimpleField type="xsd:string" name="LONG_LOCALIDADE">
<displayName>LONG_LOCALIDADE</displayName>
</SimpleField>
</Schema>
<Schema name="Vilas" id="kml_schema_ft_Vilas">
<SimpleField type="xsd:string" name="CD_UF">
<displayName>CD_UF</displayName>
</SimpleField>
<SimpleField type="xsd:string" name="NM_UF">
<displayName>NM_UF</displayName>
</SimpleField>
<SimpleField type="xsd:string" name="SIGLA_UF">
<displayName>SIGLA_UF</displayName>
</SimpleField>
<SimpleField type="xsd:string" name="CD_MUN">
<displayName>CD_MUN</displayName>
</SimpleField>
<SimpleField type="xsd:string" name="NM_MUN">
<displayName>NM_MUN</displayName>
</SimpleField>
<SimpleField type="xsd:string" name="CD_RGINT">
<displayName>CD_RGINT</displayName>
</SimpleField>
<SimpleField type="xsd:string" name="NM_RGINT">
<displayName>NM_RGINT</displayName>
</SimpleField>
<SimpleField type="xsd:string" name="CD_RGI">
<displayName>CD_RGI</displayName>
</SimpleField>
<SimpleField type="xsd:string" name="NM_RGI">
<displayName>NM_RGI</displayName>
</SimpleField>
<SimpleField type="xsd:string" name="CT_LOCALIDADE">
<displayName>CT_LOCALIDADE</displayName>
</SimpleField>
<SimpleField type="xsd:string" name="CD_LOCALIDADE">
<displayName>CD_LOCALIDADE</displayName>
</SimpleField>
<SimpleField type="xsd:string" name="NM_LOCALIDADE">
<displayName>NM_LOCALIDADE</displayName>
</SimpleField>
<SimpleField type="xsd:string" name="LAT_LOCALIDADE">
<displayName>LAT_LOCALIDADE</displayName>
</SimpleField>
<SimpleField type="xsd:string" name="LONG_LOCALIDADE">
<displayName>LONG_LOCALIDADE</displayName>
</SimpleField>
</Schema>
<Schema name="01. Cidade" id="kml_schema_ft_01._Cidade">
<SimpleField type="xsd:string" name="CD_UF">
<displayName>CD_UF</displayName>
</SimpleField>
<SimpleField type="xsd:string" name="NM_UF">
<displayName>NM_UF</displayName>
</SimpleField>
<SimpleField type="xsd:string" name="SIGLA_UF">
<displayName>SIGLA_UF</displayName>
</SimpleField>
<SimpleField type="xsd:string" name="CD_MUN">
<displayName>CD_MUN</displayName>
</SimpleField>
<SimpleField type="xsd:string" name="NM_MUN">
<displayName>NM_MUN</displayName>
</SimpleField>
<SimpleField type="xsd:string" name="CD_RGINT">
<displayName>CD_RGINT</displayName>
</SimpleField>
<SimpleField type="xsd:string" name="NM_RGINT">
<displayName>NM_RGINT</displayName>
</SimpleField>
<SimpleField type="xsd:string" name="CD_RGI">
<displayName>CD_RGI</displayName>
</SimpleField>
<SimpleField type="xsd:string" name="NM_RGI">
<displayName>NM_RGI</displayName>
</SimpleField>
<SimpleField type="xsd:string" name="CT_LOCALIDADE">
<displayName>CT_LOCALIDADE</displayName>
</SimpleField>
<SimpleField type="xsd:string" name="SCT_LOCALIDADE">
<displayName>SCT_LOCALIDADE</displayName>
</SimpleField>
<SimpleField type="xsd:string" name="CD_LOCALIDADE">
<displayName>CD_LOCALIDADE</displayName>
</SimpleField>
<SimpleField type="xsd:string" name="NM_LOCALIDADE">
<displayName>NM_LOCALIDADE</displayName>
</SimpleField>
<SimpleField type="xsd:string" name="LAT_LOCALIDADE">
<displayName>LAT_LOCALIDADE</displayName>
</SimpleField>
<SimpleField type="xsd:string" name="LONG_LOCALIDADE">
<displayName>LONG_LOCALIDADE</displayName>
</SimpleField>
</Schema>
<Schema name="Município" id="kml_schema_ft_Município">
<SimpleField type="xsd:string" name="CD_UF">
<displayName>CD_UF</displayName>
</SimpleField>
<SimpleField type="xsd:string" name="NM_UF">
<displayName>NM_UF</displayName>
</SimpleField>
<SimpleField type="xsd:string" name="CD_MUN">
<displayName>CD_MUN</displayName>
</SimpleField>
<SimpleField type="xsd:string" name="NM_MUN">
<displayName>NM_MUN</displayName>
</SimpleField>
<SimpleField type="xsd:string" name="CD_RGINT">
<displayName>CD_RGINT</displayName>
</SimpleField>
<SimpleField type="xsd:string" name="NM_RGINT">
<displayName>NM_RGINT</displayName>
</SimpleField>
<SimpleField type="xsd:string" name="CD_RGI">
<displayName>CD_RGI</displayName>
</SimpleField>
<SimpleField type="xsd:string" name="NM_RGI">
<displayName>NM_RGI</displayName>
</SimpleField>
</Schema>
<Folder id="01. Cidade">
<name>01. Cidade</name>
<Folder id="01.03. Sede Municipal">
<name>01.03. Sede Municipal</name>
<Placemark id="01.03. Sede Municipal">
<name>Rurópolis [1506195]</name>
<visibility>1</visibility>
<snippet> </snippet>
<description>&lt;center&gt;&lt;table&gt;&lt;tr&gt;&lt;th colspan='2' align='center'&gt;&lt;em&gt;Atributos&lt;/em&gt;&lt;/th&gt;&lt;/tr&gt;&lt;tr bgcolor="#E3E3F3"&gt;
&lt;th&gt;CD_UF&lt;/th&gt;
&lt;td&gt;15&lt;/td&gt;
&lt;/tr&gt;&lt;tr bgcolor=""&gt;
&lt;th&gt;NM_UF&lt;/th&gt;
&lt;td&gt;Pará&lt;/td&gt;
&lt;/tr&gt;&lt;tr bgcolor="#E3E3F3"&gt;
&lt;th&gt;SIGLA_UF&lt;/th&gt;
&lt;td&gt;PA&lt;/td&gt;
&lt;/tr&gt;&lt;tr bgcolor=""&gt;
&lt;th&gt;CD_MUN&lt;/th&gt;
&lt;td&gt;1506195&lt;/td&gt;
&lt;/tr&gt;&lt;tr bgcolor="#E3E3F3"&gt;
&lt;th&gt;NM_MUN&lt;/th&gt;
&lt;td&gt;Rurópolis&lt;/td&gt;
&lt;/tr&gt;&lt;tr bgcolor=""&gt;
&lt;th&gt;CD_RGINT&lt;/th&gt;
&lt;td&gt;1505&lt;/td&gt;
&lt;/tr&gt;&lt;tr bgcolor="#E3E3F3"&gt;
&lt;th&gt;NM_RGINT&lt;/th&gt;
&lt;td&gt;Santarém&lt;/td&gt;
&lt;/tr&gt;&lt;tr bgcolor=""&gt;
&lt;th&gt;CD_RGI&lt;/th&gt;
&lt;td&gt;150016&lt;/td&gt;
&lt;/tr&gt;&lt;tr bgcolor="#E3E3F3"&gt;
&lt;th&gt;NM_RGI&lt;/th&gt;
&lt;td&gt;Itaituba&lt;/td&gt;
&lt;/tr&gt;&lt;tr bgcolor=""&gt;
&lt;th&gt;CT_LOCALIDADE&lt;/th&gt;
&lt;td&gt;Cidade&lt;/td&gt;
&lt;/tr&gt;&lt;tr bgcolor="#E3E3F3"&gt;
&lt;th&gt;SCT_LOCALIDADE&lt;/th&gt;
&lt;td&gt;Sede Municipal&lt;/td&gt;
&lt;/tr&gt;&lt;tr bgcolor=""&gt;
&lt;th&gt;CD_LOCALIDADE&lt;/th&gt;
&lt;td&gt;1506195&lt;/td&gt;
&lt;/tr&gt;&lt;tr bgcolor="#E3E3F3"&gt;
&lt;th&gt;NM_LOCALIDADE&lt;/th&gt;
&lt;td&gt;Rurópolis&lt;/td&gt;
&lt;/tr&gt;&lt;tr bgcolor=""&gt;
&lt;th&gt;LAT_LOCALIDADE&lt;/th&gt;
&lt;td&gt;-4.0973&lt;/td&gt;
&lt;/tr&gt;&lt;tr bgcolor="#E3E3F3"&gt;
&lt;th&gt;LONG_LOCALIDADE&lt;/th&gt;
&lt;td&gt;-54.9079&lt;/td&gt;
&lt;/tr&gt;&lt;/table&gt;&lt;/center&gt;</description>
<Style>
<IconStyle>
<color>ff00aaff</color>
<scale>1.0</scale>
<Icon>
<href>http://maps.google.com/mapfiles/kml/shapes/placemark_circle.png</href>
</Icon>
</IconStyle>
<LabelStyle>
<scale>1.0</scale>
</LabelStyle>
<LineStyle>
<color>ffffffff</color>
<width>3</width>
<gx:labelVisibility>1</gx:labelVisibility>
</LineStyle>
<PolyStyle>
<color>00ffffff</color>
</PolyStyle>
</Style>
<ExtendedData>
<SchemaData schemaUrl="#kml_schema_ft_01._Cidade">
<SimpleData name="CD_UF">15</SimpleData>
<SimpleData name="NM_UF">Pará</SimpleData>
<SimpleData name="SIGLA_UF">PA</SimpleData>
<SimpleData name="CD_MUN">1506195</SimpleData>
<SimpleData name="NM_MUN">Rurópolis</SimpleData>
<SimpleData name="CD_RGINT">1505</SimpleData>
<SimpleData name="NM_RGINT">Santarém</SimpleData>
<SimpleData name="CD_RGI">150016</SimpleData>
<SimpleData name="NM_RGI">Itaituba</SimpleData>
<SimpleData name="CT_LOCALIDADE">Cidade</SimpleData>
<SimpleData name="SCT_LOCALIDADE">Sede Municipal</SimpleData>
<SimpleData name="CD_LOCALIDADE">1506195</SimpleData>
<SimpleData name="NM_LOCALIDADE">Rurópolis</SimpleData>
<SimpleData name="LAT_LOCALIDADE">-4.0973</SimpleData>
<SimpleData name="LONG_LOCALIDADE">-54.9079</SimpleData>
</SchemaData>
</ExtendedData>
<Point>
<extrude>0</extrude>
<coordinates>-54.907852,-4.09734299986496,0.0</coordinates>
</Point>
</Placemark>
</Folder>
</Folder>
<Folder id="04. Vilas">
<name>04. Vilas</name>
<Placemark id="04. Vilas">
<name>Divinópolis [150619515]</name>
<visibility>1</visibility>
<snippet> </snippet>
<description>&lt;center&gt;&lt;table&gt;&lt;tr&gt;&lt;th colspan='2' align='center'&gt;&lt;em&gt;Atributos&lt;/em&gt;&lt;/th&gt;&lt;/tr&gt;&lt;tr bgcolor="#E3E3F3"&gt;
&lt;th&gt;CD_UF&lt;/th&gt;
&lt;td&gt;15&lt;/td&gt;
&lt;/tr&gt;&lt;tr bgcolor=""&gt;
&lt;th&gt;NM_UF&lt;/th&gt;
&lt;td&gt;Pará&lt;/td&gt;
&lt;/tr&gt;&lt;tr bgcolor="#E3E3F3"&gt;
&lt;th&gt;SIGLA_UF&lt;/th&gt;
&lt;td&gt;PA&lt;/td&gt;
&lt;/tr&gt;&lt;tr bgcolor=""&gt;
&lt;th&gt;CD_MUN&lt;/th&gt;
&lt;td&gt;1506195&lt;/td&gt;
&lt;/tr&gt;&lt;tr bgcolor="#E3E3F3"&gt;
&lt;th&gt;NM_MUN&lt;/th&gt;
&lt;td&gt;Rurópolis&lt;/td&gt;
&lt;/tr&gt;&lt;tr bgcolor=""&gt;
&lt;th&gt;CD_RGINT&lt;/th&gt;
&lt;td&gt;1505&lt;/td&gt;
&lt;/tr&gt;&lt;tr bgcolor="#E3E3F3"&gt;
&lt;th&gt;NM_RGINT&lt;/th&gt;
&lt;td&gt;Santarém&lt;/td&gt;
&lt;/tr&gt;&lt;tr bgcolor=""&gt;
&lt;th&gt;CD_RGI&lt;/th&gt;
&lt;td&gt;150016&lt;/td&gt;
&lt;/tr&gt;&lt;tr bgcolor="#E3E3F3"&gt;
&lt;th&gt;NM_RGI&lt;/th&gt;
&lt;td&gt;Itaituba&lt;/td&gt;
&lt;/tr&gt;&lt;tr bgcolor=""&gt;
&lt;th&gt;CT_LOCALIDADE&lt;/th&gt;
&lt;td&gt;Vila&lt;/td&gt;
&lt;/tr&gt;&lt;tr bgcolor="#E3E3F3"&gt;
&lt;th&gt;CD_LOCALIDADE&lt;/th&gt;
&lt;td&gt;150619515&lt;/td&gt;
&lt;/tr&gt;&lt;tr bgcolor=""&gt;
&lt;th&gt;NM_LOCALIDADE&lt;/th&gt;
&lt;td&gt;Divinópolis&lt;/td&gt;
&lt;/tr&gt;&lt;tr bgcolor="#E3E3F3"&gt;
&lt;th&gt;LAT_LOCALIDADE&lt;/th&gt;
&lt;td&gt;-4.1948&lt;/td&gt;
&lt;/tr&gt;&lt;tr bgcolor=""&gt;
&lt;th&gt;LONG_LOCALIDADE&lt;/th&gt;
&lt;td&gt;-55.4894&lt;/td&gt;
&lt;/tr&gt;&lt;/table&gt;&lt;/center&gt;</description>
<Style>
<IconStyle>
<color>ffff5400</color>
<scale>1.0</scale>
<Icon>
<href>http://maps.google.com/mapfiles/kml/shapes/placemark_circle.png</href>
</Icon>
</IconStyle>
<LabelStyle>
<scale>0.9</scale>
</LabelStyle>
<LineStyle>
<color>72ffffff</color>
<width>1.0</width>
<gx:labelVisibility>1</gx:labelVisibility>
</LineStyle>
<PolyStyle>
<color>660054ff</color>
</PolyStyle>
</Style>
<ExtendedData>
<SchemaData schemaUrl="#kml_schema_ft_Vilas">
<SimpleData name="CD_UF">15</SimpleData>
<SimpleData name="NM_UF">Pará</SimpleData>
<SimpleData name="SIGLA_UF">PA</SimpleData>
<SimpleData name="CD_MUN">1506195</SimpleData>
<SimpleData name="NM_MUN">Rurópolis</SimpleData>
<SimpleData name="CD_RGINT">1505</SimpleData>
<SimpleData name="NM_RGINT">Santarém</SimpleData>
<SimpleData name="CD_RGI">150016</SimpleData>
<SimpleData name="NM_RGI">Itaituba</SimpleData>
<SimpleData name="CT_LOCALIDADE">Vila</SimpleData>
<SimpleData name="CD_LOCALIDADE">150619515</SimpleData>
<SimpleData name="NM_LOCALIDADE">Divinópolis</SimpleData>
<SimpleData name="LAT_LOCALIDADE">-4.1948</SimpleData>
<SimpleData name="LONG_LOCALIDADE">-55.4894</SimpleData>
</SchemaData>
</ExtendedData>
<Point>
<extrude>0</extrude>
<coordinates>-55.489393,-4.19484199986177,0.0</coordinates>
</Point>
</Placemark>
</Folder>
<Folder id="06. Povoados">
<name>06. Povoados</name>
<Placemark id="06. Povoados">
<name>São José [150619500002]</name>
<visibility>1</visibility>
<snippet> </snippet>
<description>&lt;center&gt;&lt;table&gt;&lt;tr&gt;&lt;th colspan='2' align='center'&gt;&lt;em&gt;Atributos&lt;/em&gt;&lt;/th&gt;&lt;/tr&gt;&lt;tr bgcolor="#E3E3F3"&gt;
&lt;th&gt;CD_UF&lt;/th&gt;
&lt;td&gt;15&lt;/td&gt;
&lt;/tr&gt;&lt;tr bgcolor=""&gt;
&lt;th&gt;NM_UF&lt;/th&gt;
&lt;td&gt;Pará&lt;/td&gt;
&lt;/tr&gt;&lt;tr bgcolor="#E3E3F3"&gt;
&lt;th&gt;SIGLA_UF&lt;/th&gt;
&lt;td&gt;PA&lt;/td&gt;
&lt;/tr&gt;&lt;tr bgcolor=""&gt;
&lt;th&gt;CD_MUN&lt;/th&gt;
&lt;td&gt;1506195&lt;/td&gt;
&lt;/tr&gt;&lt;tr bgcolor="#E3E3F3"&gt;
&lt;th&gt;NM_MUN&lt;/th&gt;
&lt;td&gt;Rurópolis&lt;/td&gt;
&lt;/tr&gt;&lt;tr bgcolor=""&gt;
&lt;th&gt;CD_RGINT&lt;/th&gt;
&lt;td&gt;1505&lt;/td&gt;
&lt;/tr&gt;&lt;tr bgcolor="#E3E3F3"&gt;
&lt;th&gt;NM_RGINT&lt;/th&gt;
&lt;td&gt;Santarém&lt;/td&gt;
&lt;/tr&gt;&lt;tr bgcolor=""&gt;
&lt;th&gt;CD_RGI&lt;/th&gt;
&lt;td&gt;150016&lt;/td&gt;
&lt;/tr&gt;&lt;tr bgcolor="#E3E3F3"&gt;
&lt;th&gt;NM_RGI&lt;/th&gt;
&lt;td&gt;Itaituba&lt;/td&gt;
&lt;/tr&gt;&lt;tr bgcolor=""&gt;
&lt;th&gt;CT_LOCALIDADE&lt;/th&gt;
&lt;td&gt;Povoado&lt;/td&gt;
&lt;/tr&gt;&lt;tr bgcolor="#E3E3F3"&gt;
&lt;th&gt;CD_LOCALIDADE&lt;/th&gt;
&lt;td&gt;150619500002&lt;/td&gt;
&lt;/tr&gt;&lt;tr bgcolor=""&gt;
&lt;th&gt;NM_LOCALIDADE&lt;/th&gt;
&lt;td&gt;São José&lt;/td&gt;
&lt;/tr&gt;&lt;tr bgcolor="#E3E3F3"&gt;
&lt;th&gt;LAT_LOCALIDADE&lt;/th&gt;
&lt;td&gt;-4.1787&lt;/td&gt;
&lt;/tr&gt;&lt;tr bgcolor=""&gt;
&lt;th&gt;LONG_LOCALIDADE&lt;/th&gt;
&lt;td&gt;-55.4329&lt;/td&gt;
&lt;/tr&gt;&lt;/table&gt;&lt;/center&gt;</description>
<Style>
<IconStyle>
<color>ff00ff54</color>
<scale>0.8</scale>
<Icon>
<href>http://maps.google.com/mapfiles/kml/shapes/placemark_circle.png</href>
</Icon>
</IconStyle>
<LabelStyle>
<scale>0.8</scale>
</LabelStyle>
<LineStyle>
<color>72ff54ff</color>
<width>1.0</width>
<gx:labelVisibility>1</gx:labelVisibility>
</LineStyle>
<PolyStyle>
<color>66ff54ff</color>
</PolyStyle>
</Style>
<ExtendedData>
<SchemaData schemaUrl="#kml_schema_ft_Povoados">
<SimpleData name="CD_UF">15</SimpleData>
<SimpleData name="NM_UF">Pará</SimpleData>
<SimpleData name="SIGLA_UF">PA</SimpleData>
<SimpleData name="CD_MUN">1506195</SimpleData>
<SimpleData name="NM_MUN">Rurópolis</SimpleData>
<SimpleData name="CD_RGINT">1505</SimpleData>
<SimpleData name="NM_RGINT">Santarém</SimpleData>
<SimpleData name="CD_RGI">150016</SimpleData>
<SimpleData name="NM_RGI">Itaituba</SimpleData>
<SimpleData name="CT_LOCALIDADE">Povoado</SimpleData>
<SimpleData name="CD_LOCALIDADE">150619500002</SimpleData>
<SimpleData name="NM_LOCALIDADE">São José</SimpleData>
<SimpleData name="LAT_LOCALIDADE">-4.1787</SimpleData>
<SimpleData name="LONG_LOCALIDADE">-55.4329</SimpleData>
</SchemaData>
</ExtendedData>
<Point>
<extrude>0</extrude>
<coordinates>-55.4328994059405,-4.1787080939217,0.0</coordinates>
</Point>
</Placemark>
<Placemark id="06. Povoados">
<name>Água Azul [150619500003]</name>
<visibility>1</visibility>
<snippet> </snippet>
<description>&lt;center&gt;&lt;table&gt;&lt;tr&gt;&lt;th colspan='2' align='center'&gt;&lt;em&gt;Atributos&lt;/em&gt;&lt;/th&gt;&lt;/tr&gt;&lt;tr bgcolor="#E3E3F3"&gt;
&lt;th&gt;CD_UF&lt;/th&gt;
&lt;td&gt;15&lt;/td&gt;
&lt;/tr&gt;&lt;tr bgcolor=""&gt;
&lt;th&gt;NM_UF&lt;/th&gt;
&lt;td&gt;Pará&lt;/td&gt;
&lt;/tr&gt;&lt;tr bgcolor="#E3E3F3"&gt;
&lt;th&gt;SIGLA_UF&lt;/th&gt;
&lt;td&gt;PA&lt;/td&gt;
&lt;/tr&gt;&lt;tr bgcolor=""&gt;
&lt;th&gt;CD_MUN&lt;/th&gt;
&lt;td&gt;1506195&lt;/td&gt;
&lt;/tr&gt;&lt;tr bgcolor="#E3E3F3"&gt;
&lt;th&gt;NM_MUN&lt;/th&gt;
&lt;td&gt;Rurópolis&lt;/td&gt;
&lt;/tr&gt;&lt;tr bgcolor=""&gt;
&lt;th&gt;CD_RGINT&lt;/th&gt;
&lt;td&gt;1505&lt;/td&gt;
&lt;/tr&gt;&lt;tr bgcolor="#E3E3F3"&gt;
&lt;th&gt;NM_RGINT&lt;/th&gt;
&lt;td&gt;Santarém&lt;/td&gt;
&lt;/tr&gt;&lt;tr bgcolor=""&gt;
&lt;th&gt;CD_RGI&lt;/th&gt;
&lt;td&gt;150016&lt;/td&gt;
&lt;/tr&gt;&lt;tr bgcolor="#E3E3F3"&gt;
&lt;th&gt;NM_RGI&lt;/th&gt;
&lt;td&gt;Itaituba&lt;/td&gt;
&lt;/tr&gt;&lt;tr bgcolor=""&gt;
&lt;th&gt;CT_LOCALIDADE&lt;/th&gt;
&lt;td&gt;Povoado&lt;/td&gt;
&lt;/tr&gt;&lt;tr bgcolor="#E3E3F3"&gt;
&lt;th&gt;CD_LOCALIDADE&lt;/th&gt;
&lt;td&gt;150619500003&lt;/td&gt;
&lt;/tr&gt;&lt;tr bgcolor=""&gt;
&lt;th&gt;NM_LOCALIDADE&lt;/th&gt;
&lt;td&gt;Água Azul&lt;/td&gt;
&lt;/tr&gt;&lt;tr bgcolor="#E3E3F3"&gt;
&lt;th&gt;LAT_LOCALIDADE&lt;/th&gt;
&lt;td&gt;-4.1707&lt;/td&gt;
&lt;/tr&gt;&lt;tr bgcolor=""&gt;
&lt;th&gt;LONG_LOCALIDADE&lt;/th&gt;
&lt;td&gt;-55.3531&lt;/td&gt;
&lt;/tr&gt;&lt;/table&gt;&lt;/center&gt;</description>
<Style>
<IconStyle>
<color>ff00ff54</color>
<scale>0.8</scale>
<Icon>
<href>http://maps.google.com/mapfiles/kml/shapes/placemark_circle.png</href>
</Icon>
</IconStyle>
<LabelStyle>
<scale>0.8</scale>
</LabelStyle>
<LineStyle>
<color>72ff54ff</color>
<width>1.0</width>
<gx:labelVisibility>1</gx:labelVisibility>
</LineStyle>
<PolyStyle>
<color>66ff54ff</color>
</PolyStyle>
</Style>
<ExtendedData>
<SchemaData schemaUrl="#kml_schema_ft_Povoados">
<SimpleData name="CD_UF">15</SimpleData>
<SimpleData name="NM_UF">Pará</SimpleData>
<SimpleData name="SIGLA_UF">PA</SimpleData>
<SimpleData name="CD_MUN">1506195</SimpleData>
<SimpleData name="NM_MUN">Rurópolis</SimpleData>
<SimpleData name="CD_RGINT">1505</SimpleData>
<SimpleData name="NM_RGINT">Santarém</SimpleData>
<SimpleData name="CD_RGI">150016</SimpleData>
<SimpleData name="NM_RGI">Itaituba</SimpleData>
<SimpleData name="CT_LOCALIDADE">Povoado</SimpleData>
<SimpleData name="CD_LOCALIDADE">150619500003</SimpleData>
<SimpleData name="NM_LOCALIDADE">Água Azul</SimpleData>
<SimpleData name="LAT_LOCALIDADE">-4.1707</SimpleData>
<SimpleData name="LONG_LOCALIDADE">-55.3531</SimpleData>
</SchemaData>
</ExtendedData>
<Point>
<extrude>0</extrude>
<coordinates>-55.3530748129176,-4.17067367246835,0.0</coordinates>
</Point>
</Placemark>
<Placemark id="06. Povoados">
<name>Nossa Senhora Aparecida [150619500005]</name>
<visibility>1</visibility>
<snippet> </snippet>
<description>&lt;center&gt;&lt;table&gt;&lt;tr&gt;&lt;th colspan='2' align='center'&gt;&lt;em&gt;Atributos&lt;/em&gt;&lt;/th&gt;&lt;/tr&gt;&lt;tr bgcolor="#E3E3F3"&gt;
&lt;th&gt;CD_UF&lt;/th&gt;
&lt;td&gt;15&lt;/td&gt;
&lt;/tr&gt;&lt;tr bgcolor=""&gt;
&lt;th&gt;NM_UF&lt;/th&gt;
&lt;td&gt;Pará&lt;/td&gt;
&lt;/tr&gt;&lt;tr bgcolor="#E3E3F3"&gt;
&lt;th&gt;SIGLA_UF&lt;/th&gt;
&lt;td&gt;PA&lt;/td&gt;
&lt;/tr&gt;&lt;tr bgcolor=""&gt;
&lt;th&gt;CD_MUN&lt;/th&gt;
&lt;td&gt;1506195&lt;/td&gt;
&lt;/tr&gt;&lt;tr bgcolor="#E3E3F3"&gt;
&lt;th&gt;NM_MUN&lt;/th&gt;
&lt;td&gt;Rurópolis&lt;/td&gt;
&lt;/tr&gt;&lt;tr bgcolor=""&gt;
&lt;th&gt;CD_RGINT&lt;/th&gt;
&lt;td&gt;1505&lt;/td&gt;
&lt;/tr&gt;&lt;tr bgcolor="#E3E3F3"&gt;
&lt;th&gt;NM_RGINT&lt;/th&gt;
&lt;td&gt;Santarém&lt;/td&gt;
&lt;/tr&gt;&lt;tr bgcolor=""&gt;
&lt;th&gt;CD_RGI&lt;/th&gt;
&lt;td&gt;150016&lt;/td&gt;
&lt;/tr&gt;&lt;tr bgcolor="#E3E3F3"&gt;
&lt;th&gt;NM_RGI&lt;/th&gt;
&lt;td&gt;Itaituba&lt;/td&gt;
&lt;/tr&gt;&lt;tr bgcolor=""&gt;
&lt;th&gt;CT_LOCALIDADE&lt;/th&gt;
&lt;td&gt;Povoado&lt;/td&gt;
&lt;/tr&gt;&lt;tr bgcolor="#E3E3F3"&gt;
&lt;th&gt;CD_LOCALIDADE&lt;/th&gt;
&lt;td&gt;150619500005&lt;/td&gt;
&lt;/tr&gt;&lt;tr bgcolor=""&gt;
&lt;th&gt;NM_LOCALIDADE&lt;/th&gt;
&lt;td&gt;Nossa Senhora Aparecida&lt;/td&gt;
&lt;/tr&gt;&lt;tr bgcolor="#E3E3F3"&gt;
&lt;th&gt;LAT_LOCALIDADE&lt;/th&gt;
&lt;td&gt;-4.2743&lt;/td&gt;
&lt;/tr&gt;&lt;tr bgcolor=""&gt;
&lt;th&gt;LONG_LOCALIDADE&lt;/th&gt;
&lt;td&gt;-55.6106&lt;/td&gt;
&lt;/tr&gt;&lt;/table&gt;&lt;/center&gt;</description>
<Style>
<IconStyle>
<color>ff00ff54</color>
<scale>0.8</scale>
<Icon>
<href>http://maps.google.com/mapfiles/kml/shapes/placemark_circle.png</href>
</Icon>
</IconStyle>
<LabelStyle>
<scale>0.8</scale>
</LabelStyle>
<LineStyle>
<color>72ff54ff</color>
<width>1.0</width>
<gx:labelVisibility>1</gx:labelVisibility>
</LineStyle>
<PolyStyle>
<color>66ff54ff</color>
</PolyStyle>
</Style>
<ExtendedData>
<SchemaData schemaUrl="#kml_schema_ft_Povoados">
<SimpleData name="CD_UF">15</SimpleData>
<SimpleData name="NM_UF">Pará</SimpleData>
<SimpleData name="SIGLA_UF">PA</SimpleData>
<SimpleData name="CD_MUN">1506195</SimpleData>
<SimpleData name="NM_MUN">Rurópolis</SimpleData>
<SimpleData name="CD_RGINT">1505</SimpleData>
<SimpleData name="NM_RGINT">Santarém</SimpleData>
<SimpleData name="CD_RGI">150016</SimpleData>
<SimpleData name="NM_RGI">Itaituba</SimpleData>
<SimpleData name="CT_LOCALIDADE">Povoado</SimpleData>
<SimpleData name="CD_LOCALIDADE">150619500005</SimpleData>
<SimpleData name="NM_LOCALIDADE">Nossa Senhora Aparecida</SimpleData>
<SimpleData name="LAT_LOCALIDADE">-4.2743</SimpleData>
<SimpleData name="LONG_LOCALIDADE">-55.6106</SimpleData>
</SchemaData>
</ExtendedData>
<Point>
<extrude>0</extrude>
<coordinates>-55.6105824714285,-4.27434159985916,0.0</coordinates>
</Point>
</Placemark>
<Placemark id="06. Povoados">
<name>Agrovila do PA São João Batista [150619500006]</name>
<visibility>1</visibility>
<snippet> </snippet>
<description>&lt;center&gt;&lt;table&gt;&lt;tr&gt;&lt;th colspan='2' align='center'&gt;&lt;em&gt;Atributos&lt;/em&gt;&lt;/th&gt;&lt;/tr&gt;&lt;tr bgcolor="#E3E3F3"&gt;
&lt;th&gt;CD_UF&lt;/th&gt;
&lt;td&gt;15&lt;/td&gt;
&lt;/tr&gt;&lt;tr bgcolor=""&gt;
&lt;th&gt;NM_UF&lt;/th&gt;
&lt;td&gt;Pará&lt;/td&gt;
&lt;/tr&gt;&lt;tr bgcolor="#E3E3F3"&gt;
&lt;th&gt;SIGLA_UF&lt;/th&gt;
&lt;td&gt;PA&lt;/td&gt;
&lt;/tr&gt;&lt;tr bgcolor=""&gt;
&lt;th&gt;CD_MUN&lt;/th&gt;
&lt;td&gt;1506195&lt;/td&gt;
&lt;/tr&gt;&lt;tr bgcolor="#E3E3F3"&gt;
&lt;th&gt;NM_MUN&lt;/th&gt;
&lt;td&gt;Rurópolis&lt;/td&gt;
&lt;/tr&gt;&lt;tr bgcolor=""&gt;
&lt;th&gt;CD_RGINT&lt;/th&gt;
&lt;td&gt;1505&lt;/td&gt;
&lt;/tr&gt;&lt;tr bgcolor="#E3E3F3"&gt;
&lt;th&gt;NM_RGINT&lt;/th&gt;
&lt;td&gt;Santarém&lt;/td&gt;
&lt;/tr&gt;&lt;tr bgcolor=""&gt;
&lt;th&gt;CD_RGI&lt;/th&gt;
&lt;td&gt;150016&lt;/td&gt;
&lt;/tr&gt;&lt;tr bgcolor="#E3E3F3"&gt;
&lt;th&gt;NM_RGI&lt;/th&gt;
&lt;td&gt;Itaituba&lt;/td&gt;
&lt;/tr&gt;&lt;tr bgcolor=""&gt;
&lt;th&gt;CT_LOCALIDADE&lt;/th&gt;
&lt;td&gt;Povoado&lt;/td&gt;
&lt;/tr&gt;&lt;tr bgcolor="#E3E3F3"&gt;
&lt;th&gt;CD_LOCALIDADE&lt;/th&gt;
&lt;td&gt;150619500006&lt;/td&gt;
&lt;/tr&gt;&lt;tr bgcolor=""&gt;
&lt;th&gt;NM_LOCALIDADE&lt;/th&gt;
&lt;td&gt;Agrovila do PA São João Batista&lt;/td&gt;
&lt;/tr&gt;&lt;tr bgcolor="#E3E3F3"&gt;
&lt;th&gt;LAT_LOCALIDADE&lt;/th&gt;
&lt;td&gt;-4.1101&lt;/td&gt;
&lt;/tr&gt;&lt;tr bgcolor=""&gt;
&lt;th&gt;LONG_LOCALIDADE&lt;/th&gt;
&lt;td&gt;-55.1569&lt;/td&gt;
&lt;/tr&gt;&lt;/table&gt;&lt;/center&gt;</description>
<Style>
<IconStyle>
<color>ff00ff54</color>
<scale>0.8</scale>
<Icon>
<href>http://maps.google.com/mapfiles/kml/shapes/placemark_circle.png</href>
</Icon>
</IconStyle>
<LabelStyle>
<scale>0.8</scale>
</LabelStyle>
<LineStyle>
<color>72ff54ff</color>
<width>1.0</width>
<gx:labelVisibility>1</gx:labelVisibility>
</LineStyle>
<PolyStyle>
<color>66ff54ff</color>
</PolyStyle>
</Style>
<ExtendedData>
<SchemaData schemaUrl="#kml_schema_ft_Povoados">
<SimpleData name="CD_UF">15</SimpleData>
<SimpleData name="NM_UF">Pará</SimpleData>
<SimpleData name="SIGLA_UF">PA</SimpleData>
<SimpleData name="CD_MUN">1506195</SimpleData>
<SimpleData name="NM_MUN">Rurópolis</SimpleData>
<SimpleData name="CD_RGINT">1505</SimpleData>
<SimpleData name="NM_RGINT">Santarém</SimpleData>
<SimpleData name="CD_RGI">150016</SimpleData>
<SimpleData name="NM_RGI">Itaituba</SimpleData>
<SimpleData name="CT_LOCALIDADE">Povoado</SimpleData>
<SimpleData name="CD_LOCALIDADE">150619500006</SimpleData>
<SimpleData name="NM_LOCALIDADE">Agrovila do PA São João Batista</SimpleData>
<SimpleData name="LAT_LOCALIDADE">-4.1101</SimpleData>
<SimpleData name="LONG_LOCALIDADE">-55.1569</SimpleData>
</SchemaData>
</ExtendedData>
<Point>
<extrude>0</extrude>
<coordinates>-55.1568757532467,-4.1100743505139,0.0</coordinates>
</Point>
</Placemark>
<Placemark id="06. Povoados">
<name>Vila Piçarreira [150619500028]</name>
<visibility>1</visibility>
<snippet> </snippet>
<description>&lt;center&gt;&lt;table&gt;&lt;tr&gt;&lt;th colspan='2' align='center'&gt;&lt;em&gt;Atributos&lt;/em&gt;&lt;/th&gt;&lt;/tr&gt;&lt;tr bgcolor="#E3E3F3"&gt;
&lt;th&gt;CD_UF&lt;/th&gt;
&lt;td&gt;15&lt;/td&gt;
&lt;/tr&gt;&lt;tr bgcolor=""&gt;
&lt;th&gt;NM_UF&lt;/th&gt;
&lt;td&gt;Pará&lt;/td&gt;
&lt;/tr&gt;&lt;tr bgcolor="#E3E3F3"&gt;
&lt;th&gt;SIGLA_UF&lt;/th&gt;
&lt;td&gt;PA&lt;/td&gt;
&lt;/tr&gt;&lt;tr bgcolor=""&gt;
&lt;th&gt;CD_MUN&lt;/th&gt;
&lt;td&gt;1506195&lt;/td&gt;
&lt;/tr&gt;&lt;tr bgcolor="#E3E3F3"&gt;
&lt;th&gt;NM_MUN&lt;/th&gt;
&lt;td&gt;Rurópolis&lt;/td&gt;
&lt;/tr&gt;&lt;tr bgcolor=""&gt;
&lt;th&gt;CD_RGINT&lt;/th&gt;
&lt;td&gt;1505&lt;/td&gt;
&lt;/tr&gt;&lt;tr bgcolor="#E3E3F3"&gt;
&lt;th&gt;NM_RGINT&lt;/th&gt;
&lt;td&gt;Santarém&lt;/td&gt;
&lt;/tr&gt;&lt;tr bgcolor=""&gt;
&lt;th&gt;CD_RGI&lt;/th&gt;
&lt;td&gt;150016&lt;/td&gt;
&lt;/tr&gt;&lt;tr bgcolor="#E3E3F3"&gt;
&lt;th&gt;NM_RGI&lt;/th&gt;
&lt;td&gt;Itaituba&lt;/td&gt;
&lt;/tr&gt;&lt;tr bgcolor=""&gt;
&lt;th&gt;CT_LOCALIDADE&lt;/th&gt;
&lt;td&gt;Povoado&lt;/td&gt;
&lt;/tr&gt;&lt;tr bgcolor="#E3E3F3"&gt;
&lt;th&gt;CD_LOCALIDADE&lt;/th&gt;
&lt;td&gt;150619500028&lt;/td&gt;
&lt;/tr&gt;&lt;tr bgcolor=""&gt;
&lt;th&gt;NM_LOCALIDADE&lt;/th&gt;
&lt;td&gt;Vila Piçarreira&lt;/td&gt;
&lt;/tr&gt;&lt;tr bgcolor="#E3E3F3"&gt;
&lt;th&gt;LAT_LOCALIDADE&lt;/th&gt;
&lt;td&gt;-3.92&lt;/td&gt;
&lt;/tr&gt;&lt;tr bgcolor=""&gt;
&lt;th&gt;LONG_LOCALIDADE&lt;/th&gt;
&lt;td&gt;-54.824&lt;/td&gt;
&lt;/tr&gt;&lt;/table&gt;&lt;/center&gt;</description>
<Style>
<IconStyle>
<color>ff00ff54</color>
<scale>0.8</scale>
<Icon>
<href>http://maps.google.com/mapfiles/kml/shapes/placemark_circle.png</href>
</Icon>
</IconStyle>
<LabelStyle>
<scale>0.8</scale>
</LabelStyle>
<LineStyle>
<color>72ff54ff</color>
<width>1.0</width>
<gx:labelVisibility>1</gx:labelVisibility>
</LineStyle>
<PolyStyle>
<color>66ff54ff</color>
</PolyStyle>
</Style>
<ExtendedData>
<SchemaData schemaUrl="#kml_schema_ft_Povoados">
<SimpleData name="CD_UF">15</SimpleData>
<SimpleData name="NM_UF">Pará</SimpleData>
<SimpleData name="SIGLA_UF">PA</SimpleData>
<SimpleData name="CD_MUN">1506195</SimpleData>
<SimpleData name="NM_MUN">Rurópolis</SimpleData>
<SimpleData name="CD_RGINT">1505</SimpleData>
<SimpleData name="NM_RGINT">Santarém</SimpleData>
<SimpleData name="CD_RGI">150016</SimpleData>
<SimpleData name="NM_RGI">Itaituba</SimpleData>
<SimpleData name="CT_LOCALIDADE">Povoado</SimpleData>
<SimpleData name="CD_LOCALIDADE">150619500028</SimpleData>
<SimpleData name="NM_LOCALIDADE">Vila Piçarreira</SimpleData>
<SimpleData name="LAT_LOCALIDADE">-3.92</SimpleData>
<SimpleData name="LONG_LOCALIDADE">-54.824</SimpleData>
</SchemaData>
</ExtendedData>
<Point>
<extrude>0</extrude>
<coordinates>-54.8239757745098,-3.92001467634135,0.0</coordinates>
</Point>
</Placemark>
</Folder>
<Folder id="08. Lugarejos">
<name>08. Lugarejos</name>
<Placemark id="localidades">
<name>Vista Alegre [150619500004]</name>
<visibility>1</visibility>
<snippet> </snippet>
<description>&lt;center&gt;&lt;table&gt;&lt;tr&gt;&lt;th colspan='2' align='center'&gt;&lt;em&gt;Attributes&lt;/em&gt;&lt;/th&gt;&lt;/tr&gt;&lt;tr bgcolor="#E3E3F3"&gt;
&lt;th&gt;CD_UF&lt;/th&gt;
&lt;td&gt;15&lt;/td&gt;
&lt;/tr&gt;&lt;tr bgcolor=""&gt;
&lt;th&gt;NM_UF&lt;/th&gt;
&lt;td&gt;Pará&lt;/td&gt;
&lt;/tr&gt;&lt;tr bgcolor="#E3E3F3"&gt;
&lt;th&gt;SIGLA_UF&lt;/th&gt;
&lt;td&gt;PA&lt;/td&gt;
&lt;/tr&gt;&lt;tr bgcolor=""&gt;
&lt;th&gt;CD_MUN&lt;/th&gt;
&lt;td&gt;1506195&lt;/td&gt;
&lt;/tr&gt;&lt;tr bgcolor="#E3E3F3"&gt;
&lt;th&gt;NM_MUN&lt;/th&gt;
&lt;td&gt;Rurópolis&lt;/td&gt;
&lt;/tr&gt;&lt;tr bgcolor=""&gt;
&lt;th&gt;CD_RGINT&lt;/th&gt;
&lt;td&gt;1505&lt;/td&gt;
&lt;/tr&gt;&lt;tr bgcolor="#E3E3F3"&gt;
&lt;th&gt;NM_RGINT&lt;/th&gt;
&lt;td&gt;Santarém&lt;/td&gt;
&lt;/tr&gt;&lt;tr bgcolor=""&gt;
&lt;th&gt;CD_RGI&lt;/th&gt;
&lt;td&gt;150016&lt;/td&gt;
&lt;/tr&gt;&lt;tr bgcolor="#E3E3F3"&gt;
&lt;th&gt;NM_RGI&lt;/th&gt;
&lt;td&gt;Itaituba&lt;/td&gt;
&lt;/tr&gt;&lt;tr bgcolor=""&gt;
&lt;th&gt;CT_LOCALIDADE&lt;/th&gt;
&lt;td&gt;Lugarejo&lt;/td&gt;
&lt;/tr&gt;&lt;tr bgcolor="#E3E3F3"&gt;
&lt;th&gt;CD_LOCALIDADE&lt;/th&gt;
&lt;td&gt;150619500004&lt;/td&gt;
&lt;/tr&gt;&lt;tr bgcolor=""&gt;
&lt;th&gt;NM_LOCALIDADE&lt;/th&gt;
&lt;td&gt;Vista Alegre&lt;/td&gt;
&lt;/tr&gt;&lt;tr bgcolor="#E3E3F3"&gt;
&lt;th&gt;LAT_LOCALIDADE&lt;/th&gt;
&lt;td&gt;-4.2234&lt;/td&gt;
&lt;/tr&gt;&lt;tr bgcolor=""&gt;
&lt;th&gt;LONG_LOCALIDADE&lt;/th&gt;
&lt;td&gt;-55.1146&lt;/td&gt;
&lt;/tr&gt;&lt;/table&gt;&lt;/center&gt;</description>
<Style>
<IconStyle>
<color>ffffff00</color>
<scale>0.8</scale>
<Icon>
<href>http://maps.google.com/mapfiles/kml/shapes/placemark_circle.png</href>
</Icon>
</IconStyle>
<LabelStyle>
<scale>0.8</scale>
</LabelStyle>
<LineStyle>
<color>72ff54ff</color>
<width>1.0</width>
<gx:labelVisibility>1</gx:labelVisibility>
</LineStyle>
<PolyStyle>
<color>66ff54ff</color>
</PolyStyle>
</Style>
<ExtendedData>
<SchemaData schemaUrl="#kml_schema_ft_Lugarejos">
<SimpleData name="CD_UF">15</SimpleData>
<SimpleData name="NM_UF">Pará</SimpleData>
<SimpleData name="SIGLA_UF">PA</SimpleData>
<SimpleData name="CD_MUN">1506195</SimpleData>
<SimpleData name="NM_MUN">Rurópolis</SimpleData>
<SimpleData name="CD_RGINT">1505</SimpleData>
<SimpleData name="NM_RGINT">Santarém</SimpleData>
<SimpleData name="CD_RGI">150016</SimpleData>
<SimpleData name="NM_RGI">Itaituba</SimpleData>
<SimpleData name="CT_LOCALIDADE">Lugarejo</SimpleData>
<SimpleData name="CD_LOCALIDADE">150619500004</SimpleData>
<SimpleData name="NM_LOCALIDADE">Vista Alegre</SimpleData>
<SimpleData name="LAT_LOCALIDADE">-4.2234</SimpleData>
<SimpleData name="LONG_LOCALIDADE">-55.1146</SimpleData>
</SchemaData>
</ExtendedData>
<Point>
<extrude>0</extrude>
<coordinates>-55.1145694067796,-4.22339762697948,0.0</coordinates>
</Point>
</Placemark>
</Folder>
<Folder id="11. Agrovilas do PA">
<name>11. Agrovilas do PA</name>
<Placemark id="localidades">
<name>Agrovila do PA São João Batista [150619500006]</name>
<visibility>1</visibility>
<snippet> </snippet>
<description>&lt;center&gt;&lt;table&gt;&lt;tr&gt;&lt;th colspan='2' align='center'&gt;&lt;em&gt;Attributes&lt;/em&gt;&lt;/th&gt;&lt;/tr&gt;&lt;tr bgcolor="#E3E3F3"&gt;
&lt;th&gt;CD_UF&lt;/th&gt;
&lt;td&gt;15&lt;/td&gt;
&lt;/tr&gt;&lt;tr bgcolor=""&gt;
&lt;th&gt;NM_UF&lt;/th&gt;
&lt;td&gt;Pará&lt;/td&gt;
&lt;/tr&gt;&lt;tr bgcolor="#E3E3F3"&gt;
&lt;th&gt;SIGLA_UF&lt;/th&gt;
&lt;td&gt;PA&lt;/td&gt;
&lt;/tr&gt;&lt;tr bgcolor=""&gt;
&lt;th&gt;CD_MUN&lt;/th&gt;
&lt;td&gt;1506195&lt;/td&gt;
&lt;/tr&gt;&lt;tr bgcolor="#E3E3F3"&gt;
&lt;th&gt;NM_MUN&lt;/th&gt;
&lt;td&gt;Rurópolis&lt;/td&gt;
&lt;/tr&gt;&lt;tr bgcolor=""&gt;
&lt;th&gt;CD_RGINT&lt;/th&gt;
&lt;td&gt;1505&lt;/td&gt;
&lt;/tr&gt;&lt;tr bgcolor="#E3E3F3"&gt;
&lt;th&gt;NM_RGINT&lt;/th&gt;
&lt;td&gt;Santarém&lt;/td&gt;
&lt;/tr&gt;&lt;tr bgcolor=""&gt;
&lt;th&gt;CD_RGI&lt;/th&gt;
&lt;td&gt;150016&lt;/td&gt;
&lt;/tr&gt;&lt;tr bgcolor="#E3E3F3"&gt;
&lt;th&gt;NM_RGI&lt;/th&gt;
&lt;td&gt;Itaituba&lt;/td&gt;
&lt;/tr&gt;&lt;tr bgcolor=""&gt;
&lt;th&gt;CT_LOCALIDADE&lt;/th&gt;
&lt;td&gt;Agrovila do PA&lt;/td&gt;
&lt;/tr&gt;&lt;tr bgcolor="#E3E3F3"&gt;
&lt;th&gt;CD_LOCALIDADE&lt;/th&gt;
&lt;td&gt;150619500006&lt;/td&gt;
&lt;/tr&gt;&lt;tr bgcolor=""&gt;
&lt;th&gt;NM_LOCALIDADE&lt;/th&gt;
&lt;td&gt;Agrovila do PA São João Batista&lt;/td&gt;
&lt;/tr&gt;&lt;tr bgcolor="#E3E3F3"&gt;
&lt;th&gt;LAT_LOCALIDADE&lt;/th&gt;
&lt;td&gt;-4.1101&lt;/td&gt;
&lt;/tr&gt;&lt;tr bgcolor=""&gt;
&lt;th&gt;LONG_LOCALIDADE&lt;/th&gt;
&lt;td&gt;-55.1569&lt;/td&gt;
&lt;/tr&gt;&lt;/table&gt;&lt;/center&gt;</description>
<Style>
<IconStyle>
<color>ff00aaff</color>
<scale>0.8</scale>
<Icon>
<href>http://maps.google.com/mapfiles/kml/shapes/placemark_circle.png</href>
</Icon>
</IconStyle>
<LabelStyle>
<scale>0.8</scale>
</LabelStyle>
<LineStyle>
<color>7200ffff</color>
<width>1.0</width>
<gx:labelVisibility>1</gx:labelVisibility>
</LineStyle>
<PolyStyle>
<color>6600ffff</color>
</PolyStyle>
</Style>
<ExtendedData>
<SchemaData schemaUrl="#kml_schema_ft_Agrovilas_do_PA">
<SimpleData name="CD_UF">15</SimpleData>
<SimpleData name="NM_UF">Pará</SimpleData>
<SimpleData name="SIGLA_UF">PA</SimpleData>
<SimpleData name="CD_MUN">1506195</SimpleData>
<SimpleData name="NM_MUN">Rurópolis</SimpleData>
<SimpleData name="CD_RGINT">1505</SimpleData>
<SimpleData name="NM_RGINT">Santarém</SimpleData>
<SimpleData name="CD_RGI">150016</SimpleData>
<SimpleData name="NM_RGI">Itaituba</SimpleData>
<SimpleData name="CT_LOCALIDADE">Agrovila do PA</SimpleData>
<SimpleData name="CD_LOCALIDADE">150619500006</SimpleData>
<SimpleData name="NM_LOCALIDADE">Agrovila do PA São João Batista</SimpleData>
<SimpleData name="LAT_LOCALIDADE">-4.1101</SimpleData>
<SimpleData name="LONG_LOCALIDADE">-55.1569</SimpleData>
</SchemaData>
</ExtendedData>
<Point>
<extrude>0</extrude>
<coordinates>-55.1568757532467,-4.1100743505139,0.0</coordinates>
</Point>
</Placemark>
</Folder>
<Folder id="13. Referência">
<name>13. Referência</name>
<Placemark id="13. Referência">
<name>Rurópolis [1506195]</name>
<visibility>1</visibility>
<snippet> </snippet>
<description>&lt;center&gt;&lt;table&gt;&lt;tr&gt;&lt;th colspan='2' align='center'&gt;&lt;em&gt;Attributes&lt;/em&gt;&lt;/th&gt;&lt;/tr&gt;&lt;tr bgcolor="#E3E3F3"&gt;
&lt;th&gt;CD_UF&lt;/th&gt;
&lt;td&gt;15&lt;/td&gt;
&lt;/tr&gt;&lt;tr bgcolor=""&gt;
&lt;th&gt;NM_UF&lt;/th&gt;
&lt;td&gt;Pará&lt;/td&gt;
&lt;/tr&gt;&lt;tr bgcolor="#E3E3F3"&gt;
&lt;th&gt;CD_MUN&lt;/th&gt;
&lt;td&gt;1506195&lt;/td&gt;
&lt;/tr&gt;&lt;tr bgcolor=""&gt;
&lt;th&gt;NM_MUN&lt;/th&gt;
&lt;td&gt;Rurópolis&lt;/td&gt;
&lt;/tr&gt;&lt;tr bgcolor="#E3E3F3"&gt;
&lt;th&gt;CD_RGINT&lt;/th&gt;
&lt;td&gt;1505&lt;/td&gt;
&lt;/tr&gt;&lt;tr bgcolor=""&gt;
&lt;th&gt;NM_RGINT&lt;/th&gt;
&lt;td&gt;Santarém&lt;/td&gt;
&lt;/tr&gt;&lt;tr bgcolor="#E3E3F3"&gt;
&lt;th&gt;CD_RGI&lt;/th&gt;
&lt;td&gt;150016&lt;/td&gt;
&lt;/tr&gt;&lt;tr bgcolor=""&gt;
&lt;th&gt;NM_RGI&lt;/th&gt;
&lt;td&gt;Itaituba&lt;/td&gt;
&lt;/tr&gt;&lt;/table&gt;&lt;/center&gt;</description>
<Style>
<IconStyle>
<scale>0.7</scale>
</IconStyle>
<LabelStyle>
<scale>0.7</scale>
</LabelStyle>
<LineStyle>
<color>ffffffff</color>
<width>3</width>
<gx:labelVisibility>1</gx:labelVisibility>
</LineStyle>
<PolyStyle>
<color>00ffffff</color>
</PolyStyle>
</Style>
<ExtendedData>
<SchemaData schemaUrl="#kml_schema_ft_Município">
<SimpleData name="CD_UF">15</SimpleData>
<SimpleData name="NM_UF">Pará</SimpleData>
<SimpleData name="CD_MUN">1506195</SimpleData>
<SimpleData name="NM_MUN">Rurópolis</SimpleData>
<SimpleData name="CD_RGINT">1505</SimpleData>
<SimpleData name="NM_RGINT">Santarém</SimpleData>
<SimpleData name="CD_RGI">150016</SimpleData>
<SimpleData name="NM_RGI">Itaituba</SimpleData>
</SchemaData>
</ExtendedData>
<MultiGeometry>
<Polygon>
<extrude>0</extrude>
<tessellate>1</tessellate>
<outerBoundaryIs>
<LinearRing>
<coordinates>-54.7850508,-4.07133219986581,0.0 -54.7872815,-4.07266209986577,0.0 -54.7866164,-4.07582759986567,0.0 -54.7825851,-4.07832629986558,0.0 -54.7785345,-4.08037569986552,0.0 -54.7785586,-4.08580109986534,0.0 -54.7801383,-4.09053779986519,0.0 -54.7790332,-4.0932596998651,0.0 -54.7749721,-4.09485609986504,0.0 -54.7747808,-4.10096079986484,0.0 -54.7768106,-4.10456669986473,0.0 -54.7790659,-4.10750329986463,0.0 -54.7804197,-4.11043179986453,0.0 -54.779979,-4.11382669986442,0.0 -54.7741704,-4.12265509986413,0.0 -54.7768664,-4.12400789986409,0.0 -54.7811437,-4.12422159986408,0.0 -54.7849723,-4.12511299986405,0.0 -54.7851994,-4.12805069986396,0.0 -54.7876987,-4.13165699986384,0.0 -54.7924189,-4.13255749986381,0.0 -54.7971468,-4.13208249986383,0.0 -54.8043409,-4.1327416998638,0.0 -54.809532,-4.13521669986372,0.0 -54.8129214,-4.13723779986366,0.0 -54.8149419,-4.14016729986356,0.0 -54.8160901,-4.14446119986342,0.0 -54.8147528,-4.14898369986327,0.0 -54.8131976,-4.15193309986318,0.0 -54.8134182,-4.15622799986303,0.0 -54.8143408,-4.15915679986294,0.0 -54.8148043,-4.16413049986278,0.0 -54.8163958,-4.16932729986261,0.0 -54.8166439,-4.17497939986242,0.0 -54.8184486,-4.17814139986232,0.0 -54.813054,-4.18742709986202,0.0 -54.8112824,-4.19014079986193,0.0 -54.8121958,-4.19375769986181,0.0 -54.8092794,-4.19557009986175,0.0 -54.8043088,-4.1969387998617,0.0 -54.8000575,-4.19876159986164,0.0 -54.7951191,-4.20171349986155,0.0 -54.7924198,-4.2062473998614,0.0 -54.7917472,-4.2091877998613,0.0 -54.7913108,-4.21325729986117,0.0 -54.7917847,-4.21868219986099,0.0 -54.7924477,-4.22320269986084,0.0 -54.7953953,-4.22613029986075,0.0 -54.7990068,-4.22656879986074,0.0 -54.8016998,-4.22543749986077,0.0 -54.805755,-4.22723089986071,0.0 -54.8080361,-4.23015829986062,0.0 -54.8109507,-4.23512849986045,0.0 -54.8181764,-4.23668429986041,0.0 -54.826506,-4.23439859986048,0.0 -54.8283114,-4.23801449986036,0.0 -54.8314777,-4.24229799986022,0.0 -54.8335068,-4.24455459986015,0.0 -54.8425328,-4.25311679985987,0.0 -54.844806,-4.25604579985977,0.0 -54.8477275,-4.25875439985968,0.0 -54.8463882,-4.26214759985957,0.0 -54.8463914,-4.26508719985948,0.0 -54.8448369,-4.26780069985938,0.0 -54.843059,-4.27301099985922,0.0 -54.8430539,-4.2766287998591,0.0 -54.845974,-4.27797289985906,0.0 -54.8498117,-4.27818559985905,0.0 -54.8516159,-4.28134839985894,0.0 -54.8514231,-4.28541759985881,0.0 -54.8527774,-4.28812879985872,0.0 -54.8561682,-4.29150769985861,0.0 -54.8581975,-4.29444499985851,0.0 -54.8591144,-4.29918119985836,0.0 -54.8575311,-4.30190469985827,0.0 -54.8564174,-4.30574979985815,0.0 -54.8580283,-4.31230259985793,0.0 -54.8607556,-4.31748979985776,0.0 -54.8657262,-4.32358119985756,0.0 -54.8668379,-4.32674379985746,0.0 -54.8702296,-4.32989469985735,0.0 -54.8727256,-4.33192729985729,0.0 -54.87409,-4.33553349985717,0.0 -54.8756732,-4.34050669985701,0.0 -54.8754522,-4.34412289985689,0.0 -54.8732029,-4.34822339985676,0.0 -54.8662612,-4.35747609985646,0.0 -54.8624441,-4.36066789985635,0.0 -54.8601935,-4.36293099985628,0.0 -54.8588494,-4.36769779985612,0.0 -54.8512228,-4.37222849985597,0.0 -54.8492023,-4.37720399985581,0.0 -54.8453957,-4.38106029985568,0.0 -54.8426947,-4.3835516998556,0.0 -54.8395644,-4.38717939985549,0.0 -54.8379713,-4.39012079985539,0.0 -54.8364215,-4.39646019985518,0.0 -54.8377772,-4.401876799855,0.0 -54.8409446,-4.40639429985486,0.0 -54.8418688,-4.41023619985473,0.0 -54.8470317,-4.40977009985475,0.0 -54.8489163,-4.41036379985473,0.0 -54.852005,-4.4113368998547,0.0 -54.8511181,-4.41495389985458,0.0 -54.8479762,-4.41789889985448,0.0 -54.8461703,-4.42084689985438,0.0 -54.8459475,-4.42378679985429,0.0 -54.8475581,-4.42897509985412,0.0 -54.8506946,-4.43145899985404,0.0 -54.8536435,-4.43302899985399,0.0 -54.8558911,-4.43664229985387,0.0 -54.8559221,-4.44003219985376,0.0 -54.8604202,-4.4418290998537,0.0 -54.8646999,-4.4418131998537,0.0 -54.8678633,-4.44248949985368,0.0 -54.870785,-4.44383239985363,0.0 -54.8748392,-4.44426979985362,0.0 -54.8820061,-4.44829039985349,0.0 -54.8840919,-4.45057919985341,0.0 -54.8868109,-4.4571232998532,0.0 -54.8906708,-4.4600481998531,0.0 -54.8953952,-4.46253089985302,0.0 -54.8987834,-4.46274279985302,0.0 -54.9012582,-4.4602450998531,0.0 -54.9084472,-4.45932209985313,0.0 -54.9115916,-4.45841489985316,0.0 -54.9154198,-4.45817319985317,0.0 -54.9192561,-4.4572560998532,0.0 -54.9228385,-4.45430299985329,0.0 -54.9269204,-4.45452389985328,0.0 -54.9283809,-4.45553519985325,0.0 -54.9298414,-4.45654649985322,0.0 -54.9316689,-4.46174429985305,0.0 -54.9310061,-4.46490889985295,0.0 -54.9276045,-4.46833289985283,0.0 -54.9220012,-4.47645879985257,0.0 -54.9224737,-4.47962379985247,0.0 -54.9245047,-4.48323799985235,0.0 -54.9295063,-4.49023019985212,0.0 -54.929501,-4.49316879985202,0.0 -54.926369,-4.49679769985191,0.0 -54.9241133,-4.50019399985179,0.0 -54.9232286,-4.50674969985158,0.0 -54.9176192,-4.50947849985149,0.0 -54.9155879,-4.51288079985138,0.0 -54.9156136,-4.51898499985118,0.0 -54.916979,-4.52350519985103,0.0 -54.9172294,-4.52915429985085,0.0 -54.9183339,-4.53321459985071,0.0 -54.9201773,-4.53728029985058,0.0 -54.9228664,-4.54020729985049,0.0 -54.927835,-4.54426979985035,0.0 -54.9337259,-4.55487839985001,0.0 -54.9456998,-4.56072189984982,0.0 -54.9506423,-4.56455009984969,0.0 -54.9566971,-4.57679019984929,0.0 -54.9574297,-4.57876569984923,0.0 -54.9585902,-4.58397049984906,0.0 -54.9617485,-4.58712279984895,0.0 -54.9658128,-4.58710729984896,0.0 -54.9696398,-4.58484169984903,0.0 -54.9725581,-4.58369939984907,0.0 -54.9782007,-4.58458679984904,0.0 -54.9809228,-4.59158959984881,0.0 -54.985421,-4.59247489984878,0.0 -54.9924201,-4.59087739984883,0.0 -54.9944269,-4.58816389984892,0.0 -54.9923958,-4.585680299849,0.0 -54.9973374,-4.58204579984912,0.0 -55.0047586,-4.57818359984925,0.0 -55.0088058,-4.57816979984925,0.0 -55.011089,-4.58110509984915,0.0 -55.013561,-4.58312609984908,0.0 -55.0171732,-4.58198259984912,0.0 -55.0207557,-4.57903709984922,0.0 -55.0239192,-4.57993049984919,0.0 -55.0280015,-4.58556659984901,0.0 -55.0320581,-4.58646399984898,0.0 -55.03678,-4.58689929984896,0.0 -55.043976,-4.58507239984902,0.0 -55.0469415,-4.58855359984891,0.0 -55.050315,-4.59251249984878,0.0 -55.0577775,-4.59904939984857,0.0 -55.0638648,-4.60129259984849,0.0 -55.0735578,-4.59922739984856,0.0 -55.0771469,-4.60079339984851,0.0 -55.0807978,-4.60981769984821,0.0 -55.0913703,-4.60233499984846,0.0 -55.0956423,-4.60254549984845,0.0 -55.1024252,-4.60636859984833,0.0 -55.1096193,-4.60793149984828,0.0 -55.1166183,-4.61152349984816,0.0 -55.1208922,-4.61286759984811,0.0 -55.1236199,-4.61150799984816,0.0 -55.1260932,-4.60832959984826,0.0 -55.1283142,-4.6040313998484,0.0 -55.1323646,-4.60198079984847,0.0 -55.1350858,-4.60627199984833,0.0 -55.1355617,-4.61079369984818,0.0 -55.136775,-4.61376429984809,0.0 -55.1375874,-4.61575329984802,0.0 -55.1463956,-4.62341609984777,0.0 -55.1504779,-4.62883519984759,0.0 -55.1518433,-4.63221259984748,0.0 -55.1523145,-4.63877579984727,0.0 -55.1552564,-4.64170219984717,0.0 -55.1639834,-4.64342379984712,0.0 -55.1733108,-4.64412259984709,0.0 -55.1822757,-4.6409377998472,0.0 -55.1847813,-4.6377817998473,0.0 -55.1942294,-4.6379656998473,0.0 -55.1987305,-4.64021019984722,0.0 -55.2055061,-4.64448329984708,0.0 -55.2106974,-4.64446629984708,0.0 -55.2174454,-4.64308949984713,0.0 -55.222392,-4.64284579984714,0.0 -55.2273627,-4.64508839984706,0.0 -55.23009,-4.64824709984696,0.0 -55.23415,-4.65071999984688,0.0 -55.249036,-4.6531601998468,0.0 -55.2571459,-4.65788409984665,0.0 -55.2596487,-4.66193899984651,0.0 -55.2592045,-4.66556519984639,0.0 -55.2572051,-4.6714453998462,0.0 -55.259453,-4.67347469984614,0.0 -55.2628413,-4.67368739984613,0.0 -55.2657555,-4.66983969984626,0.0 -55.2686717,-4.66711319984634,0.0 -55.2736454,-4.66732019984634,0.0 -55.2772283,-4.6655045998464,0.0 -55.281312,-4.66594109984638,0.0 -55.2847062,-4.6684111998463,0.0 -55.2860565,-4.67248699984617,0.0 -55.2865048,-4.67610259984605,0.0 -55.291033,-4.67812029984599,0.0 -55.2968909,-4.67832549984598,0.0 -55.2943896,-4.67087149984622,0.0 -55.2961701,-4.66815509984631,0.0 -55.3002316,-4.66633029984637,0.0 -55.3056467,-4.66495509984642,0.0 -55.3099281,-4.66516499984641,0.0 -55.3146502,-4.65994959984658,0.0 -55.3180076,-4.65857639984662,0.0 -55.3215867,-4.65427619984676,0.0 -55.3222567,-4.65110979984687,0.0 -55.3245027,-4.64680219984701,0.0 -55.3283152,-4.64158759984718,0.0 -55.3325889,-4.63817839984729,0.0 -55.3350618,-4.63523649984739,0.0 -55.3361742,-4.63251309984747,0.0 -55.3384231,-4.63024779984755,0.0 -55.3429224,-4.63136209984751,0.0 -55.3442897,-4.63429769984742,0.0 -55.3481169,-4.63314949984745,0.0 -55.3512846,-4.63540449984738,0.0 -55.3535347,-4.63856439984728,0.0 -55.3585084,-4.64215849984716,0.0 -55.3621219,-4.64282499984714,0.0 -55.3655102,-4.64213949984716,0.0 -55.3720313,-4.64008459984723,0.0 -55.3763164,-4.63758019984731,0.0 -55.3790034,-4.63915699984726,0.0 -55.3783759,-4.64413239984709,0.0 -55.3788146,-4.64774769984698,0.0 -55.380425,-4.65135899984686,0.0 -55.3829007,-4.65361509984679,0.0 -55.3867275,-4.65269449984681,0.0 -55.3905318,-4.64905999984694,0.0 -55.3923376,-4.64566619984704,0.0 -55.3959251,-4.64135859984719,0.0 -55.4004234,-4.63727059984732,0.0 -55.4022295,-4.63454589984741,0.0 -55.4044552,-4.62934319984758,0.0 -55.4075902,-4.62458169984773,0.0 -55.4181716,-4.62047349984787,0.0 -55.4271752,-4.61569119984802,0.0 -55.4314529,-4.6195155998479,0.0 -55.4332815,-4.62403209984775,0.0 -55.4335376,-4.62946479984757,0.0 -55.4360052,-4.63306779984746,0.0 -55.4400608,-4.63305959984746,0.0 -55.443895,-4.63010369984755,0.0 -55.4468116,-4.62443949984774,0.0 -55.4458927,-4.62014629984788,0.0 -55.4472287,-4.61675439984799,0.0 -55.4508104,-4.61425009984807,0.0 -55.4528403,-4.61084869984818,0.0 -55.4607312,-4.60901449984824,0.0 -55.4632042,-4.61081659984818,0.0 -55.4683947,-4.61102369984818,0.0 -55.471786,-4.61191079984815,0.0 -55.4841691,-4.61683989984798,0.0 -55.4902089,-4.61801419984795,0.0 -55.493018,-4.61930649984791,0.0 -55.4976985,-4.62037059984787,0.0 -55.497795,-4.62039199984787,0.0 -55.5085108,-4.61796289984795,0.0 -55.5140438,-4.61472199984806,0.0 -55.5229213,-4.60775759984828,0.0 -55.5263575,-4.60431959984839,0.0 -55.5296095,-4.59820339984859,0.0 -55.5311479,-4.5918920998488,0.0 -55.5334424,-4.58768809984894,0.0 -55.535461,-4.57879569984923,0.0 -55.5379555,-4.57076559984949,0.0 -55.5387836,-4.56198729984977,0.0 -55.5388078,-4.56173089984978,0.0 -55.5389301,-4.56043449984983,0.0 -55.5418882,-4.55728319984993,0.0 -55.5483914,-4.54485929985033,0.0 -55.5489839,-4.54043939985048,0.0 -55.5531885,-4.53238119985074,0.0 -55.5619422,-4.53460239985067,0.0 -55.5650097,-4.53421879985068,0.0 -55.5673648,-4.53611119985062,0.0 -55.5708102,-4.53755189985057,0.0 -55.5748716,-4.53589689985063,0.0 -55.5777335,-4.5337933998507,0.0 -55.5838523,-4.53096779985079,0.0 -55.5854792,-4.52823419985088,0.0 -55.5933181,-4.52376039985102,0.0 -55.5939232,-4.52067569985112,0.0 -55.5964514,-4.51848339985119,0.0 -55.5989812,-4.51702159985124,0.0 -55.5997573,-4.51384779985135,0.0 -55.6039802,-4.50784519985154,0.0 -55.6063169,-4.50547979985162,0.0 -55.6089534,-4.50791649985154,0.0 -55.6123681,-4.50771729985155,0.0 -55.6157006,-4.50661609985158,0.0 -55.6223109,-4.50575979985161,0.0 -55.6321477,-4.50843069985152,0.0 -55.6358752,-4.50870429985151,0.0 -55.6379774,-4.51473249985132,0.0 -55.6510616,-4.5183972998512,0.0 -55.6542279,-4.51792909985121,0.0 -55.6565654,-4.51556439985129,0.0 -55.6595768,-4.51356979985136,0.0 -55.6699285,-4.51549849985129,0.0 -55.6735414,-4.5152985998513,0.0 -55.6741954,-4.51478819985132,0.0 -55.6763388,-4.51311459985137,0.0 -55.6748721,-4.5061377998516,0.0 -55.6725052,-4.50388429985167,0.0 -55.6706419,-4.50039129985179,0.0 -55.6698733,-4.49485909985197,0.0 -55.6699798,-4.49057519985211,0.0 -55.6659773,-4.48939109985215,0.0 -55.6643476,-4.48636479985224,0.0 -55.6672277,-4.48095269985242,0.0 -55.6705113,-4.4786311998525,0.0 -55.6719228,-4.47327569985267,0.0 -55.6663125,-4.47071229985275,0.0 -55.6704813,-4.46537949985293,0.0 -55.6664024,-4.46222319985303,0.0 -55.6705928,-4.45888899985314,0.0 -55.6693141,-4.45523009985326,0.0 -55.6600051,-4.45462839985328,0.0 -55.658597,-4.44906239985346,0.0 -55.6554823,-4.44712589985353,0.0 -55.6567318,-4.44136409985371,0.0 -55.6596443,-4.43835739985381,0.0 -55.6572336,-4.43610199985389,0.0 -55.6537912,-4.43176269985403,0.0 -55.6476452,-4.43124219985405,0.0 -55.6423655,-4.43130819985404,0.0 -55.6415894,-4.4266454998542,0.0 -55.6431775,-4.41993379985441,0.0 -55.6400107,-4.41756249985449,0.0 -55.6382837,-4.41473789985458,0.0 -55.6340398,-4.41461979985459,0.0 -55.6301451,-4.41390519985461,0.0 -55.6263397,-4.41235959985466,0.0 -55.624506,-4.40937879985476,0.0 -55.6236984,-4.40299049985497,0.0 -55.6238121,-4.39768399985514,0.0 -55.6200373,-4.39357739985528,0.0 -55.620562,-4.38998839985539,0.0 -55.6232314,-4.38703569985549,0.0 -55.6171215,-4.38255629985563,0.0 -55.6190613,-4.37504019985588,0.0 -55.6260641,-4.37247589985596,0.0 -55.6259231,-4.36558709985619,0.0 -55.621512,-4.3620991998563,0.0 -55.6218714,-4.35832619985643,0.0 -55.6198146,-4.35240159985662,0.0 -55.6239214,-4.35222189985663,0.0 -55.6319795,-4.35326119985659,0.0 -55.6357016,-4.35430979985656,0.0 -55.6423424,-4.35523639985653,0.0 -55.6482808,-4.35138159985665,0.0 -55.6449548,-4.34269109985694,0.0 -55.6459819,-4.33733839985711,0.0 -55.6428715,-4.33708389985712,0.0 -55.640648,-4.33367179985723,0.0 -55.6434248,-4.33046489985734,0.0 -55.6421749,-4.32275599985759,0.0 -55.6454788,-4.3225670998576,0.0 -55.6528204,-4.3131780998579,0.0 -55.6541455,-4.30941389985803,0.0 -55.6568391,-4.30611769985813,0.0 -55.6605642,-4.30781799985808,0.0 -55.6634568,-4.30823659985806,0.0 -55.6728396,-4.30224089985826,0.0 -55.6800126,-4.30328269985822,0.0 -55.682172,-4.29842389985839,0.0 -55.6895887,-4.28697089985876,0.0 -55.696619,-4.28059259985897,0.0 -55.701482,-4.279531399859,0.0 -55.7017631,-4.27871729985903,0.0 -55.7031191,-4.27479209985916,0.0 -55.7061713,-4.27448709985917,0.0 -55.7085246,-4.27996049985899,0.0 -55.7127334,-4.28003329985899,0.0 -55.7195638,-4.27295659985922,0.0 -55.7128998,-4.2612458998596,0.0 -55.7168175,-4.25683689985974,0.0 -55.7230089,-4.25451719985982,0.0 -55.719704,-4.24683129986007,0.0 -55.7235095,-4.24064999986027,0.0 -55.7296181,-4.24164779986024,0.0 -55.732841,-4.24040219986028,0.0 -55.7350907,-4.24388629986017,0.0 -55.7409004,-4.24777799986004,0.0 -55.7475351,-4.25357689985985,0.0 -55.7500362,-4.25698529985974,0.0 -55.7538415,-4.2583622998597,0.0 -55.7594255,-4.25794999985971,0.0 -55.7593399,-4.26388879985951,0.0 -55.7617039,-4.26560169985946,0.0 -55.7609827,-4.27285349985922,0.0 -55.76207,-4.27605079985912,0.0 -55.7612571,-4.27942419985901,0.0 -55.7589248,-4.28333619985888,0.0 -55.7631426,-4.28456399985884,0.0 -55.7673391,-4.279700399859,0.0 -55.7672039,-4.27573079985913,0.0 -55.7706187,-4.27171139985926,0.0 -55.7750062,-4.27237009985924,0.0 -55.7784502,-4.27400539985918,0.0 -55.7870646,-4.27168139985926,0.0 -55.7869116,-4.27599329985912,0.0 -55.8000619,-4.28960289985867,0.0 -55.8041195,-4.29085869985863,0.0 -55.8072919,-4.28807539985872,0.0 -55.8087362,-4.28548779985881,0.0 -55.8139435,-4.28496569985882,0.0 -55.8199835,-4.28342109985888,0.0 -55.8292469,-4.279744699859,0.0 -55.8348368,-4.2765035998591,0.0 -55.8380758,-4.27296809985922,0.0 -55.8421909,-4.27267889985923,0.0 -55.8463101,-4.2703225998593,0.0 -55.8460195,-4.26707489985941,0.0 -55.8482368,-4.25895919985968,0.0 -55.8632417,-4.24864809986001,0.0 -55.8794042,-4.25044369985995,0.0 -55.8904314,-4.24706169986006,0.0 -55.8936679,-4.24411539986016,0.0 -55.8954369,-4.2399840998603,0.0 -55.8969147,-4.23467229986047,0.0 -55.8796709,-4.22025209986094,0.0 -55.8744577,-4.21589189986108,0.0 -55.8496586,-4.20181149986154,0.0 -55.7887633,-4.16248189986283,0.0 -55.7751486,-4.15243339986316,0.0 -55.7665868,-4.14869579986328,0.0 -55.757144,-4.14457369986342,0.0 -55.7395125,-4.13372869986377,0.0 -55.7282007,-4.12557299986404,0.0 -55.7198727,-4.12231899986415,0.0 -55.7028966,-4.11803299986429,0.0 -55.6798865,-4.10733319986464,0.0 -55.6664541,-4.0992176998649,0.0 -55.6542316,-4.09073699986518,0.0 -55.6415883,-4.07708529986563,0.0 -55.6233713,-4.06000029986618,0.0 -55.622084,-4.05777989986626,0.0 -55.6142254,-4.0442244998667,0.0 -55.6036451,-4.02227359986742,0.0 -55.5910007,-4.01339059986771,0.0 -55.5819007,-4.00615739986795,0.0 -55.574867,-3.99400239986834,0.0 -55.5718934,-3.99296759986838,0.0 -55.5691773,-3.99471029986832,0.0 -55.5714786,-3.99740789986823,0.0 -55.5748972,-4.00037459986814,0.0 -55.5747256,-4.00532969986797,0.0 -55.564931,-4.01818699986755,0.0 -55.5584015,-4.02015119986749,0.0 -55.5576449,-4.02529639986732,0.0 -55.5591154,-4.03141449986712,0.0 -55.5579799,-4.03571879986698,0.0 -55.5598425,-4.03868119986688,0.0 -55.5615078,-4.04818889986657,0.0 -55.5585597,-4.05164689986646,0.0 -55.5588707,-4.0626135998661,0.0 -55.5633162,-4.07116759986582,0.0 -55.5647626,-4.07822489986559,0.0 -55.5635071,-4.08140759986548,0.0 -55.5626991,-4.09204189986514,0.0 -55.5634824,-4.096089399865,0.0 -55.5624857,-4.10178729986482,0.0 -55.5631212,-4.10484249986472,0.0 -55.5607008,-4.11110289986451,0.0 -55.561231,-4.11470779986439,0.0 -55.5599491,-4.1177477998643,0.0 -55.5614498,-4.12528409986405,0.0 -55.5632842,-4.12842819986395,0.0 -55.5634542,-4.13241439986382,0.0 -55.5645053,-4.13564769986371,0.0 -55.5647866,-4.14134409986352,0.0 -55.5630629,-4.14417609986343,0.0 -55.5575405,-4.1480741998633,0.0 -55.5511733,-4.1483054998633,0.0 -55.5460123,-4.15190359986318,0.0 -55.5414307,-4.14966249986325,0.0 -55.5402347,-4.15007529986324,0.0 -55.5365344,-4.1513525998632,0.0 -55.5318925,-4.1542281998631,0.0 -55.5304865,-4.15374549986312,0.0 -55.5004838,-4.14344769986345,0.0 -55.4562444,-4.12758759986397,0.0 -55.454002,-4.126783699864,0.0 -55.3170849,-4.07767329986561,0.0 -55.3179796,-4.07404549986572,0.0 -55.3163298,-4.07295339986576,0.0 -55.3145898,-4.0718007998658,0.0 -55.311889,-4.07294249986576,0.0 -55.3087599,-4.07544659986568,0.0 -55.3060999,-4.08063859986551,0.0 -55.302921,-4.07908059986556,0.0 -55.3015667,-4.07637049986565,0.0 -55.3012487,-4.07351589986574,0.0 -55.3008649,-4.07006559986586,0.0 -55.2934189,-4.06781099986593,0.0 -55.286655,-4.06399749986605,0.0 -55.2841704,-4.06173309986613,0.0 -55.2852837,-4.05901899986622,0.0 -55.2888936,-4.05877819986623,0.0 -55.2918133,-4.05990359986619,0.0 -55.294761,-4.06169899986613,0.0 -55.2976775,-4.06145829986614,0.0 -55.2981143,-4.05806629986625,0.0 -55.3008119,-4.05556669986633,0.0 -55.3048646,-4.05622829986631,0.0 -55.307565,-4.05486959986635,0.0 -55.3111748,-4.05394879986638,0.0 -55.3154539,-4.05483779986635,0.0 -55.3192577,-4.05143129986646,0.0 -55.3210641,-4.04915999986654,0.0 -55.326009,-4.04915189986654,0.0 -55.3264523,-4.04597689986664,0.0 -55.3237283,-4.0444082998667,0.0 -55.3156179,-4.04376149986672,0.0 -55.3192004,-4.03717119986693,0.0 -55.3191704,-4.03085349986714,0.0 -55.3155946,-4.03041719986715,0.0 -55.3115327,-4.03065969986715,0.0 -55.3088108,-4.02863709986721,0.0 -55.3083648,-4.02569049986731,0.0 -55.3101417,-4.02184439986743,0.0 -55.3096687,-4.01890769986753,0.0 -55.3076453,-4.01551969986764,0.0 -55.3065054,-4.01167919986777,0.0 -55.3001806,-4.00334719986804,0.0 -55.2993377,-4.00047079986813,0.0 -55.3011979,-3.99802679986821,0.0 -55.3037252,-3.99611509986828,0.0 -55.309754,-3.99381809986835,0.0 -55.3137828,-3.99044759986846,0.0 -55.3100096,-3.98974839986848,0.0 -55.3071163,-3.98804429986854,0.0 -55.3050322,-3.98551609986862,0.0 -55.3052798,-3.98262349986872,0.0 -55.3086207,-3.98215529986873,0.0 -55.3111425,-3.98358969986869,0.0 -55.312854,-3.98335149986869,0.0 -55.3145654,-3.9831131998687,0.0 -55.3156229,-3.97994809986881,0.0 -55.314337,-3.97651369986892,0.0 -55.3109242,-3.97589529986894,0.0 -55.3100909,-3.97282279986904,0.0 -55.3115358,-3.96974739986914,0.0 -55.309704,-3.96676589986924,0.0 -55.3087871,-3.96260949986937,0.0 -55.3106467,-3.95979299986947,0.0 -55.3107309,-3.95608339986959,0.0 -55.3145916,-3.95524729986961,0.0 -55.321117,-3.95856389986951,0.0 -55.322256,-3.95511839986962,0.0 -55.3234781,-3.94841719986984,0.0 -55.3242489,-3.94163529987006,0.0 -55.3241338,-3.94114189987008,0.0 -55.3234248,-3.93810069987018,0.0 -55.3215313,-3.93585259987025,0.0 -55.3202562,-3.93296149987034,0.0 -55.3216755,-3.93023789987043,0.0 -55.3239224,-3.9281440998705,0.0 -55.3257806,-3.9251494998706,0.0 -55.3226447,-3.92245129987069,0.0 -55.319035,-3.92247599987069,0.0 -55.3163118,-3.91995609987077,0.0 -55.3153941,-3.91580139987091,0.0 -55.3146048,-3.9160448998709,0.0 -55.3076462,-3.91818859987083,0.0 -55.3017322,-3.91930089987079,0.0 -55.2929793,-3.91926019987079,0.0 -55.2818899,-3.92166409987071,0.0 -55.2787558,-3.92123589987073,0.0 -55.2762332,-3.91970369987078,0.0 -55.2714258,-3.91421309987096,0.0 -55.2678913,-3.91097179987106,0.0 -55.2645568,-3.90953939987111,0.0 -55.2622044,-3.90738119987118,0.0 -55.2593893,-3.90341729987131,0.0 -55.2543734,-3.89322549987165,0.0 -55.2508359,-3.89087909987172,0.0 -55.2443705,-3.89100809987172,0.0 -55.2415594,-3.88975459987176,0.0 -55.2367764,-3.89024449987174,0.0 -55.2295887,-3.89207769987168,0.0 -55.2222286,-3.89555119987157,0.0 -55.2190848,-3.89520229987158,0.0 -55.2166415,-3.89295549987165,0.0 -55.2142888,-3.88980259987176,0.0 -55.2073476,-3.88775289987182,0.0 -55.2058714,-3.88486269987192,0.0 -55.2031396,-3.882260899872,0.0 -55.198558,-3.88318059987198,0.0 -55.1925359,-3.88357709987196,0.0 -55.1899203,-3.88160069987203,0.0 -55.1876382,-3.87862029987213,0.0 -55.1843144,-3.87692609987218,0.0 -55.1812532,-3.87693849987218,0.0 -55.1787257,-3.87875939987212,0.0 -55.1750351,-3.8794154998721,0.0 -55.1708699,-3.87545119987223,0.0 -55.1678186,-3.87547529987223,0.0 -55.1628802,-3.87419099987227,0.0 -55.1601269,-3.87226719987233,0.0 -55.1464575,-3.86744049987249,0.0 -55.1456436,-3.86745059987249,0.0 -55.1466024,-3.86608039987253,0.0 -55.1430888,-3.86644769987252,0.0 -55.1387524,-3.86620129987253,0.0 -55.1323654,-3.86496129987257,0.0 -55.1297253,-3.86335449987262,0.0 -55.1260636,-3.8640907998726,0.0 -55.124119,-3.87170009987235,0.0 -55.1206702,-3.87071999987238,0.0 -55.1175068,-3.86902349987244,0.0 -55.1137798,-3.86794709987247,0.0 -55.1076994,-3.86771539987248,0.0 -55.1040017,-3.86917689987243,0.0 -55.1007807,-3.87091619987238,0.0 -55.0978911,-3.87138379987236,0.0 -55.0932289,-3.87267189987232,0.0 -55.0935933,-3.87601689987221,0.0 -55.0960126,-3.87599919987221,0.0 -55.0945769,-3.87702369987218,0.0 -55.093419,-3.87981279987209,0.0 -55.0899166,-3.88118439987204,0.0 -55.0881404,-3.88562619987189,0.0 -55.0897266,-3.89313049987165,0.0 -55.0922537,-3.89917519987145,0.0 -55.0909179,-3.90226099987135,0.0 -55.0931186,-3.90587479987123,0.0 -55.0942036,-3.90866729987114,0.0 -55.0937584,-3.91247439987102,0.0 -55.0914479,-3.9159231998709,0.0 -55.0888401,-3.91783529987084,0.0 -55.0850593,-3.91929409987079,0.0 -55.0838344,-3.92599109987057,0.0 -55.0823085,-3.92971549987045,0.0 -55.0806197,-3.93279999987035,0.0 -55.0773998,-3.93561619987026,0.0 -55.0733422,-3.93753919987019,0.0 -55.0689482,-3.93828629987017,0.0 -55.0660573,-3.93793639987018,0.0 -55.0633352,-3.93641279987023,0.0 -55.0638635,-3.93333789987033,0.0 -55.0660299,-3.93051229987043,0.0 -55.0732009,-3.92632579987056,0.0 -55.0745296,-3.92324269987066,0.0 -55.0722025,-3.92008199987077,0.0 -55.0671421,-3.91929999987079,0.0 -55.0637289,-3.91949429987079,0.0 -55.0554483,-3.9220626998707,0.0 -55.0529162,-3.92407499987064,0.0 -55.0498033,-3.93041629987043,0.0 -55.0465622,-3.93006589987044,0.0 -55.0430307,-3.92854409987049,0.0 -55.0403153,-3.92438829987063,0.0 -55.0351132,-3.92633059987056,0.0 -55.0317512,-3.92344859987066,0.0 -55.0285088,-3.92346169987066,0.0 -55.0258401,-3.92654819987055,0.0 -55.0247537,-3.93053879987042,0.0 -55.0245874,-3.93370369987032,0.0 -55.0263317,-3.93902629987015,0.0 -55.0270824,-3.94247119987003,0.0 -55.0261151,-3.94599869986992,0.0 -55.0237865,-3.94809109986985,0.0 -55.0200586,-3.94729829986987,0.0 -55.0176146,-3.94422879986998,0.0 -55.0166974,-3.93853269987016,0.0 -55.0170349,-3.93392089987031,0.0 -55.0177221,-3.92966039987045,0.0 -55.0180572,-3.92459659987062,0.0 -55.0179723,-3.92134159987072,0.0 -55.016258,-3.91773599987084,0.0 -55.0141419,-3.91014249987109,0.0 -55.0127587,-3.90616569987122,0.0 -55.0044179,-3.89526129987158,0.0 -55.0025055,-3.89219739987168,0.0 -55.0033112,-3.88902369987178,0.0 -55.0057315,-3.88684259987186,0.0 -55.0077807,-3.88447929987193,0.0 -55.0083092,-3.88068019987206,0.0 -55.0081143,-3.87652109987219,0.0 -55.0085607,-3.8733468998723,0.0 -55.0104202,-3.86971879987241,0.0 -55.0131195,-3.86825899987246,0.0 -55.0158094,-3.8671625998725,0.0 -55.018338,-3.86525079987256,0.0 -55.0177027,-3.86181559987268,0.0 -55.015593,-3.85857209987278,0.0 -55.011727,-3.85641479987285,0.0 -55.0071164,-3.8549021998729,0.0 -55.0034229,-3.85310809987296,0.0 -55.0004238,-3.85230509987299,0.0 -54.9946437,-3.85155329987301,0.0 -54.9904727,-3.85029139987305,0.0 -54.9878412,-3.84804299987313,0.0 -54.9846189,-3.8488695998731,0.0 -54.9807281,-3.84770849987314,0.0 -54.9784474,-3.84517669987322,0.0 -54.9750069,-3.84328179987328,0.0 -54.9776145,-3.84110149987335,0.0 -54.979142,-3.83765479987347,0.0 -54.9783101,-3.83448019987357,0.0 -54.9766678,-3.83204069987365,0.0 -54.9727029,-3.82888049987375,0.0 -54.9685616,-3.82899469987375,0.0 -54.9655605,-3.82628539987384,0.0 -54.9648086,-3.82211879987398,0.0 -54.9647224,-3.8183103998741,0.0 -54.962892,-3.81587019987418,0.0 -54.9597234,-3.81542169987419,0.0 -54.9557522,-3.81462229987422,0.0 -54.9531397,-3.81318749987427,0.0 -54.9507791,-3.81147209987433,0.0 -54.9466444,-3.81021979987437,0.0 -54.9439253,-3.8091458998744,0.0 -54.9410336,-3.80670859987448,0.0 -54.9405594,-3.80281199987461,0.0 -54.9415276,-3.79900329987474,0.0 -54.9405348,-3.79592099987483,0.0 -54.9376425,-3.79367179987491,0.0 -54.9337537,-3.7940457998749,0.0 -54.9301403,-3.79179999987497,0.0 -54.9222562,-3.7846642998752,0.0 -54.917997,-3.78458839987521,0.0 -54.9141442,-3.78406619987522,0.0 -54.9113338,-3.78253289987527,0.0 -54.9099431,-3.77845539987541,0.0 -54.9135282,-3.77182369987562,0.0 -54.9125342,-3.76820699987574,0.0 -54.9069221,-3.76478679987585,0.0 -54.9073597,-3.76142349987597,0.0 -54.9042802,-3.75989769987602,0.0 -54.9029187,-3.75700469987611,0.0 -54.9056132,-3.75354689987622,0.0 -54.908501,-3.75162789987629,0.0 -54.9116407,-3.74872109987638,0.0 -54.9147795,-3.74671229987645,0.0 -54.9175057,-3.74352569987655,0.0 -54.9181128,-3.73953829987668,0.0 -54.9118616,-3.7360256998768,0.0 -54.9103092,-3.73213909987693,0.0 -54.9087853,-3.72878609987704,0.0 -54.9055865,-3.72580539987713,0.0 -54.9018932,-3.72428109987718,0.0 -54.899204,-3.72573969987714,0.0 -54.89414,-3.729840999877,0.0 -54.8916976,-3.72704039987709,0.0 -54.8887241,-3.72515349987715,0.0 -54.8850355,-3.72652359987711,0.0 -54.8825028,-3.72336039987721,0.0 -54.8790653,-3.72464879987717,0.0 -54.8758948,-3.72202789987726,0.0 -54.8726456,-3.72348779987721,0.0 -54.8702995,-3.7269478998771,0.0 -54.8653599,-3.72859399987704,0.0 -54.8627291,-3.72643639987711,0.0 -54.8589483,-3.72735419987708,0.0 -54.8568089,-3.72971549987701,0.0 -54.8538107,-3.73009819987699,0.0 -54.852202,-3.7329118998769,0.0 -54.8508636,-3.7359061998768,0.0 -54.8512552,-3.74052829987665,0.0 -54.850807,-3.74352079987655,0.0 -54.8495608,-3.74788139987641,0.0 -54.8473046,-3.7513268998763,0.0 -54.8429768,-3.75288729987624,0.0 -54.8395563,-3.75516829987617,0.0 -54.8367793,-3.75916949987604,0.0 -54.8329214,-3.7635325998759,0.0 -54.8289913,-3.76968509987569,0.0 -54.8245476,-3.7726108998756,0.0 -54.8223084,-3.77408519987555,0.0 -54.8199646,-3.77366599987556,0.0 -54.8183376,-3.77337459987557,0.0 -54.8156165,-3.77085339987566,0.0 -54.8115631,-3.76841669987574,0.0 -54.8080317,-3.76680139987579,0.0 -54.8029746,-3.76836139987574,0.0 -54.7967858,-3.77373919987556,0.0 -54.7917286,-3.77520959987551,0.0 -54.7873075,-3.77431839987554,0.0 -54.7813656,-3.77515479987551,0.0 -54.7770285,-3.77752879987544,0.0 -54.7736178,-3.77790169987543,0.0 -54.769451,-3.77955199987537,0.0 -54.7652016,-3.77829799987541,0.0 -54.7624213,-3.78002749987535,0.0 -54.7581996,-3.7817673998753,0.0 -54.7551933,-3.78241209987528,0.0 -54.7521388,-3.77934029987538,0.0 -54.7496962,-3.77599659987549,0.0 -54.7466078,-3.77546579987551,0.0 -54.7452546,-3.77212119987561,0.0 -54.745055,-3.76921689987571,0.0 -54.7415332,-3.76814479987575,0.0 -54.7383125,-3.77078789987566,0.0 -54.7348645,-3.77070949987566,0.0 -54.7310043,-3.77299329987559,0.0 -54.7293872,-3.77598689987549,0.0 -54.7262264,-3.77599759987549,0.0 -54.7228077,-3.77763809987543,0.0 -54.7200356,-3.77961079987537,0.0 -54.7173097,-3.78301399987526,0.0 -54.7149715,-3.78492299987519,0.0 -54.7114512,-3.78457419987521,0.0 -54.7089497,-3.78621389987515,0.0 -54.7067007,-3.78821409987509,0.0 -54.7030906,-3.78931939987505,0.0 -54.6997516,-3.79059799987501,0.0 -54.6951153,-3.78957989987504,0.0 -54.6973335,-3.7939637998749,0.0 -54.6991463,-3.7969463998748,0.0 -54.6998088,-3.80464209987455,0.0 -54.6989246,-3.8122657998743,0.0 -54.7014475,-3.81479469987422,0.0 -54.7050847,-3.81586959987418,0.0 -54.7068086,-3.82011639987404,0.0 -54.7076381,-3.82374369987392,0.0 -54.7097217,-3.8274493998738,0.0 -54.7128624,-3.82680479987382,0.0 -54.715753,-3.82643069987384,0.0 -54.7189239,-3.82867869987376,0.0 -54.720033,-3.83176219987366,0.0 -54.7197765,-3.83611289987352,0.0 -54.7176174,-3.83820439987345,0.0 -54.7161706,-3.84138679987334,0.0 -54.7170018,-3.84491459987323,0.0 -54.7196407,-3.84708159987316,0.0 -54.722776,-3.84752299987314,0.0 -54.7263117,-3.84552059987321,0.0 -54.7290012,-3.84360219987327,0.0 -54.7323326,-3.8427764998733,0.0 -54.7366735,-3.84321579987328,0.0 -54.7401137,-3.84428799987325,0.0 -54.7466166,-3.84825289987312,0.0 -54.7494165,-3.84914659987309,0.0 -54.752397,-3.84958609987307,0.0 -54.7556403,-3.85093959987303,0.0 -54.7579219,-3.85410429987293,0.0 -54.7590843,-3.85726629987283,0.0 -54.7600331,-3.8610741998727,0.0 -54.7577754,-3.86361349987262,0.0 -54.7555284,-3.86698199987251,0.0 -54.7540776,-3.86858389987245,0.0 -54.7525602,-3.8702598998724,0.0 -54.7507809,-3.87415699987227,0.0 -54.750774,-3.87760219987216,0.0 -54.7497234,-3.88077799987205,0.0 -54.7489467,-3.88212949987201,0.0 -54.7479982,-3.88377979987196,0.0 -54.7468402,-3.88668349987186,0.0 -54.7486699,-3.88984949987176,0.0 -54.7512823,-3.89137529987171,0.0 -54.7552534,-3.89190529987169,0.0 -54.7579745,-3.89506769987159,0.0 -54.7588068,-3.89842169987148,0.0 -54.7571974,-3.90096499987139,0.0 -54.7577584,-3.90404889987129,0.0 -54.7605605,-3.90612529987122,0.0 -54.7627278,-3.90819669987116,0.0 -54.7718292,-3.91429929987096,0.0 -54.7742285,-3.91694559987087,0.0 -54.7758341,-3.92010989987076,0.0 -54.7767477,-3.92364469987065,0.0 -54.7773098,-3.92681799987055,0.0 -54.7838316,-3.93168489987039,0.0 -54.7864453,-3.93340139987033,0.0 -54.7869157,-3.93665709987022,0.0 -54.7848657,-3.93892779987015,0.0 -54.7790062,-3.94140369987007,0.0 -54.775918,-3.94168599987006,0.0 -54.7719469,-3.94142749987007,0.0 -54.7690647,-3.9405349998701,0.0 -54.7653617,-3.93909159987014,0.0 -54.7610313,-3.93884239987015,0.0 -54.7580308,-3.93658539987023,0.0 -54.75514,-3.93614499987024,0.0 -54.7541693,-3.93904939987015,0.0 -54.7554777,-3.95119139986975,0.0 -54.7540324,-3.95400399986965,0.0 -54.7521419,-3.95654759986957,0.0 -54.7506406,-3.95927169986948,0.0 -54.752444,-3.96198189986939,0.0 -54.755058,-3.96396969986933,0.0 -54.761229,-3.9680241998692,0.0 -54.7607013,-3.9710176998691,0.0 -54.758533,-3.973922299869,0.0 -54.7561943,-3.97575109986894,0.0 -54.7546652,-3.97856469986885,0.0 -54.755416,-3.98136719986876,0.0 -54.7571634,-3.98389569986868,0.0 -54.7611917,-3.9892486998685,0.0 -54.7593432,-3.9952970998683,0.0 -54.7566979,-3.99770309986822,0.0 -54.7541505,-3.99976979986816,0.0 -54.7519883,-4.00262919986806,0.0 -54.7469432,-4.01095389986779,0.0 -54.7450005,-4.01560259986764,0.0 -54.7420922,-4.02005599986749,0.0 -54.7407322,-4.02373749986737,0.0 -54.7400215,-4.02948019986718,0.0 -54.7410287,-4.03392089986704,0.0 -54.740805,-4.03753729986692,0.0 -54.7446443,-4.03978619986685,0.0 -54.7480313,-4.04090439986681,0.0 -54.7513912,-4.04180549986678,0.0 -54.7547763,-4.04179329986678,0.0 -54.7597224,-4.04313599986674,0.0 -54.762893,-4.04380219986672,0.0 -54.7667224,-4.04605009986664,0.0 -54.7701176,-4.04626299986663,0.0 -54.7732515,-4.04625189986663,0.0 -54.777092,-4.04873489986655,0.0 -54.778228,-4.05189049986645,0.0 -54.78137,-4.05097509986648,0.0 -54.785198,-4.05164869986646,0.0 -54.7867849,-4.05457689986636,0.0 -54.7876982,-4.05751479986627,0.0 -54.7850007,-4.06182159986612,0.0 -54.7816438,-4.06319019986608,0.0 -54.7784753,-4.065680899866,0.0 -54.779379,-4.06796769986592,0.0 -54.7800822,-4.06974839986587,0.0 -54.7838925,-4.07064169986584,0.0 -54.7850508,-4.07133219986581,0.0</coordinates>
</LinearRing>
</outerBoundaryIs>
</Polygon>
</MultiGeometry>
</Placemark>
</Folder>
</Document></kml>
