<?xml version='1.0' encoding='UTF-8'?>
<kml xmlns:xsd="http://www.w3.org/2001/XMLSchema" xmlns:gx="http://www.google.com/kml/ext/2.2" xmlns:atom="http://www.w3.org/2005/Atom" xmlns="http://www.opengis.net/kml/2.2">
<Document>
<name>grossos_2404408_localidades_2022</name>
<visibility>1</visibility>
<Schema name="Povoados" id="kml_schema_ft_Povoados">
<SimpleField type="xsd:string" name="CD_UF">
<displayName>CD_UF</displayName>
</SimpleField>
<SimpleField type="xsd:string" name="NM_UF">
<displayName>NM_UF</displayName>
</SimpleField>
<SimpleField type="xsd:string" name="SIGLA_UF">
<displayName>SIGLA_UF</displayName>
</SimpleField>
<SimpleField type="xsd:string" name="CD_MUN">
<displayName>CD_MUN</displayName>
</SimpleField>
<SimpleField type="xsd:string" name="NM_MUN">
<displayName>NM_MUN</displayName>
</SimpleField>
<SimpleField type="xsd:string" name="CD_RGINT">
<displayName>CD_RGINT</displayName>
</SimpleField>
<SimpleField type="xsd:string" name="NM_RGINT">
<displayName>NM_RGINT</displayName>
</SimpleField>
<SimpleField type="xsd:string" name="CD_RGI">
<displayName>CD_RGI</displayName>
</SimpleField>
<SimpleField type="xsd:string" name="NM_RGI">
<displayName>NM_RGI</displayName>
</SimpleField>
<SimpleField type="xsd:string" name="CT_LOCALIDADE">
<displayName>CT_LOCALIDADE</displayName>
</SimpleField>
<SimpleField type="xsd:string" name="CD_LOCALIDADE">
<displayName>CD_LOCALIDADE</displayName>
</SimpleField>
<SimpleField type="xsd:string" name="NM_LOCALIDADE">
<displayName>NM_LOCALIDADE</displayName>
</SimpleField>
<SimpleField type="xsd:string" name="LAT_LOCALIDADE">
<displayName>LAT_LOCALIDADE</displayName>
</SimpleField>
<SimpleField type="xsd:string" name="LONG_LOCALIDADE">
<displayName>LONG_LOCALIDADE</displayName>
</SimpleField>
</Schema>
<Schema name="01. Cidade" id="kml_schema_ft_01._Cidade">
<SimpleField type="xsd:string" name="CD_UF">
<displayName>CD_UF</displayName>
</SimpleField>
<SimpleField type="xsd:string" name="NM_UF">
<displayName>NM_UF</displayName>
</SimpleField>
<SimpleField type="xsd:string" name="SIGLA_UF">
<displayName>SIGLA_UF</displayName>
</SimpleField>
<SimpleField type="xsd:string" name="CD_MUN">
<displayName>CD_MUN</displayName>
</SimpleField>
<SimpleField type="xsd:string" name="NM_MUN">
<displayName>NM_MUN</displayName>
</SimpleField>
<SimpleField type="xsd:string" name="CD_RGINT">
<displayName>CD_RGINT</displayName>
</SimpleField>
<SimpleField type="xsd:string" name="NM_RGINT">
<displayName>NM_RGINT</displayName>
</SimpleField>
<SimpleField type="xsd:string" name="CD_RGI">
<displayName>CD_RGI</displayName>
</SimpleField>
<SimpleField type="xsd:string" name="NM_RGI">
<displayName>NM_RGI</displayName>
</SimpleField>
<SimpleField type="xsd:string" name="CT_LOCALIDADE">
<displayName>CT_LOCALIDADE</displayName>
</SimpleField>
<SimpleField type="xsd:string" name="SCT_LOCALIDADE">
<displayName>SCT_LOCALIDADE</displayName>
</SimpleField>
<SimpleField type="xsd:string" name="CD_LOCALIDADE">
<displayName>CD_LOCALIDADE</displayName>
</SimpleField>
<SimpleField type="xsd:string" name="NM_LOCALIDADE">
<displayName>NM_LOCALIDADE</displayName>
</SimpleField>
<SimpleField type="xsd:string" name="LAT_LOCALIDADE">
<displayName>LAT_LOCALIDADE</displayName>
</SimpleField>
<SimpleField type="xsd:string" name="LONG_LOCALIDADE">
<displayName>LONG_LOCALIDADE</displayName>
</SimpleField>
</Schema>
<Schema name="Município" id="kml_schema_ft_Município">
<SimpleField type="xsd:string" name="CD_UF">
<displayName>CD_UF</displayName>
</SimpleField>
<SimpleField type="xsd:string" name="NM_UF">
<displayName>NM_UF</displayName>
</SimpleField>
<SimpleField type="xsd:string" name="CD_MUN">
<displayName>CD_MUN</displayName>
</SimpleField>
<SimpleField type="xsd:string" name="NM_MUN">
<displayName>NM_MUN</displayName>
</SimpleField>
<SimpleField type="xsd:string" name="CD_RGINT">
<displayName>CD_RGINT</displayName>
</SimpleField>
<SimpleField type="xsd:string" name="NM_RGINT">
<displayName>NM_RGINT</displayName>
</SimpleField>
<SimpleField type="xsd:string" name="CD_RGI">
<displayName>CD_RGI</displayName>
</SimpleField>
<SimpleField type="xsd:string" name="NM_RGI">
<displayName>NM_RGI</displayName>
</SimpleField>
</Schema>
<Folder id="01. Cidade">
<name>01. Cidade</name>
<Folder id="01.03. Sede Municipal">
<name>01.03. Sede Municipal</name>
<Placemark id="01.03. Sede Municipal">
<name>Grossos [2404408]</name>
<visibility>1</visibility>
<snippet> </snippet>
<description>&lt;center&gt;&lt;table&gt;&lt;tr&gt;&lt;th colspan='2' align='center'&gt;&lt;em&gt;Atributos&lt;/em&gt;&lt;/th&gt;&lt;/tr&gt;&lt;tr bgcolor="#E3E3F3"&gt;
&lt;th&gt;CD_UF&lt;/th&gt;
&lt;td&gt;24&lt;/td&gt;
&lt;/tr&gt;&lt;tr bgcolor=""&gt;
&lt;th&gt;NM_UF&lt;/th&gt;
&lt;td&gt;Rio Grande do Norte&lt;/td&gt;
&lt;/tr&gt;&lt;tr bgcolor="#E3E3F3"&gt;
&lt;th&gt;SIGLA_UF&lt;/th&gt;
&lt;td&gt;RN&lt;/td&gt;
&lt;/tr&gt;&lt;tr bgcolor=""&gt;
&lt;th&gt;CD_MUN&lt;/th&gt;
&lt;td&gt;2404408&lt;/td&gt;
&lt;/tr&gt;&lt;tr bgcolor="#E3E3F3"&gt;
&lt;th&gt;NM_MUN&lt;/th&gt;
&lt;td&gt;Grossos&lt;/td&gt;
&lt;/tr&gt;&lt;tr bgcolor=""&gt;
&lt;th&gt;CD_RGINT&lt;/th&gt;
&lt;td&gt;2403&lt;/td&gt;
&lt;/tr&gt;&lt;tr bgcolor="#E3E3F3"&gt;
&lt;th&gt;NM_RGINT&lt;/th&gt;
&lt;td&gt;Mossoró&lt;/td&gt;
&lt;/tr&gt;&lt;tr bgcolor=""&gt;
&lt;th&gt;CD_RGI&lt;/th&gt;
&lt;td&gt;240009&lt;/td&gt;
&lt;/tr&gt;&lt;tr bgcolor="#E3E3F3"&gt;
&lt;th&gt;NM_RGI&lt;/th&gt;
&lt;td&gt;Mossoró&lt;/td&gt;
&lt;/tr&gt;&lt;tr bgcolor=""&gt;
&lt;th&gt;CT_LOCALIDADE&lt;/th&gt;
&lt;td&gt;Cidade&lt;/td&gt;
&lt;/tr&gt;&lt;tr bgcolor="#E3E3F3"&gt;
&lt;th&gt;SCT_LOCALIDADE&lt;/th&gt;
&lt;td&gt;Sede Municipal&lt;/td&gt;
&lt;/tr&gt;&lt;tr bgcolor=""&gt;
&lt;th&gt;CD_LOCALIDADE&lt;/th&gt;
&lt;td&gt;2404408&lt;/td&gt;
&lt;/tr&gt;&lt;tr bgcolor="#E3E3F3"&gt;
&lt;th&gt;NM_LOCALIDADE&lt;/th&gt;
&lt;td&gt;Grossos&lt;/td&gt;
&lt;/tr&gt;&lt;tr bgcolor=""&gt;
&lt;th&gt;LAT_LOCALIDADE&lt;/th&gt;
&lt;td&gt;-4.9828&lt;/td&gt;
&lt;/tr&gt;&lt;tr bgcolor="#E3E3F3"&gt;
&lt;th&gt;LONG_LOCALIDADE&lt;/th&gt;
&lt;td&gt;-37.1536&lt;/td&gt;
&lt;/tr&gt;&lt;/table&gt;&lt;/center&gt;</description>
<Style>
<IconStyle>
<color>ff00aaff</color>
<scale>1.0</scale>
<Icon>
<href>http://maps.google.com/mapfiles/kml/shapes/placemark_circle.png</href>
</Icon>
</IconStyle>
<LabelStyle>
<scale>1.0</scale>
</LabelStyle>
<LineStyle>
<color>ffffffff</color>
<width>3</width>
<gx:labelVisibility>1</gx:labelVisibility>
</LineStyle>
<PolyStyle>
<color>00ffffff</color>
</PolyStyle>
</Style>
<ExtendedData>
<SchemaData schemaUrl="#kml_schema_ft_01._Cidade">
<SimpleData name="CD_UF">24</SimpleData>
<SimpleData name="NM_UF">Rio Grande do Norte</SimpleData>
<SimpleData name="SIGLA_UF">RN</SimpleData>
<SimpleData name="CD_MUN">2404408</SimpleData>
<SimpleData name="NM_MUN">Grossos</SimpleData>
<SimpleData name="CD_RGINT">2403</SimpleData>
<SimpleData name="NM_RGINT">Mossoró</SimpleData>
<SimpleData name="CD_RGI">240009</SimpleData>
<SimpleData name="NM_RGI">Mossoró</SimpleData>
<SimpleData name="CT_LOCALIDADE">Cidade</SimpleData>
<SimpleData name="SCT_LOCALIDADE">Sede Municipal</SimpleData>
<SimpleData name="CD_LOCALIDADE">2404408</SimpleData>
<SimpleData name="NM_LOCALIDADE">Grossos</SimpleData>
<SimpleData name="LAT_LOCALIDADE">-4.9828</SimpleData>
<SimpleData name="LONG_LOCALIDADE">-37.1536</SimpleData>
</SchemaData>
</ExtendedData>
<Point>
<extrude>0</extrude>
<coordinates>-37.153578,-4.98279799983606,0.0</coordinates>
</Point>
</Placemark>
</Folder>
</Folder>
<Folder id="06. Povoados">
<name>06. Povoados</name>
<Placemark id="06. Povoados">
<name>Valença [240440800001]</name>
<visibility>1</visibility>
<snippet> </snippet>
<description>&lt;center&gt;&lt;table&gt;&lt;tr&gt;&lt;th colspan='2' align='center'&gt;&lt;em&gt;Atributos&lt;/em&gt;&lt;/th&gt;&lt;/tr&gt;&lt;tr bgcolor="#E3E3F3"&gt;
&lt;th&gt;CD_UF&lt;/th&gt;
&lt;td&gt;24&lt;/td&gt;
&lt;/tr&gt;&lt;tr bgcolor=""&gt;
&lt;th&gt;NM_UF&lt;/th&gt;
&lt;td&gt;Rio Grande do Norte&lt;/td&gt;
&lt;/tr&gt;&lt;tr bgcolor="#E3E3F3"&gt;
&lt;th&gt;SIGLA_UF&lt;/th&gt;
&lt;td&gt;RN&lt;/td&gt;
&lt;/tr&gt;&lt;tr bgcolor=""&gt;
&lt;th&gt;CD_MUN&lt;/th&gt;
&lt;td&gt;2404408&lt;/td&gt;
&lt;/tr&gt;&lt;tr bgcolor="#E3E3F3"&gt;
&lt;th&gt;NM_MUN&lt;/th&gt;
&lt;td&gt;Grossos&lt;/td&gt;
&lt;/tr&gt;&lt;tr bgcolor=""&gt;
&lt;th&gt;CD_RGINT&lt;/th&gt;
&lt;td&gt;2403&lt;/td&gt;
&lt;/tr&gt;&lt;tr bgcolor="#E3E3F3"&gt;
&lt;th&gt;NM_RGINT&lt;/th&gt;
&lt;td&gt;Mossoró&lt;/td&gt;
&lt;/tr&gt;&lt;tr bgcolor=""&gt;
&lt;th&gt;CD_RGI&lt;/th&gt;
&lt;td&gt;240009&lt;/td&gt;
&lt;/tr&gt;&lt;tr bgcolor="#E3E3F3"&gt;
&lt;th&gt;NM_RGI&lt;/th&gt;
&lt;td&gt;Mossoró&lt;/td&gt;
&lt;/tr&gt;&lt;tr bgcolor=""&gt;
&lt;th&gt;CT_LOCALIDADE&lt;/th&gt;
&lt;td&gt;Povoado&lt;/td&gt;
&lt;/tr&gt;&lt;tr bgcolor="#E3E3F3"&gt;
&lt;th&gt;CD_LOCALIDADE&lt;/th&gt;
&lt;td&gt;240440800001&lt;/td&gt;
&lt;/tr&gt;&lt;tr bgcolor=""&gt;
&lt;th&gt;NM_LOCALIDADE&lt;/th&gt;
&lt;td&gt;Valença&lt;/td&gt;
&lt;/tr&gt;&lt;tr bgcolor="#E3E3F3"&gt;
&lt;th&gt;LAT_LOCALIDADE&lt;/th&gt;
&lt;td&gt;-4.926&lt;/td&gt;
&lt;/tr&gt;&lt;tr bgcolor=""&gt;
&lt;th&gt;LONG_LOCALIDADE&lt;/th&gt;
&lt;td&gt;-37.2063&lt;/td&gt;
&lt;/tr&gt;&lt;/table&gt;&lt;/center&gt;</description>
<Style>
<IconStyle>
<color>ff00ff54</color>
<scale>0.8</scale>
<Icon>
<href>http://maps.google.com/mapfiles/kml/shapes/placemark_circle.png</href>
</Icon>
</IconStyle>
<LabelStyle>
<scale>0.8</scale>
</LabelStyle>
<LineStyle>
<color>72ff54ff</color>
<width>1.0</width>
<gx:labelVisibility>1</gx:labelVisibility>
</LineStyle>
<PolyStyle>
<color>66ff54ff</color>
</PolyStyle>
</Style>
<ExtendedData>
<SchemaData schemaUrl="#kml_schema_ft_Povoados">
<SimpleData name="CD_UF">24</SimpleData>
<SimpleData name="NM_UF">Rio Grande do Norte</SimpleData>
<SimpleData name="SIGLA_UF">RN</SimpleData>
<SimpleData name="CD_MUN">2404408</SimpleData>
<SimpleData name="NM_MUN">Grossos</SimpleData>
<SimpleData name="CD_RGINT">2403</SimpleData>
<SimpleData name="NM_RGINT">Mossoró</SimpleData>
<SimpleData name="CD_RGI">240009</SimpleData>
<SimpleData name="NM_RGI">Mossoró</SimpleData>
<SimpleData name="CT_LOCALIDADE">Povoado</SimpleData>
<SimpleData name="CD_LOCALIDADE">240440800001</SimpleData>
<SimpleData name="NM_LOCALIDADE">Valença</SimpleData>
<SimpleData name="LAT_LOCALIDADE">-4.926</SimpleData>
<SimpleData name="LONG_LOCALIDADE">-37.2063</SimpleData>
</SchemaData>
</ExtendedData>
<Point>
<extrude>0</extrude>
<coordinates>-37.2063320248756,-4.92603757695233,0.0</coordinates>
</Point>
</Placemark>
<Placemark id="06. Povoados">
<name>Córrego [240440800002]</name>
<visibility>1</visibility>
<snippet> </snippet>
<description>&lt;center&gt;&lt;table&gt;&lt;tr&gt;&lt;th colspan='2' align='center'&gt;&lt;em&gt;Atributos&lt;/em&gt;&lt;/th&gt;&lt;/tr&gt;&lt;tr bgcolor="#E3E3F3"&gt;
&lt;th&gt;CD_UF&lt;/th&gt;
&lt;td&gt;24&lt;/td&gt;
&lt;/tr&gt;&lt;tr bgcolor=""&gt;
&lt;th&gt;NM_UF&lt;/th&gt;
&lt;td&gt;Rio Grande do Norte&lt;/td&gt;
&lt;/tr&gt;&lt;tr bgcolor="#E3E3F3"&gt;
&lt;th&gt;SIGLA_UF&lt;/th&gt;
&lt;td&gt;RN&lt;/td&gt;
&lt;/tr&gt;&lt;tr bgcolor=""&gt;
&lt;th&gt;CD_MUN&lt;/th&gt;
&lt;td&gt;2404408&lt;/td&gt;
&lt;/tr&gt;&lt;tr bgcolor="#E3E3F3"&gt;
&lt;th&gt;NM_MUN&lt;/th&gt;
&lt;td&gt;Grossos&lt;/td&gt;
&lt;/tr&gt;&lt;tr bgcolor=""&gt;
&lt;th&gt;CD_RGINT&lt;/th&gt;
&lt;td&gt;2403&lt;/td&gt;
&lt;/tr&gt;&lt;tr bgcolor="#E3E3F3"&gt;
&lt;th&gt;NM_RGINT&lt;/th&gt;
&lt;td&gt;Mossoró&lt;/td&gt;
&lt;/tr&gt;&lt;tr bgcolor=""&gt;
&lt;th&gt;CD_RGI&lt;/th&gt;
&lt;td&gt;240009&lt;/td&gt;
&lt;/tr&gt;&lt;tr bgcolor="#E3E3F3"&gt;
&lt;th&gt;NM_RGI&lt;/th&gt;
&lt;td&gt;Mossoró&lt;/td&gt;
&lt;/tr&gt;&lt;tr bgcolor=""&gt;
&lt;th&gt;CT_LOCALIDADE&lt;/th&gt;
&lt;td&gt;Povoado&lt;/td&gt;
&lt;/tr&gt;&lt;tr bgcolor="#E3E3F3"&gt;
&lt;th&gt;CD_LOCALIDADE&lt;/th&gt;
&lt;td&gt;240440800002&lt;/td&gt;
&lt;/tr&gt;&lt;tr bgcolor=""&gt;
&lt;th&gt;NM_LOCALIDADE&lt;/th&gt;
&lt;td&gt;Córrego&lt;/td&gt;
&lt;/tr&gt;&lt;tr bgcolor="#E3E3F3"&gt;
&lt;th&gt;LAT_LOCALIDADE&lt;/th&gt;
&lt;td&gt;-4.9476&lt;/td&gt;
&lt;/tr&gt;&lt;tr bgcolor=""&gt;
&lt;th&gt;LONG_LOCALIDADE&lt;/th&gt;
&lt;td&gt;-37.1914&lt;/td&gt;
&lt;/tr&gt;&lt;/table&gt;&lt;/center&gt;</description>
<Style>
<IconStyle>
<color>ff00ff54</color>
<scale>0.8</scale>
<Icon>
<href>http://maps.google.com/mapfiles/kml/shapes/placemark_circle.png</href>
</Icon>
</IconStyle>
<LabelStyle>
<scale>0.8</scale>
</LabelStyle>
<LineStyle>
<color>72ff54ff</color>
<width>1.0</width>
<gx:labelVisibility>1</gx:labelVisibility>
</LineStyle>
<PolyStyle>
<color>66ff54ff</color>
</PolyStyle>
</Style>
<ExtendedData>
<SchemaData schemaUrl="#kml_schema_ft_Povoados">
<SimpleData name="CD_UF">24</SimpleData>
<SimpleData name="NM_UF">Rio Grande do Norte</SimpleData>
<SimpleData name="SIGLA_UF">RN</SimpleData>
<SimpleData name="CD_MUN">2404408</SimpleData>
<SimpleData name="NM_MUN">Grossos</SimpleData>
<SimpleData name="CD_RGINT">2403</SimpleData>
<SimpleData name="NM_RGINT">Mossoró</SimpleData>
<SimpleData name="CD_RGI">240009</SimpleData>
<SimpleData name="NM_RGI">Mossoró</SimpleData>
<SimpleData name="CT_LOCALIDADE">Povoado</SimpleData>
<SimpleData name="CD_LOCALIDADE">240440800002</SimpleData>
<SimpleData name="NM_LOCALIDADE">Córrego</SimpleData>
<SimpleData name="LAT_LOCALIDADE">-4.9476</SimpleData>
<SimpleData name="LONG_LOCALIDADE">-37.1914</SimpleData>
</SchemaData>
</ExtendedData>
<Point>
<extrude>0</extrude>
<coordinates>-37.1913744751773,-4.94757390763861,0.0</coordinates>
</Point>
</Placemark>
<Placemark id="06. Povoados">
<name>Areias Alvas [240440800003]</name>
<visibility>1</visibility>
<snippet> </snippet>
<description>&lt;center&gt;&lt;table&gt;&lt;tr&gt;&lt;th colspan='2' align='center'&gt;&lt;em&gt;Atributos&lt;/em&gt;&lt;/th&gt;&lt;/tr&gt;&lt;tr bgcolor="#E3E3F3"&gt;
&lt;th&gt;CD_UF&lt;/th&gt;
&lt;td&gt;24&lt;/td&gt;
&lt;/tr&gt;&lt;tr bgcolor=""&gt;
&lt;th&gt;NM_UF&lt;/th&gt;
&lt;td&gt;Rio Grande do Norte&lt;/td&gt;
&lt;/tr&gt;&lt;tr bgcolor="#E3E3F3"&gt;
&lt;th&gt;SIGLA_UF&lt;/th&gt;
&lt;td&gt;RN&lt;/td&gt;
&lt;/tr&gt;&lt;tr bgcolor=""&gt;
&lt;th&gt;CD_MUN&lt;/th&gt;
&lt;td&gt;2404408&lt;/td&gt;
&lt;/tr&gt;&lt;tr bgcolor="#E3E3F3"&gt;
&lt;th&gt;NM_MUN&lt;/th&gt;
&lt;td&gt;Grossos&lt;/td&gt;
&lt;/tr&gt;&lt;tr bgcolor=""&gt;
&lt;th&gt;CD_RGINT&lt;/th&gt;
&lt;td&gt;2403&lt;/td&gt;
&lt;/tr&gt;&lt;tr bgcolor="#E3E3F3"&gt;
&lt;th&gt;NM_RGINT&lt;/th&gt;
&lt;td&gt;Mossoró&lt;/td&gt;
&lt;/tr&gt;&lt;tr bgcolor=""&gt;
&lt;th&gt;CD_RGI&lt;/th&gt;
&lt;td&gt;240009&lt;/td&gt;
&lt;/tr&gt;&lt;tr bgcolor="#E3E3F3"&gt;
&lt;th&gt;NM_RGI&lt;/th&gt;
&lt;td&gt;Mossoró&lt;/td&gt;
&lt;/tr&gt;&lt;tr bgcolor=""&gt;
&lt;th&gt;CT_LOCALIDADE&lt;/th&gt;
&lt;td&gt;Povoado&lt;/td&gt;
&lt;/tr&gt;&lt;tr bgcolor="#E3E3F3"&gt;
&lt;th&gt;CD_LOCALIDADE&lt;/th&gt;
&lt;td&gt;240440800003&lt;/td&gt;
&lt;/tr&gt;&lt;tr bgcolor=""&gt;
&lt;th&gt;NM_LOCALIDADE&lt;/th&gt;
&lt;td&gt;Areias Alvas&lt;/td&gt;
&lt;/tr&gt;&lt;tr bgcolor="#E3E3F3"&gt;
&lt;th&gt;LAT_LOCALIDADE&lt;/th&gt;
&lt;td&gt;-4.9049&lt;/td&gt;
&lt;/tr&gt;&lt;tr bgcolor=""&gt;
&lt;th&gt;LONG_LOCALIDADE&lt;/th&gt;
&lt;td&gt;-37.2215&lt;/td&gt;
&lt;/tr&gt;&lt;/table&gt;&lt;/center&gt;</description>
<Style>
<IconStyle>
<color>ff00ff54</color>
<scale>0.8</scale>
<Icon>
<href>http://maps.google.com/mapfiles/kml/shapes/placemark_circle.png</href>
</Icon>
</IconStyle>
<LabelStyle>
<scale>0.8</scale>
</LabelStyle>
<LineStyle>
<color>72ff54ff</color>
<width>1.0</width>
<gx:labelVisibility>1</gx:labelVisibility>
</LineStyle>
<PolyStyle>
<color>66ff54ff</color>
</PolyStyle>
</Style>
<ExtendedData>
<SchemaData schemaUrl="#kml_schema_ft_Povoados">
<SimpleData name="CD_UF">24</SimpleData>
<SimpleData name="NM_UF">Rio Grande do Norte</SimpleData>
<SimpleData name="SIGLA_UF">RN</SimpleData>
<SimpleData name="CD_MUN">2404408</SimpleData>
<SimpleData name="NM_MUN">Grossos</SimpleData>
<SimpleData name="CD_RGINT">2403</SimpleData>
<SimpleData name="NM_RGINT">Mossoró</SimpleData>
<SimpleData name="CD_RGI">240009</SimpleData>
<SimpleData name="NM_RGI">Mossoró</SimpleData>
<SimpleData name="CT_LOCALIDADE">Povoado</SimpleData>
<SimpleData name="CD_LOCALIDADE">240440800003</SimpleData>
<SimpleData name="NM_LOCALIDADE">Areias Alvas</SimpleData>
<SimpleData name="LAT_LOCALIDADE">-4.9049</SimpleData>
<SimpleData name="LONG_LOCALIDADE">-37.2215</SimpleData>
</SchemaData>
</ExtendedData>
<Point>
<extrude>0</extrude>
<coordinates>-37.2214935882353,-4.90491598173904,0.0</coordinates>
</Point>
</Placemark>
<Placemark id="06. Povoados">
<name>Barra [240440800004]</name>
<visibility>1</visibility>
<snippet> </snippet>
<description>&lt;center&gt;&lt;table&gt;&lt;tr&gt;&lt;th colspan='2' align='center'&gt;&lt;em&gt;Atributos&lt;/em&gt;&lt;/th&gt;&lt;/tr&gt;&lt;tr bgcolor="#E3E3F3"&gt;
&lt;th&gt;CD_UF&lt;/th&gt;
&lt;td&gt;24&lt;/td&gt;
&lt;/tr&gt;&lt;tr bgcolor=""&gt;
&lt;th&gt;NM_UF&lt;/th&gt;
&lt;td&gt;Rio Grande do Norte&lt;/td&gt;
&lt;/tr&gt;&lt;tr bgcolor="#E3E3F3"&gt;
&lt;th&gt;SIGLA_UF&lt;/th&gt;
&lt;td&gt;RN&lt;/td&gt;
&lt;/tr&gt;&lt;tr bgcolor=""&gt;
&lt;th&gt;CD_MUN&lt;/th&gt;
&lt;td&gt;2404408&lt;/td&gt;
&lt;/tr&gt;&lt;tr bgcolor="#E3E3F3"&gt;
&lt;th&gt;NM_MUN&lt;/th&gt;
&lt;td&gt;Grossos&lt;/td&gt;
&lt;/tr&gt;&lt;tr bgcolor=""&gt;
&lt;th&gt;CD_RGINT&lt;/th&gt;
&lt;td&gt;2403&lt;/td&gt;
&lt;/tr&gt;&lt;tr bgcolor="#E3E3F3"&gt;
&lt;th&gt;NM_RGINT&lt;/th&gt;
&lt;td&gt;Mossoró&lt;/td&gt;
&lt;/tr&gt;&lt;tr bgcolor=""&gt;
&lt;th&gt;CD_RGI&lt;/th&gt;
&lt;td&gt;240009&lt;/td&gt;
&lt;/tr&gt;&lt;tr bgcolor="#E3E3F3"&gt;
&lt;th&gt;NM_RGI&lt;/th&gt;
&lt;td&gt;Mossoró&lt;/td&gt;
&lt;/tr&gt;&lt;tr bgcolor=""&gt;
&lt;th&gt;CT_LOCALIDADE&lt;/th&gt;
&lt;td&gt;Povoado&lt;/td&gt;
&lt;/tr&gt;&lt;tr bgcolor="#E3E3F3"&gt;
&lt;th&gt;CD_LOCALIDADE&lt;/th&gt;
&lt;td&gt;240440800004&lt;/td&gt;
&lt;/tr&gt;&lt;tr bgcolor=""&gt;
&lt;th&gt;NM_LOCALIDADE&lt;/th&gt;
&lt;td&gt;Barra&lt;/td&gt;
&lt;/tr&gt;&lt;tr bgcolor="#E3E3F3"&gt;
&lt;th&gt;LAT_LOCALIDADE&lt;/th&gt;
&lt;td&gt;-4.9532&lt;/td&gt;
&lt;/tr&gt;&lt;tr bgcolor=""&gt;
&lt;th&gt;LONG_LOCALIDADE&lt;/th&gt;
&lt;td&gt;-37.1499&lt;/td&gt;
&lt;/tr&gt;&lt;/table&gt;&lt;/center&gt;</description>
<Style>
<IconStyle>
<color>ff00ff54</color>
<scale>0.8</scale>
<Icon>
<href>http://maps.google.com/mapfiles/kml/shapes/placemark_circle.png</href>
</Icon>
</IconStyle>
<LabelStyle>
<scale>0.8</scale>
</LabelStyle>
<LineStyle>
<color>72ff54ff</color>
<width>1.0</width>
<gx:labelVisibility>1</gx:labelVisibility>
</LineStyle>
<PolyStyle>
<color>66ff54ff</color>
</PolyStyle>
</Style>
<ExtendedData>
<SchemaData schemaUrl="#kml_schema_ft_Povoados">
<SimpleData name="CD_UF">24</SimpleData>
<SimpleData name="NM_UF">Rio Grande do Norte</SimpleData>
<SimpleData name="SIGLA_UF">RN</SimpleData>
<SimpleData name="CD_MUN">2404408</SimpleData>
<SimpleData name="NM_MUN">Grossos</SimpleData>
<SimpleData name="CD_RGINT">2403</SimpleData>
<SimpleData name="NM_RGINT">Mossoró</SimpleData>
<SimpleData name="CD_RGI">240009</SimpleData>
<SimpleData name="NM_RGI">Mossoró</SimpleData>
<SimpleData name="CT_LOCALIDADE">Povoado</SimpleData>
<SimpleData name="CD_LOCALIDADE">240440800004</SimpleData>
<SimpleData name="NM_LOCALIDADE">Barra</SimpleData>
<SimpleData name="LAT_LOCALIDADE">-4.9532</SimpleData>
<SimpleData name="LONG_LOCALIDADE">-37.1499</SimpleData>
</SchemaData>
</ExtendedData>
<Point>
<extrude>0</extrude>
<coordinates>-37.1498668469945,-4.95321679218674,0.0</coordinates>
</Point>
</Placemark>
<Placemark id="06. Povoados">
<name>Pernambuquinho [240440800005]</name>
<visibility>1</visibility>
<snippet> </snippet>
<description>&lt;center&gt;&lt;table&gt;&lt;tr&gt;&lt;th colspan='2' align='center'&gt;&lt;em&gt;Atributos&lt;/em&gt;&lt;/th&gt;&lt;/tr&gt;&lt;tr bgcolor="#E3E3F3"&gt;
&lt;th&gt;CD_UF&lt;/th&gt;
&lt;td&gt;24&lt;/td&gt;
&lt;/tr&gt;&lt;tr bgcolor=""&gt;
&lt;th&gt;NM_UF&lt;/th&gt;
&lt;td&gt;Rio Grande do Norte&lt;/td&gt;
&lt;/tr&gt;&lt;tr bgcolor="#E3E3F3"&gt;
&lt;th&gt;SIGLA_UF&lt;/th&gt;
&lt;td&gt;RN&lt;/td&gt;
&lt;/tr&gt;&lt;tr bgcolor=""&gt;
&lt;th&gt;CD_MUN&lt;/th&gt;
&lt;td&gt;2404408&lt;/td&gt;
&lt;/tr&gt;&lt;tr bgcolor="#E3E3F3"&gt;
&lt;th&gt;NM_MUN&lt;/th&gt;
&lt;td&gt;Grossos&lt;/td&gt;
&lt;/tr&gt;&lt;tr bgcolor=""&gt;
&lt;th&gt;CD_RGINT&lt;/th&gt;
&lt;td&gt;2403&lt;/td&gt;
&lt;/tr&gt;&lt;tr bgcolor="#E3E3F3"&gt;
&lt;th&gt;NM_RGINT&lt;/th&gt;
&lt;td&gt;Mossoró&lt;/td&gt;
&lt;/tr&gt;&lt;tr bgcolor=""&gt;
&lt;th&gt;CD_RGI&lt;/th&gt;
&lt;td&gt;240009&lt;/td&gt;
&lt;/tr&gt;&lt;tr bgcolor="#E3E3F3"&gt;
&lt;th&gt;NM_RGI&lt;/th&gt;
&lt;td&gt;Mossoró&lt;/td&gt;
&lt;/tr&gt;&lt;tr bgcolor=""&gt;
&lt;th&gt;CT_LOCALIDADE&lt;/th&gt;
&lt;td&gt;Povoado&lt;/td&gt;
&lt;/tr&gt;&lt;tr bgcolor="#E3E3F3"&gt;
&lt;th&gt;CD_LOCALIDADE&lt;/th&gt;
&lt;td&gt;240440800005&lt;/td&gt;
&lt;/tr&gt;&lt;tr bgcolor=""&gt;
&lt;th&gt;NM_LOCALIDADE&lt;/th&gt;
&lt;td&gt;Pernambuquinho&lt;/td&gt;
&lt;/tr&gt;&lt;tr bgcolor="#E3E3F3"&gt;
&lt;th&gt;LAT_LOCALIDADE&lt;/th&gt;
&lt;td&gt;-4.94&lt;/td&gt;
&lt;/tr&gt;&lt;tr bgcolor=""&gt;
&lt;th&gt;LONG_LOCALIDADE&lt;/th&gt;
&lt;td&gt;-37.1648&lt;/td&gt;
&lt;/tr&gt;&lt;/table&gt;&lt;/center&gt;</description>
<Style>
<IconStyle>
<color>ff00ff54</color>
<scale>0.8</scale>
<Icon>
<href>http://maps.google.com/mapfiles/kml/shapes/placemark_circle.png</href>
</Icon>
</IconStyle>
<LabelStyle>
<scale>0.8</scale>
</LabelStyle>
<LineStyle>
<color>72ff54ff</color>
<width>1.0</width>
<gx:labelVisibility>1</gx:labelVisibility>
</LineStyle>
<PolyStyle>
<color>66ff54ff</color>
</PolyStyle>
</Style>
<ExtendedData>
<SchemaData schemaUrl="#kml_schema_ft_Povoados">
<SimpleData name="CD_UF">24</SimpleData>
<SimpleData name="NM_UF">Rio Grande do Norte</SimpleData>
<SimpleData name="SIGLA_UF">RN</SimpleData>
<SimpleData name="CD_MUN">2404408</SimpleData>
<SimpleData name="NM_MUN">Grossos</SimpleData>
<SimpleData name="CD_RGINT">2403</SimpleData>
<SimpleData name="NM_RGINT">Mossoró</SimpleData>
<SimpleData name="CD_RGI">240009</SimpleData>
<SimpleData name="NM_RGI">Mossoró</SimpleData>
<SimpleData name="CT_LOCALIDADE">Povoado</SimpleData>
<SimpleData name="CD_LOCALIDADE">240440800005</SimpleData>
<SimpleData name="NM_LOCALIDADE">Pernambuquinho</SimpleData>
<SimpleData name="LAT_LOCALIDADE">-4.94</SimpleData>
<SimpleData name="LONG_LOCALIDADE">-37.1648</SimpleData>
</SchemaData>
</ExtendedData>
<Point>
<extrude>0</extrude>
<coordinates>-37.1648149130435,-4.94002962387837,0.0</coordinates>
</Point>
</Placemark>
</Folder>
<Folder id="13. Referência">
<name>13. Referência</name>
<Placemark id="13. Referência">
<name>Grossos [2404408]</name>
<visibility>1</visibility>
<snippet> </snippet>
<description>&lt;center&gt;&lt;table&gt;&lt;tr&gt;&lt;th colspan='2' align='center'&gt;&lt;em&gt;Attributes&lt;/em&gt;&lt;/th&gt;&lt;/tr&gt;&lt;tr bgcolor="#E3E3F3"&gt;
&lt;th&gt;CD_UF&lt;/th&gt;
&lt;td&gt;24&lt;/td&gt;
&lt;/tr&gt;&lt;tr bgcolor=""&gt;
&lt;th&gt;NM_UF&lt;/th&gt;
&lt;td&gt;Rio Grande do Norte&lt;/td&gt;
&lt;/tr&gt;&lt;tr bgcolor="#E3E3F3"&gt;
&lt;th&gt;CD_MUN&lt;/th&gt;
&lt;td&gt;2404408&lt;/td&gt;
&lt;/tr&gt;&lt;tr bgcolor=""&gt;
&lt;th&gt;NM_MUN&lt;/th&gt;
&lt;td&gt;Grossos&lt;/td&gt;
&lt;/tr&gt;&lt;tr bgcolor="#E3E3F3"&gt;
&lt;th&gt;CD_RGINT&lt;/th&gt;
&lt;td&gt;2403&lt;/td&gt;
&lt;/tr&gt;&lt;tr bgcolor=""&gt;
&lt;th&gt;NM_RGINT&lt;/th&gt;
&lt;td&gt;Mossoró&lt;/td&gt;
&lt;/tr&gt;&lt;tr bgcolor="#E3E3F3"&gt;
&lt;th&gt;CD_RGI&lt;/th&gt;
&lt;td&gt;240009&lt;/td&gt;
&lt;/tr&gt;&lt;tr bgcolor=""&gt;
&lt;th&gt;NM_RGI&lt;/th&gt;
&lt;td&gt;Mossoró&lt;/td&gt;
&lt;/tr&gt;&lt;/table&gt;&lt;/center&gt;</description>
<Style>
<IconStyle>
<scale>0.7</scale>
</IconStyle>
<LabelStyle>
<scale>0.7</scale>
</LabelStyle>
<LineStyle>
<color>ffffffff</color>
<width>3</width>
<gx:labelVisibility>1</gx:labelVisibility>
</LineStyle>
<PolyStyle>
<color>00ffffff</color>
</PolyStyle>
</Style>
<ExtendedData>
<SchemaData schemaUrl="#kml_schema_ft_Município">
<SimpleData name="CD_UF">24</SimpleData>
<SimpleData name="NM_UF">Rio Grande do Norte</SimpleData>
<SimpleData name="CD_MUN">2404408</SimpleData>
<SimpleData name="NM_MUN">Grossos</SimpleData>
<SimpleData name="CD_RGINT">2403</SimpleData>
<SimpleData name="NM_RGINT">Mossoró</SimpleData>
<SimpleData name="CD_RGI">240009</SimpleData>
<SimpleData name="NM_RGI">Mossoró</SimpleData>
</SchemaData>
</ExtendedData>
<MultiGeometry>
<Polygon>
<extrude>0</extrude>
<tessellate>1</tessellate>
<outerBoundaryIs>
<LinearRing>
<coordinates>-37.2101842,-4.89470629983893,0.0 -37.2096537,-4.8953649998389,0.0 -37.2091046,-4.89587999983889,0.0 -37.2086087,-4.89635959983887,0.0 -37.2074572,-4.89738339983884,0.0 -37.2065846,-4.89830619983881,0.0 -37.2058428,-4.89913959983878,0.0 -37.2047901,-4.90011329983875,0.0 -37.2037268,-4.90128259983871,0.0 -37.2019525,-4.90278139983866,0.0 -37.2011462,-4.90348809983864,0.0 -37.2004894,-4.90406369983862,0.0 -37.1997174,-4.9046160998386,0.0 -37.1993035,-4.90491219983859,0.0 -37.1988871,-4.90526699983858,0.0 -37.1977241,-4.90625779983855,0.0 -37.1968721,-4.90699309983852,0.0 -37.1953934,-4.90812559983849,0.0 -37.1936774,-4.90933009983845,0.0 -37.1920695,-4.91043539983841,0.0 -37.1904538,-4.91147129983838,0.0 -37.189386,-4.91210239983836,0.0 -37.1892449,-4.91218589983835,0.0 -37.1891746,-4.91223849983835,0.0 -37.1880992,-4.91304329983833,0.0 -37.1867194,-4.9139175998383,0.0 -37.1860414,-4.91436009983828,0.0 -37.1844451,-4.91523459983826,0.0 -37.1835613,-4.91566009983824,0.0 -37.1831393,-4.91585699983824,0.0 -37.1816599,-4.91654719983821,0.0 -37.1802923,-4.91719749983819,0.0 -37.1795206,-4.91786469983817,0.0 -37.1786187,-4.91861299983814,0.0 -37.177685,-4.91962269983811,0.0 -37.1766946,-4.92074169983808,0.0 -37.1747441,-4.92278499983801,0.0 -37.1733312,-4.92440809983796,0.0 -37.1728903,-4.92494179983794,0.0 -37.1721932,-4.92578549983791,0.0 -37.1703201,-4.92822459983783,0.0 -37.1697791,-4.92903809983781,0.0 -37.1692534,-4.92966179983779,0.0 -37.1687164,-4.93023169983777,0.0 -37.1684293,-4.93051379983776,0.0 -37.168197,-4.93072929983775,0.0 -37.1679522,-4.93117379983774,0.0 -37.167817,-4.93145769983773,0.0 -37.1676239,-4.93169799983772,0.0 -37.167448,-4.93186709983771,0.0 -37.1672412,-4.93197709983771,0.0 -37.1670851,-4.93206009983771,0.0 -37.1668617,-4.9323093998377,0.0 -37.1665286,-4.93268089983769,0.0 -37.1659624,-4.93331309983767,0.0 -37.1657057,-4.93377889983765,0.0 -37.1654695,-4.93406659983764,0.0 -37.1642534,-4.9354461998376,0.0 -37.1632716,-4.93670219983756,0.0 -37.1624861,-4.93778769983752,0.0 -37.1618173,-4.93883359983749,0.0 -37.1609806,-4.94012739983744,0.0 -37.1605069,-4.94106969983742,0.0 -37.1603322,-4.94166549983739,0.0 -37.1600212,-4.94249169983737,0.0 -37.1593959,-4.94343049983734,0.0 -37.1586745,-4.94435509983731,0.0 -37.1576363,-4.94537129983727,0.0 -37.1564518,-4.94626239983725,0.0 -37.1550865,-4.94711149983722,0.0 -37.1541332,-4.9476115998372,0.0 -37.1531414,-4.94810619983719,0.0 -37.1521519,-4.94855689983717,0.0 -37.1501018,-4.94925479983715,0.0 -37.1483481,-4.94963239983714,0.0 -37.1466176,-4.94990859983713,0.0 -37.1451345,-4.94994319983712,0.0 -37.1438351,-4.94997079983712,0.0 -37.1421083,-4.94981239983713,0.0 -37.1416342,-4.94979309983713,0.0 -37.138556,-4.94794939983719,0.0 -37.1379748,-4.94876179983716,0.0 -37.137686,-4.94970419983713,0.0 -37.1373644,-4.9507517998371,0.0 -37.1373203,-4.95089529983709,0.0 -37.1373155,-4.95282179983703,0.0 -37.1373138,-4.95349799983701,0.0 -37.1382749,-4.9569386998369,0.0 -37.1385793,-4.95742689983688,0.0 -37.1411249,-4.96150849983675,0.0 -37.1433531,-4.96508269983663,0.0 -37.1445409,-4.96698809983657,0.0 -37.1465188,-4.97182549983641,0.0 -37.1473422,-4.9751727998363,0.0 -37.1474262,-4.97796099983621,0.0 -37.1469099,-4.98028079983614,0.0 -37.1453326,-4.98250609983607,0.0 -37.1414403,-4.98492249983599,0.0 -37.1366898,-4.98710859983592,0.0 -37.1337086,-4.98906679983585,0.0 -37.1320934,-4.9906345998358,0.0 -37.131192,-4.99243059983574,0.0 -37.1310515,-4.99458349983567,0.0 -37.1316453,-4.99858399983554,0.0 -37.1323124,-5.00038309983548,0.0 -37.1349877,-5.00364069983538,0.0 -37.136649,-5.00505259983533,0.0 -37.140067,-5.00795589983524,0.0 -37.1447173,-5.00958469983518,0.0 -37.1498361,-5.00976659983518,0.0 -37.1535388,-5.01028899983516,0.0 -37.155444,-5.01073059983515,0.0 -37.159623,-5.0122740998351,0.0 -37.1619545,-5.01345029983506,0.0 -37.1627159,-5.01355069983506,0.0 -37.1638104,-5.01415349983504,0.0 -37.1649292,-5.01548099983499,0.0 -37.1666943,-5.01504069983501,0.0 -37.1659693,-5.00310579983539,0.0 -37.1766621,-4.97020059983647,0.0 -37.2087695,-4.99167319983577,0.0 -37.2201102,-4.98640399983594,0.0 -37.2208677,-4.98605169983595,0.0 -37.3068196,-4.94608069983725,0.0 -37.3078475,-4.94560219983727,0.0 -37.3075023,-4.94352679983733,0.0 -37.3046639,-4.94309029983735,0.0 -37.2920242,-4.94114659983741,0.0 -37.2902735,-4.94093849983742,0.0 -37.2872432,-4.94092949983742,0.0 -37.2856435,-4.94119799983741,0.0 -37.2703503,-4.94553499983727,0.0 -37.2703311,-4.94534389983728,0.0 -37.2699693,-4.94173679983739,0.0 -37.26908,-4.93806429983751,0.0 -37.2689992,-4.93556799983759,0.0 -37.2692534,-4.93357599983766,0.0 -37.2708289,-4.93088449983775,0.0 -37.2708891,-4.92836899983783,0.0 -37.270676,-4.92785189983785,0.0 -37.2694703,-4.92672349983788,0.0 -37.2687624,-4.92507269983794,0.0 -37.268719,-4.92367479983798,0.0 -37.2698022,-4.91928469983812,0.0 -37.2698034,-4.91843019983815,0.0 -37.2691301,-4.91616509983823,0.0 -37.2691722,-4.91438399983828,0.0 -37.2694026,-4.91317229983832,0.0 -37.2693041,-4.91215829983836,0.0 -37.2689618,-4.91165119983837,0.0 -37.2667181,-4.91037469983841,0.0 -37.2662831,-4.90989579983843,0.0 -37.2626838,-4.90411689983862,0.0 -37.2623527,-4.90387389983863,0.0 -37.2341736,-4.89299489983898,0.0 -37.234278,-4.89117139983904,0.0 -37.2333248,-4.88845419983913,0.0 -37.231179,-4.88677369983918,0.0 -37.2244949,-4.8832482998393,0.0 -37.2216353,-4.88174009983935,0.0 -37.2209958,-4.88140279983936,0.0 -37.2203327,-4.88233909983933,0.0 -37.21942,-4.88344279983929,0.0 -37.2183732,-4.88481939983925,0.0 -37.2173498,-4.88603409983921,0.0 -37.2166566,-4.88701019983917,0.0 -37.2155229,-4.88826489983914,0.0 -37.21479,-4.88913259983911,0.0 -37.2139014,-4.89031389983907,0.0 -37.2132075,-4.89110309983904,0.0 -37.2124912,-4.89196599983901,0.0 -37.2113038,-4.89332229983897,0.0 -37.2105845,-4.89415699983894,0.0 -37.2102381,-4.89463939983893,0.0 -37.2101842,-4.89470629983893,0.0</coordinates>
</LinearRing>
</outerBoundaryIs>
</Polygon>
</MultiGeometry>
</Placemark>
</Folder>
</Document></kml>
