<?xml version='1.0' encoding='UTF-8'?>
<kml xmlns:xsd="http://www.w3.org/2001/XMLSchema" xmlns:gx="http://www.google.com/kml/ext/2.2" xmlns:atom="http://www.w3.org/2005/Atom" xmlns="http://www.opengis.net/kml/2.2">
<Document>
<name>itaja_2404853_localidades_2022</name>
<visibility>1</visibility>
<Schema name="Povoados" id="kml_schema_ft_Povoados">
<SimpleField type="xsd:string" name="CD_UF">
<displayName>CD_UF</displayName>
</SimpleField>
<SimpleField type="xsd:string" name="NM_UF">
<displayName>NM_UF</displayName>
</SimpleField>
<SimpleField type="xsd:string" name="SIGLA_UF">
<displayName>SIGLA_UF</displayName>
</SimpleField>
<SimpleField type="xsd:string" name="CD_MUN">
<displayName>CD_MUN</displayName>
</SimpleField>
<SimpleField type="xsd:string" name="NM_MUN">
<displayName>NM_MUN</displayName>
</SimpleField>
<SimpleField type="xsd:string" name="CD_RGINT">
<displayName>CD_RGINT</displayName>
</SimpleField>
<SimpleField type="xsd:string" name="NM_RGINT">
<displayName>NM_RGINT</displayName>
</SimpleField>
<SimpleField type="xsd:string" name="CD_RGI">
<displayName>CD_RGI</displayName>
</SimpleField>
<SimpleField type="xsd:string" name="NM_RGI">
<displayName>NM_RGI</displayName>
</SimpleField>
<SimpleField type="xsd:string" name="CT_LOCALIDADE">
<displayName>CT_LOCALIDADE</displayName>
</SimpleField>
<SimpleField type="xsd:string" name="CD_LOCALIDADE">
<displayName>CD_LOCALIDADE</displayName>
</SimpleField>
<SimpleField type="xsd:string" name="NM_LOCALIDADE">
<displayName>NM_LOCALIDADE</displayName>
</SimpleField>
<SimpleField type="xsd:string" name="LAT_LOCALIDADE">
<displayName>LAT_LOCALIDADE</displayName>
</SimpleField>
<SimpleField type="xsd:string" name="LONG_LOCALIDADE">
<displayName>LONG_LOCALIDADE</displayName>
</SimpleField>
</Schema>
<Schema name="01. Cidade" id="kml_schema_ft_01._Cidade">
<SimpleField type="xsd:string" name="CD_UF">
<displayName>CD_UF</displayName>
</SimpleField>
<SimpleField type="xsd:string" name="NM_UF">
<displayName>NM_UF</displayName>
</SimpleField>
<SimpleField type="xsd:string" name="SIGLA_UF">
<displayName>SIGLA_UF</displayName>
</SimpleField>
<SimpleField type="xsd:string" name="CD_MUN">
<displayName>CD_MUN</displayName>
</SimpleField>
<SimpleField type="xsd:string" name="NM_MUN">
<displayName>NM_MUN</displayName>
</SimpleField>
<SimpleField type="xsd:string" name="CD_RGINT">
<displayName>CD_RGINT</displayName>
</SimpleField>
<SimpleField type="xsd:string" name="NM_RGINT">
<displayName>NM_RGINT</displayName>
</SimpleField>
<SimpleField type="xsd:string" name="CD_RGI">
<displayName>CD_RGI</displayName>
</SimpleField>
<SimpleField type="xsd:string" name="NM_RGI">
<displayName>NM_RGI</displayName>
</SimpleField>
<SimpleField type="xsd:string" name="CT_LOCALIDADE">
<displayName>CT_LOCALIDADE</displayName>
</SimpleField>
<SimpleField type="xsd:string" name="SCT_LOCALIDADE">
<displayName>SCT_LOCALIDADE</displayName>
</SimpleField>
<SimpleField type="xsd:string" name="CD_LOCALIDADE">
<displayName>CD_LOCALIDADE</displayName>
</SimpleField>
<SimpleField type="xsd:string" name="NM_LOCALIDADE">
<displayName>NM_LOCALIDADE</displayName>
</SimpleField>
<SimpleField type="xsd:string" name="LAT_LOCALIDADE">
<displayName>LAT_LOCALIDADE</displayName>
</SimpleField>
<SimpleField type="xsd:string" name="LONG_LOCALIDADE">
<displayName>LONG_LOCALIDADE</displayName>
</SimpleField>
</Schema>
<Schema name="Município" id="kml_schema_ft_Município">
<SimpleField type="xsd:string" name="CD_UF">
<displayName>CD_UF</displayName>
</SimpleField>
<SimpleField type="xsd:string" name="NM_UF">
<displayName>NM_UF</displayName>
</SimpleField>
<SimpleField type="xsd:string" name="CD_MUN">
<displayName>CD_MUN</displayName>
</SimpleField>
<SimpleField type="xsd:string" name="NM_MUN">
<displayName>NM_MUN</displayName>
</SimpleField>
<SimpleField type="xsd:string" name="CD_RGINT">
<displayName>CD_RGINT</displayName>
</SimpleField>
<SimpleField type="xsd:string" name="NM_RGINT">
<displayName>NM_RGINT</displayName>
</SimpleField>
<SimpleField type="xsd:string" name="CD_RGI">
<displayName>CD_RGI</displayName>
</SimpleField>
<SimpleField type="xsd:string" name="NM_RGI">
<displayName>NM_RGI</displayName>
</SimpleField>
</Schema>
<Folder id="01. Cidade">
<name>01. Cidade</name>
<Folder id="01.03. Sede Municipal">
<name>01.03. Sede Municipal</name>
<Placemark id="01.03. Sede Municipal">
<name>Itajá [2404853]</name>
<visibility>1</visibility>
<snippet> </snippet>
<description>&lt;center&gt;&lt;table&gt;&lt;tr&gt;&lt;th colspan='2' align='center'&gt;&lt;em&gt;Atributos&lt;/em&gt;&lt;/th&gt;&lt;/tr&gt;&lt;tr bgcolor="#E3E3F3"&gt;
&lt;th&gt;CD_UF&lt;/th&gt;
&lt;td&gt;24&lt;/td&gt;
&lt;/tr&gt;&lt;tr bgcolor=""&gt;
&lt;th&gt;NM_UF&lt;/th&gt;
&lt;td&gt;Rio Grande do Norte&lt;/td&gt;
&lt;/tr&gt;&lt;tr bgcolor="#E3E3F3"&gt;
&lt;th&gt;SIGLA_UF&lt;/th&gt;
&lt;td&gt;RN&lt;/td&gt;
&lt;/tr&gt;&lt;tr bgcolor=""&gt;
&lt;th&gt;CD_MUN&lt;/th&gt;
&lt;td&gt;2404853&lt;/td&gt;
&lt;/tr&gt;&lt;tr bgcolor="#E3E3F3"&gt;
&lt;th&gt;NM_MUN&lt;/th&gt;
&lt;td&gt;Itajá&lt;/td&gt;
&lt;/tr&gt;&lt;tr bgcolor=""&gt;
&lt;th&gt;CD_RGINT&lt;/th&gt;
&lt;td&gt;2403&lt;/td&gt;
&lt;/tr&gt;&lt;tr bgcolor="#E3E3F3"&gt;
&lt;th&gt;NM_RGINT&lt;/th&gt;
&lt;td&gt;Mossoró&lt;/td&gt;
&lt;/tr&gt;&lt;tr bgcolor=""&gt;
&lt;th&gt;CD_RGI&lt;/th&gt;
&lt;td&gt;240011&lt;/td&gt;
&lt;/tr&gt;&lt;tr bgcolor="#E3E3F3"&gt;
&lt;th&gt;NM_RGI&lt;/th&gt;
&lt;td&gt;Açu&lt;/td&gt;
&lt;/tr&gt;&lt;tr bgcolor=""&gt;
&lt;th&gt;CT_LOCALIDADE&lt;/th&gt;
&lt;td&gt;Cidade&lt;/td&gt;
&lt;/tr&gt;&lt;tr bgcolor="#E3E3F3"&gt;
&lt;th&gt;SCT_LOCALIDADE&lt;/th&gt;
&lt;td&gt;Sede Municipal&lt;/td&gt;
&lt;/tr&gt;&lt;tr bgcolor=""&gt;
&lt;th&gt;CD_LOCALIDADE&lt;/th&gt;
&lt;td&gt;2404853&lt;/td&gt;
&lt;/tr&gt;&lt;tr bgcolor="#E3E3F3"&gt;
&lt;th&gt;NM_LOCALIDADE&lt;/th&gt;
&lt;td&gt;Itajá&lt;/td&gt;
&lt;/tr&gt;&lt;tr bgcolor=""&gt;
&lt;th&gt;LAT_LOCALIDADE&lt;/th&gt;
&lt;td&gt;-5.6435&lt;/td&gt;
&lt;/tr&gt;&lt;tr bgcolor="#E3E3F3"&gt;
&lt;th&gt;LONG_LOCALIDADE&lt;/th&gt;
&lt;td&gt;-36.871&lt;/td&gt;
&lt;/tr&gt;&lt;/table&gt;&lt;/center&gt;</description>
<Style>
<IconStyle>
<color>ff00aaff</color>
<scale>1.0</scale>
<Icon>
<href>http://maps.google.com/mapfiles/kml/shapes/placemark_circle.png</href>
</Icon>
</IconStyle>
<LabelStyle>
<scale>1.0</scale>
</LabelStyle>
<LineStyle>
<color>ffffffff</color>
<width>3</width>
<gx:labelVisibility>1</gx:labelVisibility>
</LineStyle>
<PolyStyle>
<color>00ffffff</color>
</PolyStyle>
</Style>
<ExtendedData>
<SchemaData schemaUrl="#kml_schema_ft_01._Cidade">
<SimpleData name="CD_UF">24</SimpleData>
<SimpleData name="NM_UF">Rio Grande do Norte</SimpleData>
<SimpleData name="SIGLA_UF">RN</SimpleData>
<SimpleData name="CD_MUN">2404853</SimpleData>
<SimpleData name="NM_MUN">Itajá</SimpleData>
<SimpleData name="CD_RGINT">2403</SimpleData>
<SimpleData name="NM_RGINT">Mossoró</SimpleData>
<SimpleData name="CD_RGI">240011</SimpleData>
<SimpleData name="NM_RGI">Açu</SimpleData>
<SimpleData name="CT_LOCALIDADE">Cidade</SimpleData>
<SimpleData name="SCT_LOCALIDADE">Sede Municipal</SimpleData>
<SimpleData name="CD_LOCALIDADE">2404853</SimpleData>
<SimpleData name="NM_LOCALIDADE">Itajá</SimpleData>
<SimpleData name="LAT_LOCALIDADE">-5.6435</SimpleData>
<SimpleData name="LONG_LOCALIDADE">-36.871</SimpleData>
</SchemaData>
</ExtendedData>
<Point>
<extrude>0</extrude>
<coordinates>-36.871011,-5.64345099981459,0.0</coordinates>
</Point>
</Placemark>
</Folder>
</Folder>
<Folder id="06. Povoados">
<name>06. Povoados</name>
<Placemark id="06. Povoados">
<name>Acauã [240485300001]</name>
<visibility>1</visibility>
<snippet> </snippet>
<description>&lt;center&gt;&lt;table&gt;&lt;tr&gt;&lt;th colspan='2' align='center'&gt;&lt;em&gt;Atributos&lt;/em&gt;&lt;/th&gt;&lt;/tr&gt;&lt;tr bgcolor="#E3E3F3"&gt;
&lt;th&gt;CD_UF&lt;/th&gt;
&lt;td&gt;24&lt;/td&gt;
&lt;/tr&gt;&lt;tr bgcolor=""&gt;
&lt;th&gt;NM_UF&lt;/th&gt;
&lt;td&gt;Rio Grande do Norte&lt;/td&gt;
&lt;/tr&gt;&lt;tr bgcolor="#E3E3F3"&gt;
&lt;th&gt;SIGLA_UF&lt;/th&gt;
&lt;td&gt;RN&lt;/td&gt;
&lt;/tr&gt;&lt;tr bgcolor=""&gt;
&lt;th&gt;CD_MUN&lt;/th&gt;
&lt;td&gt;2404853&lt;/td&gt;
&lt;/tr&gt;&lt;tr bgcolor="#E3E3F3"&gt;
&lt;th&gt;NM_MUN&lt;/th&gt;
&lt;td&gt;Itajá&lt;/td&gt;
&lt;/tr&gt;&lt;tr bgcolor=""&gt;
&lt;th&gt;CD_RGINT&lt;/th&gt;
&lt;td&gt;2403&lt;/td&gt;
&lt;/tr&gt;&lt;tr bgcolor="#E3E3F3"&gt;
&lt;th&gt;NM_RGINT&lt;/th&gt;
&lt;td&gt;Mossoró&lt;/td&gt;
&lt;/tr&gt;&lt;tr bgcolor=""&gt;
&lt;th&gt;CD_RGI&lt;/th&gt;
&lt;td&gt;240011&lt;/td&gt;
&lt;/tr&gt;&lt;tr bgcolor="#E3E3F3"&gt;
&lt;th&gt;NM_RGI&lt;/th&gt;
&lt;td&gt;Açu&lt;/td&gt;
&lt;/tr&gt;&lt;tr bgcolor=""&gt;
&lt;th&gt;CT_LOCALIDADE&lt;/th&gt;
&lt;td&gt;Povoado&lt;/td&gt;
&lt;/tr&gt;&lt;tr bgcolor="#E3E3F3"&gt;
&lt;th&gt;CD_LOCALIDADE&lt;/th&gt;
&lt;td&gt;240485300001&lt;/td&gt;
&lt;/tr&gt;&lt;tr bgcolor=""&gt;
&lt;th&gt;NM_LOCALIDADE&lt;/th&gt;
&lt;td&gt;Acauã&lt;/td&gt;
&lt;/tr&gt;&lt;tr bgcolor="#E3E3F3"&gt;
&lt;th&gt;LAT_LOCALIDADE&lt;/th&gt;
&lt;td&gt;-5.616&lt;/td&gt;
&lt;/tr&gt;&lt;tr bgcolor=""&gt;
&lt;th&gt;LONG_LOCALIDADE&lt;/th&gt;
&lt;td&gt;-36.8801&lt;/td&gt;
&lt;/tr&gt;&lt;/table&gt;&lt;/center&gt;</description>
<Style>
<IconStyle>
<color>ff00ff54</color>
<scale>0.8</scale>
<Icon>
<href>http://maps.google.com/mapfiles/kml/shapes/placemark_circle.png</href>
</Icon>
</IconStyle>
<LabelStyle>
<scale>0.8</scale>
</LabelStyle>
<LineStyle>
<color>72ff54ff</color>
<width>1.0</width>
<gx:labelVisibility>1</gx:labelVisibility>
</LineStyle>
<PolyStyle>
<color>66ff54ff</color>
</PolyStyle>
</Style>
<ExtendedData>
<SchemaData schemaUrl="#kml_schema_ft_Povoados">
<SimpleData name="CD_UF">24</SimpleData>
<SimpleData name="NM_UF">Rio Grande do Norte</SimpleData>
<SimpleData name="SIGLA_UF">RN</SimpleData>
<SimpleData name="CD_MUN">2404853</SimpleData>
<SimpleData name="NM_MUN">Itajá</SimpleData>
<SimpleData name="CD_RGINT">2403</SimpleData>
<SimpleData name="NM_RGINT">Mossoró</SimpleData>
<SimpleData name="CD_RGI">240011</SimpleData>
<SimpleData name="NM_RGI">Açu</SimpleData>
<SimpleData name="CT_LOCALIDADE">Povoado</SimpleData>
<SimpleData name="CD_LOCALIDADE">240485300001</SimpleData>
<SimpleData name="NM_LOCALIDADE">Acauã</SimpleData>
<SimpleData name="LAT_LOCALIDADE">-5.616</SimpleData>
<SimpleData name="LONG_LOCALIDADE">-36.8801</SimpleData>
</SchemaData>
</ExtendedData>
<Point>
<extrude>0</extrude>
<coordinates>-36.8801318273809,-5.61601896410119,0.0</coordinates>
</Point>
</Placemark>
</Folder>
<Folder id="13. Referência">
<name>13. Referência</name>
<Placemark id="13. Referência">
<name>Itajá [2404853]</name>
<visibility>1</visibility>
<snippet> </snippet>
<description>&lt;center&gt;&lt;table&gt;&lt;tr&gt;&lt;th colspan='2' align='center'&gt;&lt;em&gt;Attributes&lt;/em&gt;&lt;/th&gt;&lt;/tr&gt;&lt;tr bgcolor="#E3E3F3"&gt;
&lt;th&gt;CD_UF&lt;/th&gt;
&lt;td&gt;24&lt;/td&gt;
&lt;/tr&gt;&lt;tr bgcolor=""&gt;
&lt;th&gt;NM_UF&lt;/th&gt;
&lt;td&gt;Rio Grande do Norte&lt;/td&gt;
&lt;/tr&gt;&lt;tr bgcolor="#E3E3F3"&gt;
&lt;th&gt;CD_MUN&lt;/th&gt;
&lt;td&gt;2404853&lt;/td&gt;
&lt;/tr&gt;&lt;tr bgcolor=""&gt;
&lt;th&gt;NM_MUN&lt;/th&gt;
&lt;td&gt;Itajá&lt;/td&gt;
&lt;/tr&gt;&lt;tr bgcolor="#E3E3F3"&gt;
&lt;th&gt;CD_RGINT&lt;/th&gt;
&lt;td&gt;2403&lt;/td&gt;
&lt;/tr&gt;&lt;tr bgcolor=""&gt;
&lt;th&gt;NM_RGINT&lt;/th&gt;
&lt;td&gt;Mossoró&lt;/td&gt;
&lt;/tr&gt;&lt;tr bgcolor="#E3E3F3"&gt;
&lt;th&gt;CD_RGI&lt;/th&gt;
&lt;td&gt;240011&lt;/td&gt;
&lt;/tr&gt;&lt;tr bgcolor=""&gt;
&lt;th&gt;NM_RGI&lt;/th&gt;
&lt;td&gt;Açu&lt;/td&gt;
&lt;/tr&gt;&lt;/table&gt;&lt;/center&gt;</description>
<Style>
<IconStyle>
<scale>0.7</scale>
</IconStyle>
<LabelStyle>
<scale>0.7</scale>
</LabelStyle>
<LineStyle>
<color>ffffffff</color>
<width>3</width>
<gx:labelVisibility>1</gx:labelVisibility>
</LineStyle>
<PolyStyle>
<color>00ffffff</color>
</PolyStyle>
</Style>
<ExtendedData>
<SchemaData schemaUrl="#kml_schema_ft_Município">
<SimpleData name="CD_UF">24</SimpleData>
<SimpleData name="NM_UF">Rio Grande do Norte</SimpleData>
<SimpleData name="CD_MUN">2404853</SimpleData>
<SimpleData name="NM_MUN">Itajá</SimpleData>
<SimpleData name="CD_RGINT">2403</SimpleData>
<SimpleData name="NM_RGINT">Mossoró</SimpleData>
<SimpleData name="CD_RGI">240011</SimpleData>
<SimpleData name="NM_RGI">Açu</SimpleData>
</SchemaData>
</ExtendedData>
<MultiGeometry>
<Polygon>
<extrude>0</extrude>
<tessellate>1</tessellate>
<outerBoundaryIs>
<LinearRing>
<coordinates>-36.883276,-5.66922549981375,0.0 -36.8822258,-5.65611319981418,0.0 -36.8817382,-5.65297699981428,0.0 -36.8816669,-5.65121499981434,0.0 -36.8818967,-5.65033549981437,0.0 -36.8834907,-5.64806269981444,0.0 -36.8839478,-5.64674339981448,0.0 -36.884106,-5.64557079981452,0.0 -36.8840329,-5.64410329981457,0.0 -36.8833673,-5.64057579981468,0.0 -36.8834449,-5.63962179981471,0.0 -36.8842032,-5.63852229981475,0.0 -36.88534,-5.63771939981478,0.0 -36.888137,-5.63633429981482,0.0 -36.8892069,-5.63508079981486,0.0 -36.8922334,-5.630842899815,0.0 -36.8924623,-5.63010959981502,0.0 -36.8914199,-5.62672739981513,0.0 -36.8911282,-5.62327789981524,0.0 -36.8921187,-5.62124079981531,0.0 -36.89261,-5.61718179981544,0.0 -36.8938736,-5.61575859981549,0.0 -36.894465,-5.61474009981552,0.0 -36.8948047,-5.61368159981555,0.0 -36.8950609,-5.6122136998156,0.0 -36.8953285,-5.60793099981574,0.0 -36.8957095,-5.60666579981578,0.0 -36.8975261,-5.60348229981589,0.0 -36.860365,-5.62130109981531,0.0 -36.8158933,-5.64262549981462,0.0 -36.7509838,-5.64684849981448,0.0 -36.751141,-5.64803099981444,0.0 -36.7508564,-5.64871799981442,0.0 -36.7485141,-5.65149309981433,0.0 -36.748561,-5.6523253998143,0.0 -36.7484358,-5.65334839981427,0.0 -36.7481618,-5.65377769981426,0.0 -36.7476549,-5.65417089981424,0.0 -36.7470165,-5.65437439981424,0.0 -36.7447898,-5.65457069981423,0.0 -36.7431265,-5.6554243998142,0.0 -36.7422072,-5.65566139981419,0.0 -36.7400139,-5.6556196998142,0.0 -36.7394502,-5.65568499981419,0.0 -36.7391312,-5.65595899981419,0.0 -36.7388882,-5.65649209981417,0.0 -36.7388448,-5.65705699981415,0.0 -36.7394403,-5.65881969981409,0.0 -36.7396462,-5.65991179981406,0.0 -36.7395731,-5.66053029981404,0.0 -36.7385397,-5.66225179981398,0.0 -36.7385036,-5.66293189981396,0.0 -36.7387996,-5.66373569981393,0.0 -36.7398007,-5.66516899981389,0.0 -36.7400187,-5.66571789981387,0.0 -36.7397419,-5.66691139981383,0.0 -36.7391031,-5.66739519981382,0.0 -36.7384213,-5.66756959981381,0.0 -36.7356473,-5.66729309981382,0.0 -36.734645,-5.66799759981379,0.0 -36.7343692,-5.66865879981377,0.0 -36.7346807,-5.67034159981372,0.0 -36.7346333,-5.6709157998137,0.0 -36.7332612,-5.67298929981363,0.0 -36.7328928,-5.6739601998136,0.0 -36.7325102,-5.67886619981344,0.0 -36.7327892,-5.68175369981335,0.0 -36.7323461,-5.68345039981329,0.0 -36.7317648,-5.68429229981327,0.0 -36.728162,-5.68800429981315,0.0 -36.7256295,-5.69115039981304,0.0 -36.7251438,-5.69152589981303,0.0 -36.7236867,-5.69218169981301,0.0 -36.7213055,-5.69372499981296,0.0 -36.7169465,-5.69370899981296,0.0 -36.7161214,-5.69398739981295,0.0 -36.7151498,-5.69459729981293,0.0 -36.7146609,-5.69525479981291,0.0 -36.7146597,-5.69582079981289,0.0 -36.7152378,-5.69781229981283,0.0 -36.7153276,-5.6986499998128,0.0 -36.7151304,-5.69945089981278,0.0 -36.71474,-5.70001439981276,0.0 -36.7140135,-5.70020029981275,0.0 -36.7115897,-5.70019129981275,0.0 -36.709653,-5.69985179981276,0.0 -36.7082943,-5.69989329981276,0.0 -36.7069881,-5.70007729981276,0.0 -36.7045661,-5.70114999981272,0.0 -36.7035893,-5.70142999981271,0.0 -36.7026797,-5.70143329981271,0.0 -36.7046175,-5.70296879981266,0.0 -36.7083357,-5.70390989981263,0.0 -36.7141278,-5.70894009981247,0.0 -36.7156966,-5.70999169981243,0.0 -36.7207484,-5.7141344998123,0.0 -36.7223949,-5.71583149981225,0.0 -36.7252275,-5.71950819981212,0.0 -36.7275074,-5.72312229981201,0.0 -36.729624,-5.72594079981191,0.0 -36.7377061,-5.73308319981169,0.0 -36.7417369,-5.73606969981159,0.0 -36.7446868,-5.73959619981148,0.0 -36.7522914,-5.75330519981103,0.0 -36.7548806,-5.75855559981086,0.0 -36.7554698,-5.75901069981084,0.0 -36.7563778,-5.75935459981083,0.0 -36.757053,-5.75919239981084,0.0 -36.7601494,-5.75657429981092,0.0 -36.7612472,-5.75633169981093,0.0 -36.762176,-5.75658359981092,0.0 -36.763273,-5.7573268998109,0.0 -36.7663158,-5.76245389981074,0.0 -36.7674549,-5.76303309981072,0.0 -36.7694796,-5.76365619981069,0.0 -36.7711283,-5.76391249981069,0.0 -36.7727756,-5.76391779981069,0.0 -36.7760519,-5.76362219981069,0.0 -36.7785467,-5.76280959981072,0.0 -36.7798178,-5.76187069981075,0.0 -36.7853972,-5.75566719981095,0.0 -36.7867102,-5.75489299981098,0.0 -36.7880643,-5.75456849981099,0.0 -36.7897429,-5.75516849981097,0.0 -36.7944549,-5.75672089981092,0.0 -36.7955688,-5.75665789981092,0.0 -36.7964715,-5.75612029981094,0.0 -36.7982448,-5.75602609981094,0.0 -36.7997014,-5.75630099981093,0.0 -36.8009506,-5.75711719981091,0.0 -36.803035,-5.75712619981091,0.0 -36.8034156,-5.75694929981091,0.0 -36.803803,-5.75676919981092,0.0 -36.8050521,-5.75618789981094,0.0 -36.8054826,-5.75581249981095,0.0 -36.8073877,-5.754151299811,0.0 -36.811304,-5.75155759981109,0.0 -36.8120029,-5.75065999981112,0.0 -36.8128648,-5.74758239981121,0.0 -36.8140721,-5.74551919981128,0.0 -36.8155423,-5.74447399981132,0.0 -36.817246,-5.74402779981133,0.0 -36.8208759,-5.74426909981132,0.0 -36.823621,-5.74394109981133,0.0 -36.826021,-5.74282209981137,0.0 -36.8274947,-5.74140109981142,0.0 -36.8284275,-5.73982509981147,0.0 -36.8299818,-5.73795339981153,0.0 -36.8317616,-5.73720699981155,0.0 -36.8357413,-5.73726069981155,0.0 -36.8377558,-5.73651669981157,0.0 -36.8386072,-5.7356171998116,0.0 -36.8407853,-5.73217079981172,0.0 -36.8426841,-5.73048549981177,0.0 -36.8442337,-5.7294387998118,0.0 -36.8462416,-5.72728889981187,0.0 -36.8477977,-5.72511649981194,0.0 -36.8491923,-5.72414489981197,0.0 -36.8513962,-5.72396469981198,0.0 -36.8532483,-5.72427229981197,0.0 -36.8560278,-5.72526039981194,0.0 -36.8592693,-5.72617329981191,0.0 -36.8616687,-5.72565739981193,0.0 -36.8630253,-5.72442139981197,0.0 -36.8652768,-5.72195169981205,0.0 -36.867214,-5.7204541998121,0.0 -36.8693034,-5.71940959981213,0.0 -36.873367,-5.71796069981218,0.0 -36.8763056,-5.7172927998122,0.0 -36.8795573,-5.71610379981223,0.0 -36.8838522,-5.7142038998123,0.0 -36.8853999,-5.71383229981231,0.0 -36.8877174,-5.7142162998123,0.0 -36.8895724,-5.7140742998123,0.0 -36.8935658,-5.7108360998124,0.0 -36.8897734,-5.70557339981258,0.0 -36.8878204,-5.70321719981265,0.0 -36.887073,-5.70056709981274,0.0 -36.8869482,-5.69382049981296,0.0 -36.8874065,-5.69220339981301,0.0 -36.887565,-5.69044089981307,0.0 -36.8869648,-5.68882489981312,0.0 -36.8860641,-5.68764649981316,0.0 -36.8847151,-5.68499849981324,0.0 -36.8839692,-5.68235199981333,0.0 -36.8835511,-5.67266009981364,0.0 -36.883276,-5.66922549981375,0.0</coordinates>
</LinearRing>
</outerBoundaryIs>
</Polygon>
</MultiGeometry>
</Placemark>
</Folder>
</Document></kml>
