<?xml version='1.0' encoding='UTF-8'?>
<kml xmlns:xsd="http://www.w3.org/2001/XMLSchema" xmlns:gx="http://www.google.com/kml/ext/2.2" xmlns:atom="http://www.w3.org/2005/Atom" xmlns="http://www.opengis.net/kml/2.2">
<Document>
<name>coivaras_2202737_localidades_2022</name>
<visibility>1</visibility>
<Schema name="Agrovilas do PA" id="kml_schema_ft_Agrovilas_do_PA">
<SimpleField type="xsd:string" name="CD_UF">
<displayName>CD_UF</displayName>
</SimpleField>
<SimpleField type="xsd:string" name="NM_UF">
<displayName>NM_UF</displayName>
</SimpleField>
<SimpleField type="xsd:string" name="SIGLA_UF">
<displayName>SIGLA_UF</displayName>
</SimpleField>
<SimpleField type="xsd:string" name="CD_MUN">
<displayName>CD_MUN</displayName>
</SimpleField>
<SimpleField type="xsd:string" name="NM_MUN">
<displayName>NM_MUN</displayName>
</SimpleField>
<SimpleField type="xsd:string" name="CD_RGINT">
<displayName>CD_RGINT</displayName>
</SimpleField>
<SimpleField type="xsd:string" name="NM_RGINT">
<displayName>NM_RGINT</displayName>
</SimpleField>
<SimpleField type="xsd:string" name="CD_RGI">
<displayName>CD_RGI</displayName>
</SimpleField>
<SimpleField type="xsd:string" name="NM_RGI">
<displayName>NM_RGI</displayName>
</SimpleField>
<SimpleField type="xsd:string" name="CT_LOCALIDADE">
<displayName>CT_LOCALIDADE</displayName>
</SimpleField>
<SimpleField type="xsd:string" name="CD_LOCALIDADE">
<displayName>CD_LOCALIDADE</displayName>
</SimpleField>
<SimpleField type="xsd:string" name="NM_LOCALIDADE">
<displayName>NM_LOCALIDADE</displayName>
</SimpleField>
<SimpleField type="xsd:string" name="LAT_LOCALIDADE">
<displayName>LAT_LOCALIDADE</displayName>
</SimpleField>
<SimpleField type="xsd:string" name="LONG_LOCALIDADE">
<displayName>LONG_LOCALIDADE</displayName>
</SimpleField>
</Schema>
<Schema name="Lugarejos" id="kml_schema_ft_Lugarejos">
<SimpleField type="xsd:string" name="CD_UF">
<displayName>CD_UF</displayName>
</SimpleField>
<SimpleField type="xsd:string" name="NM_UF">
<displayName>NM_UF</displayName>
</SimpleField>
<SimpleField type="xsd:string" name="SIGLA_UF">
<displayName>SIGLA_UF</displayName>
</SimpleField>
<SimpleField type="xsd:string" name="CD_MUN">
<displayName>CD_MUN</displayName>
</SimpleField>
<SimpleField type="xsd:string" name="NM_MUN">
<displayName>NM_MUN</displayName>
</SimpleField>
<SimpleField type="xsd:string" name="CD_RGINT">
<displayName>CD_RGINT</displayName>
</SimpleField>
<SimpleField type="xsd:string" name="NM_RGINT">
<displayName>NM_RGINT</displayName>
</SimpleField>
<SimpleField type="xsd:string" name="CD_RGI">
<displayName>CD_RGI</displayName>
</SimpleField>
<SimpleField type="xsd:string" name="NM_RGI">
<displayName>NM_RGI</displayName>
</SimpleField>
<SimpleField type="xsd:string" name="CT_LOCALIDADE">
<displayName>CT_LOCALIDADE</displayName>
</SimpleField>
<SimpleField type="xsd:string" name="CD_LOCALIDADE">
<displayName>CD_LOCALIDADE</displayName>
</SimpleField>
<SimpleField type="xsd:string" name="NM_LOCALIDADE">
<displayName>NM_LOCALIDADE</displayName>
</SimpleField>
<SimpleField type="xsd:string" name="LAT_LOCALIDADE">
<displayName>LAT_LOCALIDADE</displayName>
</SimpleField>
<SimpleField type="xsd:string" name="LONG_LOCALIDADE">
<displayName>LONG_LOCALIDADE</displayName>
</SimpleField>
</Schema>
<Schema name="Localidades" id="kml_schema_ft_Localidades">
<SimpleField type="xsd:string" name="CD_UF">
<displayName>CD_UF</displayName>
</SimpleField>
<SimpleField type="xsd:string" name="NM_UF">
<displayName>NM_UF</displayName>
</SimpleField>
<SimpleField type="xsd:string" name="SIGLA_UF">
<displayName>SIGLA_UF</displayName>
</SimpleField>
<SimpleField type="xsd:string" name="CD_MUN">
<displayName>CD_MUN</displayName>
</SimpleField>
<SimpleField type="xsd:string" name="NM_MUN">
<displayName>NM_MUN</displayName>
</SimpleField>
<SimpleField type="xsd:string" name="CD_RGINT">
<displayName>CD_RGINT</displayName>
</SimpleField>
<SimpleField type="xsd:string" name="NM_RGINT">
<displayName>NM_RGINT</displayName>
</SimpleField>
<SimpleField type="xsd:string" name="CD_RGI">
<displayName>CD_RGI</displayName>
</SimpleField>
<SimpleField type="xsd:string" name="NM_RGI">
<displayName>NM_RGI</displayName>
</SimpleField>
<SimpleField type="xsd:string" name="CT_LOCALIDADE">
<displayName>CT_LOCALIDADE</displayName>
</SimpleField>
<SimpleField type="xsd:string" name="SCT_LOCALIDADE">
<displayName>SCT_LOCALIDADE</displayName>
</SimpleField>
<SimpleField type="xsd:string" name="CD_LOCALIDADE">
<displayName>CD_LOCALIDADE</displayName>
</SimpleField>
<SimpleField type="xsd:string" name="NM_LOCALIDADE">
<displayName>NM_LOCALIDADE</displayName>
</SimpleField>
</Schema>
<Schema name="01. Cidade" id="kml_schema_ft_01._Cidade">
<SimpleField type="xsd:string" name="CD_UF">
<displayName>CD_UF</displayName>
</SimpleField>
<SimpleField type="xsd:string" name="NM_UF">
<displayName>NM_UF</displayName>
</SimpleField>
<SimpleField type="xsd:string" name="SIGLA_UF">
<displayName>SIGLA_UF</displayName>
</SimpleField>
<SimpleField type="xsd:string" name="CD_MUN">
<displayName>CD_MUN</displayName>
</SimpleField>
<SimpleField type="xsd:string" name="NM_MUN">
<displayName>NM_MUN</displayName>
</SimpleField>
<SimpleField type="xsd:string" name="CD_RGINT">
<displayName>CD_RGINT</displayName>
</SimpleField>
<SimpleField type="xsd:string" name="NM_RGINT">
<displayName>NM_RGINT</displayName>
</SimpleField>
<SimpleField type="xsd:string" name="CD_RGI">
<displayName>CD_RGI</displayName>
</SimpleField>
<SimpleField type="xsd:string" name="NM_RGI">
<displayName>NM_RGI</displayName>
</SimpleField>
<SimpleField type="xsd:string" name="CT_LOCALIDADE">
<displayName>CT_LOCALIDADE</displayName>
</SimpleField>
<SimpleField type="xsd:string" name="SCT_LOCALIDADE">
<displayName>SCT_LOCALIDADE</displayName>
</SimpleField>
<SimpleField type="xsd:string" name="CD_LOCALIDADE">
<displayName>CD_LOCALIDADE</displayName>
</SimpleField>
<SimpleField type="xsd:string" name="NM_LOCALIDADE">
<displayName>NM_LOCALIDADE</displayName>
</SimpleField>
<SimpleField type="xsd:string" name="LAT_LOCALIDADE">
<displayName>LAT_LOCALIDADE</displayName>
</SimpleField>
<SimpleField type="xsd:string" name="LONG_LOCALIDADE">
<displayName>LONG_LOCALIDADE</displayName>
</SimpleField>
</Schema>
<Schema name="Município" id="kml_schema_ft_Município">
<SimpleField type="xsd:string" name="CD_UF">
<displayName>CD_UF</displayName>
</SimpleField>
<SimpleField type="xsd:string" name="NM_UF">
<displayName>NM_UF</displayName>
</SimpleField>
<SimpleField type="xsd:string" name="CD_MUN">
<displayName>CD_MUN</displayName>
</SimpleField>
<SimpleField type="xsd:string" name="NM_MUN">
<displayName>NM_MUN</displayName>
</SimpleField>
<SimpleField type="xsd:string" name="CD_RGINT">
<displayName>CD_RGINT</displayName>
</SimpleField>
<SimpleField type="xsd:string" name="NM_RGINT">
<displayName>NM_RGINT</displayName>
</SimpleField>
<SimpleField type="xsd:string" name="CD_RGI">
<displayName>CD_RGI</displayName>
</SimpleField>
<SimpleField type="xsd:string" name="NM_RGI">
<displayName>NM_RGI</displayName>
</SimpleField>
</Schema>
<Folder id="01. Cidade">
<name>01. Cidade</name>
<Folder id="01.03. Sede Municipal">
<name>01.03. Sede Municipal</name>
<Placemark id="01.03. Sede Municipal">
<name>Coivaras [2202737]</name>
<visibility>1</visibility>
<snippet> </snippet>
<description>&lt;center&gt;&lt;table&gt;&lt;tr&gt;&lt;th colspan='2' align='center'&gt;&lt;em&gt;Atributos&lt;/em&gt;&lt;/th&gt;&lt;/tr&gt;&lt;tr bgcolor="#E3E3F3"&gt;
&lt;th&gt;CD_UF&lt;/th&gt;
&lt;td&gt;22&lt;/td&gt;
&lt;/tr&gt;&lt;tr bgcolor=""&gt;
&lt;th&gt;NM_UF&lt;/th&gt;
&lt;td&gt;Piauí&lt;/td&gt;
&lt;/tr&gt;&lt;tr bgcolor="#E3E3F3"&gt;
&lt;th&gt;SIGLA_UF&lt;/th&gt;
&lt;td&gt;PI&lt;/td&gt;
&lt;/tr&gt;&lt;tr bgcolor=""&gt;
&lt;th&gt;CD_MUN&lt;/th&gt;
&lt;td&gt;2202737&lt;/td&gt;
&lt;/tr&gt;&lt;tr bgcolor="#E3E3F3"&gt;
&lt;th&gt;NM_MUN&lt;/th&gt;
&lt;td&gt;Coivaras&lt;/td&gt;
&lt;/tr&gt;&lt;tr bgcolor=""&gt;
&lt;th&gt;CD_RGINT&lt;/th&gt;
&lt;td&gt;2201&lt;/td&gt;
&lt;/tr&gt;&lt;tr bgcolor="#E3E3F3"&gt;
&lt;th&gt;NM_RGINT&lt;/th&gt;
&lt;td&gt;Teresina&lt;/td&gt;
&lt;/tr&gt;&lt;tr bgcolor=""&gt;
&lt;th&gt;CD_RGI&lt;/th&gt;
&lt;td&gt;220001&lt;/td&gt;
&lt;/tr&gt;&lt;tr bgcolor="#E3E3F3"&gt;
&lt;th&gt;NM_RGI&lt;/th&gt;
&lt;td&gt;Teresina&lt;/td&gt;
&lt;/tr&gt;&lt;tr bgcolor=""&gt;
&lt;th&gt;CT_LOCALIDADE&lt;/th&gt;
&lt;td&gt;Cidade&lt;/td&gt;
&lt;/tr&gt;&lt;tr bgcolor="#E3E3F3"&gt;
&lt;th&gt;SCT_LOCALIDADE&lt;/th&gt;
&lt;td&gt;Sede Municipal&lt;/td&gt;
&lt;/tr&gt;&lt;tr bgcolor=""&gt;
&lt;th&gt;CD_LOCALIDADE&lt;/th&gt;
&lt;td&gt;2202737&lt;/td&gt;
&lt;/tr&gt;&lt;tr bgcolor="#E3E3F3"&gt;
&lt;th&gt;NM_LOCALIDADE&lt;/th&gt;
&lt;td&gt;Coivaras&lt;/td&gt;
&lt;/tr&gt;&lt;tr bgcolor=""&gt;
&lt;th&gt;LAT_LOCALIDADE&lt;/th&gt;
&lt;td&gt;-5.0903&lt;/td&gt;
&lt;/tr&gt;&lt;tr bgcolor="#E3E3F3"&gt;
&lt;th&gt;LONG_LOCALIDADE&lt;/th&gt;
&lt;td&gt;-42.2053&lt;/td&gt;
&lt;/tr&gt;&lt;/table&gt;&lt;/center&gt;</description>
<Style>
<IconStyle>
<color>ff00aaff</color>
<scale>1.0</scale>
<Icon>
<href>http://maps.google.com/mapfiles/kml/shapes/placemark_circle.png</href>
</Icon>
</IconStyle>
<LabelStyle>
<scale>1.0</scale>
</LabelStyle>
<LineStyle>
<color>ffffffff</color>
<width>3</width>
<gx:labelVisibility>1</gx:labelVisibility>
</LineStyle>
<PolyStyle>
<color>00ffffff</color>
</PolyStyle>
</Style>
<ExtendedData>
<SchemaData schemaUrl="#kml_schema_ft_01._Cidade">
<SimpleData name="CD_UF">22</SimpleData>
<SimpleData name="NM_UF">Piauí</SimpleData>
<SimpleData name="SIGLA_UF">PI</SimpleData>
<SimpleData name="CD_MUN">2202737</SimpleData>
<SimpleData name="NM_MUN">Coivaras</SimpleData>
<SimpleData name="CD_RGINT">2201</SimpleData>
<SimpleData name="NM_RGINT">Teresina</SimpleData>
<SimpleData name="CD_RGI">220001</SimpleData>
<SimpleData name="NM_RGI">Teresina</SimpleData>
<SimpleData name="CT_LOCALIDADE">Cidade</SimpleData>
<SimpleData name="SCT_LOCALIDADE">Sede Municipal</SimpleData>
<SimpleData name="CD_LOCALIDADE">2202737</SimpleData>
<SimpleData name="NM_LOCALIDADE">Coivaras</SimpleData>
<SimpleData name="LAT_LOCALIDADE">-5.0903</SimpleData>
<SimpleData name="LONG_LOCALIDADE">-42.2053</SimpleData>
</SchemaData>
</ExtendedData>
<Point>
<extrude>0</extrude>
<coordinates>-42.2053,-5.09029999983256,0.0</coordinates>
</Point>
</Placemark>
</Folder>
</Folder>
<Folder id="08. Lugarejos">
<name>08. Lugarejos</name>
<Placemark id="localidades">
<name>Agrovila do PA Bom Passar [220273700007]</name>
<visibility>1</visibility>
<snippet> </snippet>
<description>&lt;center&gt;&lt;table&gt;&lt;tr&gt;&lt;th colspan='2' align='center'&gt;&lt;em&gt;Attributes&lt;/em&gt;&lt;/th&gt;&lt;/tr&gt;&lt;tr bgcolor="#E3E3F3"&gt;
&lt;th&gt;CD_UF&lt;/th&gt;
&lt;td&gt;22&lt;/td&gt;
&lt;/tr&gt;&lt;tr bgcolor=""&gt;
&lt;th&gt;NM_UF&lt;/th&gt;
&lt;td&gt;Piauí&lt;/td&gt;
&lt;/tr&gt;&lt;tr bgcolor="#E3E3F3"&gt;
&lt;th&gt;SIGLA_UF&lt;/th&gt;
&lt;td&gt;PI&lt;/td&gt;
&lt;/tr&gt;&lt;tr bgcolor=""&gt;
&lt;th&gt;CD_MUN&lt;/th&gt;
&lt;td&gt;2202737&lt;/td&gt;
&lt;/tr&gt;&lt;tr bgcolor="#E3E3F3"&gt;
&lt;th&gt;NM_MUN&lt;/th&gt;
&lt;td&gt;Coivaras&lt;/td&gt;
&lt;/tr&gt;&lt;tr bgcolor=""&gt;
&lt;th&gt;CD_RGINT&lt;/th&gt;
&lt;td&gt;2201&lt;/td&gt;
&lt;/tr&gt;&lt;tr bgcolor="#E3E3F3"&gt;
&lt;th&gt;NM_RGINT&lt;/th&gt;
&lt;td&gt;Teresina&lt;/td&gt;
&lt;/tr&gt;&lt;tr bgcolor=""&gt;
&lt;th&gt;CD_RGI&lt;/th&gt;
&lt;td&gt;220001&lt;/td&gt;
&lt;/tr&gt;&lt;tr bgcolor="#E3E3F3"&gt;
&lt;th&gt;NM_RGI&lt;/th&gt;
&lt;td&gt;Teresina&lt;/td&gt;
&lt;/tr&gt;&lt;tr bgcolor=""&gt;
&lt;th&gt;CT_LOCALIDADE&lt;/th&gt;
&lt;td&gt;Lugarejo&lt;/td&gt;
&lt;/tr&gt;&lt;tr bgcolor="#E3E3F3"&gt;
&lt;th&gt;CD_LOCALIDADE&lt;/th&gt;
&lt;td&gt;220273700007&lt;/td&gt;
&lt;/tr&gt;&lt;tr bgcolor=""&gt;
&lt;th&gt;NM_LOCALIDADE&lt;/th&gt;
&lt;td&gt;Agrovila do PA Bom Passar&lt;/td&gt;
&lt;/tr&gt;&lt;tr bgcolor="#E3E3F3"&gt;
&lt;th&gt;LAT_LOCALIDADE&lt;/th&gt;
&lt;td&gt;-5.148&lt;/td&gt;
&lt;/tr&gt;&lt;tr bgcolor=""&gt;
&lt;th&gt;LONG_LOCALIDADE&lt;/th&gt;
&lt;td&gt;-42.3801&lt;/td&gt;
&lt;/tr&gt;&lt;/table&gt;&lt;/center&gt;</description>
<Style>
<IconStyle>
<color>ffffff00</color>
<scale>0.8</scale>
<Icon>
<href>http://maps.google.com/mapfiles/kml/shapes/placemark_circle.png</href>
</Icon>
</IconStyle>
<LabelStyle>
<scale>0.8</scale>
</LabelStyle>
<LineStyle>
<color>72ff54ff</color>
<width>1.0</width>
<gx:labelVisibility>1</gx:labelVisibility>
</LineStyle>
<PolyStyle>
<color>66ff54ff</color>
</PolyStyle>
</Style>
<ExtendedData>
<SchemaData schemaUrl="#kml_schema_ft_Lugarejos">
<SimpleData name="CD_UF">22</SimpleData>
<SimpleData name="NM_UF">Piauí</SimpleData>
<SimpleData name="SIGLA_UF">PI</SimpleData>
<SimpleData name="CD_MUN">2202737</SimpleData>
<SimpleData name="NM_MUN">Coivaras</SimpleData>
<SimpleData name="CD_RGINT">2201</SimpleData>
<SimpleData name="NM_RGINT">Teresina</SimpleData>
<SimpleData name="CD_RGI">220001</SimpleData>
<SimpleData name="NM_RGI">Teresina</SimpleData>
<SimpleData name="CT_LOCALIDADE">Lugarejo</SimpleData>
<SimpleData name="CD_LOCALIDADE">220273700007</SimpleData>
<SimpleData name="NM_LOCALIDADE">Agrovila do PA Bom Passar</SimpleData>
<SimpleData name="LAT_LOCALIDADE">-5.148</SimpleData>
<SimpleData name="LONG_LOCALIDADE">-42.3801</SimpleData>
</SchemaData>
</ExtendedData>
<Point>
<extrude>0</extrude>
<coordinates>-42.3800718300653,-5.14801651617055,0.0</coordinates>
</Point>
</Placemark>
</Folder>
<Folder id="11. Agrovilas do PA">
<name>11. Agrovilas do PA</name>
<Placemark id="localidades">
<name>Agrovila do PA Bom Passar [220273700007]</name>
<visibility>1</visibility>
<snippet> </snippet>
<description>&lt;center&gt;&lt;table&gt;&lt;tr&gt;&lt;th colspan='2' align='center'&gt;&lt;em&gt;Attributes&lt;/em&gt;&lt;/th&gt;&lt;/tr&gt;&lt;tr bgcolor="#E3E3F3"&gt;
&lt;th&gt;CD_UF&lt;/th&gt;
&lt;td&gt;22&lt;/td&gt;
&lt;/tr&gt;&lt;tr bgcolor=""&gt;
&lt;th&gt;NM_UF&lt;/th&gt;
&lt;td&gt;Piauí&lt;/td&gt;
&lt;/tr&gt;&lt;tr bgcolor="#E3E3F3"&gt;
&lt;th&gt;SIGLA_UF&lt;/th&gt;
&lt;td&gt;PI&lt;/td&gt;
&lt;/tr&gt;&lt;tr bgcolor=""&gt;
&lt;th&gt;CD_MUN&lt;/th&gt;
&lt;td&gt;2202737&lt;/td&gt;
&lt;/tr&gt;&lt;tr bgcolor="#E3E3F3"&gt;
&lt;th&gt;NM_MUN&lt;/th&gt;
&lt;td&gt;Coivaras&lt;/td&gt;
&lt;/tr&gt;&lt;tr bgcolor=""&gt;
&lt;th&gt;CD_RGINT&lt;/th&gt;
&lt;td&gt;2201&lt;/td&gt;
&lt;/tr&gt;&lt;tr bgcolor="#E3E3F3"&gt;
&lt;th&gt;NM_RGINT&lt;/th&gt;
&lt;td&gt;Teresina&lt;/td&gt;
&lt;/tr&gt;&lt;tr bgcolor=""&gt;
&lt;th&gt;CD_RGI&lt;/th&gt;
&lt;td&gt;220001&lt;/td&gt;
&lt;/tr&gt;&lt;tr bgcolor="#E3E3F3"&gt;
&lt;th&gt;NM_RGI&lt;/th&gt;
&lt;td&gt;Teresina&lt;/td&gt;
&lt;/tr&gt;&lt;tr bgcolor=""&gt;
&lt;th&gt;CT_LOCALIDADE&lt;/th&gt;
&lt;td&gt;Agrovila do PA&lt;/td&gt;
&lt;/tr&gt;&lt;tr bgcolor="#E3E3F3"&gt;
&lt;th&gt;CD_LOCALIDADE&lt;/th&gt;
&lt;td&gt;220273700007&lt;/td&gt;
&lt;/tr&gt;&lt;tr bgcolor=""&gt;
&lt;th&gt;NM_LOCALIDADE&lt;/th&gt;
&lt;td&gt;Agrovila do PA Bom Passar&lt;/td&gt;
&lt;/tr&gt;&lt;tr bgcolor="#E3E3F3"&gt;
&lt;th&gt;LAT_LOCALIDADE&lt;/th&gt;
&lt;td&gt;-5.148&lt;/td&gt;
&lt;/tr&gt;&lt;tr bgcolor=""&gt;
&lt;th&gt;LONG_LOCALIDADE&lt;/th&gt;
&lt;td&gt;-42.3801&lt;/td&gt;
&lt;/tr&gt;&lt;/table&gt;&lt;/center&gt;</description>
<Style>
<IconStyle>
<color>ff00aaff</color>
<scale>0.8</scale>
<Icon>
<href>http://maps.google.com/mapfiles/kml/shapes/placemark_circle.png</href>
</Icon>
</IconStyle>
<LabelStyle>
<scale>0.8</scale>
</LabelStyle>
<LineStyle>
<color>7200ffff</color>
<width>1.0</width>
<gx:labelVisibility>1</gx:labelVisibility>
</LineStyle>
<PolyStyle>
<color>6600ffff</color>
</PolyStyle>
</Style>
<ExtendedData>
<SchemaData schemaUrl="#kml_schema_ft_Agrovilas_do_PA">
<SimpleData name="CD_UF">22</SimpleData>
<SimpleData name="NM_UF">Piauí</SimpleData>
<SimpleData name="SIGLA_UF">PI</SimpleData>
<SimpleData name="CD_MUN">2202737</SimpleData>
<SimpleData name="NM_MUN">Coivaras</SimpleData>
<SimpleData name="CD_RGINT">2201</SimpleData>
<SimpleData name="NM_RGINT">Teresina</SimpleData>
<SimpleData name="CD_RGI">220001</SimpleData>
<SimpleData name="NM_RGI">Teresina</SimpleData>
<SimpleData name="CT_LOCALIDADE">Agrovila do PA</SimpleData>
<SimpleData name="CD_LOCALIDADE">220273700007</SimpleData>
<SimpleData name="NM_LOCALIDADE">Agrovila do PA Bom Passar</SimpleData>
<SimpleData name="LAT_LOCALIDADE">-5.148</SimpleData>
<SimpleData name="LONG_LOCALIDADE">-42.3801</SimpleData>
</SchemaData>
</ExtendedData>
<Point>
<extrude>0</extrude>
<coordinates>-42.3800718300653,-5.14801651617055,0.0</coordinates>
</Point>
</Placemark>
</Folder>
<Folder id="12. Outras Localidades">
<name>12. Outras Localidades</name>
<Placemark id="12. Outras Localidades">
<name>Estaca Zero [220273700001]</name>
<visibility>1</visibility>
<snippet> </snippet>
<description>&lt;center&gt;&lt;table&gt;&lt;tr&gt;&lt;th colspan='2' align='center'&gt;&lt;em&gt;Attributes&lt;/em&gt;&lt;/th&gt;&lt;/tr&gt;&lt;tr bgcolor="#E3E3F3"&gt;
&lt;th&gt;CD_UF&lt;/th&gt;
&lt;td&gt;22&lt;/td&gt;
&lt;/tr&gt;&lt;tr bgcolor=""&gt;
&lt;th&gt;NM_UF&lt;/th&gt;
&lt;td&gt;Piauí&lt;/td&gt;
&lt;/tr&gt;&lt;tr bgcolor="#E3E3F3"&gt;
&lt;th&gt;SIGLA_UF&lt;/th&gt;
&lt;td&gt;PI&lt;/td&gt;
&lt;/tr&gt;&lt;tr bgcolor=""&gt;
&lt;th&gt;CD_MUN&lt;/th&gt;
&lt;td&gt;2202737&lt;/td&gt;
&lt;/tr&gt;&lt;tr bgcolor="#E3E3F3"&gt;
&lt;th&gt;NM_MUN&lt;/th&gt;
&lt;td&gt;Coivaras&lt;/td&gt;
&lt;/tr&gt;&lt;tr bgcolor=""&gt;
&lt;th&gt;CD_RGINT&lt;/th&gt;
&lt;td&gt;2201&lt;/td&gt;
&lt;/tr&gt;&lt;tr bgcolor="#E3E3F3"&gt;
&lt;th&gt;NM_RGINT&lt;/th&gt;
&lt;td&gt;Teresina&lt;/td&gt;
&lt;/tr&gt;&lt;tr bgcolor=""&gt;
&lt;th&gt;CD_RGI&lt;/th&gt;
&lt;td&gt;220001&lt;/td&gt;
&lt;/tr&gt;&lt;tr bgcolor="#E3E3F3"&gt;
&lt;th&gt;NM_RGI&lt;/th&gt;
&lt;td&gt;Teresina&lt;/td&gt;
&lt;/tr&gt;&lt;tr bgcolor=""&gt;
&lt;th&gt;CT_LOCALIDADE&lt;/th&gt;
&lt;td&gt;Outras Localidades&lt;/td&gt;
&lt;/tr&gt;&lt;tr bgcolor="#E3E3F3"&gt;
&lt;th&gt;SCT_LOCALIDADE&lt;/th&gt;
&lt;td&gt;&lt;/td&gt;
&lt;/tr&gt;&lt;tr bgcolor=""&gt;
&lt;th&gt;CD_LOCALIDADE&lt;/th&gt;
&lt;td&gt;220273700001&lt;/td&gt;
&lt;/tr&gt;&lt;tr bgcolor="#E3E3F3"&gt;
&lt;th&gt;NM_LOCALIDADE&lt;/th&gt;
&lt;td&gt;Estaca Zero&lt;/td&gt;
&lt;/tr&gt;&lt;/table&gt;&lt;/center&gt;</description>
<Style>
<IconStyle>
<color>ff0069d3</color>
<scale>0.6</scale>
<Icon>
<href>http://maps.google.com/mapfiles/kml/shapes/placemark_circle.png</href>
</Icon>
</IconStyle>
<LabelStyle>
<scale>0.6</scale>
</LabelStyle>
<LineStyle>
<width>1.0</width>
<gx:labelVisibility>1</gx:labelVisibility>
</LineStyle>
</Style>
<ExtendedData>
<SchemaData schemaUrl="#kml_schema_ft_Localidades">
<SimpleData name="CD_UF">22</SimpleData>
<SimpleData name="NM_UF">Piauí</SimpleData>
<SimpleData name="SIGLA_UF">PI</SimpleData>
<SimpleData name="CD_MUN">2202737</SimpleData>
<SimpleData name="NM_MUN">Coivaras</SimpleData>
<SimpleData name="CD_RGINT">2201</SimpleData>
<SimpleData name="NM_RGINT">Teresina</SimpleData>
<SimpleData name="CD_RGI">220001</SimpleData>
<SimpleData name="NM_RGI">Teresina</SimpleData>
<SimpleData name="CT_LOCALIDADE">Outras Localidades</SimpleData>
<SimpleData name="CD_LOCALIDADE">220273700001</SimpleData>
<SimpleData name="NM_LOCALIDADE">Estaca Zero</SimpleData>
</SchemaData>
</ExtendedData>
<Point>
<extrude>0</extrude>
<coordinates>-42.3491308,-5.18976339982932,0.0</coordinates>
</Point>
</Placemark>
<Placemark id="12. Outras Localidades">
<name>Buriti do Padre [220273700002]</name>
<visibility>1</visibility>
<snippet> </snippet>
<description>&lt;center&gt;&lt;table&gt;&lt;tr&gt;&lt;th colspan='2' align='center'&gt;&lt;em&gt;Attributes&lt;/em&gt;&lt;/th&gt;&lt;/tr&gt;&lt;tr bgcolor="#E3E3F3"&gt;
&lt;th&gt;CD_UF&lt;/th&gt;
&lt;td&gt;22&lt;/td&gt;
&lt;/tr&gt;&lt;tr bgcolor=""&gt;
&lt;th&gt;NM_UF&lt;/th&gt;
&lt;td&gt;Piauí&lt;/td&gt;
&lt;/tr&gt;&lt;tr bgcolor="#E3E3F3"&gt;
&lt;th&gt;SIGLA_UF&lt;/th&gt;
&lt;td&gt;PI&lt;/td&gt;
&lt;/tr&gt;&lt;tr bgcolor=""&gt;
&lt;th&gt;CD_MUN&lt;/th&gt;
&lt;td&gt;2202737&lt;/td&gt;
&lt;/tr&gt;&lt;tr bgcolor="#E3E3F3"&gt;
&lt;th&gt;NM_MUN&lt;/th&gt;
&lt;td&gt;Coivaras&lt;/td&gt;
&lt;/tr&gt;&lt;tr bgcolor=""&gt;
&lt;th&gt;CD_RGINT&lt;/th&gt;
&lt;td&gt;2201&lt;/td&gt;
&lt;/tr&gt;&lt;tr bgcolor="#E3E3F3"&gt;
&lt;th&gt;NM_RGINT&lt;/th&gt;
&lt;td&gt;Teresina&lt;/td&gt;
&lt;/tr&gt;&lt;tr bgcolor=""&gt;
&lt;th&gt;CD_RGI&lt;/th&gt;
&lt;td&gt;220001&lt;/td&gt;
&lt;/tr&gt;&lt;tr bgcolor="#E3E3F3"&gt;
&lt;th&gt;NM_RGI&lt;/th&gt;
&lt;td&gt;Teresina&lt;/td&gt;
&lt;/tr&gt;&lt;tr bgcolor=""&gt;
&lt;th&gt;CT_LOCALIDADE&lt;/th&gt;
&lt;td&gt;Outras Localidades&lt;/td&gt;
&lt;/tr&gt;&lt;tr bgcolor="#E3E3F3"&gt;
&lt;th&gt;SCT_LOCALIDADE&lt;/th&gt;
&lt;td&gt;&lt;/td&gt;
&lt;/tr&gt;&lt;tr bgcolor=""&gt;
&lt;th&gt;CD_LOCALIDADE&lt;/th&gt;
&lt;td&gt;220273700002&lt;/td&gt;
&lt;/tr&gt;&lt;tr bgcolor="#E3E3F3"&gt;
&lt;th&gt;NM_LOCALIDADE&lt;/th&gt;
&lt;td&gt;Buriti do Padre&lt;/td&gt;
&lt;/tr&gt;&lt;/table&gt;&lt;/center&gt;</description>
<Style>
<IconStyle>
<color>ff0069d3</color>
<scale>0.6</scale>
<Icon>
<href>http://maps.google.com/mapfiles/kml/shapes/placemark_circle.png</href>
</Icon>
</IconStyle>
<LabelStyle>
<scale>0.6</scale>
</LabelStyle>
<LineStyle>
<width>1.0</width>
<gx:labelVisibility>1</gx:labelVisibility>
</LineStyle>
</Style>
<ExtendedData>
<SchemaData schemaUrl="#kml_schema_ft_Localidades">
<SimpleData name="CD_UF">22</SimpleData>
<SimpleData name="NM_UF">Piauí</SimpleData>
<SimpleData name="SIGLA_UF">PI</SimpleData>
<SimpleData name="CD_MUN">2202737</SimpleData>
<SimpleData name="NM_MUN">Coivaras</SimpleData>
<SimpleData name="CD_RGINT">2201</SimpleData>
<SimpleData name="NM_RGINT">Teresina</SimpleData>
<SimpleData name="CD_RGI">220001</SimpleData>
<SimpleData name="NM_RGI">Teresina</SimpleData>
<SimpleData name="CT_LOCALIDADE">Outras Localidades</SimpleData>
<SimpleData name="CD_LOCALIDADE">220273700002</SimpleData>
<SimpleData name="NM_LOCALIDADE">Buriti do Padre</SimpleData>
</SchemaData>
</ExtendedData>
<Point>
<extrude>0</extrude>
<coordinates>-42.2807378,-5.12822179983132,0.0</coordinates>
</Point>
</Placemark>
<Placemark id="12. Outras Localidades">
<name>Morro da Arara [220273700004]</name>
<visibility>1</visibility>
<snippet> </snippet>
<description>&lt;center&gt;&lt;table&gt;&lt;tr&gt;&lt;th colspan='2' align='center'&gt;&lt;em&gt;Attributes&lt;/em&gt;&lt;/th&gt;&lt;/tr&gt;&lt;tr bgcolor="#E3E3F3"&gt;
&lt;th&gt;CD_UF&lt;/th&gt;
&lt;td&gt;22&lt;/td&gt;
&lt;/tr&gt;&lt;tr bgcolor=""&gt;
&lt;th&gt;NM_UF&lt;/th&gt;
&lt;td&gt;Piauí&lt;/td&gt;
&lt;/tr&gt;&lt;tr bgcolor="#E3E3F3"&gt;
&lt;th&gt;SIGLA_UF&lt;/th&gt;
&lt;td&gt;PI&lt;/td&gt;
&lt;/tr&gt;&lt;tr bgcolor=""&gt;
&lt;th&gt;CD_MUN&lt;/th&gt;
&lt;td&gt;2202737&lt;/td&gt;
&lt;/tr&gt;&lt;tr bgcolor="#E3E3F3"&gt;
&lt;th&gt;NM_MUN&lt;/th&gt;
&lt;td&gt;Coivaras&lt;/td&gt;
&lt;/tr&gt;&lt;tr bgcolor=""&gt;
&lt;th&gt;CD_RGINT&lt;/th&gt;
&lt;td&gt;2201&lt;/td&gt;
&lt;/tr&gt;&lt;tr bgcolor="#E3E3F3"&gt;
&lt;th&gt;NM_RGINT&lt;/th&gt;
&lt;td&gt;Teresina&lt;/td&gt;
&lt;/tr&gt;&lt;tr bgcolor=""&gt;
&lt;th&gt;CD_RGI&lt;/th&gt;
&lt;td&gt;220001&lt;/td&gt;
&lt;/tr&gt;&lt;tr bgcolor="#E3E3F3"&gt;
&lt;th&gt;NM_RGI&lt;/th&gt;
&lt;td&gt;Teresina&lt;/td&gt;
&lt;/tr&gt;&lt;tr bgcolor=""&gt;
&lt;th&gt;CT_LOCALIDADE&lt;/th&gt;
&lt;td&gt;Outras Localidades&lt;/td&gt;
&lt;/tr&gt;&lt;tr bgcolor="#E3E3F3"&gt;
&lt;th&gt;SCT_LOCALIDADE&lt;/th&gt;
&lt;td&gt;&lt;/td&gt;
&lt;/tr&gt;&lt;tr bgcolor=""&gt;
&lt;th&gt;CD_LOCALIDADE&lt;/th&gt;
&lt;td&gt;220273700004&lt;/td&gt;
&lt;/tr&gt;&lt;tr bgcolor="#E3E3F3"&gt;
&lt;th&gt;NM_LOCALIDADE&lt;/th&gt;
&lt;td&gt;Morro da Arara&lt;/td&gt;
&lt;/tr&gt;&lt;/table&gt;&lt;/center&gt;</description>
<Style>
<IconStyle>
<color>ff0069d3</color>
<scale>0.6</scale>
<Icon>
<href>http://maps.google.com/mapfiles/kml/shapes/placemark_circle.png</href>
</Icon>
</IconStyle>
<LabelStyle>
<scale>0.6</scale>
</LabelStyle>
<LineStyle>
<width>1.0</width>
<gx:labelVisibility>1</gx:labelVisibility>
</LineStyle>
</Style>
<ExtendedData>
<SchemaData schemaUrl="#kml_schema_ft_Localidades">
<SimpleData name="CD_UF">22</SimpleData>
<SimpleData name="NM_UF">Piauí</SimpleData>
<SimpleData name="SIGLA_UF">PI</SimpleData>
<SimpleData name="CD_MUN">2202737</SimpleData>
<SimpleData name="NM_MUN">Coivaras</SimpleData>
<SimpleData name="CD_RGINT">2201</SimpleData>
<SimpleData name="NM_RGINT">Teresina</SimpleData>
<SimpleData name="CD_RGI">220001</SimpleData>
<SimpleData name="NM_RGI">Teresina</SimpleData>
<SimpleData name="CT_LOCALIDADE">Outras Localidades</SimpleData>
<SimpleData name="CD_LOCALIDADE">220273700004</SimpleData>
<SimpleData name="NM_LOCALIDADE">Morro da Arara</SimpleData>
</SchemaData>
</ExtendedData>
<Point>
<extrude>0</extrude>
<coordinates>-42.2582973,-4.98641579983594,0.0</coordinates>
</Point>
</Placemark>
<Placemark id="12. Outras Localidades">
<name>Nova Conquista [220273700005]</name>
<visibility>1</visibility>
<snippet> </snippet>
<description>&lt;center&gt;&lt;table&gt;&lt;tr&gt;&lt;th colspan='2' align='center'&gt;&lt;em&gt;Attributes&lt;/em&gt;&lt;/th&gt;&lt;/tr&gt;&lt;tr bgcolor="#E3E3F3"&gt;
&lt;th&gt;CD_UF&lt;/th&gt;
&lt;td&gt;22&lt;/td&gt;
&lt;/tr&gt;&lt;tr bgcolor=""&gt;
&lt;th&gt;NM_UF&lt;/th&gt;
&lt;td&gt;Piauí&lt;/td&gt;
&lt;/tr&gt;&lt;tr bgcolor="#E3E3F3"&gt;
&lt;th&gt;SIGLA_UF&lt;/th&gt;
&lt;td&gt;PI&lt;/td&gt;
&lt;/tr&gt;&lt;tr bgcolor=""&gt;
&lt;th&gt;CD_MUN&lt;/th&gt;
&lt;td&gt;2202737&lt;/td&gt;
&lt;/tr&gt;&lt;tr bgcolor="#E3E3F3"&gt;
&lt;th&gt;NM_MUN&lt;/th&gt;
&lt;td&gt;Coivaras&lt;/td&gt;
&lt;/tr&gt;&lt;tr bgcolor=""&gt;
&lt;th&gt;CD_RGINT&lt;/th&gt;
&lt;td&gt;2201&lt;/td&gt;
&lt;/tr&gt;&lt;tr bgcolor="#E3E3F3"&gt;
&lt;th&gt;NM_RGINT&lt;/th&gt;
&lt;td&gt;Teresina&lt;/td&gt;
&lt;/tr&gt;&lt;tr bgcolor=""&gt;
&lt;th&gt;CD_RGI&lt;/th&gt;
&lt;td&gt;220001&lt;/td&gt;
&lt;/tr&gt;&lt;tr bgcolor="#E3E3F3"&gt;
&lt;th&gt;NM_RGI&lt;/th&gt;
&lt;td&gt;Teresina&lt;/td&gt;
&lt;/tr&gt;&lt;tr bgcolor=""&gt;
&lt;th&gt;CT_LOCALIDADE&lt;/th&gt;
&lt;td&gt;Outras Localidades&lt;/td&gt;
&lt;/tr&gt;&lt;tr bgcolor="#E3E3F3"&gt;
&lt;th&gt;SCT_LOCALIDADE&lt;/th&gt;
&lt;td&gt;&lt;/td&gt;
&lt;/tr&gt;&lt;tr bgcolor=""&gt;
&lt;th&gt;CD_LOCALIDADE&lt;/th&gt;
&lt;td&gt;220273700005&lt;/td&gt;
&lt;/tr&gt;&lt;tr bgcolor="#E3E3F3"&gt;
&lt;th&gt;NM_LOCALIDADE&lt;/th&gt;
&lt;td&gt;Nova Conquista&lt;/td&gt;
&lt;/tr&gt;&lt;/table&gt;&lt;/center&gt;</description>
<Style>
<IconStyle>
<color>ff0069d3</color>
<scale>0.6</scale>
<Icon>
<href>http://maps.google.com/mapfiles/kml/shapes/placemark_circle.png</href>
</Icon>
</IconStyle>
<LabelStyle>
<scale>0.6</scale>
</LabelStyle>
<LineStyle>
<width>1.0</width>
<gx:labelVisibility>1</gx:labelVisibility>
</LineStyle>
</Style>
<ExtendedData>
<SchemaData schemaUrl="#kml_schema_ft_Localidades">
<SimpleData name="CD_UF">22</SimpleData>
<SimpleData name="NM_UF">Piauí</SimpleData>
<SimpleData name="SIGLA_UF">PI</SimpleData>
<SimpleData name="CD_MUN">2202737</SimpleData>
<SimpleData name="NM_MUN">Coivaras</SimpleData>
<SimpleData name="CD_RGINT">2201</SimpleData>
<SimpleData name="NM_RGINT">Teresina</SimpleData>
<SimpleData name="CD_RGI">220001</SimpleData>
<SimpleData name="NM_RGI">Teresina</SimpleData>
<SimpleData name="CT_LOCALIDADE">Outras Localidades</SimpleData>
<SimpleData name="CD_LOCALIDADE">220273700005</SimpleData>
<SimpleData name="NM_LOCALIDADE">Nova Conquista</SimpleData>
</SchemaData>
</ExtendedData>
<Point>
<extrude>0</extrude>
<coordinates>-42.1916352,-5.0428369998341,0.0</coordinates>
</Point>
</Placemark>
<Placemark id="12. Outras Localidades">
<name>Segurança [220273700008]</name>
<visibility>1</visibility>
<snippet> </snippet>
<description>&lt;center&gt;&lt;table&gt;&lt;tr&gt;&lt;th colspan='2' align='center'&gt;&lt;em&gt;Attributes&lt;/em&gt;&lt;/th&gt;&lt;/tr&gt;&lt;tr bgcolor="#E3E3F3"&gt;
&lt;th&gt;CD_UF&lt;/th&gt;
&lt;td&gt;22&lt;/td&gt;
&lt;/tr&gt;&lt;tr bgcolor=""&gt;
&lt;th&gt;NM_UF&lt;/th&gt;
&lt;td&gt;Piauí&lt;/td&gt;
&lt;/tr&gt;&lt;tr bgcolor="#E3E3F3"&gt;
&lt;th&gt;SIGLA_UF&lt;/th&gt;
&lt;td&gt;PI&lt;/td&gt;
&lt;/tr&gt;&lt;tr bgcolor=""&gt;
&lt;th&gt;CD_MUN&lt;/th&gt;
&lt;td&gt;2202737&lt;/td&gt;
&lt;/tr&gt;&lt;tr bgcolor="#E3E3F3"&gt;
&lt;th&gt;NM_MUN&lt;/th&gt;
&lt;td&gt;Coivaras&lt;/td&gt;
&lt;/tr&gt;&lt;tr bgcolor=""&gt;
&lt;th&gt;CD_RGINT&lt;/th&gt;
&lt;td&gt;2201&lt;/td&gt;
&lt;/tr&gt;&lt;tr bgcolor="#E3E3F3"&gt;
&lt;th&gt;NM_RGINT&lt;/th&gt;
&lt;td&gt;Teresina&lt;/td&gt;
&lt;/tr&gt;&lt;tr bgcolor=""&gt;
&lt;th&gt;CD_RGI&lt;/th&gt;
&lt;td&gt;220001&lt;/td&gt;
&lt;/tr&gt;&lt;tr bgcolor="#E3E3F3"&gt;
&lt;th&gt;NM_RGI&lt;/th&gt;
&lt;td&gt;Teresina&lt;/td&gt;
&lt;/tr&gt;&lt;tr bgcolor=""&gt;
&lt;th&gt;CT_LOCALIDADE&lt;/th&gt;
&lt;td&gt;Outras Localidades&lt;/td&gt;
&lt;/tr&gt;&lt;tr bgcolor="#E3E3F3"&gt;
&lt;th&gt;SCT_LOCALIDADE&lt;/th&gt;
&lt;td&gt;&lt;/td&gt;
&lt;/tr&gt;&lt;tr bgcolor=""&gt;
&lt;th&gt;CD_LOCALIDADE&lt;/th&gt;
&lt;td&gt;220273700008&lt;/td&gt;
&lt;/tr&gt;&lt;tr bgcolor="#E3E3F3"&gt;
&lt;th&gt;NM_LOCALIDADE&lt;/th&gt;
&lt;td&gt;Segurança&lt;/td&gt;
&lt;/tr&gt;&lt;/table&gt;&lt;/center&gt;</description>
<Style>
<IconStyle>
<color>ff0069d3</color>
<scale>0.6</scale>
<Icon>
<href>http://maps.google.com/mapfiles/kml/shapes/placemark_circle.png</href>
</Icon>
</IconStyle>
<LabelStyle>
<scale>0.6</scale>
</LabelStyle>
<LineStyle>
<width>1.0</width>
<gx:labelVisibility>1</gx:labelVisibility>
</LineStyle>
</Style>
<ExtendedData>
<SchemaData schemaUrl="#kml_schema_ft_Localidades">
<SimpleData name="CD_UF">22</SimpleData>
<SimpleData name="NM_UF">Piauí</SimpleData>
<SimpleData name="SIGLA_UF">PI</SimpleData>
<SimpleData name="CD_MUN">2202737</SimpleData>
<SimpleData name="NM_MUN">Coivaras</SimpleData>
<SimpleData name="CD_RGINT">2201</SimpleData>
<SimpleData name="NM_RGINT">Teresina</SimpleData>
<SimpleData name="CD_RGI">220001</SimpleData>
<SimpleData name="NM_RGI">Teresina</SimpleData>
<SimpleData name="CT_LOCALIDADE">Outras Localidades</SimpleData>
<SimpleData name="CD_LOCALIDADE">220273700008</SimpleData>
<SimpleData name="NM_LOCALIDADE">Segurança</SimpleData>
</SchemaData>
</ExtendedData>
<Point>
<extrude>0</extrude>
<coordinates>-42.204117,-5.07523429983305,0.0</coordinates>
</Point>
</Placemark>
</Folder>
<Folder id="13. Referência">
<name>13. Referência</name>
<Placemark id="13. Referência">
<name>Coivaras [2202737]</name>
<visibility>1</visibility>
<snippet> </snippet>
<description>&lt;center&gt;&lt;table&gt;&lt;tr&gt;&lt;th colspan='2' align='center'&gt;&lt;em&gt;Attributes&lt;/em&gt;&lt;/th&gt;&lt;/tr&gt;&lt;tr bgcolor="#E3E3F3"&gt;
&lt;th&gt;CD_UF&lt;/th&gt;
&lt;td&gt;22&lt;/td&gt;
&lt;/tr&gt;&lt;tr bgcolor=""&gt;
&lt;th&gt;NM_UF&lt;/th&gt;
&lt;td&gt;Piauí&lt;/td&gt;
&lt;/tr&gt;&lt;tr bgcolor="#E3E3F3"&gt;
&lt;th&gt;CD_MUN&lt;/th&gt;
&lt;td&gt;2202737&lt;/td&gt;
&lt;/tr&gt;&lt;tr bgcolor=""&gt;
&lt;th&gt;NM_MUN&lt;/th&gt;
&lt;td&gt;Coivaras&lt;/td&gt;
&lt;/tr&gt;&lt;tr bgcolor="#E3E3F3"&gt;
&lt;th&gt;CD_RGINT&lt;/th&gt;
&lt;td&gt;2201&lt;/td&gt;
&lt;/tr&gt;&lt;tr bgcolor=""&gt;
&lt;th&gt;NM_RGINT&lt;/th&gt;
&lt;td&gt;Teresina&lt;/td&gt;
&lt;/tr&gt;&lt;tr bgcolor="#E3E3F3"&gt;
&lt;th&gt;CD_RGI&lt;/th&gt;
&lt;td&gt;220001&lt;/td&gt;
&lt;/tr&gt;&lt;tr bgcolor=""&gt;
&lt;th&gt;NM_RGI&lt;/th&gt;
&lt;td&gt;Teresina&lt;/td&gt;
&lt;/tr&gt;&lt;/table&gt;&lt;/center&gt;</description>
<Style>
<IconStyle>
<scale>0.7</scale>
</IconStyle>
<LabelStyle>
<scale>0.7</scale>
</LabelStyle>
<LineStyle>
<color>ffffffff</color>
<width>3</width>
<gx:labelVisibility>1</gx:labelVisibility>
</LineStyle>
<PolyStyle>
<color>00ffffff</color>
</PolyStyle>
</Style>
<ExtendedData>
<SchemaData schemaUrl="#kml_schema_ft_Município">
<SimpleData name="CD_UF">22</SimpleData>
<SimpleData name="NM_UF">Piauí</SimpleData>
<SimpleData name="CD_MUN">2202737</SimpleData>
<SimpleData name="NM_MUN">Coivaras</SimpleData>
<SimpleData name="CD_RGINT">2201</SimpleData>
<SimpleData name="NM_RGINT">Teresina</SimpleData>
<SimpleData name="CD_RGI">220001</SimpleData>
<SimpleData name="NM_RGI">Teresina</SimpleData>
</SchemaData>
</ExtendedData>
<MultiGeometry>
<Polygon>
<extrude>0</extrude>
<tessellate>1</tessellate>
<outerBoundaryIs>
<LinearRing>
<coordinates>-42.3533642,-5.04375249983407,0.0 -42.3531836,-5.04328259983409,0.0 -42.3128887,-4.9385320998375,0.0 -42.2654753,-4.97555179983629,0.0 -42.265436,-4.97558249983629,0.0 -42.24243,-4.9935451998357,0.0 -42.2422186,-4.9937101998357,0.0 -42.2338009,-5.00027899983549,0.0 -42.2194479,-5.0120433998351,0.0 -42.1955123,-5.0306094998345,0.0 -42.1951708,-5.03087419983449,0.0 -42.1951399,-5.03089819983449,0.0 -42.1948524,-5.03112109983448,0.0 -42.151021,-5.06507799983337,0.0 -42.151583,-5.06511199983338,0.0 -42.151815,-5.06527499983337,0.0 -42.152094,-5.06561199983336,0.0 -42.152227,-5.06586399983335,0.0 -42.152493,-5.06604399983335,0.0 -42.152883,-5.06598799983335,0.0 -42.153316,-5.06618899983334,0.0 -42.153625,-5.06657299983333,0.0 -42.153741,-5.06700899983331,0.0 -42.153874,-5.0674189998333,0.0 -42.154148,-5.06770499983329,0.0 -42.154796,-5.06802599983328,0.0 -42.155622,-5.06821999983327,0.0 -42.155884,-5.06819899983327,0.0 -42.156034,-5.06811699983328,0.0 -42.156232,-5.06811699983328,0.0 -42.156502,-5.06819399983328,0.0 -42.157043,-5.06853199983327,0.0 -42.157369,-5.06862599983326,0.0 -42.157952,-5.06865699983326,0.0 -42.158372,-5.06854199983326,0.0 -42.158583,-5.06848999983327,0.0 -42.158823,-5.06854999983327,0.0 -42.159278,-5.06863099983326,0.0 -42.160153,-5.06819599983328,0.0 -42.160579,-5.06794399983328,0.0 -42.160888,-5.0675679998333,0.0 -42.160935,-5.0673459998333,0.0 -42.161,-5.06705999983331,0.0 -42.161137,-5.06697899983332,0.0 -42.16136,-5.06694899983332,0.0 -42.161528,-5.06679099983332,0.0 -42.161665,-5.06683299983332,0.0 -42.161768,-5.06693999983332,0.0 -42.161811,-5.06707699983331,0.0 -42.161811,-5.0673289998333,0.0 -42.16188,-5.0674909998333,0.0 -42.1623,-5.06777799983329,0.0 -42.162416,-5.06801899983328,0.0 -42.162746,-5.06827899983327,0.0 -42.163,-5.06856099983326,0.0 -42.163154,-5.06863799983326,0.0 -42.163429,-5.06851399983327,0.0 -42.163562,-5.06819799983328,0.0 -42.163716,-5.06791599983328,0.0 -42.164135,-5.06771199983329,0.0 -42.164465,-5.06763499983329,0.0 -42.164731,-5.0673449998333,0.0 -42.164959,-5.06714799983331,0.0 -42.165225,-5.06704099983331,0.0 -42.165396,-5.06691699983332,0.0 -42.165435,-5.06672099983333,0.0 -42.165568,-5.06649399983333,0.0 -42.165963,-5.06640499983333,0.0 -42.166306,-5.06645599983333,0.0 -42.1667,-5.06664699983333,0.0 -42.16691,-5.06686099983332,0.0 -42.167305,-5.0673949998333,0.0 -42.167528,-5.06771899983329,0.0 -42.167743,-5.06780899983329,0.0 -42.168052,-5.06774099983329,0.0 -42.168554,-5.0675099998333,0.0 -42.16873,-5.0674119998333,0.0 -42.169182,-5.06760799983329,0.0 -42.17028,-5.06803499983328,0.0 -42.170473,-5.06827499983327,0.0 -42.170795,-5.06865499983326,0.0 -42.171287,-5.06891599983325,0.0 -42.17151,-5.06905699983325,0.0 -42.171553,-5.06922399983324,0.0 -42.171656,-5.06937299983324,0.0 -42.171947,-5.06942899983324,0.0 -42.172162,-5.06925399983324,0.0 -42.172342,-5.06906999983325,0.0 -42.172604,-5.06911299983325,0.0 -42.172947,-5.06936899983324,0.0 -42.173115,-5.06954399983323,0.0 -42.173085,-5.06970599983323,0.0 -42.17287,-5.06986499983322,0.0 -42.172737,-5.07007799983321,0.0 -42.172368,-5.07076599983319,0.0 -42.172273,-5.07103399983318,0.0 -42.172384,-5.07147399983317,0.0 -42.172564,-5.07193999983315,0.0 -42.172599,-5.07223899983314,0.0 -42.172436,-5.07265299983313,0.0 -42.172406,-5.07278599983313,0.0 -42.172425,-5.07293199983312,0.0 -42.172579,-5.07307699983312,0.0 -42.172661,-5.07322199983311,0.0 -42.172639,-5.0734399998331,0.0 -42.172266,-5.07385799983309,0.0 -42.172004,-5.07403799983309,0.0 -42.171459,-5.07413599983308,0.0 -42.170884,-5.07441799983307,0.0 -42.170408,-5.07493499983306,0.0 -42.170155,-5.07505499983305,0.0 -42.169626,-5.07509199983305,0.0 -42.16863,-5.07546799983304,0.0 -42.168085,-5.07562439983303,0.0 -42.167883,-5.07592999983302,0.0 -42.168141,-5.076503999833,0.0 -42.168519,-5.076725999833,0.0 -42.169034,-5.07752199983297,0.0 -42.169119,-5.07785499983296,0.0 -42.169162,-5.07893299983293,0.0 -42.169197,-5.0798829998329,0.0 -42.169304,-5.08035299983288,0.0 -42.169673,-5.08074699983287,0.0 -42.170415,-5.08132399983285,0.0 -42.171222,-5.08183799983283,0.0 -42.17136,-5.08238599983281,0.0 -42.171531,-5.08311299983279,0.0 -42.171677,-5.08347199983278,0.0 -42.172012,-5.08374599983277,0.0 -42.172226,-5.08399399983276,0.0 -42.172235,-5.08437899983275,0.0 -42.171952,-5.08484099983273,0.0 -42.171772,-5.08542299983271,0.0 -42.171548,-5.08569599983271,0.0 -42.17142,-5.0859439998327,0.0 -42.171544,-5.08649999983268,0.0 -42.17187,-5.08714199983266,0.0 -42.172351,-5.08752699983265,0.0 -42.172754,-5.08768099983264,0.0 -42.173046,-5.08768099983264,0.0 -42.173394,-5.08785499983264,0.0 -42.173827,-5.08816699983263,0.0 -42.174252,-5.08844499983262,0.0 -42.17457,-5.08856899983261,0.0 -42.174879,-5.08853099983261,0.0 -42.175067,-5.08836399983262,0.0 -42.175269,-5.08828699983262,0.0 -42.175497,-5.08832999983262,0.0 -42.175638,-5.08872499983261,0.0 -42.17581,-5.08917899983259,0.0 -42.176024,-5.08958099983258,0.0 -42.176531,-5.08987199983257,0.0 -42.177106,-5.09005999983256,0.0 -42.177569,-5.08997399983257,0.0 -42.177904,-5.08975199983257,0.0 -42.178316,-5.08974299983257,0.0 -42.178728,-5.08991399983257,0.0 -42.179063,-5.08996599983257,0.0 -42.179398,-5.08987999983257,0.0 -42.179792,-5.09000799983257,0.0 -42.179947,-5.09034099983255,0.0 -42.179968,-5.09075999983254,0.0 -42.180089,-5.09111099983253,0.0 -42.180307,-5.09137999983252,0.0 -42.180367,-5.09156799983252,0.0 -42.18038,-5.09181599983251,0.0 -42.180432,-5.0921289998325,0.0 -42.180526,-5.09235099983249,0.0 -42.180728,-5.09250099983249,0.0 -42.180977,-5.09246699983249,0.0 -42.181166,-5.09229999983249,0.0 -42.181316,-5.0922009998325,0.0 -42.181591,-5.09220999983249,0.0 -42.181925,-5.09238999983249,0.0 -42.182178,-5.09259999983248,0.0 -42.182393,-5.09293399983247,0.0 -42.18241,-5.09327199983246,0.0 -42.182191,-5.09384099983244,0.0 -42.182144,-5.09431499983243,0.0 -42.182256,-5.09482099983241,0.0 -42.182462,-5.09529199983239,0.0 -42.182676,-5.09541999983239,0.0 -42.183063,-5.09528299983239,0.0 -42.183182,-5.0952429998324,0.0 -42.183439,-5.0951279998324,0.0 -42.183649,-5.0949529998324,0.0 -42.183757,-5.09485799983241,0.0 -42.183954,-5.09482399983241,0.0 -42.184207,-5.09490999983241,0.0 -42.184516,-5.0950979998324,0.0 -42.184594,-5.09545299983239,0.0 -42.184568,-5.09576499983238,0.0 -42.184469,-5.09603499983237,0.0 -42.184263,-5.09608999983237,0.0 -42.184096,-5.09620999983236,0.0 -42.183984,-5.09647499983235,0.0 -42.183914,-5.09702099983234,0.0 -42.183837,-5.09730299983233,0.0 -42.183442,-5.09763699983232,0.0 -42.182987,-5.0980899998323,0.0 -42.182687,-5.0982609998323,0.0 -42.18243,-5.09850099983229,0.0 -42.182404,-5.09877399983228,0.0 -42.182558,-5.09900499983227,0.0 -42.182533,-5.09914199983227,0.0 -42.182206,-5.09936399983226,0.0 -42.18206,-5.09961299983225,0.0 -42.182029,-5.09992999983224,0.0 -42.181995,-5.10026399983223,0.0 -42.181917,-5.10051699983222,0.0 -42.181771,-5.10078199983221,0.0 -42.181822,-5.1011839998322,0.0 -42.182191,-5.10155199983219,0.0 -42.182629,-5.10179199983218,0.0 -42.183084,-5.10166299983219,0.0 -42.183565,-5.10144899983219,0.0 -42.184037,-5.1012609998322,0.0 -42.184449,-5.1012359998322,0.0 -42.184809,-5.1013129998322,0.0 -42.185127,-5.10190299983218,0.0 -42.18538,-5.10231099983216,0.0 -42.185517,-5.10266999983216,0.0 -42.185582,-5.10295699983214,0.0 -42.185423,-5.10366199983212,0.0 -42.185384,-5.10392299983211,0.0 -42.185394,-5.10460699983209,0.0 -42.185347,-5.10524899983207,0.0 -42.18533,-5.10554399983206,0.0 -42.185252,-5.10596799983205,0.0 -42.184999,-5.10650199983203,0.0 -42.184466,-5.10790699983198,0.0 -42.184248,-5.10804899983198,0.0 -42.183948,-5.10820299983197,0.0 -42.183703,-5.10833199983197,0.0 -42.18363,-5.10848599983196,0.0 -42.183664,-5.10883599983196,0.0 -42.183742,-5.10912299983194,0.0 -42.183819,-5.11000399983191,0.0 -42.183892,-5.1104149998319,0.0 -42.184102,-5.11112099983188,0.0 -42.1845144,-5.11195399983185,0.0 -42.185007,-5.11285099983182,0.0 -42.1862514,-5.11595869983172,0.0 -42.1868736,-5.11689179983169,0.0 -42.1877785,-5.11785229983166,0.0 -42.1884883,-5.11829639983165,0.0 -42.1917569,-5.1197246998316,0.0 -42.191785,-5.1198370998316,0.0 -42.1917907,-5.1198599998316,0.0 -42.1938172,-5.12795789983133,0.0 -42.1966403,-5.13923799983096,0.0 -42.1969847,-5.14061399983092,0.0 -42.1984805,-5.14659119983073,0.0 -42.2193681,-5.16147229983024,0.0 -42.2279543,-5.16470979983014,0.0 -42.2540599,-5.19087179982929,0.0 -42.2654451,-5.2086960998287,0.0 -42.2699009,-5.21665099982845,0.0 -42.2699074,-5.21666269982844,0.0 -42.2701663,-5.21712489982843,0.0 -42.2802946,-5.23520619982784,0.0 -42.3121512,-5.23514069982784,0.0 -42.312597,-5.23618819982781,0.0 -42.3129662,-5.23737519982777,0.0 -42.3130763,-5.23847319982774,0.0 -42.3130721,-5.23936899982771,0.0 -42.312869,-5.24023539982768,0.0 -42.3121408,-5.24182129982763,0.0 -42.3120825,-5.24242809982761,0.0 -42.3121867,-5.24465309982754,0.0 -42.3118011,-5.24739629982745,0.0 -42.3118551,-5.24811949982742,0.0 -42.3123077,-5.24999999982736,0.0 -42.3123323,-5.25089619982733,0.0 -42.3127595,-5.25240059982729,0.0 -42.3136706,-5.25422479982723,0.0 -42.3143253,-5.25581669982717,0.0 -42.3145233,-5.25665679982715,0.0 -42.3147177,-5.25830399982709,0.0 -42.3152871,-5.25963549982705,0.0 -42.3162874,-5.26137289982699,0.0 -42.3168571,-5.26258929982695,0.0 -42.3174301,-5.26325639982693,0.0 -42.3187786,-5.26441879982689,0.0 -42.3192056,-5.26502739982687,0.0 -42.3199159,-5.2672556998268,0.0 -42.3209448,-5.26890759982675,0.0 -42.3211141,-5.26954339982673,0.0 -42.3210831,-5.27017899982671,0.0 -42.3207039,-5.27162169982666,0.0 -42.3204407,-5.27222819982664,0.0 -42.3192558,-5.2735230998266,0.0 -42.3190813,-5.27392659982659,0.0 -42.3186715,-5.27560089982653,0.0 -42.3187218,-5.27727729982648,0.0 -42.3189182,-5.27843369982644,0.0 -42.3188561,-5.2796181998264,0.0 -42.318595,-5.28010869982639,0.0 -42.3173805,-5.28134629982634,0.0 -42.3172642,-5.28172249982633,0.0 -42.3172916,-5.28203929982632,0.0 -42.3178922,-5.2827653998263,0.0 -42.3184075,-5.28314179982629,0.0 -42.3194104,-5.28444679982624,0.0 -42.3196086,-5.28508309982622,0.0 -42.3200497,-5.28950569982608,0.0 -42.3203324,-5.29072129982604,0.0 -42.32096,-5.29217009982599,0.0 -42.3227352,-5.29414159982593,0.0 -42.3237672,-5.29517259982589,0.0 -42.3246239,-5.29602849982587,0.0 -42.3250223,-5.29651629982585,0.0 -42.326535,-5.29729499982583,0.0 -42.3267035,-5.29659569982585,0.0 -42.327572,-5.291996999826,0.0 -42.328508,-5.28693099982616,0.0 -42.3294158,-5.28202369982632,0.0 -42.329759,-5.28014999982638,0.0 -42.330284,-5.27735299982647,0.0 -42.331216,-5.27232699982664,0.0 -42.332194,-5.26709299982681,0.0 -42.333335,-5.26090899982701,0.0 -42.333986,-5.25745899982712,0.0 -42.334381,-5.25537499982719,0.0 -42.3348316,-5.25295439982727,0.0 -42.3385054,-5.23330749982791,0.0 -42.338671,-5.23251799982793,0.0 -42.338911,-5.23191299982795,0.0 -42.3418703,-5.22595159982814,0.0 -42.3456711,-5.2182420998284,0.0 -42.346054,-5.21746899982842,0.0 -42.34636,-5.21662799982845,0.0 -42.34648,-5.21600399982847,0.0 -42.346714,-5.21271499982857,0.0 -42.347572,-5.199463999829,0.0 -42.347995,-5.19746999982907,0.0 -42.3486256,-5.19493299982915,0.0 -42.349621,-5.19083249982928,0.0 -42.3498764,-5.18975179982932,0.0 -42.3499361,-5.18949879982933,0.0 -42.350595,-5.18670999982942,0.0 -42.350819,-5.18598799982944,0.0 -42.35111,-5.18531699982947,0.0 -42.351432,-5.18480499982948,0.0 -42.3527605,-5.18322819982953,0.0 -42.3532761,-5.18262459982955,0.0 -42.3581154,-5.17696009982974,0.0 -42.3625378,-5.17175329982991,0.0 -42.3683018,-5.16498059983013,0.0 -42.368439,-5.16481489983013,0.0 -42.371946,-5.16065399983027,0.0 -42.373066,-5.15931299983031,0.0 -42.374027,-5.15832599983034,0.0 -42.374699,-5.15757099983037,0.0 -42.376991,-5.15523499983045,0.0 -42.377654,-5.15449799983047,0.0 -42.3789755,-5.15280379983052,0.0 -42.3792125,-5.15251069983053,0.0 -42.3792386,-5.15247719983053,0.0 -42.3795501,-5.15207749983055,0.0 -42.3799533,-5.15155999983056,0.0 -42.3804834,-5.15087979983058,0.0 -42.3819689,-5.14897349983065,0.0 -42.382182,-5.14869999983066,0.0 -42.3823759,-5.14846539983067,0.0 -42.3829626,-5.14775539983069,0.0 -42.3837179,-5.14684139983072,0.0 -42.3840272,-5.14646749983073,0.0 -42.3846021,-5.14577449983075,0.0 -42.3850658,-5.14521559983077,0.0 -42.3851367,-5.14513009983077,0.0 -42.3871859,-5.14266359983085,0.0 -42.3877309,-5.14201279983087,0.0 -42.3890744,-5.14040849983092,0.0 -42.3900702,-5.13925409983096,0.0 -42.3900542,-5.13921219983096,0.0 -42.3896237,-5.138092199831,0.0 -42.3533726,-5.04377439983407,0.0 -42.3533642,-5.04375249983407,0.0</coordinates>
</LinearRing>
</outerBoundaryIs>
</Polygon>
</MultiGeometry>
</Placemark>
</Folder>
</Document></kml>
