<?xml version='1.0' encoding='UTF-8'?>
<kml xmlns:xsd="http://www.w3.org/2001/XMLSchema" xmlns:gx="http://www.google.com/kml/ext/2.2" xmlns:atom="http://www.w3.org/2005/Atom" xmlns="http://www.opengis.net/kml/2.2">
<Document>
<name>divino_de_sao_lourenco_3201803_localidades_2022</name>
<visibility>1</visibility>
<Schema name="Povoados" id="kml_schema_ft_Povoados">
<SimpleField type="xsd:string" name="CD_UF">
<displayName>CD_UF</displayName>
</SimpleField>
<SimpleField type="xsd:string" name="NM_UF">
<displayName>NM_UF</displayName>
</SimpleField>
<SimpleField type="xsd:string" name="SIGLA_UF">
<displayName>SIGLA_UF</displayName>
</SimpleField>
<SimpleField type="xsd:string" name="CD_MUN">
<displayName>CD_MUN</displayName>
</SimpleField>
<SimpleField type="xsd:string" name="NM_MUN">
<displayName>NM_MUN</displayName>
</SimpleField>
<SimpleField type="xsd:string" name="CD_RGINT">
<displayName>CD_RGINT</displayName>
</SimpleField>
<SimpleField type="xsd:string" name="NM_RGINT">
<displayName>NM_RGINT</displayName>
</SimpleField>
<SimpleField type="xsd:string" name="CD_RGI">
<displayName>CD_RGI</displayName>
</SimpleField>
<SimpleField type="xsd:string" name="NM_RGI">
<displayName>NM_RGI</displayName>
</SimpleField>
<SimpleField type="xsd:string" name="CT_LOCALIDADE">
<displayName>CT_LOCALIDADE</displayName>
</SimpleField>
<SimpleField type="xsd:string" name="CD_LOCALIDADE">
<displayName>CD_LOCALIDADE</displayName>
</SimpleField>
<SimpleField type="xsd:string" name="NM_LOCALIDADE">
<displayName>NM_LOCALIDADE</displayName>
</SimpleField>
<SimpleField type="xsd:string" name="LAT_LOCALIDADE">
<displayName>LAT_LOCALIDADE</displayName>
</SimpleField>
<SimpleField type="xsd:string" name="LONG_LOCALIDADE">
<displayName>LONG_LOCALIDADE</displayName>
</SimpleField>
</Schema>
<Schema name="Localidades" id="kml_schema_ft_Localidades">
<SimpleField type="xsd:string" name="CD_UF">
<displayName>CD_UF</displayName>
</SimpleField>
<SimpleField type="xsd:string" name="NM_UF">
<displayName>NM_UF</displayName>
</SimpleField>
<SimpleField type="xsd:string" name="SIGLA_UF">
<displayName>SIGLA_UF</displayName>
</SimpleField>
<SimpleField type="xsd:string" name="CD_MUN">
<displayName>CD_MUN</displayName>
</SimpleField>
<SimpleField type="xsd:string" name="NM_MUN">
<displayName>NM_MUN</displayName>
</SimpleField>
<SimpleField type="xsd:string" name="CD_RGINT">
<displayName>CD_RGINT</displayName>
</SimpleField>
<SimpleField type="xsd:string" name="NM_RGINT">
<displayName>NM_RGINT</displayName>
</SimpleField>
<SimpleField type="xsd:string" name="CD_RGI">
<displayName>CD_RGI</displayName>
</SimpleField>
<SimpleField type="xsd:string" name="NM_RGI">
<displayName>NM_RGI</displayName>
</SimpleField>
<SimpleField type="xsd:string" name="CT_LOCALIDADE">
<displayName>CT_LOCALIDADE</displayName>
</SimpleField>
<SimpleField type="xsd:string" name="SCT_LOCALIDADE">
<displayName>SCT_LOCALIDADE</displayName>
</SimpleField>
<SimpleField type="xsd:string" name="CD_LOCALIDADE">
<displayName>CD_LOCALIDADE</displayName>
</SimpleField>
<SimpleField type="xsd:string" name="NM_LOCALIDADE">
<displayName>NM_LOCALIDADE</displayName>
</SimpleField>
</Schema>
<Schema name="Núcleos Urbanos" id="kml_schema_ft_Núcleos_Urbanos">
<SimpleField type="xsd:string" name="CD_UF">
<displayName>CD_UF</displayName>
</SimpleField>
<SimpleField type="xsd:string" name="NM_UF">
<displayName>NM_UF</displayName>
</SimpleField>
<SimpleField type="xsd:string" name="SIGLA_UF">
<displayName>SIGLA_UF</displayName>
</SimpleField>
<SimpleField type="xsd:string" name="CD_MUN">
<displayName>CD_MUN</displayName>
</SimpleField>
<SimpleField type="xsd:string" name="NM_MUN">
<displayName>NM_MUN</displayName>
</SimpleField>
<SimpleField type="xsd:string" name="CD_RGINT">
<displayName>CD_RGINT</displayName>
</SimpleField>
<SimpleField type="xsd:string" name="NM_RGINT">
<displayName>NM_RGINT</displayName>
</SimpleField>
<SimpleField type="xsd:string" name="CD_RGI">
<displayName>CD_RGI</displayName>
</SimpleField>
<SimpleField type="xsd:string" name="NM_RGI">
<displayName>NM_RGI</displayName>
</SimpleField>
<SimpleField type="xsd:string" name="CT_LOCALIDADE">
<displayName>CT_LOCALIDADE</displayName>
</SimpleField>
<SimpleField type="xsd:string" name="CD_LOCALIDADE">
<displayName>CD_LOCALIDADE</displayName>
</SimpleField>
<SimpleField type="xsd:string" name="NM_LOCALIDADE">
<displayName>NM_LOCALIDADE</displayName>
</SimpleField>
<SimpleField type="xsd:string" name="LAT_LOCALIDADE">
<displayName>LAT_LOCALIDADE</displayName>
</SimpleField>
<SimpleField type="xsd:string" name="LONG_LOCALIDADE">
<displayName>LONG_LOCALIDADE</displayName>
</SimpleField>
</Schema>
<Schema name="01. Cidade" id="kml_schema_ft_01._Cidade">
<SimpleField type="xsd:string" name="CD_UF">
<displayName>CD_UF</displayName>
</SimpleField>
<SimpleField type="xsd:string" name="NM_UF">
<displayName>NM_UF</displayName>
</SimpleField>
<SimpleField type="xsd:string" name="SIGLA_UF">
<displayName>SIGLA_UF</displayName>
</SimpleField>
<SimpleField type="xsd:string" name="CD_MUN">
<displayName>CD_MUN</displayName>
</SimpleField>
<SimpleField type="xsd:string" name="NM_MUN">
<displayName>NM_MUN</displayName>
</SimpleField>
<SimpleField type="xsd:string" name="CD_RGINT">
<displayName>CD_RGINT</displayName>
</SimpleField>
<SimpleField type="xsd:string" name="NM_RGINT">
<displayName>NM_RGINT</displayName>
</SimpleField>
<SimpleField type="xsd:string" name="CD_RGI">
<displayName>CD_RGI</displayName>
</SimpleField>
<SimpleField type="xsd:string" name="NM_RGI">
<displayName>NM_RGI</displayName>
</SimpleField>
<SimpleField type="xsd:string" name="CT_LOCALIDADE">
<displayName>CT_LOCALIDADE</displayName>
</SimpleField>
<SimpleField type="xsd:string" name="SCT_LOCALIDADE">
<displayName>SCT_LOCALIDADE</displayName>
</SimpleField>
<SimpleField type="xsd:string" name="CD_LOCALIDADE">
<displayName>CD_LOCALIDADE</displayName>
</SimpleField>
<SimpleField type="xsd:string" name="NM_LOCALIDADE">
<displayName>NM_LOCALIDADE</displayName>
</SimpleField>
<SimpleField type="xsd:string" name="LAT_LOCALIDADE">
<displayName>LAT_LOCALIDADE</displayName>
</SimpleField>
<SimpleField type="xsd:string" name="LONG_LOCALIDADE">
<displayName>LONG_LOCALIDADE</displayName>
</SimpleField>
</Schema>
<Schema name="Município" id="kml_schema_ft_Município">
<SimpleField type="xsd:string" name="CD_UF">
<displayName>CD_UF</displayName>
</SimpleField>
<SimpleField type="xsd:string" name="NM_UF">
<displayName>NM_UF</displayName>
</SimpleField>
<SimpleField type="xsd:string" name="CD_MUN">
<displayName>CD_MUN</displayName>
</SimpleField>
<SimpleField type="xsd:string" name="NM_MUN">
<displayName>NM_MUN</displayName>
</SimpleField>
<SimpleField type="xsd:string" name="CD_RGINT">
<displayName>CD_RGINT</displayName>
</SimpleField>
<SimpleField type="xsd:string" name="NM_RGINT">
<displayName>NM_RGINT</displayName>
</SimpleField>
<SimpleField type="xsd:string" name="CD_RGI">
<displayName>CD_RGI</displayName>
</SimpleField>
<SimpleField type="xsd:string" name="NM_RGI">
<displayName>NM_RGI</displayName>
</SimpleField>
</Schema>
<Folder id="01. Cidade">
<name>01. Cidade</name>
<Folder id="01.03. Sede Municipal">
<name>01.03. Sede Municipal</name>
<Placemark id="01.03. Sede Municipal">
<name>Divino de São Lourenço [3201803]</name>
<visibility>1</visibility>
<snippet> </snippet>
<description>&lt;center&gt;&lt;table&gt;&lt;tr&gt;&lt;th colspan='2' align='center'&gt;&lt;em&gt;Atributos&lt;/em&gt;&lt;/th&gt;&lt;/tr&gt;&lt;tr bgcolor="#E3E3F3"&gt;
&lt;th&gt;CD_UF&lt;/th&gt;
&lt;td&gt;32&lt;/td&gt;
&lt;/tr&gt;&lt;tr bgcolor=""&gt;
&lt;th&gt;NM_UF&lt;/th&gt;
&lt;td&gt;Espírito Santo&lt;/td&gt;
&lt;/tr&gt;&lt;tr bgcolor="#E3E3F3"&gt;
&lt;th&gt;SIGLA_UF&lt;/th&gt;
&lt;td&gt;ES&lt;/td&gt;
&lt;/tr&gt;&lt;tr bgcolor=""&gt;
&lt;th&gt;CD_MUN&lt;/th&gt;
&lt;td&gt;3201803&lt;/td&gt;
&lt;/tr&gt;&lt;tr bgcolor="#E3E3F3"&gt;
&lt;th&gt;NM_MUN&lt;/th&gt;
&lt;td&gt;Divino de São Lourenço&lt;/td&gt;
&lt;/tr&gt;&lt;tr bgcolor=""&gt;
&lt;th&gt;CD_RGINT&lt;/th&gt;
&lt;td&gt;3204&lt;/td&gt;
&lt;/tr&gt;&lt;tr bgcolor="#E3E3F3"&gt;
&lt;th&gt;NM_RGINT&lt;/th&gt;
&lt;td&gt;Cachoeiro do Itapemirim&lt;/td&gt;
&lt;/tr&gt;&lt;tr bgcolor=""&gt;
&lt;th&gt;CD_RGI&lt;/th&gt;
&lt;td&gt;320008&lt;/td&gt;
&lt;/tr&gt;&lt;tr bgcolor="#E3E3F3"&gt;
&lt;th&gt;NM_RGI&lt;/th&gt;
&lt;td&gt;Alegre&lt;/td&gt;
&lt;/tr&gt;&lt;tr bgcolor=""&gt;
&lt;th&gt;CT_LOCALIDADE&lt;/th&gt;
&lt;td&gt;Cidade&lt;/td&gt;
&lt;/tr&gt;&lt;tr bgcolor="#E3E3F3"&gt;
&lt;th&gt;SCT_LOCALIDADE&lt;/th&gt;
&lt;td&gt;Sede Municipal&lt;/td&gt;
&lt;/tr&gt;&lt;tr bgcolor=""&gt;
&lt;th&gt;CD_LOCALIDADE&lt;/th&gt;
&lt;td&gt;3201803&lt;/td&gt;
&lt;/tr&gt;&lt;tr bgcolor="#E3E3F3"&gt;
&lt;th&gt;NM_LOCALIDADE&lt;/th&gt;
&lt;td&gt;Divino de São Lourenço&lt;/td&gt;
&lt;/tr&gt;&lt;tr bgcolor=""&gt;
&lt;th&gt;LAT_LOCALIDADE&lt;/th&gt;
&lt;td&gt;-20.6204&lt;/td&gt;
&lt;/tr&gt;&lt;tr bgcolor="#E3E3F3"&gt;
&lt;th&gt;LONG_LOCALIDADE&lt;/th&gt;
&lt;td&gt;-41.6855&lt;/td&gt;
&lt;/tr&gt;&lt;/table&gt;&lt;/center&gt;</description>
<Style>
<IconStyle>
<color>ff00aaff</color>
<scale>1.0</scale>
<Icon>
<href>http://maps.google.com/mapfiles/kml/shapes/placemark_circle.png</href>
</Icon>
</IconStyle>
<LabelStyle>
<scale>1.0</scale>
</LabelStyle>
<LineStyle>
<color>ffffffff</color>
<width>3</width>
<gx:labelVisibility>1</gx:labelVisibility>
</LineStyle>
<PolyStyle>
<color>00ffffff</color>
</PolyStyle>
</Style>
<ExtendedData>
<SchemaData schemaUrl="#kml_schema_ft_01._Cidade">
<SimpleData name="CD_UF">32</SimpleData>
<SimpleData name="NM_UF">Espírito Santo</SimpleData>
<SimpleData name="SIGLA_UF">ES</SimpleData>
<SimpleData name="CD_MUN">3201803</SimpleData>
<SimpleData name="NM_MUN">Divino de São Lourenço</SimpleData>
<SimpleData name="CD_RGINT">3204</SimpleData>
<SimpleData name="NM_RGINT">Cachoeiro do Itapemirim</SimpleData>
<SimpleData name="CD_RGI">320008</SimpleData>
<SimpleData name="NM_RGI">Alegre</SimpleData>
<SimpleData name="CT_LOCALIDADE">Cidade</SimpleData>
<SimpleData name="SCT_LOCALIDADE">Sede Municipal</SimpleData>
<SimpleData name="CD_LOCALIDADE">3201803</SimpleData>
<SimpleData name="NM_LOCALIDADE">Divino de São Lourenço</SimpleData>
<SimpleData name="LAT_LOCALIDADE">-20.6204</SimpleData>
<SimpleData name="LONG_LOCALIDADE">-41.6855</SimpleData>
</SchemaData>
</ExtendedData>
<Point>
<extrude>0</extrude>
<coordinates>-41.6855,-20.6203999993765,0.0</coordinates>
</Point>
</Placemark>
</Folder>
</Folder>
<Folder id="05. Núcleos Urbanos">
<name>05. Núcleos Urbanos</name>
<Placemark id="localidades">
<name>Patrimônio da Penha [3201803001]</name>
<visibility>1</visibility>
<snippet> </snippet>
<description>&lt;center&gt;&lt;table&gt;&lt;tr&gt;&lt;th colspan='2' align='center'&gt;&lt;em&gt;Attributes&lt;/em&gt;&lt;/th&gt;&lt;/tr&gt;&lt;tr bgcolor="#E3E3F3"&gt;
&lt;th&gt;CD_UF&lt;/th&gt;
&lt;td&gt;32&lt;/td&gt;
&lt;/tr&gt;&lt;tr bgcolor=""&gt;
&lt;th&gt;NM_UF&lt;/th&gt;
&lt;td&gt;Espírito Santo&lt;/td&gt;
&lt;/tr&gt;&lt;tr bgcolor="#E3E3F3"&gt;
&lt;th&gt;SIGLA_UF&lt;/th&gt;
&lt;td&gt;ES&lt;/td&gt;
&lt;/tr&gt;&lt;tr bgcolor=""&gt;
&lt;th&gt;CD_MUN&lt;/th&gt;
&lt;td&gt;3201803&lt;/td&gt;
&lt;/tr&gt;&lt;tr bgcolor="#E3E3F3"&gt;
&lt;th&gt;NM_MUN&lt;/th&gt;
&lt;td&gt;Divino de São Lourenço&lt;/td&gt;
&lt;/tr&gt;&lt;tr bgcolor=""&gt;
&lt;th&gt;CD_RGINT&lt;/th&gt;
&lt;td&gt;3204&lt;/td&gt;
&lt;/tr&gt;&lt;tr bgcolor="#E3E3F3"&gt;
&lt;th&gt;NM_RGINT&lt;/th&gt;
&lt;td&gt;Cachoeiro do Itapemirim&lt;/td&gt;
&lt;/tr&gt;&lt;tr bgcolor=""&gt;
&lt;th&gt;CD_RGI&lt;/th&gt;
&lt;td&gt;320008&lt;/td&gt;
&lt;/tr&gt;&lt;tr bgcolor="#E3E3F3"&gt;
&lt;th&gt;NM_RGI&lt;/th&gt;
&lt;td&gt;Alegre&lt;/td&gt;
&lt;/tr&gt;&lt;tr bgcolor=""&gt;
&lt;th&gt;CT_LOCALIDADE&lt;/th&gt;
&lt;td&gt;Núcleo Urbano&lt;/td&gt;
&lt;/tr&gt;&lt;tr bgcolor="#E3E3F3"&gt;
&lt;th&gt;CD_LOCALIDADE&lt;/th&gt;
&lt;td&gt;3201803001&lt;/td&gt;
&lt;/tr&gt;&lt;tr bgcolor=""&gt;
&lt;th&gt;NM_LOCALIDADE&lt;/th&gt;
&lt;td&gt;Patrimônio da Penha&lt;/td&gt;
&lt;/tr&gt;&lt;tr bgcolor="#E3E3F3"&gt;
&lt;th&gt;LAT_LOCALIDADE&lt;/th&gt;
&lt;td&gt;-20.5836&lt;/td&gt;
&lt;/tr&gt;&lt;tr bgcolor=""&gt;
&lt;th&gt;LONG_LOCALIDADE&lt;/th&gt;
&lt;td&gt;-41.7607&lt;/td&gt;
&lt;/tr&gt;&lt;/table&gt;&lt;/center&gt;</description>
<Style>
<IconStyle>
<color>ff0000ff</color>
<scale>0.9</scale>
<Icon>
<href>http://maps.google.com/mapfiles/kml/shapes/placemark_circle.png</href>
</Icon>
</IconStyle>
<LabelStyle>
<scale>0.9</scale>
</LabelStyle>
<LineStyle>
<color>72ffffff</color>
<width>1.0</width>
<gx:labelVisibility>1</gx:labelVisibility>
</LineStyle>
<PolyStyle>
<color>66ff54ff</color>
</PolyStyle>
</Style>
<ExtendedData>
<SchemaData schemaUrl="#kml_schema_ft_Núcleos_Urbanos">
<SimpleData name="CD_UF">32</SimpleData>
<SimpleData name="NM_UF">Espírito Santo</SimpleData>
<SimpleData name="SIGLA_UF">ES</SimpleData>
<SimpleData name="CD_MUN">3201803</SimpleData>
<SimpleData name="NM_MUN">Divino de São Lourenço</SimpleData>
<SimpleData name="CD_RGINT">3204</SimpleData>
<SimpleData name="NM_RGINT">Cachoeiro do Itapemirim</SimpleData>
<SimpleData name="CD_RGI">320008</SimpleData>
<SimpleData name="NM_RGI">Alegre</SimpleData>
<SimpleData name="CT_LOCALIDADE">Núcleo Urbano</SimpleData>
<SimpleData name="CD_LOCALIDADE">3201803001</SimpleData>
<SimpleData name="NM_LOCALIDADE">Patrimônio da Penha</SimpleData>
<SimpleData name="LAT_LOCALIDADE">-20.5836</SimpleData>
<SimpleData name="LONG_LOCALIDADE">-41.7607</SimpleData>
</SchemaData>
</ExtendedData>
<Point>
<extrude>0</extrude>
<coordinates>-41.7607427147766,-20.5836445698241,0.0</coordinates>
</Point>
</Placemark>
</Folder>
<Folder id="06. Povoados">
<name>06. Povoados</name>
<Placemark id="06. Povoados">
<name>Limo Verde [320180300002]</name>
<visibility>1</visibility>
<snippet> </snippet>
<description>&lt;center&gt;&lt;table&gt;&lt;tr&gt;&lt;th colspan='2' align='center'&gt;&lt;em&gt;Atributos&lt;/em&gt;&lt;/th&gt;&lt;/tr&gt;&lt;tr bgcolor="#E3E3F3"&gt;
&lt;th&gt;CD_UF&lt;/th&gt;
&lt;td&gt;32&lt;/td&gt;
&lt;/tr&gt;&lt;tr bgcolor=""&gt;
&lt;th&gt;NM_UF&lt;/th&gt;
&lt;td&gt;Espírito Santo&lt;/td&gt;
&lt;/tr&gt;&lt;tr bgcolor="#E3E3F3"&gt;
&lt;th&gt;SIGLA_UF&lt;/th&gt;
&lt;td&gt;ES&lt;/td&gt;
&lt;/tr&gt;&lt;tr bgcolor=""&gt;
&lt;th&gt;CD_MUN&lt;/th&gt;
&lt;td&gt;3201803&lt;/td&gt;
&lt;/tr&gt;&lt;tr bgcolor="#E3E3F3"&gt;
&lt;th&gt;NM_MUN&lt;/th&gt;
&lt;td&gt;Divino de São Lourenço&lt;/td&gt;
&lt;/tr&gt;&lt;tr bgcolor=""&gt;
&lt;th&gt;CD_RGINT&lt;/th&gt;
&lt;td&gt;3204&lt;/td&gt;
&lt;/tr&gt;&lt;tr bgcolor="#E3E3F3"&gt;
&lt;th&gt;NM_RGINT&lt;/th&gt;
&lt;td&gt;Cachoeiro do Itapemirim&lt;/td&gt;
&lt;/tr&gt;&lt;tr bgcolor=""&gt;
&lt;th&gt;CD_RGI&lt;/th&gt;
&lt;td&gt;320008&lt;/td&gt;
&lt;/tr&gt;&lt;tr bgcolor="#E3E3F3"&gt;
&lt;th&gt;NM_RGI&lt;/th&gt;
&lt;td&gt;Alegre&lt;/td&gt;
&lt;/tr&gt;&lt;tr bgcolor=""&gt;
&lt;th&gt;CT_LOCALIDADE&lt;/th&gt;
&lt;td&gt;Povoado&lt;/td&gt;
&lt;/tr&gt;&lt;tr bgcolor="#E3E3F3"&gt;
&lt;th&gt;CD_LOCALIDADE&lt;/th&gt;
&lt;td&gt;320180300002&lt;/td&gt;
&lt;/tr&gt;&lt;tr bgcolor=""&gt;
&lt;th&gt;NM_LOCALIDADE&lt;/th&gt;
&lt;td&gt;Limo Verde&lt;/td&gt;
&lt;/tr&gt;&lt;tr bgcolor="#E3E3F3"&gt;
&lt;th&gt;LAT_LOCALIDADE&lt;/th&gt;
&lt;td&gt;-20.5465&lt;/td&gt;
&lt;/tr&gt;&lt;tr bgcolor=""&gt;
&lt;th&gt;LONG_LOCALIDADE&lt;/th&gt;
&lt;td&gt;-41.7293&lt;/td&gt;
&lt;/tr&gt;&lt;/table&gt;&lt;/center&gt;</description>
<Style>
<IconStyle>
<color>ff00ff54</color>
<scale>0.8</scale>
<Icon>
<href>http://maps.google.com/mapfiles/kml/shapes/placemark_circle.png</href>
</Icon>
</IconStyle>
<LabelStyle>
<scale>0.8</scale>
</LabelStyle>
<LineStyle>
<color>72ff54ff</color>
<width>1.0</width>
<gx:labelVisibility>1</gx:labelVisibility>
</LineStyle>
<PolyStyle>
<color>66ff54ff</color>
</PolyStyle>
</Style>
<ExtendedData>
<SchemaData schemaUrl="#kml_schema_ft_Povoados">
<SimpleData name="CD_UF">32</SimpleData>
<SimpleData name="NM_UF">Espírito Santo</SimpleData>
<SimpleData name="SIGLA_UF">ES</SimpleData>
<SimpleData name="CD_MUN">3201803</SimpleData>
<SimpleData name="NM_MUN">Divino de São Lourenço</SimpleData>
<SimpleData name="CD_RGINT">3204</SimpleData>
<SimpleData name="NM_RGINT">Cachoeiro do Itapemirim</SimpleData>
<SimpleData name="CD_RGI">320008</SimpleData>
<SimpleData name="NM_RGI">Alegre</SimpleData>
<SimpleData name="CT_LOCALIDADE">Povoado</SimpleData>
<SimpleData name="CD_LOCALIDADE">320180300002</SimpleData>
<SimpleData name="NM_LOCALIDADE">Limo Verde</SimpleData>
<SimpleData name="LAT_LOCALIDADE">-20.5465</SimpleData>
<SimpleData name="LONG_LOCALIDADE">-41.7293</SimpleData>
</SchemaData>
</ExtendedData>
<Point>
<extrude>0</extrude>
<coordinates>-41.7292836373626,-20.5465019883892,0.0</coordinates>
</Point>
</Placemark>
</Folder>
<Folder id="10. Localidades Quilombolas">
<name>10. Localidades Quilombolas</name>
<visibility>1</visibility>
<Style>
<IconStyle>
<color>ffffa0ef</color>
<scale>0.8</scale>
<Icon>
<href>http://maps.google.com/mapfiles/kml/shapes/placemark_circle.png</href>
</Icon>
</IconStyle>
<LabelStyle>
<scale>0.8</scale>
</LabelStyle>
<LineStyle>
<width>1.0</width>
<gx:labelVisibility>1</gx:labelVisibility>
</LineStyle>
</Style>
<Folder id="10.02. Outras Localidades Quilombolas">
<name>10.02. Outras Localidades Quilombolas</name>
<visibility>1</visibility>
<Style>
<IconStyle>
<color>ffffa0ef</color>
<scale>0.8</scale>
<Icon>
<href>http://maps.google.com/mapfiles/kml/shapes/placemark_circle.png</href>
</Icon>
</IconStyle>
<LabelStyle>
<scale>0.8</scale>
</LabelStyle>
<LineStyle>
<width>1.0</width>
<gx:labelVisibility>1</gx:labelVisibility>
</LineStyle>
</Style>
<Placemark id="10.02. Outras Localidades Quilombolas">
<name>Comunidade Quilombola Córrego Amarelo [320180300004]</name>
<visibility>1</visibility>
<snippet> </snippet>
<description>&lt;center&gt;&lt;table&gt;&lt;tr&gt;&lt;th colspan='2' align='center'&gt;&lt;em&gt;Attributes&lt;/em&gt;&lt;/th&gt;&lt;/tr&gt;&lt;tr bgcolor="#E3E3F3"&gt;
&lt;th&gt;CD_UF&lt;/th&gt;
&lt;td&gt;32&lt;/td&gt;
&lt;/tr&gt;&lt;tr bgcolor=""&gt;
&lt;th&gt;NM_UF&lt;/th&gt;
&lt;td&gt;Espírito Santo&lt;/td&gt;
&lt;/tr&gt;&lt;tr bgcolor="#E3E3F3"&gt;
&lt;th&gt;SIGLA_UF&lt;/th&gt;
&lt;td&gt;ES&lt;/td&gt;
&lt;/tr&gt;&lt;tr bgcolor=""&gt;
&lt;th&gt;CD_MUN&lt;/th&gt;
&lt;td&gt;3201803&lt;/td&gt;
&lt;/tr&gt;&lt;tr bgcolor="#E3E3F3"&gt;
&lt;th&gt;NM_MUN&lt;/th&gt;
&lt;td&gt;Divino de São Lourenço&lt;/td&gt;
&lt;/tr&gt;&lt;tr bgcolor=""&gt;
&lt;th&gt;CD_RGINT&lt;/th&gt;
&lt;td&gt;3204&lt;/td&gt;
&lt;/tr&gt;&lt;tr bgcolor="#E3E3F3"&gt;
&lt;th&gt;NM_RGINT&lt;/th&gt;
&lt;td&gt;Cachoeiro do Itapemirim&lt;/td&gt;
&lt;/tr&gt;&lt;tr bgcolor=""&gt;
&lt;th&gt;CD_RGI&lt;/th&gt;
&lt;td&gt;320008&lt;/td&gt;
&lt;/tr&gt;&lt;tr bgcolor="#E3E3F3"&gt;
&lt;th&gt;NM_RGI&lt;/th&gt;
&lt;td&gt;Alegre&lt;/td&gt;
&lt;/tr&gt;&lt;tr bgcolor=""&gt;
&lt;th&gt;CT_LOCALIDADE&lt;/th&gt;
&lt;td&gt;Localidade Quilombola&lt;/td&gt;
&lt;/tr&gt;&lt;tr bgcolor="#E3E3F3"&gt;
&lt;th&gt;SCT_LOCALIDADE&lt;/th&gt;
&lt;td&gt;Outras Localidades Quilombolas&lt;/td&gt;
&lt;/tr&gt;&lt;tr bgcolor=""&gt;
&lt;th&gt;CD_LOCALIDADE&lt;/th&gt;
&lt;td&gt;320180300004&lt;/td&gt;
&lt;/tr&gt;&lt;tr bgcolor="#E3E3F3"&gt;
&lt;th&gt;NM_LOCALIDADE&lt;/th&gt;
&lt;td&gt;Comunidade Quilombola Córrego Amarelo&lt;/td&gt;
&lt;/tr&gt;&lt;/table&gt;&lt;/center&gt;</description>
<Style>
<IconStyle>
<color>ffffa0ef</color>
<scale>0.8</scale>
<Icon>
<href>http://maps.google.com/mapfiles/kml/shapes/placemark_circle.png</href>
</Icon>
</IconStyle>
<LabelStyle>
<scale>0.8</scale>
</LabelStyle>
<LineStyle>
<width>1.0</width>
<gx:labelVisibility>1</gx:labelVisibility>
</LineStyle>
</Style>
<ExtendedData>
<SchemaData schemaUrl="#kml_schema_ft_Localidades">
<SimpleData name="CD_UF">32</SimpleData>
<SimpleData name="NM_UF">Espírito Santo</SimpleData>
<SimpleData name="SIGLA_UF">ES</SimpleData>
<SimpleData name="CD_MUN">3201803</SimpleData>
<SimpleData name="NM_MUN">Divino de São Lourenço</SimpleData>
<SimpleData name="CD_RGINT">3204</SimpleData>
<SimpleData name="NM_RGINT">Cachoeiro do Itapemirim</SimpleData>
<SimpleData name="CD_RGI">320008</SimpleData>
<SimpleData name="NM_RGI">Alegre</SimpleData>
<SimpleData name="CT_LOCALIDADE">Localidade Quilombola</SimpleData>
<SimpleData name="SCT_LOCALIDADE">Outras Localidades Quilombolas</SimpleData>
<SimpleData name="CD_LOCALIDADE">320180300004</SimpleData>
<SimpleData name="NM_LOCALIDADE">Comunidade Quilombola Córrego Amarelo</SimpleData>
</SchemaData>
</ExtendedData>
<Point>
<extrude>0</extrude>
<coordinates>-41.7040908897,-20.6142313881766,0.0</coordinates>
</Point>
</Placemark>
</Folder>
</Folder>
<Folder id="13. Referência">
<name>13. Referência</name>
<Placemark id="13. Referência">
<name>Divino de São Lourenço [3201803]</name>
<visibility>1</visibility>
<snippet> </snippet>
<description>&lt;center&gt;&lt;table&gt;&lt;tr&gt;&lt;th colspan='2' align='center'&gt;&lt;em&gt;Attributes&lt;/em&gt;&lt;/th&gt;&lt;/tr&gt;&lt;tr bgcolor="#E3E3F3"&gt;
&lt;th&gt;CD_UF&lt;/th&gt;
&lt;td&gt;32&lt;/td&gt;
&lt;/tr&gt;&lt;tr bgcolor=""&gt;
&lt;th&gt;NM_UF&lt;/th&gt;
&lt;td&gt;Espírito Santo&lt;/td&gt;
&lt;/tr&gt;&lt;tr bgcolor="#E3E3F3"&gt;
&lt;th&gt;CD_MUN&lt;/th&gt;
&lt;td&gt;3201803&lt;/td&gt;
&lt;/tr&gt;&lt;tr bgcolor=""&gt;
&lt;th&gt;NM_MUN&lt;/th&gt;
&lt;td&gt;Divino de São Lourenço&lt;/td&gt;
&lt;/tr&gt;&lt;tr bgcolor="#E3E3F3"&gt;
&lt;th&gt;CD_RGINT&lt;/th&gt;
&lt;td&gt;3204&lt;/td&gt;
&lt;/tr&gt;&lt;tr bgcolor=""&gt;
&lt;th&gt;NM_RGINT&lt;/th&gt;
&lt;td&gt;Cachoeiro do Itapemirim&lt;/td&gt;
&lt;/tr&gt;&lt;tr bgcolor="#E3E3F3"&gt;
&lt;th&gt;CD_RGI&lt;/th&gt;
&lt;td&gt;320008&lt;/td&gt;
&lt;/tr&gt;&lt;tr bgcolor=""&gt;
&lt;th&gt;NM_RGI&lt;/th&gt;
&lt;td&gt;Alegre&lt;/td&gt;
&lt;/tr&gt;&lt;/table&gt;&lt;/center&gt;</description>
<Style>
<IconStyle>
<scale>0.7</scale>
</IconStyle>
<LabelStyle>
<scale>0.7</scale>
</LabelStyle>
<LineStyle>
<color>ffffffff</color>
<width>3</width>
<gx:labelVisibility>1</gx:labelVisibility>
</LineStyle>
<PolyStyle>
<color>00ffffff</color>
</PolyStyle>
</Style>
<ExtendedData>
<SchemaData schemaUrl="#kml_schema_ft_Município">
<SimpleData name="CD_UF">32</SimpleData>
<SimpleData name="NM_UF">Espírito Santo</SimpleData>
<SimpleData name="CD_MUN">3201803</SimpleData>
<SimpleData name="NM_MUN">Divino de São Lourenço</SimpleData>
<SimpleData name="CD_RGINT">3204</SimpleData>
<SimpleData name="NM_RGINT">Cachoeiro do Itapemirim</SimpleData>
<SimpleData name="CD_RGI">320008</SimpleData>
<SimpleData name="NM_RGI">Alegre</SimpleData>
</SchemaData>
</ExtendedData>
<MultiGeometry>
<Polygon>
<extrude>0</extrude>
<tessellate>1</tessellate>
<outerBoundaryIs>
<LinearRing>
<coordinates>-41.7532875,-20.6296347993763,0.0 -41.7533486,-20.6289352993763,0.0 -41.7534347,-20.6284805993763,0.0 -41.7536269,-20.6281128993763,0.0 -41.7541536,-20.6277102993763,0.0 -41.7545709,-20.6276346993763,0.0 -41.7551094,-20.6278920993763,0.0 -41.7555091,-20.6279941993763,0.0 -41.755801,-20.6279303993763,0.0 -41.7561428,-20.6277277993763,0.0 -41.7564348,-20.6276639993763,0.0 -41.7566445,-20.6276803993763,0.0 -41.7569494,-20.6277543993763,0.0 -41.7571718,-20.6278985993763,0.0 -41.7573773,-20.6278555993763,0.0 -41.7576867,-20.6275542993763,0.0 -41.7580696,-20.6271796993763,0.0 -41.7586847,-20.6264680993763,0.0 -41.7590063,-20.6262770993763,0.0 -41.7593446,-20.6260476993763,0.0 -41.759589,-20.6257595993764,0.0 -41.7597958,-20.6256360993764,0.0 -41.7600184,-20.6254302993764,0.0 -41.7603583,-20.6252262993764,0.0 -41.7607345,-20.6251906993764,0.0 -41.7611616,-20.6250754993764,0.0 -41.761661,-20.6249097993764,0.0 -41.7619553,-20.6249740993764,0.0 -41.7622505,-20.6250875993764,0.0 -41.7626125,-20.6254267993764,0.0 -41.7627441,-20.6257596993764,0.0 -41.7629377,-20.6260423993763,0.0 -41.7631601,-20.6261866993763,0.0 -41.763382,-20.6263013993763,0.0 -41.76352,-20.6264075993763,0.0 -41.7636793,-20.6265331993763,0.0 -41.7639649,-20.6266960993763,0.0 -41.764201,-20.6270174993763,0.0 -41.7643314,-20.6272814993763,0.0 -41.7644938,-20.6275843993763,0.0 -41.7647523,-20.6279842993763,0.0 -41.7649426,-20.6280896993763,0.0 -41.7654148,-20.6281510993763,0.0 -41.7659013,-20.6278476993763,0.0 -41.7661636,-20.6273014993763,0.0 -41.7664298,-20.6269719993763,0.0 -41.7668812,-20.6264621993763,0.0 -41.7671082,-20.6262810993763,0.0 -41.7673175,-20.6262777993763,0.0 -41.7676129,-20.6264010993763,0.0 -41.7676805,-20.6266660993763,0.0 -41.7678212,-20.6269200993763,0.0 -41.76794,-20.6271251993763,0.0 -41.7680686,-20.6272905993763,0.0 -41.7681547,-20.6274173993763,0.0 -41.7683461,-20.6275817993763,0.0 -41.768514,-20.6276086993763,0.0 -41.7688191,-20.6276924993763,0.0 -41.7690259,-20.6275511993763,0.0 -41.7693661,-20.6272599993763,0.0 -41.7696431,-20.6269499993763,0.0 -41.7698558,-20.6265523993763,0.0 -41.7700384,-20.6262340993763,0.0 -41.7703774,-20.6258738993764,0.0 -41.7708247,-20.6251423993764,0.0 -41.7711861,-20.6242890993764,0.0 -41.7711534,-20.6236391993764,0.0 -41.7707058,-20.6231979993764,0.0 -41.7702219,-20.6230677993764,0.0 -41.7698185,-20.6227588993764,0.0 -41.7694917,-20.6220545993764,0.0 -41.7692416,-20.6215362993765,0.0 -41.7691158,-20.6209469993765,0.0 -41.7694882,-20.6207044993765,0.0 -41.7700659,-20.6202320993765,0.0 -41.7710373,-20.6201179993765,0.0 -41.7719138,-20.6199658993765,0.0 -41.7726038,-20.6199153993765,0.0 -41.7730083,-20.6197117993765,0.0 -41.7731248,-20.6192073993765,0.0 -41.7730917,-20.6185377993765,0.0 -41.7730526,-20.6181146993765,0.0 -41.7728252,-20.6176945993766,0.0 -41.7725026,-20.6166452993766,0.0 -41.7725079,-20.6163593993766,0.0 -41.7723974,-20.6160359993766,0.0 -41.7720052,-20.6157662993766,0.0 -41.7714909,-20.6156858993766,0.0 -41.7711424,-20.6155140993766,0.0 -41.7709325,-20.6154878993766,0.0 -41.7701037,-20.6153828993766,0.0 -41.7695667,-20.6152042993766,0.0 -41.7691612,-20.6153585993766,0.0 -41.768944,-20.6155000993766,0.0 -41.7685836,-20.6158310993766,0.0 -41.7682841,-20.6160526993766,0.0 -41.7679505,-20.6161269993766,0.0 -41.7676337,-20.6159743993766,0.0 -41.7672731,-20.6157140993766,0.0 -41.7669284,-20.6151775993766,0.0 -41.7666084,-20.6142661993766,0.0 -41.7662614,-20.6136016993767,0.0 -41.7659604,-20.6131629993767,0.0 -41.7658521,-20.6129577993767,0.0 -41.7657627,-20.6126438993767,0.0 -41.765641,-20.6122811993767,0.0 -41.7653715,-20.6118518993767,0.0 -41.7651349,-20.6115008993767,0.0 -41.7650991,-20.6112550993767,0.0 -41.7655643,-20.6109322993767,0.0 -41.7658113,-20.6107016993767,0.0 -41.7659289,-20.6102562993767,0.0 -41.7662144,-20.6098378993767,0.0 -41.7663871,-20.6095492993768,0.0 -41.7663802,-20.6091650993768,0.0 -41.7662902,-20.6088215993768,0.0 -41.7663904,-20.6085735993768,0.0 -41.7673127,-20.6086376993768,0.0 -41.7681526,-20.6087818993768,0.0 -41.7686212,-20.6086462993768,0.0 -41.7689232,-20.6085625993768,0.0 -41.7690973,-20.6083528993768,0.0 -41.7692277,-20.6080353993768,0.0 -41.769255,-20.6078082993768,0.0 -41.7693586,-20.6075573993768,0.0 -41.7695458,-20.6071039993768,0.0 -41.7698655,-20.6068425993768,0.0 -41.7700902,-20.6065334993768,0.0 -41.7703446,-20.6061351993768,0.0 -41.7707119,-20.6056069993769,0.0 -41.7709317,-20.6050318993769,0.0 -41.7711264,-20.6048020993769,0.0 -41.7716884,-20.6046255993769,0.0 -41.7721185,-20.6046777993769,0.0 -41.7723092,-20.6048028993769,0.0 -41.7724881,-20.6048590993769,0.0 -41.7727602,-20.6048547993769,0.0 -41.7731246,-20.6047503993769,0.0 -41.7733617,-20.6045494993769,0.0 -41.7736726,-20.6043768993769,0.0 -41.7746111,-20.6041844993769,0.0 -41.7749614,-20.6044547993769,0.0 -41.7751123,-20.6046986993769,0.0 -41.7754484,-20.6047622993769,0.0 -41.775713,-20.6049255993769,0.0 -41.7760218,-20.6052162993769,0.0 -41.7761437,-20.6055887993769,0.0 -41.7764206,-20.6058504993768,0.0 -41.7766442,-20.6060636993768,0.0 -41.7770708,-20.6065002993768,0.0 -41.777325,-20.6066636993768,0.0 -41.7775908,-20.6068959993768,0.0 -41.7777166,-20.6069037993768,0.0 -41.7778904,-20.6066742993768,0.0 -41.7781455,-20.6063154993768,0.0 -41.7786613,-20.6053216993769,0.0 -41.7790668,-20.6045957993769,0.0 -41.7795748,-20.6037548993769,0.0 -41.7800755,-20.6025050993769,0.0 -41.7804108,-20.6016402993769,0.0 -41.7805754,-20.601215899377,0.0 -41.7813726,-20.600158499377,0.0 -41.7816548,-20.599562699377,0.0 -41.7819201,-20.597783299377,0.0 -41.7828889,-20.5971328993771,0.0 -41.7838078,-20.5971180993771,0.0 -41.7851732,-20.5963747993771,0.0 -41.7864181,-20.5957487993771,0.0 -41.7871402,-20.5950158993771,0.0 -41.7879615,-20.5946851993771,0.0 -41.7894515,-20.5940552993771,0.0 -41.7907412,-20.5942075993771,0.0 -41.7913871,-20.5943413993771,0.0 -41.7926603,-20.5952729993771,0.0 -41.7936273,-20.5962094993771,0.0 -41.7944554,-20.5962537993771,0.0 -41.7960341,-20.5954492993771,0.0 -41.7974734,-20.5937236993771,0.0 -41.797972,-20.5925037993772,0.0 -41.7987759,-20.5912212993772,0.0 -41.7991614,-20.5905225993772,0.0 -41.8004934,-20.5896354993772,0.0 -41.8012481,-20.5890173993773,0.0 -41.8019062,-20.5881410993773,0.0 -41.802082,-20.5877054993773,0.0 -41.8021592,-20.5868963993773,0.0 -41.8022004,-20.5857992993773,0.0 -41.802193,-20.5853954993773,0.0 -41.8016597,-20.5847116993774,0.0 -41.8011221,-20.5837970993774,0.0 -41.8008157,-20.5828872993774,0.0 -41.8005714,-20.5821614993774,0.0 -41.8001822,-20.5809847993775,0.0 -41.799829,-20.5800960993775,0.0 -41.7996009,-20.5793496993775,0.0 -41.7993052,-20.5782580993775,0.0 -41.7991046,-20.5773380993776,0.0 -41.7987783,-20.5762468993776,0.0 -41.7982466,-20.5756495993776,0.0 -41.7976646,-20.5756590993776,0.0 -41.7972649,-20.5755789993776,0.0 -41.7967152,-20.5756743993776,0.0 -41.7960107,-20.5756857993776,0.0 -41.7955751,-20.5753177993776,0.0 -41.795197,-20.5747467993776,0.0 -41.7947826,-20.5738590993776,0.0 -41.7947372,-20.5730519993777,0.0 -41.794412,-20.5720184993777,0.0 -41.7944306,-20.5713545993777,0.0 -41.7939607,-20.5707851993777,0.0 -41.7936492,-20.5705016993777,0.0 -41.7930646,-20.5703668993777,0.0 -41.7926327,-20.5702006993777,0.0 -41.7918612,-20.5698957993777,0.0 -41.7913015,-20.5694431993778,0.0 -41.7909214,-20.5687567993778,0.0 -41.7906654,-20.5681550993778,0.0 -41.7903782,-20.5675249993778,0.0 -41.7896628,-20.5669305993778,0.0 -41.7891728,-20.5669384993778,0.0 -41.788734,-20.5663973993778,0.0 -41.7885615,-20.5653325993778,0.0 -41.7884513,-20.5643244993779,0.0 -41.7879414,-20.5632363993779,0.0 -41.7876579,-20.5628080993779,0.0 -41.787283,-20.5624101993779,0.0 -41.7867488,-20.5616686993779,0.0 -41.7862789,-20.561099199378,0.0 -41.7856612,-20.560820599378,0.0 -41.785289,-20.560566899378,0.0 -41.7841158,-20.560066399378,0.0 -41.7832321,-20.558637999378,0.0 -41.7831272,-20.557918399378,0.0 -41.7832308,-20.5568779993781,0.0 -41.7832691,-20.5556078993781,0.0 -41.7832919,-20.5551747993781,0.0 -41.7830655,-20.5545147993781,0.0 -41.78277,-20.5534230993781,0.0 -41.7826012,-20.5525602993782,0.0 -41.7824973,-20.5518982993782,0.0 -41.7821443,-20.5510095993782,0.0 -41.7814242,-20.5501555993782,0.0 -41.7805174,-20.5491313993783,0.0 -41.7797558,-20.5476721993783,0.0 -41.7796804,-20.5468942993783,0.0 -41.7797255,-20.5459991993783,0.0 -41.7801687,-20.5450975993784,0.0 -41.7804307,-20.5443432993784,0.0 -41.7809699,-20.5436709993784,0.0 -41.7812485,-20.5421372993784,0.0 -41.7812302,-20.5411277993785,0.0 -41.7812192,-20.5405219993785,0.0 -41.7811211,-20.5401773993785,0.0 -41.7808366,-20.5396914993785,0.0 -41.7807063,-20.5392607993785,0.0 -41.7804208,-20.5387170993785,0.0 -41.7801332,-20.5380580993785,0.0 -41.7798794,-20.5375716993785,0.0 -41.7795638,-20.5370573993786,0.0 -41.7795285,-20.5367982993786,0.0 -41.7793338,-20.5361954993786,0.0 -41.7789232,-20.5355096993786,0.0 -41.7783035,-20.5351156993786,0.0 -41.7776822,-20.5346350993786,0.0 -41.7771803,-20.5339795993786,0.0 -41.7769519,-20.5332041993786,0.0 -41.7767546,-20.5324571993787,0.0 -41.7766171,-20.5316226993787,0.0 -41.7772107,-20.5305743993787,0.0 -41.7772168,-20.5292182993788,0.0 -41.777101,-20.5278928993788,0.0 -41.7767766,-20.5268881993788,0.0 -41.775872,-20.5259793993788,0.0 -41.7754635,-20.5254088993788,0.0 -41.7748264,-20.5248925993788,0.0 -41.7743564,-20.5243085993789,0.0 -41.7742702,-20.5237761993789,0.0 -41.7742648,-20.5234732993789,0.0 -41.7748239,-20.5230603993789,0.0 -41.775585,-20.5228029993789,0.0 -41.7761626,-20.5225628993789,0.0 -41.7767222,-20.5221788993789,0.0 -41.7769474,-20.5219299993789,0.0 -41.7770914,-20.5214227993789,0.0 -41.7777961,-20.520589199379,0.0 -41.7786124,-20.519999099379,0.0 -41.7791865,-20.519571499379,0.0 -41.780023,-20.519255099379,0.0 -41.7806183,-20.519144599379,0.0 -41.7814519,-20.518669599379,0.0 -41.781366,-20.518151599379,0.0 -41.7812819,-20.517734599379,0.0 -41.7810369,-20.5168873993791,0.0 -41.7809151,-20.5160813993791,0.0 -41.7809055,-20.5155477993791,0.0 -41.7808644,-20.5149713993791,0.0 -41.7806474,-20.5131282993791,0.0 -41.7807327,-20.5127662993792,0.0 -41.7809849,-20.5123149993792,0.0 -41.7811639,-20.5120524993792,0.0 -41.7813128,-20.5118192993792,0.0 -41.7815195,-20.5113975993792,0.0 -41.7816975,-20.5110773993792,0.0 -41.7819061,-20.5107565993792,0.0 -41.7818835,-20.5103530993792,0.0 -41.7819224,-20.5099628993792,0.0 -41.7816033,-20.5075587993793,0.0 -41.7815918,-20.5069241993793,0.0 -41.7815832,-20.5064482993793,0.0 -41.7815759,-20.5060444993793,0.0 -41.7817523,-20.5056376993793,0.0 -41.7818369,-20.5052323993793,0.0 -41.7819692,-20.5049273993793,0.0 -41.7822221,-20.5045193993794,0.0 -41.7823988,-20.5041269993794,0.0 -41.7816803,-20.5036392993794,0.0 -41.7814002,-20.5037010993794,0.0 -41.7809553,-20.5039015993794,0.0 -41.7806757,-20.5039919993794,0.0 -41.7803128,-20.5040980993794,0.0 -41.7799011,-20.5040330993794,0.0 -41.7797401,-20.5039568993794,0.0 -41.7795588,-20.5040170993794,0.0 -41.7794389,-20.5041120993794,0.0 -41.7792029,-20.5040943993794,0.0 -41.7789626,-20.5038331993794,0.0 -41.7787455,-20.5036003993794,0.0 -41.7784366,-20.5033331993794,0.0 -41.7782507,-20.5031355993794,0.0 -41.7777742,-20.5028495993794,0.0 -41.7773059,-20.5025920993794,0.0 -41.776876,-20.5023554993794,0.0 -41.776369,-20.5020627993794,0.0 -41.7760954,-20.5020671993794,0.0 -41.7758219,-20.5020715993794,0.0 -41.7756382,-20.5020028993794,0.0 -41.7752861,-20.5018652993794,0.0 -41.7749046,-20.5017854993794,0.0 -41.7747681,-20.5018019993794,0.0 -41.7746055,-20.5020623993794,0.0 -41.7744731,-20.5023079993794,0.0 -41.7740713,-20.5027870993794,0.0 -41.7736494,-20.5029943993794,0.0 -41.7731839,-20.5033169993794,0.0 -41.7727133,-20.5033530993794,0.0 -41.7721383,-20.5035055993794,0.0 -41.7719276,-20.5036234993794,0.0 -41.7714271,-20.5036887993794,0.0 -41.77123,-20.5037205993794,0.0 -41.7708619,-20.5035402993794,0.0 -41.7705106,-20.5034455993794,0.0 -41.7699809,-20.5035829993794,0.0 -41.7695997,-20.5035174993794,0.0 -41.7690945,-20.5033249993794,0.0 -41.7686958,-20.5031307993794,0.0 -41.7681615,-20.5030103993794,0.0 -41.7678429,-20.5030441993794,0.0 -41.7674959,-20.5031928993794,0.0 -41.7671919,-20.5031977993794,0.0 -41.7668571,-20.5031744993794,0.0 -41.7666299,-20.5032210993794,0.0 -41.7662365,-20.5033275993794,0.0 -41.7658133,-20.5034632993794,0.0 -41.7653725,-20.5034702993794,0.0 -41.7650382,-20.5034755993794,0.0 -41.7647502,-20.5035231993794,0.0 -41.76428,-20.5035879993794,0.0 -41.7636108,-20.5035699993794,0.0 -41.7632285,-20.5034471993794,0.0 -41.7630745,-20.5033349993794,0.0 -41.7626044,-20.5033997993794,0.0 -41.7623772,-20.5034463993794,0.0 -41.7620441,-20.5035232993794,0.0 -41.7616811,-20.5036293993794,0.0 -41.7613481,-20.5037062993794,0.0 -41.7609552,-20.5038414993794,0.0 -41.760609,-20.5040331993794,0.0 -41.7602908,-20.5040954993794,0.0 -41.7598341,-20.5040597993794,0.0 -41.7592409,-20.5040405993794,0.0 -41.7587538,-20.5040053993794,0.0 -41.7584044,-20.5040252993794,0.0 -41.7578591,-20.5041341993794,0.0 -41.7574346,-20.5041982993794,0.0 -41.7568289,-20.5043367993794,0.0 -41.7562972,-20.5043595993794,0.0 -41.7558091,-20.5042670993794,0.0 -41.7552895,-20.5041177993794,0.0 -41.755042,-20.5038781993794,0.0 -41.7547051,-20.5037402993794,0.0 -41.7541425,-20.5037348993794,0.0 -41.7538534,-20.5037251993794,0.0 -41.7535006,-20.5035445993794,0.0 -41.7532239,-20.5033770993794,0.0 -41.7526139,-20.5032720993794,0.0 -41.7522914,-20.5030910993794,0.0 -41.7520753,-20.5029082993794,0.0 -41.7518015,-20.5028982993794,0.0 -41.7508301,-20.5029852993794,0.0 -41.7501057,-20.5032832993794,0.0 -41.7492306,-20.5036551993794,0.0 -41.7481682,-20.5037579993794,0.0 -41.7473049,-20.5039435993794,0.0 -41.7465058,-20.5043142993794,0.0 -41.7458437,-20.5046971993794,0.0 -41.7453889,-20.5056211993793,0.0 -41.7451203,-20.5067569993793,0.0 -41.7446752,-20.5082250993793,0.0 -41.7444452,-20.5089735993792,0.0 -41.7443415,-20.5099778993792,0.0 -41.7440477,-20.5105554993792,0.0 -41.7431871,-20.5117436993792,0.0 -41.7430947,-20.5119110993792,0.0 -41.7428042,-20.5124372993792,0.0 -41.7421801,-20.5132492993791,0.0 -41.7417885,-20.5134559993791,0.0 -41.7412581,-20.5144097993791,0.0 -41.740636,-20.5153363993791,0.0 -41.7402268,-20.5162595993791,0.0 -41.7397166,-20.5166399993791,0.0 -41.7390603,-20.517015599379,0.0 -41.7383411,-20.517087299379,0.0 -41.7378716,-20.516792999379,0.0 -41.7371245,-20.5162013993791,0.0 -41.7369415,-20.5158120993791,0.0 -41.7365015,-20.5153816993791,0.0 -41.7358684,-20.5148938993791,0.0 -41.7349238,-20.5148936993791,0.0 -41.7338951,-20.5146685993791,0.0 -41.7328171,-20.5143687993791,0.0 -41.7322539,-20.5142116993791,0.0 -41.7318348,-20.5140523993791,0.0 -41.7314365,-20.5141642993791,0.0 -41.730593,-20.5144490993791,0.0 -41.7296537,-20.5147504993791,0.0 -41.7287622,-20.5150359993791,0.0 -41.728344,-20.5151784993791,0.0 -41.7280579,-20.5150170993791,0.0 -41.7276365,-20.5150020993791,0.0 -41.7274194,-20.5146375993791,0.0 -41.7272731,-20.5143947993791,0.0 -41.7271157,-20.5141337993791,0.0 -41.7267821,-20.5140593993791,0.0 -41.7267384,-20.5140496993791,0.0 -41.72639,-20.5139431993791,0.0 -41.72614,-20.5138071993791,0.0 -41.7257581,-20.5134867993791,0.0 -41.7250409,-20.5132368993791,0.0 -41.7245655,-20.5132256993791,0.0 -41.7239074,-20.5135251993791,0.0 -41.7234655,-20.5137279993791,0.0 -41.7233706,-20.5139626993791,0.0 -41.7233378,-20.5143455993791,0.0 -41.7231329,-20.5145166993791,0.0 -41.7228789,-20.5147072993791,0.0 -41.7223479,-20.5149114993791,0.0 -41.7220234,-20.5150377993791,0.0 -41.7217096,-20.5152106993791,0.0 -41.7213988,-20.5155512993791,0.0 -41.7212944,-20.5158047993791,0.0 -41.7211289,-20.5159659993791,0.0 -41.7209945,-20.5162012993791,0.0 -41.7205596,-20.5164369993791,0.0 -41.7202825,-20.5166335993791,0.0 -41.7199699,-20.5167425993791,0.0 -41.7196403,-20.5168518993791,0.0 -41.719133,-20.517003999379,0.0 -41.7186166,-20.517124199379,0.0 -41.7182422,-20.517105999379,0.0 -41.7177115,-20.517378599379,0.0 -41.7176595,-20.517413699379,0.0 -41.7172682,-20.517677499379,0.0 -41.7169929,-20.517955499379,0.0 -41.7169667,-20.517981999379,0.0 -41.7167429,-20.518208099379,0.0 -41.7163588,-20.518325999379,0.0 -41.7157477,-20.518067799379,0.0 -41.7157204,-20.518056199379,0.0 -41.71518,-20.517728899379,0.0 -41.7147324,-20.517614599379,0.0 -41.7143274,-20.517667599379,0.0 -41.7141125,-20.517829499379,0.0 -41.7139579,-20.518046499379,0.0 -41.7139417,-20.518251999379,0.0 -41.7139653,-20.518466099379,0.0 -41.714027,-20.518595699379,0.0 -41.7140489,-20.518716699379,0.0 -41.7141416,-20.518920399379,0.0 -41.7141449,-20.519106899379,0.0 -41.7141051,-20.519452899379,0.0 -41.7141291,-20.519777999379,0.0 -41.714172,-20.520148499379,0.0 -41.7141711,-20.520372299379,0.0 -41.7141697,-20.520708199379,0.0 -41.7139718,-20.5211738993789,0.0 -41.7136914,-20.5217721993789,0.0 -41.7135427,-20.5222770993789,0.0 -41.7136423,-20.5224239993789,0.0 -41.713816,-20.5226496993789,0.0 -41.7140233,-20.5227149993789,0.0 -41.7143756,-20.5227551993789,0.0 -41.7145971,-20.5229458993789,0.0 -41.7148305,-20.5231134993789,0.0 -41.7151751,-20.5234050993789,0.0 -41.7155157,-20.5234682993789,0.0 -41.7157488,-20.5236244993789,0.0 -41.7157282,-20.5238303993789,0.0 -41.7154805,-20.5242226993789,0.0 -41.7153041,-20.5245337993789,0.0 -41.7152005,-20.5248437993788,0.0 -41.7150467,-20.5250631993789,0.0 -41.7148321,-20.5252664993788,0.0 -41.7145159,-20.5252142993788,0.0 -41.7142805,-20.5252693993788,0.0 -41.7139802,-20.5254282993788,0.0 -41.7137545,-20.5256944993788,0.0 -41.7136612,-20.5259015993788,0.0 -41.7135046,-20.5263037993788,0.0 -41.7134222,-20.5264420993788,0.0 -41.7132085,-20.5267023993788,0.0 -41.712356,-20.5270247993788,0.0 -41.7119689,-20.5272469993788,0.0 -41.7115806,-20.5274052993788,0.0 -41.711195,-20.5277155993788,0.0 -41.7109345,-20.5278878993788,0.0 -41.7106458,-20.5279083993788,0.0 -41.7101539,-20.5279721993788,0.0 -41.709503,-20.5279881993788,0.0 -41.7091212,-20.5276515993788,0.0 -41.7087309,-20.5275205993788,0.0 -41.7082127,-20.5276999993788,0.0 -41.7075998,-20.5280065993788,0.0 -41.7072448,-20.5285031993788,0.0 -41.7064748,-20.5295317993787,0.0 -41.7058594,-20.5303865993787,0.0 -41.7057017,-20.5303832993787,0.0 -41.7050902,-20.5300844993787,0.0 -41.7041044,-20.5302197993787,0.0 -41.7019554,-20.5293623993787,0.0 -41.7008262,-20.5289231993787,0.0 -41.7005634,-20.5288015993788,0.0 -41.6984308,-20.5285321993788,0.0 -41.6980405,-20.5287437993788,0.0 -41.6975592,-20.5289511993788,0.0 -41.6971313,-20.5290948993787,0.0 -41.6966525,-20.5291023993787,0.0 -41.6952908,-20.5291647993787,0.0 -41.6942984,-20.5300298993787,0.0 -41.6938694,-20.5304591993787,0.0 -41.6932131,-20.5314058993787,0.0 -41.6926654,-20.5319797993787,0.0 -41.6921592,-20.5321532993787,0.0 -41.6917646,-20.5324677993787,0.0 -41.6912795,-20.5331549993786,0.0 -41.6908927,-20.5335720993786,0.0 -41.6907956,-20.5342589993786,0.0 -41.6909295,-20.5346166993786,0.0 -41.6911744,-20.5349591993786,0.0 -41.6911809,-20.5358506993786,0.0 -41.6910515,-20.5363373993786,0.0 -41.690841,-20.5366796993786,0.0 -41.6909857,-20.5372992993785,0.0 -41.6909577,-20.5378017993785,0.0 -41.6908636,-20.5382013993785,0.0 -41.6905553,-20.5385400993785,0.0 -41.6905222,-20.5402881993785,0.0 -41.6907387,-20.5408786993785,0.0 -41.6906259,-20.5413601993784,0.0 -41.6904552,-20.5420023993784,0.0 -41.6904565,-20.5427676993784,0.0 -41.6905422,-20.5435087993784,0.0 -41.6905278,-20.5440685993784,0.0 -41.6904833,-20.5442977993784,0.0 -41.6903541,-20.5445395993784,0.0 -41.6902818,-20.5445635993784,0.0 -41.6902258,-20.5446557993784,0.0 -41.6902398,-20.5454550993783,0.0 -41.6897176,-20.5461695993783,0.0 -41.6892694,-20.5468386993783,0.0 -41.6885109,-20.5471365993783,0.0 -41.6874136,-20.5474151993783,0.0 -41.686956,-20.5475530993783,0.0 -41.6866117,-20.5477137993783,0.0 -41.6862896,-20.5481519993783,0.0 -41.6855472,-20.5488746993783,0.0 -41.6849322,-20.5494400993782,0.0 -41.6843806,-20.5496611993782,0.0 -41.6842258,-20.5497370993782,0.0 -41.6840035,-20.5499285993782,0.0 -41.6838799,-20.5503064993782,0.0 -41.6838855,-20.5506251993782,0.0 -41.6840118,-20.5509011993782,0.0 -41.6839976,-20.5510812993782,0.0 -41.6838548,-20.5513531993782,0.0 -41.683668,-20.5515931993782,0.0 -41.6829879,-20.5519061993782,0.0 -41.6817955,-20.5522106993782,0.0 -41.6811302,-20.5523763993782,0.0 -41.6807484,-20.5523822993782,0.0 -41.679953,-20.5525580993782,0.0 -41.6790288,-20.5528093993782,0.0 -41.6783223,-20.5531064993781,0.0 -41.6778765,-20.5534239993781,0.0 -41.6773851,-20.5536113993781,0.0 -41.6768523,-20.5539138993781,0.0 -41.6760519,-20.5548009993781,0.0 -41.6754193,-20.5553502993781,0.0 -41.6746886,-20.5557538993781,0.0 -41.6743646,-20.5565845993781,0.0 -41.6741733,-20.557560299378,0.0 -41.6740286,-20.558224599378,0.0 -41.6737737,-20.558539199378,0.0 -41.6735013,-20.558845899378,0.0 -41.6728632,-20.559583199378,0.0 -41.6726453,-20.560027999378,0.0 -41.6723198,-20.560776899378,0.0 -41.6721696,-20.561122599378,0.0 -41.6720873,-20.5613771993779,0.0 -41.6721369,-20.5617360993779,0.0 -41.6722618,-20.5619303993779,0.0 -41.672447,-20.5620991993779,0.0 -41.6725113,-20.5623025993779,0.0 -41.6724621,-20.5624667993779,0.0 -41.6723637,-20.5627952993779,0.0 -41.672346,-20.5632778993779,0.0 -41.6724557,-20.5635949993779,0.0 -41.6727382,-20.5638685993779,0.0 -41.6727932,-20.5640393993779,0.0 -41.672754,-20.5642769993779,0.0 -41.6726971,-20.5644985993779,0.0 -41.6725324,-20.5650079993779,0.0 -41.672258,-20.5652001993778,0.0 -41.6713582,-20.5653693993779,0.0 -41.6711261,-20.5654955993778,0.0 -41.6708716,-20.5658346993778,0.0 -41.6705723,-20.5660926993778,0.0 -41.6701777,-20.5663603993778,0.0 -41.6698746,-20.5663977993778,0.0 -41.6697185,-20.5664083993778,0.0 -41.6694744,-20.5663466993778,0.0 -41.6693262,-20.5663080993778,0.0 -41.6691299,-20.5664991993778,0.0 -41.6690464,-20.5666884993778,0.0 -41.6689411,-20.5671233993778,0.0 -41.6689195,-20.5678756993778,0.0 -41.6690152,-20.5683892993778,0.0 -41.6690513,-20.5689690993778,0.0 -41.6690598,-20.5692059993778,0.0 -41.6690682,-20.5694428993778,0.0 -41.6689354,-20.5697882993777,0.0 -41.6688162,-20.5704195993777,0.0 -41.6689355,-20.5707937993777,0.0 -41.6690022,-20.5711360993777,0.0 -41.669014,-20.5713156993777,0.0 -41.6691927,-20.5716071993777,0.0 -41.6693448,-20.5718664993777,0.0 -41.6693708,-20.5723646993777,0.0 -41.6693405,-20.5731171993777,0.0 -41.6692406,-20.5738625993776,0.0 -41.6691695,-20.5742642993776,0.0 -41.6688872,-20.5745056993776,0.0 -41.6686987,-20.5746475993776,0.0 -41.6686421,-20.5748854993776,0.0 -41.6687454,-20.5753334993776,0.0 -41.6687415,-20.5756114993776,0.0 -41.6686519,-20.5759479993776,0.0 -41.6687464,-20.5763879993776,0.0 -41.6687062,-20.5765765993776,0.0 -41.6686833,-20.5767567993776,0.0 -41.668722,-20.5769850993776,0.0 -41.6687869,-20.5772211993776,0.0 -41.6689464,-20.5774066993775,0.0 -41.6691763,-20.5776483993775,0.0 -41.6692855,-20.5779409993775,0.0 -41.6692909,-20.5782514993775,0.0 -41.6690361,-20.5790728993775,0.0 -41.668747,-20.5799192993775,0.0 -41.6684984,-20.5800947993775,0.0 -41.6682838,-20.5802370993775,0.0 -41.667767,-20.5804657993775,0.0 -41.6673739,-20.5808233993775,0.0 -41.6670837,-20.5811057993775,0.0 -41.6667087,-20.5815038993775,0.0 -41.6664812,-20.5818997993774,0.0 -41.6661901,-20.5826317993774,0.0 -41.6657423,-20.5833416993774,0.0 -41.6655484,-20.5836716993774,0.0 -41.6648439,-20.5840912993774,0.0 -41.6647554,-20.5844931993774,0.0 -41.6647067,-20.5851886993774,0.0 -41.6646637,-20.5857125993773,0.0 -41.6645967,-20.5863511993773,0.0 -41.6644362,-20.5871056993773,0.0 -41.6642211,-20.5872152993773,0.0 -41.6639745,-20.5870147993773,0.0 -41.6637215,-20.5869368993773,0.0 -41.6635328,-20.5870705993773,0.0 -41.6633143,-20.5874826993773,0.0 -41.6631277,-20.5877389993773,0.0 -41.6630518,-20.5878627993773,0.0 -41.6633013,-20.5882348993773,0.0 -41.6636113,-20.5890884993773,0.0 -41.6639565,-20.5894754993773,0.0 -41.664181,-20.5899052993772,0.0 -41.6647871,-20.5903128993772,0.0 -41.66522,-20.5902489993772,0.0 -41.6653332,-20.5902635993772,0.0 -41.665972,-20.5905561993772,0.0 -41.6666883,-20.5913134993772,0.0 -41.6671868,-20.5920251993772,0.0 -41.6673146,-20.5928815993772,0.0 -41.6674767,-20.5934675993771,0.0 -41.667473,-20.5941908993771,0.0 -41.6674232,-20.5946362993771,0.0 -41.6673269,-20.5950607993771,0.0 -41.6670663,-20.5953087993771,0.0 -41.6666826,-20.5957593993771,0.0 -41.6661922,-20.5964792993771,0.0 -41.6658504,-20.5967951993771,0.0 -41.6658385,-20.5971059993771,0.0 -41.6659781,-20.5973980993771,0.0 -41.6659226,-20.597701399377,0.0 -41.6658909,-20.597873599377,0.0 -41.6659637,-20.598068599377,0.0 -41.6661651,-20.598163599377,0.0 -41.6665151,-20.598321699377,0.0 -41.6668562,-20.598471799377,0.0 -41.6672875,-20.598808399377,0.0 -41.6676586,-20.599178699377,0.0 -41.6679603,-20.599558299377,0.0 -41.6681679,-20.600012799377,0.0 -41.6681035,-20.600299899377,0.0 -41.6680749,-20.600651899377,0.0 -41.668035,-20.600856799377,0.0 -41.6679157,-20.600981299377,0.0 -41.6678916,-20.601096099377,0.0 -41.6676838,-20.601622499377,0.0 -41.6674809,-20.6019361993769,0.0 -41.6674668,-20.6021244993769,0.0 -41.6675985,-20.6027109993769,0.0 -41.6677696,-20.6035584993769,0.0 -41.6679339,-20.6040218993769,0.0 -41.668182,-20.6043122993769,0.0 -41.6686053,-20.6046899993769,0.0 -41.6687217,-20.6048925993769,0.0 -41.6686813,-20.6050648993769,0.0 -41.6685645,-20.6053363993769,0.0 -41.6684194,-20.6054775993768,0.0 -41.6683048,-20.6058798993768,0.0 -41.6683088,-20.6061087993768,0.0 -41.6684053,-20.6066630993768,0.0 -41.6683632,-20.6072359993768,0.0 -41.6683744,-20.6078815993768,0.0 -41.6685865,-20.6085894993768,0.0 -41.6686707,-20.6089396993768,0.0 -41.6688393,-20.6091495993768,0.0 -41.668984,-20.6094824993768,0.0 -41.6689027,-20.6097943993767,0.0 -41.6687484,-20.6099111993767,0.0 -41.6686423,-20.6102970993767,0.0 -41.668542,-20.6105192993767,0.0 -41.6683085,-20.6105719993767,0.0 -41.6677872,-20.6105554993767,0.0 -41.6672019,-20.6103437993767,0.0 -41.6667329,-20.6103346993767,0.0 -41.6664296,-20.6103720993767,0.0 -41.6660365,-20.6102309993767,0.0 -41.6655935,-20.6102214993767,0.0 -41.6651911,-20.6100478993767,0.0 -41.6648106,-20.6096368993768,0.0 -41.6644454,-20.6096015993768,0.0 -41.6641248,-20.6096392993768,0.0 -41.6638715,-20.6095532993768,0.0 -41.6635307,-20.6094276993768,0.0 -41.6630371,-20.6095006993768,0.0 -41.6623302,-20.6097895993767,0.0 -41.6619598,-20.6099587993767,0.0 -41.6614341,-20.6101793993767,0.0 -41.6609688,-20.6103826993767,0.0 -41.6606576,-20.6104610993767,0.0 -41.65986,-20.6105305993767,0.0 -41.6594952,-20.6105198993767,0.0 -41.6592793,-20.6105885993767,0.0 -41.6590808,-20.6106570993767,0.0 -41.658946,-20.6108961993767,0.0 -41.6589254,-20.6112070993767,0.0 -41.6590263,-20.6115161993767,0.0 -41.6592485,-20.6118151993767,0.0 -41.6599225,-20.6126304993767,0.0 -41.6601018,-20.6129546993767,0.0 -41.660309,-20.6133847993767,0.0 -41.6604965,-20.6136842993766,0.0 -41.6606843,-20.6140001993766,0.0 -41.6608563,-20.6144062993766,0.0 -41.6608824,-20.6149044993766,0.0 -41.6607045,-20.6151606993766,0.0 -41.66044,-20.6154263993766,0.0 -41.659841,-20.6154355993766,0.0 -41.6596502,-20.6154466993766,0.0 -41.6594631,-20.6156702993766,0.0 -41.6593202,-20.6159421993766,0.0 -41.6592923,-20.6163349993766,0.0 -41.6592203,-20.6166876993766,0.0 -41.6594078,-20.6169871993766,0.0 -41.6596662,-20.6173673993766,0.0 -41.6600057,-20.6179180993765,0.0 -41.6602493,-20.6184456993765,0.0 -41.6605628,-20.6189966993765,0.0 -41.6606548,-20.6192976993765,0.0 -41.6608131,-20.6199083993765,0.0 -41.6607032,-20.6201317993765,0.0 -41.6604937,-20.6203554993765,0.0 -41.6601558,-20.6207549993765,0.0 -41.6595281,-20.6214892993765,0.0 -41.6592883,-20.6218640993764,0.0 -41.6588127,-20.6224917993764,0.0 -41.6590212,-20.6227957993764,0.0 -41.6595163,-20.6229388993764,0.0 -41.6602824,-20.6238483993764,0.0 -41.6605582,-20.6242283993764,0.0 -41.6607799,-20.6244946993764,0.0 -41.6608642,-20.6246632993764,0.0 -41.6612545,-20.6247963993764,0.0 -41.662004,-20.6264785993763,0.0 -41.6620474,-20.6269765993763,0.0 -41.6618294,-20.6279199993763,0.0 -41.6617286,-20.6286163993763,0.0 -41.6620767,-20.6285851993763,0.0 -41.6626639,-20.6288956993763,0.0 -41.6632619,-20.6291260993763,0.0 -41.6638701,-20.6292535993763,0.0 -41.663947,-20.6294920993763,0.0 -41.6638205,-20.6298819993763,0.0 -41.6636236,-20.6304098993762,0.0 -41.6634385,-20.6309147993762,0.0 -41.6632764,-20.6313509993762,0.0 -41.6629065,-20.6316875993762,0.0 -41.6628405,-20.6320765993762,0.0 -41.6628693,-20.6326562993762,0.0 -41.6628054,-20.6328775993762,0.0 -41.6627091,-20.6330065993762,0.0 -41.6625951,-20.6331822993762,0.0 -41.6623595,-20.6334467993762,0.0 -41.6623582,-20.6337250993762,0.0 -41.662254,-20.6341035993761,0.0 -41.6621724,-20.6343714993761,0.0 -41.6620639,-20.6348156993761,0.0 -41.6619247,-20.6351715993761,0.0 -41.6617659,-20.6358016993761,0.0 -41.6612476,-20.6366654993761,0.0 -41.660591,-20.6372460993761,0.0 -41.6601838,-20.6375262993761,0.0 -41.6601911,-20.6379482993761,0.0 -41.6608936,-20.640002899376,0.0 -41.6612394,-20.640374099376,0.0 -41.6617047,-20.640640799376,0.0 -41.6623267,-20.640859399376,0.0 -41.6626975,-20.641264499376,0.0 -41.6630062,-20.641590599376,0.0 -41.6632869,-20.641700399376,0.0 -41.663655,-20.6419571993759,0.0 -41.663995,-20.6426821993759,0.0 -41.6642852,-20.6433394993759,0.0 -41.6644027,-20.6438169993759,0.0 -41.6647009,-20.6442345993759,0.0 -41.6649492,-20.6445730993759,0.0 -41.6650525,-20.6449365993759,0.0 -41.6652433,-20.6454471993759,0.0 -41.6654245,-20.6461061993758,0.0 -41.665434,-20.6466537993758,0.0 -41.6655401,-20.6471769993758,0.0 -41.6657158,-20.6475165993758,0.0 -41.6660782,-20.6481385993758,0.0 -41.6663758,-20.6485219993758,0.0 -41.6663314,-20.6488869993758,0.0 -41.6659943,-20.6495353993758,0.0 -41.6659342,-20.6499271993758,0.0 -41.6660872,-20.6502527993757,0.0 -41.6660927,-20.6505679993757,0.0 -41.6659377,-20.6508982993757,0.0 -41.6648675,-20.6517596993757,0.0 -41.6648138,-20.6516564993757,0.0 -41.6647021,-20.6515920993757,0.0 -41.6644974,-20.6515667993757,0.0 -41.6643401,-20.6515755993757,0.0 -41.6640749,-20.6515449993757,0.0 -41.663934,-20.6515281993757,0.0 -41.6638711,-20.6515733993757,0.0 -41.6637784,-20.6516346993757,0.0 -41.6636657,-20.6517057993757,0.0 -41.6634964,-20.6517934993757,0.0 -41.6632738,-20.6518978993757,0.0 -41.6631011,-20.6519793993757,0.0 -41.6628959,-20.6521211993757,0.0 -41.6627136,-20.6522343993757,0.0 -41.6625335,-20.6522781993757,0.0 -41.662347,-20.6523377993757,0.0 -41.662281,-20.6523955993757,0.0 -41.6622329,-20.6525192993757,0.0 -41.6622124,-20.6526897993757,0.0 -41.6621867,-20.6529424993757,0.0 -41.6621687,-20.6530625993757,0.0 -41.6620779,-20.6532373993757,0.0 -41.6620239,-20.6534052993757,0.0 -41.6619797,-20.6535604993757,0.0 -41.6619565,-20.6537657993757,0.0 -41.6619593,-20.6539264993757,0.0 -41.6619549,-20.6540557993757,0.0 -41.6619196,-20.6541477993757,0.0 -41.6618408,-20.6542372993756,0.0 -41.6617352,-20.6543271993756,0.0 -41.6616455,-20.6543695993756,0.0 -41.6615659,-20.6544180993756,0.0 -41.6614891,-20.6544318993756,0.0 -41.6612943,-20.6544033993756,0.0 -41.6611223,-20.6543334993756,0.0 -41.6610519,-20.6543314993756,0.0 -41.6609047,-20.6543431993756,0.0 -41.6607348,-20.6543962993756,0.0 -41.6606076,-20.6543981993756,0.0 -41.6603269,-20.6544371993756,0.0 -41.6600927,-20.6544534993756,0.0 -41.6598347,-20.6544479993756,0.0 -41.6595726,-20.6544015993756,0.0 -41.6593601,-20.6543165993756,0.0 -41.6591565,-20.6541683993756,0.0 -41.6590654,-20.6541287993756,0.0 -41.658874,-20.6541001993757,0.0 -41.6587836,-20.6541047993756,0.0 -41.6585085,-20.6540805993756,0.0 -41.6583234,-20.6540266993757,0.0 -41.6580867,-20.6539010993757,0.0 -41.6579458,-20.6536983993757,0.0 -41.6576879,-20.6533113993757,0.0 -41.657505,-20.6530051993757,0.0 -41.6573426,-20.6527144993757,0.0 -41.6572273,-20.6524450993757,0.0 -41.6570892,-20.6518229993757,0.0 -41.6570451,-20.6515966993757,0.0 -41.6569837,-20.6513390993757,0.0 -41.6568613,-20.6510414993757,0.0 -41.6566761,-20.6505997993757,0.0 -41.6565139,-20.6503279993757,0.0 -41.656365,-20.6500496993758,0.0 -41.6562759,-20.6499311993758,0.0 -41.655956,-20.6496397993758,0.0 -41.6558439,-20.6495531993758,0.0 -41.6556993,-20.6495175993758,0.0 -41.6555089,-20.6495488993758,0.0 -41.655266,-20.6496408993758,0.0 -41.6550663,-20.6497164993758,0.0 -41.6549264,-20.6497596993758,0.0 -41.6548269,-20.6498147993758,0.0 -41.6547253,-20.6499455993758,0.0 -41.6546104,-20.6500797993758,0.0 -41.6544283,-20.6501992993757,0.0 -41.6541491,-20.6503264993757,0.0 -41.6538664,-20.6504443993757,0.0 -41.6535346,-20.6506260993757,0.0 -41.6532933,-20.6508094993757,0.0 -41.6531118,-20.6509667993757,0.0 -41.6530035,-20.6510944993757,0.0 -41.6529615,-20.6511834993757,0.0 -41.6529339,-20.6513288993757,0.0 -41.6528822,-20.6515457993757,0.0 -41.652854,-20.6517702993757,0.0 -41.652844,-20.6519815993757,0.0 -41.6529516,-20.6521177993757,0.0 -41.6531044,-20.6522145993757,0.0 -41.6533111,-20.6522501993757,0.0 -41.6534101,-20.6521538993757,0.0 -41.6536263,-20.6519479993757,0.0 -41.6538268,-20.6518931993757,0.0 -41.6540705,-20.6519540993757,0.0 -41.6542022,-20.6521588993757,0.0 -41.6542741,-20.6526059993757,0.0 -41.6543754,-20.6529017993757,0.0 -41.6545687,-20.6532262993757,0.0 -41.6547223,-20.6536333993757,0.0 -41.6548851,-20.6540444993757,0.0 -41.6549966,-20.6544004993756,0.0 -41.6551574,-20.6546953993756,0.0 -41.655293,-20.6548570993756,0.0 -41.6554105,-20.6550318993756,0.0 -41.6554824,-20.6552203993756,0.0 -41.6555875,-20.6554687993756,0.0 -41.6556836,-20.6557301993756,0.0 -41.6557988,-20.6560342993756,0.0 -41.6559913,-20.6563114993756,0.0 -41.6561193,-20.6565637993756,0.0 -41.6561702,-20.6568602993756,0.0 -41.6562904,-20.6571902993756,0.0 -41.6563897,-20.6575033993756,0.0 -41.6564406,-20.6577955993756,0.0 -41.6565445,-20.6579749993756,0.0 -41.6566112,-20.6581290993756,0.0 -41.6566911,-20.6585070993755,0.0 -41.6567395,-20.6586614993755,0.0 -41.65676,-20.6587831993755,0.0 -41.6568138,-20.6589117993755,0.0 -41.6568949,-20.6590237993755,0.0 -41.6570631,-20.6592088993755,0.0 -41.6571166,-20.6593180993755,0.0 -41.6571677,-20.6594888993755,0.0 -41.6571539,-20.6596800993755,0.0 -41.6570931,-20.6599430993755,0.0 -41.6570479,-20.6601088993755,0.0 -41.6569427,-20.6603920993755,0.0 -41.6568532,-20.6605811993755,0.0 -41.6567254,-20.6607481993755,0.0 -41.6566448,-20.6608561993755,0.0 -41.6560715,-20.6610074993755,0.0 -41.6557175,-20.6612200993755,0.0 -41.6554463,-20.6614442993755,0.0 -41.6552827,-20.6615244993755,0.0 -41.6551192,-20.6616176993755,0.0 -41.6550527,-20.6617480993755,0.0 -41.6549574,-20.6618013993755,0.0 -41.6546686,-20.6618057993755,0.0 -41.6544394,-20.6620682993754,0.0 -41.6542777,-20.6622649993755,0.0 -41.654433,-20.6626033993754,0.0 -41.6546134,-20.6632388993754,0.0 -41.654653,-20.6637459993754,0.0 -41.6548566,-20.6639458993754,0.0 -41.6548996,-20.6642063993754,0.0 -41.6548025,-20.6644179993754,0.0 -41.6547958,-20.6644327993754,0.0 -41.6547775,-20.6644726993754,0.0 -41.6546919,-20.6646592993754,0.0 -41.6544409,-20.6648298993754,0.0 -41.653822,-20.6650932993754,0.0 -41.6531807,-20.6650949993754,0.0 -41.652858,-20.6651289993754,0.0 -41.6526812,-20.6651461993754,0.0 -41.6524661,-20.6651656993754,0.0 -41.6525745,-20.6656482993754,0.0 -41.6530674,-20.6661048993754,0.0 -41.6537895,-20.6664636993754,0.0 -41.6548835,-20.6665193993753,0.0 -41.6553657,-20.6665233993753,0.0 -41.6557997,-20.6665269993753,0.0 -41.6560062,-20.6664512993753,0.0 -41.656305,-20.6663741993753,0.0 -41.6567373,-20.6659975993754,0.0 -41.6573244,-20.6656766993754,0.0 -41.6579343,-20.6653408993754,0.0 -41.6588165,-20.6647485993754,0.0 -41.6593644,-20.6644908993754,0.0 -41.6602131,-20.6642576993754,0.0 -41.6605402,-20.6640843993754,0.0 -41.6610867,-20.6638687993754,0.0 -41.662267,-20.6637210993754,0.0 -41.663214,-20.6636028993754,0.0 -41.664159,-20.6633682993754,0.0 -41.6650144,-20.6635232993754,0.0 -41.66589,-20.6640405993754,0.0 -41.6664067,-20.6644856993754,0.0 -41.6686739,-20.6659263993754,0.0 -41.6694395,-20.6664452993753,0.0 -41.670741,-20.6677196993753,0.0 -41.6709504,-20.6678976993753,0.0 -41.671475,-20.6680060993753,0.0 -41.6719443,-20.6681023993753,0.0 -41.6721896,-20.6679690993753,0.0 -41.6725435,-20.6677564993753,0.0 -41.6728376,-20.6674670993753,0.0 -41.6733118,-20.6670519993753,0.0 -41.67435,-20.6666474993753,0.0 -41.6747749,-20.6665567993753,0.0 -41.6754867,-20.6663644993753,0.0 -41.6758801,-20.6664424993753,0.0 -41.6762901,-20.6666820993753,0.0 -41.6770001,-20.6667746993753,0.0 -41.6775351,-20.6666951993753,0.0 -41.6784171,-20.6663966993753,0.0 -41.6787879,-20.6663649993753,0.0 -41.6798245,-20.6662582993753,0.0 -41.6807225,-20.6660889993754,0.0 -41.6809754,-20.6660008993754,0.0 -41.6812706,-20.6659703993754,0.0 -41.6817105,-20.6659570993754,0.0 -41.6823467,-20.6657659993754,0.0 -41.6828234,-20.6654995993754,0.0 -41.6832719,-20.6651883993754,0.0 -41.6837522,-20.6653232993754,0.0 -41.6846623,-20.6654515993754,0.0 -41.6852297,-20.6656498993754,0.0 -41.6858661,-20.6658599993754,0.0 -41.6862052,-20.6663725993753,0.0 -41.6863933,-20.6669003993753,0.0 -41.6865819,-20.6674540993753,0.0 -41.6868477,-20.6677088993753,0.0 -41.6876782,-20.6680065993753,0.0 -41.6891478,-20.6678800993753,0.0 -41.6901173,-20.6674765993753,0.0 -41.6906824,-20.6675454993753,0.0 -41.6917871,-20.6677871993753,0.0 -41.6925635,-20.6681374993753,0.0 -41.6929304,-20.6686624993753,0.0 -41.6931027,-20.6690740993753,0.0 -41.6932702,-20.6692138993753,0.0 -41.693559,-20.6692093993753,0.0 -41.6944478,-20.6689106993753,0.0 -41.6952321,-20.6689242993753,0.0 -41.6957228,-20.6686706993753,0.0 -41.696106,-20.6685610993753,0.0 -41.6965272,-20.6682696993753,0.0 -41.6969918,-20.6680940993753,0.0 -41.6974531,-20.6677373993753,0.0 -41.6975375,-20.6670628993753,0.0 -41.6976147,-20.6667639993753,0.0 -41.698366,-20.6656906993754,0.0 -41.6996975,-20.6655403993754,0.0 -41.6998651,-20.6656801993754,0.0 -41.7001272,-20.6665045993753,0.0 -41.7001332,-20.6668409993753,0.0 -41.7003866,-20.6671736993753,0.0 -41.7004898,-20.6675603993753,0.0 -41.7007201,-20.6681392993753,0.0 -41.7019487,-20.6683918993753,0.0 -41.703074,-20.6697982993753,0.0 -41.704214,-20.6712561993752,0.0 -41.7046015,-20.6713924993752,0.0 -41.7068936,-20.6718871993752,0.0 -41.7072782,-20.6718857993752,0.0 -41.7074117,-20.6717814993752,0.0 -41.7074077,-20.6715551993752,0.0 -41.7075223,-20.6714366993752,0.0 -41.7075976,-20.6711610993752,0.0 -41.7075962,-20.6710855993752,0.0 -41.7078282,-20.6710133993752,0.0 -41.707902,-20.6709803993752,0.0 -41.7079723,-20.6708742993752,0.0 -41.7080197,-20.6707715993752,0.0 -41.7080465,-20.6705776993752,0.0 -41.7080419,-20.6703169993753,0.0 -41.7080203,-20.6699193993753,0.0 -41.708004,-20.6694118993753,0.0 -41.7079908,-20.6690826993753,0.0 -41.7080541,-20.6689513993753,0.0 -41.7082183,-20.6687566993753,0.0 -41.7086497,-20.6684136993753,0.0 -41.7087716,-20.6683019993753,0.0 -41.7089443,-20.6681688993753,0.0 -41.7090712,-20.6679267993753,0.0 -41.7092323,-20.6671488993753,0.0 -41.7094727,-20.6663148993754,0.0 -41.7096832,-20.6661334993754,0.0 -41.710056,-20.6658183993754,0.0 -41.7104426,-20.6657185993754,0.0 -41.710798,-20.6655442993754,0.0 -41.7111441,-20.6654123993754,0.0 -41.7113109,-20.6652691993754,0.0 -41.7114655,-20.6650042993754,0.0 -41.7115232,-20.6646049993754,0.0 -41.7112918,-20.6643329993754,0.0 -41.7111673,-20.6641735993754,0.0 -41.7108535,-20.6639288993754,0.0 -41.7105828,-20.6636261993754,0.0 -41.7104122,-20.6633582993754,0.0 -41.7102413,-20.6630748993754,0.0 -41.7099775,-20.6628448993754,0.0 -41.7100929,-20.6625172993754,0.0 -41.7103826,-20.6621187993755,0.0 -41.7107491,-20.6620991993755,0.0 -41.7111956,-20.6620297993754,0.0 -41.7114224,-20.6617296993755,0.0 -41.7115816,-20.6613525993755,0.0 -41.7117632,-20.6609959993755,0.0 -41.7121,-20.6606680993755,0.0 -41.7124167,-20.6604446993755,0.0 -41.7127725,-20.6602517993755,0.0 -41.7131823,-20.6599851993755,0.0 -41.7142869,-20.6593122993755,0.0 -41.7146806,-20.6590719993755,0.0 -41.7149909,-20.6588017993755,0.0 -41.7152589,-20.6586466993755,0.0 -41.7153848,-20.6585770993755,0.0 -41.7155878,-20.6584906993755,0.0 -41.7158033,-20.6584872993755,0.0 -41.7160413,-20.6585042993755,0.0 -41.7164036,-20.6586754993755,0.0 -41.7165493,-20.6587876993755,0.0 -41.7168617,-20.6589491993755,0.0 -41.7170134,-20.6590872993755,0.0 -41.7172868,-20.6592285993755,0.0 -41.717459,-20.6592779993755,0.0 -41.7176869,-20.6593523993755,0.0 -41.7179094,-20.6594320993755,0.0 -41.7181398,-20.6596417993755,0.0 -41.7182638,-20.6597750993755,0.0 -41.7183909,-20.6597730993755,0.0 -41.7185419,-20.6595625993755,0.0 -41.7186207,-20.6593324993755,0.0 -41.7191385,-20.6586115993755,0.0 -41.7195243,-20.6582412993755,0.0 -41.7198011,-20.6578997993756,0.0 -41.7197205,-20.6574711993756,0.0 -41.7196178,-20.6569380993756,0.0 -41.7197908,-20.6561772993756,0.0 -41.7201282,-20.6556053993756,0.0 -41.7207669,-20.6548132993756,0.0 -41.7212172,-20.6543912993756,0.0 -41.7214076,-20.6541328993756,0.0 -41.7214799,-20.6539082993757,0.0 -41.7222076,-20.6540683993756,0.0 -41.7228655,-20.6538824993757,0.0 -41.7239488,-20.6535781993757,0.0 -41.7241952,-20.6532014993757,0.0 -41.7245014,-20.6524821993757,0.0 -41.7243785,-20.6517591993757,0.0 -41.7242472,-20.6511813993757,0.0 -41.7239389,-20.6505545993757,0.0 -41.7237355,-20.6496360993758,0.0 -41.7242552,-20.6491618993758,0.0 -41.724976,-20.6482495993758,0.0 -41.7250178,-20.6478320993758,0.0 -41.7253722,-20.6476941993758,0.0 -41.7261961,-20.6478032993758,0.0 -41.727559,-20.6478122993758,0.0 -41.7282284,-20.6477507993758,0.0 -41.7288036,-20.6478638993758,0.0 -41.729436,-20.6481057993758,0.0 -41.7297747,-20.6479695993758,0.0 -41.7303556,-20.6479604993758,0.0 -41.7306684,-20.6477889993758,0.0 -41.7312181,-20.6474473993758,0.0 -41.731879,-20.6469612993758,0.0 -41.7321656,-20.6467426993758,0.0 -41.7326288,-20.6465613993758,0.0 -41.7329816,-20.6463623993758,0.0 -41.7331369,-20.6461643993758,0.0 -41.7332922,-20.6459664993759,0.0 -41.7336106,-20.6453822993759,0.0 -41.7337839,-20.6446955993759,0.0 -41.7339372,-20.6440866993759,0.0 -41.7340784,-20.6435017993759,0.0 -41.7343978,-20.6429972993759,0.0 -41.7346706,-20.6420059993759,0.0 -41.7351225,-20.641844299376,0.0 -41.7356302,-20.641978899376,0.0 -41.7359603,-20.6420746993759,0.0 -41.7365789,-20.642052999376,0.0 -41.7367739,-20.642008299376,0.0 -41.737031,-20.641903199376,0.0 -41.73725,-20.641786699376,0.0 -41.7375232,-20.641526699376,0.0 -41.737627,-20.641328899376,0.0 -41.737709,-20.640964899376,0.0 -41.7379259,-20.640735499376,0.0 -41.7380483,-20.640513599376,0.0 -41.7381876,-20.640184399376,0.0 -41.7384077,-20.639776599376,0.0 -41.7385157,-20.639459799376,0.0 -41.7386795,-20.639082599376,0.0 -41.7389153,-20.638846999376,0.0 -41.7393087,-20.638596999376,0.0 -41.7399821,-20.638461399376,0.0 -41.7404547,-20.638400399376,0.0 -41.7410089,-20.638308399376,0.0 -41.7413552,-20.638249399376,0.0 -41.7416533,-20.638321899376,0.0 -41.7418207,-20.638497599376,0.0 -41.7419952,-20.638720799376,0.0 -41.7421549,-20.638819299376,0.0 -41.7422842,-20.638983699376,0.0 -41.7423579,-20.639220399376,0.0 -41.7425003,-20.639414299376,0.0 -41.7427681,-20.639552799376,0.0 -41.7430795,-20.639660799376,0.0 -41.7434539,-20.639755899376,0.0 -41.7439869,-20.639896099376,0.0 -41.7445459,-20.640071499376,0.0 -41.7449276,-20.640225899376,0.0 -41.7452028,-20.640423699376,0.0 -41.7458588,-20.640026799376,0.0 -41.7464837,-20.639654199376,0.0 -41.7469641,-20.639325499376,0.0 -41.7474955,-20.639019699376,0.0 -41.7479572,-20.638703199376,0.0 -41.7483233,-20.638691399376,0.0 -41.7486856,-20.638816499376,0.0 -41.7489661,-20.638960599376,0.0 -41.7491953,-20.639063999376,0.0 -41.7493563,-20.639233899376,0.0 -41.7495173,-20.639409699376,0.0 -41.7497341,-20.639525099376,0.0 -41.7499746,-20.639550999376,0.0 -41.7502691,-20.639421499376,0.0 -41.7507148,-20.639265699376,0.0 -41.7508183,-20.639049999376,0.0 -41.7508117,-20.638685899376,0.0 -41.7508056,-20.638348299376,0.0 -41.750939,-20.638008499376,0.0 -41.7509606,-20.6375437993761,0.0 -41.7509261,-20.6367374993761,0.0 -41.7521756,-20.6359276993761,0.0 -41.7530294,-20.6353854993761,0.0 -41.753669,-20.6349948993761,0.0 -41.7545893,-20.6342962993761,0.0 -41.7548028,-20.6341154993761,0.0 -41.7548457,-20.6335924993762,0.0 -41.7547111,-20.6331000993762,0.0 -41.7545571,-20.6328181993762,0.0 -41.7542712,-20.6324978993762,0.0 -41.7536907,-20.6319469993762,0.0 -41.7536924,-20.6317482993762,0.0 -41.7535906,-20.6313261993762,0.0 -41.7534052,-20.6309151993762,0.0 -41.753342,-20.6305389993762,0.0 -41.753466,-20.6302243993762,0.0 -41.7534738,-20.6300764993763,0.0 -41.7533719,-20.6298336993763,0.0 -41.7532875,-20.6296347993763,0.0</coordinates>
</LinearRing>
</outerBoundaryIs>
</Polygon>
</MultiGeometry>
</Placemark>
</Folder>
</Document></kml>
